{"type": "FeatureCollection", "generator": "kokudo-quiz tools/fetch_raw.py (Overpass API)", "copyright": "The data included in this document is from www.openstreetmap.org. The data is made available under ODbL.", "timestamp": "2026-09-30T14:37:59Z", "features": [{"type": "Feature", "properties": {"@id": "relation/2988615", "colour": "red", "from": "青森県青森市", "name": "国道103号", "name:en": "National Highway Route 103", "name:ja": "国道103号", "name:ja-Hira": "こくどうひゃくさんごう", "name:ja-Latn": "kokudou 103 gou", "network": "JP:national", "official_name": "一般国道103号", "operator": "青森県;秋田県", "ref": "103", "route": "road", "to": "秋田県大館市", "type": "route", "wikidata": "Q6156705", "wikipedia": "ja:国道103号"}, "geometry": {"type": "MultiLineString", "coordinates": [[[140.7503626, 40.8234165], [140.7503634, 40.8232978], [140.7503645, 40.8231977], [140.750357, 40.8228617], [140.7503588, 40.8225681], [140.7503595, 40.8224499], [140.7503609, 40.8222157], [140.7503968, 40.8219497], [140.7504054, 40.8218847], [140.7504292, 40.8217049], [140.7504407, 40.821615], [140.7504576, 40.8214889], [140.7504753, 40.8213426], [140.7504937, 40.8211905], [140.7505267, 40.8209228], [140.7505385, 40.8208282], [140.7505589, 40.820689], [140.7505788, 40.8205502], [140.7505914, 40.8204712], [140.7506251, 40.8202567], [140.7506312, 40.82021], [140.7507093, 40.8196999], [140.750711, 40.8196863], [140.7507392, 40.8194692], [140.7508309, 40.8187962], [140.7508854, 40.8183428], [140.7508916, 40.8182739], [140.7509046, 40.818188], [140.7509749, 40.8177242], [140.7510061, 40.8174928], [140.7510418, 40.8172588], [140.7510444, 40.8172419], [140.7511029, 40.8168585], [140.7511389, 40.8167447], [140.7511777, 40.8166808], [140.7512686, 40.816564], [140.7513685, 40.8164538], [140.7514766, 40.8163099], [140.7517398, 40.8158674], [140.7521247, 40.8151864], [140.7521882, 40.8150754], [140.7522615, 40.8149385], [140.7523061, 40.8148612], [140.7523111, 40.8148525], [140.7524042, 40.8146913], [140.7525356, 40.8144714], [140.7526135, 40.8143368], [140.7535092, 40.8128021], [140.7535808, 40.8125838], [140.7535995, 40.8124111], [140.7535808, 40.8122214], [140.7534195, 40.811368], [140.7534048, 40.8112534], [140.7534071, 40.8111607], [140.7534202, 40.8110843], [140.7536264, 40.8103701], [140.7538878, 40.8096191], [140.75391, 40.8095553], [140.7539201, 40.8095255], [140.7539308, 40.8094938], [140.7540178, 40.8092367], [140.754069, 40.8090737], [140.7541746, 40.8087604], [140.7542195, 40.8086271], [140.7542776, 40.8084486], [140.754321, 40.8083258], [140.7544073, 40.8080921], [140.7544781, 40.8079006], [140.754681, 40.8073553], [140.7547644, 40.8071312], [140.754803, 40.8070274], [140.7548163, 40.8069917], [140.7549021, 40.8067609], [140.7550836, 40.8062733], [140.7551301, 40.8061484], [140.7551588, 40.8060741], [140.755236, 40.8058746], [140.7552526, 40.8058271], [140.7553524, 40.8055407], [140.7554524, 40.8052537], [140.7555316, 40.8050266], [140.7556089, 40.8048205], [140.7558134, 40.8042753], [140.7560492, 40.8036291], [140.7561067, 40.8034716], [140.7561436, 40.8033694], [140.7561947, 40.8032277], [140.7562434, 40.8030927], [140.756291, 40.8029607], [140.7563307, 40.8028506], [140.7563945, 40.8026852], [140.7566026, 40.8021378], [140.7567214, 40.8018058], [140.7568489, 40.8014509], [140.7569878, 40.8010718], [140.7570957, 40.800774], [140.7571809, 40.8005348], [140.7572788, 40.8002599], [140.7573492, 40.8000521], [140.7574128, 40.7998643], [140.7574619, 40.7997315], [140.7577898, 40.7988448], [140.7578926, 40.7985761], [140.7579985, 40.7982993], [140.7580271, 40.7982228], [140.7582776, 40.7975541], [140.7584156, 40.7971858], [140.7584472, 40.7970944], [140.758575, 40.7967367], [140.7587079, 40.7963649], [140.7588354, 40.7960081], [140.7589286, 40.7957746], [140.7590396, 40.7954397], [140.7590845, 40.795304], [140.7592386, 40.79486], [140.7592811, 40.7947423], [140.7593722, 40.7945163], [140.7594383, 40.7943488], [140.7595351, 40.7941036], [140.7596134, 40.7938692], [140.7596712, 40.7936753], [140.759709, 40.7935636], [140.759734, 40.7934868], [140.7597434, 40.793458], [140.7599323, 40.7930186], [140.7599688, 40.7929337], [140.7601541, 40.7925261], [140.7601684, 40.7924945], [140.7602637, 40.7922847], [140.7602855, 40.7922397], [140.7604027, 40.7919672], [140.7604916, 40.7917762], [140.7606992, 40.7913302], [140.7607795, 40.7911576], [140.7608735, 40.790963], [140.7609911, 40.7907193], [140.7610008, 40.790698], [140.7612941, 40.7900551], [140.7613999, 40.7898173], [140.7616415, 40.789295], [140.7617393, 40.7890834], [140.7617975, 40.788956], [140.7618839, 40.7887608], [140.7620342, 40.7884213], [140.7622817, 40.7878624], [140.7623372, 40.7877371], [140.7625819, 40.7871792], [140.7627356, 40.7868468], [140.7630768, 40.7861077], [140.7632472, 40.7857325], [140.7632735, 40.7856747], [140.7633533, 40.785499], [140.7634477, 40.7852618], [140.763485, 40.7851566], [140.7635309, 40.7850271], [140.7635523, 40.7849416], [140.7636154, 40.7846112], [140.7636439, 40.7844483], [140.7636567, 40.7843453], [140.7636433, 40.7840849], [140.7636148, 40.7838734], [140.7635706, 40.7835012], [140.763533, 40.7834011], [140.7634371, 40.7831455], [140.7632457, 40.7827024], [140.7632081, 40.7826181], [140.7629281, 40.7819321], [140.7627125, 40.7814052], [140.7625888, 40.7810611], [140.7625269, 40.7808183], [140.7624975, 40.7806638], [140.7624717, 40.7804209], [140.7624708, 40.7801486], [140.7624993, 40.7797765], [140.762547, 40.7794875], [140.7626824, 40.7789163], [140.7628696, 40.7780276], [140.7629954, 40.7774359], [140.7630963, 40.7769113], [140.7632272, 40.7763362], [140.7632756, 40.7761641], [140.7634378, 40.7753709], [140.7635133, 40.7749798], [140.763695, 40.7739373], [140.7637335, 40.7736811], [140.7638272, 40.7730142], [140.7639052, 40.7725121], [140.7639268, 40.7724163], [140.7640123, 40.7719446], [140.7641347, 40.7716618], [140.7642822, 40.7714573], [140.7644172, 40.7712719], [140.764521, 40.7711007], [140.7648184, 40.7708176], [140.764901, 40.770731], [140.765099, 40.770598], [140.765342, 40.770471], [140.76566, 40.770314], [140.7668046, 40.7698349], [140.7684484, 40.769131], [140.7689974, 40.7688799], [140.7692536, 40.76873], [140.7694917, 40.7685718], [140.769747, 40.7683668], [140.769973, 40.7681503], [140.7702085, 40.7678391], [140.7704173, 40.7674466], [140.7705042, 40.7672262], [140.7705938, 40.7669107], [140.7706556, 40.7666191], [140.7710592, 40.7649062], [140.7713024, 40.7638519], [140.7714746, 40.7631169], [140.7716493, 40.7623859], [140.7718594, 40.7614694], [140.7719843, 40.760694], [140.7720847, 40.760392], [140.7721977, 40.7600877], [140.7723075, 40.7598262], [140.7724833, 40.7595457], [140.7725775, 40.7593579], [140.772772, 40.7591297], [140.7731079, 40.7587374], [140.7743726, 40.7573551], [140.7748483, 40.7568352], [140.7750316, 40.7565968], [140.7751704, 40.7563953], [140.7752783, 40.7561983], [140.77537, 40.7560073], [140.775425, 40.7558732], [140.7754892, 40.7557028], [140.7755711, 40.7554311], [140.775655, 40.7551148], [140.775751, 40.754628], [140.7758368, 40.7541702], [140.7759418, 40.7536513], [140.7760226, 40.7533177], [140.776098, 40.75308], [140.7762396, 40.7526346], [140.7763526, 40.7524088], [140.7765628, 40.7520402], [140.7767041, 40.7519], [140.7770336, 40.7515196], [140.7774856, 40.7510464], [140.7777084, 40.7507825], [140.7781321, 40.7503379], [140.7783267, 40.750181], [140.7784836, 40.7500526], [140.7787504, 40.7498481], [140.7790799, 40.749627], [140.7794503, 40.7493916], [140.7798363, 40.7491134], [140.780304, 40.7488186], [140.7806806, 40.7485142], [140.7808626, 40.7483644], [140.781189, 40.7480862], [140.781321, 40.747933], [140.781447, 40.747798], [140.7820374, 40.7470595], [140.782059, 40.747008], [140.7823924, 40.7465813], [140.7825452, 40.7464532], [140.7830257, 40.7461765], [140.7831719, 40.7460887], [140.78334, 40.745934], [140.783887, 40.745275], [140.784183, 40.744942], [140.784567, 40.744588], [140.7850397, 40.7440516], [140.7853039, 40.7436783], [140.7854865, 40.7433649], [140.7856984, 40.7428875], [140.785795, 40.742641], [140.785817, 40.742489], [140.78581, 40.74219], [140.785765, 40.741819], [140.785726, 40.741594], [140.785706, 40.741486], [140.785581, 40.741053], [140.785426, 40.740648], [140.784989, 40.739741], [140.784884, 40.739378], [140.784729, 40.73897], [140.784611, 40.738587], [140.7842597, 40.7377155], [140.7840149, 40.7369307], [140.783938, 40.7366738], [140.7839198, 40.7364538], [140.7839106, 40.7363453], [140.784105, 40.7361575], [140.784293, 40.736047], [140.784493, 40.735985], [140.7848081, 40.7359654], [140.7853402, 40.7360034], [140.7856509, 40.7361057], [140.7858659, 40.7361426], [140.7861233, 40.736246], [140.7864466, 40.7362728], [140.7866836, 40.7363001], [140.7869394, 40.7362544], [140.787094, 40.7361949], [140.7873208, 40.736032], [140.787666, 40.735732], [140.787918, 40.735575], [140.788073, 40.735496], [140.788435, 40.735361], [140.7889061, 40.7352008], [140.7894214, 40.7350851], [140.7898289, 40.7350017], [140.7900504, 40.7349263], [140.7902593, 40.7348254], [140.7904804, 40.734577], [140.7912233, 40.733482], [140.7914732, 40.7331308], [140.791608, 40.733047], [140.791999, 40.732709], [140.792258, 40.7325], [140.793219, 40.731729], [140.793353, 40.7316], [140.793434, 40.731486], [140.79353, 40.731283], [140.793597, 40.731103], [140.7936002, 40.7309616], [140.7936135, 40.7307812], [140.7936023, 40.7306596], [140.793597, 40.729116], [140.793634, 40.72884], [140.7938956, 40.7281732], [140.7939939, 40.7274072], [140.7942128, 40.726845], [140.794714, 40.726403], [140.795276, 40.726144], [140.796067, 40.725401], [140.796555, 40.725024], [140.79685, 40.724494], [140.796961, 40.724444], [140.797331, 40.724415], [140.797974, 40.724707], [140.798181, 40.724759], [140.799099, 40.724617], [140.799527, 40.724617], [140.800539, 40.724821], [140.801089, 40.72513], [140.801919, 40.7256985], [140.8024562, 40.7259912], [140.8028512, 40.7258196], [140.8038, 40.724843], [140.804992, 40.724128], [140.805243, 40.72383], [140.805332, 40.722839], [140.80567, 40.7222133], [140.8056434, 40.7217827], [140.8052749, 40.7212847], [140.8051817, 40.7206556], [140.8052816, 40.7205194], [140.8054991, 40.7204083], [140.8057699, 40.7203713], [140.8060518, 40.7202502], [140.806545, 40.720063], [140.806819, 40.72008], [140.8078451, 40.720373], [140.8081485, 40.720353], [140.8083682, 40.7202912], [140.8084843, 40.7202198], [140.8085942, 40.7199985], [140.8086162, 40.7192254], [140.8088233, 40.7184427], [140.8091341, 40.7181429], [140.809518, 40.717952], [140.809865, 40.717862], [140.8103394, 40.7179455], [140.81119, 40.7181096], [140.8116483, 40.7183642], [140.8119685, 40.7182524], [140.812268, 40.717947], [140.8124267, 40.717572], [140.8127406, 40.7172104], [140.8131863, 40.7168797], [140.814037, 40.7166084], [140.814324, 40.716387], [140.814568, 40.715807], [140.814783, 40.715453], [140.815227, 40.715139], [140.815698, 40.715098], [140.816344, 40.7153214], [140.8166171, 40.7152666], [140.8169216, 40.7146481], [140.8173516, 40.714698], [140.8176937, 40.7148146], [140.8188268, 40.7143983], [140.8194483, 40.7142939], [140.8195663, 40.7143091], [140.8199018, 40.7144182], [140.8201046, 40.7144171], [140.8203581, 40.7143569], [140.821275, 40.7139952], [140.8214834, 40.7139158], [140.82156, 40.7138676], [140.8216496, 40.7136977], [140.8217869, 40.7135972], [140.8218942, 40.7135664], [140.822325, 40.7135759], [140.8224994, 40.7135721], [140.8226357, 40.7135407], [140.8229116, 40.7133264], [140.823072, 40.7132796], [140.8234164, 40.7132402], [140.8239494, 40.7131583], [140.8241396, 40.7130816], [140.8242597, 40.7129756], [140.824349, 40.7128409], [140.8244243, 40.7126488], [140.824445, 40.7123874], [140.8243936, 40.7122112], [140.8242718, 40.7120095], [140.8240065, 40.7116744], [140.8235754, 40.7111319], [140.823286, 40.710746], [140.82319, 40.710622], [140.8230787, 40.7104705], [140.8230419, 40.710344], [140.8230491, 40.7102207], [140.8232159, 40.7098026], [140.8234397, 40.7093408], [140.8235523, 40.7092048], [140.8238333, 40.7088614], [140.824024, 40.7086394], [140.8241941, 40.7084036], [140.8242463, 40.7082683], [140.8242531, 40.7081007], [140.8242286, 40.7079045], [140.8241419, 40.7077432], [140.8240967, 40.7076474], [140.8240369, 40.7075898], [140.8237327, 40.7072756], [140.8233329, 40.7066696], [140.8231216, 40.7063459], [140.8229716, 40.7062272], [140.8227873, 40.706133], [140.822301, 40.7059344], [140.8222192, 40.7059005], [140.8221122, 40.7058348], [140.822045, 40.7057627], [140.8220051, 40.7056929], [140.8219909, 40.7056682], [140.82197, 40.7056], [140.8219246, 40.7053591], [140.821925, 40.705125], [140.821957, 40.704952], [140.822186, 40.704592], [140.822335, 40.70445], [140.822687, 40.704242], [140.822894, 40.704175], [140.82305, 40.704147], [140.823457, 40.70413], [140.823745, 40.704101], [140.823974, 40.70409], [140.824137, 40.704074], [140.824847, 40.703898], [140.82512, 40.703859], [140.825527, 40.703769], [140.826074, 40.703583], [140.826244, 40.703494], [140.826407, 40.703359], [140.8265204, 40.703195], [140.8266925, 40.702933], [140.8271211, 40.7027063], [140.827271, 40.7026723], [140.8275448, 40.7026603], [140.828086, 40.70261], [140.8283, 40.702633], [140.828522, 40.702638], [140.828677, 40.70261], [140.82884, 40.702565], [140.828929, 40.702514], [140.82898, 40.702464], [140.8292043, 40.702206], [140.8294776, 40.7018167], [140.8296377, 40.701558], [140.829809, 40.701325], [140.830001, 40.701158], [140.830112, 40.701079], [140.83026, 40.700994], [140.830615, 40.700825], [140.8309934, 40.700624], [140.83219, 40.70015], [140.832493, 40.699998], [140.833381, 40.69957], [140.8336683, 40.6994743], [140.8340685, 40.699259], [140.834748, 40.698797], [140.835377, 40.698426], [140.835835, 40.698128], [140.8365, 40.697689], [140.837027, 40.697356], [140.837285, 40.697194], [140.837595, 40.696986], [140.837825, 40.696856], [140.838031, 40.696778], [140.838127, 40.696755], [140.83825, 40.696739], [140.838356, 40.696744], [140.838947, 40.696794], [140.839487, 40.696794], [140.8397861, 40.696727], [140.8399498, 40.6965989], [140.8399987, 40.6964342], [140.8399821, 40.6962399], [140.8398246, 40.6959228], [140.839532, 40.695601], [140.839273, 40.695223], [140.8391886, 40.6949038], [140.83903, 40.694475], [140.838963, 40.694238], [140.8388, 40.693765], [140.838616, 40.693072], [140.838424, 40.692452], [140.838268, 40.692087], [140.838219, 40.691984], [140.838106, 40.691912], [140.83798, 40.691879], [140.8375456, 40.6918992], [140.837355, 40.6918919], [140.837152, 40.691772], [140.837078, 40.691687], [140.836997, 40.691107], [140.836989, 40.690859], [140.836923, 40.69042], [140.836871, 40.690313], [140.836799, 40.690224], [140.836738, 40.690155], [140.8363226, 40.6897519], [140.8359959, 40.6893688], [140.835836, 40.688974], [140.835799, 40.688878], [140.835688, 40.688512], [140.835614, 40.688169], [140.835599, 40.688016], [140.8356115, 40.6878875], [140.8356338, 40.687263], [140.8354869, 40.6869109], [140.835266, 40.686688], [140.835015, 40.686429], [140.8346879, 40.6861044], [140.834282, 40.685804], [140.834202, 40.685714], [140.834157, 40.685607], [140.834135, 40.685505], [140.8341847, 40.685263], [140.834337, 40.6849436], [140.8344127, 40.6848093], [140.8344099, 40.684617], [140.8342861, 40.6842008], [140.834209, 40.68394], [140.834246, 40.68386], [140.834335, 40.683725], [140.834467, 40.68358], [140.834756, 40.683303], [140.835082, 40.682977], [140.8352923, 40.6827084], [140.8353787, 40.6825274], [140.8353531, 40.6823324], [140.8352583, 40.6821131], [140.8351785, 40.6819399], [140.835037, 40.681833], [140.834941, 40.681755], [140.834852, 40.681721], [140.834742, 40.681693], [140.83435, 40.681693], [140.8337405, 40.6817912], [140.8325932, 40.6817877], [140.8318434, 40.6817318], [140.8315738, 40.6816892], [140.831259, 40.681632], [140.830756, 40.681512], [140.830579, 40.681445], [140.830386, 40.68136], [140.830224, 40.681277], [140.830083, 40.68117], [140.829913, 40.681028], [140.829691, 40.680741], [140.829544, 40.680536], [140.829292, 40.680183], [140.8291438, 40.6798646], [140.8290902, 40.679745], [140.8290579, 40.6795402], [140.8290666, 40.6792999], [140.8290994, 40.6790144], [140.8291993, 40.678676], [140.8291793, 40.6784251], [140.829129, 40.67831], [140.8290794, 40.6782635], [140.8289284, 40.6781995], [140.8288352, 40.6781642], [140.8286509, 40.6781709], [140.8282114, 40.6782602], [140.8278873, 40.6782888], [140.8277008, 40.6782938], [140.8275476, 40.6782416], [140.8274322, 40.6781457], [140.827318, 40.677989], [140.827244, 40.677865], [140.827177, 40.677713], [140.82717, 40.677386], [140.827199, 40.677167], [140.8273434, 40.6768106], [140.8275032, 40.6765345], [140.8275676, 40.6763341], [140.8275765, 40.6762483], [140.8275032, 40.6760833], [140.8273612, 40.6760058], [140.8272524, 40.6759873], [140.8270837, 40.6759957], [140.826098, 40.6760294], [140.8255985, 40.6760429], [140.8253077, 40.6760126], [140.8251168, 40.6759486], [140.8249747, 40.675824], [140.8248748, 40.675563], [140.824847, 40.675275], [140.8248193, 40.6746118], [140.8247519, 40.6736661], [140.8247236, 40.6733483], [140.8247032, 40.6731518], [140.824664, 40.673009], [140.82447, 40.672628], [140.824242, 40.672273], [140.824168, 40.672121], [140.824153, 40.672008], [140.82419, 40.671907], [140.8244356, 40.6715951], [140.8245888, 40.6714048], [140.8247642, 40.6711354], [140.8248263, 40.6708492], [140.824929, 40.670478], [140.82504, 40.66987], [140.8251216, 40.6696318], [140.8251593, 40.669482], [140.8251882, 40.6693085], [140.8252437, 40.6691503], [140.8253103, 40.6689145], [140.8253769, 40.6687546], [140.8254879, 40.6686131], [140.825789, 40.668265], [140.826144, 40.667933], [140.82624, 40.667798], [140.826366, 40.667511], [140.82641, 40.667263], [140.826506, 40.666328], [140.826521, 40.665867], [140.8264272, 40.6656955], [140.8263295, 40.6654395], [140.826366, 40.665032], [140.826396, 40.664847], [140.826492, 40.66456], [140.826558, 40.664407], [140.826653, 40.664255], [140.826751, 40.664152], [140.826878, 40.66407], [140.827048, 40.663987], [140.82726, 40.663906], [140.8274, 40.663856], [140.827592, 40.663805], [140.827599, 40.663794], [140.827939, 40.663681], [140.828198, 40.663608], [140.828611, 40.663468], [140.828846, 40.6633999], [140.8292367, 40.6632433], [140.8293766, 40.6631187], [140.82943, 40.663029], [140.829452, 40.662978], [140.829474, 40.662849], [140.829482, 40.662697], [140.829445, 40.662607], [140.829356, 40.662472], [140.829103, 40.662193], [140.828966, 40.662044], [140.828899, 40.661948], [140.828855, 40.661852], [140.828833, 40.661672], [140.82884, 40.661531], [140.828872, 40.661196], [140.828938, 40.660589], [140.8290712, 40.6596414], [140.829099, 40.659443], [140.829298, 40.658283], [140.829358, 40.658114], [140.829579, 40.657759], [140.829712, 40.657624], [140.829897, 40.6575], [140.830133, 40.657347], [140.830178, 40.65733], [140.830561, 40.657116], [140.830716, 40.657043], [140.830842, 40.65697], [140.831108, 40.656857], [140.831211, 40.656807], [140.831484, 40.656705], [140.83203, 40.656535], [140.832381, 40.656445], [140.832917, 40.65632], [140.833535, 40.656223], [140.833872, 40.656173], [140.834377, 40.656065], [140.834568, 40.656018], [140.834682, 40.655952], [140.834733, 40.655907], [140.834785, 40.655828], [140.834807, 40.655749], [140.834807, 40.655254], [140.8348005, 40.6551727], [140.83483, 40.654944], [140.834852, 40.654871], [140.8349421, 40.6547626], [140.8350216, 40.6547154], [140.8351738, 40.6546543], [140.8353555, 40.6546036], [140.8357085, 40.6545743], [140.8360893, 40.6545655], [140.8366421, 40.6545106], [140.8368341, 40.654446], [140.8369849, 40.6543746], [140.8370809, 40.6543038], [140.8371624, 40.6542173], [140.8372439, 40.6541123], [140.8373014, 40.6540205], [140.8373587, 40.653898], [140.837519, 40.653345], [140.8376354, 40.6530073], [140.8377614, 40.6526549], [140.8379094, 40.6523903], [140.8381068, 40.6521187], [140.8383465, 40.6519054], [140.8385133, 40.6517873], [140.8386838, 40.651678], [140.8389778, 40.651544], [140.8391955, 40.651458], [140.8396342, 40.6513278], [140.8398509, 40.6512776], [140.840269, 40.651262], [140.8407857, 40.6512294], [140.8412833, 40.6512155], [140.8418717, 40.6512227], [140.8421286, 40.651274], [140.8424477, 40.6513917], [140.842844, 40.6515046], [140.8431588, 40.6516121], [140.8433873, 40.6516662], [140.843686, 40.651656], [140.843819, 40.651627], [140.843937, 40.651577], [140.843967, 40.65156], [140.844247, 40.651369], [140.844447, 40.651189], [140.844521, 40.651076], [140.8445967, 40.6509141], [140.8447018, 40.6505705], [140.844771, 40.6504644], [140.8448927, 40.650351], [140.8450412, 40.6502707], [140.8454612, 40.6501117], [140.8458232, 40.6499912], [140.8463491, 40.649781], [140.8467452, 40.6496846], [140.8473169, 40.6495703], [140.8474092, 40.6495566], [140.8475303, 40.649549], [140.8477379, 40.6496018], [140.8479858, 40.6496995], [140.8482512, 40.6497756], [140.8486828, 40.6499232], [140.8488691, 40.650037], [140.8491858, 40.6503398], [140.8492845, 40.6504022], [140.8494383, 40.6504703], [140.8495919, 40.6505121], [140.8497136, 40.6505192], [140.8498347, 40.6505073], [140.8499177, 40.6504579], [140.8499631, 40.6504098], [140.8499986, 40.6503329], [140.8499992, 40.6502928], [140.8499973, 40.6502682], [140.8499937, 40.6502233], [140.8499551, 40.6501459], [140.8498925, 40.6500834], [140.8497921, 40.6500146], [140.8497361, 40.6499824], [140.849534, 40.649885], [140.8494158, 40.6497971], [140.8493594, 40.6497023], [140.849337, 40.649637], [140.8493635, 40.6495238], [140.8494045, 40.6494541], [140.8495285, 40.6494086], [140.8496881, 40.6494309], [140.8499773, 40.6495078], [140.8503119, 40.6495888], [140.8506872, 40.6496826], [140.850854, 40.6496865], [140.850992, 40.6496545], [140.851087, 40.6496239], [140.8512717, 40.6495376], [140.85155, 40.6493737], [140.8516265, 40.6493243], [140.8518006, 40.6491976], [140.8519913, 40.6490595], [140.8522366, 40.6489263], [140.8524329, 40.6488396], [140.852587, 40.6487638], [140.8526652, 40.6487], [140.8527637, 40.6485734], [140.8528349, 40.6484655], [140.8528934, 40.648369], [140.8529475, 40.6482774], [140.8529708, 40.6481836], [140.8529784, 40.6480499], [140.8530083, 40.6479189], [140.8530501, 40.6478288], [140.853155, 40.6477378], [140.8532784, 40.6476406], [140.8534444, 40.6475243], [140.8535496, 40.6474178], [140.8535698, 40.6473974], [140.853604, 40.647342], [140.8536364, 40.6472625], [140.8536557, 40.6471847], [140.8536708, 40.6471238], [140.8537173, 40.6469089], [140.8537337, 40.6468418], [140.8537638, 40.6467392], [140.8538096, 40.6465936], [140.8538968, 40.6465071], [140.8540188, 40.6464612], [140.8541588, 40.6464632], [140.8543996, 40.6465186], [140.8546014, 40.6465634], [140.8547787, 40.6465841], [140.854919, 40.6465786], [140.8550518, 40.6465338], [140.8551955, 40.6464294], [140.855454, 40.6461844], [140.8556009, 40.6461136], [140.8557425, 40.6460984], [140.8558701, 40.6461251], [140.8561288, 40.6462475], [140.857084, 40.646747], [140.857158, 40.646785], [140.857268, 40.64682], [140.857446, 40.64682], [140.85761, 40.646763], [140.85773, 40.6464982], [140.8577651, 40.6463574], [140.857815, 40.646198], [140.857849, 40.645967], [140.857905, 40.645817], [140.858088, 40.645597], [140.858214, 40.645497], [140.858399, 40.645378], [140.858546, 40.6453], [140.858864, 40.645182], [140.859026, 40.645085], [140.859034, 40.644983], [140.858989, 40.644826], [140.858989, 40.64473], [140.859012, 40.644646], [140.859056, 40.644555], [140.859292, 40.644219], [140.859403, 40.644095], [140.859573, 40.643965], [140.859868, 40.643791], [140.860008, 40.643695], [140.860156, 40.643571], [140.860207, 40.643481], [140.860208, 40.643222], [140.860186, 40.643014], [140.860098, 40.642394], [140.860134, 40.642316], [140.860349, 40.642057], [140.860858, 40.641522], [140.860984, 40.641409], [140.861213, 40.641167], [140.861324, 40.641049], [140.861471, 40.640914], [140.861789, 40.640649], [140.861878, 40.640525], [140.861937, 40.640396], [140.862107, 40.640075], [140.862232, 40.639923], [140.862571, 40.639692], [140.862741, 40.63954], [140.8630379, 40.6391637], [140.8634725, 40.6387749], [140.8638018, 40.6385937], [140.8640164, 40.638482], [140.8642325, 40.6384116], [140.8644486, 40.6383619], [140.864802, 40.6382954], [140.865105, 40.6382325], [140.8653926, 40.6381578], [140.8656906, 40.6379965], [140.866168, 40.6376732], [140.8668203, 40.6373787], [140.8678376, 40.6369456], [140.868586, 40.636665], [140.8693258, 40.6364353], [140.8698324, 40.6363183], [140.8700233, 40.63631], [140.8701986, 40.6363093], [140.8704038, 40.6363268], [140.8706219, 40.6363672], [140.8707999, 40.6364046], [140.8709672, 40.6364411], [140.8711416, 40.6364981], [140.8712999, 40.6365548], [140.8714827, 40.636646], [140.8716603, 40.6367426], [140.8718292, 40.636808], [140.8719996, 40.6368373], [140.8721445, 40.6368386], [140.8723408, 40.6368174], [140.8724717, 40.6367478], [140.872632, 40.6366445], [140.8733749, 40.6360688], [140.873583, 40.635916], [140.8738742, 40.6357725], [140.8749265, 40.6353095], [140.875567, 40.6350482], [140.8760045, 40.6349016], [140.8762678, 40.6348213], [140.8766249, 40.6347541], [140.8770154, 40.634716], [140.8775451, 40.6347251], [140.8781839, 40.6347985], [140.8790234, 40.6349256], [140.8795381, 40.6350655], [140.8800167, 40.6352822], [140.8801804, 40.6353321], [140.8803139, 40.6353549], [140.880488, 40.6353476], [140.8808368, 40.6352684], [140.8810438, 40.6351815], [140.8811867, 40.6350988], [140.881309, 40.634985], [140.881478, 40.6348117], [140.8816454, 40.6347025], [140.8818578, 40.6346348], [140.882444, 40.63456], [140.882589, 40.6345342], [140.8827158, 40.6344873], [140.8829215, 40.6343644], [140.8831484, 40.6342215], [140.8838544, 40.6337531], [140.8841005, 40.6335987], [140.8843274, 40.6335052], [140.8846875, 40.6333781], [140.8852981, 40.6332163], [140.8855179, 40.6331562], [140.8856517, 40.6331318], [140.885751, 40.6331114], [140.8859036, 40.6331027], [140.8861924, 40.6331154], [140.8867062, 40.6332065], [140.8869191, 40.6332397], [140.8870098, 40.633225], [140.8870457, 40.6331765], [140.8870089, 40.6331175], [140.8869245, 40.6330613], [140.8867094, 40.6329933], [140.8865641, 40.632931], [140.8864809, 40.6328483], [140.8865123, 40.6327484], [140.8866269, 40.6326556], [140.8868512, 40.6325461], [140.8872142, 40.6324288], [140.8874636, 40.6323445], [140.8876272, 40.6322795], [140.8878128, 40.6321425], [140.8880031, 40.6320265], [140.8882574, 40.6318832], [140.8883309, 40.6318615], [140.8884542, 40.6318252], [140.8886733, 40.6317856], [140.8889268, 40.6317461], [140.8890403, 40.631731], [140.8890587, 40.6317301], [140.8892334, 40.6317218], [140.8894051, 40.6317154], [140.8899028, 40.631748], [140.8902047, 40.6317417], [140.8904047, 40.6317157], [140.8906144, 40.6316521], [140.890844, 40.631568], [140.890977, 40.631461], [140.8911636, 40.6312693], [140.891346, 40.631028], [140.8915739, 40.6308743], [140.8918963, 40.6307475], [140.8923124, 40.6306036], [140.8925538, 40.6305471], [140.8928123, 40.6305106], [140.8933829, 40.6305165], [140.8935549, 40.6304978], [140.8937767, 40.6304458], [140.89433, 40.6302555], [140.8945297, 40.630207], [140.8946887, 40.6301843], [140.8956134, 40.6300521], [140.8965794, 40.6299174], [140.8969878, 40.6298716], [140.8971592, 40.6298569], [140.8973183, 40.6298454], [140.8974959, 40.6298419], [140.8976597, 40.6298486], [140.8994781, 40.6300765], [140.899683, 40.6301231], [140.8999436, 40.6301808], [140.9002917, 40.6303361], [140.900909, 40.6306399], [140.9014673, 40.6308035], [140.9017501, 40.6308637], [140.9024399, 40.6309618], [140.9027832, 40.6310082], [140.9035422, 40.6311196], [140.9040281, 40.6312254], [140.9041857, 40.6312824], [140.9045105, 40.6314089], [140.9046617, 40.6315193], [140.904988, 40.6317394], [140.9051344, 40.631903], [140.905291, 40.6321258], [140.9053888, 40.6321751], [140.9055613, 40.6321818], [140.9057013, 40.6321152], [140.9057668, 40.631963], [140.9057142, 40.6318416], [140.9055254, 40.6317244], [140.9053844, 40.6316203], [140.9052869, 40.6315339], [140.9052626, 40.6314469], [140.9052842, 40.6313812], [140.905349, 40.6313526], [140.9054955, 40.6313914], [140.9057518, 40.6315674], [140.9059454, 40.6316528], [140.9061674, 40.6317094], [140.9065551, 40.6317643], [140.906864, 40.6317967], [140.9071241, 40.6318169], [140.9072926, 40.631772], [140.9073752, 40.6317001], [140.9074271, 40.6316163], [140.9074616, 40.6314984], [140.9074481, 40.631373], [140.9074218, 40.6312681], [140.9073741, 40.6311206], [140.9073879, 40.6310335], [140.9074798, 40.6309739], [140.907624, 40.630978], [140.907735, 40.631073], [140.907905, 40.631265], [140.907993, 40.631363], [140.908066, 40.631398], [140.908147, 40.631393], [140.9082, 40.631349], [140.908304, 40.631237], [140.9083877, 40.6311619], [140.9085062, 40.6310914], [140.9086553, 40.6310811], [140.908833, 40.6311117], [140.9090178, 40.6311858], [140.909159, 40.6312786], [140.909298, 40.6313938], [140.9095263, 40.6315789], [140.9096706, 40.6316402], [140.9098234, 40.6316824], [140.9102569, 40.6317156], [140.9106844, 40.6317327], [140.9109433, 40.631718], [140.911175, 40.631665], [140.9113482, 40.63159], [140.9114848, 40.6314818], [140.9116987, 40.6312672], [140.9118077, 40.6311745], [140.911981, 40.6310739], [140.9121649, 40.6309779], [140.9124766, 40.6308675], [140.9139182, 40.6303837], [140.9141113, 40.6303521], [140.9144068, 40.6303465], [140.9148703, 40.6303478], [140.9155837, 40.6303011], [140.9159888, 40.6302621], [140.9167118, 40.6302097], [140.9170389, 40.6301837], [140.9173501, 40.6300703], [140.9175983, 40.6299441], [140.9177688, 40.6299004], [140.9179502, 40.6299115], [140.9180397, 40.6299547], [140.9180665, 40.6300473], [140.9179885, 40.6301823], [140.9178664, 40.6303215], [140.9178558, 40.630461], [140.9179749, 40.6305195], [140.9181093, 40.6304938], [140.9182084, 40.6304408], [140.9185008, 40.6302678], [140.9193751, 40.6298176], [140.919633, 40.6296836], [140.9197933, 40.6296379], [140.9198722, 40.6296426], [140.9199357, 40.6296815], [140.9199365, 40.6297855], [140.9198821, 40.6299543], [140.9198606, 40.6300438], [140.9198715, 40.6301409], [140.9199757, 40.6301957], [140.9201495, 40.6301713], [140.9204252, 40.6300917], [140.920873, 40.6300008], [140.9213573, 40.6299481], [140.9220673, 40.6299499], [140.9225142, 40.6299705], [140.9227314, 40.6300218], [140.9230654, 40.6301132], [140.9237648, 40.6303843], [140.9239906, 40.6305087], [140.924139, 40.6306292], [140.9243161, 40.6307535], [140.9245733, 40.6308051], [140.925348, 40.6309105], [140.9264105, 40.631023], [140.9267338, 40.6310535], [140.9273436, 40.63104], [140.9277425, 40.6310237], [140.9282077, 40.6310148], [140.9284464, 40.6310331], [140.9286234, 40.6310596], [140.9288983, 40.6311037], [140.9292473, 40.6311155], [140.929532, 40.631075], [140.929834, 40.63107], [140.930222, 40.631085], [140.9306, 40.631125], [140.931147, 40.631119], [140.931324, 40.631107], [140.931472, 40.631101], [140.931856, 40.631079], [140.932926, 40.630977], [140.933347, 40.630927], [140.93351, 40.63087], [140.933856, 40.630643], [140.93543, 40.629195], [140.935703, 40.628944], [140.936279, 40.628528], [140.936796, 40.628336], [140.938036, 40.627954], [140.9395215, 40.627381], [140.9398063, 40.6272358], [140.9400938, 40.6272021], [140.9402922, 40.6271943], [140.9405172, 40.6271823], [140.9406468, 40.6271628], [140.9408677, 40.6271186], [140.9418601, 40.6267868], [140.9427182, 40.6264831], [140.9430598, 40.6263811], [140.9433058, 40.6262921], [140.9434479, 40.6262127], [140.943534, 40.6261494], [140.9435839, 40.6260776], [140.9436169, 40.6259928], [140.9437244, 40.6255294], [140.9438182, 40.6251484], [140.9438932, 40.6250055], [140.9439904, 40.6249066], [140.9441428, 40.6248009], [140.9444908, 40.6244839], [140.9446909, 40.6243033], [140.9450746, 40.6239166], [140.9458405, 40.6231306], [140.9462883, 40.6224327], [140.9462871, 40.6222828], [140.946315, 40.6217966], [140.9463256, 40.6216987], [140.9463018, 40.6216118], [140.9462177, 40.6215236], [140.9461462, 40.6214835], [140.9460408, 40.6214541], [140.9458981, 40.6214951], [140.9452063, 40.6217578], [140.9450856, 40.6217756], [140.9449875, 40.6217441], [140.9449601, 40.6216779], [140.944974, 40.6215608], [140.9452041, 40.6211219], [140.9453054, 40.6208438], [140.945415, 40.6205945], [140.9455609, 40.6203879], [140.9458312, 40.6200577], [140.946042, 40.6198375], [140.946338, 40.6196419], [140.9466115, 40.6195419], [140.947024, 40.6194044], [140.9473017, 40.6192721], [140.9473935, 40.6192189], [140.9474471, 40.6191285], [140.9475538, 40.6189422], [140.9476057, 40.6188378], [140.947692, 40.6187857], [140.9477925, 40.6188018], [140.9478696, 40.6188974], [140.947999, 40.6190516], [140.9480542, 40.619099], [140.9481458, 40.6191058], [140.9482384, 40.6190791], [140.948351, 40.6190344], [140.9483966, 40.6189692], [140.9484007, 40.6188975], [140.9482408, 40.6185238], [140.9481588, 40.6183731], [140.9480945, 40.6182319], [140.9480366, 40.6181168], [140.9479675, 40.6180408], [140.9477412, 40.6179225], [140.9474026, 40.6178111], [140.947063, 40.6176922], [140.9468099, 40.6176132], [140.9466528, 40.6175755], [140.9464683, 40.6175732], [140.9462303, 40.6175674], [140.9458302, 40.6176129], [140.9456205, 40.6176437], [140.9454654, 40.6177185], [140.9453092, 40.6178425], [140.9451799, 40.617909], [140.9450968, 40.617936], [140.9450047, 40.6179368], [140.94495, 40.6179044], [140.9449248, 40.6178344], [140.9449735, 40.6177416], [140.9451382, 40.6175476], [140.9453874, 40.6173386], [140.9456631, 40.6170017], [140.9456598, 40.6167797], [140.9457116, 40.6164852], [140.9457583, 40.6163156], [140.9458145, 40.6159778], [140.9458853, 40.6157942], [140.9461401, 40.6153474], [140.9464275, 40.615041], [140.9467801, 40.6146924], [140.9469571, 40.6145344], [140.9471929, 40.6143472], [140.9473457, 40.6142243], [140.9474862, 40.6141323], [140.9476412, 40.6139976], [140.9478252, 40.6137595], [140.9479888, 40.6135219], [140.9481416, 40.6133131], [140.9481899, 40.6132096], [140.9481614, 40.6131176], [140.9481174, 40.6130221], [140.9480278, 40.6128671], [140.9479844, 40.612759], [140.947978, 40.6126657], [140.9480048, 40.6123884], [140.9480263, 40.6122279], [140.9481056, 40.6120947], [140.9482092, 40.6119009], [140.9482955, 40.6117484], [140.9483218, 40.6116234], [140.9483322, 40.61145], [140.9483033, 40.6108685], [140.9483228, 40.610691], [140.9483305, 40.6105973], [140.9481978, 40.6071914], [140.9481844, 40.6068484], [140.9481464, 40.6065657], [140.9481159, 40.6063692], [140.9480295, 40.6061036], [140.9479641, 40.6059367], [140.9478184, 40.6057523], [140.9476311, 40.6056099], [140.9473162, 40.6054168], [140.946569, 40.605157], [140.946117, 40.604982], [140.946029, 40.604932], [140.945969, 40.604909], [140.945911, 40.604864], [140.945859, 40.604751], [140.945947, 40.604627], [140.946576, 40.604588], [140.946989, 40.604532], [140.947241, 40.604453], [140.947329, 40.604408], [140.947499, 40.604319], [140.947987, 40.603936], [140.948119, 40.603835], [140.94826, 40.60375], [140.948585, 40.603598], [140.948718, 40.603553], [140.948769, 40.603548], [140.948984, 40.603491], [140.949271, 40.603441], [140.949759, 40.603429], [140.949877, 40.603407], [140.950019, 40.603351], [140.950165, 40.603294], [140.950387, 40.603249], [140.950616, 40.603221], [140.950845, 40.603164], [140.950911, 40.603131], [140.951, 40.603024], [140.950941, 40.602934], [140.950859, 40.602889], [140.9508, 40.602866], [140.950653, 40.602877], [140.950557, 40.6029], [140.950224, 40.603024], [140.949914, 40.603103], [140.949604, 40.603103], [140.949493, 40.603091], [140.949338, 40.603035], [140.949287, 40.602996], [140.949301, 40.602889], [140.949331, 40.602844], [140.949685, 40.602832], [140.950018, 40.602787], [140.950254, 40.602697], [140.950534, 40.602539], [140.951162, 40.602157], [140.951406, 40.602033], [140.951798, 40.60187], [140.952108, 40.601701], [140.952425, 40.601526], [140.953858, 40.600727], [140.954324, 40.600428], [140.954715, 40.600102], [140.954907, 40.599944], [140.955128, 40.59977], [140.955269, 40.59969], [140.955453, 40.599584], [140.955534, 40.599515], [140.955564, 40.599505], [140.955638, 40.599442], [140.95569, 40.599273], [140.95569, 40.599183], [140.955675, 40.599025], [140.955675, 40.59888], [140.955645, 40.598745], [140.955586, 40.598637], [140.955528, 40.598563], [140.955313, 40.5984], [140.955047, 40.59826], [140.954892, 40.59817], [140.954722, 40.598068], [140.954626, 40.59799], [140.954516, 40.597866], [140.954501, 40.597821], [140.954508, 40.597725], [140.954538, 40.59764], [140.9546609, 40.5972563], [140.9547067, 40.5971621], [140.954821, 40.596887], [140.954929, 40.596678], [140.955018, 40.596504], [140.955152, 40.596214], [140.955188, 40.596138], [140.955269, 40.595828], [140.9553119, 40.5957769], [140.9554009, 40.5957295], [140.9556552, 40.5956607], [140.9558879, 40.595487], [140.9562236, 40.595225], [140.9565953, 40.5950619], [140.9570764, 40.594878], [140.9575634, 40.5947579], [140.9579624, 40.5946825], [140.9584805, 40.5945843], [140.9588575, 40.5944593], [140.959168, 40.594336], [140.959287, 40.594246], [140.959464, 40.594055], [140.95953, 40.593909], [140.95953, 40.593779], [140.959501, 40.593723], [140.959405, 40.593599], [140.958866, 40.593013], [140.95874, 40.592839], [140.958666, 40.592692], [140.958689, 40.592591], [140.958718, 40.592546], [140.958792, 40.592467], [140.958925, 40.592366], [140.959021, 40.592315], [140.959102, 40.592276], [140.959257, 40.592207], [140.959361, 40.592157], [140.959745, 40.592022], [140.960055, 40.591927], [140.960646, 40.591825], [140.960911, 40.591802], [140.961613, 40.591802], [140.961736, 40.591815], [140.962011, 40.591842], [140.96216, 40.591892], [140.962255, 40.591994], [140.962285, 40.592062], [140.962277, 40.592174], [140.962255, 40.592252], [140.962262, 40.592439], [140.962336, 40.592562], [140.962543, 40.592782], [140.962602, 40.592856], [140.962602, 40.592996], [140.962543, 40.593114], [140.962173, 40.5937], [140.962107, 40.59383], [140.962107, 40.593959], [140.96211, 40.593963], [140.962122, 40.593988], [140.962136, 40.594004], [140.962269, 40.594111], [140.962402, 40.594094], [140.962491, 40.594055], [140.962617, 40.593971], [140.962927, 40.593655], [140.963215, 40.593424], [140.963355, 40.593351], [140.96348, 40.593346], [140.964264, 40.593682], [140.964361, 40.593722], [140.964508, 40.59374], [140.964671, 40.59374], [140.964693, 40.593717], [140.964826, 40.593649], [140.964885, 40.593582], [140.964929, 40.593441], [140.964914, 40.593182], [140.964878, 40.592912], [140.96487, 40.592647], [140.964892, 40.592541], [140.965018, 40.59245], [140.965195, 40.592439], [140.965291, 40.592456], [140.965409, 40.592535], [140.96552, 40.592647], [140.965586, 40.592692], [140.965719, 40.592687], [140.965786, 40.592636], [140.965889, 40.592541], [140.966052, 40.592337], [140.966266, 40.592034], [140.966724, 40.591216], [140.96682, 40.591053], [140.967204, 40.59057], [140.967448, 40.590215], [140.967492, 40.59008], [140.967492, 40.589849], [140.967418, 40.589511], [140.967293, 40.58914], [140.967226, 40.588734], [140.967278, 40.588661], [140.967322, 40.588594], [140.96744, 40.58856], [140.967684, 40.588492], [140.967861, 40.588481], [140.968002, 40.588532], [140.968046, 40.58865], [140.968061, 40.588779], [140.968127, 40.589128], [140.968149, 40.589354], [140.968225, 40.589687], [140.968349, 40.58972], [140.968445, 40.589697], [140.9686, 40.589641], [140.968718, 40.589579], [140.969013, 40.589371], [140.969286, 40.589174], [140.969747, 40.588852], [140.969991, 40.588646], [140.970138, 40.588493], [140.970264, 40.588346], [140.97058, 40.587985], [140.97069, 40.587777], [140.970631, 40.587383], [140.970646, 40.58695], [140.97069, 40.586437], [140.970689, 40.586038], [140.9707, 40.58593], [140.970722, 40.585705], [140.970729, 40.584685], [140.97081, 40.584455], [140.970936, 40.584263], [140.971349, 40.583875], [140.971438, 40.583745], [140.971504, 40.583531], [140.971526, 40.58334], [140.971533, 40.582518], [140.971563, 40.582338], [140.971608, 40.582186], [140.971814, 40.581713], [140.971969, 40.581319], [140.972021, 40.581111], [140.972021, 40.580626], [140.97205, 40.580531], [140.972131, 40.580362], [140.972279, 40.580131], [140.972293, 40.580125], [140.972368, 40.580029], [140.972434, 40.579945], [140.972706, 40.579647], [140.972876, 40.579444], [140.973068, 40.579157], [140.973407, 40.578644], [140.973474, 40.578566], [140.973666, 40.57829], [140.973879, 40.578042], [140.973953, 40.577991], [140.974115, 40.577929], [140.974319, 40.577885], [140.974786, 40.57781], [140.97517, 40.577726], [140.975333, 40.577664], [140.975849, 40.577399], [140.976085, 40.577292], [140.976468, 40.577095], [140.976535, 40.577039], [140.976815, 40.576746], [140.976985, 40.576605], [140.977287, 40.576414], [140.977501, 40.576387], [140.977833, 40.576376], [140.978039, 40.576392], [140.978305, 40.576438], [140.978526, 40.576505], [140.97888, 40.576656], [140.979146, 40.576769], [140.979375, 40.576836], [140.979648, 40.576926], [140.97981, 40.577], [140.980068, 40.57718], [140.980149, 40.577225], [140.980525, 40.577428], [140.980753, 40.577518], [140.980805, 40.577529], [140.98107, 40.577569], [140.981468, 40.577574], [140.982147, 40.577506], [140.98239, 40.577473], [140.982694, 40.577444], [140.98408, 40.57744], [140.984559, 40.577417], [140.9853962, 40.5773814], [140.9860716, 40.5773729], [140.9865532, 40.5773453], [140.9864049, 40.5772509], [140.9862761, 40.5769055], [140.9861758, 40.5767107], [140.9861286, 40.5766458], [140.9860811, 40.5765977], [140.986002, 40.5765523], [140.9859221, 40.5765144], [140.9856072, 40.5764155], [140.9850116, 40.5762846], [140.9846907, 40.5762179], [140.984431, 40.5761632], [140.9842689, 40.5761288], [140.9838728, 40.5760402], [140.9833511, 40.5759289], [140.9829143, 40.575835], [140.982206, 40.575677], [140.981859, 40.575593], [140.981204, 40.575424], [140.980872, 40.575278], [140.9806551, 40.5751164], [140.980329, 40.5748686], [140.979729, 40.574461], [140.9793319, 40.5742074], [140.9791942, 40.5741069], [140.9786773, 40.5737545], [140.9784906, 40.5735905], [140.9783345, 40.5734144], [140.9781768, 40.5731993], [140.9780487, 40.5730173], [140.9779907, 40.5727628], [140.9779848, 40.5724961], [140.9780116, 40.5720905], [140.9781071, 40.571693], [140.9783254, 40.5712651], [140.9786187, 40.57079], [140.9787164, 40.5705789], [140.978828, 40.5703113], [140.978836, 40.57008], [140.978807, 40.569799], [140.978755, 40.569556], [140.978711, 40.569426], [140.978549, 40.569207], [140.978387, 40.569038], [140.9781448, 40.5686886], [140.9777548, 40.5683322], [140.97728, 40.5676555], [140.9768983, 40.5673366], [140.9766697, 40.5672105], [140.9762258, 40.5669748], [140.9757638, 40.5668221], [140.9750896, 40.5665597], [140.9745496, 40.5661926], [140.9741927, 40.5658751], [140.9739149, 40.5654642], [140.9738205, 40.5652573], [140.9737792, 40.565064], [140.9738006, 40.5649042], [140.9738516, 40.5644367], [140.973895, 40.564134], [140.973969, 40.563909], [140.97402, 40.563802], [140.974095, 40.563634], [140.974183, 40.563453], [140.974301, 40.563295], [140.974721, 40.563168], [140.9752472, 40.5632586], [140.9756935, 40.5632058], [140.9761639, 40.563086], [140.9765024, 40.5626714], [140.976682, 40.5623678], [140.9766681, 40.5621346], [140.9763285, 40.5614017], [140.9758276, 40.5609955], [140.9752268, 40.560585], [140.9741734, 40.560143], [140.9730844, 40.5597162], [140.9719348, 40.5591821], [140.9712095, 40.5586528], [140.9711426, 40.5584533], [140.9710459, 40.5581699], [140.971002, 40.557794], [140.9709204, 40.5573169], [140.970901, 40.5569757], [140.9709214, 40.5566588], [140.9709542, 40.5563627], [140.9710283, 40.5560889], [140.971195, 40.555677], [140.971512, 40.554967], [140.971622, 40.55473], [140.97166, 40.554634], [140.971999, 40.553988], [140.972235, 40.553594], [140.972479, 40.553346], [140.9727155, 40.5531663], [140.9730052, 40.5528745], [140.973208, 40.5525608], [140.9733024, 40.5523527], [140.973406, 40.552111], [140.973459, 40.551831], [140.973547, 40.551511], [140.9736265, 40.551354], [140.9737073, 40.5512365], [140.9738602, 40.5511085], [140.9740104, 40.5510229], [140.974256, 40.550908], [140.9744461, 40.5507704], [140.9747045, 40.5505764], [140.9747975, 40.5504501], [140.9748727, 40.5502427], [140.9749304, 40.5500745], [140.9749639, 40.549903], [140.9750058, 40.5495792], [140.975156, 40.548812], [140.975275, 40.5484557], [140.9753736, 40.5480525], [140.9753862, 40.5477581], [140.9753985, 40.5474891], [140.9753643, 40.5471861], [140.9753344, 40.5469417], [140.975226, 40.5462789], [140.9751694, 40.5455166], [140.9750959, 40.54512], [140.9750219, 40.5447584], [140.9750256, 40.5443097], [140.9750283, 40.5439911], [140.9750894, 40.5436342], [140.9752471, 40.5431183], [140.9752933, 40.5428728], [140.9753663, 40.5424739], [140.9754134, 40.5420744], [140.9754728, 40.5417585], [140.9755748, 40.5413898], [140.9756344, 40.5410845], [140.9756789, 40.5408876], [140.975717, 40.540739], [140.975821, 40.540643], [140.975924, 40.540576], [140.976064, 40.540514], [140.976167, 40.540474], [140.9763585, 40.5404618], [140.9765381, 40.5404677], [140.9774798, 40.5407363], [140.9779505, 40.5408033], [140.9784435, 40.5408403], [140.979096, 40.540863], [140.979251, 40.540874], [140.979457, 40.540863], [140.979575, 40.540841], [140.979708, 40.540784], [140.980077, 40.540564], [140.980608, 40.540209], [140.980969, 40.539938], [140.9812463, 40.5396973], [140.9814947, 40.5395072], [140.981697, 40.5393708], [140.9818116, 40.5392377], [140.9818175, 40.5389768], [140.981788, 40.5387506], [140.9817097, 40.5383938], [140.9816177, 40.5381093], [140.9814973, 40.5378193], [140.981139, 40.537355], [140.980475, 40.53637], [140.980342, 40.536189], [140.980114, 40.535812], [140.980017, 40.535654], [140.979892, 40.535429], [140.9796292, 40.5350103], [140.9793904, 40.5345178], [140.979237, 40.5341539], [140.9791454, 40.5339976], [140.9791266, 40.5338506], [140.9791067, 40.5334311], [140.979118, 40.5332442], [140.9791739, 40.5329915], [140.9791545, 40.5326919], [140.9791621, 40.5325133], [140.9790655, 40.5316265], [140.979007, 40.53138], [140.978977, 40.53124], [140.9788858, 40.5310423], [140.9787656, 40.5308579], [140.9784442, 40.5306418], [140.9783179, 40.5305812], [140.9782499, 40.5304749], [140.9782032, 40.5303484], [140.9781186, 40.5300762], [140.9779002, 40.5298682], [140.97765, 40.529797], [140.977459, 40.529741], [140.9772, 40.529714], [140.976928, 40.529702], [140.976528, 40.529702], [140.9760737, 40.5297664], [140.9758764, 40.529813], [140.975723, 40.5298273], [140.9755017, 40.5297527], [140.975343, 40.5296116], [140.9751092, 40.529399], [140.974951, 40.529127], [140.9749113, 40.5289222], [140.9748296, 40.528734], [140.9747264, 40.5285344], [140.9745741, 40.5283254], [140.9744252, 40.5280829], [140.9742978, 40.5278979], [140.9742389, 40.5276093], [140.9742516, 40.5270807], [140.9742475, 40.5265668], [140.9742645, 40.526378], [140.9743457, 40.5261072], [140.9742643, 40.5257098], [140.9742639, 40.5255157], [140.9742184, 40.5252584], [140.9741545, 40.5250044], [140.9741677, 40.5245885], [140.9740993, 40.5243792], [140.9739841, 40.5241082], [140.9737278, 40.5237566], [140.9736568, 40.5235394], [140.9735403, 40.5232792], [140.9733388, 40.5231208], [140.9730598, 40.5228186], [140.9728735, 40.5224833], [140.9727941, 40.5221999], [140.9727559, 40.5220847], [140.9726168, 40.5217196], [140.972534, 40.521564], [140.972458, 40.521369], [140.9722587, 40.5211196], [140.9722258, 40.5210847], [140.9719727, 40.520822], [140.9718623, 40.5207049], [140.9714347, 40.5202897], [140.9710604, 40.5199467], [140.970835, 40.5196555], [140.970544, 40.5193], [140.9702091, 40.5188106], [140.9699538, 40.5183855], [140.9696556, 40.5178107], [140.9693808, 40.5172904], [140.9693187, 40.5171729], [140.9691599, 40.51675], [140.9690511, 40.5164168], [140.9688703, 40.5160244], [140.9686392, 40.5155446], [140.9684382, 40.5150334], [140.9682342, 40.5147465], [140.9678936, 40.5142633], [140.9677312, 40.5141213], [140.9675552, 40.5139673], [140.9674608, 40.5139041], [140.967029, 40.513615], [140.9667335, 40.5134659], [140.9663081, 40.5133299], [140.9657901, 40.51313], [140.965126, 40.512911], [140.9649126, 40.5127915], [140.9645886, 40.512607], [140.9640299, 40.5123463], [140.9637353, 40.5122453], [140.9634847, 40.5121285], [140.963246, 40.5119554], [140.9630782, 40.51171], [140.9626999, 40.5109851], [140.9624019, 40.5105603], [140.9621235, 40.5100468], [140.961791, 40.509386], [140.961725, 40.509262], [140.9616413, 40.5090048], [140.961585, 40.508626], [140.9615985, 40.5083144], [140.9615877, 40.5079381], [140.9615877, 40.5076332], [140.9615037, 40.5071553], [140.9614659, 40.506778], [140.9613964, 40.5065394], [140.9610343, 40.5057787], [140.9609724, 40.5054151], [140.9608357, 40.5048275], [140.960715, 40.504471], [140.960477, 40.5038756], [140.9602543, 40.5033773], [140.9601619, 40.5031588], [140.9600714, 40.5030032], [140.9599861, 40.5028643], [140.959866, 40.502714], [140.959672, 40.502551], [140.9586525, 40.5015815], [140.9584851, 40.50139], [140.9583806, 40.5012562], [140.9583097, 40.5011654], [140.9580566, 40.5009115], [140.9575727, 40.5004978], [140.9572396, 40.5001785], [140.9567869, 40.4997713], [140.9566002, 40.499519], [140.95653, 40.499397], [140.9564609, 40.4992667], [140.9563781, 40.4991105], [140.9563046, 40.4989898], [140.9560379, 40.4985045], [140.9557639, 40.4981434], [140.9555593, 40.4979278], [140.955385, 40.4977608], [140.9552884, 40.4975858], [140.9552664, 40.4973952], [140.9552193, 40.4971371], [140.955205, 40.496878], [140.9551406, 40.4964585], [140.9551325, 40.4961817], [140.9549899, 40.495708], [140.9546691, 40.495346], [140.9544755, 40.4948318], [140.9542538, 40.4945564], [140.9540978, 40.4943114], [140.9540298, 40.4939605], [140.9539066, 40.4937653], [140.9536553, 40.4934058], [140.9533742, 40.4929958], [140.9533012, 40.4927652], [140.9533383, 40.4923682], [140.9533193, 40.4921354], [140.9532696, 40.4918452], [140.9531996, 40.4915644], [140.9531355, 40.4913695], [140.9530947, 40.4912136], [140.9530985, 40.4907141], [140.9530491, 40.4902935], [140.9529716, 40.4901455], [140.9528276, 40.4899259], [140.9527112, 40.4897033], [140.9524676, 40.4894398], [140.952148, 40.4890879], [140.9519887, 40.4888229], [140.9514461, 40.48837], [140.9512674, 40.4882737], [140.9511975, 40.4882362], [140.9510588, 40.4881619], [140.9510117, 40.4881367], [140.9509671, 40.4881113], [140.9507871, 40.4880086], [140.9500399, 40.48741], [140.9497449, 40.4871835], [140.949452, 40.4869974], [140.9490935, 40.486782], [140.9488097, 40.4866157], [140.9486532, 40.4865164], [140.9483836, 40.4863221], [140.9480547, 40.4860352], [140.9478814, 40.4858178], [140.947713, 40.4855454], [140.9476947, 40.4853774], [140.9477176, 40.4853148], [140.9477601, 40.4850959], [140.9477815, 40.4849762], [140.947721, 40.484818], [140.9476722, 40.4847096], [140.9474068, 40.4844267], [140.9459327, 40.4831044], [140.945621, 40.482611], [140.945429, 40.482217], [140.9451291, 40.4815176], [140.9450535, 40.4810929], [140.9446662, 40.4805558], [140.9443696, 40.4803677], [140.9440144, 40.4800611], [140.9438449, 40.479845], [140.9436148, 40.4793651], [140.9434469, 40.4791919], [140.94302, 40.4788991], [140.9423674, 40.4785604], [140.9418739, 40.4783468], [140.9414442, 40.4781642], [140.9414858, 40.4780114], [140.94151, 40.477231], [140.9415185, 40.4764617], [140.9415326, 40.4759009], [140.9415766, 40.4757471], [140.9416282, 40.4756403], [140.941893, 40.475325], [140.941966, 40.475217], [140.942003, 40.475127], [140.942009, 40.474944], [140.941996, 40.474819], [140.941863, 40.474288], [140.941863, 40.47395], [140.941959, 40.473551], [140.941952, 40.473343], [140.9419, 40.473174], [140.94176, 40.472865], [140.94171, 40.472673], [140.94168, 40.472375], [140.941643, 40.472194], [140.941555, 40.471958], [140.941526, 40.471913], [140.941386, 40.471671], [140.941349, 40.471626], [140.940848, 40.470995], [140.940686, 40.470759], [140.940519, 40.47046], [140.940516, 40.470455], [140.940479, 40.470342], [140.940479, 40.469914], [140.940509, 40.469666], [140.94059, 40.469345], [140.9407, 40.468748], [140.940782, 40.468101], [140.940789, 40.467791], [140.940759, 40.467538], [140.940768, 40.4674716], [140.9409008, 40.4673367], [140.9411926, 40.4672304], [140.9414363, 40.4670917], [140.9416263, 40.4668756], [140.9418333, 40.4663872], [140.9420849, 40.4659702], [140.9423133, 40.4658026], [140.9428127, 40.4655608], [140.9432379, 40.4652713], [140.943675, 40.4648023], [140.9439754, 40.4645054], [140.9443402, 40.4641731], [140.9449076, 40.4635248], [140.945085, 40.4630735], [140.9450635, 40.4625137], [140.9449017, 40.4618978], [140.9444587, 40.4607699], [140.9443379, 40.4600175], [140.9442638, 40.4596641], [140.9440433, 40.4592033], [140.9439263, 40.4588166], [140.9440005, 40.4585271], [140.9440962, 40.4581917], [140.944262, 40.4575995], [140.9443089, 40.4571529], [140.9441078, 40.456525], [140.9439073, 40.4561045], [140.9436004, 40.455529], [140.9432569, 40.4550161], [140.9430006, 40.4546333], [140.9426602, 40.4541074], [140.9423306, 40.4536435], [140.9416385, 40.4526695], [140.941165, 40.452007], [140.9410603, 40.4518366], [140.941002, 40.4516405], [140.9409879, 40.4515387], [140.940965, 40.451333], [140.9409191, 40.4505765], [140.9408811, 40.4497871], [140.9408477, 40.4490597], [140.9408214, 40.4485503], [140.9407491, 40.4483954], [140.9406803, 40.4483258], [140.9406241, 40.4482939], [140.9404337, 40.4482124], [140.9402477, 40.4481766], [140.939788, 40.448088], [140.939294, 40.447942], [140.939103, 40.447863], [140.938896, 40.447762], [140.938101, 40.447232], [140.937895, 40.447092], [140.9375871, 40.4468958], [140.937408, 40.446774], [140.9361352, 40.4459839], [140.9330214, 40.4440468], [140.9327701, 40.4438818], [140.9327211, 40.4438535], [140.9326268, 40.443788], [140.9321166, 40.4435008], [140.9317074, 40.4432384], [140.9307127, 40.4426123], [140.9301715, 40.4422877], [140.929893, 40.4421027], [140.9295187, 40.4418754], [140.9291553, 40.4416421], [140.9289362, 40.4415042], [140.9287547, 40.4413761], [140.9285654, 40.4412135], [140.9284107, 40.4410478], [140.9282852, 40.4408741], [140.9281737, 40.4407066], [140.928057, 40.440488], [140.927985, 40.440249], [140.927954, 40.440011], [140.927955, 40.439684], [140.927967, 40.439244], [140.9279952, 40.438806], [140.9280062, 40.438488], [140.9280215, 40.4381876], [140.9280426, 40.4378046], [140.9279889, 40.4374272], [140.9279234, 40.4371417], [140.9278301, 40.4368992], [140.9277026, 40.4366291], [140.9274657, 40.4362616], [140.9272419, 40.4359959], [140.9269928, 40.4357414], [140.9266703, 40.4354736], [140.9263301, 40.4352476], [140.9260298, 40.4350792], [140.9256849, 40.4349159], [140.9253606, 40.4347916], [140.9249961, 40.4346936], [140.9246808, 40.4346279], [140.9243633, 40.4345717], [140.9240292, 40.4345035], [140.9238121, 40.4344538], [140.9236391, 40.4344081], [140.9234374, 40.4343437], [140.9231636, 40.4342046], [140.9229672, 40.4341015], [140.9227357, 40.4339162], [140.9224965, 40.4336805], [140.9221067, 40.4331728], [140.9216019, 40.4324997], [140.9203867, 40.4311755], [140.9192497, 40.429864], [140.9168897, 40.4276017], [140.9152699, 40.4259554], [140.9141021, 40.4248462], [140.9135132, 40.4242446], [140.9133507, 40.4241034], [140.9131225, 40.4239051], [140.9129414, 40.4237692], [140.9126858, 40.4236158], [140.9123509, 40.4234789], [140.9119156, 40.4233665], [140.9116719, 40.4233328], [140.911205, 40.4233227], [140.910825, 40.4233722], [140.9105027, 40.4234532], [140.9102803, 40.4235314], [140.9099112, 40.4236958], [140.9095063, 40.4238941], [140.9089326, 40.4241766], [140.907593, 40.4247905], [140.9069519, 40.4251176], [140.9064961, 40.4253204], [140.9062271, 40.4254177], [140.9059399, 40.4255064], [140.9058429, 40.4255312], [140.9055998, 40.42558], [140.9053237, 40.425615], [140.9052752, 40.4256212], [140.9049515, 40.4256547], [140.904302, 40.425722], [140.903632, 40.425785], [140.903595, 40.42579], [140.90274, 40.425864], [140.902457, 40.4258705], [140.9022203, 40.4258593], [140.9019691, 40.4258335], [140.9016697, 40.4257815], [140.9012098, 40.4256843], [140.9008356, 40.4256073], [140.9005922, 40.4255552], [140.9003593, 40.4255073], [140.8999977, 40.4254359], [140.8996583, 40.4253822], [140.8993858, 40.4253503], [140.899152, 40.425329], [140.8990576, 40.4253195], [140.8988449, 40.4253099], [140.8984137, 40.4253006], [140.898386, 40.4253], [140.897826, 40.4253134], [140.8976289, 40.4253738], [140.8974367, 40.4252777], [140.8972968, 40.4252007], [140.896667, 40.424882], [140.8942768, 40.4236457], [140.8937814, 40.4233836], [140.8936387, 40.4232841], [140.8935444, 40.4231769], [140.8934455, 40.4230105], [140.8933952, 40.4228343], [140.8933827, 40.4226341], [140.8933807, 40.4225712], [140.893359, 40.4218817], [140.8933546, 40.4214232], [140.8933542, 40.4213796], [140.893311, 40.421089], [140.893259, 40.420943], [140.893156, 40.420785], [140.893009, 40.420627], [140.892728, 40.420391], [140.891829, 40.419895], [140.890917, 40.419388], [140.890373, 40.4190398], [140.8898333, 40.4187746], [140.8894418, 40.4185725], [140.889034, 40.4184], [140.8887918, 40.4182538], [140.8884951, 40.4180466], [140.8883016, 40.4178181], [140.8881888, 40.4176102], [140.8880491, 40.4171868], [140.8879126, 40.4169011], [140.8877133, 40.4166899], [140.8873151, 40.416411], [140.8867336, 40.4159722], [140.8861893, 40.4156252], [140.8855798, 40.4153072], [140.8852315, 40.415171], [140.8846113, 40.4149179], [140.8834983, 40.4143902], [140.8832478, 40.4142857], [140.8827418, 40.4141175], [140.8823325, 40.4140035], [140.881786, 40.4138709], [140.8813161, 40.413786], [140.8808093, 40.4136857], [140.8804718, 40.4136192], [140.8800198, 40.4134682], [140.8796563, 40.4133638], [140.879105, 40.413121], [140.878472, 40.412924], [140.8779138, 40.412747], [140.877482, 40.4126402], [140.877191, 40.4126135], [140.876846, 40.41262], [140.876604, 40.412631], [140.876302, 40.412682], [140.875787, 40.4128], [140.875566, 40.412862], [140.87536, 40.412952], [140.875073, 40.413121], [140.874845, 40.413273], [140.874727, 40.413386], [140.8745903, 40.4135591], [140.874378, 40.4139399], [140.8741955, 40.4142425], [140.873888, 40.414686], [140.873748, 40.414838], [140.873616, 40.414945], [140.8733503, 40.4150578], [140.8731873, 40.4150942], [140.8729906, 40.4150954], [140.8727821, 40.4150581], [140.8725926, 40.4149575], [140.8724413, 40.4148228], [140.8723383, 40.4146604], [140.8722528, 40.4144505], [140.87206, 40.413881], [140.8720035, 40.4137753], [140.871901, 40.413645], [140.8716808, 40.4135525], [140.8714525, 40.4134696], [140.870952, 40.4134388], [140.8704755, 40.4134206], [140.869686, 40.413391], [140.868869, 40.413335], [140.868413, 40.413296], [140.868045, 40.413301], [140.867876, 40.413312], [140.867685, 40.413352], [140.867126, 40.413498], [140.867053, 40.413509], [140.866427, 40.413678], [140.865654, 40.413869], [140.864529, 40.414157], [140.864352, 40.414202], [140.864072, 40.414314], [140.863829, 40.414427], [140.861914, 40.4153112], [140.8596334, 40.4162991], [140.859413, 40.416404], [140.8592188, 40.4165446], [140.8590459, 40.4166844], [140.858901, 40.4168504], [140.858777, 40.4170372], [140.8584931, 40.4169542], [140.8582323, 40.41693], [140.8579765, 40.4169468], [140.8578026, 40.4169741], [140.8575994, 40.4170364], [140.8573985, 40.4171251], [140.856825, 40.4174844], [140.856331, 40.417772], [140.8561648, 40.4178946], [140.856059, 40.418028], [140.855998, 40.4182128], [140.856, 40.418402], [140.8560277, 40.4185165], [140.856147, 40.4189098], [140.8561517, 40.4190254], [140.8561325, 40.419198], [140.8560616, 40.4193205], [140.8559593, 40.419434], [140.8554473, 40.4198276], [140.8553943, 40.4198994], [140.8553805, 40.4199765], [140.8553904, 40.420055], [140.8554204, 40.4201098], [140.8556382, 40.4204478], [140.855678, 40.420531], [140.8556819, 40.4205971], [140.855658, 40.4206558], [140.855606, 40.4207237], [140.8554944, 40.4208171], [140.8554144, 40.4208343], [140.8553121, 40.4208354], [140.8551615, 40.420793], [140.8550594, 40.4207406], [140.8550074, 40.4206762], [140.854767, 40.420369], [140.8547382, 40.4202894], [140.8547326, 40.4202234], [140.8547546, 40.4201368], [140.8548081, 40.4200438], [140.8556138, 40.419345], [140.8556856, 40.4192418], [140.8557034, 40.4191697], [140.855689, 40.4190397], [140.8550845, 40.4179105], [140.8550533, 40.4178451], [140.8550221, 40.4177609], [140.8550094, 40.4176707], [140.8550499, 40.4172357], [140.8550833, 40.4171351], [140.8551533, 40.4170654], [140.8552615, 40.4170064], [140.8554283, 40.4169694], [140.8555746, 40.4169484], [140.8557066, 40.4169009], [140.8558051, 40.4168529], [140.8559323, 40.4167493], [140.8560113, 40.4166511], [140.8560568, 40.4165573], [140.8560779, 40.4164644], [140.8560637, 40.4161884], [140.8560664, 40.4159769], [140.8560991, 40.4158812], [140.8561611, 40.4158181], [140.8562682, 40.4157599], [140.8563843, 40.415741], [140.8565904, 40.4157294], [140.8566858, 40.4157349], [140.8567652, 40.415717], [140.8570248, 40.4155913], [140.8583337, 40.4148766], [140.858965, 40.4146081], [140.8591219, 40.414538], [140.8592183, 40.4144957], [140.8593578, 40.4144399], [140.8594827, 40.4143972], [140.8596153, 40.4143124], [140.8597036, 40.4142052], [140.8597233, 40.4140912], [140.8597134, 40.4139668], [140.859664, 40.4138228], [140.859586, 40.4136405], [140.85952, 40.4135242], [140.859306, 40.4132155], [140.859162, 40.4130846], [140.8590395, 40.4129522], [140.8589976, 40.4128845], [140.8589947, 40.412758], [140.8590258, 40.4126852], [140.8590808, 40.4126155], [140.8591789, 40.4125122], [140.8593134, 40.4123978], [140.8593647, 40.4123155], [140.8593598, 40.4122174], [140.8593281, 40.4120999], [140.8591631, 40.4118842], [140.8591102, 40.4117655], [140.8591227, 40.4116719], [140.8592113, 40.4115697], [140.8593062, 40.4115307], [140.8594643, 40.4115251], [140.8596402, 40.4115772], [140.8597942, 40.4116381], [140.8599436, 40.4117389], [140.8600622, 40.4117819], [140.860194, 40.411814], [140.8606405, 40.411846], [140.8607545, 40.4118367], [140.8610411, 40.4117843], [140.8612837, 40.4117412], [140.861394, 40.411702], [140.8615136, 40.4116168], [140.8615778, 40.411531], [140.8615859, 40.4114138], [140.8614872, 40.4111869], [140.8613111, 40.4108719], [140.8612296, 40.4107498], [140.8611066, 40.4106279], [140.8608967, 40.4104204], [140.8605653, 40.4101832], [140.8604937, 40.4101062], [140.8604499, 40.4099874], [140.8604701, 40.4098786], [140.8605622, 40.4097786], [140.8606984, 40.409715], [140.860842, 40.409669], [140.8609095, 40.4096554], [140.8610163, 40.4096258], [140.8611658, 40.4095684], [140.8613166, 40.4094632], [140.8614277, 40.4093584], [140.8615522, 40.4092119], [140.8616663, 40.4090751], [140.8618513, 40.4088033], [140.861924, 40.4087078], [140.8620061, 40.4085631], [140.8620416, 40.408464], [140.862064, 40.408345], [140.8620451, 40.4082185], [140.8620176, 40.4080878], [140.8620232, 40.407987], [140.8620469, 40.4079114], [140.8620761, 40.4078476], [140.8621203, 40.4077847], [140.8621512, 40.4077509], [140.8622722, 40.4076465], [140.8623926, 40.4075866], [140.8625425, 40.4075205], [140.8626714, 40.4074881], [140.8627947, 40.4074717], [140.8629442, 40.4074775], [140.863109, 40.407483], [140.8632464, 40.4074937], [140.8633726, 40.4074948], [140.8634713, 40.4074896], [140.8637175, 40.4074877], [140.8638888, 40.4074908], [140.8639821, 40.4075084], [140.8640539, 40.4075259], [140.8641338, 40.4075759], [140.8641704, 40.4076453], [140.8641807, 40.4077172], [140.8641633, 40.4077825], [140.86408, 40.4079144], [140.8638694, 40.4083002], [140.8638523, 40.4083849], [140.8638717, 40.4084642], [140.86394, 40.408627], [140.8639963, 40.4088188], [140.8640507, 40.4089336], [140.8641328, 40.4089634], [140.8642448, 40.4089672], [140.8643428, 40.4089281], [140.8644091, 40.4088575], [140.8644491, 40.4087383], [140.8644577, 40.4087152], [140.8645684, 40.4084173], [140.8646507, 40.4081959], [140.8648379, 40.407848], [140.864963, 40.4075878], [140.86514, 40.407072], [140.8652752, 40.4067152], [140.8653201, 40.4065766], [140.8653428, 40.4064565], [140.8653257, 40.4063377], [140.865265, 40.406092], [140.8652289, 40.4059551], [140.8652134, 40.4058961], [140.8652215, 40.4057062], [140.86525, 40.40558], [140.865279, 40.405485], [140.865389, 40.405266], [140.866096, 40.40401], [140.866111, 40.403999], [140.866177, 40.403836], [140.866199, 40.403684], [140.866192, 40.403543], [140.866067, 40.403227], [140.865927, 40.402991], [140.865742, 40.402647], [140.865595, 40.402304], [140.865455, 40.401898], [140.865436, 40.401734], [140.865418, 40.401594], [140.865418, 40.401189], [140.865434, 40.401122], [140.865485, 40.400902], [140.865588, 40.400643], [140.865694, 40.400424], [140.865764, 40.400305], [140.86586, 40.40017], [140.866037, 40.399984], [140.866938, 40.3992134], [140.8671571, 40.398947], [140.867332, 40.39879], [140.8674597, 40.3987144], [140.8675777, 40.3986829], [140.8676925, 40.3986526], [140.8678362, 40.3986306], [140.8680858, 40.3986564], [140.868465, 40.398698], [140.8688373, 40.3987075], [140.868981, 40.398689], [140.869069, 40.39865], [140.869297, 40.398581], [140.869445, 40.398559], [140.869872, 40.398491], [140.870004, 40.398429], [140.870107, 40.398328], [140.870202, 40.398181], [140.870299, 40.398012], [140.870357, 40.397905], [140.870622, 40.397443], [140.8710072, 40.3970269], [140.8714418, 40.396552], [140.8717893, 40.3960759], [140.872006, 40.395874], [140.872057, 40.395823], [140.872204, 40.395716], [140.872477, 40.395586], [140.872557, 40.395558], [140.873286, 40.395254], [140.873367, 40.395226], [140.873837, 40.395029], [140.874301, 40.394708], [140.874419, 40.394646], [140.8745, 40.39459], [140.874581, 40.3945], [140.874736, 40.394286], [140.875102, 40.393616], [140.875206, 40.393413], [140.875295, 40.393199], [140.875772, 40.39285], [140.875942, 40.392766], [140.876141, 40.392715], [140.876332, 40.392687], [140.876671, 40.392619], [140.876899, 40.392545], [140.877193, 40.392348], [140.877407, 40.392173], [140.877554, 40.39209], [140.877664, 40.39201], [140.877716, 40.391982], [140.878113, 40.391678], [140.878297, 40.391548], [140.878599, 40.391335], [140.878901, 40.391155], [140.879916, 40.390732], [140.881284, 40.390164], [140.88138, 40.390136], [140.881792, 40.389928], [140.881954, 40.38981], [140.882234, 40.389523], [140.882366, 40.389359], [140.882558, 40.389083], [140.882683, 40.388807], [140.882689, 40.388744], [140.882748, 40.388578], [140.882974, 40.388326], [140.883484, 40.388028], [140.883535, 40.388004], [140.883586, 40.38798], [140.883854, 40.387913], [140.884373, 40.387798], [140.884397, 40.387698], [140.884412, 40.387648], [140.884441, 40.387479], [140.884463, 40.386972], [140.884485, 40.386893], [140.884523, 40.386828], [140.884566, 40.386752], [140.884721, 40.386544], [140.884772, 40.386443], [140.884824, 40.386262], [140.884883, 40.385795], [140.884986, 40.385215], [140.885037, 40.385045], [140.88517, 40.38482], [140.885236, 40.384583], [140.885302, 40.384426], [140.885398, 40.384313], [140.88556, 40.384144], [140.885751, 40.383902], [140.885803, 40.383784], [140.885839, 40.383598], [140.885898, 40.383457], [140.885964, 40.383356], [140.885964, 40.383339], [140.885979, 40.383339], [140.88606, 40.383277], [140.886237, 40.383205], [140.8867, 40.383098], [140.886825, 40.383047], [140.886921, 40.382963], [140.887039, 40.382799], [140.887245, 40.382428], [140.887421, 40.382203], [140.887775, 40.381843], [140.888084, 40.3816], [140.888209, 40.381527], [140.888562, 40.381353], [140.889084, 40.381138], [140.889261, 40.381088], [140.889445, 40.381065], [140.889828, 40.381065], [140.890336, 40.381133], [140.890483, 40.381133], [140.890821, 40.381088], [140.891027, 40.381048], [140.891093, 40.381026], [140.891233, 40.381014], [140.891299, 40.380891], [140.891388, 40.380542], [140.891388, 40.380339], [140.891351, 40.380125], [140.891277, 40.379906], [140.891108, 40.379528], [140.89099, 40.379309], [140.890379, 40.378142], [140.890284, 40.37799], [140.8902334, 40.3778155], [140.8901093, 40.3777052], [140.8900222, 40.377569], [140.8900063, 40.3774715], [140.8900176, 40.3772914], [140.890143, 40.3770426], [140.890151, 40.3769175], [140.8900726, 40.3768135], [140.8894493, 40.3764823], [140.8892695, 40.376319], [140.889078, 40.3761028], [140.8888892, 40.3759731], [140.8886006, 40.3758864], [140.888187, 40.3758206], [140.8878533, 40.3757906], [140.8876291, 40.375703], [140.8874537, 40.3755894], [140.8873469, 40.3753947], [140.887309, 40.3753315], [140.8871633, 40.375066], [140.8870813, 40.374959], [140.8868588, 40.3747717], [140.885796, 40.374403], [140.885634, 40.374352], [140.885362, 40.374251], [140.8851758, 40.3742012], [140.884876, 40.374121], [140.884632, 40.374071], [140.88436, 40.374059], [140.8843076, 40.3740661], [140.884272, 40.374071], [140.88414, 40.374093], [140.883904, 40.374133], [140.883734, 40.374172], [140.883315, 40.374341], [140.882991, 40.374442], [140.882866, 40.374482], [140.882505, 40.374555], [140.882285, 40.374584], [140.882086, 40.374617], [140.881578, 40.374674], [140.880719, 40.374697], [140.880571, 40.374695], [140.880263, 40.374634], [140.880101, 40.374567], [140.879995, 40.374487], [140.879836, 40.374364], [140.879659, 40.37419], [140.879585, 40.374042], [140.879556, 40.373952], [140.879526, 40.37389], [140.879453, 40.37366], [140.879335, 40.373255], [140.8792861, 40.3730842], [140.8792677, 40.3728968], [140.8792472, 40.3728241], [140.8791447, 40.3727246], [140.8786429, 40.3723172], [140.8784536, 40.3721919], [140.8782023, 40.3720362], [140.8779581, 40.3719216], [140.8777015, 40.3718263], [140.8774273, 40.3718821], [140.8771559, 40.3719633], [140.8768834, 40.3720355], [140.8766248, 40.3721201], [140.8762874, 40.3721618], [140.8759853, 40.3721545], [140.8756394, 40.3720954], [140.8754371, 40.3719703], [140.875252, 40.3718031], [140.8740788, 40.3707487], [140.8739039, 40.3705926], [140.8737323, 40.3705322], [140.8734984, 40.3704919], [140.872964, 40.3704637], [140.8728578, 40.370458], [140.8728342, 40.3704568], [140.8728097, 40.370455], [140.8718273, 40.3703815], [140.8714309, 40.3703451], [140.8711434, 40.3702763], [140.869599, 40.3697995], [140.869272, 40.369703], [140.8688211, 40.3695416], [140.8677063, 40.369111], [140.8672675, 40.3688865], [140.8664595, 40.3684459], [140.8660299, 40.3681437], [140.8652708, 40.3676383], [140.864781, 40.367303], [140.86394, 40.366716], [140.863191, 40.366194], [140.862949, 40.366008], [140.862757, 40.365884], [140.862536, 40.365783], [140.8617999, 40.3655426], [140.8610537, 40.3652796], [140.858239, 40.363935], [140.857849, 40.363755], [140.857342, 40.363592], [140.856871, 40.363479], [140.856348, 40.363412], [140.856231, 40.363395], [140.856091, 40.363384], [140.855833, 40.36335], [140.85523, 40.363198], [140.854818, 40.363068], [140.854729, 40.363034], [140.854171, 40.362769], [140.853199, 40.362285], [140.852309, 40.361914], [140.851999, 40.361745], [140.851807, 40.361632], [140.851337, 40.361255], [140.850842, 40.360892], [140.849837, 40.360273], [140.84938, 40.360003], [140.849071, 40.359821], [140.848827, 40.359633], [140.848735, 40.359543], [140.848653, 40.359452], [140.84854, 40.35927], [140.848435, 40.359009], [140.848349, 40.358696], [140.84825, 40.358288], [140.848143, 40.357858], [140.848044, 40.357485], [140.847947, 40.357158], [140.84785, 40.356865], [140.847747, 40.356593], [140.847634, 40.35633], [140.847507, 40.356063], [140.847362, 40.355781], [140.847189, 40.355484], [140.846991, 40.355175], [140.846772, 40.354854], [140.846541, 40.354517], [140.846351, 40.354233], [140.846065, 40.353786], [140.845834, 40.353385], [140.8456778, 40.3530782], [140.845616, 40.352957], [140.845493, 40.352699], [140.845416, 40.352539], [140.845173, 40.352053], [140.845073, 40.351857], [140.845033, 40.351781], [140.8444672, 40.3506672], [140.8441457, 40.3501508], [140.843815, 40.3497605], [140.8432177, 40.349157], [140.84271, 40.348734], [140.842233, 40.348366], [140.841506, 40.347864], [140.840595, 40.347293], [140.840128, 40.346972], [140.839822, 40.346768], [140.839661, 40.346693], [140.839463, 40.346619], [140.839231, 40.346543], [140.838965, 40.346465], [140.838665, 40.346381], [140.838332, 40.346289], [140.837967, 40.346186], [140.837597, 40.346067], [140.83725, 40.345924], [140.836916, 40.345753], [140.836592, 40.345552], [140.836272, 40.345319], [140.835952, 40.345048], [140.8348579, 40.3437945], [140.832464, 40.3416176], [140.8290678, 40.3385123], [140.828945, 40.3384], [140.828725, 40.338181], [140.8280086, 40.3374307], [140.827607, 40.336985], [140.827493, 40.336838], [140.827395, 40.336654], [140.827342, 40.336477], [140.827318, 40.336311], [140.827314, 40.336174], [140.82733, 40.335949], [140.82736, 40.335674], [140.8280613, 40.3336941], [140.8281659, 40.3333236], [140.8281795, 40.3330138], [140.8281358, 40.3327634], [140.8280262, 40.3323807], [140.8278598, 40.3319082], [140.8278086, 40.331624], [140.8278238, 40.3313963], [140.8278737, 40.3311785], [140.8279755, 40.3309244], [140.8281743, 40.3305406], [140.8285242, 40.330081], [140.8287027, 40.3297183], [140.8289662, 40.328703], [140.8294068, 40.327248], [140.8294938, 40.3267518], [140.8295177, 40.3266326], [140.8295534, 40.3264133], [140.8295891, 40.3261939], [140.8296095, 40.3259141], [140.8295969, 40.3247134], [140.8296251, 40.3243286], [140.8296717, 40.3240638], [140.8299931, 40.3234209], [140.8300955, 40.3233187], [140.8306862, 40.3224499], [140.8307994, 40.3222189], [140.8309003, 40.3219866], [140.830956, 40.3216993], [140.8309507, 40.3214837], [140.8308987, 40.3210608], [140.8306731, 40.3204234], [140.8300544, 40.3186617], [140.8300372, 40.3184773], [140.8300097, 40.3181392], [140.8300252, 40.3176868], [140.83058, 40.314915], [140.830646, 40.314712], [140.830713, 40.31456], [140.8308495, 40.3143928], [140.8310445, 40.3142041], [140.8314042, 40.313875], [140.8318402, 40.3136009], [140.8320045, 40.3135264], [140.8322462, 40.3134019], [140.8325083, 40.313298], [140.8330087, 40.3131315], [140.8333165, 40.3130163], [140.8344276, 40.3124401], [140.8346003, 40.3123518], [140.834772, 40.3122126], [140.8348756, 40.3120956], [140.83573, 40.3109766], [140.835936, 40.3108024], [140.8362626, 40.3105925], [140.8368947, 40.3100479], [140.8371062, 40.3098731], [140.8372869, 40.3096866], [140.8374205, 40.3095194], [140.8376185, 40.3091027], [140.8377338, 40.3089125], [140.83787, 40.3087305], [140.8389291, 40.3077978], [140.8391281, 40.307584], [140.8393003, 40.3073538], [140.8394382, 40.3070861], [140.8395273, 40.3068434], [140.8395707, 40.3065999], [140.8396007, 40.3063319], [140.839535, 40.3054886], [140.8395192, 40.3051707], [140.8395207, 40.3048686], [140.839561, 40.304612], [140.8396056, 40.3043543], [140.8400219, 40.3022176], [140.8401342, 40.3016874], [140.8401432, 40.3015816], [140.8401514, 40.3014529], [140.8401432, 40.3013103], [140.8401087, 40.3011421], [140.8400486, 40.3009609], [140.8399616, 40.3007998], [140.8398292, 40.3006246], [140.8395168, 40.3002901], [140.839349, 40.300089], [140.8382661, 40.2988982], [140.8377626, 40.2983638], [140.8375399, 40.2981259], [140.8373818, 40.2979388], [140.8373083, 40.2978099], [140.8373378, 40.2976528], [140.8373764, 40.2975059], [140.8375091, 40.2971968], [140.8375372, 40.2971161], [140.8375072, 40.2970201], [140.8374305, 40.2969275], [140.837217, 40.296834], [140.836887, 40.296738], [140.8361962, 40.296542], [140.835953, 40.296473], [140.8357944, 40.2964266], [140.835564, 40.296366], [140.834697, 40.296118], [140.8336104, 40.2957836], [140.833586, 40.2957796], [140.8328827, 40.2955584], [140.832821, 40.2955399], [140.8321415, 40.295439], [140.8319715, 40.2954241], [140.8318788, 40.2954159], [140.8312902, 40.2952666], [140.8301835, 40.2949858], [140.8294401, 40.2947937], [140.8288521, 40.294642], [140.8282297, 40.2944773], [140.8279728, 40.2944064], [140.8257593, 40.2938234], [140.825345, 40.2937355], [140.8252421, 40.2937214], [140.8251195, 40.2937045], [140.8238503, 40.2935583], [140.8234229, 40.293509], [140.822462, 40.2934009], [140.8215354, 40.2932908], [140.8206621, 40.2931699], [140.8204073, 40.2931372], [140.8198093, 40.2930762], [140.8197512, 40.2930682], [140.819388, 40.293055], [140.8192212, 40.2930756], [140.818676, 40.293021], [140.818492, 40.292971], [140.818286, 40.29288], [140.817213, 40.292278], [140.816133, 40.291687], [140.815963, 40.291591], [140.815662, 40.291422], [140.8156057, 40.291394], [140.8150576, 40.2911214], [140.8137001, 40.2903801], [140.8111247, 40.2889978], [140.808511, 40.2875762], [140.8082727, 40.2874586], [140.8079827, 40.2873098], [140.805821, 40.286124], [140.8053709, 40.2858968], [140.804388, 40.2853577], [140.804175, 40.285178], [140.803977, 40.284987], [140.8026572, 40.2832921], [140.8011811, 40.2813593], [140.8005895, 40.2805927], [140.7999088, 40.2797151], [140.7998053, 40.27954], [140.7997463, 40.2793557], [140.7997489, 40.2791766], [140.7999217, 40.2774277], [140.7999099, 40.2771993], [140.7997882, 40.2768747], [140.7996701, 40.2765964], [140.7995123, 40.2763874], [140.7992934, 40.2761369], [140.7991757, 40.2760476], [140.7990758, 40.2759718], [140.7984752, 40.2756585], [140.7984449, 40.2756511], [140.7982112, 40.2755937], [140.7979596, 40.2755406], [140.7952766, 40.2751886], [140.7948421, 40.2751077], [140.79432, 40.274911], [140.7931472, 40.2743841], [140.7883282, 40.2721346], [140.7856476, 40.2708737], [140.78482, 40.2704836], [140.784229, 40.270205], [140.7839663, 40.2700865], [140.7837569, 40.2699921], [140.7836742, 40.2699548], [140.783182, 40.2697791], [140.782476, 40.2696238], [140.780818, 40.2692861], [140.7806922, 40.2692575], [140.7792658, 40.2689332], [140.778541, 40.2687532], [140.7783044, 40.2686757], [140.7780754, 40.2685842], [140.777415, 40.268302], [140.776997, 40.268065], [140.77682, 40.267964], [140.776394, 40.267699], [140.775085, 40.2668627], [140.7745259, 40.2665064], [140.7744155, 40.2664304], [140.7730452, 40.2655768], [140.7722009, 40.2650766], [140.772024, 40.2649691], [140.7714032, 40.26464], [140.7711634, 40.2645128], [140.7704712, 40.2641614], [140.7703049, 40.2640908], [140.7692928, 40.2636198], [140.768149, 40.263065], [140.767627, 40.262795], [140.767227, 40.262604], [140.766788, 40.262372], [140.7667354, 40.2623447], [140.76654, 40.262243], [140.766275, 40.262108], [140.766025, 40.261989], [140.765753, 40.261843], [140.765261, 40.261522], [140.764967, 40.261291], [140.764688, 40.26106], [140.76446, 40.260829], [140.764162, 40.260467], [140.763569, 40.25972], [140.7634555, 40.2595738], [140.763284, 40.259353], [140.762976, 40.25888], [140.7627754, 40.2585166], [140.7624385, 40.257864], [140.7616659, 40.2567553], [140.7611763, 40.2559611], [140.760714, 40.2551831], [140.760497, 40.254818], [140.7596059, 40.2533372], [140.759336, 40.2529125], [140.758009, 40.2507462], [140.7578137, 40.2504301], [140.757494, 40.250007], [140.75734, 40.249826], [140.757003, 40.249471], [140.756727, 40.24922], [140.7564081, 40.2489789], [140.7561085, 40.2487623], [140.7558028, 40.2485722], [140.755484, 40.2483993], [140.7551364, 40.2482213], [140.7547748, 40.2480661], [140.7543939, 40.2479275], [140.7541089, 40.2478388], [140.7537023, 40.2477339], [140.7534634, 40.2476659], [140.7532621, 40.2476357], [140.752858, 40.2475566], [140.7525642, 40.2475159], [140.7520449, 40.247458], [140.7516115, 40.2474191], [140.7498348, 40.2473341], [140.7478833, 40.247261], [140.7472695, 40.2472238], [140.7463327, 40.2470882], [140.7459425, 40.2470079], [140.7457999, 40.2469786], [140.7453316, 40.246858], [140.7448322, 40.2467069], [140.7446147, 40.2466306], [140.7442841, 40.2465146], [140.743776, 40.2463042], [140.7437078, 40.2462724], [140.7429566, 40.2459018], [140.7425188, 40.2456414], [140.741911, 40.245208], [140.7415672, 40.2449357], [140.7414944, 40.2448735], [140.7412185, 40.2446188], [140.740959, 40.244369], [140.7406875, 40.2440798], [140.7404615, 40.2437892], [140.7401681, 40.2433247], [140.7395881, 40.2424064], [140.738408, 40.2403772], [140.7383767, 40.2403234], [140.7364918, 40.236959], [140.7360658, 40.2362127], [140.73447, 40.233715], [140.734461, 40.2337012], [140.7328254, 40.2312016], [140.7317916, 40.2296253], [140.7314686, 40.2292139], [140.7310631, 40.2287684], [140.7310137, 40.2287141], [140.7305521, 40.2283291], [140.7302342, 40.2281272], [140.72961, 40.227748], [140.728606, 40.227222], [140.7277886, 40.2268008], [140.7261057, 40.2259337], [140.7260439, 40.2259014], [140.7233571, 40.2244949], [140.722649, 40.2241328], [140.7223041, 40.223964], [140.7219276, 40.2238145], [140.7215134, 40.2236825], [140.7211383, 40.2235924], [140.7207417, 40.2235208], [140.7203606, 40.2234806], [140.7199859, 40.2234598], [140.7195779, 40.2234659], [140.7192196, 40.2234932], [140.7188286, 40.2235417], [140.7184494, 40.2236104], [140.7180782, 40.2237015], [140.7177249, 40.2238162], [140.7173867, 40.2239517], [140.7170114, 40.2241346], [140.7166744, 40.2243302], [140.7163455, 40.2245586], [140.7160871, 40.2247789], [140.715824, 40.2250292], [140.7150991, 40.2258184], [140.7143509, 40.2265628], [140.7140309, 40.2268292], [140.713703, 40.2270666], [140.7133773, 40.227269], [140.7130542, 40.2274529], [140.7127146, 40.2276218], [140.7123509, 40.2277784], [140.7116065, 40.2280718], [140.7114973, 40.2281149], [140.7074314, 40.2297306], [140.7038937, 40.2311454], [140.7035042, 40.2313012], [140.7030653, 40.2314992], [140.7027334, 40.2316669], [140.7024425, 40.2318436], [140.7021162, 40.2320714], [140.7017707, 40.2323566], [140.7014304, 40.2326426], [140.7011366, 40.2328659], [140.7008154, 40.2330639]], [[140.6788458, 40.2262695], [140.6790735, 40.2266464], [140.6794348, 40.2272443], [140.6798892, 40.2279807], [140.6801373, 40.228386], [140.6801475, 40.2284004], [140.6803988, 40.2287564], [140.6806609, 40.229062], [140.6809007, 40.2293268], [140.6811691, 40.2295963], [140.6814576, 40.2298647], [140.6817984, 40.2301431], [140.6821526, 40.2304033], [140.6825101, 40.2306389], [140.6829329, 40.230898], [140.683353, 40.2311161], [140.6838348, 40.2313455], [140.684302, 40.2315401], [140.6848041, 40.2317298], [140.684836, 40.2317419], [140.6853745, 40.2319235], [140.6858835, 40.2320806], [140.6865273, 40.2322662], [140.6873981, 40.232476], [140.6882582, 40.2326631], [140.6891317, 40.2328317], [140.6900047, 40.2329662], [140.6908901, 40.2330814], [140.691781, 40.2331678], [140.6926765, 40.2332302], [140.693572, 40.2332761], [140.6935925, 40.2332772], [140.6946524, 40.233335], [140.6953507, 40.2333727], [140.6954741, 40.2333794], [140.6967443, 40.233448], [140.6984334, 40.2335394], [140.6988287, 40.2335471], [140.6991677, 40.2335344], [140.6995085, 40.2334917], [140.6998545, 40.2334224], [140.7001922, 40.2333267], [140.7005065, 40.2332106], [140.7008154, 40.2330639]], [[140.6788458, 40.2262695], [140.6786911, 40.2260185], [140.6784929, 40.2256896], [140.6781073, 40.2250498], [140.6780407, 40.2249394], [140.6777853, 40.2245468], [140.6774036, 40.2240484], [140.6770689, 40.2237111], [140.6767183, 40.2233972], [140.6762955, 40.2230932], [140.6758942, 40.2228588], [140.6754654, 40.222652], [140.6749789, 40.2224622], [140.6744907, 40.2223072], [140.6740137, 40.2221921], [140.6736025, 40.22212], [140.6732399, 40.2220773], [140.6728458, 40.2220465], [140.6724134, 40.2220368], [140.6703555, 40.2220621], [140.6697288, 40.222069], [140.6693644, 40.222076], [140.6684552, 40.2220934], [140.6679025, 40.222082], [140.6667957, 40.222084], [140.6660066, 40.2220763], [140.6658188, 40.2220824], [140.6644047, 40.2220954], [140.664231, 40.2220977], [140.6615881, 40.2221322], [140.6578377, 40.2221622], [140.6567665, 40.2221773], [140.6558894, 40.2221696], [140.6551445, 40.222148], [140.6544745, 40.2221069], [140.6540462, 40.2220588], [140.6538415, 40.2220376], [140.6535445, 40.2219961], [140.6531754, 40.2219305], [140.6527602, 40.2218366], [140.6523623, 40.2217269], [140.6518405, 40.2215519], [140.6513763, 40.2213708], [140.6509823, 40.2211754], [140.6508114, 40.2210873], [140.6504782, 40.2208923], [140.6501591, 40.2206728], [140.6494679, 40.2201985], [140.6489276, 40.2198511], [140.6485504, 40.2196134], [140.648144, 40.2194136], [140.647864, 40.2192731], [140.6474788, 40.2191089], [140.6470571, 40.2189537], [140.6466198, 40.2188091], [140.646015, 40.2186516], [140.6455408, 40.2185601], [140.6451678, 40.2184979], [140.644823, 40.2184509], [140.6444457, 40.2184133], [140.6438249, 40.2183862], [140.6433452, 40.2183859], [140.6422706, 40.218444], [140.6413063, 40.2184619], [140.6411089, 40.2184621], [140.6408518, 40.2184623], [140.6403905, 40.2184476], [140.6399712, 40.2184169], [140.6396714, 40.2183766], [140.6389318, 40.2182583], [140.6382959, 40.2180939], [140.637808, 40.2179275], [140.636237, 40.217311], [140.6356978, 40.2171303], [140.6353484, 40.2170271], [140.6349246, 40.2169349], [140.6344256, 40.2168498], [140.6339112, 40.2167887], [140.6336718, 40.2167687], [140.6332935, 40.2167555], [140.6329185, 40.2167532], [140.6313926, 40.2168469], [140.6306172, 40.2168946], [140.629997, 40.2168946], [140.6294654, 40.216851], [140.6289589, 40.2167811], [140.6289358, 40.2167779], [140.6285901, 40.216705], [140.627641, 40.2164628], [140.6271926, 40.2163576], [140.6267423, 40.216252], [140.6266942, 40.2162407], [140.6264034, 40.2161725], [140.625747, 40.2160186], [140.6251986, 40.2158871], [140.6251029, 40.2158634], [140.6243527, 40.2156776], [140.6234886, 40.2154803], [140.6229301, 40.2153554], [140.6225883, 40.2153112], [140.6223163, 40.2153023], [140.6220088, 40.2153093], [140.6218108, 40.2153196], [140.6214905, 40.2153741], [140.620977, 40.215514], [140.6200835, 40.215817], [140.6182761, 40.2164712], [140.6164679, 40.2171011], [140.6146494, 40.2177178], [140.6135997, 40.2180717], [140.6129358, 40.2183204], [140.6120204, 40.2187118], [140.6110165, 40.2192388], [140.6102229, 40.2196814], [140.6096626, 40.2200499], [140.6081781, 40.2209619], [140.608029, 40.221055], [140.607743, 40.221246], [140.606508, 40.222103], [140.6061484, 40.2223445], [140.6061, 40.222377], [140.6058236, 40.2225379], [140.6057808, 40.2225661], [140.6056689, 40.2226398], [140.6050443, 40.2230089], [140.6036989, 40.2238763], [140.6025949, 40.2245856], [140.6021257, 40.2249153], [140.6017568, 40.2251917], [140.6013538, 40.2254811], [140.6008398, 40.2259252], [140.6007436, 40.2260084], [140.6002229, 40.2264735], [140.600181, 40.226511], [140.59958, 40.227046], [140.5992362, 40.2273281], [140.599073, 40.227462], [140.5985676, 40.2278102], [140.5981717, 40.228039], [140.598118, 40.22807], [140.597782, 40.228245], [140.597488, 40.228386], [140.5958471, 40.2291134], [140.595469, 40.229281], [140.59453, 40.229697], [140.5929029, 40.2303879], [140.5926081, 40.2305131], [140.5913084, 40.2310857], [140.5903991, 40.2314763], [140.5900175, 40.2316438], [140.589649, 40.2318147], [140.5892788, 40.2320004], [140.5889449, 40.2321789], [140.5886412, 40.2323541], [140.5883496, 40.2325395], [140.588092, 40.2327207], [140.58779, 40.232948], [140.5875494, 40.2331352], [140.5874843, 40.2331837], [140.5871306, 40.2334651], [140.5868413, 40.2336933], [140.5866715, 40.2338345], [140.586589, 40.2339031], [140.5863421, 40.2341203], [140.58611, 40.2343456], [140.5858957, 40.2345814], [140.5857123, 40.2348161], [140.5855437, 40.2350579], [140.5854013, 40.2353088], [140.5852703, 40.2355595], [140.5851662, 40.2357907], [140.585085, 40.2360255], [140.5849791, 40.2364367], [140.5846738, 40.2377951], [140.5845909, 40.2381257], [140.5845054, 40.2384327], [140.5844282, 40.238674], [140.584339, 40.2389273], [140.5842296, 40.2391858], [140.5841353, 40.2393943], [140.5840343, 40.239609], [140.5839196, 40.2398277], [140.583809, 40.2400281], [140.5836636, 40.2402704], [140.5835048, 40.2405188], [140.5833483, 40.2407595], [140.5831704, 40.2410175], [140.5828808, 40.2414262], [140.5827029, 40.241681], [140.582546, 40.241909], [140.5823998, 40.2421226], [140.5822606, 40.242336], [140.5821188, 40.2425616], [140.5819824, 40.2427908], [140.5818527, 40.2430303], [140.5817344, 40.2432746], [140.58163, 40.243507], [140.5815322, 40.2437425], [140.5814534, 40.2439635], [140.5813914, 40.2441537], [140.581332, 40.2443459], [140.5812869, 40.2445257], [140.5812446, 40.2447137], [140.5811946, 40.2449403], [140.581162, 40.2451424], [140.5811319, 40.245412], [140.5811138, 40.2457], [140.5811099, 40.2460457], [140.5811121, 40.2464127], [140.5811191, 40.246835], [140.5811332, 40.2472718], [140.5811741, 40.2484746], [140.5811974, 40.2491577], [140.581221, 40.2498755], [140.5812261, 40.2501306], [140.5812225, 40.2503601], [140.5812159, 40.2505542], [140.5811985, 40.2507381], [140.5811731, 40.2509269], [140.5811315, 40.2511188], [140.5810898, 40.2512887], [140.5810347, 40.2514606], [140.580969, 40.2516366], [140.5808871, 40.2518257], [140.5807986, 40.2520069], [140.5807076, 40.2521748], [140.5805953, 40.252355], [140.5804696, 40.2525373], [140.5803462, 40.2527001], [140.5801837, 40.2528926], [140.5800242, 40.2530581], [140.5798378, 40.2532359], [140.5796762, 40.2533767], [140.5794928, 40.2535216], [140.5793012, 40.2536583], [140.5789814, 40.2538656], [140.5787418, 40.2540044], [140.578502, 40.2541264], [140.578239, 40.2542477], [140.5779722, 40.2543546], [140.5777362, 40.2544385], [140.5774773, 40.2545205], [140.5772145, 40.25459], [140.5769556, 40.2546494], [140.5766767, 40.2547026], [140.5763736, 40.2547497], [140.5760665, 40.2547899], [140.5755501, 40.2548447], [140.5738993, 40.2550036], [140.5720247, 40.2551804], [140.5714328, 40.2552374], [140.5710651, 40.2552714], [140.5707322, 40.2552962], [140.570403, 40.2553075], [140.5700636, 40.2553092], [140.5697804, 40.2552982], [140.5694863, 40.2552755], [140.5691935, 40.2552414], [140.5688932, 40.2551943], [140.5685826, 40.2551347], [140.5682871, 40.2550659], [140.5679918, 40.2549889], [140.5670289, 40.2547301], [140.5664461, 40.2545671], [140.5657453, 40.2543746], [140.5654235, 40.2542912], [140.565115, 40.2542135], [140.5647744, 40.2541391], [140.5644552, 40.2540822], [140.5641237, 40.2540303], [140.5638294, 40.2539908], [140.5635271, 40.2539657], [140.5632098, 40.2539491], [140.56287, 40.2539452], [140.5624876, 40.2539543], [140.5621422, 40.253973], [140.5617408, 40.2540148], [140.5613852, 40.2540643], [140.5610306, 40.2541296], [140.560676, 40.2542113], [140.5603111, 40.2543116], [140.5599866, 40.254414], [140.5596808, 40.2545259], [140.5593835, 40.2546479], [140.5591129, 40.2547749], [140.5587954, 40.254951], [140.5585229, 40.2551206], [140.5582213, 40.2553258], [140.5573287, 40.255977]], [[140.5812446, 40.2447137], [140.5812153, 40.2449414], [140.5811955, 40.2451649], [140.5811774, 40.2454398], [140.58117, 40.2457003], [140.5811687, 40.2460412], [140.5811882, 40.2464169], [140.5812212, 40.246852], [140.581237, 40.2472702], [140.5812807, 40.2484729], [140.5813044, 40.2491575], [140.5813243, 40.2498752], [140.5813295, 40.2501292], [140.5813269, 40.2503629], [140.5813169, 40.2505576], [140.5813015, 40.2507421], [140.5812761, 40.250935], [140.5812359, 40.2511372], [140.5811915, 40.2513199], [140.5811338, 40.2515011], [140.5810684, 40.2516688], [140.5809937, 40.2518423], [140.5809037, 40.2520287], [140.5808029, 40.2522079], [140.5806909, 40.2523915], [140.5805618, 40.2525785], [140.5804274, 40.2527532], [140.5802764, 40.2529358], [140.5801101, 40.2531096], [140.5799317, 40.2532803], [140.5797421, 40.2534434], [140.5795327, 40.2536052], [140.5793549, 40.2537324], [140.5789545, 40.2539849], [140.5786022, 40.2541763], [140.5782921, 40.2543182], [140.5780322, 40.2544233], [140.5777884, 40.2545091], [140.5775195, 40.2545945], [140.5772582, 40.2546652], [140.5769945, 40.2547282], [140.5767043, 40.2547817], [140.5763953, 40.2548316], [140.5760757, 40.2548734], [140.5755566, 40.2549262], [140.5739153, 40.2550813], [140.5719922, 40.255268], [140.571437, 40.2553228], [140.5710678, 40.2553557], [140.5707356, 40.255378], [140.5703833, 40.2553921], [140.5700553, 40.2553931], [140.5697617, 40.2553805], [140.5694652, 40.2553566], [140.5691525, 40.2553203], [140.5688661, 40.2552737], [140.5685729, 40.2552173], [140.5682693, 40.2551468], [140.5679524, 40.2550644], [140.5670054, 40.2548066], [140.5664123, 40.2546461], [140.5657066, 40.2544531], [140.5653684, 40.2543669], [140.5650654, 40.2542912], [140.5647474, 40.2542194], [140.5644217, 40.2541588], [140.5641013, 40.2541094], [140.5638143, 40.2540744], [140.5635111, 40.2540476], [140.5631983, 40.2540323], [140.5628539, 40.2540291], [140.5624841, 40.2540415], [140.5621252, 40.2540623], [140.5617587, 40.2541021], [140.5613976, 40.2541515], [140.5610613, 40.2542106], [140.5607041, 40.2542942], [140.5603534, 40.254394], [140.5600081, 40.2545061], [140.5597228, 40.254607], [140.5594389, 40.2547228], [140.5591737, 40.2548458], [140.5588475, 40.2550107], [140.5585564, 40.2551792], [140.558268, 40.2553599], [140.5573287, 40.255977], [140.556403, 40.2565969], [140.5544986, 40.2578859], [140.5525925, 40.2591675], [140.550029, 40.260822], [140.549308, 40.261306], [140.54747, 40.262467], [140.5463511, 40.2631977], [140.5459509, 40.2634591], [140.5456152, 40.2636765], [140.5454524, 40.2637698], [140.5448515, 40.2641117], [140.5443567, 40.2643564], [140.5440038, 40.2644918], [140.5435855, 40.264656], [140.5431806, 40.2647916], [140.5427717, 40.2649099], [140.542357, 40.265023], [140.541921, 40.2651296], [140.5414485, 40.2652334], [140.5409281, 40.2653307], [140.5403737, 40.2654219], [140.5387702, 40.2656937], [140.5379573, 40.2658326], [140.5367123, 40.2660425], [140.5363567, 40.2661095], [140.5359625, 40.2661923], [140.535593, 40.2662787], [140.5352169, 40.2663762], [140.5348462, 40.266487], [140.5345136, 40.2665983], [140.5341403, 40.2667347], [140.5337644, 40.2668834], [140.5330045, 40.2672047], [140.5291753, 40.2688411], [140.5277894, 40.2694405], [140.527343, 40.2696195], [140.5268632, 40.2697965], [140.5264005, 40.2699466], [140.5259561, 40.270074], [140.5255413, 40.2701767], [140.5251214, 40.2702649], [140.5247016, 40.2703428], [140.524275, 40.2704105], [140.5237737, 40.2704891], [140.5233367, 40.2705543], [140.5226474, 40.2706614], [140.5200878, 40.2710459], [140.518738, 40.2712727], [140.5181559, 40.2713726], [140.5175862, 40.271478], [140.5170846, 40.2715793], [140.516409, 40.2717487]], [[140.5443567, 40.2643564], [140.5441187, 40.2644722], [140.5438484, 40.2646002], [140.5435446, 40.2647277], [140.5432282, 40.2648521], [140.5428435, 40.2649734], [140.5424135, 40.2650941], [140.5419502, 40.2652093], [140.5414794, 40.265312], [140.541043, 40.2653954], [140.5406541, 40.2654676], [140.5387511, 40.26579], [140.5379936, 40.2659149], [140.5367471, 40.26613], [140.5364014, 40.2661986], [140.5360056, 40.2662778], [140.535634, 40.2663621], [140.5352927, 40.2664465], [140.5349125, 40.2665576], [140.5345651, 40.2666725], [140.5342069, 40.2668038], [140.53385, 40.2669473], [140.5330559, 40.2672823], [140.5292184, 40.2689188], [140.5288348, 40.2690835], [140.5271969, 40.2697628], [140.5268598, 40.2698837], [140.5264422, 40.270019], [140.5260566, 40.2701311], [140.5256102, 40.2702432], [140.5251716, 40.2703398], [140.524725, 40.2704214], [140.5242984, 40.2704888], [140.5226616, 40.2707463], [140.5201225, 40.2711229], [140.518765, 40.2713276], [140.51822, 40.2714163], [140.5176912, 40.2715038], [140.5170997, 40.2716089], [140.516409, 40.2717487], [140.5156946, 40.2719241], [140.5149509, 40.2721457], [140.5141929, 40.2723965], [140.5135603, 40.2726359], [140.5128849, 40.2729069], [140.5109137, 40.2737363], [140.509763, 40.2741385], [140.5093858, 40.2742827], [140.5087612, 40.274496], [140.5078642, 40.2747501], [140.5076247, 40.274831], [140.507479, 40.2748993], [140.5073612, 40.2749545], [140.5071895, 40.2750673], [140.5070573, 40.2752229], [140.5069437, 40.2753891]]]}, "id": "relation/2988615"}]}