{"type": "FeatureCollection", "generator": "kokudo-quiz tools/fetch_raw.py (Overpass API)", "copyright": "The data included in this document is from www.openstreetmap.org. The data is made available under ODbL.", "timestamp": "2026-09-30T14:37:59Z", "features": [{"type": "Feature", "properties": {"@id": "relation/3066227", "colour": "red", "from": "青森県八戸市", "name": "国道104号", "name:en": "National Highway Route 104", "name:ja": "国道104号", "name:ja-Hira": "こくどうひゃくよんごう", "name:ja-Latn": "kokudou 104 gou", "network": "JP:national", "operator": "青森河川国道事務所;青森県;秋田県", "ref": "104", "route": "road", "to": "秋田県大館市", "type": "route", "wikidata": "Q6156706", "wikipedia": "ja:国道104号"}, "geometry": {"type": "MultiLineString", "coordinates": [[[141.4659923, 40.5278057], [141.4659332, 40.527714], [141.4658216, 40.5275083], [141.4657846, 40.5273697], [141.4657809, 40.5272092], [141.4658076, 40.5270342], [141.4658614, 40.5268902], [141.4660268, 40.5264499], [141.4660764, 40.5262185], [141.4661654, 40.5258286], [141.466173, 40.5258016], [141.4662864, 40.5253261], [141.4663291, 40.5251471], [141.4663644, 40.5249629], [141.4664626, 40.5244508], [141.4664948, 40.524249], [141.4665282, 40.5240653], [141.4665762, 40.5238018], [141.4666839, 40.5231181], [141.466712, 40.5229227], [141.4668802, 40.5218294], [141.4669089, 40.5216456], [141.4670577, 40.5206542], [141.4671184, 40.5202512], [141.4671377, 40.5201228], [141.4672132, 40.5196006], [141.4673312, 40.5189615], [141.4673669, 40.5188523], [141.4674283, 40.5187164], [141.4674456, 40.5186781], [141.4675606, 40.5185151], [141.4679591, 40.5180857], [141.4684811, 40.5175868], [141.4685956, 40.5174774], [141.4686858, 40.5173848], [141.4687479, 40.5173237], [141.4692997, 40.5167805], [141.4693604, 40.516722], [141.4699144, 40.5162373], [141.4703345, 40.5159063], [141.4705842, 40.5157234], [141.4713881, 40.5151886], [141.4714664, 40.515139], [141.4718357, 40.5149005], [141.4721006, 40.514728], [141.4723629, 40.5145234], [141.4725754, 40.5143053], [141.472971, 40.5138562], [141.4730527, 40.5137612], [141.4731478, 40.5136467], [141.4738334, 40.5128218], [141.4746745, 40.5117779], [141.4747498, 40.5116845], [141.4748284, 40.5115904], [141.4753919, 40.5109164], [141.4761308, 40.5100533], [141.4761787, 40.5099974], [141.4770626, 40.5089779], [141.4776237, 40.5083244], [141.478432, 40.5073767], [141.4784932, 40.5072461], [141.4785536, 40.5071171], [141.4782492, 40.5071893], [141.4776691, 40.5073269], [141.4768148, 40.5075374], [141.4767391, 40.507556], [141.4762644, 40.5076642], [141.475878, 40.5077593], [141.4750682, 40.5079552], [141.4743932, 40.5080547], [141.4727498, 40.5082698], [141.4723885, 40.5082981], [141.4722494, 40.5082997], [141.4719461, 40.5083031], [141.4711749, 40.5082572], [141.4698165, 40.5081763], [141.4687622, 40.5080738], [141.4686628, 40.5080601], [141.4682006, 40.5079964], [141.4679262, 40.5079596], [141.4672146, 40.507866], [141.4666884, 40.5077979], [141.4663017, 40.5077455], [141.4659636, 40.5076997], [141.4655474, 40.5076435], [141.4654511, 40.5076305], [141.4651161, 40.5075856], [141.4648112, 40.5075148], [141.4646388, 40.50745], [141.4646005, 40.5074387], [141.4643223, 40.5073564], [141.4637694, 40.5071928], [141.4634894, 40.5071099], [141.4629217, 40.5069418], [141.4625285, 40.5068242], [141.4622656, 40.5066941], [141.4620407, 40.5065186], [141.4619184, 40.506415], [141.4617811, 40.5062541], [141.461671, 40.5060593], [141.4615746, 40.5057565], [141.4614657, 40.5054708], [141.4613442, 40.5052737], [141.4610961, 40.5050228], [141.4608774, 40.504863], [141.4606462, 40.504743], [141.4602719, 40.504593], [141.4601181, 40.5045516], [141.4597259, 40.5044462], [141.45961, 40.5043905], [141.4594647, 40.5043328], [141.4592041, 40.5042669], [141.4589779, 40.5042097], [141.4587502, 40.504137], [141.4584582, 40.5040251], [141.4581232, 40.5038653], [141.4571345, 40.5033637], [141.4567454, 40.5031654], [141.4565216, 40.5030591], [141.4560559, 40.5028138], [141.4553601, 40.5024339], [141.4543864, 40.5019037], [141.4542752, 40.5018448], [141.4530635, 40.5011652], [141.4527307, 40.5009631], [141.4526489, 40.5009082], [141.4522736, 40.500656], [141.4517548, 40.5002892], [141.4513946, 40.5000122], [141.4506556, 40.499494], [141.4502749, 40.4992782], [141.4499154, 40.4991262], [141.4493414, 40.4989643], [141.4491658, 40.4989268], [141.4486697, 40.4988213], [141.4484335, 40.4987803], [141.4479666, 40.4986611], [141.4474969, 40.4984871], [141.447232, 40.498373], [141.4463283, 40.4979837], [141.4452014, 40.4975279], [141.4449291, 40.4974432]], [[141.4597259, 40.5044462], [141.4594846, 40.5044195], [141.4591726, 40.5043408], [141.4589953, 40.5042961], [141.4584739, 40.5041433], [141.4582289, 40.5040307], [141.4575378, 40.5036807], [141.4570569, 40.5034364], [141.4566339, 40.5032122], [141.4559929, 40.5028848], [141.4555702, 40.5026718], [141.4552877, 40.5025209], [141.4548464, 40.5022918], [141.4543075, 40.501979], [141.4542448, 40.5019458], [141.4541907, 40.5019172], [141.4533636, 40.5014536], [141.4529341, 40.5012076], [141.4525579, 40.5009765], [141.4521527, 40.5007001], [141.4516716, 40.5003521], [141.4509856, 40.4998521], [141.4506094, 40.4995919], [141.4502226, 40.4993625], [141.4498823, 40.4992218], [141.4493062, 40.4990504], [141.4489491, 40.4989729], [141.448468, 40.498884], [141.4479971, 40.4987694], [141.4473901, 40.4985458], [141.4471749, 40.4984504], [141.4462717, 40.49805], [141.4461096, 40.4979779], [141.4456185, 40.4977594], [141.4451692, 40.4975636], [141.4449291, 40.4974432], [141.4448933, 40.4974302], [141.4445442, 40.4973033], [141.44416, 40.4971709], [141.443748, 40.4970417], [141.443465, 40.4969686], [141.4433107, 40.496941], [141.4430991, 40.4969172], [141.4428565, 40.496914], [141.44265, 40.4969292], [141.4424589, 40.4969587], [141.4423915, 40.4969691], [141.4417811, 40.4970944], [141.441561, 40.497127], [141.4413094, 40.4971474], [141.4410096, 40.4971526], [141.4406978, 40.4971325], [141.440325, 40.4970721], [141.4399262, 40.4969598], [141.4395679, 40.4968044], [141.4394003, 40.4967141], [141.4391597, 40.4965574], [141.438911, 40.4963561], [141.4386428, 40.4960962], [141.4386028, 40.4960554], [141.438406, 40.4958552], [141.4383511, 40.4957993], [141.4375065, 40.4949388], [141.4364986, 40.4939218], [141.4359804, 40.4933991], [141.4358602, 40.4932773], [141.4352477, 40.492659], [141.4350863, 40.4925027], [141.4344527, 40.4918633], [141.434384, 40.4918004], [141.4341585, 40.4915496], [141.4338335, 40.4911669], [141.4336706, 40.4909486], [141.4333986, 40.4905786], [141.4331545, 40.4902594], [141.4330976, 40.490185], [141.4326913, 40.489659], [141.4322811, 40.4891381], [141.4320827, 40.4888672], [141.4319547, 40.4887027], [141.4316922, 40.4883123], [141.4313901, 40.4878277], [141.4313247, 40.4877381], [141.4311789, 40.4875573], [141.4310679, 40.4874415], [141.4309262, 40.4873217], [141.430832, 40.4872432], [141.4307502, 40.48718], [141.4306504, 40.4871118], [141.4303276, 40.4869341], [141.4301438, 40.4868463], [141.4297158, 40.4866601], [141.4292337, 40.4864456], [141.428912, 40.4863093], [141.4286293, 40.4862067], [141.428453, 40.4861579], [141.428118, 40.4860931], [141.4276335, 40.4860129], [141.4272903, 40.4859555], [141.4265811, 40.4858205], [141.42667, 40.4855712], [141.4269228, 40.4850504], [141.4269911, 40.4848491], [141.4270234, 40.4846973], [141.4270547, 40.4843357], [141.4270489, 40.4834977], [141.4270204, 40.4826169], [141.4270286, 40.4823138], [141.4270628, 40.4820868], [141.4272774, 40.4811808], [141.4273477, 40.480858], [141.4273893, 40.4806098], [141.4273993, 40.4804877], [141.4273987, 40.4803212], [141.4273681, 40.4801182], [141.4273228, 40.4799407], [141.4272905, 40.4798332], [141.4272254, 40.4796809], [141.4270981, 40.4794397], [141.4269968, 40.4793297], [141.4267455, 40.4791559], [141.426025, 40.4787796], [141.4258819, 40.4786964], [141.4258003, 40.4786422], [141.4257126, 40.4785593], [141.4256425, 40.4784729], [141.4254505, 40.478153], [141.4254162, 40.4780966], [141.4253055, 40.4779067], [141.4251997, 40.477743], [141.4251452, 40.4776716], [141.4250466, 40.4775782], [141.4249062, 40.4774721], [141.4247173, 40.4773495], [141.4245499, 40.4772597], [141.424388, 40.4771996], [141.42425, 40.477163], [141.4240745, 40.4771429], [141.4239172, 40.477142], [141.4237216, 40.4771681], [141.4233541, 40.4772487], [141.4231486, 40.477304], [141.4228622, 40.477381], [141.4227644, 40.4774073], [141.421818, 40.4776965], [141.4216267, 40.477745], [141.4214076, 40.4777859], [141.421233, 40.4778066], [141.4209082, 40.4778134], [141.4208093, 40.4778076], [141.4207068, 40.4778016], [141.4205369, 40.477775], [141.419176, 40.4774799], [141.4188521, 40.4774058], [141.418242, 40.4772272], [141.4172761, 40.4769322], [141.4171848, 40.4769043], [141.4162357, 40.4766141], [141.4160479, 40.4765633], [141.4159364, 40.4765377], [141.4155317, 40.4764502], [141.4142474, 40.4762064], [141.413691, 40.4761008], [141.4130873, 40.4760041], [141.413011, 40.4759995], [141.4128522, 40.47599], [141.4126499, 40.476005], [141.4124923, 40.4760251], [141.4121843, 40.4760919], [141.4114396, 40.4762836], [141.4110729, 40.4763623], [141.4110488, 40.4763675], [141.4107412, 40.4764167], [141.4105211, 40.4764365], [141.4102439, 40.476447], [141.409965, 40.4764482], [141.4096941, 40.4764342], [141.4094577, 40.4764037], [141.4092289, 40.4763656], [141.4089782, 40.4763125], [141.4086954, 40.4762305], [141.4085139, 40.4761718], [141.4083082, 40.4761006], [141.4080365, 40.475982], [141.4074185, 40.4756975], [141.405815, 40.4749487], [141.4048294, 40.4744854], [141.4042353, 40.4742137], [141.4036501, 40.4739804], [141.4032652, 40.4738249], [141.402852, 40.4736478], [141.4014073, 40.4729855], [141.4004434, 40.4725436], [141.3997063, 40.4722245], [141.3984391, 40.4716391], [141.398306, 40.4715776], [141.3982468, 40.4715537], [141.397947, 40.4714154], [141.3977718, 40.4713314], [141.397568, 40.4712098], [141.3970457, 40.4708888], [141.3967778, 40.4707302], [141.3965761, 40.4706326], [141.3964028, 40.470561], [141.3960494, 40.4704547], [141.3955922, 40.47033], [141.3944557, 40.4700384], [141.3937248, 40.4698354], [141.3934353, 40.4697402], [141.3920024, 40.4692328], [141.3918295, 40.4691715], [141.3916604, 40.4691134], [141.3914691, 40.4690476], [141.3912886, 40.4689805], [141.3911373, 40.468914], [141.3910198, 40.4688357], [141.3908894, 40.4687289], [141.390672, 40.4685224], [141.3904794, 40.4683398], [141.3902922, 40.4681854], [141.3901236, 40.4680683], [141.3899729, 40.4679789], [141.3897712, 40.4678709], [141.389596, 40.4677982], [141.3893751, 40.4677161], [141.3873018, 40.4670453], [141.3870522, 40.4669594], [141.3869003, 40.4669114], [141.3867841, 40.466877], [141.3866379, 40.4668367], [141.3864277, 40.4668006], [141.3860887, 40.4667619], [141.3858417, 40.4667503], [141.3856577, 40.4667552], [141.3854959, 40.4667711], [141.385362, 40.4667903], [141.3847284, 40.4668953], [141.3844355, 40.4669406], [141.3835116, 40.4670451], [141.3829292, 40.4671035], [141.3825851, 40.4671291], [141.3823194, 40.4671333], [141.3821098, 40.4671196], [141.3817418, 40.4670702], [141.381603, 40.4670515], [141.3814899, 40.4670396], [141.3811272, 40.4670015], [141.3810923, 40.4669962], [141.3804719, 40.4669166], [141.380074, 40.4668674], [141.3799035, 40.4668453], [141.379455, 40.4667878], [141.3790552, 40.4667317], [141.3789302, 40.4667137], [141.3770554, 40.466446], [141.376659, 40.4663837], [141.376365, 40.4663224], [141.376007, 40.4662229], [141.3757502, 40.4661261], [141.3754432, 40.4659832], [141.3742927, 40.4653884], [141.3724684, 40.464447], [141.3714011, 40.4639031], [141.3704533, 40.4634134], [141.370334, 40.4633517], [141.3659635, 40.4611574], [141.3641234, 40.4602229], [141.3633786, 40.4598525], [141.363202, 40.4597821], [141.3630549, 40.4597535], [141.3629255, 40.4597492], [141.3627605, 40.4597649], [141.3625898, 40.4598106], [141.3624604, 40.4598576], [141.3620417, 40.4600783], [141.3617809, 40.4602202], [141.3616781, 40.4602824], [141.3616279, 40.4603128], [141.3614185, 40.4603953], [141.3612342, 40.4604542], [141.3610426, 40.4604968], [141.3607527, 40.4605481], [141.3604832, 40.4605675], [141.3601693, 40.4605706], [141.359822, 40.4605532], [141.3594465, 40.4605226], [141.3579195, 40.4603026], [141.3574402, 40.4602073], [141.356433, 40.4599951], [141.3534357, 40.4593542], [141.3526012, 40.459166], [141.3519038, 40.4590105], [141.351081, 40.4588412], [141.3508455, 40.4587896], [141.3497165, 40.4585526], [141.3481904, 40.4582132], [141.347787, 40.4581223], [141.3473718, 40.4580215], [141.3471125, 40.4579485], [141.3469634, 40.457893], [141.3467422, 40.4578022], [141.3465585, 40.4577113], [141.3463962, 40.4576135], [141.3462538, 40.4575108], [141.3460958, 40.4573695], [141.3459836, 40.457254], [141.3459051, 40.4571689], [141.3458249, 40.4570584], [141.3457683, 40.4569679], [141.3457066, 40.4568649], [141.3451515, 40.4558636], [141.3447434, 40.455146], [141.3446547, 40.4550001], [141.3439728, 40.4537949], [141.3439151, 40.4536867], [141.3438227, 40.4534785], [141.3437583, 40.4533285], [141.343699, 40.4531718], [141.3436537, 40.4529897], [141.3436335, 40.4528264], [141.3436121, 40.4525376], [141.3436043, 40.4517949], [141.343585, 40.450428], [141.3435907, 40.4491392], [141.343586, 40.4478255], [141.3435809, 40.4476851], [141.3435536, 40.447553], [141.3435136, 40.4474334], [141.3434337, 40.4472879], [141.3433741, 40.4472027], [141.3433141, 40.4471345], [141.3432278, 40.4470615], [141.3431329, 40.4469864], [141.3430255, 40.4469249], [141.3429104, 40.4468825], [141.3427286, 40.4468264], [141.3426019, 40.4468148], [141.3424761, 40.4468103], [141.3422843, 40.4468236], [141.34212, 40.446841], [141.3418477, 40.4468714], [141.3414553, 40.446922], [141.3411137, 40.4469539], [141.3407555, 40.4469767], [141.3403407, 40.4469919], [141.3385165, 40.446998], [141.3382855, 40.4470077], [141.3380741, 40.4470363], [141.3375966, 40.4471216], [141.3374837, 40.4471392], [141.3373476, 40.447148], [141.3372049, 40.4471487], [141.3370603, 40.4471383], [141.3364901, 40.4470342], [141.336446, 40.4470241], [141.3363283, 40.4469972], [141.3362572, 40.446971], [141.3361995, 40.4469363], [141.3360795, 40.4468295], [141.3361632, 40.4467816], [141.3363443, 40.446677], [141.3364554, 40.4465866], [141.3365967, 40.4464559], [141.3366265, 40.4464283], [141.336697, 40.4463357], [141.3367779, 40.446213], [141.3368306, 40.4461137], [141.3369053, 40.4459619], [141.3369332, 40.4458423], [141.3369422, 40.4456498], [141.336933, 40.4454905], [141.3368969, 40.4453464], [141.3368388, 40.4451962], [141.3367259, 40.4450183], [141.3365723, 40.444844], [141.3364231, 40.4447246], [141.3362507, 40.4446152], [141.3355004, 40.4441454], [141.3346878, 40.4436215], [141.3344446, 40.4434487], [141.3343005, 40.4433294], [141.3341459, 40.4431765], [141.3339961, 40.4429967], [141.3338943, 40.4428375], [141.3337675, 40.4426025], [141.3336778, 40.442417], [141.3335835, 40.4422009], [141.3332984, 40.4416032], [141.3331468, 40.441276], [141.3328752, 40.4408421], [141.3311288, 40.4388787], [141.3299943, 40.4376031], [141.3299821, 40.4375906], [141.3290873, 40.4366801], [141.3276651, 40.4352178], [141.3275599, 40.4350991], [141.3273225, 40.4348284], [141.3270653, 40.4344985], [141.3268966, 40.4342454], [141.3267692, 40.434036], [141.3266056, 40.4337462], [141.326504, 40.433543], [141.326439, 40.433413], [141.3262325, 40.4329965], [141.3262146, 40.4329603], [141.3260351, 40.4326124], [141.3258731, 40.43228], [141.3257754, 40.4321], [141.3256522, 40.4319097], [141.3255162, 40.4317388], [141.325396, 40.4315993], [141.3252971, 40.4314914], [141.3251148, 40.4313047], [141.3249588, 40.4311688], [141.3247542, 40.431009], [141.3246113, 40.4309066], [141.3243154, 40.4307151], [141.3240251, 40.4305609], [141.3237677, 40.4304523], [141.3232297, 40.4302376], [141.3218898, 40.429647], [141.3207869, 40.4291581], [141.3195318, 40.4286035], [141.3184688, 40.4281303], [141.3172393, 40.4275901], [141.3161416, 40.4271033], [141.3150055, 40.4265847], [141.314534, 40.4263783], [141.3139864, 40.426136], [141.313185, 40.425779], [141.312861, 40.425633], [141.312301, 40.425385], [141.311881, 40.425204], [141.311277, 40.424934], [141.3111983, 40.424897], [141.31074, 40.424698], [141.309798, 40.424275], [141.308958, 40.423842], [141.308376, 40.423487], [141.308177, 40.423335], [141.307984, 40.423203], [141.307882, 40.42311], [141.307754, 40.422993], [141.30758, 40.422755], [141.307396, 40.422451], [141.307168, 40.421973], [141.307086, 40.421708], [141.307086, 40.421656], [141.3069572, 40.4208283], [141.306872, 40.420541], [141.306814, 40.420255], [141.3067289, 40.4196791], [141.3066958, 40.4194552], [141.3066507, 40.4192279], [141.3065973, 40.4189276], [141.3065121, 40.4184999], [141.3064378, 40.4181621], [141.3063633, 40.4179346], [141.3062529, 40.4176853], [141.3061361, 40.4175219], [141.3059891, 40.4173508], [141.3058584, 40.4172132], [141.3056803, 40.4170644], [141.3054679, 40.4169173], [141.3050144, 40.4166253], [141.3046689, 40.4163958], [141.304157, 40.4160601], [141.3037063, 40.4157488], [141.3036136, 40.4156847], [141.3033486, 40.4155077], [141.302097, 40.4146606], [141.3018146, 40.4144675], [141.3016838, 40.4143869], [141.3014679, 40.4142827], [141.3012926, 40.4142069], [141.3011111, 40.414147], [141.3008973, 40.414107], [141.3006707, 40.4140912], [141.3004037, 40.4141004], [141.3001955, 40.4141195], [141.3000156, 40.4141595], [141.2997747, 40.4142395], [141.2995742, 40.4143344], [141.2993831, 40.4144555], [141.2992094, 40.414606], [141.2991022, 40.4147336], [141.2989902, 40.4148893], [141.2985603, 40.4155597], [141.2984531, 40.4156995], [141.2983538, 40.4158119], [141.2982373, 40.4159137], [141.2980936, 40.4160079], [141.2979287, 40.4161141], [141.2977229, 40.4162233], [141.2975223, 40.4163091], [141.2973163, 40.4163772], [141.2970717, 40.4164439], [141.2967585, 40.4164985], [141.2964991, 40.4165337], [141.2962322, 40.416547], [141.2953654, 40.4165475], [141.2947097, 40.4165434], [141.2936465, 40.4165542], [141.2922619, 40.416563], [141.2917945, 40.4165654], [141.2914874, 40.4165521], [141.2912138, 40.4165297], [141.2909664, 40.4165007], [141.2907177, 40.4164634], [141.2904291, 40.4164119], [141.2902046, 40.4163616], [141.289935, 40.4162925], [141.2897293, 40.4162267], [141.2895012, 40.4161519], [141.2892625, 40.416063], [141.2889285, 40.4159221], [141.2886501, 40.4157862], [141.2885046, 40.4157095], [141.2883521, 40.4156252], [141.2882047, 40.4155332], [141.288098, 40.4154611], [141.2880565, 40.415433], [141.287869, 40.4153007], [141.2876345, 40.4151207], [141.2867124, 40.4144174], [141.2862541, 40.4140666], [141.2860908, 40.4139448], [141.2859323, 40.4138339], [141.2857445, 40.4137107], [141.2855954, 40.4136215], [141.2854797, 40.4135547], [141.2853281, 40.4134776], [141.2851146, 40.413376], [141.2849119, 40.4132867], [141.2847215, 40.4132112], [141.2845591, 40.4131517], [141.2844993, 40.4131302], [141.2843658, 40.4130821], [141.2834042, 40.4127825], [141.2833441, 40.4127641], [141.2827249, 40.4125747], [141.2822479, 40.4124253], [141.2818536, 40.4123028], [141.2812525, 40.4121148], [141.28102, 40.4120425], [141.27982, 40.4116782], [141.2797292, 40.4116503], [141.2787564, 40.4113518], [141.2786457, 40.4113161], [141.2783756, 40.4112207], [141.27812, 40.4111129], [141.2779106, 40.4110174], [141.2777256, 40.4109178], [141.2775686, 40.4108283], [141.2773608, 40.4106886], [141.2772018, 40.4105797], [141.2770602, 40.4104733], [141.2769421, 40.4103757], [141.2767998, 40.4102345], [141.2767451, 40.4101781], [141.2766799, 40.4101047], [141.2765024, 40.409909], [141.2760063, 40.4093504], [141.2755483, 40.4088745], [141.2753126, 40.4086103], [141.2751479, 40.4084223], [141.2749823, 40.4082396], [141.2748803, 40.4081292], [141.2744763, 40.4077362], [141.2742354, 40.4075438], [141.2739872, 40.4073702], [141.2736206, 40.4071466], [141.2731416, 40.4068679], [141.2725563, 40.4065594], [141.2718582, 40.4061798], [141.2709984, 40.4057123], [141.2706552, 40.4055296], [141.2699185, 40.4051254], [141.2694754, 40.404871], [141.2690131, 40.4045864], [141.2686255, 40.4043312], [141.268346, 40.4041398], [141.268016, 40.4039023], [141.2677342, 40.4037054], [141.2675181, 40.4035558], [141.2669468, 40.4031487], [141.2661283, 40.4025749], [141.2651368, 40.4018705], [141.2645677, 40.4014624], [141.2644016, 40.4013345], [141.264201, 40.4011802], [141.2639994, 40.4010113], [141.2638341, 40.4008522], [141.263705, 40.4007097], [141.2635764, 40.400556], [141.2635093, 40.4004625], [141.2634315, 40.400342], [141.2633457, 40.4002123], [141.2632582, 40.4000618], [141.2632336, 40.4000135], [141.2631122, 40.3996962], [141.2630453, 40.3994362], [141.2629822, 40.3991011], [141.2629511, 40.3984935], [141.2628429, 40.3976586], [141.2628042, 40.3973572], [141.26274, 40.3969033], [141.2626464, 40.3962877], [141.2626185, 40.3960176], [141.2625954, 40.3957496], [141.2625812, 40.3954988], [141.2625651, 40.3950509], [141.2625651, 40.394839], [141.2625745, 40.3945929], [141.2626067, 40.3942405], [141.2626466, 40.3939752], [141.2626927, 40.393696], [141.2627703, 40.3933529], [141.2628806, 40.3929735], [141.2629611, 40.3927331], [141.2632796, 40.3919535], [141.2633768, 40.3917071], [141.2634615, 40.3914874], [141.2636015, 40.3910986], [141.2636796, 40.3908545], [141.2637361, 40.3906227], [141.2637629, 40.3904806], [141.2637702, 40.390336], [141.2637587, 40.390164], [141.2637317, 40.389971], [141.2636876, 40.3897871], [141.2635851, 40.3894739], [141.2634915, 40.389268], [141.2633617, 40.3890516], [141.2632504, 40.3888892], [141.2631581, 40.3887776], [141.2630894, 40.3887003], [141.2630305, 40.3886435], [141.2629406, 40.3885539], [141.2627837, 40.3884173], [141.2626174, 40.3882886], [141.2623827, 40.3881354], [141.2621807, 40.3880308], [141.2619594, 40.3879255], [141.2618027, 40.3878567], [141.2616614, 40.3878119], [141.2615419, 40.3877761], [141.2613823, 40.3877329], [141.2611288, 40.3876716], [141.2608369, 40.3876085], [141.2606016, 40.3875703], [141.2602919, 40.3875296], [141.2600263, 40.3875019], [141.2599431, 40.3874938], [141.2594886, 40.3874571], [141.2589203, 40.387423], [141.2582239, 40.3873611], [141.2577989, 40.3873089], [141.2575687, 40.3872749], [141.2573571, 40.3872368], [141.2570897, 40.3871811], [141.2569174, 40.3871377], [141.2567281, 40.3870893], [141.2564886, 40.3870189], [141.2562126, 40.386918], [141.2560102, 40.3868381], [141.2558087, 40.3867462], [141.255627, 40.3866643], [141.2554628, 40.3865814], [141.2552821, 40.386479], [141.2551419, 40.386399], [141.254883, 40.386234], [141.254493, 40.385958], [141.2541454, 40.3856428], [141.2539596, 40.3854592], [141.2537128, 40.3851639], [141.2533718, 40.3847307], [141.2531291, 40.3844336], [141.2528796, 40.3841399], [141.2525405, 40.3837773], [141.2523329, 40.383577], [141.2521709, 40.3834519], [141.252043, 40.383353], [141.251808, 40.383178], [141.251151, 40.3828275], [141.2508076, 40.3826355], [141.2502122, 40.3823862], [141.2495685, 40.3821288], [141.2489998, 40.3820144], [141.2488174, 40.3819449], [141.2484366, 40.3818714], [141.2478733, 40.3817447], [141.2474549, 40.3816057], [141.2469721, 40.3813973], [141.2466663, 40.381238], [141.2463927, 40.3810827], [141.2461728, 40.3809478], [141.2459909, 40.3808371], [141.245797, 40.380719], [141.245421, 40.380444], [141.245274, 40.380298], [141.244943, 40.379881], [141.244892, 40.379831], [141.244619, 40.379471], [141.244082, 40.378609], [141.243928, 40.378322], [141.243847, 40.378204], [141.243553, 40.377787], [141.243243, 40.377432], [141.2425746, 40.3768362], [141.2420431, 40.3763308], [141.2419343, 40.3762173], [141.241529, 40.3757844], [141.241229, 40.3754183], [141.240946, 40.3750586], [141.240769, 40.3747933], [141.2405875, 40.374507], [141.2403025, 40.3739696], [141.2402755, 40.3739177], [141.2400869, 40.3735557], [141.2400183, 40.3732578], [141.2398464, 40.3727008], [141.2397714, 40.3723336], [141.2397501, 40.3721273], [141.2397344, 40.3718359], [141.2397514, 40.3714792], [141.239782, 40.3711829], [141.2398245, 40.3709516], [141.2398756, 40.3707694], [141.2399655, 40.3705748], [141.2400556, 40.3704285], [141.2401436, 40.3702909], [141.2402114, 40.3701982], [141.2403048, 40.3700781], [141.2404424, 40.3699192], [141.2405351, 40.3698173], [141.2406458, 40.3696928], [141.2406903, 40.3695969], [141.2407249, 40.369519], [141.2403483, 40.3694928], [141.2402478, 40.3694858]], [[141.2400869, 40.3735557], [141.2399526, 40.3732721], [141.2398941, 40.3731128], [141.2398242, 40.3729227], [141.2397461, 40.3726786], [141.2396832, 40.3724425], [141.2396178, 40.3722447], [141.2395585, 40.3720653], [141.2395081, 40.3716387], [141.2395003, 40.3714221], [141.2395096, 40.3712451], [141.2395257, 40.3710843], [141.2395396, 40.3709881], [141.2395732, 40.3708215], [141.2396041, 40.3706903], [141.2396359, 40.3705924], [141.2396659, 40.3705044], [141.2397079, 40.3704054], [141.2397489, 40.3703144], [141.2398082, 40.3701757], [141.2398783, 40.3700597], [141.239954, 40.369939], [141.2400381, 40.3698001], [141.2401618, 40.3696168], [141.2402478, 40.3694858], [141.239942, 40.3694557], [141.2395827, 40.369425], [141.2393432, 40.3693908], [141.2392021, 40.3693579], [141.2391641, 40.3693491], [141.2390124, 40.3693013], [141.2388586, 40.3692393], [141.238645, 40.3691424], [141.238564, 40.369076], [141.238152, 40.368862], [141.236857, 40.36822], [141.236356, 40.367978], [141.236011, 40.367798], [141.2358883, 40.367735], [141.235267, 40.367416], [141.234532, 40.367098], [141.23328, 40.366575], [141.233133, 40.366507], [141.231839, 40.365972], [141.230359, 40.365347], [141.229572, 40.365015], [141.229366, 40.364925], [141.228704, 40.36466], [141.228424, 40.364587], [141.228284, 40.364553], [141.227578, 40.364457], [141.226592, 40.364266], [141.225805, 40.364103], [141.224944, 40.363928], [141.223825, 40.363692], [141.223398, 40.363602], [141.22271, 40.363462], [141.222287, 40.363376], [141.221757, 40.363376], [141.221499, 40.36341], [141.220992, 40.363517], [141.220808, 40.363562], [141.220484, 40.363568], [141.220213, 40.363551], [141.21969, 40.363439], [141.219469, 40.3634], [141.219241, 40.363355], [141.218844, 40.36327], [141.218476, 40.363185], [141.217902, 40.363073], [141.21746, 40.362976], [141.217144, 40.36291], [141.216033, 40.362679], [141.213929, 40.36224], [141.21345, 40.362144], [141.212884, 40.36203], [141.212765, 40.361985], [141.212559, 40.361913], [141.212397, 40.361829], [141.211142, 40.361095], [141.210728, 40.36086], [141.209948, 40.360408], [141.209433, 40.360116], [141.2074128, 40.3589417], [141.20675, 40.3585492], [141.2063751, 40.3583326], [141.2062472, 40.3582677], [141.206172, 40.3582339], [141.2060942, 40.3582055], [141.2060047, 40.3581759], [141.2058972, 40.3581507], [141.2058232, 40.3581358], [141.2053879, 40.3580653], [141.2052831, 40.358049], [141.2048243, 40.3579775], [141.2042988, 40.3579053], [141.2035996, 40.3578007], [141.2030678, 40.3577203], [141.202707, 40.3576657], [141.2024759, 40.3576265], [141.2022009, 40.3575742], [141.2020264, 40.3575366], [141.2019227, 40.357511], [141.2016301, 40.3574372], [141.2014933, 40.3574012], [141.2011639, 40.3573217], [141.2007301, 40.357219], [141.2001783, 40.3570918], [141.1997162, 40.3569918], [141.1991641, 40.3568667], [141.1984776, 40.3567122], [141.1982849, 40.3566671], [141.1981404, 40.3566391], [141.1980117, 40.3566208], [141.1979126, 40.3566131], [141.1977781, 40.3566103], [141.1971029, 40.3566119], [141.1959465, 40.3566222], [141.1954987, 40.356619], [141.1949241, 40.3566203], [141.1939924, 40.3566234], [141.1931829, 40.3566293], [141.1927833, 40.356635], [141.1925417, 40.3566384], [141.1923377, 40.3566437], [141.1922992, 40.356645], [141.1921425, 40.3566504], [141.1919818, 40.3566641], [141.1917896, 40.3566863], [141.1915907, 40.3567177], [141.1914075, 40.3567533], [141.1912065, 40.3567957], [141.1910066, 40.3568493], [141.1907933, 40.3569125], [141.1905399, 40.3569941], [141.1903729, 40.3570597], [141.1901275, 40.3571669], [141.1899159, 40.3572722], [141.1895939, 40.3574583], [141.189303, 40.3576347], [141.1890641, 40.3577716], [141.1888716, 40.35787], [141.1886881, 40.3579486], [141.1885465, 40.358], [141.1883872, 40.358045], [141.1881943, 40.3580895], [141.1880292, 40.3581169], [141.1878844, 40.3581323], [141.18771, 40.3581429], [141.1875458, 40.3581448], [141.1873615, 40.3581382], [141.1871359, 40.3581279], [141.186772, 40.3581039], [141.1864197, 40.3580815], [141.1860439, 40.3580612], [141.1857585, 40.3580383], [141.1855261, 40.3580111], [141.1853771, 40.357989], [141.1852158, 40.3579576], [141.1850037, 40.3579056], [141.1848321, 40.3578532], [141.1846752, 40.3578017], [141.1845199, 40.3577381], [141.1844073, 40.3576884], [141.1842316, 40.3576002], [141.1840941, 40.3575257], [141.1839136, 40.3574159], [141.183769, 40.3573184], [141.1836236, 40.3572073], [141.1833618, 40.3569947], [141.1830643, 40.3567444], [141.1827346, 40.3564637], [141.1825028, 40.3562654], [141.182355, 40.3561236], [141.1822331, 40.3559707], [141.1820023, 40.3556774], [141.1817591, 40.3553707], [141.1815232, 40.3550785], [141.1811839, 40.3546596], [141.1807721, 40.3541321], [141.180508, 40.3538091], [141.1803594, 40.3536306], [141.180264, 40.3535335], [141.1801697, 40.3534494], [141.1800563, 40.3533688], [141.1798839, 40.3532521], [141.1791913, 40.3527742], [141.1786371, 40.3523847], [141.178514, 40.3522982], [141.1778905, 40.3518677], [141.1772801, 40.3514477], [141.177255, 40.3514306], [141.1769506, 40.3512227], [141.1766111, 40.3509906], [141.1760472, 40.3505982], [141.1754848, 40.3502215], [141.17528, 40.3500746], [141.1751321, 40.3499693], [141.1750581, 40.3499175], [141.1748538, 40.3497887], [141.1746732, 40.3496686], [141.1745364, 40.3495895], [141.1743643, 40.3495041], [141.1741391, 40.3494084], [141.1739917, 40.3493539], [141.1738091, 40.3492864], [141.1734859, 40.3491642], [141.1731816, 40.3490492], [141.1728482, 40.3489225], [141.1727235, 40.3488739], [141.1723823, 40.348741], [141.1723247, 40.3487185], [141.1716354, 40.348437], [141.171399, 40.3483459], [141.1710118, 40.3481871], [141.1704527, 40.3479638], [141.1699405, 40.3477508], [141.1694549, 40.3475519], [141.168973, 40.3473538], [141.1684814, 40.3471528], [141.1678098, 40.3468708], [141.1671532, 40.3465888], [141.1668929, 40.346483], [141.1665985, 40.3463564], [141.1665445, 40.3463341], [141.1663554, 40.3462561], [141.1661297, 40.3461781], [141.1658865, 40.3461043], [141.1656591, 40.3460428], [141.1654193, 40.3459927], [141.1651984, 40.3459561], [141.1650464, 40.3459359], [141.1649092, 40.345925], [141.1647355, 40.3459126], [141.1644397, 40.3458909], [141.163812, 40.3458433], [141.1630884, 40.3457885], [141.16279, 40.3457666], [141.1625124, 40.3457448], [141.162202, 40.3457109], [141.1617591, 40.3456605], [141.161569, 40.3456385], [141.1614113, 40.3456205], [141.1612306, 40.3456012], [141.1610714, 40.3455802], [141.160927, 40.3455485], [141.1607317, 40.3454996], [141.1605527, 40.3454425], [141.1603683, 40.3453764], [141.1602339, 40.3453196], [141.1601159, 40.3452541], [141.1599977, 40.345168], [141.159783, 40.3450031], [141.1594109, 40.344722], [141.1593184, 40.3446521], [141.1592664, 40.3446115], [141.1589762, 40.3443848], [141.1589129, 40.3443354], [141.1587141, 40.3441877], [141.158569, 40.3440904], [141.1584228, 40.3440021], [141.1584064, 40.3439922], [141.1581737, 40.3438603], [141.157914, 40.3437305], [141.157746, 40.3436458], [141.1569533, 40.3432237], [141.1568842, 40.3431881], [141.156815, 40.3431524], [141.1558762, 40.342673], [141.1552184, 40.342335], [141.1551209, 40.3422851], [141.1549835, 40.3422149], [141.1547954, 40.342126], [141.1545964, 40.3420375], [141.1545201, 40.3420105], [141.1542662, 40.3419045], [141.1538688, 40.3417631], [141.1535569, 40.341646], [141.1533526, 40.3415667], [141.1531308, 40.3414672], [141.1528415, 40.3413205], [141.1525545, 40.3411712], [141.152365, 40.3410741], [141.1521591, 40.3409784], [141.152072, 40.3409394], [141.15201, 40.3409114], [141.1519199, 40.3408707], [141.1516682, 40.3407689], [141.1513578, 40.3406808], [141.1511625, 40.3406352], [141.150957, 40.3405949], [141.1507237, 40.3405622], [141.1505829, 40.3405471], [141.1503029, 40.3405392], [141.1496295, 40.34053], [141.1494094, 40.3405291], [141.1492149, 40.3405263], [141.149113, 40.340521], [141.1489543, 40.3405197], [141.1487101, 40.3405114], [141.1486383, 40.3405115], [141.1486037, 40.3405135], [141.1481721, 40.3404797], [141.1481248, 40.3404723], [141.1477919, 40.3404262], [141.14753, 40.3403896], [141.1472508, 40.3403463], [141.1471207, 40.340317], [141.1470169, 40.3402907], [141.1469351, 40.3402721], [141.1468426, 40.3402313], [141.1467707, 40.340178], [141.1465435, 40.3399755], [141.1463919, 40.3398479], [141.1463369, 40.3398122], [141.1462551, 40.339776], [141.1461083, 40.3397271], [141.1459316, 40.3396834], [141.1457947, 40.3396289], [141.1457011, 40.3395705], [141.1455929, 40.3394591], [141.14544, 40.3392847], [141.1453713, 40.3392382], [141.1452598, 40.3391842], [141.145079, 40.3391375], [141.144849, 40.3390874], [141.1447017, 40.3390498], [141.1445788, 40.3390015], [141.144513, 40.3389535], [141.1444578, 40.3388667], [141.144427, 40.3387629], [141.1443996, 40.3386239], [141.1443793, 40.3384929], [141.1443346, 40.3382492], [141.1442744, 40.3381162], [141.144234, 40.3380367], [141.1439568, 40.3377224], [141.1438801, 40.3376378], [141.1438439, 40.3375572], [141.143825, 40.3374518], [141.1438277, 40.3373414], [141.1438145, 40.3372459], [141.1437656, 40.3371633], [141.1436183, 40.3369992], [141.1430946, 40.3364398], [141.1427321, 40.3360548], [141.1426268, 40.3359374], [141.142586, 40.3358681], [141.1425684, 40.3358152], [141.1425413, 40.3357058], [141.1425393, 40.3356394], [141.1425615, 40.3355055], [141.1426123, 40.3353728], [141.1427085, 40.3352018], [141.1427812, 40.3350821], [141.1428403, 40.3349569], [141.1428805, 40.3347901], [141.1428915, 40.3345766], [141.1429073, 40.3344511], [141.1429369, 40.3343547], [141.1430074, 40.33428], [141.1431415, 40.3341898], [141.1433497, 40.3340504], [141.1434134, 40.3340015], [141.14348, 40.3339106], [141.1435007, 40.3338551], [141.143524, 40.3337728], [141.1435575, 40.3335543], [141.1435843, 40.3333247], [141.1436171, 40.3331472], [141.143705, 40.3328873], [141.1437957, 40.3326624], [141.1438703, 40.3324768], [141.1439797, 40.3321656], [141.1440399, 40.3319964], [141.1441286, 40.3314466], [141.1442081, 40.3313043], [141.1442591, 40.3312423], [141.1443446, 40.3311735], [141.1444464, 40.3311215], [141.144754, 40.330982], [141.1448641, 40.3309157], [141.1449163, 40.330864], [141.144966, 40.330785], [141.1449868, 40.3307121], [141.1449891, 40.3306174], [141.1449208, 40.3304138], [141.1449009, 40.330373], [141.1447451, 40.3300524], [141.1444956, 40.3296185], [141.1444384, 40.3295266], [141.1443753, 40.3294252], [141.1442147, 40.3292026], [141.1440432, 40.3290472], [141.1438972, 40.3289592], [141.1437929, 40.328894], [141.1436703, 40.3288247], [141.1435979, 40.3287753], [141.1435389, 40.328725], [141.1434474, 40.3285666], [141.1434163, 40.3284746], [141.1434178, 40.3283846], [141.1434298, 40.3283419], [141.1434476, 40.3282919], [141.1435037, 40.3282], [141.1437298, 40.3279558], [141.1439411, 40.3277285], [141.1440281, 40.3276307], [141.1440939, 40.3275207], [141.1441223, 40.3274448], [141.1441438, 40.3273737], [141.1441404, 40.3270335], [141.1441169, 40.3267837], [141.1441205, 40.3267013], [141.1440765, 40.3265541], [141.1440117, 40.3264079], [141.1437165, 40.3259274], [141.1435804, 40.3256812], [141.1433414, 40.3252857], [141.142807, 40.3244], [141.1426162, 40.3241021], [141.1425445, 40.3240061], [141.1424519, 40.3239086], [141.142323, 40.3238124], [141.1415191, 40.3233759], [141.1411505, 40.3231749], [141.1409622, 40.3230694], [141.1407852, 40.3229604], [141.1406726, 40.3228736], [141.1404558, 40.3226494], [141.140124, 40.322253], [141.1399255, 40.3220508], [141.1398164, 40.3219671], [141.139721, 40.321894], [141.1395303, 40.3217752], [141.1393002, 40.3216422], [141.1387369, 40.3213341], [141.1386414, 40.3212495], [141.1384976, 40.3211106], [141.1384021, 40.3209964], [141.1381823, 40.3206919], [141.137941, 40.320452], [141.137509, 40.320092], [141.1372948, 40.3198948], [141.1371795, 40.3197669], [141.137104, 40.31967], [141.1367617, 40.3193027], [141.1365739, 40.3190957], [141.136399, 40.318966], [141.136259, 40.318876], [141.135987, 40.318752], [141.135708, 40.318639], [141.1352413, 40.3185092], [141.1350299, 40.3184628], [141.1349712, 40.3184459], [141.1349062, 40.3184273], [141.1346863, 40.318343], [141.1344127, 40.3181955], [141.1342041, 40.3180689], [141.1340053, 40.3179428], [141.1338368, 40.3178328], [141.1337307, 40.3177457], [141.1336158, 40.3176119], [141.1335558, 40.3175128], [141.1335202, 40.317439], [141.133484, 40.3173435], [141.1334725, 40.3172835], [141.1334595, 40.3171764], [141.1334541, 40.317033], [141.133437, 40.3169334], [141.1333916, 40.3168248], [141.1333021, 40.3167076], [141.1331982, 40.3166099], [141.1329694, 40.3164655], [141.132077, 40.315953], [141.1318136, 40.3157913], [141.1316197, 40.3156805], [141.1315412, 40.3156465], [141.1313505, 40.3155773], [141.1311597, 40.3155289], [141.1308905, 40.3154917], [141.1305735, 40.3154667], [141.1303613, 40.3154275], [141.1301735, 40.3153728], [141.1300126, 40.3153027], [141.129217, 40.314919], [141.129123, 40.314872], [141.1287531, 40.3146721], [141.1285995, 40.3145996], [141.1284713, 40.3145124], [141.1283556, 40.3144366], [141.1280694, 40.3141572], [141.1278529, 40.3139475], [141.127815, 40.3139108], [141.1276636, 40.3137854], [141.1275403, 40.3137033], [141.1273234, 40.3136057], [141.127065, 40.313525], [141.1264751, 40.313322], [141.1262707, 40.3132485], [141.126062, 40.3131555], [141.1258316, 40.3130353], [141.1253538, 40.3127528], [141.1251841, 40.3126292], [141.1251178, 40.3125782], [141.1249132, 40.3124392], [141.1247826, 40.3123752], [141.1245643, 40.3122941], [141.1244049, 40.3122415], [141.1242961, 40.3122166], [141.1239949, 40.3121358], [141.1239143, 40.3121089], [141.1237722, 40.3120546], [141.1236755, 40.3120275], [141.1234915, 40.3119545], [141.1233595, 40.3118765], [141.1228885, 40.3115127], [141.1226188, 40.3113431], [141.1223256, 40.3112028], [141.1220053, 40.3110486], [141.1216148, 40.3108783], [141.1214469, 40.3107958], [141.121256, 40.3106989], [141.1210929, 40.3105962], [141.1209479, 40.3104789], [141.1200051, 40.309716], [141.1195087, 40.3093062], [141.1189317, 40.3088435], [141.1186773, 40.3086398], [141.1185208, 40.3085329], [141.1183756, 40.3084667], [141.1178336, 40.3082665], [141.1170339, 40.3079702], [141.1153354, 40.3073701], [141.1150629, 40.3072793], [141.1147488, 40.3071846], [141.1141428, 40.3070075], [141.114058, 40.306982], [141.1137898, 40.306886], [141.1136796, 40.3068446], [141.1134055, 40.3067558], [141.1131527, 40.3066892], [141.1130269, 40.3066615], [141.1127554, 40.3066338], [141.1122892, 40.3066317], [141.1119732, 40.3066534], [141.111514, 40.30669], [141.1111293, 40.3067836], [141.1108584, 40.3068671], [141.1105533, 40.3070029], [141.110352, 40.3071], [141.109574, 40.307455], [141.109211, 40.3076444], [141.1090587, 40.3077146], [141.1088502, 40.3077727], [141.1083081, 40.3078448], [141.1081675, 40.3078596], [141.1076564, 40.3079281], [141.1074446, 40.3079636], [141.1072377, 40.3080031], [141.1069965, 40.3080492], [141.1067542, 40.3080858], [141.1065805, 40.3080935], [141.1063317, 40.3080882], [141.1058268, 40.3080452], [141.1054452, 40.3079971], [141.1052477, 40.3079827], [141.1049649, 40.3079644], [141.1047016, 40.3079618], [141.1044971, 40.3079647], [141.1042799, 40.3079609], [141.1041073, 40.3079452], [141.103985, 40.307927], [141.1037522, 40.3078637], [141.103222, 40.3076693], [141.1029926, 40.3075929], [141.1025306, 40.3074085], [141.1022148, 40.3072696], [141.1020525, 40.3071998], [141.1019323, 40.307148], [141.1014811, 40.3069654], [141.1012692, 40.3069117], [141.1009446, 40.3068369], [141.100601, 40.30678], [141.100336, 40.306706], [141.100152, 40.30665], [141.0999186, 40.30657], [141.0998412, 40.3065355], [141.099733, 40.306448], [141.099565, 40.3063178], [141.0994503, 40.3062202], [141.0993067, 40.3060779], [141.0991915, 40.3059297], [141.0991269, 40.3058014], [141.0990601, 40.3055887], [141.098985, 40.3053981], [141.0989085, 40.3052388], [141.0988728, 40.3051937], [141.0987175, 40.3050517], [141.0984832, 40.3048732], [141.0983177, 40.3047708], [141.0979427, 40.3045467], [141.0977206, 40.3044186], [141.0975419, 40.3043163], [141.0973148, 40.304195], [141.0967613, 40.3039749], [141.0962686, 40.3037816], [141.0959591, 40.3036723], [141.0957871, 40.3036116], [141.0956138, 40.3035521], [141.09533, 40.30348], [141.0950317, 40.3034227], [141.0947381, 40.3033975], [141.0944363, 40.3033782], [141.0941405, 40.3033262], [141.0937078, 40.3032588], [141.0925576, 40.3031232], [141.0925013, 40.3031061], [141.0924373, 40.3030841], [141.092395, 40.3030563], [141.092362, 40.303024], [141.0921385, 40.3027822], [141.092009, 40.302629], [141.0919127, 40.3025404], [141.0918077, 40.3024692], [141.0916788, 40.3024014], [141.0912785, 40.3022214], [141.0900578, 40.3016398], [141.089592, 40.3013627], [141.0891701, 40.3011065], [141.0887954, 40.3008109], [141.0886429, 40.3006996], [141.0882241, 40.3005201], [141.08796, 40.300405], [141.0877814, 40.300332], [141.0876022, 40.3002686], [141.0873645, 40.3001992], [141.0870601, 40.3000972], [141.0867728, 40.2999876], [141.0865794, 40.2998991], [141.0865284, 40.2998738], [141.0861899, 40.2997059], [141.0860781, 40.2996389], [141.0859554, 40.2995655], [141.0857483, 40.2994159], [141.0855308, 40.2992552], [141.0853516, 40.2991172], [141.0848165, 40.2987414], [141.0846179, 40.298612], [141.0843783, 40.2984575], [141.084156, 40.298323], [141.0840522, 40.2982639], [141.0833111, 40.2977963], [141.0827426, 40.2974422], [141.0824032, 40.2972345], [141.082073, 40.297036], [141.0819062, 40.2969563], [141.0818043, 40.2969077], [141.0815189, 40.2967604], [141.0812263, 40.2965689], [141.0808734, 40.2963296], [141.0803366, 40.2959322], [141.0801347, 40.2958641], [141.0799804, 40.2957546], [141.0798677, 40.2956469], [141.0797408, 40.2954984], [141.0796212, 40.2953292], [141.0795026, 40.295136], [141.0793559, 40.2948425], [141.0792585, 40.2946378], [141.0791353, 40.2944671], [141.0789776, 40.2942889], [141.0788531, 40.2941622], [141.0787033, 40.2940513], [141.0785177, 40.2939239], [141.0783114, 40.2937757], [141.0779327, 40.2935439], [141.0777427, 40.293435], [141.0775954, 40.2933725], [141.0774122, 40.2933188], [141.0772, 40.29326], [141.0770033, 40.2932291], [141.0768524, 40.2932098], [141.0766505, 40.2931989], [141.0764052, 40.2931889], [141.0760049, 40.2931823], [141.0758806, 40.2931705], [141.0757199, 40.2931478], [141.0755686, 40.2931192], [141.0753926, 40.2930815], [141.0751646, 40.2930176], [141.0749135, 40.2929429], [141.0744301, 40.2928046], [141.0742829, 40.2927503], [141.074141, 40.2926836], [141.073994, 40.2925901], [141.0737945, 40.2924351], [141.0736256, 40.2923141], [141.0734874, 40.2922262], [141.0733701, 40.2921601], [141.0732539, 40.2920946], [141.0731475, 40.2920497], [141.0729227, 40.2919685], [141.0726995, 40.2919196], [141.0724407, 40.2918477], [141.0719685, 40.2917376], [141.0716494, 40.2916548], [141.0713146, 40.2915544], [141.0711167, 40.2914735], [141.0706396, 40.2912783], [141.0698283, 40.2909418], [141.0693395, 40.2907569], [141.0688799, 40.2906052], [141.0685422, 40.2904914], [141.0680061, 40.2903104], [141.0673945, 40.2901128], [141.067144, 40.2900353], [141.0669739, 40.2899921], [141.0668044, 40.2899669], [141.066614, 40.2899584], [141.0664616, 40.2899662], [141.0662831, 40.2899925], [141.066088, 40.290044], [141.0659371, 40.2901026], [141.0658124, 40.2901813], [141.065588, 40.290365], [141.0649418, 40.2909133], [141.0646074, 40.291196], [141.0644957, 40.2912819], [141.0643965, 40.2913361], [141.0642898, 40.2913745], [141.0641671, 40.2913995], [141.063985, 40.2914197], [141.0636457, 40.2914308], [141.0634083, 40.2914391], [141.0631965, 40.2914584], [141.0630873, 40.2914705], [141.062991, 40.2914982], [141.062825, 40.2915351], [141.0623206, 40.2916935], [141.06169, 40.2918947], [141.0614913, 40.2919303], [141.0612872, 40.2919737], [141.0610126, 40.2920114], [141.0607399, 40.2920408], [141.0601415, 40.2920913], [141.0592164, 40.2921632], [141.0583824, 40.2922473], [141.0578512, 40.2923005], [141.0577436, 40.2923144], [141.0573064, 40.2923647], [141.0569456, 40.2923953], [141.0566693, 40.2923974], [141.0564744, 40.292391], [141.0562887, 40.2923699], [141.0561334, 40.2923388], [141.0559572, 40.2922983], [141.0557503, 40.2922443], [141.0555924, 40.2921939], [141.0554464, 40.2921406], [141.0552635, 40.2920512], [141.0550577, 40.2919398], [141.054915, 40.2918811], [141.0548552, 40.2918676], [141.0547866, 40.291852], [141.0546406, 40.2918421], [141.0544745, 40.291839], [141.0539909, 40.2918499], [141.053437, 40.2918377], [141.0531937, 40.2918447], [141.0529341, 40.291878], [141.0528494, 40.2918912], [141.0527363, 40.2919088], [141.0524909, 40.2919488], [141.0522682, 40.2919679], [141.0520988, 40.2919719], [141.0519368, 40.2919711], [141.051723, 40.2919598], [141.0515235, 40.2919397], [141.0512875, 40.291886], [141.051063, 40.2918296], [141.0507995, 40.2917471], [141.0503798, 40.2915991], [141.0496178, 40.2913438], [141.0488161, 40.2910582], [141.0485744, 40.290956], [141.0481311, 40.2907684], [141.0479649, 40.2907026], [141.0478214, 40.2906457], [141.0476646, 40.2905896], [141.0475583, 40.29056], [141.0474523, 40.2905371], [141.0474048, 40.2905305], [141.047295, 40.2905152], [141.0471362, 40.2905022], [141.0470207, 40.2905041], [141.0468659, 40.2905114], [141.0466918, 40.2905298], [141.046529, 40.2905619], [141.0460567, 40.2906689], [141.0458095, 40.290728], [141.0455785, 40.2907761], [141.0447778, 40.2909295], [141.044243, 40.2910268], [141.0438814, 40.2910911], [141.0437261, 40.291117], [141.0436386, 40.2911269], [141.0435306, 40.2911393], [141.0432092, 40.2911567], [141.0424191, 40.291223], [141.04226, 40.2912391], [141.0420325, 40.2912743], [141.0418196, 40.2913251], [141.0411374, 40.2914958], [141.0406332, 40.2916419], [141.0399899, 40.2918156], [141.0393944, 40.291976], [141.0386664, 40.2921693], [141.0384421, 40.2922177], [141.0382303, 40.2922592], [141.0379861, 40.2922954], [141.0377274, 40.2923347], [141.0367724, 40.2924878], [141.0355647, 40.2926813], [141.0344719, 40.2928529], [141.033825, 40.2929541], [141.0332816, 40.2930448], [141.0328217, 40.2931191], [141.0325165, 40.2931762], [141.032097, 40.2932629], [141.0318226, 40.2933113], [141.0314308, 40.2933519], [141.0305694, 40.2934028], [141.030067, 40.2934379], [141.0298283, 40.2934546], [141.0294968, 40.2935147], [141.0292767, 40.2935768], [141.0287752, 40.2936978], [141.0284842, 40.2937652], [141.0283044, 40.2937872], [141.0280087, 40.2937821], [141.0277018, 40.2937661], [141.0269899, 40.2936991], [141.0265339, 40.2936656], [141.0262901, 40.2936531], [141.0258977, 40.2936702], [141.0255254, 40.2936929], [141.0249917, 40.2937352], [141.0249299, 40.2937436], [141.0245768, 40.2938337], [141.0241685, 40.293976], [141.0234289, 40.2942352], [141.02319, 40.2943185], [141.0228748, 40.2943942], [141.0225401, 40.2944628], [141.0221258, 40.2945376], [141.0218985, 40.2945952], [141.0217254, 40.294642], [141.0214842, 40.2947021], [141.0205169, 40.2949935], [141.0203431, 40.2950435], [141.0201649, 40.2950841], [141.0199155, 40.2951412], [141.0190876, 40.2953097], [141.0187893, 40.295369], [141.0184006, 40.2954587], [141.0180711, 40.2955533], [141.0176149, 40.2956951], [141.0174737, 40.2957233], [141.0173093, 40.2957526], [141.0171266, 40.2957718], [141.016773, 40.2958002], [141.0165223, 40.2958094], [141.0160178, 40.2958119], [141.0156181, 40.2958263], [141.0154954, 40.295834], [141.0153594, 40.2958425], [141.0152037, 40.2958587], [141.0150382, 40.2958832], [141.0148242, 40.2959265], [141.0146635, 40.2959681], [141.0143826, 40.296074], [141.0128083, 40.2968206], [141.0122954, 40.2970721], [141.0121476, 40.2971366], [141.0120065, 40.2971724], [141.0118698, 40.2971939], [141.0116975, 40.2971943], [141.0112659, 40.2971837], [141.0111294, 40.2971877], [141.0110101, 40.2972051], [141.0108438, 40.2972572], [141.0106895, 40.2973188], [141.0102893, 40.2975121], [141.0100218, 40.2976462], [141.0098607, 40.2977326], [141.0096703, 40.2978462], [141.0095676, 40.297928], [141.0094664, 40.2980293], [141.0086341, 40.299101], [141.0083465, 40.2994458], [141.0081816, 40.2996226], [141.0080831, 40.2996997], [141.0078993, 40.2998234], [141.0077018, 40.2999324], [141.0075295, 40.3000154], [141.0072749, 40.3001353], [141.006596, 40.300413], [141.006097, 40.300605], [141.0059286, 40.3007239], [141.0057919, 40.3008328], [141.0056609, 40.3009577], [141.00487, 40.302059], [141.004561, 40.302363], [141.0044295, 40.3024631], [141.0042181, 40.3026077], [141.0039153, 40.3028299], [141.0037744, 40.3029546], [141.0036457, 40.3031106], [141.00343, 40.303494], [141.0031273, 40.3039962], [141.0030172, 40.3041728], [141.0029074, 40.3044027], [141.0028226, 40.3046376], [141.0027959, 40.3047935], [141.0027406, 40.305024], [141.0026237, 40.3053087], [141.0025443, 40.305451], [141.0024445, 40.3055752], [141.0023326, 40.3057329], [141.0022398, 40.3058635], [141.002084, 40.3060829], [141.0019875, 40.3062042], [141.0019442, 40.306357], [141.0019165, 40.3064602], [141.0018994, 40.3065551], [141.0019246, 40.306699], [141.002004, 40.3068758], [141.002173, 40.307227], [141.002224, 40.307357], [141.002223, 40.307566], [141.002172, 40.3077], [141.00201, 40.308264], [141.001886, 40.308679], [141.001878, 40.308708], [141.001812, 40.308894], [141.00176, 40.308939], [141.001694, 40.308956], [141.001583, 40.308968], [141.001107, 40.309063], [141.000637, 40.309193], [141.00049, 40.309249], [141.000409, 40.309334], [141.000262, 40.309609], [141.000093, 40.309863], [141.000012, 40.309908], [140.999556, 40.310133], [140.999343, 40.310223], [140.999093, 40.310296], [140.998557, 40.310296], [140.998219, 40.310268], [140.997903, 40.310263], [140.997822, 40.310279], [140.997675, 40.31033], [140.997616, 40.310375], [140.997454, 40.310561], [140.997168, 40.310983], [140.996477, 40.312126], [140.996322, 40.312508], [140.996308, 40.31262], [140.996308, 40.313105], [140.996264, 40.313296], [140.996197, 40.313563], [140.996158, 40.313719], [140.995998, 40.314176], [140.9957076, 40.3142266], [140.9956313, 40.3141729], [140.995636, 40.3140933], [140.9957299, 40.3140091], [140.9957827, 40.3139268], [140.9958555, 40.3138238], [140.99596, 40.3137173], [140.995987, 40.3136144], [140.9959224, 40.3135455], [140.9957006, 40.3134801], [140.9955574, 40.3134327], [140.995498, 40.313395], [140.9954435, 40.3133665], [140.9954505, 40.3132689], [140.9954928, 40.3131955], [140.9956278, 40.3130451], [140.9957006, 40.3129869], [140.9957628, 40.3129207], [140.9958285, 40.3128321], [140.995823, 40.312735], [140.9957816, 40.312611], [140.9956959, 40.3125313], [140.9955597, 40.3125242], [140.9952111, 40.3125734], [140.995001, 40.31258], [140.994868, 40.312532], [140.994779, 40.312388], [140.994693, 40.312232], [140.99461, 40.312153], [140.994537, 40.312125], [140.994426, 40.312102], [140.994008, 40.312108], [140.99378, 40.31217], [140.993567, 40.312255], [140.993331, 40.312395], [140.992986, 40.312655], [140.992891, 40.312759], [140.992545, 40.313089], [140.992501, 40.313111], [140.992361, 40.313145], [140.991972, 40.313145], [140.99181, 40.313162], [140.991656, 40.313263], [140.991518, 40.313408], [140.991436, 40.313545], [140.991311, 40.313736], [140.991112, 40.314035], [140.990899, 40.314271], [140.990333, 40.314834], [140.989995, 40.315144], [140.989863, 40.315279], [140.989708, 40.315487], [140.989649, 40.315611], [140.989628, 40.315679], [140.989613, 40.315786], [140.98966, 40.316003], [140.989679, 40.316045], [140.989723, 40.316107], [140.989793, 40.316246], [140.989804, 40.316354], [140.9897696, 40.3163884], [140.989701, 40.316411], [140.9896403, 40.3163949], [140.989583, 40.316369], [140.98945, 40.316225], [140.989245, 40.316101], [140.989128, 40.316062], [140.988921, 40.316067], [140.988767, 40.316141], [140.988553, 40.316259], [140.988443, 40.316298], [140.98829, 40.316304], [140.988083, 40.316287], [140.987905, 40.316291], [140.98776, 40.316349], [140.987708, 40.316399], [140.98768, 40.316461], [140.987666, 40.316544], [140.987721, 40.316639], [140.987797, 40.316676], [140.987885, 40.316709], [140.988002, 40.316732], [140.98829, 40.316721], [140.98848, 40.316681], [140.988855, 40.316546], [140.988878, 40.316535], [140.98901, 40.316523], [140.989171, 40.31658], [140.989782, 40.316951], [140.989863, 40.316974], [140.989995, 40.316974], [140.99012, 40.316912], [140.990179, 40.316856], [140.99023, 40.316754], [140.990274, 40.316546], [140.990267, 40.31587], [140.990311, 40.315769], [140.990377, 40.31569], [140.990634, 40.315465], [140.990928, 40.315262], [140.991083, 40.315172], [140.991289, 40.315093], [140.991369, 40.315088], [140.991472, 40.315144], [140.991494, 40.315212], [140.991465, 40.315274], [140.991347, 40.315392], [140.991061, 40.315623], [140.990994, 40.315684], [140.990892, 40.315831], [140.990818, 40.316056], [140.990796, 40.316236], [140.990781, 40.316557], [140.990752, 40.316709], [140.990693, 40.316856], [140.990649, 40.316929], [140.99048, 40.317109], [140.990355, 40.317205], [140.990091, 40.317301], [140.989951, 40.317334], [140.989732, 40.317329], [140.989522, 40.317306], [140.989311, 40.317278], [140.98915, 40.317272], [140.988936, 40.317361], [140.98879, 40.317468], [140.988628, 40.317643], [140.988509, 40.317806], [140.988319, 40.318122], [140.988201, 40.318235], [140.987973, 40.318392], [140.98786, 40.318439], [140.987701, 40.318482], [140.986962, 40.318684], [140.986702, 40.318742], [140.98668, 40.31886], [140.98676, 40.31895], [140.987267, 40.31895], [140.987613, 40.31891], [140.988003, 40.318809], [140.988283, 40.318764], [140.988451, 40.318714], [140.988546, 40.318662], [140.989157, 40.318105], [140.989378, 40.317964], [140.989561, 40.317908], [140.989929, 40.317857], [140.990326, 40.317834], [140.99084, 40.317823], [140.990906, 40.317947], [140.990884, 40.318026], [140.990833, 40.318077], [140.99073, 40.31811], [140.990406, 40.318172], [140.989753, 40.318273], [140.989649, 40.318324], [140.989554, 40.318404], [140.989268, 40.318752], [140.98876, 40.31935], [140.988386, 40.319755], [140.988231, 40.319867], [140.988158, 40.319902], [140.987665, 40.319907], [140.987504, 40.319935], [140.987254, 40.320009], [140.98646, 40.320306], [140.985985, 40.32043], [140.985775, 40.320449], [140.985386, 40.320426], [140.985283, 40.320426], [140.984895, 40.320347], [140.984717, 40.320318], [140.984379, 40.320234], [140.984285, 40.320217], [140.984145, 40.320183], [140.983865, 40.320093], [140.983491, 40.319986], [140.983329, 40.319936], [140.983043, 40.319874], [140.982903, 40.319851], [140.982565, 40.319845], [140.982198, 40.319891], [140.981911, 40.319947], [140.981433, 40.320082], [140.981156, 40.320164], [140.981036, 40.3202], [140.980691, 40.320318], [140.980419, 40.320403], [140.979669, 40.320605], [140.979412, 40.320667], [140.978652, 40.320794], [140.978229, 40.320904], [140.97792, 40.321022], [140.977648, 40.321152], [140.977546, 40.321208], [140.977369, 40.321293], [140.977083, 40.321433], [140.976576, 40.321658], [140.976223, 40.321793], [140.975892, 40.321883], [140.975598, 40.321928], [140.974599, 40.321928], [140.974092, 40.32194], [140.973562, 40.32203], [140.972636, 40.322277], [140.972019, 40.322446], [140.970674, 40.322772], [140.97066, 40.322778], [140.970247, 40.322857], [140.969799, 40.322862], [140.969005, 40.322749], [140.968608, 40.322716], [140.968028, 40.322716], [140.967647, 40.322749], [140.967257, 40.322811], [140.966897, 40.32289], [140.966721, 40.32293], [140.966551, 40.322975], [140.966074, 40.323088], [140.965699, 40.323133], [140.965552, 40.323133], [140.96528, 40.323099], [140.964942, 40.323009], [140.964428, 40.322812], [140.964296, 40.322779], [140.963956, 40.322667], [140.963704, 40.322622], [140.963378, 40.322613], [140.963077, 40.32263], [140.962544, 40.322654], [140.962319, 40.322626], [140.962208, 40.322593], [140.961899, 40.322531], [140.961701, 40.322508], [140.961495, 40.322519], [140.961234, 40.322575], [140.960981, 40.32266], [140.960195, 40.322975], [140.959644, 40.323223], [140.959188, 40.323386], [140.958982, 40.323443], [140.958468, 40.323533], [140.957835, 40.323584], [140.957397, 40.323593], [140.957335, 40.323595], [140.957045, 40.323576], [140.956683, 40.32351], [140.956375, 40.323415], [140.955945, 40.323251], [140.955424, 40.323105], [140.955079, 40.323043], [140.954603, 40.323004], [140.95433, 40.323009], [140.954154, 40.32302], [140.953713, 40.323043], [140.952993, 40.323071], [140.952706, 40.323077], [140.951663, 40.323127], [140.951589, 40.323138], [140.951303, 40.323155], [140.951104, 40.323178], [140.950788, 40.323257], [140.950553, 40.323341], [140.950061, 40.323583], [140.949774, 40.323718], [140.94948, 40.323825], [140.948606, 40.324079], [140.948103, 40.324224], [140.947819, 40.324298], [140.946357, 40.324737], [140.946085, 40.324804], [140.945548, 40.32495], [140.944996, 40.325108], [140.944498, 40.32526], [140.944268, 40.32535], [140.944019, 40.325485], [140.943791, 40.325643], [140.943311, 40.32599], [140.942892, 40.326272], [140.942571, 40.326488], [140.942093, 40.326854], [140.941726, 40.327187], [140.941388, 40.327598], [140.941204, 40.327817], [140.941028, 40.328059], [140.940748, 40.328409], [140.940293, 40.328955], [140.939993, 40.329281], [140.939757, 40.329489], [140.939265, 40.329861], [140.938067, 40.330655], [140.93778, 40.330841], [140.9372, 40.3312], [140.936884, 40.331335], [140.936399, 40.331482], [140.935973, 40.331589], [140.935466, 40.331741], [140.935098, 40.331865], [140.934826, 40.331989], [140.934723, 40.3321155], [140.934326, 40.332271], [140.933822, 40.332594], [140.933018, 40.33311], [140.932716, 40.333301], [140.932423, 40.333493], [140.932114, 40.33369], [140.931758, 40.333859], [140.931526, 40.333938], [140.931203, 40.334045], [140.930189, 40.334394], [140.92938, 40.334692], [140.9292137, 40.3347483], [140.92863, 40.334946], [140.928512, 40.334991], [140.928402, 40.335064], [140.928315, 40.335137], [140.928255, 40.335216], [140.928227, 40.335283], [140.927895, 40.336066], [140.927772, 40.336408], [140.927612, 40.336938], [140.927487, 40.337343], [140.927295, 40.337962], [140.927177, 40.33834], [140.927075, 40.33865], [140.926934, 40.339095], [140.926899, 40.339196], [140.926772, 40.339416], [140.925897, 40.340537], [140.925854, 40.340616], [140.92575, 40.340942], [140.925567, 40.341623], [140.925449, 40.341984], [140.925405, 40.342119], [140.925287, 40.342457], [140.925205, 40.342749], [140.92514, 40.343093], [140.92514, 40.343284], [140.925177, 40.34342], [140.925257, 40.34356], [140.92533, 40.343673], [140.92567, 40.344225], [140.92575, 40.344432], [140.92583, 40.34477], [140.926008, 40.345514], [140.926067, 40.345784], [140.926087, 40.345857], [140.926119, 40.34597], [140.926133, 40.346117], [140.926111, 40.346262], [140.926016, 40.346527], [140.925803, 40.347195], [140.925684, 40.347569], [140.925692, 40.34772], [140.925787, 40.347941], [140.926089, 40.348521], [140.92617, 40.348701], [140.92617, 40.348825], [140.926148, 40.348926], [140.925743, 40.35012], [140.925508, 40.350649], [140.925095, 40.351348], [140.925014, 40.351466], [140.924801, 40.351821], [140.924566, 40.352299], [140.924308, 40.352861], [140.924168, 40.353379], [140.924095, 40.35388], [140.924073, 40.3541], [140.924065, 40.35458], [140.924028, 40.354704], [140.923903, 40.354794], [140.923712, 40.354828], [140.923447, 40.354861], [140.923271, 40.354873], [140.922716, 40.354936], [140.922233, 40.354991], [140.922034, 40.355002], [140.921945, 40.355019], [140.921748, 40.355098], [140.9217028, 40.355157], [140.9214768, 40.355475], [140.9212136, 40.3558281], [140.9211406, 40.3558837], [140.9210319, 40.355951], [140.9208858, 40.3559684], [140.919819, 40.355965], [140.919422, 40.355965], [140.919267, 40.355976], [140.918965, 40.356038], [140.91865, 40.356111], [140.918009, 40.35624], [140.917655, 40.356319], [140.917288, 40.356438], [140.916905, 40.356578], [140.916802, 40.356634], [140.916662, 40.356865], [140.916478, 40.357203], [140.916427, 40.357327], [140.916323, 40.357671], [140.916243, 40.358121], [140.916147, 40.358542], [140.916059, 40.359038], [140.916, 40.359258], [140.915816, 40.359652], [140.915683, 40.360182], [140.915617, 40.360558], [140.91558, 40.360665], [140.915543, 40.360733], [140.915477, 40.360795], [140.915411, 40.360823], [140.915308, 40.360835], [140.915139, 40.3608], [140.914999, 40.360762], [140.914831, 40.360648], [140.914691, 40.360497], [140.914331, 40.360175], [140.913985, 40.359922], [140.913896, 40.359872], [140.91358, 40.359782], [140.913433, 40.359747], [140.913198, 40.359742], [140.912999, 40.35977], [140.912947, 40.359792], [140.912704, 40.35994], [140.912646, 40.359995], [140.912336, 40.360418], [140.912226, 40.36061], [140.911998, 40.361173], [140.911931, 40.361383], [140.911784, 40.361837], [140.911755, 40.361961], [140.911733, 40.362006], [140.911652, 40.362411], [140.911608, 40.36249], [140.911542, 40.362552], [140.911468, 40.362586], [140.911314, 40.36262], [140.910843, 40.362761], [140.910298, 40.362992], [140.910063, 40.363081], [140.909872, 40.363104], [140.908849, 40.363262], [140.908459, 40.36338], [140.9084, 40.363408], [140.90815, 40.363504], [140.908061, 40.363554], [140.907988, 40.363583], [140.907811, 40.363678], [140.907664, 40.363774], [140.907488, 40.363904], [140.907208, 40.364156], [140.907039, 40.364342], [140.906987, 40.364426], [140.907134, 40.364668], [140.907377, 40.364983], [140.907546, 40.365282], [140.907583, 40.365395], [140.907642, 40.365642], [140.907679, 40.365907], [140.907723, 40.366094], [140.907789, 40.36628], [140.907966, 40.366601], [140.908378, 40.367259], [140.908451, 40.367427], [140.90851, 40.367676], [140.908547, 40.368166], [140.908561, 40.368752], [140.908591, 40.368949], [140.90865, 40.369106], [140.908804, 40.369298], [140.909132, 40.369634], [140.909194, 40.369698], [140.90929, 40.369821], [140.909297, 40.369849], [140.909319, 40.370041], [140.909459, 40.370627], [140.909584, 40.371105], [140.90968, 40.371319], [140.909908, 40.371719], [140.910018, 40.371944], [140.910113, 40.37226], [140.91012, 40.372535], [140.910091, 40.372688], [140.909855, 40.373014], [140.909738, 40.373121], [140.909561, 40.373251], [140.909422, 40.373368], [140.908525, 40.374021], [140.908208, 40.374201], [140.908017, 40.374275], [140.907708, 40.374353], [140.907355, 40.37445], [140.906508, 40.374675], [140.905854, 40.374826], [140.905736, 40.374849], [140.905633, 40.374878], [140.905544, 40.374889], [140.905236, 40.374962], [140.904161, 40.375238], [140.903952, 40.375318], [140.903109, 40.375666], [140.902587, 40.375908], [140.90174, 40.376257], [140.901476, 40.376381], [140.901027, 40.376617], [140.900608, 40.376927], [140.900453, 40.377017], [140.900181, 40.377135], [140.899938, 40.377214], [140.8996061, 40.3773072], [140.8991295, 40.3774505], [140.898957, 40.3774824], [140.8986888, 40.3775045], [140.8985256, 40.3774921], [140.8982585, 40.3774521], [140.8980214, 40.3773831], [140.8976855, 40.3772553], [140.896816, 40.3769313], [140.8961483, 40.3766656], [140.895684, 40.376488], [140.8950718, 40.3762609], [140.8941206, 40.3758856], [140.8934194, 40.3756184], [140.8932368, 40.3755732], [140.8929981, 40.3755572], [140.8928105, 40.3755735], [140.8923865, 40.3756996], [140.8922422, 40.3757468], [140.8920728, 40.3757837], [140.8919636, 40.3758062], [140.8918349, 40.3758099], [140.8916979, 40.3758126], [140.8914807, 40.3757867], [140.8907553, 40.375595], [140.8905575, 40.3755767], [140.8903933, 40.3755861], [140.8898335, 40.375757], [140.8897266, 40.3758039], [140.889593, 40.3757938], [140.8894342, 40.3757448], [140.8889548, 40.3755822], [140.8884692, 40.3753783], [140.8881023, 40.3752411], [140.8873584, 40.3749327], [140.8868588, 40.3747717], [140.885796, 40.374403], [140.885634, 40.374352], [140.885362, 40.374251], [140.8851758, 40.3742012], [140.884876, 40.374121], [140.884632, 40.374071], [140.88436, 40.374059], [140.8843076, 40.3740661], [140.884272, 40.374071], [140.88414, 40.374093], [140.883904, 40.374133], [140.883734, 40.374172], [140.883315, 40.374341], [140.882991, 40.374442], [140.882866, 40.374482], [140.882505, 40.374555], [140.882285, 40.374584], [140.882086, 40.374617], [140.881578, 40.374674], [140.880719, 40.374697], [140.880571, 40.374695], [140.880263, 40.374634], [140.880101, 40.374567], [140.879995, 40.374487], [140.879836, 40.374364], [140.879659, 40.37419], [140.879585, 40.374042], [140.879556, 40.373952], [140.879526, 40.37389], [140.879453, 40.37366], [140.879335, 40.373255], [140.8792861, 40.3730842], [140.8792677, 40.3728968], [140.8792472, 40.3728241], [140.8791447, 40.3727246], [140.8786429, 40.3723172], [140.8784536, 40.3721919], [140.8782023, 40.3720362], [140.8779581, 40.3719216], [140.8777015, 40.3718263], [140.8774273, 40.3718821], [140.8771559, 40.3719633], [140.8768834, 40.3720355], [140.8766248, 40.3721201], [140.8762874, 40.3721618], [140.8759853, 40.3721545], [140.8756394, 40.3720954], [140.8754371, 40.3719703], [140.875252, 40.3718031], [140.8740788, 40.3707487], [140.8739039, 40.3705926], [140.8737323, 40.3705322], [140.8734984, 40.3704919], [140.872964, 40.3704637], [140.8728578, 40.370458], [140.8728342, 40.3704568], [140.8728097, 40.370455], [140.8718273, 40.3703815], [140.8714309, 40.3703451], [140.8711434, 40.3702763], [140.869599, 40.3697995], [140.869272, 40.369703], [140.8688211, 40.3695416], [140.8677063, 40.369111], [140.8672675, 40.3688865], [140.8664595, 40.3684459], [140.8660299, 40.3681437], [140.8652708, 40.3676383], [140.864781, 40.367303], [140.86394, 40.366716], [140.863191, 40.366194], [140.862949, 40.366008], [140.862757, 40.365884], [140.862536, 40.365783], [140.8617999, 40.3655426], [140.8610537, 40.3652796], [140.858239, 40.363935], [140.857849, 40.363755], [140.857342, 40.363592], [140.856871, 40.363479], [140.856348, 40.363412], [140.856231, 40.363395], [140.856091, 40.363384], [140.855833, 40.36335], [140.85523, 40.363198], [140.854818, 40.363068], [140.854729, 40.363034], [140.854171, 40.362769], [140.853199, 40.362285], [140.852309, 40.361914], [140.851999, 40.361745], [140.851807, 40.361632], [140.851337, 40.361255], [140.850842, 40.360892], [140.849837, 40.360273], [140.84938, 40.360003], [140.849071, 40.359821], [140.848827, 40.359633], [140.848735, 40.359543], [140.848653, 40.359452], [140.84854, 40.35927], [140.848435, 40.359009], [140.848349, 40.358696], [140.84825, 40.358288], [140.848143, 40.357858], [140.848044, 40.357485], [140.847947, 40.357158], [140.84785, 40.356865], [140.847747, 40.356593], [140.847634, 40.35633], [140.847507, 40.356063], [140.847362, 40.355781], [140.847189, 40.355484], [140.846991, 40.355175], [140.846772, 40.354854], [140.846541, 40.354517], [140.846351, 40.354233], [140.846065, 40.353786], [140.845834, 40.353385], [140.8456778, 40.3530782], [140.845616, 40.352957], [140.845493, 40.352699], [140.845416, 40.352539], [140.845173, 40.352053], [140.845073, 40.351857], [140.845033, 40.351781], [140.8444672, 40.3506672], [140.8441457, 40.3501508], [140.843815, 40.3497605], [140.8432177, 40.349157], [140.84271, 40.348734], [140.842233, 40.348366], [140.841506, 40.347864], [140.840595, 40.347293], [140.840128, 40.346972], [140.839822, 40.346768], [140.839661, 40.346693], [140.839463, 40.346619], [140.839231, 40.346543], [140.838965, 40.346465], [140.838665, 40.346381], [140.838332, 40.346289], [140.837967, 40.346186], [140.837597, 40.346067], [140.83725, 40.345924], [140.836916, 40.345753], [140.836592, 40.345552], [140.836272, 40.345319], [140.835952, 40.345048], [140.8348579, 40.3437945], [140.832464, 40.3416176], [140.8290678, 40.3385123], [140.828945, 40.3384], [140.828725, 40.338181], [140.8280086, 40.3374307], [140.827607, 40.336985], [140.827493, 40.336838], [140.827395, 40.336654], [140.827342, 40.336477], [140.827318, 40.336311], [140.827314, 40.336174], [140.82733, 40.335949], [140.82736, 40.335674], [140.8280613, 40.3336941], [140.8281659, 40.3333236], [140.8281795, 40.3330138], [140.8281358, 40.3327634], [140.8280262, 40.3323807], [140.8278598, 40.3319082], [140.8278086, 40.331624], [140.8278238, 40.3313963], [140.8278737, 40.3311785], [140.8279755, 40.3309244], [140.8281743, 40.3305406], [140.8285242, 40.330081], [140.8287027, 40.3297183], [140.8289662, 40.328703], [140.8294068, 40.327248], [140.8294938, 40.3267518], [140.8295177, 40.3266326], [140.8295534, 40.3264133], [140.8295891, 40.3261939], [140.8296095, 40.3259141], [140.8295969, 40.3247134], [140.8296251, 40.3243286], [140.8296717, 40.3240638], [140.8299931, 40.3234209], [140.8300955, 40.3233187], [140.8306862, 40.3224499], [140.8307994, 40.3222189], [140.8309003, 40.3219866], [140.830956, 40.3216993], [140.8309507, 40.3214837], [140.8308987, 40.3210608], [140.8306731, 40.3204234], [140.8300544, 40.3186617], [140.8300372, 40.3184773], [140.8300097, 40.3181392], [140.8300252, 40.3176868], [140.83058, 40.314915], [140.830646, 40.314712], [140.830713, 40.31456], [140.8308495, 40.3143928], [140.8310445, 40.3142041], [140.8314042, 40.313875], [140.8318402, 40.3136009], [140.8320045, 40.3135264], [140.8322462, 40.3134019], [140.8325083, 40.313298], [140.8330087, 40.3131315], [140.8333165, 40.3130163], [140.8344276, 40.3124401], [140.8346003, 40.3123518], [140.834772, 40.3122126], [140.8348756, 40.3120956], [140.83573, 40.3109766], [140.835936, 40.3108024], [140.8362626, 40.3105925], [140.8368947, 40.3100479], [140.8371062, 40.3098731], [140.8372869, 40.3096866], [140.8374205, 40.3095194], [140.8376185, 40.3091027], [140.8377338, 40.3089125], [140.83787, 40.3087305], [140.8389291, 40.3077978], [140.8391281, 40.307584], [140.8393003, 40.3073538], [140.8394382, 40.3070861], [140.8395273, 40.3068434], [140.8395707, 40.3065999], [140.8396007, 40.3063319], [140.839535, 40.3054886], [140.8395192, 40.3051707], [140.8395207, 40.3048686], [140.839561, 40.304612], [140.8396056, 40.3043543], [140.8400219, 40.3022176], [140.8401342, 40.3016874], [140.8401432, 40.3015816], [140.8401514, 40.3014529], [140.8401432, 40.3013103], [140.8401087, 40.3011421], [140.8400486, 40.3009609], [140.8399616, 40.3007998], [140.8398292, 40.3006246], [140.8395168, 40.3002901], [140.839349, 40.300089], [140.8382661, 40.2988982], [140.8377626, 40.2983638], [140.8375399, 40.2981259], [140.8373818, 40.2979388], [140.8373083, 40.2978099], [140.8373378, 40.2976528], [140.8373764, 40.2975059], [140.8375091, 40.2971968], [140.8375372, 40.2971161], [140.8375072, 40.2970201], [140.8374305, 40.2969275], [140.837217, 40.296834], [140.836887, 40.296738], [140.8361962, 40.296542], [140.835953, 40.296473], [140.8357944, 40.2964266], [140.835564, 40.296366], [140.834697, 40.296118], [140.8336104, 40.2957836], [140.833586, 40.2957796], [140.8328827, 40.2955584], [140.832821, 40.2955399], [140.8321415, 40.295439], [140.8319715, 40.2954241], [140.8318788, 40.2954159], [140.8312902, 40.2952666], [140.8301835, 40.2949858], [140.8294401, 40.2947937], [140.8288521, 40.294642], [140.8282297, 40.2944773], [140.8279728, 40.2944064], [140.8257593, 40.2938234], [140.825345, 40.2937355], [140.8252421, 40.2937214], [140.8251195, 40.2937045], [140.8238503, 40.2935583], [140.8234229, 40.293509], [140.822462, 40.2934009], [140.8215354, 40.2932908], [140.8206621, 40.2931699], [140.8204073, 40.2931372], [140.8198093, 40.2930762], [140.8197512, 40.2930682], [140.819388, 40.293055], [140.8192212, 40.2930756], [140.818676, 40.293021], [140.818492, 40.292971], [140.818286, 40.29288], [140.817213, 40.292278], [140.816133, 40.291687], [140.815963, 40.291591], [140.815662, 40.291422], [140.8156057, 40.291394], [140.8150576, 40.2911214], [140.8137001, 40.2903801], [140.8111247, 40.2889978], [140.808511, 40.2875762], [140.8082727, 40.2874586], [140.8079827, 40.2873098], [140.805821, 40.286124], [140.8053709, 40.2858968], [140.804388, 40.2853577], [140.804175, 40.285178], [140.803977, 40.284987], [140.8026572, 40.2832921], [140.8011811, 40.2813593], [140.8005895, 40.2805927], [140.7999088, 40.2797151], [140.7998053, 40.27954], [140.7997463, 40.2793557], [140.7997489, 40.2791766], [140.7999217, 40.2774277], [140.7999099, 40.2771993], [140.7997882, 40.2768747], [140.7996701, 40.2765964], [140.7995123, 40.2763874], [140.7992934, 40.2761369], [140.7991757, 40.2760476], [140.7990758, 40.2759718], [140.7984752, 40.2756585], [140.7984449, 40.2756511], [140.7982112, 40.2755937], [140.7979596, 40.2755406], [140.7952766, 40.2751886], [140.7948421, 40.2751077], [140.79432, 40.274911], [140.7931472, 40.2743841], [140.7883282, 40.2721346], [140.7856476, 40.2708737], [140.78482, 40.2704836], [140.784229, 40.270205], [140.7839663, 40.2700865], [140.7837569, 40.2699921], [140.7836742, 40.2699548], [140.783182, 40.2697791], [140.782476, 40.2696238], [140.780818, 40.2692861], [140.7806922, 40.2692575], [140.7792658, 40.2689332], [140.778541, 40.2687532], [140.7783044, 40.2686757], [140.7780754, 40.2685842], [140.777415, 40.268302], [140.776997, 40.268065], [140.77682, 40.267964], [140.776394, 40.267699], [140.775085, 40.2668627], [140.7745259, 40.2665064], [140.7744155, 40.2664304], [140.7730452, 40.2655768], [140.7722009, 40.2650766], [140.772024, 40.2649691], [140.7714032, 40.26464], [140.7711634, 40.2645128], [140.7704712, 40.2641614], [140.7703049, 40.2640908], [140.7692928, 40.2636198], [140.768149, 40.263065], [140.767627, 40.262795], [140.767227, 40.262604], [140.766788, 40.262372], [140.7667354, 40.2623447], [140.76654, 40.262243], [140.766275, 40.262108], [140.766025, 40.261989], [140.765753, 40.261843], [140.765261, 40.261522], [140.764967, 40.261291], [140.764688, 40.26106], [140.76446, 40.260829], [140.764162, 40.260467], [140.763569, 40.25972], [140.7634555, 40.2595738], [140.763284, 40.259353], [140.762976, 40.25888], [140.7627754, 40.2585166], [140.7624385, 40.257864], [140.7616659, 40.2567553], [140.7611763, 40.2559611], [140.760714, 40.2551831], [140.760497, 40.254818], [140.7596059, 40.2533372], [140.759336, 40.2529125], [140.758009, 40.2507462], [140.7578137, 40.2504301], [140.757494, 40.250007], [140.75734, 40.249826], [140.757003, 40.249471], [140.756727, 40.24922], [140.7564081, 40.2489789], [140.7561085, 40.2487623], [140.7558028, 40.2485722], [140.755484, 40.2483993], [140.7551364, 40.2482213], [140.7547748, 40.2480661], [140.7543939, 40.2479275], [140.7541089, 40.2478388], [140.7537023, 40.2477339], [140.7534634, 40.2476659], [140.7532621, 40.2476357], [140.752858, 40.2475566], [140.7525642, 40.2475159], [140.7520449, 40.247458], [140.7516115, 40.2474191], [140.7498348, 40.2473341], [140.7478833, 40.247261], [140.7472695, 40.2472238], [140.7463327, 40.2470882], [140.7459425, 40.2470079], [140.7457999, 40.2469786], [140.7453316, 40.246858], [140.7448322, 40.2467069], [140.7446147, 40.2466306], [140.7442841, 40.2465146], [140.743776, 40.2463042], [140.7437078, 40.2462724], [140.7429566, 40.2459018], [140.7425188, 40.2456414], [140.741911, 40.245208], [140.7415672, 40.2449357], [140.7414944, 40.2448735], [140.7412185, 40.2446188], [140.740959, 40.244369], [140.7406875, 40.2440798], [140.7404615, 40.2437892], [140.7401681, 40.2433247], [140.7395881, 40.2424064], [140.738408, 40.2403772], [140.7383767, 40.2403234], [140.7364918, 40.236959], [140.7360658, 40.2362127], [140.73447, 40.233715], [140.734461, 40.2337012], [140.7328254, 40.2312016], [140.7317916, 40.2296253], [140.7314686, 40.2292139], [140.7310631, 40.2287684], [140.7310137, 40.2287141], [140.7305521, 40.2283291], [140.7302342, 40.2281272], [140.72961, 40.227748], [140.728606, 40.227222], [140.7277886, 40.2268008], [140.7261057, 40.2259337], [140.7260439, 40.2259014], [140.7233571, 40.2244949], [140.722649, 40.2241328], [140.7223041, 40.223964], [140.7219276, 40.2238145], [140.7215134, 40.2236825], [140.7211383, 40.2235924], [140.7207417, 40.2235208], [140.7203606, 40.2234806], [140.7199859, 40.2234598], [140.7195779, 40.2234659], [140.7192196, 40.2234932], [140.7188286, 40.2235417], [140.7184494, 40.2236104], [140.7180782, 40.2237015], [140.7177249, 40.2238162], [140.7173867, 40.2239517], [140.7170114, 40.2241346], [140.7166744, 40.2243302], [140.7163455, 40.2245586], [140.7160871, 40.2247789], [140.715824, 40.2250292], [140.7150991, 40.2258184], [140.7143509, 40.2265628], [140.7140309, 40.2268292], [140.713703, 40.2270666], [140.7133773, 40.227269], [140.7130542, 40.2274529], [140.7127146, 40.2276218], [140.7123509, 40.2277784], [140.7116065, 40.2280718], [140.7114973, 40.2281149], [140.7074314, 40.2297306], [140.7038937, 40.2311454], [140.7035042, 40.2313012], [140.7030653, 40.2314992], [140.7027334, 40.2316669], [140.7024425, 40.2318436], [140.7021162, 40.2320714], [140.7017707, 40.2323566], [140.7014304, 40.2326426], [140.7011366, 40.2328659], [140.7008154, 40.2330639]], [[140.6788458, 40.2262695], [140.6790735, 40.2266464], [140.6794348, 40.2272443], [140.6798892, 40.2279807], [140.6801373, 40.228386], [140.6801475, 40.2284004], [140.6803988, 40.2287564], [140.6806609, 40.229062], [140.6809007, 40.2293268], [140.6811691, 40.2295963], [140.6814576, 40.2298647], [140.6817984, 40.2301431], [140.6821526, 40.2304033], [140.6825101, 40.2306389], [140.6829329, 40.230898], [140.683353, 40.2311161], [140.6838348, 40.2313455], [140.684302, 40.2315401], [140.6848041, 40.2317298], [140.684836, 40.2317419], [140.6853745, 40.2319235], [140.6858835, 40.2320806], [140.6865273, 40.2322662], [140.6873981, 40.232476], [140.6882582, 40.2326631], [140.6891317, 40.2328317], [140.6900047, 40.2329662], [140.6908901, 40.2330814], [140.691781, 40.2331678], [140.6926765, 40.2332302], [140.693572, 40.2332761], [140.6935925, 40.2332772], [140.6946524, 40.233335], [140.6953507, 40.2333727], [140.6954741, 40.2333794], [140.6967443, 40.233448], [140.6984334, 40.2335394], [140.6988287, 40.2335471], [140.6991677, 40.2335344], [140.6995085, 40.2334917], [140.6998545, 40.2334224], [140.7001922, 40.2333267], [140.7005065, 40.2332106], [140.7008154, 40.2330639]], [[140.6788458, 40.2262695], [140.6786911, 40.2260185], [140.6784929, 40.2256896], [140.6781073, 40.2250498], [140.6780407, 40.2249394], [140.6777853, 40.2245468], [140.6774036, 40.2240484], [140.6770689, 40.2237111], [140.6767183, 40.2233972], [140.6762955, 40.2230932], [140.6758942, 40.2228588], [140.6754654, 40.222652], [140.6749789, 40.2224622], [140.6744907, 40.2223072], [140.6740137, 40.2221921], [140.6736025, 40.22212], [140.6732399, 40.2220773], [140.6728458, 40.2220465], [140.6724134, 40.2220368], [140.6703555, 40.2220621], [140.6697288, 40.222069], [140.6693644, 40.222076], [140.6684552, 40.2220934], [140.6679025, 40.222082], [140.6667957, 40.222084], [140.6660066, 40.2220763], [140.6658188, 40.2220824], [140.6644047, 40.2220954], [140.664231, 40.2220977], [140.6615881, 40.2221322], [140.6578377, 40.2221622], [140.6567665, 40.2221773], [140.6558894, 40.2221696], [140.6551445, 40.222148], [140.6544745, 40.2221069], [140.6540462, 40.2220588], [140.6538415, 40.2220376], [140.6535445, 40.2219961], [140.6531754, 40.2219305], [140.6527602, 40.2218366], [140.6523623, 40.2217269], [140.6518405, 40.2215519], [140.6513763, 40.2213708], [140.6509823, 40.2211754], [140.6508114, 40.2210873], [140.6504782, 40.2208923], [140.6501591, 40.2206728], [140.6494679, 40.2201985], [140.6489276, 40.2198511], [140.6485504, 40.2196134], [140.648144, 40.2194136], [140.647864, 40.2192731], [140.6474788, 40.2191089], [140.6470571, 40.2189537], [140.6466198, 40.2188091], [140.646015, 40.2186516], [140.6455408, 40.2185601], [140.6451678, 40.2184979], [140.644823, 40.2184509], [140.6444457, 40.2184133], [140.6438249, 40.2183862], [140.6433452, 40.2183859], [140.6422706, 40.218444], [140.6413063, 40.2184619], [140.6411089, 40.2184621], [140.6408518, 40.2184623], [140.6403905, 40.2184476], [140.6399712, 40.2184169], [140.6396714, 40.2183766], [140.6389318, 40.2182583], [140.6382959, 40.2180939], [140.637808, 40.2179275], [140.636237, 40.217311], [140.6356978, 40.2171303], [140.6353484, 40.2170271], [140.6349246, 40.2169349], [140.6344256, 40.2168498], [140.6339112, 40.2167887], [140.6336718, 40.2167687], [140.6332935, 40.2167555], [140.6329185, 40.2167532], [140.6313926, 40.2168469], [140.6306172, 40.2168946], [140.629997, 40.2168946], [140.6294654, 40.216851], [140.6289589, 40.2167811], [140.6289358, 40.2167779], [140.6285901, 40.216705], [140.627641, 40.2164628], [140.6271926, 40.2163576], [140.6267423, 40.216252], [140.6266942, 40.2162407], [140.6264034, 40.2161725], [140.625747, 40.2160186], [140.6251986, 40.2158871], [140.6251029, 40.2158634], [140.6243527, 40.2156776], [140.6234886, 40.2154803], [140.6229301, 40.2153554], [140.6225883, 40.2153112], [140.6223163, 40.2153023], [140.6220088, 40.2153093], [140.6218108, 40.2153196], [140.6214905, 40.2153741], [140.620977, 40.215514], [140.6200835, 40.215817], [140.6182761, 40.2164712], [140.6164679, 40.2171011], [140.6146494, 40.2177178], [140.6135997, 40.2180717], [140.6129358, 40.2183204], [140.6120204, 40.2187118], [140.6110165, 40.2192388], [140.6102229, 40.2196814], [140.6096626, 40.2200499], [140.6081781, 40.2209619], [140.608029, 40.221055], [140.607743, 40.221246], [140.606508, 40.222103], [140.6061484, 40.2223445], [140.6061, 40.222377], [140.6058236, 40.2225379], [140.6057808, 40.2225661], [140.6056689, 40.2226398], [140.6050443, 40.2230089], [140.6036989, 40.2238763], [140.6025949, 40.2245856], [140.6021257, 40.2249153], [140.6017568, 40.2251917], [140.6013538, 40.2254811], [140.6008398, 40.2259252], [140.6007436, 40.2260084], [140.6002229, 40.2264735], [140.600181, 40.226511], [140.59958, 40.227046], [140.5992362, 40.2273281], [140.599073, 40.227462], [140.5985676, 40.2278102], [140.5981717, 40.228039], [140.598118, 40.22807], [140.597782, 40.228245], [140.597488, 40.228386], [140.5958471, 40.2291134], [140.595469, 40.229281], [140.59453, 40.229697], [140.5929029, 40.2303879], [140.5926081, 40.2305131], [140.5913084, 40.2310857], [140.5903991, 40.2314763], [140.5900175, 40.2316438], [140.589649, 40.2318147], [140.5892788, 40.2320004], [140.5889449, 40.2321789], [140.5886412, 40.2323541], [140.5883496, 40.2325395], [140.588092, 40.2327207], [140.58779, 40.232948], [140.5875494, 40.2331352], [140.5874843, 40.2331837], [140.5871306, 40.2334651], [140.5868413, 40.2336933], [140.5866715, 40.2338345], [140.586589, 40.2339031], [140.5863421, 40.2341203], [140.58611, 40.2343456], [140.5858957, 40.2345814], [140.5857123, 40.2348161], [140.5855437, 40.2350579], [140.5854013, 40.2353088], [140.5852703, 40.2355595], [140.5851662, 40.2357907], [140.585085, 40.2360255], [140.5849791, 40.2364367], [140.5846738, 40.2377951], [140.5845909, 40.2381257], [140.5845054, 40.2384327], [140.5844282, 40.238674], [140.584339, 40.2389273], [140.5842296, 40.2391858], [140.5841353, 40.2393943], [140.5840343, 40.239609], [140.5839196, 40.2398277], [140.583809, 40.2400281], [140.5836636, 40.2402704], [140.5835048, 40.2405188], [140.5833483, 40.2407595], [140.5831704, 40.2410175], [140.5828808, 40.2414262], [140.5827029, 40.241681], [140.582546, 40.241909], [140.5823998, 40.2421226], [140.5822606, 40.242336], [140.5821188, 40.2425616], [140.5819824, 40.2427908], [140.5818527, 40.2430303], [140.5817344, 40.2432746], [140.58163, 40.243507], [140.5815322, 40.2437425], [140.5814534, 40.2439635], [140.5813914, 40.2441537], [140.581332, 40.2443459], [140.5812869, 40.2445257], [140.5812446, 40.2447137], [140.5811946, 40.2449403], [140.581162, 40.2451424], [140.5811319, 40.245412], [140.5811138, 40.2457], [140.5811099, 40.2460457], [140.5811121, 40.2464127], [140.5811191, 40.246835], [140.5811332, 40.2472718], [140.5811741, 40.2484746], [140.5811974, 40.2491577], [140.581221, 40.2498755], [140.5812261, 40.2501306], [140.5812225, 40.2503601], [140.5812159, 40.2505542], [140.5811985, 40.2507381], [140.5811731, 40.2509269], [140.5811315, 40.2511188], [140.5810898, 40.2512887], [140.5810347, 40.2514606], [140.580969, 40.2516366], [140.5808871, 40.2518257], [140.5807986, 40.2520069], [140.5807076, 40.2521748], [140.5805953, 40.252355], [140.5804696, 40.2525373], [140.5803462, 40.2527001], [140.5801837, 40.2528926], [140.5800242, 40.2530581], [140.5798378, 40.2532359], [140.5796762, 40.2533767], [140.5794928, 40.2535216], [140.5793012, 40.2536583], [140.5789814, 40.2538656], [140.5787418, 40.2540044], [140.578502, 40.2541264], [140.578239, 40.2542477], [140.5779722, 40.2543546], [140.5777362, 40.2544385], [140.5774773, 40.2545205], [140.5772145, 40.25459], [140.5769556, 40.2546494], [140.5766767, 40.2547026], [140.5763736, 40.2547497], [140.5760665, 40.2547899], [140.5755501, 40.2548447], [140.5738993, 40.2550036], [140.5720247, 40.2551804], [140.5714328, 40.2552374], [140.5710651, 40.2552714], [140.5707322, 40.2552962], [140.570403, 40.2553075], [140.5700636, 40.2553092], [140.5697804, 40.2552982], [140.5694863, 40.2552755], [140.5691935, 40.2552414], [140.5688932, 40.2551943], [140.5685826, 40.2551347], [140.5682871, 40.2550659], [140.5679918, 40.2549889], [140.5670289, 40.2547301], [140.5664461, 40.2545671], [140.5657453, 40.2543746], [140.5654235, 40.2542912], [140.565115, 40.2542135], [140.5647744, 40.2541391], [140.5644552, 40.2540822], [140.5641237, 40.2540303], [140.5638294, 40.2539908], [140.5635271, 40.2539657], [140.5632098, 40.2539491], [140.56287, 40.2539452], [140.5624876, 40.2539543], [140.5621422, 40.253973], [140.5617408, 40.2540148], [140.5613852, 40.2540643], [140.5610306, 40.2541296], [140.560676, 40.2542113], [140.5603111, 40.2543116], [140.5599866, 40.254414], [140.5596808, 40.2545259], [140.5593835, 40.2546479], [140.5591129, 40.2547749], [140.5587954, 40.254951], [140.5585229, 40.2551206], [140.5582213, 40.2553258], [140.5573287, 40.255977]], [[140.5812446, 40.2447137], [140.5812153, 40.2449414], [140.5811955, 40.2451649], [140.5811774, 40.2454398], [140.58117, 40.2457003], [140.5811687, 40.2460412], [140.5811882, 40.2464169], [140.5812212, 40.246852], [140.581237, 40.2472702], [140.5812807, 40.2484729], [140.5813044, 40.2491575], [140.5813243, 40.2498752], [140.5813295, 40.2501292], [140.5813269, 40.2503629], [140.5813169, 40.2505576], [140.5813015, 40.2507421], [140.5812761, 40.250935], [140.5812359, 40.2511372], [140.5811915, 40.2513199], [140.5811338, 40.2515011], [140.5810684, 40.2516688], [140.5809937, 40.2518423], [140.5809037, 40.2520287], [140.5808029, 40.2522079], [140.5806909, 40.2523915], [140.5805618, 40.2525785], [140.5804274, 40.2527532], [140.5802764, 40.2529358], [140.5801101, 40.2531096], [140.5799317, 40.2532803], [140.5797421, 40.2534434], [140.5795327, 40.2536052], [140.5793549, 40.2537324], [140.5789545, 40.2539849], [140.5786022, 40.2541763], [140.5782921, 40.2543182], [140.5780322, 40.2544233], [140.5777884, 40.2545091], [140.5775195, 40.2545945], [140.5772582, 40.2546652], [140.5769945, 40.2547282], [140.5767043, 40.2547817], [140.5763953, 40.2548316], [140.5760757, 40.2548734], [140.5755566, 40.2549262], [140.5739153, 40.2550813], [140.5719922, 40.255268], [140.571437, 40.2553228], [140.5710678, 40.2553557], [140.5707356, 40.255378], [140.5703833, 40.2553921], [140.5700553, 40.2553931], [140.5697617, 40.2553805], [140.5694652, 40.2553566], [140.5691525, 40.2553203], [140.5688661, 40.2552737], [140.5685729, 40.2552173], [140.5682693, 40.2551468], [140.5679524, 40.2550644], [140.5670054, 40.2548066], [140.5664123, 40.2546461], [140.5657066, 40.2544531], [140.5653684, 40.2543669], [140.5650654, 40.2542912], [140.5647474, 40.2542194], [140.5644217, 40.2541588], [140.5641013, 40.2541094], [140.5638143, 40.2540744], [140.5635111, 40.2540476], [140.5631983, 40.2540323], [140.5628539, 40.2540291], [140.5624841, 40.2540415], [140.5621252, 40.2540623], [140.5617587, 40.2541021], [140.5613976, 40.2541515], [140.5610613, 40.2542106], [140.5607041, 40.2542942], [140.5603534, 40.254394], [140.5600081, 40.2545061], [140.5597228, 40.254607], [140.5594389, 40.2547228], [140.5591737, 40.2548458], [140.5588475, 40.2550107], [140.5585564, 40.2551792], [140.558268, 40.2553599], [140.5573287, 40.255977], [140.556403, 40.2565969], [140.5544986, 40.2578859], [140.5525925, 40.2591675], [140.550029, 40.260822], [140.549308, 40.261306], [140.54747, 40.262467], [140.5463511, 40.2631977], [140.5459509, 40.2634591], [140.5456152, 40.2636765], [140.5454524, 40.2637698], [140.5448515, 40.2641117], [140.5443567, 40.2643564], [140.5440038, 40.2644918], [140.5435855, 40.264656], [140.5431806, 40.2647916], [140.5427717, 40.2649099], [140.542357, 40.265023], [140.541921, 40.2651296], [140.5414485, 40.2652334], [140.5409281, 40.2653307], [140.5403737, 40.2654219], [140.5387702, 40.2656937], [140.5379573, 40.2658326], [140.5367123, 40.2660425], [140.5363567, 40.2661095], [140.5359625, 40.2661923], [140.535593, 40.2662787], [140.5352169, 40.2663762], [140.5348462, 40.266487], [140.5345136, 40.2665983], [140.5341403, 40.2667347], [140.5337644, 40.2668834], [140.5330045, 40.2672047], [140.5291753, 40.2688411], [140.5277894, 40.2694405], [140.527343, 40.2696195], [140.5268632, 40.2697965], [140.5264005, 40.2699466], [140.5259561, 40.270074], [140.5255413, 40.2701767], [140.5251214, 40.2702649], [140.5247016, 40.2703428], [140.524275, 40.2704105], [140.5237737, 40.2704891], [140.5233367, 40.2705543], [140.5226474, 40.2706614], [140.5200878, 40.2710459], [140.518738, 40.2712727], [140.5181559, 40.2713726], [140.5175862, 40.271478], [140.5170846, 40.2715793], [140.516409, 40.2717487]], [[140.5443567, 40.2643564], [140.5441187, 40.2644722], [140.5438484, 40.2646002], [140.5435446, 40.2647277], [140.5432282, 40.2648521], [140.5428435, 40.2649734], [140.5424135, 40.2650941], [140.5419502, 40.2652093], [140.5414794, 40.265312], [140.541043, 40.2653954], [140.5406541, 40.2654676], [140.5387511, 40.26579], [140.5379936, 40.2659149], [140.5367471, 40.26613], [140.5364014, 40.2661986], [140.5360056, 40.2662778], [140.535634, 40.2663621], [140.5352927, 40.2664465], [140.5349125, 40.2665576], [140.5345651, 40.2666725], [140.5342069, 40.2668038], [140.53385, 40.2669473], [140.5330559, 40.2672823], [140.5292184, 40.2689188], [140.5288348, 40.2690835], [140.5271969, 40.2697628], [140.5268598, 40.2698837], [140.5264422, 40.270019], [140.5260566, 40.2701311], [140.5256102, 40.2702432], [140.5251716, 40.2703398], [140.524725, 40.2704214], [140.5242984, 40.2704888], [140.5226616, 40.2707463], [140.5201225, 40.2711229], [140.518765, 40.2713276], [140.51822, 40.2714163], [140.5176912, 40.2715038], [140.5170997, 40.2716089], [140.516409, 40.2717487], [140.5156946, 40.2719241], [140.5149509, 40.2721457], [140.5141929, 40.2723965], [140.5135603, 40.2726359], [140.5128849, 40.2729069], [140.5109137, 40.2737363], [140.509763, 40.2741385], [140.5093858, 40.2742827], [140.5087612, 40.274496], [140.5078642, 40.2747501], [140.5076247, 40.274831], [140.507479, 40.2748993], [140.5073612, 40.2749545], [140.5071895, 40.2750673], [140.5070573, 40.2752229], [140.5069437, 40.2753891]]]}, "id": "relation/3066227"}]}