{"type": "FeatureCollection", "generator": "kokudo-quiz tools/fetch_raw.py (Overpass API)", "copyright": "The data included in this document is from www.openstreetmap.org. The data is made available under ODbL.", "timestamp": "2026-09-30T14:37:59Z", "features": [{"type": "Feature", "properties": {"@id": "relation/3118835", "colour": "red", "from": "山形県山形市", "name": "国道112号", "name:en": "National Highway Route 112", "name:ja": "国道112号", "name:ja-Hira": "こくどうひゃくじゅうにごう", "name:ja-Latn": "Kokudou 112 Gou", "network": "JP:national", "official_name": "一般国道112号", "operator": "山形河川国道事務所;山形県", "ref": "112", "route": "road", "to": "山形県酒田市", "type": "route", "wikidata": "Q6156722", "wikipedia": "ja:国道112号"}, "geometry": {"type": "MultiLineString", "coordinates": [[[140.3232292, 38.2142681], [140.3232211, 38.2144064], [140.3232145, 38.2145394], [140.3232202, 38.2146052], [140.3232342, 38.2146856], [140.3233015, 38.2149164], [140.323388, 38.2153059], [140.3234809, 38.2158092], [140.3236013, 38.2164055], [140.3236536, 38.2167266], [140.3237207, 38.2170862], [140.3238015, 38.2175772], [140.32384, 38.2177782], [140.3239631, 38.2184416], [140.3240877, 38.2192746], [140.3241772, 38.2196842], [140.3241928, 38.2197536], [140.3242488, 38.219967], [140.3244185, 38.2204787], [140.3246315, 38.2210364], [140.3249073, 38.2217655], [140.3252751, 38.222451], [140.3255065, 38.222846], [140.3256565, 38.2231506], [140.3260219, 38.2238189], [140.3265265, 38.2247002], [140.326733, 38.2250505], [140.3271891, 38.2258243], [140.327581, 38.2264939], [140.3277357, 38.2267737], [140.3279213, 38.2271326], [140.32795, 38.2272287], [140.3281049, 38.2276841], [140.3281716, 38.2278676], [140.3283342, 38.2283147], [140.3284839, 38.2287643], [140.3286624, 38.2292894], [140.3287035, 38.2294125], [140.3288291, 38.229931], [140.3289412, 38.2304321], [140.3290455, 38.2308728], [140.3292024, 38.2315993], [140.329429, 38.2326071], [140.3294318, 38.2326176], [140.3295289, 38.2330852], [140.3297096, 38.2339111], [140.3297807, 38.2341435], [140.3298782, 38.2343635], [140.3299393, 38.2344915], [140.3300344, 38.2346867], [140.3301251, 38.2347916], [140.3302799, 38.2351206], [140.3304084, 38.2353837], [140.3307502, 38.2361212], [140.331206, 38.2371376], [140.3314115, 38.2375415], [140.3315957, 38.2379149], [140.3316114, 38.2379485], [140.3319724, 38.2387212], [140.3321866, 38.2391726], [140.3325182, 38.2398828], [140.3325953, 38.2402072], [140.3328047, 38.2410646], [140.3330815, 38.2422619], [140.3331761, 38.2424817], [140.333635, 38.2433189], [140.33431, 38.2445536], [140.3344721, 38.2448634], [140.3350265, 38.2458666], [140.3350849, 38.2459671], [140.335662, 38.2470247], [140.3356739, 38.2470487], [140.3359112, 38.2475046], [140.3363184, 38.2481979], [140.3366746, 38.2488357], [140.3367164, 38.2489148], [140.336906, 38.249215], [140.3370592, 38.2494671], [140.3375246, 38.2502674], [140.3375378, 38.2502907], [140.3380883, 38.2512632], [140.3382374, 38.2515315], [140.3384751, 38.25194], [140.3385938, 38.2521632], [140.3389376, 38.2527877], [140.339602, 38.2539178], [140.3384905, 38.2543201], [140.3374562, 38.2546946], [140.3378739, 38.2554402], [140.3382342, 38.2561437], [140.3386314, 38.2569367], [140.3376349, 38.2572759], [140.3371076, 38.2574626], [140.3369513, 38.257518], [140.3360046, 38.2578492], [140.3354226, 38.2580279], [140.3340386, 38.2584439], [140.3335878, 38.258531], [140.3330117, 38.2586723], [140.3327305, 38.2587578]], [[140.3253982, 38.2599908], [140.3261787, 38.2599417], [140.3265434, 38.2599023], [140.3273582, 38.2598226], [140.3282921, 38.2597545], [140.3292859, 38.2596569], [140.3302877, 38.2595007], [140.3311681, 38.2592928], [140.3319934, 38.2590802], [140.3323853, 38.2589668], [140.3327502, 38.2588638], [140.3330338, 38.25878]], [[140.3251494, 38.2651761], [140.3250822, 38.2656114], [140.3250186, 38.2661585], [140.3248453, 38.2675758], [140.3247718, 38.2683506], [140.3247721, 38.2690071], [140.3247708, 38.2690176], [140.3247423, 38.2692401], [140.3245882, 38.2698047], [140.3245135, 38.270175], [140.3243874, 38.2707433], [140.3243214, 38.2713449], [140.3242207, 38.2718814], [140.3232572, 38.2722237], [140.3217758, 38.2727541], [140.3211704, 38.2729701], [140.31928, 38.273623], [140.319019, 38.2737197], [140.3174694, 38.2742822], [140.3159557, 38.2748091], [140.3155634, 38.2749457], [140.3152066, 38.2750732], [140.3146397, 38.2752514], [140.3145314, 38.2752758], [140.3145731, 38.2756622], [140.3146496, 38.2763475]], [[140.3146397, 38.2752514], [140.3146932, 38.2757597], [140.3147318, 38.2760028], [140.3147687, 38.2763332], [140.3146496, 38.2763475], [140.3144597, 38.276349], [140.3143339, 38.2764074], [140.3141277, 38.2767103], [140.3136286, 38.2772755], [140.3134891, 38.2774659], [140.312918, 38.2781602], [140.3123085, 38.278852], [140.3119254, 38.2793599], [140.3110833, 38.2803806], [140.3109325, 38.2805641], [140.3103324, 38.2812794], [140.3103, 38.2813183], [140.3101312, 38.2815205], [140.3097157, 38.281979], [140.3093348, 38.2823682], [140.3087779, 38.2829372], [140.3081917, 38.2835959], [140.3077019, 38.2841074], [140.307242, 38.2846028], [140.3070006, 38.2848007], [140.3067028, 38.2849439], [140.3062675, 38.2851054], [140.3060538, 38.2851938], [140.3058663, 38.285298], [140.3057194, 38.2854063], [140.3055778, 38.2855563], [140.3054861, 38.2857084], [140.3054561, 38.285778], [140.3054438, 38.2858065], [140.3054151, 38.2859179], [140.3053729, 38.2861078], [140.3053701, 38.2862107], [140.3053533, 38.2863737], [140.3053214, 38.2865748], [140.3052961, 38.2866718], [140.3052906, 38.2866927], [140.3052517, 38.286779], [140.3052014, 38.2868702], [140.3051384, 38.2869634], [140.3044644, 38.2878416], [140.3042672, 38.2881221], [140.304208, 38.2882649], [140.3041604, 38.2884155], [140.3041345, 38.288617], [140.3040955, 38.2889261], [140.3040687, 38.2891025], [140.303989, 38.2896277], [140.3039556, 38.2898477], [140.3039052, 38.2901966], [140.3038728, 38.2903964], [140.3038466, 38.2905582], [140.3038142, 38.2907579], [140.303806, 38.2908131], [140.3037989, 38.290861], [140.3035999, 38.2921985], [140.3034677, 38.292979], [140.3033944, 38.2934874], [140.303324, 38.2939405], [140.3032616, 38.2943037], [140.3032527, 38.2943557], [140.303238, 38.2944499], [140.303043, 38.2957009], [140.3028585, 38.296923], [140.3027901, 38.2973476], [140.3027572, 38.2975456], [140.3027516, 38.2975812], [140.3026115, 38.2984786], [140.3025232, 38.2990963], [140.302495, 38.2992973], [140.3024459, 38.2996125], [140.3022965, 38.300641], [140.3022859, 38.3007839], [140.3021361, 38.3017315], [140.3020659, 38.3022378], [140.3020543, 38.3023306], [140.3019767, 38.3029249], [140.3019679, 38.303006], [140.3018652, 38.3039363], [140.3018641, 38.3039652], [140.3018427, 38.3042515], [140.3017666, 38.3048133], [140.301684, 38.3050463], [140.3015351, 38.3053369], [140.3014436, 38.3054948], [140.3013029, 38.305682], [140.3012443, 38.3057609], [140.301105, 38.3059486], [140.3009551, 38.3060702], [140.3007959, 38.3061943], [140.3003388, 38.3065152], [140.2999402, 38.3067873], [140.2995804, 38.3070426], [140.2990808, 38.3073735], [140.2987097, 38.3076246], [140.2980433, 38.3080908], [140.2979515, 38.308154], [140.2969976, 38.3088167], [140.2965307, 38.3091605], [140.2948669, 38.310298], [140.2948217, 38.3103279], [140.2947817, 38.3103543], [140.2929342, 38.3116419], [140.2929095, 38.3116628], [140.2913445, 38.3127491], [140.2892672, 38.3141979], [140.2886686, 38.3146439]], [[140.2786869, 38.3265774], [140.2788366, 38.3258662], [140.2790402, 38.3248591], [140.2792052, 38.3239829], [140.279412, 38.3230642], [140.2795589, 38.3223573], [140.2796209, 38.322122], [140.2797108, 38.3218944], [140.2798566, 38.3215391], [140.2800066, 38.3212123], [140.280332, 38.3207735], [140.2805305, 38.3205489], [140.2808032, 38.3202838], [140.2809881, 38.3200876], [140.2812196, 38.3199131], [140.2830734, 38.3186097], [140.2846593, 38.3175023], [140.2860971, 38.316488], [140.2867499, 38.3160553], [140.287358, 38.3156317], [140.2884507, 38.3148042], [140.2886686, 38.3146439]], [[140.2786869, 38.3265774], [140.2786475, 38.3267794], [140.2784758, 38.3276542], [140.2782758, 38.3285898], [140.2779707, 38.3300322], [140.2778972, 38.3304239], [140.2778645, 38.3306799], [140.2778302, 38.331034], [140.277814, 38.3313066], [140.2778203, 38.3315105], [140.2778346, 38.3317601], [140.2778733, 38.3319892], [140.2779396, 38.3323007], [140.2780387, 38.3325608], [140.2781516, 38.3328315], [140.278279, 38.333099], [140.2785144, 38.3335477], [140.2792756, 38.3350583], [140.2794631, 38.3354292], [140.2796309, 38.3357462], [140.2806257, 38.3376612], [140.280827, 38.3380486], [140.2817038, 38.3397701], [140.2818169, 38.3399762], [140.2832099, 38.3426539], [140.283344, 38.3429158], [140.2836923, 38.34361], [140.2842161, 38.3445873], [140.2847553, 38.345653], [140.285766, 38.3475899], [140.2869366, 38.3498688], [140.287751, 38.3514361], [140.2881519, 38.3522118], [140.2888291, 38.3535148], [140.2896687, 38.3551389], [140.2902698, 38.356323], [140.2904469, 38.3567253], [140.2906444, 38.357162], [140.2908264, 38.3578854], [140.290912, 38.3586214], [140.290904, 38.3591592], [140.2908477, 38.3596429], [140.2907769, 38.3601057], [140.2907555, 38.360189], [140.2907294, 38.3603273], [140.2905766, 38.3611542], [140.2905032, 38.3615824], [140.2903493, 38.3624384], [140.2901691, 38.3632849], [140.2900266, 38.3641211], [140.2900149, 38.3641918], [140.2898667, 38.3649848], [140.2897654, 38.365576], [140.2897572, 38.3656613], [140.2897101, 38.3661763], [140.2897025, 38.3664104], [140.2897136, 38.3665127], [140.2897244, 38.3668798], [140.2897379, 38.3673158], [140.2898891, 38.3681545], [140.2901584, 38.3692574], [140.2903578, 38.3701323], [140.2904336, 38.3704728], [140.2907212, 38.3716815], [140.2908808, 38.3723441], [140.2910172, 38.3729759], [140.2910304, 38.37327], [140.290924, 38.3730072], [140.2908408, 38.372695], [140.2906348, 38.3716957], [140.2903258, 38.3704875], [140.2902534, 38.37018], [140.2900779, 38.3693043], [140.2898173, 38.3681494], [140.2896527, 38.3673169], [140.289629, 38.366874], [140.2896156, 38.3665253], [140.2896246, 38.3661072], [140.2896644, 38.3656549], [140.2896715, 38.365574], [140.2896724, 38.3655639], [140.2897717, 38.3649709], [140.2898439, 38.3645714], [140.289906, 38.3642111], [140.2900694, 38.3632833], [140.2901936, 38.3626055], [140.2902505, 38.3623992], [140.2903925, 38.3615803], [140.2905371, 38.3607191], [140.2906538, 38.3601306], [140.2907136, 38.3597123], [140.2907672, 38.359258], [140.2908021, 38.358663], [140.2907745, 38.3582644], [140.2907544, 38.3580205], [140.2905331, 38.3571866], [140.2903699, 38.3568037], [140.290161, 38.3563172], [140.289988, 38.3559938], [140.2893821, 38.3548482], [140.2885698, 38.3532586], [140.2880731, 38.3522919], [140.286873, 38.3499716], [140.2861275, 38.3485275], [140.2853954, 38.3471131], [140.2847055, 38.3457891], [140.2839629, 38.3443575], [140.283577, 38.3436463], [140.2833195, 38.3431482], [140.2830891, 38.3426951], [140.2816043, 38.3397972], [140.2808571, 38.3383409], [140.2807138, 38.3380616], [140.2805466, 38.3377327], [140.2795309, 38.3357886], [140.2793517, 38.3354456], [140.2791689, 38.3350767], [140.278379, 38.3335713], [140.2781634, 38.3331648], [140.2780337, 38.3328847], [140.2779387, 38.3326602], [140.2778914, 38.332531], [140.2778396, 38.3323673], [140.2777974, 38.3322111], [140.2777512, 38.3320129], [140.2776914, 38.3317035], [140.2776704, 38.3314069], [140.2776874, 38.3310713], [140.2777336, 38.3307088], [140.2777798, 38.3303486], [140.2779489, 38.3295846], [140.2781619, 38.3285887], [140.2783693, 38.3275997], [140.2784885, 38.3270313], [140.2785465, 38.326746], [140.2785912, 38.3265265], [140.2789402, 38.3248288], [140.2792052, 38.3239829]], [[140.2910304, 38.37327], [140.2912916, 38.3743753], [140.2915435, 38.3754041], [140.2918216, 38.3767552], [140.2921314, 38.3781703], [140.2924489, 38.3795363], [140.2927751, 38.3809183], [140.2929557, 38.3816811], [140.2932755, 38.3831157], [140.2935564, 38.3846376], [140.2936421, 38.3853395], [140.2936196, 38.3862158], [140.2935013, 38.3868074], [140.2932647, 38.3876884], [140.2931831, 38.3879394], [140.293024, 38.3882768], [140.2926996, 38.3888492], [140.2920632, 38.3897222], [140.2915063, 38.3902834], [140.2912289, 38.3905488], [140.2897663, 38.3915672], [140.2886892, 38.3920677], [140.2874102, 38.3925857], [140.2833684, 38.3941745], [140.2815901, 38.3948358], [140.2790027, 38.3958766], [140.2750666, 38.3974146], [140.2734088, 38.3979569], [140.2729658, 38.3980645], [140.2727568, 38.3981152], [140.2719635, 38.3982305], [140.2709335, 38.3983277], [140.2700754, 38.3983526], [140.2674086, 38.3983305], [140.2650726, 38.3983113], [140.2614998, 38.3982819], [140.2601685, 38.3983062], [140.2595483, 38.3983119], [140.2584855, 38.3983972], [140.258097, 38.3984284], [140.2571212, 38.3985287], [140.2554155, 38.3987386], [140.2543594, 38.3988697], [140.2533301, 38.3990016], [140.2527558, 38.3990714], [140.2515825, 38.3992039], [140.2514133, 38.3992258], [140.2512525, 38.3992513], [140.2510854, 38.3992735], [140.2502695, 38.3993838], [140.2495042, 38.3995187], [140.2492087, 38.3995879], [140.248815, 38.3997318], [140.2482519, 38.3999492], [140.2480454, 38.4000498], [140.2475726, 38.4002802], [140.2468709, 38.4006846], [140.246365, 38.4009788], [140.2458966, 38.4013051], [140.2448574, 38.4019156], [140.2441086, 38.4022949], [140.2437006, 38.40245], [140.2432355, 38.4026034], [140.2423563, 38.4028145], [140.2412628, 38.4029392], [140.2408957, 38.4029455], [140.2403366, 38.4029033], [140.2395297, 38.4028307], [140.2387516, 38.4027551], [140.2382485, 38.4027219], [140.2376797, 38.402731], [140.2371762, 38.402769], [140.236605, 38.4028393], [140.2359056, 38.4029837], [140.2353851, 38.4031302], [140.234643, 38.4033826], [140.2340929, 38.4036481], [140.2338946, 38.4037687], [140.2335289, 38.403991], [140.2324722, 38.4047907], [140.2322834, 38.4049374], [140.2321039, 38.4050748], [140.231851, 38.4052499], [140.2314572, 38.4054897], [140.2310421, 38.4057231], [140.2306382, 38.4059205], [140.2302832, 38.4060524], [140.2298253, 38.4061939], [140.2294052, 38.4063043], [140.2290723, 38.4063744], [140.22856, 38.40646], [140.2280135, 38.4065311], [140.2275382, 38.406579], [140.2267263, 38.4066446], [140.225488, 38.4067517], [140.2245251, 38.4068316], [140.2227667, 38.4069995], [140.2220243, 38.4070865], [140.2216936, 38.4071593], [140.2213448, 38.4072392], [140.2209164, 38.4073511], [140.2203615, 38.4075478], [140.2199086, 38.4077268], [140.2195904, 38.4078691], [140.2192171, 38.4080625], [140.2189335, 38.408224], [140.2183113, 38.4086172], [140.2176259, 38.4091016], [140.2174362, 38.4092374], [140.2172512, 38.4093526], [140.2165957, 38.4098097], [140.2158377, 38.4102363], [140.2152983, 38.4104779], [140.214879, 38.4106487], [140.2145159, 38.4107638], [140.2143968, 38.4108014], [140.2141814, 38.4108693], [140.2139646, 38.4109144], [140.2131982, 38.4110739], [140.2118699, 38.4112202], [140.211339, 38.411236], [140.2112596, 38.4112366], [140.2101994, 38.4112626], [140.2092912, 38.4112962], [140.208981, 38.4113131], [140.2076165, 38.4113937], [140.2068189, 38.4114273], [140.2062355, 38.4114369], [140.2055664, 38.4114657], [140.2049912, 38.4114976], [140.2048684, 38.4115024], [140.2040086, 38.4115357], [140.2034557, 38.4115952], [140.2031334, 38.4116671], [140.2027785, 38.4117518], [140.2025235, 38.4118269], [140.2022114, 38.4119308], [140.2015689, 38.4121434], [140.2010405, 38.4123192], [140.2005632, 38.4124695], [140.2002226, 38.412583], [140.1999961, 38.4126453], [140.1997309, 38.4127316], [140.1994821, 38.4127971], [140.1991129, 38.412893], [140.198248, 38.4130673], [140.1974468, 38.4132249], [140.1962849, 38.4134715], [140.196068, 38.4135265], [140.1955144, 38.4136534], [140.1950024, 38.4137778], [140.1948141, 38.4138242], [140.1946384, 38.4138685], [140.194041, 38.4140193], [140.1930482, 38.4142698], [140.191501, 38.4146599], [140.1898209, 38.4151012], [140.1897079, 38.4151309], [140.1896046, 38.4151565], [140.1890439, 38.4152953], [140.1889059, 38.4153303], [140.1881511, 38.4155221], [140.1878254, 38.4156074], [140.1875255, 38.4156795], [140.1874817, 38.4156911], [140.1863819, 38.4159819], [140.1855671, 38.4161906], [140.1842514, 38.4165311], [140.183902, 38.4166137], [140.1837812, 38.4166422], [140.1835322, 38.4167244], [140.1827272, 38.4169148], [140.1820221, 38.4171885], [140.1815157, 38.417385], [140.1800521, 38.4179826], [140.1789184, 38.4184504], [140.1784366, 38.4186222], [140.1779173, 38.4187194], [140.1774125, 38.4188189], [140.1769334, 38.418904], [140.1767, 38.4189454], [140.1765191, 38.4189737], [140.1762204, 38.4190204], [140.1750095, 38.4192099], [140.1733998, 38.4194766], [140.173285, 38.4194934], [140.1717179, 38.4197322], [140.1695698, 38.4200932], [140.1687979, 38.4202147], [140.1676729, 38.4203864], [140.1672589, 38.4204407], [140.166656, 38.4205424], [140.1663747, 38.4205966], [140.1660199, 38.4206995], [140.16559, 38.4208882], [140.1651487, 38.4211266], [140.1650102, 38.4212396], [140.1641771, 38.4217566], [140.1641247, 38.4217891], [140.1638789, 38.4218994], [140.163204, 38.422106], [140.162475, 38.42229], [140.1616759, 38.4225146], [140.1603844, 38.422876], [140.1582091, 38.4234837], [140.1560688, 38.4240366], [140.1553129, 38.4242919], [140.1545902, 38.4245654], [140.1542525, 38.4246988], [140.1540177, 38.4247916], [140.1534451, 38.4250178], [140.1531195, 38.4251465], [140.1525293, 38.4253723], [140.1522031, 38.4255104], [140.151753, 38.4256807], [140.151145, 38.4259156], [140.1505686, 38.4261384], [140.1501645, 38.4262854], [140.1491646, 38.426649], [140.1475878, 38.4272224], [140.1462976, 38.4276774], [140.146051, 38.427779], [140.1448475, 38.4281945], [140.144305, 38.428399], [140.1430437, 38.4288237], [140.1425328, 38.429024], [140.141615, 38.429361], [140.140145, 38.429892], [140.139935, 38.4299655], [140.1394046, 38.4301428], [140.1388242, 38.4303631], [140.1384581, 38.4304948], [140.136734, 38.431115], [140.135994, 38.431375], [140.135726, 38.431462], [140.1352986, 38.4316054], [140.135109, 38.431669], [140.1339925, 38.4320773], [140.1336019, 38.4322202], [140.1328202, 38.432506], [140.1307387, 38.4333226], [140.1299138, 38.4336328], [140.1296655, 38.4337261], [140.1290034, 38.4339677], [140.1283792, 38.4342003], [140.1280059, 38.4343509], [140.1266146, 38.4348588], [140.125256, 38.435341], [140.12393, 38.435778], [140.122664, 38.436198], [140.121743, 38.4365], [140.1193678, 38.437339], [140.1187518, 38.4374636], [140.1181439, 38.4375147], [140.1177033, 38.437486], [140.1167711, 38.4373505], [140.1165161, 38.4373134], [140.1146661, 38.4370275], [140.114018, 38.4369273], [140.1132984, 38.4368385], [140.1128032, 38.436771], [140.1112286, 38.4365401], [140.1106896, 38.4365379], [140.108684, 38.4365917], [140.1073205, 38.4366291], [140.1067757, 38.4366389], [140.1062128, 38.4366099], [140.105659, 38.436507], [140.1044586, 38.4362235], [140.1035463, 38.4359555], [140.103048, 38.435845], [140.1025417, 38.4357181], [140.1019189, 38.4355646], [140.1011711, 38.4354591], [140.1007534, 38.4354661], [140.1005756, 38.435478], [140.100393, 38.4354903], [140.0998521, 38.4355266], [140.0983777, 38.4356226], [140.0981449, 38.4356386], [140.098006, 38.4356481], [140.0974955, 38.4356773], [140.0962388, 38.4357861], [140.0955486, 38.4358498], [140.09341, 38.436031], [140.092239, 38.4360898], [140.0920514, 38.4361116], [140.0917679, 38.4361163], [140.0915241, 38.436098], [140.09121, 38.4360189], [140.0910865, 38.435963], [140.0908071, 38.4357752], [140.0906082, 38.4355651], [140.0903502, 38.4352136], [140.0900738, 38.4349867], [140.0898586, 38.4348716], [140.089649, 38.434775], [140.089422, 38.434708], [140.089174, 38.43466], [140.088929, 38.434671], [140.0887749, 38.4346845], [140.0884578, 38.434769], [140.0872984, 38.4352804], [140.0868054, 38.4354646], [140.0863467, 38.4355776], [140.0860409, 38.4356341], [140.0858217, 38.4356566], [140.0852967, 38.4357131], [140.0845985, 38.435808], [140.0831619, 38.435982], [140.0826419, 38.4360522], [140.0820115, 38.4361076], [140.081617, 38.4361505], [140.0812391, 38.4362223], [140.0809831, 38.4362901], [140.0804256, 38.4365245], [140.0801883, 38.4366612], [140.0796345, 38.4369838], [140.0793761, 38.4371163], [140.0788348, 38.4374175], [140.078578, 38.4375621], [140.0779866, 38.4377497], [140.0774703, 38.4378378], [140.0763746, 38.4379976], [140.0745713, 38.4382611], [140.074195, 38.4383104], [140.073839, 38.4384081], [140.0733801, 38.4385659], [140.0730818, 38.4387327], [140.0728374, 38.4388938], [140.0727613, 38.4389505], [140.0720268, 38.4394973], [140.0717813, 38.4396664], [140.0715841, 38.4398072], [140.0711971, 38.4400628], [140.0698541, 38.441022], [140.0695957, 38.4412777], [140.06941, 38.4415474], [140.0692716, 38.441834], [140.0691737, 38.4421216], [140.0690513, 38.4428127], [140.0688152, 38.4432522], [140.0685769, 38.4435733], [140.0682742, 38.4438067], [140.067905, 38.4439848], [140.0675488, 38.4440937], [140.0669517, 38.4442202], [140.066288, 38.4444271], [140.0659433, 38.4445988], [140.0656802, 38.4447786], [140.0653737, 38.4451126], [140.0651621, 38.4453643], [140.0648662, 38.4458638], [140.0647321, 38.4459951], [140.0645795, 38.4461176], [140.0639037, 38.4465136], [140.0633928, 38.4468663], [140.0631343, 38.4469716], [140.0621285, 38.4472955], [140.0619426, 38.44739], [140.0618402, 38.4474578], [140.0616829, 38.4475859], [140.0615731, 38.4477173], [140.0614089, 38.4479698], [140.0613331, 38.4481517], [140.061301, 38.4482585], [140.0612855, 38.4484277], [140.0613047, 38.4485824], [140.0615349, 38.4493834], [140.0615644, 38.4495326], [140.0615569, 38.4496471], [140.0615422, 38.4497615], [140.0615001, 38.449856], [140.0614467, 38.4499373], [140.0613338, 38.450083], [140.0607679, 38.4506942], [140.0606457, 38.4508554], [140.060556, 38.4509967], [140.0605043, 38.4511445], [140.0604486, 38.4513328], [140.0603751, 38.4517187], [140.0602984, 38.4519419], [140.0602251, 38.4521141], [140.0600919, 38.4523074], [140.0599697, 38.4524712], [140.0598693, 38.4525994], [140.0597754, 38.4527002], [140.0596875, 38.452777], [140.0595662, 38.4528682], [140.0594805, 38.4529154], [140.0593341, 38.4529786], [140.0591949, 38.4530174], [140.059066, 38.4530394], [140.058895, 38.4530467], [140.058724, 38.4530394], [140.0585523, 38.4530142], [140.0583714, 38.4529622], [140.0581333, 38.4528633], [140.0579541, 38.4527934], [140.0577651, 38.4527485], [140.0576163, 38.452729], [140.0574247, 38.4527219], [140.0573025, 38.4527368], [140.0569134, 38.4528363], [140.0566936, 38.4528914], [140.056487, 38.4529313], [140.056349, 38.452943], [140.0558969, 38.4529502], [140.0555617, 38.452967], [140.0552926, 38.4529903], [140.0550875, 38.453009], [140.054611, 38.4530511], [140.0544003, 38.4530384], [140.0541991, 38.4530111], [140.0540089, 38.4529563], [140.0532482, 38.4526896], [140.0530502, 38.4526471], [140.0528417, 38.452634], [140.0526381, 38.4526582], [140.0524932, 38.4526918], [140.0523576, 38.4527451], [140.0521924, 38.4528292], [140.0520614, 38.4529145], [140.0519434, 38.4530132], [140.0518612, 38.4531026], [140.0517502, 38.4532379], [140.0516494, 38.4533636], [140.0515378, 38.4534633], [140.0514257, 38.4535593], [140.0512889, 38.4536307], [140.0511473, 38.4536841], [140.0509591, 38.4537434], [140.0494492, 38.4540685], [140.0492987, 38.4540949], [140.0491432, 38.4541165], [140.0489715, 38.4541201], [140.0487971, 38.4541117], [140.0486006, 38.4540811], [140.0480407, 38.4539941], [140.0478731, 38.4539657], [140.0476625, 38.4539517], [140.0474689, 38.4539548], [140.0473031, 38.4539731], [140.047161, 38.4540099], [140.0470282, 38.4540529], [140.0469043, 38.4541122], [140.0467533, 38.4542012], [140.046641, 38.454304], [140.0465307, 38.4544205], [140.0464596, 38.454532], [140.0463835, 38.4546816], [140.0463577, 38.4547992], [140.046351, 38.4549309], [140.0463724, 38.4550569], [140.0464179, 38.4551946], [140.0465693, 38.4554815], [140.0466165, 38.4556051], [140.0466592, 38.4557654], [140.0466678, 38.4559172], [140.046654, 38.4560504], [140.0466165, 38.4562058], [140.0465465, 38.4563624], [140.0464505, 38.4565375], [140.046338, 38.4566906], [140.0462007, 38.4568654], [140.046103, 38.4569722], [140.0459486, 38.4571153], [140.0454137, 38.4575754], [140.0451788, 38.4577559], [140.0448639, 38.4579542], [140.0445887, 38.4581025], [140.0442052, 38.4583104], [140.043422, 38.4586821], [140.0431538, 38.4587851], [140.0428641, 38.4588796], [140.0426012, 38.4589489], [140.0423565, 38.4589998], [140.0420815, 38.4590301], [140.0417652, 38.4590534], [140.0405928, 38.4591119], [140.0404441, 38.4591143], [140.039024, 38.458981], [140.037576, 38.458745], [140.036332, 38.458443], [140.0347201, 38.4577789], [140.034684, 38.457764], [140.0341221, 38.45754], [140.0318912, 38.4565356], [140.0315515, 38.4564166], [140.0312762, 38.4563468], [140.0310951, 38.4563148], [140.0308746, 38.4562878], [140.0305608, 38.4562584], [140.0302979, 38.4562458], [140.0300643, 38.4562524], [140.0300002, 38.4562542], [140.0295309, 38.4562708], [140.0287878, 38.4562983], [140.0277927, 38.4563298], [140.0255733, 38.4563982], [140.0189228, 38.4565595], [140.0183648, 38.4567121], [140.0182735, 38.4567321], [140.0178924, 38.4568448], [140.0177248, 38.4568943], [140.0175226, 38.4569662], [140.0172919, 38.4570565], [140.017076, 38.4571581], [140.016727, 38.4573387], [140.016471, 38.4574957], [140.0161377, 38.4577434], [140.015541, 38.458264], [140.015141, 38.458573], [140.014623, 38.458858], [140.0141952, 38.4590297], [140.0137513, 38.4591472], [140.0133482, 38.4592007], [140.0128383, 38.459124], [140.0100143, 38.4586662], [140.0097066, 38.4586066], [140.0095215, 38.458552], [140.0093406, 38.4584837], [140.0090408, 38.4583454], [140.0088472, 38.4582277], [140.0085989, 38.4580269], [140.0084312, 38.4578346], [140.0083119, 38.4576635], [140.008224, 38.4575025], [140.0081429, 38.457298], [140.0080814, 38.457081], [140.0079927, 38.4566784], [140.0079229, 38.4564369], [140.0078452, 38.4562164], [140.0077625, 38.4560311], [140.0076199, 38.4558068], [140.0074754, 38.4556065], [140.0073302, 38.4554518], [140.0071414, 38.4552711], [140.0069413, 38.4551199], [140.0067561, 38.4549909], [140.0065705, 38.4548671], [140.0062922, 38.4547167], [140.0059617, 38.4545457], [140.0054925, 38.4543891], [140.0050503, 38.454263], [140.0045953, 38.4541463], [140.0041062, 38.4540487], [140.0037208, 38.4539948], [140.0033042, 38.4539479], [140.0027946, 38.4538906], [140.0025117, 38.4538418], [140.0023511, 38.4538141], [140.0018819, 38.4536575], [140.0011757, 38.4533656], [140.0006591, 38.4541733], [140.0006201, 38.4542641], [140.0006232, 38.4543463], [140.00065, 38.4544188], [140.0007051, 38.454494], [140.000833, 38.454558], [140.0009646, 38.4545878], [140.0016274, 38.4547113], [140.001782, 38.4547503], [140.0018853, 38.4548049], [140.0019376, 38.4548595], [140.0019779, 38.4549361], [140.0019908, 38.4550206], [140.0019565, 38.4551591], [140.0018761, 38.4553923], [140.0018169, 38.4555106], [140.0017472, 38.4555946], [140.0016627, 38.4556503], [140.0015479, 38.4556923], [140.0014012, 38.4557175], [140.001026, 38.4557355], [140.0009081, 38.4557644], [140.0008208, 38.4558152], [140.0007792, 38.4558751], [140.0007789, 38.4559464], [140.000799, 38.4560042], [140.0008565, 38.4560545], [140.0009331, 38.4560819], [140.0010404, 38.4560892], [140.0011566, 38.4560639], [140.0017427, 38.4558602], [140.0018529, 38.4558419], [140.0019499, 38.4558496], [140.0020181, 38.455875], [140.0020704, 38.455916], [140.0021013, 38.4559764], [140.002108, 38.4560353], [140.0020846, 38.4560843], [140.0019974, 38.4561707], [140.001778, 38.4562395], [140.0014716, 38.4563192], [140.0012575, 38.4563424], [140.0010538, 38.4563403], [140.0004096, 38.4562552], [139.9999895, 38.4561943], [139.9997684, 38.4561448], [139.9995765, 38.4560736], [139.999415, 38.4559769], [139.999288, 38.4558677], [139.9991896, 38.4557564], [139.9991092, 38.4556135], [139.9990556, 38.4554728], [139.9990395, 38.4553762], [139.9990372, 38.455234], [139.9990542, 38.4551252], [139.9990693, 38.4550606], [139.999073, 38.4550002], [139.9990636, 38.4549477], [139.9990167, 38.4548941], [139.9989389, 38.4548532], [139.9988691, 38.4548395], [139.9987986, 38.4548523], [139.9987197, 38.4548828], [139.9986666, 38.4549351], [139.9986472, 38.4550008], [139.9986514, 38.4552712], [139.9986511, 38.4556128], [139.9986881, 38.4561533], [139.9987471, 38.4563487], [139.9988667, 38.4565761], [139.9988975, 38.4566956], [139.9988973, 38.4568255], [139.9987993, 38.4571473], [139.9987712, 38.457401], [139.9987645, 38.4575934], [139.9987917, 38.4577677], [139.9988319, 38.4579243], [139.9988329, 38.4580353], [139.9988061, 38.4581382], [139.9987439, 38.4582457], [139.9985825, 38.4584887], [139.9985348, 38.458596], [139.9984035, 38.4591917], [139.9983898, 38.4593391], [139.9984025, 38.4594895], [139.9984358, 38.459605], [139.9984789, 38.4597176], [139.9985889, 38.4598646], [139.9991225, 38.4604053], [139.9992621, 38.4606312], [139.9995204, 38.4612456], [139.999894, 38.4621031], [140.0000168, 38.462426], [140.0000614, 38.4625971], [140.000054, 38.4627868], [140.0000158, 38.4629478], [139.9997874, 38.4634642], [140.0009774, 38.465822], [140.001036, 38.4659744], [140.0010477, 38.4661046], [140.0010259, 38.4665499], [140.0010351, 38.4666522], [140.0010824, 38.466755], [140.0011616, 38.4668633], [140.0018995, 38.4677079], [140.0022716, 38.4681337], [140.002407, 38.468287], [140.0025835, 38.4684284], [140.0026926, 38.4685257], [140.0027651, 38.4686349], [140.0028628, 38.468863], [140.0030065, 38.4694056], [140.0031301, 38.4701219], [140.0032936, 38.4708968], [140.0033712, 38.4712599], [140.0034156, 38.4715731], [140.0034307, 38.471739], [140.0034785, 38.4723855], [140.0035022, 38.4725538], [140.0035308, 38.4726959], [140.0035462, 38.4727727], [140.0036656, 38.4732443], [140.0037981, 38.4738478], [140.0038969, 38.4742775], [140.0040177, 38.4748176], [140.0041008, 38.4751153], [140.0042644, 38.4756172], [140.0043407, 38.475885], [140.0044519, 38.4762458], [140.0046702, 38.4770101], [140.0048421, 38.4775039], [140.0049474, 38.4776559], [140.005688, 38.47829], [140.005798, 38.478482], [140.005858, 38.479103], [140.005834, 38.479296], [140.0058304, 38.479436], [140.005806, 38.479578], [140.0057848, 38.4797785], [140.0057623, 38.4800545], [140.0057573, 38.4802415], [140.0057418, 38.4803784], [140.0057068, 38.4805235], [140.0056461, 38.480665], [140.0054623, 38.4809585], [140.0052906, 38.4812173], [140.0052041, 38.4814018], [140.0051507, 38.4815922], [140.0050724, 38.4819386], [140.004996, 38.4822765], [140.0048894, 38.482742], [140.0047316, 38.4832799], [140.0045954, 38.4835866], [140.0045106, 38.48403], [140.0044473, 38.4845636], [140.0043935, 38.4847522], [140.0043065, 38.484904], [140.0042099, 38.4850474], [140.0039442, 38.4852439], [140.0038175, 38.4853591], [140.0037364, 38.4854728], [140.0035708, 38.485874], [140.0034247, 38.4860965], [140.0032473, 38.4862321], [140.0029794, 38.4863766], [140.0026534, 38.4865147], [140.0023212, 38.4866744], [140.0020843, 38.4868874], [140.0019348, 38.4870991], [140.001851, 38.4872016], [140.0016577, 38.4873955], [140.0014054, 38.4875243], [140.0011311, 38.4876188], [140.0006261, 38.4878209], [140.0003419, 38.4880615], [140.0001948, 38.4882772], [140.0001544, 38.4884195], [140.0001226, 38.488608], [140.0000996, 38.4887966], [140.000049, 38.488937], [139.9998384, 38.4893037], [139.9997259, 38.4895239], [139.9997061, 38.4896629], [139.9997042, 38.4896763], [139.9997822, 38.4903527], [139.9998889, 38.4910721], [139.9997418, 38.4918953], [139.9996274, 38.4925935], [139.9994227, 38.4934937], [139.9993724, 38.4939775], [139.9994662, 38.4944676], [139.9994907, 38.4946663], [139.9994474, 38.4948379], [139.9993349, 38.4949926], [139.9992902, 38.4952015], [139.9992887, 38.4954737], [139.9992836, 38.4955892], [139.9992722, 38.4960722], [139.9991282, 38.4968727], [139.999067, 38.4971913], [139.9991088, 38.4975122], [139.9992374, 38.4979082], [139.9992935, 38.4981318], [139.9992782, 38.4982987], [139.999198, 38.49848], [139.9990851, 38.4986486], [139.9989809, 38.4987331], [139.9988553, 38.4988252], [139.9987095, 38.4988923], [139.9985013, 38.498983], [139.9980889, 38.4991757], [139.9979085, 38.4993374], [139.997811, 38.4995336], [139.9976142, 38.4998111], [139.9974278, 38.5000141], [139.9972591, 38.5001838], [139.9971229, 38.5002661], [139.9969554, 38.5002915], [139.9966151, 38.5003424], [139.9963363, 38.5004064], [139.9960633, 38.5004464], [139.9956055, 38.5004265], [139.9953114, 38.5003572], [139.995056, 38.500259], [139.994634, 38.499984], [139.9943182, 38.4998151], [139.9940884, 38.4996905], [139.9938234, 38.4995903], [139.9936395, 38.4995509], [139.9933276, 38.499553], [139.9922448, 38.4995967], [139.9919689, 38.4995808], [139.9918395, 38.4995377], [139.991692, 38.499415], [139.991528, 38.499251], [139.9912857, 38.4989731], [139.9912316, 38.4988674], [139.9912316, 38.4987508], [139.9912753, 38.49862], [139.9912915, 38.4984892], [139.991255, 38.4980791], [139.991219, 38.4978932], [139.991111, 38.4977078], [139.9910539, 38.4975837], [139.9910202, 38.4974575], [139.990991, 38.497212], [139.9909539, 38.497115], [139.9908999, 38.4970623], [139.9907723, 38.4970351], [139.9906652, 38.4970367], [139.9905408, 38.4970815], [139.9904235, 38.4972116], [139.990332, 38.497331], [139.9902551, 38.4975661], [139.9901725, 38.4977941], [139.9900981, 38.4978929], [139.9899415, 38.4979945], [139.9896971, 38.4981624], [139.989581, 38.498249], [139.9894977, 38.49834], [139.9894232, 38.4984785], [139.9893305, 38.4987293], [139.9892449, 38.4990268], [139.9891849, 38.4991865], [139.989085, 38.4992781], [139.9887282, 38.4994237], [139.9884123, 38.4995209], [139.9882542, 38.4995533], [139.9881425, 38.4995555], [139.9880203, 38.4995271], [139.987841, 38.499443], [139.987683, 38.499437], [139.987547, 38.499482], [139.987461, 38.499539], [139.987246, 38.499809], [139.9871567, 38.4998944], [139.9870669, 38.4999132], [139.9869199, 38.4998958], [139.9868524, 38.4998438], [139.9868125, 38.4997308], [139.9867884, 38.4996154], [139.9867393, 38.4995484], [139.9866444, 38.499519], [139.9865439, 38.4995151], [139.9862962, 38.4995823], [139.9860646, 38.4996453], [139.9858636, 38.4996445], [139.9854831, 38.4996022], [139.9853137, 38.4995886], [139.9851301, 38.4995982], [139.9850301, 38.4996302], [139.9847149, 38.4997635], [139.9843419, 38.4998894], [139.9841848, 38.4999376], [139.9841326, 38.5000104], [139.98412, 38.5001304], [139.9841313, 38.5004289], [139.9840745, 38.5005873], [139.983973, 38.5006928], [139.9837678, 38.5008298], [139.9836582, 38.5009126], [139.9836174, 38.5010226], [139.9835838, 38.5012557], [139.9835341, 38.50136], [139.983339, 38.5014856], [139.983217, 38.50151], [139.9830474, 38.5014911], [139.9829539, 38.5014121], [139.9828613, 38.5012641], [139.9827613, 38.5011636], [139.9824492, 38.5009606], [139.9822216, 38.5008434], [139.98202, 38.500772], [139.981762, 38.500766], [139.981751, 38.500768], [139.981633, 38.500783], [139.981368, 38.500851], [139.981103, 38.500958], [139.980932, 38.501042], [139.980503, 38.501206], [139.980259, 38.501279], [139.979959, 38.501335], [139.979894, 38.501386], [139.979874, 38.501441], [139.979869, 38.501493], [139.97988, 38.501543], [139.9798997, 38.5016081], [139.9800065, 38.5017247], [139.9800242, 38.5018006], [139.9799841, 38.5018817], [139.9798667, 38.5019437], [139.9796786, 38.5019642], [139.9794818, 38.5019361], [139.9793405, 38.501911], [139.979221, 38.501949], [139.979049, 38.502028], [139.978885, 38.502073], [139.9785645, 38.5020692], [139.978398, 38.502067], [139.978162, 38.502028], [139.977947, 38.502022], [139.977682, 38.502044], [139.977341, 38.5020345], [139.977138, 38.502073], [139.9770014, 38.5021326], [139.9767961, 38.5022283], [139.976673, 38.502321], [139.9765829, 38.502377], [139.9765002, 38.5024238], [139.9764031, 38.5024439], [139.976182, 38.5024321], [139.975792, 38.5023798], [139.9752981, 38.5023208], [139.9751992, 38.5023052], [139.9751147, 38.5022608], [139.974989, 38.502125], [139.974865, 38.502053], [139.974725, 38.502029], [139.974482, 38.502033], [139.97373, 38.502061], [139.973515, 38.502089], [139.9734, 38.502118], [139.973293, 38.50218], [139.973193, 38.502275], [139.973122, 38.502411], [139.9730329, 38.5026393], [139.9730124, 38.5027931], [139.9728818, 38.5028869], [139.9726076, 38.5029575], [139.972377, 38.503012], [139.97232, 38.503052], [139.972227, 38.503283], [139.972205, 38.50339], [139.972198, 38.503457], [139.97227, 38.50353], [139.97325, 38.504042], [139.973557, 38.50432], [139.9736856, 38.5044616], [139.9737857, 38.5046339], [139.973869, 38.50482], [139.973862, 38.504955], [139.973848, 38.505], [139.97379, 38.505107], [139.973675, 38.505248], [139.973488, 38.505395], [139.97313, 38.505603], [139.9727754, 38.5057103], [139.9726853, 38.5057604], [139.9726174, 38.5058942], [139.972628, 38.506025], [139.972672, 38.506088], [139.973015, 38.506353], [139.973087, 38.506431], [139.9732889, 38.5068547], [139.9733637, 38.5069993], [139.9733684, 38.5071093], [139.9733471, 38.5071997], [139.9732894, 38.507278], [139.9732214, 38.5073416], [139.973117, 38.5073964], [139.9729276, 38.5074498], [139.972407, 38.507491], [139.9721256, 38.5075288], [139.9718237, 38.5075092], [139.9716421, 38.5074728], [139.9714836, 38.5074744], [139.9713849, 38.5075426], [139.971317, 38.507716], [139.971217, 38.508161], [139.9711728, 38.5083511], [139.9711077, 38.5084181], [139.970995, 38.5084808], [139.970885, 38.5085128], [139.970785, 38.5085078], [139.970642, 38.5084324], [139.9703223, 38.5082529], [139.9702379, 38.5082179], [139.9700982, 38.5082364], [139.9700145, 38.5083133], [139.9700044, 38.5084672], [139.970019, 38.508702], [139.9700305, 38.5089143], [139.97, 38.5090715], [139.9699815, 38.5091613], [139.9698566, 38.509299], [139.9697268, 38.5093801], [139.9696068, 38.5093919], [139.9693742, 38.5093734], [139.9693196, 38.5093514], [139.9692923, 38.5093021], [139.9693127, 38.5092329], [139.9694473, 38.5091169], [139.9694286, 38.5090582], [139.9693389, 38.5089945], [139.9690631, 38.5089497], [139.968702, 38.5088645], [139.9679687, 38.5086665], [139.9675223, 38.5084849], [139.9672164, 38.5083476], [139.966996, 38.508296], [139.96663, 38.50829], [139.9663527, 38.5083323], [139.9661217, 38.5082721], [139.9659149, 38.5081012], [139.9658633, 38.5079332], [139.9657306, 38.5076122], [139.9655467, 38.5073945], [139.9653033, 38.5071453], [139.9651601, 38.506987], [139.9651057, 38.5067999], [139.9650241, 38.5066521], [139.9648683, 38.5065551], [139.9647235, 38.5064561], [139.9647054, 38.5063522], [139.9647131, 38.5061765], [139.9646997, 38.5059765], [139.9645984, 38.5057765], [139.9644519, 38.5055965], [139.964229, 38.505441], [139.963971, 38.50539], [139.963721, 38.505396], [139.963484, 38.505452], [139.963369, 38.505508], [139.9630024, 38.5058539], [139.9628514, 38.5059092], [139.9627345, 38.5059179], [139.9626064, 38.505905], [139.9624161, 38.5058776], [139.9623169, 38.5058875], [139.9621095, 38.5060043], [139.9619408, 38.5061701], [139.9618207, 38.5063758], [139.9617225, 38.5065645], [139.9616123, 38.5068849], [139.9616271, 38.5070999], [139.9616743, 38.5072711], [139.961623, 38.5074438], [139.961503, 38.5080715], [139.9614776, 38.5082318], [139.9613773, 38.5083986], [139.9610787, 38.5086378], [139.9609547, 38.5088138], [139.9608964, 38.5090164], [139.9608649, 38.5093495], [139.9608273, 38.5097134], [139.9607458, 38.5098356], [139.9603877, 38.5102446], [139.9602613, 38.5103511], [139.9600234, 38.510466], [139.959739, 38.5106878], [139.959475, 38.510925], [139.9593782, 38.5110059], [139.9593028, 38.5111242], [139.9592185, 38.5113759], [139.959176, 38.511545], [139.9590928, 38.5116341], [139.9589825, 38.5116675], [139.9588766, 38.511661], [139.9587743, 38.5115991], [139.9586862, 38.511509], [139.9585846, 38.5114881], [139.9584449, 38.5115079], [139.9580657, 38.5115967], [139.9578048, 38.5116455], [139.9575485, 38.5117032], [139.957385, 38.511753], [139.957206, 38.511889], [139.957127, 38.511961], [139.95679, 38.51235], [139.956675, 38.512514], [139.956654, 38.512582], [139.956639, 38.512812], [139.956596, 38.512897], [139.956424, 38.51297], [139.956259, 38.51301], [139.956087, 38.513032], [139.955915, 38.513077], [139.955815, 38.513127], [139.955736, 38.513217], [139.955621, 38.513494], [139.955536, 38.513764], [139.955493, 38.513842], [139.955414, 38.513887], [139.955242, 38.513887], [139.955177, 38.513854], [139.955055, 38.513747], [139.954948, 38.513714], [139.954876, 38.513725], [139.954783, 38.513747], [139.954611, 38.513849], [139.9544728, 38.5139234], [139.9543111, 38.5140527], [139.9541013, 38.5142433], [139.95402, 38.5142846], [139.953805, 38.5143406], [139.9534929, 38.5144332], [139.953335, 38.514485], [139.953134, 38.514643], [139.952654, 38.515094], [139.9523074, 38.5154974], [139.9522483, 38.5155638], [139.9521866, 38.5155952], [139.9521248, 38.5155916], [139.9520577, 38.5155727], [139.9519201, 38.5155034], [139.9518294, 38.5154729], [139.9517285, 38.5154962], [139.9516828, 38.5155439], [139.9516606, 38.5156392], [139.9516539, 38.5157706], [139.951769, 38.5161739], [139.9518566, 38.5163906], [139.9518631, 38.5165295], [139.9517943, 38.5166585], [139.951761, 38.5168385], [139.9517724, 38.5170719], [139.9517791, 38.5173462], [139.951696, 38.5175206], [139.9516987, 38.5176116], [139.9518059, 38.5176796], [139.9519941, 38.5176686], [139.952145, 38.517696], [139.9523612, 38.5177565], [139.9525044, 38.5177586], [139.9526319, 38.5176515], [139.9526719, 38.5175313], [139.9527456, 38.517498], [139.9529188, 38.517532], [139.9530765, 38.5176018], [139.9533919, 38.5177877], [139.9535508, 38.5178365], [139.9536715, 38.5177964], [139.9537297, 38.5177075], [139.9537277, 38.5175872], [139.9537276, 38.5175408], [139.9538063, 38.5174865], [139.9540988, 38.5174842], [139.9541925, 38.5175584], [139.954235, 38.5177132], [139.9542589, 38.5178734], [139.9543054, 38.5180127], [139.954373, 38.5181615], [139.9544353, 38.5182345], [139.9545676, 38.5182782], [139.954716, 38.518264], [139.954984, 38.518259], [139.9551065, 38.5183025], [139.955851, 38.518873], [139.956066, 38.519076], [139.956116, 38.519149], [139.956166, 38.519447], [139.956231, 38.519616], [139.956309, 38.519667], [139.956446, 38.519712], [139.95651, 38.519763], [139.956553, 38.519808], [139.95656, 38.519909], [139.956481, 38.520055], [139.95646, 38.520168], [139.956488, 38.520241], [139.956689, 38.520292], [139.956789, 38.520365], [139.956768, 38.520495], [139.956732, 38.520591], [139.956718, 38.520686], [139.956768, 38.520907], [139.956789, 38.521002], [139.956782, 38.521199], [139.956704, 38.521379], [139.9565067, 38.5215858], [139.9564192, 38.5217588], [139.9563216, 38.5219197], [139.9563159, 38.5220365], [139.9563595, 38.5221876], [139.9564349, 38.5224535], [139.9564564, 38.5226466], [139.9563299, 38.5231459], [139.9562343, 38.5233653], [139.9562024, 38.5235931], [139.9562367, 38.5237653], [139.9563281, 38.5239788], [139.9563441, 38.5241219], [139.9562746, 38.5242135], [139.9560749, 38.5243025], [139.9555658, 38.5243948], [139.955177, 38.524364], [139.954976, 38.524353], [139.9545566, 38.5243487], [139.9541519, 38.5243761], [139.953916, 38.524386], [139.9537764, 38.5244089], [139.9536749, 38.5244606], [139.9535851, 38.5245786], [139.9535163, 38.5248023], [139.9535115, 38.5249065], [139.9536245, 38.5251656], [139.9535879, 38.5253229], [139.9534831, 38.525649], [139.9534999, 38.5258592], [139.9535676, 38.5261511], [139.9536004, 38.5263594], [139.9535955, 38.5266049], [139.9536044, 38.5267278], [139.9536917, 38.5268069], [139.9538505, 38.5268541], [139.9543318, 38.5269293], [139.9545701, 38.5269654], [139.9546822, 38.5270165], [139.9547645, 38.5271849], [139.9547176, 38.5273786], [139.9546699, 38.5275559], [139.9546699, 38.5277508], [139.9547057, 38.5280124], [139.9547768, 38.5283132], [139.9547768, 38.52861], [139.9547168, 38.5288805], [139.9547336, 38.5290462], [139.9548063, 38.5291762], [139.95496, 38.5294737], [139.9550448, 38.5295681], [139.9551352, 38.5295873], [139.955406, 38.529512], [139.9554718, 38.5295368], [139.955577, 38.5296933], [139.9558139, 38.5301312], [139.9559373, 38.5304449], [139.9559804, 38.5306934], [139.9560774, 38.5308538], [139.9562796, 38.5311257], [139.9563649, 38.5312296], [139.9565146, 38.5313843], [139.956679, 38.5314684], [139.9568239, 38.5315941], [139.9568436, 38.5317318], [139.9567781, 38.5319562], [139.9567882, 38.5320581], [139.956855, 38.532151], [139.9570864, 38.5322672], [139.9572075, 38.5324149], [139.9572912, 38.5326745], [139.9573461, 38.5329388], [139.9575092, 38.5330926], [139.958366, 38.5338665], [139.9584504, 38.5339514], [139.9585348, 38.5340363], [139.9585785, 38.5341533], [139.958573, 38.5342604], [139.9585214, 38.5343513], [139.9583838, 38.5344506], [139.9579803, 38.5346897], [139.9578472, 38.5348206], [139.9576823, 38.5349228], [139.9574512, 38.5350615], [139.9573155, 38.5352481], [139.9572332, 38.5354045], [139.9571456, 38.5354914], [139.956975, 38.535572], [139.956838, 38.535645], [139.956631, 38.535797], [139.956516, 38.535853], [139.956358, 38.53587], [139.956208, 38.535842], [139.956036, 38.535785], [139.955656, 38.535695], [139.9553153, 38.5356095], [139.9550153, 38.5355781], [139.9546153, 38.5355693], [139.9543921, 38.5355994], [139.9541483, 38.5356078], [139.9539292, 38.5355805], [139.9535597, 38.5355063], [139.9533976, 38.5355315], [139.9532743, 38.5356022], [139.9531607, 38.535687], [139.9528534, 38.5358513], [139.9524869, 38.5361141], [139.9522654, 38.536233], [139.9520942, 38.5362748], [139.9519018, 38.5362575], [139.951579, 38.536185], [139.9513005, 38.5362061], [139.950962, 38.536332], [139.9507694, 38.5363932], [139.9506237, 38.5363906], [139.9501478, 38.5362671], [139.9496022, 38.5361985], [139.9494164, 38.5361583], [139.9489539, 38.535877], [139.9488138, 38.5356979], [139.9485766, 38.5355107], [139.9480448, 38.5351354], [139.947587, 38.5348784], [139.9474132, 38.5348416], [139.947135, 38.534845], [139.946975, 38.534902], [139.946899, 38.534929], [139.946554, 38.535014], [139.946354, 38.535042], [139.945744, 38.535047], [139.94565, 38.535036], [139.945514, 38.534991], [139.945464, 38.534958], [139.945345, 38.534851], [139.945206, 38.534726], [139.944905, 38.534434], [139.944762, 38.534343], [139.94424, 38.534124], [139.944147, 38.534051], [139.944132, 38.533989], [139.944111, 38.533746], [139.944082, 38.533578], [139.94401, 38.533313], [139.943953, 38.533178], [139.943817, 38.533025], [139.943704, 38.533014], [139.943616, 38.53302], [139.943408, 38.533099], [139.943186, 38.533223], [139.942964, 38.533386], [139.942835, 38.533459], [139.942254, 38.533859], [139.942125, 38.533915], [139.941953, 38.533915], [139.941552, 38.533758], [139.941165, 38.533628], [139.940957, 38.533561], [139.9409, 38.533532], [139.940169, 38.533273], [139.939825, 38.533161], [139.939667, 38.533093], [139.939624, 38.533042], [139.939538, 38.532885], [139.939373, 38.532485], [139.939301, 38.532366], [139.939165, 38.532203], [139.938793, 38.531865], [139.938513, 38.531612], [139.938448, 38.531505], [139.938327, 38.531375], [139.938205, 38.531308], [139.93809, 38.531268], [139.937947, 38.531268], [139.937789, 38.531375], [139.93761, 38.531559], [139.937503, 38.531668], [139.937431, 38.531724], [139.937388, 38.531741], [139.937137, 38.531798], [139.936929, 38.531859], [139.936599, 38.531989], [139.936455, 38.532057], [139.93634, 38.532136], [139.936263, 38.532259], [139.936211, 38.532417], [139.936198, 38.532496], [139.936175, 38.532834], [139.936148, 38.532907], [139.936069, 38.533042], [139.935975, 38.533228], [139.935933, 38.533408], [139.93589, 38.533515], [139.935652, 38.533769], [139.935573, 38.533881], [139.93543, 38.534197], [139.935365, 38.534377], [139.935323, 38.534608], [139.935301, 38.53499], [139.935337, 38.535052], [139.93556, 38.535238], [139.935718, 38.535345], [139.935768, 38.53539], [139.935768, 38.535468], [139.93571, 38.535564], [139.935573, 38.535778], [139.935573, 38.535919], [139.935645, 38.53606], [139.935739, 38.536139], [139.935833, 38.536195], [139.935983, 38.536263], [139.936119, 38.536342], [139.936184, 38.536398], [139.936205, 38.53664], [139.936248, 38.536714], [139.936313, 38.536781], [139.936693, 38.537097], [139.936743, 38.537159], [139.936793, 38.537244], [139.936836, 38.537396], [139.936843, 38.537599], [139.9368, 38.537689], [139.936635, 38.537976], [139.9363903, 38.5384692], [139.9362065, 38.5388001], [139.9362097, 38.538979], [139.9362565, 38.5390914], [139.9363731, 38.5391924], [139.9365707, 38.5393017], [139.9366625, 38.5393614], [139.9367197, 38.5394603], [139.9366967, 38.5395261], [139.9365913, 38.5395687], [139.9358809, 38.5397038], [139.9355177, 38.5396852], [139.935208, 38.539637], [139.934907, 38.539716], [139.934176, 38.53989], [139.93336, 38.540088], [139.933093, 38.540149], [139.93255, 38.540262], [139.932127, 38.540324], [139.93184, 38.540341], [139.93169, 38.540386], [139.931596, 38.540426], [139.931367, 38.540578], [139.93126, 38.540628], [139.930937, 38.540696], [139.930744, 38.540696], [139.930593, 38.540679], [139.930242, 38.540656], [139.930006, 38.540656], [139.929755, 38.540701], [139.929561, 38.540718], [139.929454, 38.540741], [139.929332, 38.540814], [139.929253, 38.540904], [139.929196, 38.541079], [139.929045, 38.541687], [139.928995, 38.541777], [139.928966, 38.541811], [139.92883, 38.541872], [139.928723, 38.541956], [139.928536, 38.542227], [139.928477, 38.542317], [139.928434, 38.542435], [139.928464, 38.54261], [139.928522, 38.542711], [139.928515, 38.542762], [139.928371, 38.542947], [139.928294, 38.543036], [139.928171, 38.543178], [139.927956, 38.543443], [139.92785, 38.5435153], [139.9278424, 38.5436825], [139.9278485, 38.5437929], [139.927848, 38.543934], [139.9278691, 38.5440704], [139.9279662, 38.54436], [139.9279408, 38.5445405], [139.9278965, 38.5447495], [139.9279191, 38.5449611], [139.9280405, 38.545274], [139.9280529, 38.5453994], [139.9281128, 38.5454813], [139.9282858, 38.5456044], [139.9284555, 38.5457372], [139.9285265, 38.5458526], [139.9286134, 38.5460767], [139.9286904, 38.5462798], [139.9287352, 38.5463589], [139.9288286, 38.546409], [139.929007, 38.546473], [139.929112, 38.5465168], [139.9291517, 38.5465542], [139.9291975, 38.5466503], [139.9291712, 38.5467111], [139.9288586, 38.5470136], [139.9286461, 38.5471659], [139.9284218, 38.547347], [139.9282687, 38.5473727], [139.928153, 38.5473432], [139.9281058, 38.5472657], [139.9280932, 38.5470806], [139.928049, 38.546964], [139.927848, 38.54684], [139.927726, 38.546728], [139.927518, 38.5464555], [139.9274103, 38.5463809], [139.9272797, 38.5463624], [139.9271939, 38.5463839], [139.9271192, 38.5464385], [139.927048, 38.5465402], [139.9268927, 38.5467572], [139.9267344, 38.5470162], [139.9265326, 38.5471869], [139.9263966, 38.5473602], [139.9262634, 38.5473978], [139.9260154, 38.5474212], [139.925856, 38.547437], [139.9257614, 38.5475131], [139.9257531, 38.547623], [139.925827, 38.547707], [139.92597, 38.547803], [139.926135, 38.547888], [139.926293, 38.547955], [139.926558, 38.548101], [139.92673, 38.548214], [139.926838, 38.548316], [139.926988, 38.548496], [139.927017, 38.548552], [139.92701, 38.5488], [139.926909, 38.549177], [139.926895, 38.549582], [139.926823, 38.549886], [139.92663, 38.550309], [139.926587, 38.550534], [139.926601, 38.550619], [139.926701, 38.550822], [139.926687, 38.550922], [139.926515, 38.551125], [139.926264, 38.5513], [139.92605, 38.55144], [139.925655, 38.5517], [139.925476, 38.551824], [139.924895, 38.552173], [139.924207, 38.552489], [139.9235336, 38.5527255], [139.9232499, 38.5528433], [139.9226732, 38.553231], [139.9224267, 38.5534705], [139.9222982, 38.553701], [139.9222961, 38.5538567], [139.9223376, 38.5540099], [139.9224701, 38.5541619], [139.922637, 38.554246], [139.922751, 38.554341], [139.922874, 38.554426], [139.922917, 38.554482], [139.922952, 38.55464], [139.923067, 38.554961], [139.923189, 38.555181], [139.923189, 38.555282], [139.922996, 38.555541], [139.922859, 38.555761], [139.9227055, 38.5559735], [139.9225781, 38.5561481], [139.9225619, 38.5563116], [139.9226726, 38.5565176], [139.9227826, 38.5565914], [139.9228913, 38.556615], [139.9230211, 38.5565937], [139.9232226, 38.5566082], [139.923462, 38.556701], [139.923562, 38.556746], [139.9237383, 38.5569348], [139.9238618, 38.5570066], [139.9241255, 38.5570913], [139.9242817, 38.5571634], [139.924481, 38.5573302], [139.9245357, 38.557488], [139.9245223, 38.5576742], [139.9245131, 38.5578079], [139.9245318, 38.5579931], [139.9245989, 38.558113], [139.9247409, 38.5582372], [139.9250118, 38.5584892], [139.9252327, 38.5586069], [139.9253901, 38.5586227], [139.9255693, 38.5585682], [139.9256814, 38.5584526], [139.9258208, 38.5582162], [139.9258412, 38.5579549], [139.9258591, 38.5577703], [139.925896, 38.5576819], [139.925974, 38.5575596], [139.9261232, 38.5575101], [139.9261945, 38.5575609], [139.9262399, 38.5577162], [139.926249, 38.558103], [139.926307, 38.558339], [139.926321, 38.55848], [139.926321, 38.558632], [139.926243, 38.558953], [139.926243, 38.559178], [139.926278, 38.559522], [139.926278, 38.559713], [139.926221, 38.559815], [139.926106, 38.559934], [139.92592, 38.560114], [139.925877, 38.560193], [139.925863, 38.560255], [139.92587, 38.560385], [139.925999, 38.560604], [139.926056, 38.560756], [139.926063, 38.560914], [139.925984, 38.56101], [139.925719, 38.561218], [139.925425, 38.56137], [139.92521, 38.561471], [139.925096, 38.561505], [139.925067, 38.561516], [139.924966, 38.561511], [139.924623, 38.561398], [139.924523, 38.561381], [139.9241568, 38.5614239], [139.9236998, 38.5614967], [139.9234762, 38.5615778], [139.9231896, 38.5617991], [139.9230534, 38.5619658], [139.92301, 38.562119], [139.922917, 38.56217], [139.9227604, 38.5621908], [139.9226104, 38.5621512], [139.9224298, 38.5620698], [139.9222868, 38.5620368], [139.922085, 38.562001], [139.921712, 38.562035], [139.921534, 38.562057], [139.921484, 38.562102], [139.921492, 38.562172], [139.921576, 38.562204], [139.921899, 38.562221], [139.921985, 38.562243], [139.922071, 38.562294], [139.922071, 38.562406], [139.922042, 38.562502], [139.922052, 38.562592], [139.922122, 38.562613], [139.922527, 38.562611], [139.9229778, 38.5626258], [139.9230907, 38.5626493], [139.9231394, 38.5626806], [139.9232112, 38.5627719], [139.9232171, 38.5628451], [139.9231603, 38.5629626], [139.9230352, 38.5630421], [139.9228463, 38.5630858], [139.9225042, 38.5630872], [139.9223292, 38.5630961], [139.9222058, 38.5631459], [139.9221213, 38.5632507], [139.9220947, 38.5633716], [139.9221377, 38.5635643], [139.9222161, 38.5638113], [139.9222419, 38.5640747], [139.9221706, 38.5643307], [139.9220404, 38.5644959], [139.921906, 38.564586], [139.9216624, 38.5647084], [139.921526, 38.564727], [139.9213296, 38.564742], [139.9211522, 38.5647741], [139.9210882, 38.5648411], [139.9210752, 38.5648761], [139.9210952, 38.5649191], [139.921339, 38.565048], [139.921562, 38.565115], [139.921799, 38.565149], [139.922272, 38.565149], [139.922322, 38.565161], [139.9223589, 38.565186], [139.9223808, 38.5652206], [139.922401, 38.56538], [139.922484, 38.5655267], [139.9226196, 38.5656288], [139.9228848, 38.5657348], [139.9230371, 38.5658372], [139.9231777, 38.5659611], [139.9233859, 38.566231], [139.9235729, 38.5663837], [139.9236464, 38.5665392], [139.9236584, 38.5666811], [139.9235896, 38.5667948], [139.9234001, 38.566849], [139.9231439, 38.566826], [139.922967, 38.566731], [139.922537, 38.56646], [139.922358, 38.566325], [139.9221828, 38.5662258], [139.9219657, 38.56616], [139.9217855, 38.5662028], [139.9216741, 38.5663379], [139.9215836, 38.566464], [139.9214799, 38.5666855], [139.9214525, 38.5669032], [139.9215071, 38.5672445], [139.9216516, 38.5676216], [139.9218068, 38.5679464], [139.9218291, 38.5681886], [139.9214165, 38.5684486], [139.921379, 38.5685243], [139.9213693, 38.5686183], [139.9213393, 38.5687621], [139.9212816, 38.5688879], [139.9211783, 38.568981], [139.9210637, 38.5690465], [139.9209748, 38.5691273], [139.9209355, 38.5692036], [139.9209288, 38.569206], [139.9209116, 38.5692665], [139.9209086, 38.569327], [139.920966, 38.5694095], [139.9210449, 38.5694791], [139.9211445, 38.5695053], [139.9215278, 38.5695349], [139.9216022, 38.569563], [139.9217594, 38.5696849], [139.9219122, 38.5698287], [139.9220174, 38.5699583], [139.9220521, 38.5700899], [139.9220273, 38.5702397], [139.9219821, 38.5703994], [139.921985, 38.570477], [139.9219551, 38.5706621], [139.9219038, 38.5709068], [139.921899, 38.570989], [139.921806, 38.57113], [139.921734, 38.571288], [139.921727, 38.571401], [139.9217616, 38.5714848], [139.9218843, 38.5716436], [139.922078, 38.571913], [139.9221592, 38.5719757], [139.922257, 38.5720442], [139.9222817, 38.5721782], [139.922271, 38.57224], [139.9221958, 38.5724432], [139.922143, 38.572561], [139.922078, 38.572623], [139.921906, 38.572679], [139.921763, 38.572679], [139.921462, 38.572628], [139.920853, 38.57251], [139.920652, 38.572476], [139.920414, 38.572454], [139.920229, 38.572442], [139.920207, 38.572448], [139.9201156, 38.572459], [139.9200035, 38.572538], [139.9199025, 38.5727363], [139.9197611, 38.5728561], [139.9195071, 38.5729271], [139.9192595, 38.5729514], [139.9190242, 38.5729653], [139.9188385, 38.57292], [139.9186771, 38.5728448], [139.9185796, 38.5727805], [139.9183733, 38.5725559], [139.9181098, 38.5723267], [139.9179575, 38.5722497], [139.9175928, 38.5720915], [139.9168328, 38.5716818], [139.9166539, 38.5715756], [139.9164743, 38.5714208], [139.9163949, 38.5713325], [139.9163479, 38.5712123], [139.9161727, 38.5706941], [139.9161019, 38.5705674], [139.9158989, 38.5703779], [139.9158049, 38.5703191], [139.9157197, 38.5703059], [139.9156357, 38.5703085], [139.9154531, 38.5703425], [139.9153321, 38.5703427], [139.9151767, 38.5703324], [139.9147679, 38.5703503], [139.9146634, 38.5703253], [139.9145829, 38.5702822], [139.9144937, 38.5702123], [139.9143165, 38.5701362], [139.914013, 38.5700664], [139.9137706, 38.5700502], [139.9136296, 38.5700609], [139.9135055, 38.5701158], [139.9133554, 38.5702333], [139.9132748, 38.5702996], [139.913133, 38.570347], [139.913076, 38.570353], [139.9129734, 38.5703354], [139.9128523, 38.5702793], [139.9127389, 38.5701472], [139.9123617, 38.570376], [139.9119824, 38.57066], [139.9117794, 38.5707983], [139.9115239, 38.5709313], [139.9113033, 38.571006], [139.9110919, 38.571059], [139.9108693, 38.5710979], [139.9106182, 38.5711232], [139.909558, 38.571168], [139.90645, 38.571267], [139.905135, 38.571275], [139.904107, 38.571366], [139.903722, 38.571432], [139.903407, 38.571512], [139.902949, 38.571681], [139.902766, 38.571767], [139.902454, 38.571962], [139.902304, 38.572081], [139.902124, 38.572284], [139.902039, 38.572453], [139.901979, 38.57262], [139.901759, 38.573016], [139.9015189, 38.5732865], [139.9013107, 38.573521], [139.9011292, 38.5737083], [139.900975, 38.573912], [139.900792, 38.574212], [139.900669, 38.574542], [139.900648, 38.574706], [139.900667, 38.575414], [139.900668, 38.575559], [139.900814, 38.576233], [139.900747, 38.576586], [139.900563, 38.576991], [139.900371, 38.577331], [139.900279, 38.57758], [139.900174, 38.577695], [139.900121, 38.57784], [139.900132, 38.578153], [139.900216, 38.578487], [139.900554, 38.579276], [139.900754, 38.579715], [139.900875, 38.580135], [139.900914, 38.580496], [139.900883, 38.580948], [139.900808, 38.581396], [139.900691, 38.581774], [139.900229, 38.582633], [139.8999, 38.583078], [139.899572, 38.583385], [139.899141, 38.583735], [139.898484, 38.584172], [139.897747, 38.584605], [139.896981, 38.584955], [139.896171, 38.585332], [139.895978, 38.585432], [139.894651, 38.586034], [139.894239, 38.586219], [139.894051, 38.586352], [139.894278, 38.586332], [139.894466, 38.586277], [139.894799, 38.586161], [139.89595, 38.58571], [139.896295, 38.585575], [139.896725, 38.585414], [139.897099, 38.585252], [139.897991, 38.584815], [139.898766, 38.584396], [139.899303, 38.584051], [139.899881, 38.583637], [139.900228, 38.583307], [139.900542, 38.58294], [139.900753, 38.58263], [139.900981, 38.582221], [139.901136, 38.581828], [139.901249, 38.581417], [139.901318, 38.581022], [139.901334, 38.580631], [139.901295, 38.580191], [139.901155, 38.579766], [139.900891, 38.579214], [139.900522, 38.578528], [139.900374, 38.578195], [139.900321, 38.57798], [139.900279, 38.57758]], [[139.894051, 38.586352], [139.893085, 38.586711], [139.892566, 38.58696], [139.891853, 38.587335], [139.891114, 38.587768], [139.889324, 38.588819], [139.888423, 38.589165], [139.887817, 38.589353], [139.886985, 38.589496], [139.8863, 38.589553], [139.884877, 38.589579], [139.884293, 38.589589], [139.884175, 38.589579], [139.883849, 38.589553], [139.882665, 38.589427], [139.8822766, 38.589383], [139.8821699, 38.5893608], [139.8818254, 38.5892891], [139.8816751, 38.5892578], [139.8814802, 38.5892104], [139.8809464, 38.5890798], [139.880277, 38.588884], [139.879852, 38.588718], [139.879826, 38.588703], [139.879624, 38.588588], [139.879616, 38.588582], [139.879485, 38.588494], [139.879172, 38.588231], [139.878518, 38.587546], [139.878045, 38.587109], [139.877717, 38.586845], [139.877495, 38.586728], [139.877456, 38.586714], [139.877371, 38.586683], [139.877099, 38.586686], [139.876709, 38.586702], [139.875913, 38.586793], [139.875275, 38.587052], [139.8745715, 38.587292], [139.8741892, 38.587418], [139.8739141, 38.5875044], [139.8734747, 38.5875922], [139.8732968, 38.5876069], [139.8732573, 38.5876044], [139.8728691, 38.5875951], [139.8724611, 38.5875565], [139.8720703, 38.5875005], [139.8718527, 38.5874645], [139.8716351, 38.5874447], [139.8713833, 38.587434], [139.8711315, 38.5874444], [139.8702973, 38.5875321], [139.8699045, 38.58756], [139.8695466, 38.5875515], [139.8691721, 38.5874996], [139.8689789, 38.5874646], [139.8687839, 38.5874037], [139.8684785, 38.5872783], [139.8681789, 38.5871589], [139.8678233, 38.5870094], [139.8672892, 38.5867996], [139.8670242, 38.5866719], [139.8667804, 38.5865276], [139.866375, 38.586238], [139.8660742, 38.5859249], [139.8658684, 38.5856526], [139.8657034, 38.5854667], [139.8655239, 38.5853355], [139.8654177, 38.5852646], [139.8652998, 38.5852089], [139.8651996, 38.585175], [139.8650683, 38.5851411], [139.8649408, 38.5851254], [139.8647998, 38.5851142], [139.8646955, 38.5851167], [139.8645912, 38.5851283], [139.8643258, 38.5851803], [139.8640535, 38.5852817], [139.8636725, 38.5854446], [139.8634762, 38.5855458], [139.8632954, 38.5856393], [139.8631284, 38.58572], [139.8629633, 38.5857977], [139.862602, 38.585947], [139.8623117, 38.5860925], [139.8620059, 38.5862122], [139.861428, 38.586429], [139.8606812, 38.5866351], [139.8603075, 38.5867304], [139.859594, 38.5868509], [139.8591211, 38.5869039], [139.8586559, 38.5869493], [139.8579514, 38.5870139], [139.8572941, 38.587116], [139.8568442, 38.587213], [139.855739, 38.5874614], [139.8552344, 38.5875796], [139.8547375, 38.5877038], [139.8539969, 38.5878706], [139.8528385, 38.5881797], [139.851957, 38.5884505], [139.8516101, 38.5885687], [139.8508575, 38.5887984], [139.8503367, 38.5889836], [139.8501008, 38.5890674], [139.8484294, 38.589592], [139.848299, 38.589651], [139.848006, 38.589829], [139.847675, 38.590106], [139.847385, 38.590477], [139.8470734, 38.591113], [139.8469462, 38.5913993], [139.846819, 38.591697], [139.8464763, 38.5925297], [139.8462293, 38.593105], [139.845795, 38.5940659], [139.8455958, 38.5944427], [139.8453759, 38.5948101], [139.844917, 38.595366], [139.8447646, 38.595565], [139.844456, 38.596047], [139.844413, 38.596115], [139.84413, 38.596562], [139.843962, 38.596999], [139.8438845, 38.597149], [139.843697, 38.597639], [139.8436555, 38.5977199], [139.8434543, 38.5981125], [139.843409, 38.598201], [139.8432034, 38.5985661], [139.8429645, 38.5988733], [139.8424174, 38.5995812], [139.8421026, 38.5999983], [139.8415623, 38.6007686], [139.8411254, 38.6013789], [139.8409107, 38.6018327], [139.8407512, 38.6022828], [139.840611, 38.6026986], [139.840206, 38.6038364], [139.8400224, 38.6044474], [139.839948, 38.604869], [139.8398097, 38.6056101], [139.8396799, 38.6062413], [139.8396172, 38.6065081], [139.839428, 38.6071071], [139.8388674, 38.6086908], [139.8385508, 38.609559], [139.838398, 38.6098959], [139.8381881, 38.6102628], [139.8378763, 38.6106973], [139.8378012, 38.6108042], [139.8369484, 38.6120484], [139.8363046, 38.6130118], [139.8357936, 38.6137579], [139.8355615, 38.6142518], [139.8354999, 38.6143539], [139.8354759, 38.614435], [139.8354659, 38.61454], [139.8354394, 38.6146582], [139.8354135, 38.6147909], [139.8354074, 38.6149563], [139.8354226, 38.6150635], [139.8354301, 38.6151487], [139.8354578, 38.6152784], [139.8354976, 38.6154106], [139.8356926, 38.6157126], [139.8359069, 38.6160565], [139.8364251, 38.6167477], [139.8366226, 38.6170214], [139.8368349, 38.617305], [139.8370972, 38.617603], [139.8373349, 38.6178353], [139.8376147, 38.6181018], [139.8380188, 38.6184527], [139.8382271, 38.6186182], [139.8384292, 38.6187986], [139.8387585, 38.6191011], [139.8390436, 38.6194213], [139.839353, 38.6197653], [139.8395976, 38.6201052], [139.8398145, 38.6204435], [139.8406914, 38.621871], [139.8411766, 38.6226836], [139.8415381, 38.6233656], [139.8416356, 38.6236093], [139.8417623, 38.6240023], [139.8419044, 38.6247148], [139.8419542, 38.6252177], [139.8419835, 38.6254592], [139.842148, 38.6260392], [139.8422455, 38.6262787], [139.8424476, 38.626621], [139.8426913, 38.6270078], [139.8429604, 38.6274141], [139.8432646, 38.6278064], [139.8437294, 38.6283735], [139.8440049, 38.6287199], [139.8442538, 38.629044], [139.8444181, 38.6293718], [139.844595, 38.6297609], [139.84485, 38.630434], [139.8451041, 38.631675], [139.8452491, 38.6323139], [139.8453554, 38.6329078], [139.8454141, 38.6332775], [139.8454695, 38.6336273], [139.8456502, 38.6345159], [139.8456876, 38.6347297], [139.845706, 38.6348345], [139.8459265, 38.6359921], [139.846147, 38.637113], [139.8463319, 38.6378825], [139.8464577, 38.6382359], [139.8464925, 38.6383168], [139.8466609, 38.6387086], [139.8469293, 38.6392022], [139.8469719, 38.6392805], [139.8470717, 38.6394484], [139.847356, 38.6399441], [139.8476398, 38.6404236], [139.8479002, 38.6409122], [139.8479869, 38.6411182], [139.8480582, 38.6412643], [139.8481971, 38.6415851], [139.8482443, 38.6417215], [139.8483184, 38.6419678], [139.8483834, 38.64221], [139.8483958, 38.6422563], [139.8484437, 38.6425462], [139.8484714, 38.6430141], [139.8484599, 38.6435352], [139.848426, 38.6437335], [139.8483437, 38.6441508], [139.8482231, 38.6446047], [139.8480999, 38.6449867], [139.8468806, 38.6485562], [139.8468286, 38.6486844], [139.8463087, 38.649908], [139.8460085, 38.650618], [139.845717, 38.651315], [139.845652, 38.651563], [139.845596, 38.651867], [139.845552, 38.652233], [139.8455073, 38.6527807], [139.8455174, 38.6532034], [139.8455651, 38.6536611], [139.8455859, 38.6538124], [139.8457048, 38.6543739], [139.8457649, 38.6546173], [139.8458689, 38.6550521], [139.8461426, 38.6558824], [139.8461815, 38.6560122], [139.8462755, 38.6563016], [139.8464397, 38.656886], [139.8464752, 38.657038], [139.8465548, 38.6573484], [139.8466346, 38.6576677], [139.8466682, 38.657832], [139.8467684, 38.6584235], [139.846789, 38.6587327], [139.846778, 38.659269], [139.8467298, 38.6597658], [139.846628, 38.660162], [139.8465031, 38.6605842], [139.8463861, 38.6609266], [139.8462623, 38.6612242], [139.8458588, 38.661925], [139.8455486, 38.6624291], [139.8452686, 38.6628823], [139.8449596, 38.6634091], [139.8438698, 38.6651091], [139.84308, 38.666402], [139.842667, 38.667061], [139.8422676, 38.6677253], [139.8410779, 38.6696215], [139.8394822, 38.6721883], [139.8385865, 38.6736803], [139.8379792, 38.674604], [139.8374933, 38.6754143], [139.8370348, 38.6762673], [139.83671, 38.67702], [139.8363634, 38.6781174], [139.8362255, 38.6786417], [139.8360818, 38.6794937], [139.8360351, 38.6800775], [139.8360175, 38.680297], [139.8359962, 38.6809185], [139.8360758, 38.6821737], [139.836264, 38.6842269], [139.8365957, 38.6870344], [139.8367486, 38.6885397], [139.836757, 38.6886811], [139.8367842, 38.6890533], [139.8367898, 38.6895017], [139.8367237, 38.6899408], [139.8365883, 38.6904072], [139.8364964, 38.6906699], [139.8364556, 38.6907921], [139.8363509, 38.6911169], [139.8361323, 38.6917951], [139.8357361, 38.6930882], [139.8354845, 38.6938554], [139.8354371, 38.6939954], [139.8352834, 38.6944954], [139.8351438, 38.6949492], [139.8349515, 38.6955928], [139.8343571, 38.6975171], [139.8341704, 38.6980735], [139.8341116, 38.6982392], [139.8340441, 38.6984468], [139.8340325, 38.6984826], [139.8339394, 38.6987826], [139.8339328, 38.6988026], [139.8338318, 38.6991102], [139.8337827, 38.6992598], [139.8336591, 38.6998129], [139.8336159, 38.7000713], [139.8336101, 38.7003807], [139.8336401, 38.7006823], [139.8336916, 38.7009002], [139.8338283, 38.701281], [139.8339231, 38.7014734], [139.8340447, 38.7016699], [139.8342531, 38.7019612], [139.8343404, 38.7020678], [139.8343898, 38.7021281], [139.834589, 38.7023288], [139.8348742, 38.7025742], [139.8354823, 38.7030274], [139.8361852, 38.7035314], [139.837687, 38.7045926], [139.8382267, 38.7049756], [139.8388174, 38.7054054], [139.8405455, 38.7066541], [139.8418099, 38.7075481], [139.8429466, 38.7083634], [139.8438727, 38.709105], [139.8440024, 38.709217], [139.8441222, 38.7093331], [139.844312, 38.7095172], [139.844797, 38.7100432], [139.8452979, 38.7106781], [139.8453763, 38.710792], [139.8457589, 38.711401], [139.845921, 38.7117204], [139.8460899, 38.7120609], [139.8462145, 38.7123448], [139.8462485, 38.7124339], [139.8463627, 38.7127378], [139.8464584, 38.7130363], [139.8465433, 38.7133317], [139.8465785, 38.7134956], [139.8466049, 38.713637], [139.846644, 38.7138199], [139.8466717, 38.7139948], [139.8466949, 38.714173], [139.8466993, 38.7142041], [139.8467247, 38.714405], [139.8467568, 38.7146563], [139.8467729, 38.714776], [139.8468001, 38.7149848], [139.8468753, 38.7157664], [139.8469663, 38.7165291], [139.8470867, 38.7175679], [139.8471159, 38.7177232], [139.8471389, 38.7178796], [139.8471868, 38.7182071], [139.8472277, 38.7186334], [139.8473881, 38.7206567], [139.8474089, 38.7208025], [139.8474275, 38.7209483], [139.847501, 38.7215899], [139.8475782, 38.7222383], [139.8477147, 38.7234343], [139.8477444, 38.7237357], [139.8477713, 38.7241543], [139.8477648, 38.724408], [139.847757, 38.7246112], [139.8477257, 38.724953], [139.8476566, 38.7253614], [139.8475837, 38.7256507], [139.8474937, 38.7259673], [139.8473775, 38.7262838], [139.8462716, 38.728992], [139.8462394, 38.7290708], [139.8462242, 38.7291067], [139.8461559, 38.7292681], [139.8460214, 38.7295861], [139.8458593, 38.7299983], [139.8457089, 38.7304037], [139.8455096, 38.7310131], [139.8453843, 38.7314641], [139.8453065, 38.7318051], [139.8451725, 38.732364], [139.8451269, 38.7326134], [139.8450768, 38.7329847], [139.8450267, 38.7334984], [139.8450107, 38.7337877], [139.8449914, 38.7342809], [139.8449925, 38.734716], [139.8450082, 38.7351364], [139.8450096, 38.7351968], [139.8450404, 38.735743], [139.8450415, 38.7357914], [139.845094, 38.7362537], [139.8451108, 38.7363697], [139.8451552, 38.7365715], [139.8452573, 38.7370891], [139.8453806, 38.7376205], [139.8455074, 38.7381536], [139.8456087, 38.7386041], [139.8457294, 38.7391153], [139.846065, 38.7405864], [139.8461517, 38.740973], [139.8462307, 38.7414268], [139.8463622, 38.7419653], [139.8467304, 38.7434899], [139.8467868, 38.7437582], [139.8468031, 38.7438932], [139.8468206, 38.7440551], [139.8468125, 38.744211], [139.8467986, 38.7443412], [139.846778, 38.7444631], [139.8466937, 38.7447481], [139.8466334, 38.7448829], [139.8465715, 38.7449907], [139.8464921, 38.7451084], [139.8464074, 38.7452255], [139.8461882, 38.745486], [139.845911, 38.7457265], [139.8457434, 38.7458311], [139.8455892, 38.7459079], [139.8453461, 38.7460306], [139.8451754, 38.7460983], [139.8449831, 38.746162], [139.8446577, 38.7462456], [139.8444479, 38.746285], [139.844249, 38.746315], [139.8439944, 38.7463476], [139.8431653, 38.7464296], [139.8429703, 38.7464509], [139.842783, 38.7464698], [139.841207, 38.7466131], [139.8405121, 38.7466783], [139.8400985, 38.7467183], [139.8384663, 38.7468875], [139.8376842, 38.7469636], [139.8375168, 38.7469819], [139.8373572, 38.7469985], [139.8371058, 38.7470222], [139.8366967, 38.7470635], [139.8363192, 38.7471252], [139.835949, 38.7472069], [139.8355368, 38.7473216], [139.8352043, 38.7474636], [139.8349512, 38.7475939], [139.8346982, 38.7477685], [139.8344229, 38.7479585], [139.83417, 38.7481873], [139.8339485, 38.7484593], [139.8338166, 38.7486754], [139.8336985, 38.748895], [139.8335538, 38.7492982], [139.8333937, 38.7501297], [139.8333151, 38.7510802], [139.8332302, 38.7521994], [139.8332045, 38.7525598], [139.8331537, 38.7532614], [139.832961, 38.7563521], [139.8327936, 38.7588083], [139.8328445, 38.7590078], [139.8328888, 38.7588514], [139.8330949, 38.7563638], [139.8332843, 38.7540937], [139.8333505, 38.7532849]], [[139.8453065, 38.7318051], [139.845259, 38.7323799], [139.8452317, 38.732618], [139.8452148, 38.7328487], [139.8451745, 38.7331758], [139.8451263, 38.7337073], [139.8451048, 38.7342973], [139.8450973, 38.7347069], [139.8451199, 38.7351926], [139.8451209, 38.7352514], [139.8451826, 38.7358707], [139.8452362, 38.7362452], [139.8452606, 38.736367], [139.8452979, 38.736559], [139.8453838, 38.7370381], [139.845432, 38.7373268], [139.845716, 38.7385927], [139.8457838, 38.738895], [139.8461445, 38.7404714], [139.8462447, 38.7408606], [139.8463033, 38.7411383], [139.8463654, 38.7413856], [139.8464988, 38.7419536], [139.8466015, 38.7424274], [139.8468171, 38.7433914], [139.8468893, 38.7437476], [139.8469057, 38.7438768], [139.8469187, 38.7440634], [139.8469067, 38.7443307], [139.8468886, 38.7444422], [139.8468399, 38.7446286], [139.8467734, 38.7448177], [139.8466601, 38.7450717], [139.8465512, 38.7452498], [139.8464086, 38.7454213], [139.8462683, 38.7455696], [139.8459765, 38.7458185], [139.8458693, 38.7458835], [139.8456623, 38.746009], [139.8450045, 38.7462729], [139.8447167, 38.7463464], [139.8444209, 38.7464053], [139.8438323, 38.7464726], [139.843179, 38.7465329], [139.8429827, 38.7465501], [139.8427954, 38.7465664], [139.8418861, 38.7466584], [139.8412043, 38.7467283], [139.8401085, 38.7468271], [139.8376992, 38.7470737], [139.8375352, 38.7470889], [139.8373613, 38.747105], [139.836731, 38.7471804], [139.8363045, 38.7472578], [139.8359638, 38.7473352], [139.8356259, 38.7474481], [139.835304, 38.7475611], [139.8350573, 38.7476908], [139.8348051, 38.7478498], [139.8345315, 38.7480631], [139.8343223, 38.748264], [139.8341024, 38.7485275], [139.8338556, 38.7489459], [139.8337269, 38.7493182], [139.8336196, 38.7497952], [139.8335798, 38.7501321], [139.8334962, 38.7512302], [139.8334157, 38.7524392], [139.8333894, 38.7527651], [139.8333836, 38.7528366], [139.8333701, 38.7530191], [139.8333505, 38.7532849]], [[139.8328445, 38.7590078], [139.831936, 38.7586305], [139.8316637, 38.7584981], [139.8311304, 38.7582197], [139.8300164, 38.7575669], [139.8291484, 38.7569673], [139.8284586, 38.7564238], [139.8277667, 38.7558249], [139.8270272, 38.7551415], [139.8259995, 38.7541162], [139.8256738, 38.7538165], [139.8251318, 38.7533256], [139.824998, 38.7532278], [139.8248343, 38.753092], [139.8245755, 38.7528254], [139.8243158, 38.7525873], [139.8230522, 38.7514495], [139.8224562, 38.7509136], [139.822288, 38.7507633], [139.8221598, 38.7506545], [139.8211698, 38.7498011], [139.8202155, 38.7490315], [139.8192308, 38.7482864], [139.817532, 38.7471291], [139.8159558, 38.7461385], [139.8152493, 38.7457343], [139.8151251, 38.7456638], [139.8149985, 38.7455949], [139.8142883, 38.7452063], [139.8133601, 38.7447364], [139.8124417, 38.7442891], [139.8115234, 38.7438779], [139.810721, 38.7435088], [139.8105768, 38.7434429], [139.8104665, 38.7433992], [139.8078915, 38.7424125], [139.8039478, 38.7408793], [139.8017565, 38.74003], [139.8016994, 38.7401232]], [[139.8270272, 38.7551415], [139.8260076, 38.7542684], [139.8250335, 38.7533957], [139.8248912, 38.7532709], [139.8247536, 38.7531515], [139.8242047, 38.7526463], [139.8228957, 38.7514623], [139.8223572, 38.7509757], [139.8222174, 38.7508415], [139.8220654, 38.7507172], [139.821049, 38.7498502], [139.8201152, 38.7490959], [139.8191042, 38.7483387], [139.8174471, 38.747198], [139.8164477, 38.7465541], [139.8158663, 38.746236], [139.8151819, 38.7458181], [139.8150467, 38.7457425], [139.8149298, 38.7456782], [139.8142292, 38.745289], [139.8133133, 38.744818], [139.8123516, 38.7443535], [139.8114033, 38.7439355], [139.8106606, 38.7436009], [139.8105318, 38.7435439], [139.810401, 38.7434933], [139.8083402, 38.7426782], [139.8078273, 38.7425024], [139.8038676, 38.7409709], [139.8018915, 38.7401983], [139.8016994, 38.7401232], [139.801634, 38.7402137], [139.8015471, 38.7403457], [139.8014068, 38.7405186], [139.8012139, 38.7407074], [139.8008157, 38.7410181], [139.7998138, 38.7417182], [139.799483, 38.7419461], [139.7984664, 38.7426363], [139.7970265, 38.7436252], [139.7970015, 38.743642], [139.7960792, 38.7443794], [139.7956776, 38.7447222], [139.7948398, 38.7453835], [139.7946988, 38.7454999], [139.7944114, 38.7457303], [139.7943866, 38.7457536], [139.7935562, 38.7464247], [139.7930455, 38.7468357], [139.79274, 38.7470412], [139.7925094, 38.7471736], [139.7923826, 38.7472405], [139.7923554, 38.747254], [139.7921462, 38.7473575], [139.7918294, 38.7474868], [139.7914841, 38.7475998], [139.7911315, 38.7477014], [139.7908122, 38.7477677], [139.7905514, 38.7478064], [139.7899227, 38.7478664], [139.789202, 38.7479285], [139.7891249, 38.7479337], [139.7888485, 38.7479525], [139.7887875, 38.7479567], [139.7865698, 38.7481222], [139.7864139, 38.7481343], [139.7855976, 38.7481975], [139.783763, 38.7483388], [139.7835553, 38.7483529], [139.782935, 38.7483951], [139.7822852, 38.7484066], [139.7819715, 38.7484026], [139.7814801, 38.7483821], [139.7809929, 38.748351], [139.7803216, 38.7483147], [139.7796554, 38.7482787], [139.7794993, 38.7482739], [139.7793666, 38.7482812], [139.7792666, 38.7482943], [139.7791734, 38.7483136], [139.779137, 38.7483253], [139.7790452, 38.7483546], [139.7789622, 38.748381], [139.7789408, 38.7483879], [139.7780389, 38.7487245], [139.7771843, 38.7490395], [139.7767514, 38.7492011], [139.7765301, 38.7492665], [139.7763786, 38.7493036], [139.7762391, 38.7493284], [139.7760728, 38.7493548], [139.7759136, 38.7493686], [139.7757375, 38.7493779], [139.7755605, 38.7493737], [139.7753231, 38.7493509], [139.7745729, 38.7492373], [139.7725799, 38.7489283], [139.7725499, 38.7489231], [139.7725135, 38.7489175], [139.7719653, 38.7488334], [139.7717223, 38.7487953], [139.7709561, 38.7486816], [139.7702741, 38.7486167], [139.7700618, 38.7486016], [139.7698494, 38.7485865], [139.7696935, 38.7485791], [139.7695097, 38.7485718], [139.7690507, 38.748563], [139.7686038, 38.7485512], [139.7677753, 38.7485227], [139.7676838, 38.7485211], [139.7676192, 38.7485203], [139.7668684, 38.74853], [139.7667486, 38.7485312], [139.766653, 38.7485335], [139.7652562, 38.7485591], [139.7652201, 38.7485604], [139.7638516, 38.7485821], [139.763785, 38.7485831], [139.7637119, 38.7485844], [139.7627962, 38.7486005], [139.7622219, 38.748607], [139.7621106, 38.748607], [139.762014, 38.7485976], [139.7618313, 38.7485637], [139.7617613, 38.7485435], [139.7617048, 38.7485271], [139.761515, 38.7484702], [139.7610726, 38.7483387], [139.7599267, 38.7480001], [139.7594045, 38.7478468], [139.7593387, 38.7478277], [139.7592924, 38.7478142], [139.7591965, 38.7477862], [139.7590033, 38.7477416], [139.7587664, 38.7477066], [139.7587386, 38.7477027], [139.7581801, 38.7476233], [139.7577512, 38.7475624], [139.757536, 38.7475256], [139.757236, 38.7474743], [139.7570874, 38.7474514], [139.7569326, 38.7474136], [139.7568927, 38.7473978], [139.7568454, 38.7473791], [139.7567696, 38.7473345], [139.7567124, 38.747267], [139.756678, 38.7472224], [139.7566328, 38.7471458], [139.7566026, 38.7470705], [139.7565508, 38.7469737], [139.7565094, 38.7468953], [139.7564105, 38.746745], [139.7560985, 38.746389], [139.7560038, 38.7462981], [139.7559053, 38.746217], [139.7557893, 38.7461396], [139.7556694, 38.7460686], [139.7555331, 38.7460073], [139.7554265, 38.745965], [139.7553226, 38.7459331], [139.7551033, 38.7458755], [139.7548445, 38.7457903], [139.7546829, 38.7457286], [139.7545, 38.745643], [139.754335, 38.7455643], [139.7542968, 38.7455452], [139.7539517, 38.7453714], [139.7535519, 38.7451706], [139.7533087, 38.7450484], [139.7532149, 38.7451408], [139.7528912, 38.7454584], [139.7523858, 38.7458942], [139.7521716, 38.746056], [139.7519505, 38.7462137], [139.7517022, 38.7463792], [139.7514502, 38.7465372], [139.7511739, 38.7466929], [139.7508859, 38.7468441], [139.7504631, 38.7470465], [139.7502337, 38.74715], [139.7499957, 38.7472419], [139.7496155, 38.7473822], [139.7492212, 38.7475195], [139.7478439, 38.7479937], [139.7472699, 38.7482012], [139.7466864, 38.748438], [139.7458713, 38.7487591], [139.7452903, 38.7489982], [139.7445558, 38.7493907], [139.7438303, 38.7498657], [139.7431678, 38.7504757], [139.7425075, 38.7511938], [139.7419231, 38.7519288], [139.7412857, 38.7527181], [139.7407625, 38.7534142], [139.7406515, 38.7535604], [139.7405213, 38.7537024], [139.7404055, 38.7538192], [139.7402866, 38.7539079], [139.7401088, 38.7540328], [139.7399317, 38.7541312], [139.739759, 38.7542098], [139.7396591, 38.7542517], [139.7395508, 38.7542896], [139.7392963, 38.754358], [139.7390437, 38.7544229], [139.7388625, 38.7544676], [139.7387244, 38.7545079], [139.7385903, 38.754555], [139.738443, 38.7546193], [139.7383402, 38.7546742], [139.7382119, 38.7547499], [139.7380042, 38.754898], [139.7377895, 38.7550568], [139.7375828, 38.7552094], [139.7374202, 38.7553389], [139.7370839, 38.7555892], [139.7364254, 38.7560895], [139.7363836, 38.7561263], [139.7362742, 38.7562225], [139.7362024, 38.7562983], [139.7361213, 38.7563919], [139.7360578, 38.7564901], [139.7359858, 38.7566105], [139.7359483, 38.7566994], [139.7359014, 38.7568228], [139.7358803, 38.756915], [139.7358672, 38.7570393], [139.7358706, 38.7573796], [139.7358491, 38.7575167], [139.7358228, 38.7576343], [139.7357418, 38.7579193], [139.7355692, 38.758438], [139.7355607, 38.7584856], [139.7355594, 38.7585405], [139.7355736, 38.7586128], [139.7356432, 38.758789], [139.7359842, 38.7594202], [139.7360314, 38.7595157], [139.7360435, 38.7595915], [139.7360416, 38.7596738], [139.736033, 38.7598083], [139.7359733, 38.7599397], [139.7359438, 38.7599954], [139.7358499, 38.7601918], [139.735841, 38.7602101], [139.735513, 38.7605773], [139.7352277, 38.7608899], [139.7351145, 38.7610014], [139.7350402, 38.7610921], [139.7347153, 38.7615509], [139.7344349, 38.7619156], [139.7344084, 38.76195], [139.734369, 38.761993], [139.7341154, 38.7622704], [139.7340779, 38.7623019], [139.7341862, 38.7623777], [139.7342546, 38.7624295], [139.7344508, 38.7625751], [139.734561, 38.7626631], [139.7346529, 38.7627491], [139.7346622, 38.762926], [139.7346647, 38.7629557], [139.7346541, 38.7632929], [139.7346509, 38.7633384], [139.7346474, 38.763386], [139.7346441, 38.76342], [139.7346365, 38.7634538], [139.7346219, 38.7635204], [139.7345978, 38.7635748], [139.7345777, 38.7636134], [139.7345516, 38.7636547], [139.7345254, 38.7636924], [139.7344939, 38.7637295], [139.7344533, 38.7637634], [139.7341989, 38.7639307], [139.7341021, 38.7640501], [139.7340607, 38.7641431], [139.7340184, 38.7643135], [139.7339631, 38.7645884], [139.7339346, 38.7646581], [139.7338773, 38.7647215], [139.7338022, 38.7647693], [139.7337408, 38.7648042], [139.7336435, 38.7648542], [139.7334974, 38.7649457], [139.7333074, 38.7650362], [139.7332044, 38.7650894], [139.7331507, 38.7651276], [139.7331038, 38.7651716], [139.7330428, 38.7652317], [139.7329929, 38.7652959], [139.7328953, 38.7654512], [139.7328535, 38.76553], [139.7326431, 38.7659119], [139.7326036, 38.7660075], [139.7325821, 38.7660567], [139.732572, 38.7661085], [139.7325613, 38.7661858], [139.7325593, 38.7662454], [139.7325663, 38.7663081], [139.7325888, 38.7663913], [139.7326251, 38.7664857], [139.7326633, 38.766557], [139.7327115, 38.7666271], [139.7328654, 38.7667609], [139.7331683, 38.7670394], [139.733326, 38.7672167], [139.7334307, 38.7673337], [139.7336807, 38.7676365], [139.7339567, 38.767992], [139.7340288, 38.7680813], [139.7340998, 38.7681564], [139.734183, 38.7682082], [139.73425, 38.768247], [139.7343552, 38.7682917], [139.7344663, 38.7683162], [139.7345977, 38.7683265], [139.734888, 38.7683692], [139.7351603, 38.7684304], [139.7353377, 38.7684983], [139.735596, 38.7686093], [139.7359234, 38.7687151], [139.736085, 38.7687751], [139.7362492, 38.7688659], [139.7363465, 38.7690171], [139.7364407, 38.7691805], [139.7365248, 38.7693103], [139.7366479, 38.7694504], [139.7367859, 38.769604], [139.7369183, 38.7697461], [139.7370035, 38.7698292], [139.7370766, 38.7698779], [139.7371681, 38.769914], [139.7372291, 38.7699254], [139.7373085, 38.7699367], [139.73743, 38.7699431], [139.7378028, 38.7699428], [139.7380631, 38.7699309], [139.7381701, 38.7699305], [139.7383442, 38.7699274], [139.7385604, 38.7699508], [139.7387778, 38.770023], [139.739016, 38.7701097], [139.7392034, 38.7701713], [139.7393512, 38.7702699], [139.7394563, 38.7703542], [139.7395839, 38.7704557], [139.7397136, 38.7705612], [139.7397519, 38.770601], [139.7398461, 38.7706961], [139.7398915, 38.7707445], [139.7400203, 38.7709108], [139.7400486, 38.7709422], [139.7402051, 38.77116], [139.7402707, 38.7712462], [139.7408704, 38.7719511], [139.741229, 38.7724296], [139.7414169, 38.7726411], [139.7414959, 38.7727136], [139.7415752, 38.7727736], [139.7416825, 38.7728426], [139.7418806, 38.7729378], [139.7421486, 38.7730093], [139.7423995, 38.7730818], [139.7426202, 38.7731624], [139.7428425, 38.7732353], [139.7432454, 38.7734154], [139.743638, 38.7735389], [139.7441467, 38.7736894], [139.7444078, 38.7737794], [139.7446594, 38.7738634], [139.7449311, 38.7739651], [139.7451972, 38.7740643], [139.7456905, 38.7742483], [139.7459049, 38.7743129], [139.7460876, 38.7743456], [139.7462801, 38.7743954], [139.746674, 38.7744653], [139.7469343, 38.7745489], [139.7471593, 38.7746386], [139.7473872, 38.7747504], [139.7475668, 38.7748685], [139.7477402, 38.7750059], [139.7479129, 38.7751858], [139.7481049, 38.7754382], [139.7484496, 38.7759468], [139.7485329, 38.7760745], [139.7486512, 38.7763399], [139.748682, 38.776392], [139.7488681, 38.7767117], [139.7489893, 38.7769309], [139.7491744, 38.7772305], [139.7493323, 38.7775102], [139.7493768, 38.7776212], [139.7494504, 38.7777923], [139.7497249, 38.7784354], [139.7498374, 38.7786395], [139.749967, 38.7788059], [139.750139, 38.7789943], [139.7502945, 38.779153], [139.750494, 38.7793112], [139.7507299, 38.7794756], [139.750846, 38.7796228], [139.7509596, 38.7797889], [139.7510737, 38.7800006], [139.7511457, 38.7802217], [139.7512314, 38.780428], [139.7513354, 38.7806236], [139.7514762, 38.7808664], [139.7517078, 38.7812456], [139.7518623, 38.7815035], [139.7524287, 38.7823682], [139.7527808, 38.7829422], [139.7530724, 38.7834158], [139.753407, 38.7839324], [139.7535478, 38.7841282], [139.753634, 38.7842297], [139.7537449, 38.7843263], [139.7539431, 38.7844587], [139.7554673, 38.7851501], [139.7556716, 38.7852319], [139.7558199, 38.7852557], [139.7559666, 38.7852352], [139.7560938, 38.7851942], [139.7562479, 38.7850712], [139.7566649, 38.7845697], [139.7577967, 38.7851143], [139.7582356, 38.7852548], [139.7585868, 38.7853333], [139.7592321, 38.7854525], [139.7607929, 38.7857196], [139.7616813, 38.7858805], [139.7634013, 38.7861943], [139.7639771, 38.7862383], [139.7647647, 38.7863784], [139.7648314, 38.7866825], [139.765402, 38.787585], [139.765534, 38.787747], [139.765677, 38.787951], [139.766042, 38.788447], [139.7671536, 38.7899666], [139.767727, 38.7907127], [139.7678945, 38.7909496], [139.7682391, 38.7914316], [139.7684635, 38.7918149], [139.7686166, 38.7921928], [139.7687263, 38.7924947], [139.7688863, 38.7929331], [139.7690089, 38.7932517], [139.7691555, 38.7938602], [139.7695089, 38.7952363], [139.7697036, 38.7960479], [139.7698094, 38.7963392], [139.7699408, 38.7965661], [139.7701315, 38.7968597], [139.7708179, 38.7979341], [139.7710313, 38.7984183], [139.7711263, 38.7986769], [139.7713289, 38.7992267], [139.7714827, 38.7995899], [139.7715885, 38.7998034], [139.7717629, 38.800053], [139.7721921, 38.8004659], [139.7724998, 38.8008213], [139.7728047, 38.8012726], [139.773168, 38.8018248], [139.7734566, 38.8022606], [139.7741845, 38.8033675], [139.7745786, 38.8038514], [139.7746763, 38.8039914], [139.7754343, 38.8049745], [139.7764829, 38.8060619], [139.7768297, 38.8063917], [139.7771403, 38.8067034], [139.777462, 38.8071279], [139.778188, 38.8083027], [139.778329, 38.8084914], [139.7784398, 38.8086587], [139.7785304, 38.8088896], [139.7785925, 38.8090502], [139.7786172, 38.8091141], [139.7786791, 38.8095882], [139.7789818, 38.8127825], [139.7790167, 38.813437], [139.7789982, 38.8135878], [139.7789407, 38.8139358], [139.7787246, 38.8150044], [139.7785199, 38.8160599], [139.7784552, 38.8164348], [139.7784841, 38.8168504], [139.7787145, 38.818961], [139.7786837, 38.8198185], [139.778623, 38.820841], [139.7785949, 38.8213303], [139.7784966, 38.8230317], [139.7784612, 38.8235939], [139.7784506, 38.8240743], [139.7785308, 38.8246038], [139.7786227, 38.8250384], [139.7787205, 38.8254911], [139.7788042, 38.8259083], [139.7788061, 38.8259338], [139.7788887, 38.8263541], [139.778982, 38.8267922], [139.7790594, 38.827204], [139.7791231, 38.827591], [139.779295, 38.828374], [139.7794664, 38.8288225], [139.7796518, 38.8292599], [139.779791, 38.829681], [139.7799207, 38.8299171], [139.7800504, 38.8301532], [139.7802717, 38.8304559], [139.780512, 38.8306839], [139.7805637, 38.8307329], [139.781233, 38.831263], [139.781407, 38.8313801], [139.782129, 38.831866], [139.782647, 38.8322407], [139.7830321, 38.8326123], [139.7831711, 38.8327739], [139.783302, 38.832926], [139.7834899, 38.8331642], [139.7837579, 38.8335747], [139.783947, 38.8339276], [139.7851077, 38.8361789], [139.786335, 38.839097], [139.786559, 38.839606], [139.786749, 38.840203], [139.786976, 38.840915], [139.787464, 38.84227], [139.787923, 38.843], [139.7884293, 38.8436542], [139.7886094, 38.8438193], [139.7890379, 38.8442123], [139.7898538, 38.8448141], [139.7902744, 38.8451482], [139.7904353, 38.8453195], [139.7911566, 38.8469742], [139.7911908, 38.8470668], [139.7912969, 38.8473185], [139.7914136, 38.8476172], [139.7921336, 38.8493495], [139.792443, 38.8500494], [139.7927069, 38.8506324], [139.7929349, 38.8511507], [139.7931629, 38.8516738], [139.7933108, 38.8519857], [139.793979, 38.852938], [139.795511, 38.854749], [139.795643, 38.854926], [139.7958496, 38.8551385], [139.7964781, 38.8560454], [139.7975133, 38.8579024], [139.7986871, 38.8599253], [139.7988794, 38.8606529], [139.7989941, 38.8611947], [139.799302, 38.8637785], [139.7994975, 38.8652821], [139.7995715, 38.8667022], [139.7996208, 38.8674459], [139.7996208, 38.8677962], [139.8000336, 38.8693506], [139.8004773, 38.871097], [139.8005821, 38.8714999], [139.8006745, 38.8719701], [139.8007238, 38.8735293], [139.8007423, 38.8741098], [139.8007793, 38.8745943], [139.8008068, 38.8751112], [139.800958, 38.8760766], [139.8010196, 38.8763021], [139.8010487, 38.876382], [139.8012414, 38.8769114], [139.8014448, 38.8773911], [139.8017405, 38.8779811], [139.8022338, 38.8788107], [139.8028912, 38.8799765], [139.8030217, 38.8802689], [139.8030634, 38.8804151], [139.8030687, 38.8804387], [139.8031313, 38.8807157], [139.8032456, 38.8814057], [139.8032508, 38.8814844], [139.8033042, 38.8816513], [139.8034023, 38.8820817], [139.8034548, 38.882312], [139.8036223, 38.8828888], [139.803653, 38.8829943], [139.8039765, 38.8838351], [139.8046131, 38.8859755], [139.8050879, 38.8876163], [139.8055994, 38.8891002], [139.8061333, 38.8911719], [139.806199, 38.8912924], [139.8062507, 38.8913536], [139.8062675, 38.8913796], [139.8064391, 38.8915602], [139.807032, 38.892028], [139.8082308, 38.8927502], [139.8085359, 38.8929168], [139.8106287, 38.8941113], [139.812655, 38.8952689], [139.8150921, 38.8966106], [139.8163537, 38.8973399], [139.8166302, 38.8974997], [139.8171106, 38.8977569], [139.817419, 38.8979156], [139.8179367, 38.8981932], [139.8183471, 38.8985021], [139.8188815, 38.8988273], [139.8196675, 38.8992705], [139.820003, 38.8994597], [139.8202137, 38.8995846], [139.8206137, 38.8998216], [139.82104, 38.9000743], [139.8212251, 38.900195], [139.8214799, 38.9003766], [139.8218839, 38.9006776], [139.8219969, 38.9007598], [139.822328, 38.9010009], [139.8232347, 38.9015908], [139.8244538, 38.9022924], [139.8312188, 38.90619], [139.8312928, 38.9062326], [139.8324785, 38.9068667], [139.8332584, 38.9072988], [139.8340608, 38.9077544], [139.8340611, 38.9077545], [139.8342288, 38.907852], [139.8342516, 38.907867], [139.8346122, 38.9080682], [139.8353463, 38.9085208], [139.8354856, 38.9086153], [139.8358531, 38.9088645]], [[139.8179367, 38.8981932], [139.8183766, 38.8983581], [139.8189348, 38.8986933], [139.8189903, 38.8987263], [139.8197365, 38.8991451], [139.8200652, 38.8993384], [139.8211527, 38.8999884], [139.8216167, 38.9003078], [139.8219939, 38.9005795], [139.8221108, 38.9006537], [139.8226118, 38.9009716], [139.8230758, 38.9012492], [139.8233693, 38.9014213], [139.8245871, 38.9021382], [139.8313869, 38.9060375], [139.8314531, 38.9060749], [139.8323461, 38.9065923], [139.8333444, 38.9072067], [139.8340881, 38.9076326], [139.8341351, 38.9076586], [139.8342625, 38.9077341], [139.8343242, 38.9077704], [139.8347649, 38.9080162], [139.8350367, 38.9081828], [139.8354345, 38.9084245], [139.8358747, 38.908732], [139.8358531, 38.9088645], [139.8357509, 38.9091879], [139.8356356, 38.9095526], [139.8356003, 38.9096613], [139.8353247, 38.9105087], [139.8353035, 38.9105747], [139.8350481, 38.9114169], [139.8349296, 38.9118075], [139.8348708, 38.9121581], [139.8349213, 38.9123362], [139.8349413, 38.9123881], [139.8350479, 38.9126516], [139.8350944, 38.9127333], [139.8351211, 38.9127915], [139.8353171, 38.9131582], [139.835367, 38.9132532], [139.8356142, 38.9137467], [139.8360752, 38.9146321], [139.8363885, 38.9152104], [139.8366941, 38.915806], [139.8367527, 38.9159252], [139.8368457, 38.9161143], [139.8370105, 38.9164494], [139.8371813, 38.9168075], [139.837358, 38.9171564], [139.8375349, 38.9175105], [139.8377543, 38.9179496], [139.8378905, 38.9182148], [139.8383612, 38.9191314], [139.8385873, 38.9196236], [139.8386764, 38.9199701], [139.838754, 38.9203645], [139.8387637, 38.9204352], [139.8388065, 38.9207483], [139.8388157, 38.9211286], [139.8388157, 38.9213329], [139.8388217, 38.9214396], [139.8388472, 38.9215679], [139.8389116, 38.9217487], [139.8390108, 38.921887], [139.8383456, 38.9220426], [139.8376418, 38.9221664], [139.8368505, 38.9223006], [139.8353374, 38.9224824], [139.8351801, 38.9224786], [139.8346865, 38.9224594], [139.8345211, 38.922447], [139.8342957, 38.9227234], [139.8341964, 38.9228842], [139.8340856, 38.9230637], [139.8340381, 38.9231406], [139.8339901, 38.9232184], [139.8338556, 38.9233698], [139.8336863, 38.9234844], [139.8334329, 38.9236492], [139.8330609, 38.9238932], [139.8328506, 38.9241037], [139.8322635, 38.924699], [139.8319103, 38.9251043], [139.8317363, 38.9253005], [139.8316397, 38.9254076], [139.831138, 38.9259776], [139.8301961, 38.9270721], [139.8300103, 38.9273482], [139.8299419, 38.9274744], [139.8298842, 38.9275713], [139.8298413, 38.9276839], [139.8293006, 38.9287578], [139.8288956, 38.9294884], [139.8278446, 38.9316604], [139.8273556, 38.932594], [139.8268738, 38.9336237], [139.826427, 38.9346378], [139.8262045, 38.9351429], [139.825601, 38.9366475], [139.8254345, 38.9370626], [139.8248766, 38.9383937], [139.8248005, 38.9386086], [139.8252301, 38.9389105], [139.8253046, 38.9389597], [139.8260482, 38.9395214], [139.8261678, 38.9396121], [139.826366, 38.9397563], [139.8274453, 38.9405558], [139.8275798, 38.9406606], [139.828419, 38.9412777], [139.8302321, 38.9426128], [139.830509, 38.9428228], [139.8313282, 38.9434695], [139.8319915, 38.9440608], [139.8325177, 38.9445961], [139.8330734, 38.9451856], [139.8334698, 38.9456528], [139.8340782, 38.946464], [139.8345819, 38.9472433], [139.8348662, 38.9477364], [139.8350478, 38.9480888], [139.8356809, 38.9495822], [139.8358701, 38.9500429], [139.8360526, 38.9505529], [139.8363953, 38.9514786], [139.8366505, 38.9522442], [139.8368396, 38.9527667], [139.8368702, 38.9528564]], [[140.3327305, 38.2587578], [140.3324027, 38.258858], [140.3319532, 38.2589833], [140.3311535, 38.2592186], [140.3302694, 38.2594066], [140.3292793, 38.2595672], [140.3282895, 38.2596664], [140.3273439, 38.259737], [140.3265333, 38.2598095], [140.3260236, 38.259874], [140.325531, 38.2599316], [140.3253982, 38.2599908], [140.3255139, 38.2604746], [140.3256404, 38.2610528], [140.3256516, 38.2611349], [140.3256047, 38.2616902], [140.3255495, 38.2620885], [140.3255454, 38.2621222], [140.3253819, 38.2633746], [140.3253539, 38.2635911], [140.3251494, 38.2651761]], [[140.3330338, 38.25878], [140.3336286, 38.2586184], [140.3340386, 38.2584439]]]}, "id": "relation/3118835"}]}