{"type": "FeatureCollection", "generator": "kokudo-quiz tools/fetch_raw.py (Overpass API)", "copyright": "The data included in this document is from www.openstreetmap.org. The data is made available under ODbL.", "timestamp": "2026-09-30T14:37:59Z", "features": [{"type": "Feature", "properties": {"@id": "relation/965403", "colour": "red", "from": "長野県長野市", "name": "国道117号", "name:en": "National Highway Route 117", "name:ja": "国道117号", "name:ja-Hira": "こくどうひゃくじゅうななごう", "name:ja-Latn": "kokudou 117 gou", "network": "JP:national", "official_name": "一般国道117号", "official_name:en": "National Highway Route 117", "ref": "117", "route": "road", "to": "新潟県小千谷市", "type": "route", "wikidata": "Q11421404", "wikipedia": "ja:国道117号"}, "geometry": {"type": "MultiLineString", "coordinates": [[[138.1818634, 36.6411419], [138.1818593, 36.6410288], [138.1818568, 36.6409528], [138.1818303, 36.6390746], [138.1818299, 36.6384457], [138.1818307, 36.637824], [138.1818236, 36.6376767], [138.1818179, 36.6375591], [138.1818172, 36.6374479], [138.1818144, 36.6370374], [138.1818126, 36.6367758], [138.1818133, 36.6366957], [138.1818174, 36.6362023], [138.1818394, 36.6359109], [138.1819042, 36.6353928], [138.1820343, 36.634726], [138.1820465, 36.6346658], [138.1821165, 36.6343558], [138.182172, 36.6341102], [138.1822285, 36.6338561], [138.1822918, 36.6335748], [138.1823768, 36.6331232], [138.1823994, 36.6330028], [138.1824443, 36.6327796], [138.1824612, 36.6326952], [138.1825067, 36.632469], [138.1825227, 36.6323895], [138.1825387, 36.6323072], [138.1825584, 36.6322112], [138.1825711, 36.6321494], [138.1826227, 36.6318812], [138.1827494, 36.631283], [138.1828121, 36.6310203], [138.1828452, 36.6308478], [138.1829189, 36.6304871], [138.1830039, 36.6300569], [138.1830788, 36.6296863], [138.1831064, 36.6295042], [138.1831303, 36.6292871], [138.1831488, 36.6290352], [138.1831538, 36.6288454], [138.1831554, 36.6287216], [138.1831563, 36.6285869]], [[138.1829741, 36.627034], [138.1829955, 36.6268338], [138.1829807, 36.6266624], [138.1829214, 36.6262694], [138.1821846, 36.6213831], [138.1821661, 36.6212721], [138.1819764, 36.6203198], [138.1819008, 36.6199331], [138.1817569, 36.6188148], [138.1817014, 36.6185797], [138.1815926, 36.6182232], [138.1813962, 36.6178036], [138.1812926, 36.6176173], [138.1812459, 36.6175331], [138.1811167, 36.6172908], [138.1809842, 36.6171317], [138.1808336, 36.6169764], [138.1807191, 36.6168784], [138.1805847, 36.6167714], [138.1803758, 36.6166113], [138.1803216, 36.6165414], [138.1802651, 36.6164463], [138.1802234, 36.616359], [138.1801982, 36.6162902], [138.1801843, 36.6162235], [138.1801681, 36.6161072], [138.1801268, 36.615678], [138.1801165, 36.6155661], [138.1800767, 36.6150689], [138.1800386, 36.6145919], [138.1800261, 36.6144788], [138.1800194, 36.614366], [138.1798948, 36.6129835], [138.1798857, 36.6128825], [138.1798576, 36.6125757], [138.1798095, 36.6120256], [138.1796996, 36.6108824], [138.1796602, 36.6105621], [138.1796417, 36.6104121]], [[138.1831563, 36.6285869], [138.183152, 36.6284785], [138.183142, 36.6282811], [138.183116, 36.6280336], [138.1829741, 36.627034], [138.182903, 36.6268811], [138.1828769, 36.6267993], [138.1828618, 36.6266723], [138.182804, 36.6263005], [138.1820397, 36.6213882], [138.1820323, 36.6213404], [138.1820243, 36.621289], [138.1819597, 36.6208553], [138.1818791, 36.6203387], [138.1818085, 36.6199256], [138.1817564, 36.6195601], [138.181693, 36.6191867], [138.1816655, 36.6189977], [138.1816259, 36.618754], [138.1815587, 36.6184286], [138.1814513, 36.6181189], [138.1814052, 36.6180319], [138.181357, 36.6179407], [138.1812279, 36.6176832], [138.1811903, 36.6176133], [138.1811399, 36.6175253], [138.181114, 36.617484], [138.1809783, 36.6173079], [138.180814, 36.6171066], [138.1806625, 36.6169455], [138.1805139, 36.6168058], [138.1803795, 36.6166923], [138.180234, 36.6165749], [138.1800976, 36.6164767], [138.1800805, 36.6162893], [138.1800653, 36.6161095], [138.1800176, 36.615605], [138.1799711, 36.6151496], [138.1799236, 36.6146313], [138.1799149, 36.6145205], [138.1799025, 36.6143993], [138.1797753, 36.6129916], [138.1797661, 36.6128902], [138.179687, 36.612021], [138.179575, 36.610768], [138.1795472, 36.6105675], [138.179546, 36.610559], [138.1795243, 36.6104193], [138.1796417, 36.6104121], [138.1797435, 36.6104089], [138.1812799, 36.610361], [138.1815241, 36.6103528], [138.1834222, 36.6102831], [138.1834818, 36.6102809], [138.1849035, 36.6102384], [138.186324, 36.6101815], [138.1873188, 36.6101196], [138.1888534, 36.6099898], [138.1896403, 36.6099342], [138.1897769, 36.6099245], [138.1907622, 36.6098984], [138.191386, 36.6098697], [138.1920699, 36.6098189], [138.1921222, 36.6098177], [138.1933313, 36.6097915], [138.193644, 36.6097871], [138.1942348, 36.609779], [138.1949742, 36.6098136], [138.1955359, 36.6098556], [138.1959475, 36.6098792], [138.1961758, 36.609907], [138.1965196, 36.6112086], [138.1968746, 36.6124636], [138.1970225, 36.6129639], [138.1971279, 36.6133326], [138.1971598, 36.6134581], [138.1972943, 36.6139869], [138.1974097, 36.6144407], [138.1982196, 36.6173315], [138.1994191, 36.6217586], [138.1998156, 36.6232314], [138.200209, 36.6246775], [138.2002531, 36.6248397], [138.2002614, 36.6248779], [138.2003532, 36.6252003], [138.2006011, 36.6261264], [138.2006444, 36.626288], [138.2006687, 36.6263183], [138.2008746, 36.6270618], [138.2010366, 36.6276239], [138.2011802, 36.6280112], [138.2013022, 36.628285], [138.2014112, 36.6284924], [138.2015337, 36.6286954], [138.2017516, 36.6289946], [138.2020023, 36.6292933], [138.2021976, 36.6295168], [138.2023955, 36.629735], [138.2048606, 36.632229], [138.2053178, 36.6326877], [138.2057982, 36.6331801], [138.2059212, 36.6333048], [138.2062288, 36.6336069], [138.2064264, 36.6337994], [138.2065553, 36.6339049]], [[138.1961758, 36.609907], [138.1963522, 36.6099177], [138.1967439, 36.6113883], [138.1967893, 36.6115576], [138.1970245, 36.6124765], [138.1972789, 36.6134608], [138.1975341, 36.6143448], [138.1975543, 36.6144302], [138.1983143, 36.6173], [138.1995166, 36.6217238], [138.2002232, 36.624297], [138.2003639, 36.6248125], [138.2004707, 36.6251706], [138.2005864, 36.625603], [138.2006291, 36.6257683], [138.2007471, 36.6261952], [138.2007423, 36.62624], [138.2009436, 36.6270477], [138.2010984, 36.6276109], [138.2012392, 36.6279943], [138.2013571, 36.6282705], [138.2014674, 36.6284737], [138.2015831, 36.628677], [138.2018002, 36.6289812], [138.2020415, 36.6292749], [138.2022415, 36.6294971], [138.2024415, 36.6297192], [138.2029606, 36.6302634], [138.2049068, 36.6321973], [138.2059825, 36.6332826], [138.2062062, 36.6335083], [138.2062922, 36.6335951], [138.2064646, 36.6337772], [138.2065553, 36.6339049], [138.2069376, 36.634292], [138.2080577, 36.635421], [138.2085762, 36.635953], [138.2088847, 36.6362641], [138.2090585, 36.636439], [138.2097393, 36.6371259], [138.2102511, 36.6376478], [138.2107837, 36.638191], [138.2107977, 36.6382068], [138.211213, 36.6386288], [138.2116876, 36.6391128], [138.212385, 36.639824], [138.2126168, 36.6400523], [138.2137204, 36.6411572], [138.21377, 36.6412102], [138.2141705, 36.6415808], [138.2143108, 36.6417315], [138.2144709, 36.6418883], [138.2148628, 36.6422964], [138.2155023, 36.6429525], [138.2156701, 36.6431292], [138.2160257, 36.6434925], [138.2163736, 36.6438266], [138.2164747, 36.6439328], [138.2174367, 36.6449028], [138.2183164, 36.6458009], [138.218413, 36.6458965], [138.2187351, 36.6462271], [138.2190176, 36.6464968], [138.2195524, 36.6470275], [138.2195795, 36.647054], [138.2196103, 36.6470859], [138.2198862, 36.6473863], [138.2203418, 36.6478375], [138.2205668, 36.6480603], [138.2209476, 36.6484337], [138.2213035, 36.648803], [138.2222947, 36.649805], [138.2228008, 36.6503305], [138.2229069, 36.6504405], [138.2235166, 36.6510639], [138.2243929, 36.6519301], [138.2257107, 36.6532324], [138.2259442, 36.6534182], [138.2259659, 36.6534586], [138.2261872, 36.6536114], [138.2264217, 36.6537523], [138.2264809, 36.6537879], [138.2267211, 36.653919], [138.2267746, 36.6539482], [138.2272836, 36.6541818], [138.227412, 36.6542357], [138.2275947, 36.6542973], [138.2279709, 36.654414], [138.228031, 36.6544027]], [[138.2259442, 36.6534182], [138.2260043, 36.65343], [138.2261637, 36.6535333], [138.226444, 36.6537068], [138.2265058, 36.653743], [138.226754, 36.6538738], [138.2270761, 36.6540301], [138.2273134, 36.6541447], [138.2274113, 36.6541828], [138.2276912, 36.6542789], [138.2279854, 36.6543644], [138.228031, 36.6544027], [138.2280648, 36.6544112], [138.2283067, 36.654457], [138.2285486, 36.6545027], [138.2287867, 36.6545382], [138.2290247, 36.6545704], [138.229217, 36.6545944], [138.2294181, 36.6546078], [138.2294638, 36.6546105], [138.2303754, 36.6546482], [138.231758, 36.654745], [138.2324928, 36.6547947], [138.2343653, 36.6549022], [138.2344474, 36.6549073], [138.2350504, 36.6549453], [138.2355648, 36.6549847], [138.2368271, 36.6550827], [138.2369729, 36.6550944], [138.2373262, 36.6551226], [138.2380379, 36.6551796], [138.2381067, 36.6551851], [138.2387929, 36.6552388], [138.2393762, 36.6552901], [138.2406966, 36.65539], [138.2419272, 36.6555155], [138.2432627, 36.6556142], [138.2436566, 36.655647], [138.2441397, 36.6556897], [138.2442921, 36.6557053], [138.2447987, 36.6557569], [138.2451279, 36.6557909], [138.2452249, 36.6557987], [138.2459766, 36.6559665], [138.247022, 36.6562684], [138.2478916, 36.6565195], [138.2479358, 36.6565315], [138.2480415, 36.656561], [138.2490388, 36.6568502], [138.2493252, 36.6569333], [138.2504343, 36.657255], [138.2511052, 36.6574435], [138.2514873, 36.657592], [138.2519349, 36.6577924], [138.2544064, 36.6591082], [138.2545162, 36.6592082], [138.2549104, 36.6594373], [138.2552581, 36.6596307], [138.2558231, 36.6599532], [138.256056, 36.6600766], [138.2563961, 36.6602723], [138.2565494, 36.6603431], [138.2573193, 36.6606806], [138.2579731, 36.6609418], [138.2583379, 36.6610768], [138.2588617, 36.6612845], [138.2595031, 36.6615243], [138.2596943, 36.6616059], [138.2600968, 36.6617608], [138.2601781, 36.6617796], [138.2606832, 36.661995], [138.2610316, 36.6621418]], [[138.2544064, 36.6591082], [138.2545033, 36.6591162], [138.2549663, 36.6593682], [138.2553196, 36.6595647], [138.2558649, 36.6598812], [138.2560811, 36.6600149], [138.2564093, 36.660188], [138.2565981, 36.6602709], [138.2567553, 36.6603364], [138.2573177, 36.6605709], [138.2580205, 36.6608651], [138.2583405, 36.6609906], [138.2589116, 36.6612234], [138.2595355, 36.6614711], [138.260996, 36.6620244], [138.2610316, 36.6621418], [138.2611245, 36.6623026], [138.2612586, 36.662479], [138.2613037, 36.6625272], [138.2613713, 36.6625995], [138.2615978, 36.6628469], [138.2616515, 36.6629139], [138.2617626, 36.6630561], [138.2618684, 36.6632048], [138.2620504, 36.6635109], [138.2626099, 36.6647992], [138.2632464, 36.6662122], [138.2634762, 36.6667157], [138.2634867, 36.66674], [138.2636262, 36.6670609], [138.2642239, 36.6684122], [138.2646118, 36.6692887], [138.2650075, 36.6701826], [138.2650498, 36.6702747], [138.2654912, 36.6712692], [138.2659018, 36.6721914], [138.2662283, 36.6729281], [138.2667589, 36.6741161], [138.2672445, 36.6752065], [138.2673829, 36.6755273], [138.2674407, 36.6757581], [138.2674939, 36.676066], [138.2675207, 36.6762542], [138.2675528, 36.6768], [138.2676595, 36.6788909], [138.267694, 36.6795658], [138.2677322, 36.6801537], [138.2677807, 36.6812295], [138.2678085, 36.6818547], [138.2678102, 36.6818922], [138.2678864, 36.6832555], [138.267948, 36.6843306], [138.2679777, 36.6849256], [138.268022, 36.685812], [138.2681419, 36.6878206], [138.2682613, 36.689959], [138.2684215, 36.6911077], [138.2686857, 36.6924487], [138.2688033, 36.6928809], [138.2689504, 36.6934219], [138.2689596, 36.6934468], [138.2694452, 36.6947869], [138.2695373, 36.6950239], [138.2695621, 36.6950787], [138.2698835, 36.6957787], [138.2699781, 36.6959801], [138.270133, 36.6962815], [138.2705212, 36.6970011], [138.2712055, 36.6981243], [138.2716154, 36.6987135], [138.2724228, 36.6997456], [138.272695, 36.7000864], [138.2729093, 36.7003289], [138.2731145, 36.7005485], [138.2736818, 36.7011557], [138.2737153, 36.7011997], [138.2739935, 36.7014781], [138.2748534, 36.7022901], [138.2748956, 36.7023327], [138.2751959, 36.7026041], [138.2754116, 36.7027957], [138.2776416, 36.7044012], [138.2790102, 36.7052833], [138.2804509, 36.7062118], [138.2827222, 36.707641], [138.2835039, 36.7081452], [138.2846252, 36.7088684], [138.2855863, 36.7094883], [138.286899, 36.710286], [138.2880267, 36.7110282], [138.2901113, 36.7123276], [138.291655, 36.713292], [138.2922529, 36.7136728], [138.2927922, 36.7140117], [138.2934695, 36.714445], [138.2939822, 36.7147793], [138.2946478, 36.7151922], [138.2946776, 36.7152111], [138.2951651, 36.7155206], [138.2957501, 36.715892], [138.2962307, 36.716181], [138.296855, 36.716591], [138.2987393, 36.7177758], [138.2987919, 36.7178096], [138.2988459, 36.7178439], [138.2995829, 36.718305], [138.2995912, 36.7183101], [138.3000893, 36.7186326], [138.3009525, 36.7192211], [138.3014891, 36.719638], [138.3025388, 36.7205269], [138.3027104, 36.7206695], [138.3027834, 36.7207609], [138.3028383, 36.7208508], [138.3028718, 36.7209345], [138.3028917, 36.7210352], [138.3032121, 36.7210225], [138.3032802, 36.7210224], [138.3034735, 36.7210221], [138.3036815, 36.7210376], [138.3038849, 36.7210645], [138.3041889, 36.7211295], [138.3044365, 36.7212106], [138.3046719, 36.7212977], [138.3048342, 36.7213961], [138.3049591, 36.721487], [138.3050944, 36.7216272], [138.3051681, 36.7217342], [138.3052113, 36.7218461], [138.3052338, 36.7219416], [138.3052498, 36.7220378], [138.3052432, 36.7221921], [138.3052193, 36.7223492], [138.3051869, 36.7224952], [138.3051517, 36.7226069], [138.3050839, 36.7228346], [138.304827, 36.7237097], [138.3046977, 36.7242621], [138.304688, 36.7244145], [138.30469, 36.7245661], [138.3047011, 36.7246995], [138.3047202, 36.7248456], [138.3047565, 36.724992], [138.3047993, 36.7251363], [138.3048583, 36.7252734], [138.3049277, 36.7254123], [138.3050145, 36.7255787], [138.3051114, 36.7257423], [138.3055088, 36.7263594], [138.3056677, 36.7266081], [138.3059449, 36.7270557], [138.3062741, 36.7275787], [138.3064116, 36.727805], [138.3065297, 36.7280081], [138.3066182, 36.728178], [138.3066597, 36.7282764], [138.3066946, 36.7283854], [138.3067174, 36.7285161], [138.3067308, 36.7286234], [138.3067342, 36.7287611], [138.3067147, 36.7290604], [138.306673, 36.7295468], [138.306597, 36.7306049], [138.3065804, 36.73097], [138.3064993, 36.7320983], [138.3064887, 36.7324716], [138.3065077, 36.7326338], [138.3066898, 36.7333753], [138.306704, 36.7334967], [138.3067051, 36.733622], [138.3066972, 36.7337359], [138.3066789, 36.7338452], [138.3066349, 36.7339934], [138.3065627, 36.7341649], [138.3061296, 36.7348636], [138.3058896, 36.7352007], [138.305609, 36.735502], [138.3052909, 36.7360224], [138.3050763, 36.7364867], [138.3049587, 36.7369398], [138.3048281, 36.737509], [138.3048262, 36.7376551], [138.3048846, 36.7379364], [138.3050227, 36.7383794], [138.3051739, 36.7388319], [138.305315, 36.7392542], [138.3056911, 36.7403043], [138.3058179, 36.7404901], [138.3059821, 36.7406629], [138.3060888, 36.7407469], [138.3062609, 36.7408871], [138.3068382, 36.7411921], [138.3077022, 36.7416197], [138.3082577, 36.7419212], [138.3085872, 36.74222], [138.3086683, 36.7423314], [138.30868, 36.7423573], [138.3088469, 36.7427279], [138.30891, 36.7430564], [138.3089246, 36.7432397], [138.3089858, 36.7439234], [138.3090232, 36.7440426], [138.3091118, 36.7442747], [138.3091925, 36.7444226], [138.30922, 36.7444603], [138.3092918, 36.7445587], [138.3094228, 36.744676], [138.3095572, 36.7447785], [138.3097177, 36.7448797], [138.3100208, 36.7450544], [138.3107081, 36.7454363], [138.3116365, 36.7459584], [138.3116877, 36.7459856], [138.3118443, 36.7460713], [138.3119776, 36.7461556], [138.3121006, 36.7462398], [138.3122099, 36.7463177], [138.3122423, 36.7463429], [138.3123443, 36.7464221], [138.3125143, 36.7465854], [138.3126068, 36.7466762], [138.3127758, 36.7468421], [138.3127898, 36.7468559], [138.3134432, 36.7474971], [138.3140983, 36.7481423], [138.3146003, 36.7486355], [138.3146779, 36.748739], [138.3148923, 36.7491508], [138.3148963, 36.7491717], [138.3149369, 36.7493836], [138.3149823, 36.7496209], [138.315027, 36.7499997], [138.3150652, 36.7503082], [138.3151539, 36.7508557], [138.3152345, 36.7511541], [138.3153937, 36.7516212], [138.3155383, 36.7520212], [138.3157934, 36.7525935], [138.3159889, 36.7529647], [138.3163753, 36.7535892], [138.3164568, 36.7536915], [138.3168058, 36.754132], [138.317052, 36.754454], [138.3171848, 36.7546464], [138.3172614, 36.754788], [138.3173091, 36.754918], [138.3173377, 36.75505], [138.3173536, 36.7551831], [138.3173548, 36.7553097], [138.3173438, 36.7554399], [138.3173175, 36.7555728], [138.3172441, 36.755941], [138.3171975, 36.756156], [138.3171828, 36.7562732], [138.3171805, 36.7563872], [138.3172196, 36.7566233], [138.317248, 36.7567278], [138.3174266, 36.7574693], [138.3174733, 36.7576857], [138.3175057, 36.7579017], [138.3176656, 36.7600911], [138.3177497, 36.760606], [138.3179096, 36.7612944], [138.3181004, 36.76203], [138.3182111, 36.7624569], [138.3185119, 36.7636224], [138.3185998, 36.7639819], [138.3186308, 36.7641446], [138.3186851, 36.764358], [138.3187052, 36.764438], [138.3189558, 36.7654378], [138.319144, 36.7661186], [138.3192589, 36.7664334], [138.3194635, 36.7668103], [138.3197636, 36.767312], [138.3201523, 36.7679265], [138.3202915, 36.7680962], [138.3209686, 36.7688305], [138.3224408, 36.7704373], [138.3233323, 36.7714056], [138.3233511, 36.7714267], [138.3237118, 36.7718247], [138.3242093, 36.7723479], [138.3243572, 36.7724706], [138.3246033, 36.7726424], [138.3246733, 36.7726879], [138.3247892, 36.7727576], [138.3252383, 36.7730375], [138.3253315, 36.7730956], [138.3255615, 36.7732619], [138.3256343, 36.7733233], [138.3256964, 36.773389], [138.3257477, 36.7734611], [138.3257937, 36.7735376], [138.3258481, 36.7736604], [138.3258864, 36.7737832], [138.3258947, 36.77385], [138.3258949, 36.7739318], [138.3258819, 36.7740268], [138.325864, 36.7741081], [138.3258354, 36.7741743], [138.3258028, 36.7742395], [138.3257647, 36.7743004], [138.3257156, 36.7743724], [138.3255851, 36.7745122], [138.3253174, 36.7747616], [138.3245493, 36.7755081], [138.3224678, 36.7774952], [138.322323, 36.7776499], [138.3221917, 36.7778419], [138.3221028, 36.7780176], [138.3220291, 36.7782298], [138.3219576, 36.7784643], [138.3218407, 36.7788464], [138.3217801, 36.7790578], [138.3217002, 36.7792642], [138.3215979, 36.7794556], [138.3214891, 36.7796111], [138.3213716, 36.7797679], [138.3211964, 36.7799401], [138.3207348, 36.7803928], [138.3205168, 36.7806211], [138.3203672, 36.7808036], [138.320224, 36.7810196], [138.3201211, 36.7812317], [138.320047, 36.7814413], [138.3199987, 36.7816582], [138.3199756, 36.781894], [138.3199814, 36.7821402], [138.3200281, 36.7825035], [138.3201502, 36.783545], [138.320169, 36.7837743], [138.3201671, 36.7840172], [138.3201428, 36.7842165], [138.3200994, 36.7843956], [138.3200335, 36.7845799], [138.3199572, 36.7847506], [138.319861, 36.7849225], [138.3197327, 36.7851073], [138.3195899, 36.7852663], [138.3194235, 36.7854297], [138.3188236, 36.7859546], [138.3186012, 36.7861573], [138.3184301, 36.7863471], [138.3182928, 36.7865429], [138.3181813, 36.7867515], [138.3180849, 36.7869854], [138.3180334, 36.7871987], [138.3179875, 36.7874536], [138.3179547, 36.7877203], [138.3178079, 36.7888869], [138.3177606, 36.7892304], [138.3177128, 36.7895049], [138.3176501, 36.7897645], [138.3175575, 36.7900418], [138.3174621, 36.7902813], [138.3173442, 36.7905337], [138.3172155, 36.7907731], [138.3170819, 36.791], [138.3169257, 36.7912493], [138.3167428, 36.7915166], [138.3165341, 36.7917992], [138.3161682, 36.7922874], [138.3158346, 36.7927287], [138.3154914, 36.7931907], [138.3151546, 36.7936732], [138.314571, 36.7945696], [138.3144422, 36.7947819], [138.3143467, 36.7949735], [138.3142577, 36.7951934], [138.3141986, 36.7954032], [138.3141643, 36.7956092], [138.3141525, 36.7958307], [138.3141653, 36.7960423], [138.3142007, 36.7962617], [138.3142554, 36.7964529], [138.3143326, 36.7966521], [138.3144259, 36.796836], [138.31456, 36.7970354], [138.3147081, 36.7972133], [138.3149249, 36.7974315], [138.3151509, 36.7976393], [138.3153818, 36.7978191], [138.3167022, 36.7986798], [138.3183046, 36.7997291], [138.3185069, 36.7998656], [138.3187898, 36.8000472], [138.3190221, 36.8001709], [138.3194023, 36.8003347], [138.3201539, 36.8005485], [138.3207014, 36.8007145], [138.3218077, 36.801055], [138.3228136, 36.8013538], [138.3238325, 36.8016546], [138.3247977, 36.8019515], [138.3251655, 36.8020783], [138.3254441, 36.8022107], [138.3257066, 36.8023732], [138.3257743, 36.8024092], [138.3258639, 36.8024735], [138.3259455, 36.8025396], [138.3271455, 36.8034775], [138.3275495, 36.8037978], [138.3280046, 36.8041651], [138.3299887, 36.8057552], [138.3310577, 36.806609], [138.3315925, 36.8070272], [138.3328384, 36.8079676], [138.3337731, 36.8086629], [138.3352394, 36.8097714], [138.3356757, 36.8100304], [138.3359962, 36.8101925], [138.3363242, 36.8103464], [138.3370945, 36.8106723], [138.3386277, 36.8113211], [138.3389256, 36.8114692], [138.3390339, 36.811528], [138.3393189, 36.8116982], [138.3395457, 36.8118484], [138.3401659, 36.8122718], [138.3409191, 36.812801], [138.3419554, 36.8135341], [138.3424327, 36.8138667], [138.3426478, 36.8140454], [138.3428819, 36.8142652], [138.3430633, 36.8144814], [138.3432322, 36.8147268], [138.3436296, 36.8154558], [138.3438677, 36.8159374], [138.343967, 36.8161563], [138.3440695, 36.8164441], [138.3441795, 36.8168135], [138.3442801, 36.8172016], [138.3445598, 36.8181738], [138.3446505, 36.8184264], [138.3447974, 36.8187087], [138.3449584, 36.8189236], [138.3452256, 36.8191746], [138.3455886, 36.8194677], [138.3465982, 36.82027], [138.3475424, 36.8210424], [138.3488096, 36.822013], [138.3502744, 36.8231656], [138.3506438, 36.8234382], [138.3508423, 36.8235941], [138.3511663, 36.8238485], [138.3516072, 36.8241875], [138.3518552, 36.8244136], [138.3520828, 36.8246252], [138.352535, 36.8250592], [138.3528614, 36.8254115], [138.3531527, 36.8257867], [138.3533648, 36.8261243], [138.3535642, 36.8264772], [138.3536256, 36.8265872], [138.3538232, 36.8270009], [138.3539644, 36.8274319], [138.3539875, 36.8275278], [138.3542985, 36.8288192], [138.3544129, 36.8292323], [138.3546883, 36.8301302], [138.3549249, 36.8306021], [138.355236, 36.8311774], [138.3554608, 36.8316416], [138.3562324, 36.8329459], [138.3566821, 36.8337294], [138.3572492, 36.8346357], [138.3582316, 36.8363792], [138.3586901, 36.8371709], [138.3587651, 36.837302], [138.3588253, 36.8373893], [138.3588971, 36.8374737], [138.358984, 36.8375475], [138.3591017, 36.8376291], [138.3592454, 36.8377146], [138.3600957, 36.838202], [138.3606882, 36.8385292], [138.3609678, 36.8387721], [138.3612274, 36.8391075], [138.3612614, 36.8391559], [138.3614769, 36.8394623], [138.3616553, 36.8397744], [138.3624847, 36.84139], [138.3628024, 36.8420279], [138.3631594, 36.8426744], [138.363898, 36.8441437], [138.3642241, 36.844968], [138.3644902, 36.8457991], [138.364889, 36.8471619], [138.3652198, 36.8482924], [138.3654491, 36.8491989], [138.365553, 36.8495184], [138.3656837, 36.8498156], [138.3658786, 36.8503183], [138.3661044, 36.8507955], [138.3668234, 36.8522173], [138.3671028, 36.8528715], [138.3672136, 36.8531185], [138.3674235, 36.8537128], [138.3675364, 36.8540724], [138.3678376, 36.8551856], [138.3681026, 36.8561227], [138.3683462, 36.8570684], [138.3685457, 36.8577653], [138.3687409, 36.8584861], [138.3691814, 36.8600607], [138.3693225, 36.8605652], [138.3694643, 36.8609566], [138.3697746, 36.8616959], [138.3703244, 36.862955], [138.3706138, 36.8636436], [138.3708416, 36.8641893], [138.3710471, 36.8646886], [138.3719574, 36.8667866], [138.3724767, 36.8677723], [138.3729358, 36.8684982], [138.3735454, 36.8693618], [138.3745324, 36.8705102], [138.3755233, 36.8715324], [138.3766252, 36.872523], [138.377458, 36.8731806], [138.3783464, 36.8738314], [138.3798482, 36.8749216], [138.3813414, 36.8759963], [138.3848544, 36.8785659], [138.385591, 36.8791121], [138.3863362, 36.8796514], [138.3879403, 36.8808074], [138.3889672, 36.8815407], [138.3911111, 36.8830902], [138.3916675, 36.8835194], [138.3927186, 36.8844088], [138.3934858, 36.8851353], [138.3944841, 36.8861023], [138.3956387, 36.8873253], [138.3961533, 36.8879331], [138.3967721, 36.8886792], [138.3972535, 36.8893071], [138.3977049, 36.8899349], [138.3977985, 36.8900714], [138.398382, 36.8909221], [138.3986213, 36.8912862], [138.3988007, 36.8915886], [138.3989919, 36.8920252], [138.3990784, 36.8922997], [138.3991657, 36.8928449], [138.3991682, 36.892917], [138.3991778, 36.8931969], [138.3991358, 36.8936197], [138.3989693, 36.8942126], [138.3986422, 36.8948802], [138.3985205, 36.8951406], [138.3983816, 36.8954558], [138.3982324, 36.8959287], [138.3979619, 36.8972449], [138.3977357, 36.8984095], [138.397363, 36.899961], [138.3971337, 36.9008599], [138.3971011, 36.9010788], [138.3970857, 36.9012703], [138.3970996, 36.9014244], [138.3971349, 36.9015562], [138.3971973, 36.9017024], [138.3972983, 36.9018709], [138.3974784, 36.9020906], [138.397695, 36.9022623], [138.3978924, 36.9023779], [138.3980792, 36.9024542], [138.4004554, 36.9031681], [138.4009311, 36.9033312], [138.4011238, 36.9034014], [138.4013215, 36.9035015], [138.4014719, 36.9036031], [138.4015926, 36.9037089], [138.4016958, 36.9038172], [138.4017977, 36.9039441], [138.4018845, 36.9040689], [138.4019495, 36.9042028], [138.4020026, 36.9043504], [138.4020296, 36.9044779], [138.4020481, 36.9046362], [138.402029, 36.9048654], [138.4019743, 36.9050703], [138.4018731, 36.9052815], [138.4015146, 36.9058182], [138.4005401, 36.9072765], [138.3997785, 36.908391], [138.3996154, 36.9086955], [138.3995065, 36.9090362], [138.3994505, 36.909324], [138.399291, 36.9105646], [138.399145, 36.9116231], [138.3990939, 36.9121831], [138.3990696, 36.9126436], [138.3990743, 36.9131679], [138.3991121, 36.9137721], [138.3991596, 36.9141965], [138.3992114, 36.9145696], [138.3992953, 36.915025], [138.3993746, 36.9154157], [138.3994876, 36.9157886], [138.3995883, 36.9160878], [138.3997823, 36.9165567], [138.399945, 36.9168506], [138.4001162, 36.9171037], [138.4003065, 36.9173394], [138.4004967, 36.9175273], [138.4008913, 36.9178691], [138.4016348, 36.9185002], [138.4035026, 36.9199477], [138.4038127, 36.9202075], [138.4040048, 36.9204029], [138.4040516, 36.9204684], [138.4041305, 36.9205905], [138.4042105, 36.920757], [138.4042485, 36.9208979], [138.4042676, 36.9210331], [138.4042651, 36.921196], [138.4042467, 36.9213448], [138.4042273, 36.9214631], [138.4040792, 36.9219011], [138.4040535, 36.9220401], [138.4040341, 36.9222198], [138.4040394, 36.9223636], [138.4040592, 36.9225339], [138.4041046, 36.9226904], [138.4041697, 36.9228482], [138.4041873, 36.922879], [138.404285, 36.9230499], [138.4045432, 36.9234527], [138.4047503, 36.9237758], [138.4049317, 36.924048], [138.4051296, 36.9243069], [138.4054145, 36.9246988], [138.4055882, 36.924969], [138.4057292, 36.9252929], [138.4058268, 36.925649], [138.4058627, 36.9259968], [138.4059482, 36.9269726], [138.4060181, 36.9273369], [138.4061634, 36.9276916], [138.4063127, 36.9279608], [138.406572, 36.9282932], [138.407628, 36.929442], [138.4078995, 36.9297342], [138.4081629, 36.9299934], [138.4084139, 36.9301967], [138.4086649, 36.9303704], [138.4090286, 36.9306004], [138.4094336, 36.9308173], [138.4098127, 36.9309682], [138.4102433, 36.9311185], [138.4106863, 36.931236], [138.4121429, 36.9315929], [138.4129074, 36.9317813], [138.4135892, 36.9319697], [138.4143872, 36.9322499], [138.4151646, 36.9325829], [138.415637, 36.9327527], [138.4159806, 36.9328525], [138.4163884, 36.9329259], [138.4170942, 36.9330301], [138.4174213, 36.9331053], [138.4177567, 36.9332003], [138.4192556, 36.9337408], [138.4205548, 36.93425], [138.4209538, 36.9344367], [138.4213445, 36.934696], [138.4217564, 36.9350184], [138.4223286, 36.9354842], [138.4223792, 36.9355251], [138.4229251, 36.9359907], [138.4231551, 36.936223], [138.4233056, 36.9364735], [138.4233442, 36.93658], [138.423393, 36.9367776], [138.4234087, 36.9369922], [138.4233743, 36.9374761], [138.4233451, 36.9377867], [138.4233464, 36.9379404], [138.4233578, 36.9381053], [138.423389, 36.9382538], [138.4234794, 36.9385536], [138.4236018, 36.9388534], [138.423885, 36.9395669], [138.4240226, 36.9398761], [138.4240993, 36.9400291], [138.4242081, 36.9401949], [138.4243369, 36.9403635], [138.42462, 36.9406621], [138.4252813, 36.9412911], [138.4253418, 36.9413357], [138.4257029, 36.941602], [138.4258707, 36.941695], [138.4261406, 36.9418446], [138.4269099, 36.9422333], [138.4272119, 36.9423457], [138.4275303, 36.9424422], [138.4277184, 36.942481], [138.4279206, 36.9424956], [138.4281157, 36.9424933], [138.4283248, 36.9424735], [138.4287313, 36.9424138], [138.4292284, 36.9423329], [138.4295436, 36.9423142], [138.4299006, 36.9423205], [138.4302865, 36.9423673], [138.4304358, 36.9424047], [138.4305216, 36.9424317], [138.4305678, 36.9424463], [138.4308391, 36.942542], [138.4310944, 36.9426424], [138.4325282, 36.9433399], [138.4328639, 36.9434792], [138.4333044, 36.9436317], [138.4335882, 36.943728], [138.4339509, 36.9438934], [138.434024, 36.9439475], [138.4342419, 36.9441042], [138.4343727, 36.9442443], [138.4344982, 36.9444054], [138.4351116, 36.9453505], [138.4351852, 36.9454685], [138.4354676, 36.9459181], [138.4356989, 36.9462665], [138.4358146, 36.9464736], [138.4358668, 36.9465951], [138.4359283, 36.94676], [138.435971, 36.9469231], [138.4359803, 36.9469584], [138.4360143, 36.9472056], [138.4360221, 36.9476291], [138.4360356, 36.947821], [138.4360516, 36.9479678], [138.4360789, 36.9481145], [138.436127, 36.9482949], [138.436188, 36.9484803], [138.4364174, 36.9490387], [138.436599, 36.949518], [138.4367673, 36.9499792], [138.4368477, 36.9502217], [138.4369243, 36.950397], [138.4370128, 36.9505656], [138.4371407, 36.9507881], [138.4375283, 36.951375], [138.4376604, 36.9516013], [138.4377588, 36.9518081], [138.4378627, 36.9520907], [138.4379366, 36.9522807], [138.4380071, 36.9524358], [138.4380995, 36.9525856], [138.4381859, 36.9526986], [138.4382982, 36.9528167], [138.4384348, 36.9529378], [138.4385638, 36.9530292], [138.4401997, 36.9540069], [138.4405873, 36.9542209], [138.4407867, 36.9543234], [138.440988, 36.9544095], [138.4415364, 36.9545525], [138.4415846, 36.9545662], [138.4420127, 36.9546877], [138.4421944, 36.9547883], [138.4423109, 36.9548863], [138.4424307, 36.9549824], [138.4434029, 36.9557826], [138.4439688, 36.9561765], [138.4442254, 36.9563091], [138.4445309, 36.9564131], [138.4448311, 36.9564618], [138.4452351, 36.9564856], [138.4453811, 36.9564796], [138.445832, 36.9565096], [138.4460549, 36.9565285], [138.4463633, 36.9565771], [138.4467934, 36.9567063], [138.4469019, 36.9567481], [138.4472091, 36.9568983], [138.4474539, 36.9570631], [138.4475533, 36.9571465], [138.4476502, 36.9572278], [138.447808, 36.9574011], [138.4479509, 36.9575759], [138.4480919, 36.9578039], [138.4481849, 36.9580076], [138.4482517, 36.9582083], [138.4483104, 36.9584935], [138.4483467, 36.9588057], [138.4484326, 36.9594862], [138.448428, 36.9599406], [138.448424, 36.9603435], [138.4484097, 36.9605696], [138.4483554, 36.9614271], [138.4484102, 36.9617117], [138.4484893, 36.961944], [138.4485888, 36.9621411], [138.4491028, 36.9627709], [138.4496118, 36.9634224], [138.45069, 36.9650482], [138.4514426, 36.9661002], [138.4516009, 36.9662858], [138.4517576, 36.9664067], [138.4519595, 36.9665377], [138.4521806, 36.9666511], [138.4524453, 36.9667659], [138.4534737, 36.967179], [138.456151, 36.968187], [138.456587, 36.968407], [138.4569611, 36.9686893], [138.4571922, 36.9690119], [138.4574474, 36.9695879], [138.4575746, 36.9697636], [138.4577718, 36.9699343], [138.4590242, 36.9709672], [138.4592986, 36.9712437], [138.4595351, 36.9715355], [138.4601112, 36.9721997], [138.4606272, 36.9729949], [138.4611074, 36.9737989], [138.4615465, 36.9743286], [138.4620434, 36.9747378], [138.4627396, 36.9751112], [138.4630778, 36.9752367], [138.4636515, 36.9753847], [138.4673041, 36.9760648], [138.4688405, 36.9763478], [138.4714844, 36.9766153], [138.4726782, 36.9766431], [138.4734763, 36.9765795], [138.4741647, 36.9764932], [138.4750487, 36.9762875], [138.4774665, 36.9754236], [138.4782905, 36.9751719], [138.4787782, 36.975061], [138.4796226, 36.9749514], [138.4800562, 36.9749237], [138.4810796, 36.974986], [138.4818999, 36.9751177], [138.4825331, 36.9752409], [138.4832656, 36.9754051], [138.4832801, 36.9754086], [138.4849847, 36.9758167], [138.4856451, 36.9759768], [138.4861174, 36.9761272], [138.4869096, 36.976471], [138.4873785, 36.9767791], [138.4875798, 36.9769255], [138.4887761, 36.9777939], [138.4890276, 36.9779666], [138.4894173, 36.9782331], [138.4897352, 36.9784192], [138.4897592, 36.9784349], [138.4901037, 36.9785987], [138.4903424, 36.9786887], [138.490754, 36.9788045], [138.4954335, 36.9798605], [138.4966613, 36.9801129], [138.4972938, 36.9802798], [138.497983, 36.980435], [138.4984034, 36.9805303], [138.5008906, 36.981154], [138.5022834, 36.9815368], [138.5025359, 36.9816061], [138.5025753, 36.981617], [138.5036307, 36.9819056], [138.5041184, 36.9821907], [138.5043439, 36.9824018], [138.5050303, 36.9831584], [138.5052698, 36.9834224], [138.505889, 36.9841241], [138.5062922, 36.9845713], [138.5067214, 36.9848435], [138.5071953, 36.9850311], [138.50771, 36.9851195], [138.5078316, 36.985122], [138.5085228, 36.9851361], [138.5094468, 36.9850992], [138.5096776, 36.985066], [138.5097864, 36.9850535], [138.5101918, 36.9849651], [138.5110339, 36.9847555], [138.5119206, 36.9845229], [138.5124194, 36.9844536], [138.5128538, 36.9844324], [138.513391, 36.9844604], [138.5140416, 36.9845987], [138.5150323, 36.9849252], [138.5155831, 36.9850406], [138.5160208, 36.9850639], [138.5190577, 36.9849719], [138.5193725, 36.9849971], [138.5196994, 36.9850386], [138.519855, 36.9850738], [138.5205473, 36.9852313], [138.5211153, 36.9853195], [138.5214275, 36.9853642], [138.5216884, 36.9853801], [138.5220194, 36.9853503], [138.5222408, 36.9852874], [138.5224744, 36.9851557], [138.5227948, 36.9850066], [138.5230222, 36.9849385], [138.5231514, 36.9849179], [138.5234904, 36.9849056], [138.5238653, 36.9849846], [138.5245432, 36.9852207], [138.5251042, 36.9854039], [138.5252582, 36.9854491], [138.5255231, 36.9854759], [138.5258537, 36.985473], [138.5261435, 36.9854322], [138.526446, 36.9853699], [138.5266442, 36.9853491], [138.5268771, 36.9853416], [138.5270972, 36.9853442], [138.5272813, 36.9853676], [138.5274654, 36.9854113], [138.528225, 36.9856384], [138.5287314, 36.9856854], [138.5292594, 36.9856534], [138.5308945, 36.9852646], [138.5311095, 36.9852124], [138.5316249, 36.9851317], [138.5321505, 36.9851257], [138.5329844, 36.985194], [138.5340916, 36.9852557], [138.5355309, 36.9852489], [138.5357308, 36.9852723], [138.5373317, 36.9854841], [138.537603, 36.9855087], [138.5379659, 36.9854725], [138.5381335, 36.9854565], [138.5387265, 36.9853928], [138.5396621, 36.9852832], [138.540992, 36.9851545], [138.5420955, 36.9850474], [138.5424394, 36.9850108], [138.54283, 36.984969], [138.543636, 36.9848], [138.544429, 36.98461], [138.545364, 36.984339], [138.54619, 36.984102], [138.546692, 36.983974], [138.547325, 36.983837], [138.547963, 36.983702], [138.548396, 36.983641], [138.549231, 36.983539], [138.550017, 36.983471], [138.550707, 36.983439], [138.552014, 36.98341], [138.552729, 36.983439], [138.553018, 36.983449], [138.5535171, 36.983424], [138.5538849, 36.9834529], [138.554218, 36.9835028], [138.5544747, 36.9835489], [138.5547152, 36.9836047], [138.5548881, 36.9836434], [138.5551892, 36.9837362], [138.555812, 36.983981], [138.556516, 36.984226], [138.557646, 36.984614], [138.558924, 36.985047], [138.5599, 36.98538], [138.5601175, 36.9854761], [138.560663, 36.985717], [138.561558, 36.986144], [138.5620223, 36.9863796], [138.5622952, 36.9864899], [138.562591, 36.9866835], [138.562789, 36.9868726], [138.5630928, 36.9871718], [138.5635098, 36.9876516], [138.563562, 36.9877445], [138.5637537, 36.9879539], [138.5639614, 36.9882577], [138.5643943, 36.9888445], [138.5647131, 36.9891548], [138.5651097, 36.9894419], [138.5654709, 36.9896531], [138.5657669, 36.989793], [138.5660105, 36.9898872], [138.5673294, 36.9902744], [138.5677452, 36.9903943], [138.5690419, 36.9907884], [138.5693766, 36.9908569], [138.569465, 36.9908727], [138.5703723, 36.9910352], [138.5710294, 36.9910803], [138.5714709, 36.9911106], [138.5724923, 36.991138], [138.5729472, 36.9911106], [138.5733678, 36.9910146], [138.5735962, 36.9909098], [138.5737712, 36.9908295], [138.5740287, 36.9906444], [138.574155, 36.9905305], [138.5742947, 36.9904045], [138.5745836, 36.9899711], [138.5746466, 36.9898766], [138.5749255, 36.9893667], [138.5752656, 36.98883], [138.5755135, 36.98843], [138.5757222, 36.9881342], [138.5757365, 36.9881115], [138.5760972, 36.9875388], [138.5763203, 36.9873605], [138.5765885, 36.9872037], [138.5769098, 36.987116], [138.5772545, 36.9870848], [138.5775613, 36.9871226], [138.577894, 36.9872328], [138.578012, 36.9872973], [138.5785635, 36.9875616], [138.5798729, 36.988218], [138.5800705, 36.9883124], [138.5807654, 36.9886106], [138.5812103, 36.988773], [138.5816107, 36.9888223], [138.5819419, 36.9888074], [138.5826607, 36.9887079], [138.5832016, 36.9887256], [138.5837013, 36.9888259], [138.584438, 36.9891047], [138.5845021, 36.989129], [138.5850904, 36.9893614], [138.5853118, 36.9894386], [138.5874852, 36.98996], [138.5877072, 36.9900746], [138.5878523, 36.9901584], [138.58816, 36.9904562], [138.5886831, 36.9911453], [138.5890987, 36.9916661], [138.5893253, 36.9919227], [138.5895145, 36.9921074], [138.5898203, 36.9923281], [138.5901698, 36.992514], [138.5905952, 36.9926936], [138.5928007, 36.9936275], [138.5933742, 36.9938577], [138.5941824, 36.9941201], [138.5949674, 36.9943354], [138.595502, 36.9944749], [138.5958713, 36.9945903], [138.5970065, 36.9949485], [138.5978654, 36.9952442], [138.5990179, 36.9957195], [138.599398, 36.9958823], [138.5997635, 36.995953], [138.600194, 36.9959702], [138.6005675, 36.9959299], [138.6012353, 36.9957804], [138.6019408, 36.9955871], [138.6023275, 36.9954719], [138.6028698, 36.9952996], [138.6034171, 36.9950181], [138.6038205, 36.9947234], [138.6044317, 36.9943129], [138.6049449, 36.9939693], [138.605477, 36.9937225], [138.6068362, 36.9930285], [138.6070642, 36.9928974], [138.6074923, 36.9927225], [138.6079242, 36.9925738], [138.6081183, 36.9925203], [138.6083585, 36.9924877], [138.6087697, 36.9924969], [138.6089575, 36.9925473], [138.6093466, 36.9926804], [138.6100489, 36.9929717], [138.6102591, 36.9931282], [138.6106051, 36.9933887], [138.6109576, 36.9936792], [138.6113519, 36.9939194], [138.6120629, 36.9941002], [138.6124205, 36.9943835], [138.6128583, 36.9945717], [138.613262, 36.9946289], [138.6143188, 36.9945297], [138.6145075, 36.9945603], [138.6146484, 36.9945832], [138.6150536, 36.9947377], [138.6153717, 36.9949133], [138.6157329, 36.9951721], [138.6161589, 36.9955377], [138.6163311, 36.9956918], [138.6163515, 36.9957097], [138.6165027, 36.9958588], [138.6166388, 36.9960022], [138.616716, 36.9961112], [138.6167683, 36.9962108], [138.6168156, 36.9963307], [138.6168638, 36.9965103], [138.6169345, 36.9967754], [138.6169988, 36.9970631], [138.6170058, 36.9972112], [138.6169784, 36.9973723], [138.6169088, 36.9975804], [138.6168415, 36.9977772], [138.6168115, 36.9979744], [138.6168082, 36.9981837], [138.6168141, 36.9983063], [138.6168289, 36.9983907], [138.6168432, 36.9984494], [138.6168515, 36.9984947], [138.6168895, 36.9986127], [138.6169153, 36.9986758], [138.6169604, 36.9987585], [138.6170947, 36.9989208], [138.6172523, 36.9990518], [138.6173665, 36.9991231], [138.6175509, 36.9991977], [138.6176971, 36.9992398], [138.6178574, 36.9992663], [138.6183768, 36.9993387], [138.6188876, 36.9994157], [138.6199009, 36.9995578], [138.6206853, 36.9996737], [138.6211777, 36.9997548], [138.621362, 36.9998133], [138.6215866, 36.9998875], [138.6216853, 36.9999135], [138.622271, 37.0001096], [138.6230675, 37.0001489], [138.6235957, 37.0001088], [138.6238782, 37.000138], [138.6244861, 37.0002449], [138.6248521, 37.0003239], [138.6249148, 37.0003375], [138.6255119, 37.0005009], [138.6260923, 37.0007098], [138.6265572, 37.0009155], [138.6267658, 37.0010222], [138.6269222, 37.0011406], [138.6270543, 37.0012607], [138.6273275, 37.0015827], [138.6274738, 37.0017863], [138.6276485, 37.0019843], [138.6278269, 37.0021249], [138.6279955, 37.0022264], [138.6281635, 37.0023022], [138.6283173, 37.0023515], [138.628546, 37.0023985], [138.6288376, 37.0024268], [138.6298207, 37.0024093], [138.6304733, 37.0024254], [138.630982, 37.0024565], [138.6315332, 37.0024838], [138.6321853, 37.0025214], [138.6332603, 37.0025856], [138.6339369, 37.0026262], [138.6342011, 37.002643], [138.6342278, 37.0026447], [138.6350923, 37.0026991], [138.6351157, 37.0027006], [138.6357721, 37.0027262], [138.6362901, 37.002737], [138.6370649, 37.002704], [138.6379008, 37.0026754], [138.6383573, 37.0026734], [138.6388707, 37.0026755], [138.6398275, 37.0027517], [138.6403222, 37.002847], [138.6408017, 37.0030631], [138.6413128, 37.0035077], [138.641717, 37.0039832], [138.6417971, 37.0041529], [138.6418017, 37.0043296], [138.6419053, 37.005235], [138.6420461, 37.006311], [138.6426084, 37.0073964], [138.6427779, 37.0076729], [138.6431986, 37.0083272], [138.6433449, 37.0085438], [138.6435421, 37.0087769], [138.6438111, 37.0090383], [138.6440514, 37.0092311], [138.6442991, 37.0093823], [138.6444504, 37.0094692], [138.6447625, 37.0096048], [138.6449693, 37.0096926], [138.6451304, 37.0097616], [138.6452952, 37.0098212], [138.6457964, 37.0099648], [138.6459739, 37.0100228], [138.6461612, 37.0100989], [138.6463292, 37.010192], [138.6465124, 37.0103127], [138.6472744, 37.0108603], [138.647669, 37.0111474], [138.6479503, 37.0113502], [138.6485009, 37.0117534], [138.6488736, 37.0120251], [138.6492016, 37.0122605], [138.6492764, 37.0123132], [138.6497949, 37.0126834], [138.6499382, 37.0127951], [138.6505136, 37.0132981], [138.6510159, 37.0137621], [138.6515579, 37.0142494], [138.6518068, 37.0144647], [138.6521314, 37.014738], [138.6524142, 37.0149931], [138.6529829, 37.0155111], [138.6535032, 37.0159623], [138.6538191, 37.0162395], [138.6538696, 37.0162785], [138.6539839, 37.0163791], [138.6543989, 37.0167422], [138.6544501, 37.016787], [138.6546752, 37.0169811], [138.6548159, 37.0171136], [138.6549217, 37.0172276], [138.6550398, 37.0173821], [138.655122, 37.0175209], [138.6551993, 37.0177188], [138.6552856, 37.0180754], [138.6553558, 37.0184112], [138.6556108, 37.0193911], [138.6556452, 37.019455], [138.6556526, 37.0194687], [138.6557532, 37.0196083], [138.6558692, 37.0197383], [138.6559882, 37.019859], [138.6561738, 37.0200194], [138.6562288, 37.0200564], [138.65698, 37.0207006], [138.6570921, 37.0207889], [138.6574062, 37.02105], [138.6574694, 37.0211026], [138.6584157, 37.0218891], [138.6590939, 37.0224703], [138.6595887, 37.0228793], [138.6604228, 37.0236739], [138.6605001, 37.0237381], [138.6608477, 37.0240684], [138.6617563, 37.0247482], [138.6623549, 37.0252214], [138.6634983, 37.0262258], [138.6640219, 37.0266917], [138.6641838, 37.0268525], [138.6643061, 37.027003], [138.6644604, 37.027309], [138.6645218, 37.0275628], [138.6646065, 37.0281439], [138.664652, 37.0282585], [138.6647732, 37.0285291], [138.664962, 37.0287552], [138.6654471, 37.0291582], [138.6656905, 37.0293573], [138.6659193, 37.0295399], [138.666242, 37.0297975], [138.6663523, 37.0298854], [138.6664416, 37.0299592], [138.6668919, 37.0303316], [138.667296, 37.0306914], [138.6673435, 37.0307337], [138.6676536, 37.0310163], [138.6679836, 37.0313216], [138.6681932, 37.0314926], [138.668627, 37.0318934], [138.669171, 37.0323834], [138.6696504, 37.0327885], [138.6701742, 37.0332499], [138.6702466, 37.0333143], [138.670446, 37.0334916], [138.6709014, 37.0338825], [138.6714422, 37.0344286], [138.6717019, 37.0346909], [138.671897, 37.0349286], [138.6721577, 37.0352665], [138.6725411, 37.0357561], [138.6728297, 37.0361179], [138.6731594, 37.0365496], [138.6736229, 37.037093], [138.6741959, 37.0377404], [138.6743495, 37.0378859], [138.6747639, 37.0382425], [138.675417, 37.0387724], [138.6766435, 37.0396418], [138.6771364, 37.0399399], [138.6775705, 37.0401927], [138.6790273, 37.0411568], [138.6796647, 37.0415834], [138.680557, 37.0422218], [138.6815649, 37.0430122], [138.6816623, 37.0430732], [138.6818139, 37.0431577], [138.6819034, 37.0431976], [138.6821196, 37.0432941], [138.6827559, 37.04352], [138.6833278, 37.0436695], [138.6837209, 37.0438066], [138.6842579, 37.0439872], [138.6847544, 37.044176], [138.6850333, 37.044298], [138.6854035, 37.0444693], [138.6892565, 37.0464031], [138.6894939, 37.0465223], [138.6900093, 37.0467909], [138.6905667, 37.0470918], [138.691122, 37.0474352], [138.691899, 37.0479242], [138.6924508, 37.0482582], [138.6925418, 37.0483159], [138.6926535, 37.048394], [138.6927515, 37.0484687], [138.6928012, 37.0485083], [138.6928427, 37.048546], [138.6929585, 37.0486493], [138.6931002, 37.0487978], [138.6931912, 37.0489264], [138.6932675, 37.049047], [138.6933302, 37.0491781], [138.6933883, 37.0493179], [138.6935464, 37.0497451], [138.6936124, 37.0498973], [138.6936767, 37.0500407], [138.6938104, 37.0502319], [138.6939353, 37.0503857], [138.6940132, 37.0504687], [138.694089, 37.0505394], [138.6942232, 37.0506483], [138.6943172, 37.0507202], [138.6946829, 37.0509785], [138.6948185, 37.0510726], [138.6949471, 37.0511553], [138.695247, 37.051349], [138.6962377, 37.0520425], [138.6967706, 37.0524083], [138.6967873, 37.0524196], [138.6968786, 37.0524808], [138.6974995, 37.0529043], [138.6975493, 37.0529428], [138.6976051, 37.0529752], [138.698695, 37.0537256], [138.6987839, 37.0537868], [138.6992227, 37.0540916], [138.6996661, 37.0544707], [138.6997306, 37.0545372], [138.7002401, 37.0550037], [138.7004077, 37.0551568], [138.7004337, 37.0551831], [138.7005855, 37.0553301], [138.7011287, 37.0557755], [138.7013809, 37.0559872], [138.7016899, 37.0562403], [138.7026233, 37.0569894], [138.7032288, 37.0574739], [138.7035754, 37.0577772], [138.7039904, 37.0581015], [138.7043716, 37.0584034], [138.7054665, 37.0592995], [138.7063605, 37.0600184], [138.7071702, 37.0606713], [138.7079733, 37.0613188], [138.7084727, 37.0617193], [138.7089425, 37.0620319], [138.7099157, 37.0626307], [138.710093, 37.0627456], [138.7102441, 37.0628681], [138.7103683, 37.0629988], [138.7105209, 37.063219], [138.7106277, 37.0634681], [138.7109099, 37.064352], [138.710975, 37.0645115], [138.7110836, 37.0646897], [138.7111728, 37.0648186], [138.7113109, 37.064977], [138.7114625, 37.0651097], [138.7116416, 37.0652323], [138.7120839, 37.0655154], [138.71226, 37.0656379], [138.7123823, 37.0657505], [138.712521, 37.0658995], [138.7126336, 37.0660625], [138.7127073, 37.0662242], [138.7127732, 37.0664055], [138.7129746, 37.0670801], [138.7130503, 37.0673329], [138.7131392, 37.0676355], [138.7133323, 37.0683166], [138.7134322, 37.0685871], [138.7135402, 37.068826], [138.7137926, 37.0693358], [138.7139626, 37.0696755], [138.7143097, 37.0703689], [138.7145411, 37.0708188], [138.7148332, 37.0714053], [138.7149905, 37.0717401], [138.7150479, 37.0719068], [138.7151021, 37.0721944], [138.7151332, 37.0724819], [138.7151345, 37.0725092], [138.7151472, 37.0727709], [138.7151763, 37.0733183], [138.7152426, 37.0735889], [138.7153612, 37.0739637], [138.7156568, 37.0746188], [138.7158322, 37.0749867], [138.715963, 37.0752612], [138.7161557, 37.0756657], [138.7163199, 37.0760162], [138.7164768, 37.0762771], [138.7167428, 37.0766263], [138.7170912, 37.0769365], [138.7174709, 37.0772805], [138.7181794, 37.0779644], [138.7185891, 37.0784073], [138.7197764, 37.0796372], [138.7202554, 37.080135], [138.7206481, 37.08055], [138.7212649, 37.0812166], [138.7215865, 37.0817171], [138.7218027, 37.0822042], [138.7220292, 37.0827131], [138.7222264, 37.0831756], [138.7224284, 37.0836491], [138.7224494, 37.0837001], [138.7225045, 37.0838275], [138.7225181, 37.0838691], [138.7225931, 37.0840992], [138.7226494, 37.084435], [138.7226407, 37.0849876], [138.7226465, 37.085199], [138.7226478, 37.0853685], [138.7226598, 37.0855527], [138.7227838, 37.0860064], [138.7229963, 37.0864551], [138.7231822, 37.0867508], [138.7233695, 37.0870551], [138.7237101, 37.0876745], [138.7237786, 37.0878505], [138.7238286, 37.0879882], [138.7238419, 37.0880522], [138.7239025, 37.0883445], [138.7240275, 37.0892068], [138.724102, 37.0896554], [138.7241619, 37.0898748], [138.7242491, 37.0900865], [138.7244107, 37.0903526], [138.724618, 37.090594], [138.7250492, 37.0909617], [138.7253434, 37.0911829], [138.7257743, 37.0914328], [138.7261206, 37.0916507], [138.7264173, 37.091863], [138.7265986, 37.0920039], [138.7269043, 37.09227], [138.7277975, 37.0931148], [138.728577, 37.0938531], [138.7288908, 37.0941507], [138.7291368, 37.0943807], [138.7293705, 37.0945938], [138.7301689, 37.095357], [138.7305444, 37.0957146], [138.7311827, 37.096339], [138.7312871, 37.0964411], [138.7317587, 37.0969094], [138.7322527, 37.0973951], [138.7326473, 37.0977832], [138.7329597, 37.0980968], [138.7339184, 37.0991763], [138.7343475, 37.09965], [138.7345178, 37.099838], [138.7347647, 37.1001106], [138.7357201, 37.1011655], [138.7363803, 37.1018816], [138.7365912, 37.1021277], [138.7366432, 37.1021851], [138.7370639, 37.1026593], [138.7372986, 37.1029238], [138.7377178, 37.1033961], [138.738257, 37.1040038], [138.7391439, 37.104948], [138.7396433, 37.1055153], [138.7413685, 37.1073635], [138.7416303, 37.1076516], [138.7418279, 37.1078689], [138.74186, 37.1079042], [138.7425945, 37.1087122], [138.7427933, 37.108931], [138.743192, 37.1093123], [138.743857, 37.1099484], [138.7440153, 37.1100825], [138.7447041, 37.1106464], [138.7450544, 37.1109641], [138.7462151, 37.1121865], [138.7465011, 37.1124984], [138.7467367, 37.1127586], [138.7471041, 37.1131615], [138.7475565, 37.1136372], [138.7476696, 37.1137536], [138.7479874, 37.1140719], [138.7483194, 37.1144322], [138.7484978, 37.1146257], [138.7487603, 37.1149211], [138.7488476, 37.1150193], [138.7490713, 37.115269], [138.7496197, 37.115876], [138.7501009, 37.1164072], [138.7504161, 37.1167115], [138.7507175, 37.1169899], [138.7509475, 37.1172393], [138.7510046, 37.1172856], [138.7511927, 37.1174849], [138.7512917, 37.1176183], [138.7513911, 37.1177789], [138.7514511, 37.1179125], [138.7518798, 37.1188216], [138.7520408, 37.1191269], [138.7521906, 37.1193848], [138.7523109, 37.1195533], [138.7524873, 37.119816], [138.7526831, 37.1201316], [138.7530186, 37.1206061], [138.7530965, 37.1207257], [138.7533641, 37.1211252], [138.7534517, 37.1212487], [138.7536509, 37.1215258], [138.7538736, 37.1218178], [138.7540146, 37.1220123], [138.7540988, 37.1221131], [138.7544218, 37.1225326], [138.7547559, 37.1229673], [138.7548822, 37.1231308], [138.7550113, 37.1232839], [138.7551754, 37.1234804], [138.7552099, 37.1235193], [138.7553411, 37.1236523], [138.7554726, 37.1237857], [138.7556115, 37.123894], [138.7556816, 37.1239487], [138.7558631, 37.1240609], [138.7560726, 37.124159], [138.756294, 37.1242429], [138.7569288, 37.1244637], [138.7572201, 37.1246084], [138.757455, 37.1248055], [138.7576629, 37.1250504], [138.7580753, 37.1257862], [138.7584674, 37.1264019], [138.758626, 37.1265874], [138.7588069, 37.1267879], [138.7592281, 37.1271663], [138.7594104, 37.1273412], [138.7595896, 37.1275131], [138.7596833, 37.1276395], [138.7596986, 37.127674], [138.7597534, 37.1277982], [138.7598472, 37.1280658], [138.7598713, 37.1281696], [138.7600417, 37.1287598], [138.7600635, 37.1288353], [138.7601418, 37.1290224], [138.7601767, 37.1290782], [138.7603158, 37.1293033], [138.760414, 37.1295358], [138.7604531, 37.1296453], [138.7604888, 37.1297634], [138.7605379, 37.1303099], [138.7605445, 37.1304273], [138.7606132, 37.1309701], [138.7606293, 37.1310885], [138.760641, 37.1311734], [138.7607839, 37.1321184], [138.760792, 37.1321721], [138.760807, 37.1322715], [138.7608944, 37.1328493], [138.7609028, 37.1329003], [138.7609256, 37.133028], [138.7610034, 37.1334476], [138.7610279, 37.1335787], [138.761057, 37.1337305], [138.7611912, 37.1344311], [138.7613331, 37.1348988], [138.7613768, 37.1350392], [138.7613866, 37.1350751], [138.7613941, 37.1350999], [138.7616416, 37.1358046], [138.7617323, 37.1360628], [138.7617596, 37.1361567], [138.7621668, 37.1373457], [138.7621852, 37.1373993], [138.7625471, 37.1383741], [138.7625841, 37.1384736], [138.7626196, 37.1385876], [138.7626622, 37.1387215], [138.7627192, 37.1389022], [138.7627316, 37.1389416], [138.7629555, 37.139652], [138.7630013, 37.1397974], [138.7630655, 37.140001], [138.7631138, 37.1401543], [138.7631359, 37.1402244], [138.7632198, 37.1404905], [138.7633121, 37.1408009], [138.763457, 37.1411813], [138.7635061, 37.1414043], [138.7637669, 37.1422491], [138.7640864, 37.1432842], [138.7646343, 37.1450529], [138.7650573, 37.1463942], [138.7650817, 37.1464717], [138.7651024, 37.1465394], [138.7651897, 37.1468242], [138.7654775, 37.1477656], [138.7655501, 37.1480031], [138.7657333, 37.1485968], [138.7657425, 37.1486265], [138.7657661, 37.1487029], [138.7659714, 37.1493803], [138.7660188, 37.1495383], [138.7661966, 37.1501303], [138.7664068, 37.15066], [138.7666574, 37.151279], [138.7667519, 37.1514866], [138.7667635, 37.151513], [138.7670243, 37.1521256], [138.7673642, 37.1528113], [138.7676425, 37.1533998], [138.7686273, 37.1553844], [138.7690775, 37.1561569], [138.7693266, 37.1565696], [138.7696404, 37.1571613], [138.769686, 37.1572472], [138.7700388, 37.157931], [138.7703994, 37.1586284], [138.7704122, 37.1586804], [138.7706964, 37.1592264], [138.7710994, 37.1600006], [138.7714971, 37.1608064], [138.7715437, 37.1609008], [138.7718529, 37.1615283], [138.7719204, 37.1616494], [138.7722557, 37.1623366], [138.772742, 37.1634056], [138.7730012, 37.1639571], [138.7731869, 37.1643843], [138.7733681, 37.1648013], [138.7736378, 37.1653793], [138.773759, 37.165639], [138.7739508, 37.1660264], [138.774343, 37.1666844], [138.7743883, 37.1667513], [138.7746832, 37.1673502], [138.7749308, 37.1684969], [138.7750598, 37.1690705], [138.775181, 37.1696277], [138.7752741, 37.170326], [138.7753318, 37.1707748], [138.7754078, 37.1712758], [138.775603, 37.172313], [138.7756896, 37.1727808], [138.7757471, 37.1730914], [138.775822, 37.1734755], [138.7758881, 37.1738643], [138.776129, 37.1756181], [138.7761758, 37.1761542], [138.7762191, 37.1765023], [138.7762527, 37.176852], [138.7762719, 37.1770522], [138.7763349, 37.1775307], [138.7764513, 37.1784159], [138.7765209, 37.1788221], [138.7766402, 37.1792365], [138.7767801, 37.1796691], [138.7768435, 37.1798232], [138.7769131, 37.180012], [138.7770371, 37.1803299], [138.7771525, 37.1806643], [138.777294, 37.181045], [138.7776787, 37.1820632], [138.7778783, 37.1826326], [138.777967, 37.1829299], [138.7780735, 37.1835447], [138.7781481, 37.1844707], [138.7782191, 37.1853512], [138.7782967, 37.1863141], [138.7784269, 37.1876658], [138.7784583, 37.1882883], [138.7785749, 37.1896035], [138.7786159, 37.1902677], [138.7786703, 37.1909003], [138.7787012, 37.1914043], [138.7787296, 37.1919325], [138.7787832, 37.1926735], [138.7788016, 37.1928907], [138.7788201, 37.1931831], [138.7788765, 37.1939609], [138.7788789, 37.1940046], [138.7789506, 37.1953773], [138.7789897, 37.1960542], [138.7790305, 37.1967348], [138.7790413, 37.1970975], [138.7791286, 37.1983534], [138.7792254, 37.2006031], [138.7793298, 37.2014704], [138.7794188, 37.2031195], [138.7794932, 37.2046493], [138.7795709, 37.2062661], [138.7796221, 37.207332], [138.7797267, 37.2095778], [138.7797323, 37.2096975], [138.7797883, 37.2104505], [138.7798363, 37.2115126], [138.7798388, 37.2115685], [138.7799004, 37.2125875], [138.7799424, 37.2129359], [138.7799481, 37.2135701], [138.7799592, 37.2141662], [138.7800555, 37.2193164], [138.780058, 37.2196474], [138.7800989, 37.2201063], [138.7801454, 37.2202898], [138.7802026, 37.2204623], [138.7802465, 37.2205816], [138.7805159, 37.2211473], [138.7807392, 37.221574], [138.7808073, 37.2217041], [138.7808663, 37.2218517], [138.7809281, 37.2220359], [138.7810196, 37.2223738], [138.7811938, 37.2230709], [138.7812796, 37.2233625], [138.7813138, 37.223479], [138.7813597, 37.2235811], [138.7814628, 37.2237602], [138.7816081, 37.2239705], [138.7820362, 37.2245392], [138.7821113, 37.2246891], [138.7821614, 37.2248145], [138.7822144, 37.2249838], [138.7822446, 37.2251342], [138.7822571, 37.22525], [138.7822591, 37.2254153], [138.7822492, 37.2256244], [138.7822212, 37.2260332], [138.7822018, 37.2264218], [138.7822135, 37.2265557], [138.7822293, 37.226696], [138.7822771, 37.2269122], [138.7825315, 37.2277391], [138.7825494, 37.2278445], [138.7825686, 37.227934], [138.7825949, 37.2280948], [138.7826156, 37.2282688], [138.7827102, 37.229137], [138.7827351, 37.2292735], [138.7827784, 37.2294578], [138.7828358, 37.2296088], [138.7829143, 37.2297853], [138.7830562, 37.2300676], [138.7832237, 37.2303897], [138.7832853, 37.2306177], [138.7832911, 37.2308367], [138.7832631, 37.2309876], [138.7832217, 37.2311237], [138.7831805, 37.2312347], [138.7830243, 37.2317453], [138.7827558, 37.2324007], [138.7827091, 37.2325144], [138.7826766, 37.2326333], [138.782659, 37.2327513], [138.782669, 37.2328795], [138.7826822, 37.2329807], [138.7827505, 37.2331289], [138.7828684, 37.2333151], [138.7831028, 37.2336041], [138.7833383, 37.2338918], [138.7837967, 37.2343797], [138.7838644, 37.2344491], [138.7845138, 37.2351011], [138.7853987, 37.2360411], [138.7861553, 37.2368248], [138.7869082, 37.2376114], [138.7873604, 37.2380776], [138.7875636, 37.2382907], [138.7876641, 37.238399], [138.7884602, 37.2391647], [138.7886064, 37.2393008], [138.7887818, 37.2394055], [138.7889804, 37.2395051], [138.7892011, 37.2395714], [138.7898575, 37.2397414], [138.7902011, 37.239864], [138.7905509, 37.2399861], [138.7915667, 37.2406849], [138.7919487, 37.2409661], [138.7921728, 37.2411119], [138.7924767, 37.2412993], [138.792879, 37.2415373], [138.7937598, 37.2419796], [138.7944417, 37.242351], [138.795184, 37.2427545], [138.7958817, 37.2431389], [138.7975984, 37.2440605], [138.7986908, 37.2446311], [138.798983, 37.2447838], [138.7991936, 37.2448638], [138.799417, 37.2449283], [138.7996718, 37.2449746], [138.7998515, 37.2449954], [138.8000262, 37.2450056], [138.8002055, 37.245005], [138.8016894, 37.2449324], [138.8023303, 37.2448907], [138.8033469, 37.2448272], [138.8036029, 37.2448191], [138.8038296, 37.2448474], [138.8040021, 37.2449219], [138.8042105, 37.2450462], [138.8043801, 37.2452058], [138.8045819, 37.2455312], [138.8047095, 37.2457248], [138.805833, 37.2474048], [138.8058633, 37.2474523], [138.8060043, 37.2476642], [138.8062368, 37.2480604], [138.8064406, 37.2484524], [138.806679, 37.2489451], [138.8074433, 37.2504714], [138.8077648, 37.2511509], [138.8081543, 37.2518758], [138.8083757, 37.2522056], [138.8086519, 37.2525806], [138.8091767, 37.2532753], [138.8093236, 37.2535061], [138.8094251, 37.2537669], [138.8095305, 37.2540894], [138.8095948, 37.254336], [138.8097017, 37.2545772], [138.8098096, 37.2547976], [138.8102174, 37.2554453], [138.8105501, 37.2559311], [138.8107667, 37.256318], [138.8108536, 37.2564787], [138.8109704, 37.2566971], [138.8124903, 37.2598073], [138.8129614, 37.2606531], [138.8132047, 37.2611262], [138.8132386, 37.2611895], [138.8134934, 37.2616647], [138.8138546, 37.2623262], [138.814206, 37.2628732], [138.8145047, 37.2632728], [138.8171922, 37.2668677], [138.8173876, 37.2671465], [138.8174816, 37.2673099], [138.8176867, 37.2677075], [138.8179527, 37.2682208], [138.8182417, 37.2687703], [138.8183836, 37.268994], [138.8185348, 37.269205], [138.81874, 37.2694437], [138.818929, 37.2696248], [138.8191281, 37.2698103], [138.8194039, 37.2700436], [138.819796, 37.2703821], [138.8198649, 37.270441], [138.8200537, 37.2706022], [138.8203468, 37.2708454], [138.8204135, 37.2708988], [138.8207121, 37.271089], [138.8211076, 37.2713033], [138.8212718, 37.2713851], [138.8215542, 37.2715013], [138.8217175, 37.2715603], [138.8219324, 37.2716292], [138.8220625, 37.2716759], [138.8222492, 37.2717132], [138.8230303, 37.2718665], [138.8238593, 37.2720343], [138.8239109, 37.2720447], [138.8239628, 37.2720541], [138.8242101, 37.2720991], [138.8243927, 37.272128], [138.8246941, 37.2721573], [138.8249667, 37.2721708], [138.825302, 37.2721703], [138.8255379, 37.2721591], [138.8257765, 37.272138], [138.8261422, 37.2720828], [138.8264346, 37.2720257], [138.8266957, 37.2719554], [138.8269159, 37.2718824], [138.8271363, 37.2718059], [138.8281106, 37.2713568], [138.8292051, 37.2708444], [138.830183, 37.2703766], [138.8306626, 37.2701707], [138.8308191, 37.27012], [138.83094, 37.2700865], [138.8311317, 37.2700451], [138.8312603, 37.270032], [138.8314172, 37.2700263], [138.8315604, 37.2700286], [138.831711, 37.2700441], [138.8318523, 37.2700712], [138.8319621, 37.270103], [138.8320537, 37.2701347], [138.8322674, 37.2702174], [138.8324762, 37.2703347], [138.8326534, 37.2704584], [138.8327657, 37.2705635], [138.8328659, 37.2706637], [138.8330017, 37.2708725], [138.8330541, 37.2709987], [138.8330993, 37.2711526], [138.8331061, 37.2713033], [138.8331045, 37.2714949], [138.8330562, 37.2717054], [138.8330083, 37.2718469], [138.8329413, 37.2719746], [138.832842, 37.2721098], [138.8327197, 37.2722513], [138.8324585, 37.2724821], [138.8323341, 37.2725842], [138.8322722, 37.2726427], [138.8320078, 37.2728693], [138.8317576, 37.2730969], [138.8315236, 37.2733003], [138.831232, 37.2735873], [138.8310519, 37.2737879], [138.8306817, 37.2741849], [138.8303222, 37.2746211], [138.8299208, 37.27517], [138.8296524, 37.2756084], [138.8291471, 37.2765522], [138.8289822, 37.2769411], [138.8285417, 37.2780433], [138.8282859, 37.2786812], [138.8281557, 37.2790026], [138.8280401, 37.2793066], [138.8279662, 37.2795054], [138.8278976, 37.2797655], [138.8278658, 37.2799341], [138.8278418, 37.2801197], [138.8278324, 37.2803086], [138.8278316, 37.2805183], [138.8278444, 37.280788], [138.8279145, 37.2812511], [138.8280517, 37.2818294], [138.8281516, 37.2823116], [138.8281662, 37.2824428], [138.8281662, 37.2825741], [138.8281569, 37.2827349], [138.8280974, 37.2828876], [138.8280119, 37.2830254], [138.8279288, 37.2831418], [138.8278482, 37.2832342], [138.8269992, 37.2839949], [138.8269221, 37.284064], [138.8257307, 37.2851687], [138.8254091, 37.2854545], [138.8251461, 37.2856556], [138.8249354, 37.2858112], [138.8248386, 37.285868], [138.8236962, 37.286723], [138.8232732, 37.2870444], [138.8231372, 37.2871409], [138.8229303, 37.2872878], [138.8227867, 37.2873814], [138.8226223, 37.2874894], [138.8224113, 37.2876058], [138.8222114, 37.2876975], [138.8219243, 37.2878283], [138.8213773, 37.2880661], [138.8210582, 37.2881988], [138.8210148, 37.2882169], [138.8197613, 37.2887476], [138.8190519, 37.2890548], [138.8183405, 37.2893771], [138.8175668, 37.2897658], [138.8174358, 37.2898377], [138.8171834, 37.2899762], [138.8169321, 37.2901357], [138.8165579, 37.290336], [138.8162332, 37.2904949], [138.8160051, 37.2906019], [138.8157424, 37.2907062], [138.815471, 37.290795], [138.8147272, 37.2910146], [138.8140757, 37.2912342], [138.8137119, 37.2913865], [138.8132639, 37.2916491], [138.8128264, 37.2918154], [138.8124825, 37.2919285], [138.8119734, 37.2920994], [138.8115392, 37.2922133], [138.8110547, 37.2923775], [138.8097144, 37.2927767], [138.8092568, 37.2929305], [138.8085465, 37.2931466], [138.8082667, 37.2932461], [138.8080717, 37.2933198], [138.8078884, 37.2934121], [138.807805, 37.2934572], [138.8077377, 37.2934936], [138.8074814, 37.2936445], [138.807054, 37.2939256], [138.8062483, 37.2944234], [138.8060208, 37.2945554], [138.8058163, 37.2946388], [138.8054892, 37.2947538], [138.8052208, 37.2948139], [138.8049948, 37.2948542], [138.8047934, 37.2948937], [138.8045572, 37.2949515], [138.8043722, 37.295008], [138.8040523, 37.2951328], [138.8038696, 37.2951988], [138.8034492, 37.2953595], [138.8030194, 37.295527], [138.8028857, 37.2955742], [138.8021773, 37.2958435], [138.8015292, 37.2961014], [138.8013024, 37.2961812], [138.8009038, 37.2963201], [138.8005534, 37.2964386], [138.800152, 37.2965637], [138.799689, 37.2966973], [138.7992359, 37.2968167], [138.7988176, 37.2969111], [138.7984799, 37.2969822], [138.7980429, 37.2970743], [138.7972959, 37.2971933], [138.7962987, 37.2973142], [138.7956457, 37.2973767], [138.795044, 37.2974008], [138.7935652, 37.2974398], [138.7934126, 37.2974455], [138.7916437, 37.2974863], [138.7889155, 37.2975598], [138.7885753, 37.2975742], [138.7882628, 37.2976019], [138.7879295, 37.2976392], [138.7877335, 37.2976668], [138.7875124, 37.2977069], [138.7870658, 37.2978077], [138.7867791, 37.297891], [138.7864727, 37.2979935], [138.7862879, 37.2980578], [138.7860618, 37.2981425], [138.7858689, 37.2982236], [138.785652, 37.2983217], [138.7853667, 37.298466], [138.7850316, 37.2986599], [138.784894, 37.2987496], [138.7846035, 37.2989392], [138.7841516, 37.2992427], [138.7835472, 37.2996587], [138.7833017, 37.2998658], [138.7831473, 37.3000173], [138.7830591, 37.3001381], [138.7829383, 37.3003089], [138.7828244, 37.300491], [138.7827141, 37.3007051], [138.7826497, 37.3008758], [138.7825746, 37.3011728], [138.7825344, 37.3014534], [138.7825341, 37.3016839], [138.7825477, 37.3018579], [138.7825773, 37.3020067], [138.7826648, 37.3023366], [138.7827029, 37.3024569], [138.7832458, 37.3040298], [138.7835145, 37.3048388], [138.7839553, 37.3061497], [138.7844028, 37.3074674], [138.7847824, 37.3085667], [138.7848427, 37.3087466], [138.785241, 37.3099144], [138.7852448, 37.3099271], [138.7852994, 37.3100939], [138.7856029, 37.3110019], [138.7856969, 37.3112782], [138.786122, 37.3125274], [138.7868894, 37.3147545], [138.7870799, 37.3151605], [138.787194, 37.3153362], [138.787314, 37.3154764], [138.7874158, 37.3155939], [138.7877679, 37.3158789], [138.7880718, 37.3160727], [138.7884655, 37.3162662], [138.7892361, 37.3165547], [138.7904305, 37.3170221], [138.7907896, 37.3171622], [138.7916584, 37.317475], [138.7925216, 37.317788], [138.7929012, 37.3179247], [138.7939628, 37.3183258], [138.7948837, 37.3186594], [138.7952356, 37.3187663], [138.7954058, 37.3188165], [138.7955807, 37.3188505], [138.7961287, 37.3189367], [138.797769, 37.3191331], [138.7984367, 37.3192163], [138.7993878, 37.3193372], [138.7998633, 37.3193976], [138.8004955, 37.3194705], [138.8006721, 37.3194886], [138.8008656, 37.3195089], [138.8009219, 37.3195113], [138.8011258, 37.3195174], [138.8013484, 37.3195046], [138.8016033, 37.3194662], [138.8036363, 37.3189496], [138.8038401, 37.3189089], [138.8041085, 37.3188797], [138.8042962, 37.3188925], [138.8045885, 37.3189543], [138.8047735, 37.3190209], [138.8049805, 37.3191288], [138.805176, 37.3192913], [138.8053906, 37.3195537], [138.8061004, 37.320779], [138.8064577, 37.3213654], [138.8068833, 37.3220638], [138.8075543, 37.3232843], [138.8076334, 37.323423], [138.808154, 37.3242831], [138.8090272, 37.3257636], [138.8096229, 37.3267783], [138.8097627, 37.3270327], [138.8098074, 37.3271029], [138.8109795, 37.3291071], [138.811602, 37.3301715], [138.8116423, 37.3302463], [138.8116734, 37.330304], [138.811757, 37.3304424], [138.8118147, 37.3305297], [138.81217, 37.3308882], [138.8122504, 37.3309418], [138.8125329, 37.3311302], [138.8131376, 37.3314516], [138.8132277, 37.3314999], [138.813366, 37.3315751]]]}, "id": "relation/965403"}]}