{"type": "FeatureCollection", "generator": "kokudo-quiz tools/fetch_raw.py (Overpass API)", "copyright": "The data included in this document is from www.openstreetmap.org. The data is made available under ODbL.", "timestamp": "2026-09-30T14:39:46Z", "features": [{"type": "Feature", "properties": {"@id": "relation/3262076", "colour": "red", "from": "栃木県宇都宮市", "name": "国道123号", "name:en": "National Highway Route 123", "name:ja": "国道123号", "name:ja-Hira": "こくどうひゃくにじゅうさんごう", "name:ja-Latn": "kokudou 123 gou", "network": "JP:national", "official_name": "一般国道123号", "operator": "栃木県;茨城県", "ref": "123", "route": "road", "to": "茨城県水戸市", "type": "route", "wikidata": "Q6156750", "wikipedia": "ja:国道123号"}, "geometry": {"type": "MultiLineString", "coordinates": [[[139.9077032, 36.5520633], [139.9079087, 36.5520246], [139.9080178, 36.5520031], [139.9081064, 36.5519848], [139.9085925, 36.5518762], [139.9088896, 36.5518059], [139.9089818, 36.5517829], [139.909293, 36.5517041], [139.9094851, 36.5516525], [139.909704, 36.5515938], [139.9098469, 36.5515553], [139.9103487, 36.5514119], [139.9104207, 36.5513925], [139.9108576, 36.5512654], [139.9109902, 36.5512318], [139.9111012, 36.5512097], [139.9112664, 36.5511851], [139.9113256, 36.5511784], [139.9114186, 36.551174], [139.9115225, 36.5511714], [139.9121248, 36.5511871], [139.9126181, 36.5512], [139.9128655, 36.5512035], [139.9131053, 36.5512011], [139.913243, 36.5511952], [139.9133348, 36.5511912], [139.9134604, 36.5511801], [139.9139313, 36.5511386], [139.9143567, 36.5511025], [139.9145519, 36.551086], [139.9147204, 36.551073], [139.91489, 36.5510555], [139.91509, 36.5510279], [139.9151802, 36.5510116], [139.9153059, 36.5509889], [139.9154136, 36.550968], [139.9156624, 36.5509112], [139.9159295, 36.5508482], [139.9161283, 36.5508009], [139.9170553, 36.5505836], [139.9171684, 36.5505566], [139.9179058, 36.5503808], [139.9180613, 36.550343], [139.9188683, 36.5501499], [139.9191484, 36.5500837], [139.9194019, 36.5500207], [139.9197484, 36.5499312], [139.9199213, 36.5498853], [139.9200316, 36.5498561], [139.9202816, 36.5497899], [139.9203841, 36.5497635], [139.9204882, 36.5497354], [139.9209458, 36.5496119], [139.9209802, 36.5496026], [139.9212789, 36.549522], [139.9214184, 36.5494844], [139.921471, 36.5494702], [139.9215937, 36.5494318], [139.9217685, 36.5494011], [139.9220064, 36.5493593], [139.9226899, 36.5491755], [139.9231329, 36.5490707], [139.9234001, 36.5490075], [139.9238055, 36.5489201], [139.924117, 36.5488588], [139.9241846, 36.5488448], [139.9243663, 36.548813], [139.9244794, 36.5487908], [139.9245376, 36.5487801], [139.9245843, 36.5487716], [139.9249405, 36.548722], [139.9250054, 36.5487129], [139.9250115, 36.5487121], [139.9256934, 36.5485985], [139.9261024, 36.5485411], [139.9264498, 36.5484899], [139.9270272, 36.5484049], [139.9277122, 36.548295], [139.9278513, 36.5482727], [139.9280711, 36.5482332], [139.9283861, 36.5481766], [139.9288406, 36.5480863], [139.9290123, 36.5480493], [139.9295796, 36.5479171], [139.9300801, 36.5477962], [139.9307712, 36.5476305], [139.9313193, 36.5474961], [139.931761, 36.5473763], [139.9319851, 36.5473113], [139.9322956, 36.5472185], [139.9328238, 36.5470468], [139.9329788, 36.546994], [139.9336271, 36.5467639], [139.9343164, 36.5465303], [139.9351559, 36.5462524], [139.9356811, 36.5460864], [139.9361285, 36.5459538], [139.9364182, 36.5458653], [139.9367164, 36.5457798], [139.9370582, 36.545676], [139.9373654, 36.5455743], [139.9374851, 36.545535], [139.937619, 36.5454904], [139.9378922, 36.5454018], [139.9380612, 36.5453452], [139.9383121, 36.5452459], [139.938557, 36.5451283], [139.9392086, 36.5448042], [139.9396192, 36.5445637], [139.940048, 36.544301], [139.9410786, 36.5435953], [139.9418883, 36.543052], [139.9420275, 36.5429545], [139.9423081, 36.5427967], [139.9426142, 36.5426403], [139.9428055, 36.5425471], [139.943147, 36.5424091], [139.9434024, 36.542328], [139.9438304, 36.5421926], [139.9441594, 36.5421219], [139.944527, 36.5420788], [139.9448776, 36.5420511], [139.9453357, 36.5420186], [139.9457006, 36.5420012], [139.9460551, 36.5419929], [139.9461541, 36.5419902], [139.9467035, 36.5419754], [139.9468662, 36.5419722], [139.9469066, 36.5419714], [139.9469541, 36.5419699], [139.953467, 36.541736], [139.9535528, 36.541733], [139.9542789, 36.5416933], [139.9549976, 36.5416627], [139.9554012, 36.5416506], [139.9557519, 36.5416401], [139.9558048, 36.5416385], [139.9559419, 36.5416328], [139.9560299, 36.5416297], [139.9561552, 36.5416283], [139.9561949, 36.5416278], [139.9570149, 36.5415976], [139.9577839, 36.5415606], [139.9580883, 36.5415339], [139.9583232, 36.5415095], [139.9588146, 36.5414468], [139.9594541, 36.5413378], [139.9597986, 36.5412596], [139.960167, 36.5411699], [139.9604476, 36.541095], [139.9607658, 36.5410053], [139.9608259, 36.5409871], [139.9610076, 36.5409294], [139.9611644, 36.5408767], [139.9615704, 36.5407301], [139.9618644, 36.5406207], [139.9621168, 36.5405127], [139.9628095, 36.5402496], [139.9638046, 36.5398767], [139.964251, 36.5397084], [139.9643072, 36.5396842], [139.9643304, 36.5396758], [139.9652058, 36.5393576], [139.9659276, 36.5390912], [139.9661282, 36.5390102], [139.9677367, 36.538296], [139.9681648, 36.5380973], [139.9683597, 36.5380103], [139.9685781, 36.5378851], [139.9687506, 36.5377757], [139.9689259, 36.5376369], [139.9691969, 36.5373961], [139.9693705, 36.5372252], [139.9695215, 36.537053], [139.9696543, 36.536889], [139.9703772, 36.5359946], [139.9705678, 36.53578], [139.9711818, 36.5351425], [139.9713562, 36.5349691], [139.971865, 36.534504], [139.9723756, 36.5340332], [139.9726371, 36.5338005], [139.9733275, 36.533168], [139.9736937, 36.5328494], [139.9739301, 36.5326729], [139.9740668, 36.5325709], [139.9741861, 36.5324966], [139.974298, 36.532434], [139.9745633, 36.5323062], [139.9747776, 36.5322257], [139.9750484, 36.5321285], [139.975311, 36.5320608], [139.9754448, 36.5320358], [139.9757904, 36.5319952], [139.9759819, 36.5319826], [139.9760994, 36.5319798], [139.9763656, 36.5319856], [139.9769085, 36.5320399], [139.9775252, 36.5321096], [139.9776379, 36.5321179], [139.9789766, 36.5322651], [139.9797099, 36.5323449], [139.9802396, 36.5324], [139.9808054, 36.5324588], [139.981393, 36.5325253], [139.9824956, 36.5326421], [139.9835859, 36.5327724], [139.9843537, 36.5328581], [139.9844952, 36.5328727], [139.9848627, 36.5329071], [139.9852529, 36.5329373], [139.9856486, 36.5329513], [139.9861077, 36.5329483], [139.986539, 36.5329197], [139.9868096, 36.5328937], [139.9871063, 36.5328522], [139.9873595, 36.5328076], [139.9874389, 36.5327931], [139.9876659, 36.5327487], [139.9879487, 36.5326791], [139.9881113, 36.5326377], [139.9887258, 36.5324555], [139.9888009, 36.5324333], [139.9892138, 36.5323066], [139.9898414, 36.5321079], [139.9907099, 36.5318436], [139.9910519, 36.5317315], [139.9914971, 36.5315989], [139.9918617, 36.5314899], [139.9922039, 36.5313974], [139.9924372, 36.5313504], [139.9926936, 36.5313085], [139.9928838, 36.5312832], [139.9932038, 36.5312582], [139.9936829, 36.5312539], [139.9944663, 36.5312713], [139.9948461, 36.5312734], [139.9952224, 36.5312556], [139.9956723, 36.531213], [139.9968837, 36.5310011], [139.997193, 36.5309395], [139.9975804, 36.5308502]], [[139.9215937, 36.5494318], [139.9216678, 36.5494069], [139.9217529, 36.5493761], [139.9219983, 36.5492871], [139.9221492, 36.5492494], [139.9226099, 36.5491342], [139.9228493, 36.5490719], [139.923082, 36.5490113], [139.9236318, 36.5488907], [139.924061, 36.5488051], [139.9241676, 36.5487838], [139.9245218, 36.5487229], [139.9245866, 36.5487109], [139.9250529, 36.5486274], [139.9256795, 36.5485386], [139.9260997, 36.5484718], [139.9264991, 36.5484145], [139.927032, 36.5483318], [139.9276906, 36.5482152], [139.9278569, 36.5481857], [139.9280537, 36.548151], [139.928374, 36.5480946], [139.9288293, 36.5480081], [139.9295565, 36.5478468], [139.9300424, 36.5477353], [139.9308709, 36.5475363], [139.9312928, 36.5474246], [139.931774, 36.5472967], [139.9319461, 36.5472486], [139.9322669, 36.5471518], [139.9328203, 36.5469668], [139.9329336, 36.5469286], [139.9335881, 36.5467073], [139.9342681, 36.5464764], [139.9351306, 36.5461979], [139.9356623, 36.54603], [139.9361069, 36.5458899], [139.9365131, 36.5457653], [139.936854, 36.5456262], [139.9374356, 36.5454479], [139.937565, 36.5454048], [139.9378371, 36.5453061], [139.9380081, 36.54525], [139.9381861, 36.5451837], [139.9385047, 36.5450443], [139.9390813, 36.544776], [139.9395691, 36.5444975], [139.9399921, 36.5442343], [139.9410474, 36.5435197], [139.9418143, 36.5429672], [139.9419707, 36.5428721], [139.9422625, 36.5427094], [139.9425817, 36.5425447], [139.9427779, 36.5424584], [139.9430953, 36.542328], [139.9433822, 36.5422163], [139.9437901, 36.5421005], [139.9442417, 36.5420177], [139.9445064, 36.5419829], [139.9448696, 36.5419563], [139.9453328, 36.5419328], [139.9461697, 36.5418938], [139.9463643, 36.5418845], [139.9468606, 36.5418616], [139.9469078, 36.5418595], [139.9469463, 36.54186], [139.9534612, 36.5416306], [139.9535513, 36.5416276], [139.955014, 36.5415889], [139.9553489, 36.5415778], [139.9557424, 36.5415648], [139.9559266, 36.5415594], [139.9560067, 36.5415541], [139.9561495, 36.541548], [139.956659, 36.5415314], [139.9569824, 36.5415188], [139.9577764, 36.5414822], [139.9580754, 36.5414585], [139.9583285, 36.5414276], [139.9588801, 36.5413561], [139.9594246, 36.5412581], [139.959847, 36.5411676], [139.9601421, 36.54109], [139.9607928, 36.5409102], [139.9609731, 36.5408553], [139.9611288, 36.5408058], [139.9611741, 36.5407888], [139.9617367, 36.5405768], [139.9620601, 36.5404496], [139.9628672, 36.5401418], [139.9633795, 36.5399511], [139.9642654, 36.5396199], [139.9650706, 36.5393141], [139.9658927, 36.5390061], [139.9661332, 36.5389192], [139.9676965, 36.5382185], [139.9681524, 36.5380143], [139.9683217, 36.5379311], [139.9685283, 36.5378194], [139.9686851, 36.5377185], [139.9688719, 36.5375849], [139.9691419, 36.5373493], [139.9693002, 36.5371892], [139.969441, 36.5370192], [139.9695806, 36.5368437], [139.9702944, 36.535958], [139.9704793, 36.5357433], [139.971105, 36.5350973], [139.971289, 36.5349153], [139.9723113, 36.5339794], [139.9725706, 36.5337477], [139.9732581, 36.533112], [139.9736282, 36.5327812], [139.9738616, 36.5325957], [139.9740024, 36.5324955], [139.9740949, 36.5324385], [139.9742495, 36.53236], [139.9745246, 36.5322216], [139.9747485, 36.5321439], [139.9749881, 36.532071], [139.9752605, 36.5320017], [139.9754414, 36.5319686], [139.9757973, 36.5319227], [139.975973, 36.5319128], [139.976123, 36.5319098], [139.9763896, 36.5319201], [139.9769475, 36.5319729], [139.9775322, 36.5320408], [139.9776217, 36.5320479], [139.9789739, 36.5321981], [139.9797262, 36.5322778], [139.980821, 36.5323941], [139.9813886, 36.5324569], [139.9825063, 36.5325763], [139.9835926, 36.5326819], [139.9843061, 36.5327542], [139.9845153, 36.5327778], [139.9848653, 36.5328102], [139.9852583, 36.5328414], [139.9856523, 36.5328553], [139.9861128, 36.5328529], [139.9865133, 36.5328298], [139.986775, 36.5328005], [139.9870983, 36.5327563], [139.9873998, 36.5327024], [139.9876296, 36.5326555], [139.9878883, 36.5325892], [139.9880703, 36.5325426], [139.9881245, 36.5325275], [139.9887631, 36.5323496], [139.9891896, 36.532216], [139.9898154, 36.5320386], [139.9906763, 36.5317811], [139.9910304, 36.5316658], [139.991477, 36.531531], [139.9918531, 36.5314204], [139.9921891, 36.5313317], [139.992413, 36.5312833], [139.9926826, 36.5312422], [139.9928811, 36.5312164], [139.9932027, 36.531195], [139.993671, 36.531188], [139.9944086, 36.5311981], [139.9948204, 36.5311873], [139.9951892, 36.5311626], [139.9956804, 36.5311248], [139.9966374, 36.5309504], [139.9972371, 36.5308505], [139.9975804, 36.5308502], [139.9976465, 36.5308359], [139.9980717, 36.5307428], [139.9983944, 36.5306858], [139.9986358, 36.530655], [139.9997979, 36.5305864], [140.0007456, 36.5305235], [140.0017751, 36.5304185], [140.0020209, 36.5303764], [140.0022492, 36.5303341], [140.0024679, 36.5302704], [140.0027529, 36.5301529], [140.0030078, 36.5300092], [140.0032634, 36.5298098], [140.0033787, 36.5297045], [140.0035033, 36.5295725], [140.0040298, 36.5290359], [140.0041494, 36.528914], [140.0050302, 36.5280458], [140.0052147, 36.5278739], [140.0055503, 36.5276226], [140.0056276, 36.5275659], [140.0062013, 36.5271816], [140.006501, 36.5270109], [140.0067806, 36.5268618], [140.006919, 36.5267879], [140.0071745, 36.5266613], [140.0077869, 36.5263408], [140.0080898, 36.5261392], [140.0088503, 36.5255643], [140.0092814, 36.5252811], [140.010339, 36.5246605], [140.010647, 36.5244744], [140.0108576, 36.5243335], [140.0111108, 36.5241225], [140.0113281, 36.5239232], [140.0115386, 36.5236834], [140.0117532, 36.5234284], [140.011981, 36.5231325], [140.0121909, 36.5228715], [140.0124226, 36.5226576], [140.012726, 36.5224071], [140.01302, 36.5222105], [140.0133374, 36.5220416], [140.0138499, 36.5218011], [140.0142714, 36.5216819], [140.0145211, 36.5216214], [140.0147453, 36.5215851], [140.0149167, 36.5215623], [140.0151083, 36.5215401], [140.0152809, 36.521527], [140.0154675, 36.5215226], [140.0157053, 36.5215293], [140.0158849, 36.5215395], [140.0161, 36.5215636], [140.016336, 36.5215998], [140.016566, 36.521648], [140.0168418, 36.5217199], [140.0171032, 36.5218017], [140.0173475, 36.5218929], [140.0175773, 36.5219979], [140.0178409, 36.522137], [140.0180775, 36.5222704], [140.0181388, 36.5223116], [140.01863, 36.5226798], [140.0189548, 36.5229199], [140.0190007, 36.5229548], [140.020037, 36.5237416], [140.0205015, 36.5240963], [140.0206753, 36.5242302], [140.0210551, 36.524506], [140.0214075, 36.5247784], [140.0215581, 36.5248902], [140.0217563, 36.5250454], [140.021958, 36.5251737], [140.0221859, 36.5253022], [140.0223658, 36.5253851], [140.0224605, 36.5254295], [140.0226172, 36.5254907], [140.0228669, 36.5255773], [140.0228959, 36.5255857], [140.0230067, 36.5256197], [140.0231076, 36.5256468], [140.0232123, 36.5256693], [140.0232465, 36.5256785], [140.0234347, 36.525712], [140.0235885, 36.5257344], [140.0237373, 36.5257512], [140.0238792, 36.525762], [140.0240428, 36.5257678], [140.0241953, 36.5257674], [140.0242435, 36.5257673], [140.0243957, 36.5257653], [140.0245607, 36.5257511], [140.0247169, 36.5257341], [140.0248192, 36.5257199], [140.0249735, 36.5256983], [140.0251827, 36.5256629], [140.0254123, 36.5256166], [140.0257034, 36.5255252], [140.0259034, 36.5254545], [140.0260971, 36.5253657], [140.0262916, 36.5252747], [140.0264597, 36.5251821], [140.0266156, 36.5250756], [140.0272499, 36.5246499], [140.0277981, 36.5242638], [140.0284505, 36.5238815], [140.0286871, 36.5237504], [140.0287692, 36.5237037], [140.0289515, 36.5236076], [140.0293047, 36.5234215], [140.029845, 36.5231713], [140.03035, 36.5229527], [140.0311994, 36.5225732], [140.0318164, 36.5222976], [140.0326446, 36.521951], [140.0332197, 36.5217122], [140.0340061, 36.5213913], [140.0347094, 36.5210686], [140.0351093, 36.5208494], [140.0360917, 36.5203207], [140.036442, 36.5201252], [140.0373188, 36.5196499], [140.037333, 36.5196422], [140.0376511, 36.5194721], [140.0376842, 36.5194555], [140.0378287, 36.5193835], [140.0380618, 36.5192604], [140.0386659, 36.51893], [140.039629, 36.5183795], [140.0398758, 36.5182286], [140.0412399, 36.5174277], [140.0422238, 36.5168774], [140.0424324, 36.5167655], [140.0425928, 36.5167045], [140.0427632, 36.5166547], [140.04293, 36.5166159], [140.0430339, 36.5165975], [140.0431571, 36.5165787], [140.0432945, 36.5165706], [140.0434766, 36.516565], [140.0436692, 36.5165674], [140.0440643, 36.5165739], [140.0445112, 36.5165821], [140.0453255, 36.5165797], [140.0457863, 36.5165674], [140.0463579, 36.5165219], [140.0473315, 36.5164333], [140.0485178, 36.5163303], [140.0488743, 36.516299], [140.0499424, 36.5162068], [140.0502261, 36.5161712], [140.0504962, 36.5161235], [140.0507628, 36.516055], [140.0510061, 36.5159817], [140.0514798, 36.5158263], [140.0517453, 36.5157472], [140.0520337, 36.5156558], [140.0523789, 36.51554], [140.0526897, 36.5154281], [140.0528676, 36.5153604], [140.0530757, 36.5152624], [140.0532919, 36.5151505], [140.0539544, 36.5147131], [140.0543351, 36.514466], [140.0558784, 36.5134641], [140.0563519, 36.5131494], [140.0566157, 36.5130049], [140.0568571, 36.5128783], [140.0570398, 36.512804], [140.0572731, 36.5127378], [140.05754, 36.5126766], [140.0577546, 36.5126363], [140.0579832, 36.5126047], [140.0581368, 36.5125944], [140.0583664, 36.5125847], [140.0586534, 36.5125929], [140.0589361, 36.5126106], [140.0598427, 36.5126714], [140.0610008, 36.5127673], [140.0616875, 36.512815], [140.0623001, 36.5128598], [140.0628105, 36.5128997], [140.0633035, 36.5129432], [140.0636504, 36.5129946], [140.0637812, 36.5130223], [140.0638694, 36.5130471], [140.0640159, 36.5131006], [140.0647431, 36.5133427], [140.0650378, 36.5134244], [140.0653197, 36.5134917], [140.0656365, 36.5135496], [140.065956, 36.5136001], [140.0661416, 36.5136253], [140.066523, 36.5136727], [140.0668628, 36.5137199], [140.0671179, 36.513735], [140.0672869, 36.5137314], [140.0675366, 36.5136835], [140.0676412, 36.5136524], [140.0677263, 36.5136183], [140.0678072, 36.5135758], [140.0678828, 36.5135234], [140.0679518, 36.5134597], [140.068029, 36.513366], [140.0683965, 36.512854], [140.0684831, 36.5127404], [140.0688639, 36.5121995], [140.0689702, 36.5120406], [140.0690513, 36.5118972], [140.0691322, 36.5117397], [140.0696038, 36.5106784], [140.0696292, 36.5106221], [140.0706807, 36.50833], [140.0708295, 36.5080107], [140.0709542, 36.5077087], [140.0710859, 36.5072784], [140.0714963, 36.5056905], [140.0717624, 36.5046901], [140.0717828, 36.5046035], [140.0718322, 36.5043983], [140.0721155, 36.5033006], [140.072162, 36.5031615], [140.0722012, 36.5030479], [140.0722752, 36.5028933], [140.0724069, 36.5026904], [140.0726049, 36.5024615], [140.0728052, 36.5022851], [140.0730676, 36.5021111], [140.0734411, 36.5018815], [140.0737222, 36.5017161], [140.0742103, 36.5014472], [140.0745811, 36.5013], [140.0763948, 36.5004997], [140.076784, 36.5003], [140.077111, 36.5001232], [140.0774487, 36.4999098], [140.0777561, 36.4996866], [140.0784035, 36.4991806], [140.0793021, 36.4984397], [140.0803796, 36.4975655], [140.0813415, 36.4967921], [140.0815538, 36.496622], [140.0819231, 36.4963269], [140.0824523, 36.4959154], [140.082698, 36.4957479], [140.0828849, 36.4956338], [140.0832011, 36.4954529], [140.0835579, 36.4952474], [140.0839528, 36.4950693], [140.0843688, 36.4949109], [140.0848226, 36.4947399], [140.0859813, 36.4942928], [140.0861999, 36.4942162], [140.0863769, 36.4941627], [140.0865117, 36.4941284], [140.0867484, 36.4940808], [140.086934, 36.4940541], [140.087244, 36.4940334], [140.0875259, 36.4940373], [140.0882179, 36.4940658], [140.0883022, 36.4940693], [140.0888157, 36.49409], [140.0892879, 36.4940902], [140.0899283, 36.4940839], [140.0899774, 36.4940835], [140.0903753, 36.4940804], [140.0904151, 36.4940803], [140.0905363, 36.4940794], [140.0906019, 36.4940789], [140.0908072, 36.4940825], [140.0910917, 36.4940713], [140.0912416, 36.4940549], [140.0912692, 36.4940519], [140.0914798, 36.4940176], [140.0916785, 36.4939519], [140.0918489, 36.4938891], [140.0920227, 36.4938014], [140.0921651, 36.4937065], [140.092256, 36.4936334], [140.0923547, 36.4935454], [140.092458, 36.4934231], [140.0925344, 36.493314], [140.0926074, 36.4931674], [140.0926551, 36.4930062], [140.0927077, 36.4928215], [140.0931114, 36.4915055], [140.0931664, 36.4913815], [140.0932302, 36.4912724], [140.0933082, 36.4911642], [140.0934137, 36.4910451], [140.0935167, 36.490952], [140.0936454, 36.4908481], [140.0937937, 36.4907618], [140.0938902, 36.4907112], [140.0940925, 36.4906326], [140.0941515, 36.4906109], [140.094178, 36.4906051], [140.0943736, 36.490569], [140.0945128, 36.4905533], [140.0946659, 36.4905466], [140.0947864, 36.4905438], [140.0951236, 36.4905477], [140.0966444, 36.4905733], [140.0979705, 36.4905979], [140.0994079, 36.4906212], [140.1007219, 36.4906576], [140.101295, 36.4906563], [140.1014927, 36.4906609], [140.1017328, 36.4906701], [140.1018924, 36.4906746], [140.1020576, 36.490684], [140.1022274, 36.490709], [140.1023926, 36.4907441], [140.1024932, 36.4907791], [140.1025511, 36.4907993], [140.1027113, 36.490858], [140.1028145, 36.4909248], [140.1029304, 36.4910003], [140.1030449, 36.4910874], [140.1031521, 36.4911982], [140.1039022, 36.4919466], [140.1046527, 36.4926692], [140.1047557, 36.4928072], [140.1048672, 36.4930004], [140.1049531, 36.4931798], [140.1050131, 36.4933799], [140.1050389, 36.4935524], [140.1050475, 36.4937111], [140.1050475, 36.4938146], [140.1050303, 36.4939319], [140.1050046, 36.4940975], [140.1049324, 36.4944092], [140.1047431, 36.4953757], [140.1046672, 36.4956869], [140.1046441, 36.495955], [140.1046407, 36.496104], [140.1046424, 36.4963221], [140.1046527, 36.4964918], [140.1046784, 36.4966712], [140.1047042, 36.496823], [140.1047471, 36.4969886], [140.1048072, 36.4971956], [140.1048784, 36.4973942], [140.1050646, 36.4978511], [140.1058382, 36.4999045], [140.1059494, 36.5002089], [140.1062281, 36.5008406], [140.1064551, 36.5012733], [140.1065798, 36.5014738], [140.1067262, 36.5017092], [140.1067383, 36.5017286], [140.1070988, 36.5022323], [140.1073735, 36.5025842], [140.1079624, 36.5032038], [140.1083702, 36.5035862], [140.1089013, 36.5041158], [140.1094396, 36.5046324], [140.1098216, 36.5050043], [140.1101029, 36.5053163], [140.110472, 36.5056819], [140.1108461, 36.5060405], [140.1113224, 36.5064738], [140.1115878, 36.5067513], [140.1118453, 36.5069651], [140.1119844, 36.5070853], [140.1123774, 36.5073308], [140.1126778, 36.5074825], [140.1129353, 36.5076136], [140.1132615, 36.5077447], [140.1136391, 36.507862], [140.1142657, 36.5080138], [140.1151583, 36.5082414], [140.1155257, 36.5083483], [140.1156562, 36.5083863], [140.1159222, 36.508476], [140.1160251, 36.5085096], [140.1163694, 36.5086592], [140.1164253, 36.5086804], [140.1166224, 36.5087551], [140.1168674, 36.5088479], [140.1173203, 36.5089613], [140.1175653, 36.5090166], [140.1178769, 36.5090621], [140.1184494, 36.5091585], [140.1187632, 36.5092399], [140.1188237, 36.5092617], [140.1190133, 36.5093298], [140.1197074, 36.5096281], [140.1198872, 36.5096983], [140.1205863, 36.5101028], [140.1211236, 36.5103248], [140.1223816, 36.5109389], [140.1228694, 36.5111835], [140.1231987, 36.5113486], [140.124705, 36.5121037], [140.1251147, 36.5123047], [140.1253121, 36.5124289], [140.1254666, 36.5125186], [140.1255782, 36.5126151], [140.1256726, 36.5127048], [140.1257584, 36.5128083], [140.125902, 36.51296], [140.1263702, 36.5137046], [140.1267283, 36.514257], [140.1278613, 36.5160022], [140.1281274, 36.5163747], [140.1283591, 36.5166437], [140.1286166, 36.516899], [140.1288483, 36.5170852], [140.1289685, 36.5171749], [140.1290185, 36.517208], [140.1292861, 36.5173473], [140.1294148, 36.5174163], [140.1295436, 36.5174853], [140.13011, 36.5177405], [140.1310511, 36.5181502], [140.131861, 36.5185062], [140.1322386, 36.5186579], [140.132479, 36.5187614], [140.1326335, 36.5188097], [140.1327794, 36.5188511], [140.1329253, 36.5188718], [140.1330455, 36.5188856], [140.1332171, 36.5188994], [140.1333716, 36.5188925], [140.1336205, 36.5188718], [140.1341441, 36.5188028], [140.1349766, 36.5186993], [140.1355517, 36.5186234], [140.1358607, 36.5185959], [140.1366675, 36.518589], [140.1377318, 36.5186028], [140.1379893, 36.5185959], [140.138161, 36.5186097], [140.138324, 36.518651], [140.1384871, 36.5186993], [140.1385678, 36.5187299], [140.1386502, 36.5187683], [140.1387789, 36.5188235], [140.1389334, 36.5189132], [140.1390536, 36.5190166], [140.139148, 36.5191132], [140.1392424, 36.5192374], [140.1393025, 36.5193546], [140.1393712, 36.5194995], [140.1394055, 36.5196236], [140.1394398, 36.5197547], [140.1394742, 36.5200306], [140.1395857, 36.5210239], [140.1396201, 36.5212446], [140.1396887, 36.5214377], [140.1398175, 36.5216654], [140.1401265, 36.5221482], [140.1402295, 36.5222655], [140.1403153, 36.5223551], [140.1404183, 36.5224379], [140.1405556, 36.5225207], [140.140693, 36.5225965], [140.1411221, 36.5227966], [140.1428473, 36.5235691], [140.1436843, 36.5239364], [140.1458939, 36.5249319], [140.1465527, 36.5252166], [140.1466432, 36.5252593], [140.1469929, 36.5254245], [140.1471818, 36.5255003], [140.1473534, 36.5255555], [140.1475337, 36.5256107], [140.1478169, 36.5256866], [140.1480916, 36.5257418], [140.148289, 36.5257693], [140.1485121, 36.52579], [140.1487267, 36.5258107], [140.1489585, 36.5258107], [140.1491559, 36.5258107], [140.1494134, 36.5258107], [140.1501874, 36.5257891], [140.1511214, 36.5257486], [140.1513446, 36.5257555], [140.1514819, 36.5257693], [140.1515763, 36.52579], [140.1516879, 36.5258176], [140.1517565, 36.5258383], [140.151851, 36.5258659], [140.1519282, 36.5259004], [140.1520226, 36.5259487], [140.152117, 36.5260038], [140.1522029, 36.526059], [140.1522801, 36.5261211], [140.1523488, 36.5261763], [140.1524346, 36.526259], [140.1525033, 36.5263349], [140.1525548, 36.5264039], [140.152632, 36.5265211], [140.1528294, 36.5269143], [140.1528349, 36.5269281], [140.1530293, 36.5273766], [140.1531056, 36.5275556], [140.1531539, 36.5276967], [140.1531958, 36.5278527], [140.153214, 36.5279726], [140.1532307, 36.5281114], [140.1532387, 36.5282428], [140.1532394, 36.5284796], [140.1532373, 36.5287292], [140.1532382, 36.5290054], [140.1532387, 36.5291265], [140.1532452, 36.5292447], [140.1532661, 36.5293502], [140.1533077, 36.5294688], [140.1533622, 36.529558], [140.1534305, 36.5296419], [140.1535174, 36.5297224], [140.1536094, 36.5297921], [140.1537269, 36.5298733], [140.1539525, 36.5300183], [140.1543071, 36.5302297], [140.1544297, 36.5301054], [140.154589, 36.5299737], [140.1547331, 36.5298773], [140.1549125, 36.5297866], [140.1551037, 36.5297183], [140.1553583, 36.5296467], [140.1555852, 36.5295836], [140.1559472, 36.5294929], [140.1561745, 36.5294368], [140.1567407, 36.529303], [140.1572895, 36.5291719], [140.1579037, 36.5290322], [140.1585984, 36.5288609], [140.1590157, 36.5287441], [140.1597488, 36.5285083], [140.1601093, 36.5283999], [140.1603936, 36.5283417], [140.1607648, 36.5282846], [140.1611293, 36.5282661], [140.1613867, 36.528273], [140.1624854, 36.5283489], [140.1626828, 36.5283558], [140.1629145, 36.5283558], [140.1631525, 36.5283421], [140.1633845, 36.5283083], [140.1636975, 36.5282587], [140.164128, 36.5281824], [140.1645795, 36.5281121], [140.1649609, 36.528063], [140.1652508, 36.5280369], [140.1655727, 36.52803], [140.1658416, 36.5280474], [140.1662373, 36.5281231], [140.1664463, 36.5281593], [140.166755, 36.5282022], [140.16706, 36.5282389], [140.1674143, 36.5282846], [140.167819, 36.5283141], [140.1685329, 36.5283637], [140.1693275, 36.528405], [140.1696146, 36.5284134], [140.1698101, 36.5284113], [140.1699849, 36.5283992], [140.1701973, 36.52837], [140.170335, 36.5283427], [140.1705106, 36.5282991], [140.170787, 36.5281875], [140.1710683, 36.5280664], [140.1713805, 36.5279173], [140.1717517, 36.5277498], [140.1719878, 36.5276577], [140.1721763, 36.5275953], [140.1723839, 36.5275276], [140.1725864, 36.5274798], [140.1727873, 36.5274339], [140.1730697, 36.5273854], [140.1732722, 36.5273605], [140.1736923, 36.5273099], [140.1742727, 36.5272588], [140.1750328, 36.5272127], [140.1752801, 36.5271819], [140.175517, 36.5271409], [140.1757697, 36.5270688], [140.1760581, 36.5269503]], [[140.1658416, 36.5280474], [140.1666018, 36.5281238], [140.1673191, 36.5281809], [140.1677847, 36.5282091], [140.1685405, 36.5282589], [140.1693252, 36.5283047], [140.1696038, 36.5283143], [140.1698044, 36.5283135], [140.169968, 36.5283031], [140.170126, 36.5282839], [140.1703535, 36.5282388], [140.1706413, 36.5281328], [140.1709932, 36.5279824], [140.171294, 36.5278346], [140.1716185, 36.5276729], [140.1719487, 36.5275309], [140.1721471, 36.5274592], [140.1723375, 36.527411], [140.1725452, 36.5273648], [140.1729592, 36.5273048], [140.1731572, 36.5272843], [140.1736003, 36.5272311], [140.173729, 36.527216], [140.1743105, 36.5271782], [140.1750492, 36.5271383], [140.1753662, 36.5271164], [140.1756572, 36.5270668], [140.1760581, 36.5269503], [140.1762729, 36.5268559], [140.1764508, 36.5267565], [140.1772655, 36.5262087], [140.1776391, 36.5259891], [140.1779221, 36.5258742], [140.1782142, 36.5257764], [140.1785285, 36.525705], [140.178796, 36.525682], [140.1790921, 36.525688], [140.1794137, 36.5257348], [140.1798671, 36.5258278], [140.1804595, 36.526003], [140.1808814, 36.5260969], [140.1811865, 36.5261484], [140.18147, 36.5261789], [140.181711, 36.5261787], [140.182012, 36.526168], [140.1823735, 36.526107], [140.1828289, 36.526002], [140.1839496, 36.52571], [140.1852169, 36.5253866], [140.1863689, 36.525094], [140.1869343, 36.5249388], [140.1877307, 36.524706], [140.1882583, 36.5245674], [140.188626, 36.5244961], [140.1889084, 36.5244599], [140.1891614, 36.5244476], [140.189491, 36.524451], [140.1897721, 36.5244721], [140.1901039, 36.5245252], [140.1904255, 36.5246032], [140.1908353, 36.5247485], [140.1926309, 36.5255213], [140.1944736, 36.5262914], [140.1956037, 36.5267818], [140.1961926, 36.5270537], [140.1962519, 36.5270819], [140.1964266, 36.5271638], [140.1965906, 36.5272341], [140.1966504, 36.5272601], [140.1974222, 36.5275923], [140.1982898, 36.5279684], [140.1986716, 36.5281707], [140.1989648, 36.5283409], [140.1991618, 36.5284911], [140.1993774, 36.5286621], [140.1995882, 36.5288574], [140.1997977, 36.5290798], [140.1999449, 36.5292583], [140.2001012, 36.5294874], [140.2002543, 36.5297389], [140.2005952, 36.5303653], [140.2007106, 36.5305568], [140.2008863, 36.5307888], [140.2011406, 36.5310767], [140.2011606, 36.5310993], [140.2012277, 36.5311662], [140.2013438, 36.5312716], [140.2014516, 36.5313623], [140.2014796, 36.5313831], [140.201726, 36.5315666], [140.2018552, 36.5316579], [140.2019768, 36.5317345], [140.2020367, 36.5317664], [140.2021576, 36.5318309], [140.2023303, 36.531914], [140.202584, 36.5320171], [140.202855, 36.5321331], [140.2049199, 36.5329731], [140.2052375, 36.5331318], [140.2054607, 36.5332904], [140.2055808, 36.5334076], [140.205701, 36.5335594], [140.2057954, 36.5336904], [140.2058812, 36.5339042], [140.2059499, 36.5341318], [140.2060462, 36.5344274], [140.2061057, 36.5345845], [140.2061715, 36.5349283], [140.2062094, 36.5358587], [140.2062082, 36.5360102], [140.2062236, 36.5362954], [140.2062532, 36.5364446], [140.2062868, 36.5365963], [140.2063275, 36.5367028], [140.2063665, 36.5367938], [140.206425, 36.5369115], [140.20654, 36.5370907], [140.206628, 36.5371869], [140.206834, 36.5373662], [140.207203, 36.5376282], [140.2073703, 36.537747], [140.2079412, 36.5381523], [140.209675, 36.5393247], [140.2100391, 36.5395733], [140.2110482, 36.5402625], [140.211177, 36.5403384], [140.2112972, 36.5404142], [140.2114173, 36.5404694], [140.2115804, 36.5405384], [140.2117521, 36.5406073], [140.2119237, 36.5406694], [140.2122585, 36.5407659], [140.2127917, 36.5409102], [140.2131176, 36.5409986], [140.2133228, 36.5410418], [140.2140274, 36.5412248], [140.2144643, 36.5413383], [140.2146789, 36.5414072], [140.2148763, 36.5414762], [140.2150565, 36.5415521], [140.2151489, 36.5416068], [140.2152196, 36.5416486], [140.2154771, 36.5418141], [140.2155465, 36.5418668], [140.2157861, 36.5420486], [140.2160809, 36.5422528], [140.2165328, 36.5425657], [140.2166787, 36.5426554], [140.2168075, 36.542745], [140.216962, 36.5428347], [140.217034, 36.5428668], [140.2171165, 36.5429036], [140.2173225, 36.5429933], [140.2176486, 36.5431174], [140.2183439, 36.5433381], [140.2188073, 36.5434898], [140.2190391, 36.5435932], [140.2191592, 36.5436622], [140.2193137, 36.5437449], [140.2194597, 36.5438414], [140.2196485, 36.5439725], [140.220318, 36.5444896], [140.2204467, 36.5446138], [140.2205669, 36.5447448], [140.220687, 36.5448896], [140.22079, 36.5450068], [140.2208673, 36.5451309], [140.220996, 36.5453723], [140.2214166, 36.5461721], [140.2214346, 36.5462108], [140.2214938, 36.5463376], [140.2215453, 36.5464893], [140.2215883, 36.5465928], [140.2216226, 36.5466962], [140.2216483, 36.5468203], [140.2216569, 36.5469237], [140.2216655, 36.5470616], [140.2216814, 36.5477822], [140.2216827, 36.5478408], [140.2216913, 36.547958], [140.2217084, 36.5480822], [140.2217513, 36.5481994], [140.2218028, 36.548289], [140.2218543, 36.5483649], [140.2219745, 36.5484821], [140.2221118, 36.5485924], [140.2222022, 36.5486457], [140.2222406, 36.5486683], [140.2224466, 36.5487441], [140.2225925, 36.5487924], [140.2227126, 36.5488268], [140.22285, 36.5488475], [140.2230425, 36.5488497], [140.2232309, 36.5488354], [140.2234047, 36.5488006], [140.2235828, 36.5487428], [140.224352, 36.5484467], [140.2244921, 36.548383], [140.2246294, 36.548283], [140.2247801, 36.5481446], [140.2249808, 36.5479563], [140.2251353, 36.5478188], [140.2252651, 36.5477227], [140.2254088, 36.5476547], [140.2255692, 36.547606], [140.2257317, 36.5475805], [140.225897, 36.5475719], [140.2262231, 36.5475857], [140.2267123, 36.5476133], [140.2268668, 36.5476202], [140.2270299, 36.5476271], [140.227296, 36.5476133], [140.2274276, 36.5476057], [140.2275363, 36.5475995], [140.2281457, 36.5475305], [140.229256, 36.5473886], [140.2297377, 36.5473401], [140.230221, 36.5473097], [140.2306035, 36.5473235], [140.2314256, 36.5474315], [140.231847, 36.5474854], [140.2322484, 36.5475512], [140.2323428, 36.5475788], [140.2324544, 36.5476133], [140.2325917, 36.5476822], [140.2326947, 36.5477512], [140.232752, 36.5477972], [140.2327977, 36.5478339], [140.2328664, 36.5478891], [140.232978, 36.5479994], [140.2336046, 36.5486614], [140.2337419, 36.5488199], [140.233905, 36.5489992], [140.2340337, 36.549144], [140.2342998, 36.5494543], [140.2345364, 36.5497099], [140.2345573, 36.549737], [140.2346345, 36.5498335], [140.234686, 36.5499301], [140.2347547, 36.5500818], [140.2348451, 36.5503404], [140.2349521, 36.5506334], [140.2351066, 36.5510746], [140.2351667, 36.5512056], [140.2352353, 36.5513022], [140.2353212, 36.5514263], [140.2354842, 36.5515987], [140.2356988, 36.5518055], [140.2359735, 36.5520537], [140.2361966, 36.5522606], [140.2363855, 36.5524123], [140.2365942, 36.5525685], [140.2367664, 36.552667], [140.2368957, 36.5527291], [140.2370231, 36.5527835], [140.2371853, 36.5528417], [140.2373116, 36.5528693], [140.2374307, 36.5528794], [140.2375627, 36.5528853], [140.2376936, 36.5528734], [140.2378137, 36.5528531], [140.2379505, 36.5528224], [140.2381718, 36.5527632], [140.2383349, 36.552733], [140.238458, 36.5527172], [140.238569, 36.5527124], [140.2387088, 36.5527163], [140.2388319, 36.5527336], [140.2389701, 36.5527693], [140.2390924, 36.5528169], [140.2392093, 36.5528712], [140.2393231, 36.5529339], [140.2401269, 36.5535067], [140.2402181, 36.5535829], [140.2402854, 36.5536587], [140.2403304, 36.5537208], [140.2403835, 36.553819], [140.2404354, 36.5539248], [140.2404597, 36.5539903], [140.240471, 36.5540905], [140.2404716, 36.5542052], [140.2404492, 36.5547964], [140.2404455, 36.5548931], [140.2404377, 36.5549803], [140.2404219, 36.5550712], [140.2403975, 36.5551514], [140.2403691, 36.5552044], [140.2403334, 36.5552699], [140.2402876, 36.5553352], [140.2402307, 36.5554046], [140.240162, 36.5554825], [140.2400766, 36.5555448], [140.2398231, 36.5556901], [140.2393583, 36.5559564], [140.2388991, 36.5563034], [140.2382913, 36.5567863], [140.238216, 36.5568779], [140.238141, 36.5569803], [140.2380993, 36.5570729], [140.2380717, 36.5571809], [140.2380561, 36.557276], [140.238056, 36.5573795], [140.238081, 36.5574912], [140.2381859, 36.5577335], [140.2382614, 36.5579009], [140.2383694, 36.5581652], [140.2384488, 36.5583154], [140.2385553, 36.5585021], [140.238676, 36.5586976], [140.2387144, 36.5587428], [140.2388055, 36.5588483], [140.23883, 36.5588767], [140.2390176, 36.5590552], [140.2391692, 36.5592124], [140.2395664, 36.559654], [140.2398161, 36.5599372], [140.2400417, 36.5602048], [140.2403779, 36.5606161], [140.2404102, 36.5606724], [140.241439, 36.5619164], [140.2433873, 36.5642868], [140.2435952, 36.5645394], [140.243724, 36.5646704], [140.2439557, 36.5648703], [140.2440828, 36.5649342], [140.2440931, 36.5649394], [140.2442756, 36.5650291], [140.2443591, 36.5650497], [140.2444992, 36.5650701], [140.244608, 36.565091], [140.2447282, 36.565091], [140.2448776, 36.5650817], [140.2450084, 36.5650615], [140.2453291, 36.5649743], [140.2455199, 36.5649094], [140.2456749, 36.5648512], [140.2459137, 36.5647564], [140.246244, 36.564586], [140.2463787, 36.5644823], [140.2470497, 36.5639434], [140.2476212, 36.5635349], [140.2482492, 36.5631555], [140.2484314, 36.5630597], [140.2487528, 36.5628793], [140.2491555, 36.5627068], [140.2495239, 36.5625404], [140.2497211, 36.5624629], [140.2499323, 36.562389], [140.2501652, 36.5623241], [140.2503334, 36.5622831], [140.2504427, 36.5622565], [140.2507355, 36.5621904], [140.2510592, 36.5621199], [140.2515448, 36.5620391], [140.2518092, 36.5619956], [140.2520753, 36.561968], [140.2524349, 36.5619603], [140.252741, 36.5619538], [140.2537903, 36.5619575], [140.2544962, 36.561954], [140.2549451, 36.5619518], [140.2554991, 36.5619491], [140.2563413, 36.5619306], [140.2564913, 36.5619273], [140.2590771, 36.5618543], [140.2592215, 36.5618545], [140.2613718, 36.5618344], [140.262081, 36.5618278], [140.2627815, 36.5618483], [140.2638175, 36.5618827], [140.2641487, 36.56189], [140.2643325, 36.561903], [140.2645331, 36.5619148], [140.2647622, 36.5619361], [140.2649843, 36.561968], [140.2652589, 36.5620369], [140.2655336, 36.5621334], [140.2657224, 36.5621955], [140.2659198, 36.562292], [140.2660915, 36.5623816], [140.2662631, 36.5624712], [140.2665035, 36.5625953], [140.266924, 36.5628091], [140.268833, 36.5637673], [140.2690612, 36.5639052], [140.2691731, 36.5639615], [140.2706233, 36.5647187], [140.2711126, 36.5649394], [140.2714044, 36.5650841], [140.2716876, 36.5651875], [140.2718919, 36.5652605], [140.2719194, 36.5652703], [140.272045, 36.5653054], [140.2722121, 36.5653384], [140.2723657, 36.5653668], [140.2726166, 36.5654037], [140.2728978, 36.5654357], [140.2737261, 36.5655177], [140.2740823, 36.5655529], [140.2756444, 36.5657115], [140.2763668, 36.5657879], [140.277404, 36.5658976], [140.2787863, 36.566041], [140.2794607, 36.5661009], [140.2801076, 36.5661733], [140.2806843, 36.5662198], [140.280767, 36.5662265], [140.2813957, 36.5662657], [140.2820131, 36.5662766], [140.2823221, 36.5662766], [140.2828087, 36.5662788], [140.2829685, 36.5662671], [140.2831289, 36.5662628], [140.2832903, 36.566254], [140.2834256, 36.5662452], [140.2835949, 36.5662285], [140.283911, 36.5661832], [140.2840741, 36.566147], [140.2840941, 36.5661426], [140.2842603, 36.5661003], [140.2844363, 36.5660422], [140.284682, 36.5659509], [140.2848699, 36.5658599], [140.2850703, 36.5657565], [140.285199, 36.5656757], [140.2853518, 36.5655576], [140.2854929, 36.5654128], [140.285563, 36.5653319], [140.2858432, 36.5649667], [140.2862663, 36.5644448], [140.2865309, 36.5641402], [140.2867112, 36.5639842], [140.2869546, 36.5637993], [140.2874976, 36.563478], [140.2887078, 36.5627764], [140.2891477, 36.5625316], [140.2893108, 36.5624592], [140.2895061, 36.5623937], [140.2898344, 36.5623161], [140.290491, 36.5621749], [140.2907442, 36.5621214], [140.2909072, 36.5620938], [140.2910983, 36.56208], [140.2912849, 36.5620834], [140.2914137, 36.5620903], [140.2915788, 36.5621076], [140.2917269, 36.5621317], [140.29186, 36.5621662], [140.2920091, 36.5622162], [140.2921346, 36.5622644], [140.2924694, 36.5624316], [140.2931157, 36.5628], [140.2935893, 36.563065], [140.2936378, 36.5630909], [140.2937382, 36.5631445], [140.2945965, 36.5636032], [140.2949641, 36.5638102], [140.2958197, 36.5642506], [140.2959527, 36.5643175], [140.2962003, 36.5644354], [140.2965248, 36.5645973], [140.2965832, 36.5646264], [140.2967385, 36.564704], [140.296921, 36.5647956], [140.2969695, 36.56482], [140.2974046, 36.5650386], [140.2979232, 36.56526], [140.298909, 36.5656491], [140.299705, 36.5659541], [140.3000497, 36.5660734], [140.3002713, 36.5661317], [140.3005247, 36.5661777], [140.3007313, 36.5661999], [140.3009287, 36.566211], [140.3010651, 36.5662062], [140.3011572, 36.5662032], [140.3013177, 36.5661833], [140.3014271, 36.5661634], [140.3015878, 36.5661238], [140.3017056, 36.5660885], [140.3019676, 36.5660051], [140.3021575, 36.5659183], [140.3023032, 36.5658424], [140.302429, 36.5657569], [140.3025057, 36.5657018], [140.3026526, 36.5655805], [140.3029179, 36.5653665], [140.3032679, 36.5650648], [140.3033045, 36.5650333], [140.3035238, 36.5648588], [140.3037137, 36.5647165], [140.3038953, 36.5645944], [140.3044406, 36.5642981], [140.3048612, 36.5640913], [140.3052175, 36.5639136], [140.3056594, 36.5637053], [140.3057653, 36.5636554], [140.3059055, 36.5635881], [140.3061995, 36.5634281], [140.3063962, 36.5633042], [140.3065624, 36.5631862], [140.3067373, 36.5630332], [140.3068665, 36.5629174], [140.3070054, 36.5627744], [140.3071393, 36.5626347], [140.3072726, 36.5624464], [140.3076898, 36.5618429], [140.3079297, 36.5615198], [140.3080863, 36.5613354], [140.3082686, 36.5611476], [140.3084403, 36.5609727], [140.3087032, 36.5607449], [140.3089682, 36.5605131], [140.309391, 36.5601699], [140.309621, 36.5599809], [140.3099434, 36.5597029], [140.3102191, 36.5594901], [140.3104064, 36.5593576], [140.3104443, 36.5593347], [140.310488, 36.5593084], [140.3105886, 36.5592556], [140.3107942, 36.5591565], [140.3109925, 36.5590742], [140.3121733, 36.558613], [140.3122855, 36.5585692], [140.3127395, 36.5584019], [140.3130229, 36.5582909], [140.3130365, 36.5582856], [140.3140435, 36.5578969], [140.3143718, 36.5577823], [140.3152666, 36.557494], [140.3178732, 36.556708], [140.3182487, 36.5565715], [140.3187733, 36.5563571], [140.3189792, 36.5562552], [140.3189713, 36.5561877], [140.3189531, 36.5560842], [140.3189573, 36.5560171], [140.3189825, 36.5559575], [140.3192416, 36.5556334], [140.3193657, 36.5554818], [140.3196566, 36.5550342], [140.3197964, 36.5549189], [140.3199248, 36.5548642], [140.3200325, 36.5548367], [140.3201621, 36.5548315], [140.3203197, 36.5548311], [140.3211757, 36.5549744], [140.3213223, 36.5549844], [140.3214671, 36.5549704], [140.3216108, 36.554927], [140.3217097, 36.5548734], [140.3217757, 36.5548155], [140.3218535, 36.5547388], [140.3219313, 36.5546223], [140.3220051, 36.55442], [140.3222537, 36.5534822], [140.3223143, 36.5533284], [140.3223836, 36.5532134], [140.3224737, 36.553082], [140.3225563, 36.5529695], [140.3226636, 36.5528592], [140.3227746, 36.5527704], [140.3228915, 36.5526958], [140.3232434, 36.5525087], [140.324665, 36.551828], [140.3259772, 36.5512638], [140.3268863, 36.5508808], [140.327398, 36.5506368], [140.3281986, 36.5502955], [140.3283238, 36.5502341], [140.3284303, 36.5501576], [140.32847, 36.5501016], [140.3284989, 36.5500249], [140.3285065, 36.5499051], [140.3284958, 36.5497198], [140.3284989, 36.5496318], [140.3285215, 36.549556], [140.3285644, 36.5494949], [140.3286052, 36.54945], [140.3286685, 36.5494086], [140.3287393, 36.5493716], [140.328868, 36.5493233], [140.3290483, 36.5492543], [140.3292223, 36.5491884], [140.3293027, 36.549158], [140.3297682, 36.5489888], [140.3301658, 36.5488738], [140.330487, 36.5487967], [140.3307152, 36.5487502], [140.3308893, 36.5487245], [140.3310331, 36.5487139], [140.3311435, 36.5487103], [140.331262, 36.5487066], [140.3313291, 36.5487065], [140.3314904, 36.5487062], [140.3314932, 36.5486205], [140.3314949, 36.5485699], [140.3314976, 36.548487], [140.3315487, 36.546641], [140.3315657, 36.5463246], [140.3315804, 36.5460722], [140.3316072, 36.5458679], [140.3316296, 36.5457494], [140.3316743, 36.5455886], [140.3317166, 36.5454599], [140.3317778, 36.5453194], [140.3318599, 36.5451805], [140.3319387, 36.5450715], [140.3320423, 36.5449435], [140.3321517, 36.5448129], [140.3322681, 36.5446957], [140.3323759, 36.5446013], [140.3324462, 36.5445474], [140.332506, 36.544507], [140.3328137, 36.5444087], [140.3331618, 36.544316], [140.333422, 36.5442522], [140.3347347, 36.5439346], [140.3349944, 36.5438708], [140.3351418, 36.5438312], [140.3352754, 36.5437898], [140.3353859, 36.5437423], [140.3354504, 36.5437087], [140.335563, 36.5436243], [140.3356488, 36.5435566], [140.3357518, 36.5434433], [140.3358392, 36.5433183], [140.3359583, 36.5431036], [140.3362883, 36.5424839], [140.3365473, 36.5419973], [140.3367126, 36.5417116], [140.3368504, 36.541487], [140.3369867, 36.5412965], [140.3371251, 36.5411349], [140.3372624, 36.540997], [140.3373997, 36.5408729], [140.3374363, 36.5408473], [140.3375971, 36.540735], [140.3378322, 36.5406048], [140.3380005, 36.5405152], [140.3382237, 36.5404108], [140.3387307, 36.5401743], [140.339548, 36.5397582], [140.3403952, 36.5393282], [140.3413734, 36.5388509], [140.3431039, 36.5379923], [140.343675, 36.5377378], [140.3443778, 36.5373835], [140.3447039, 36.5372111], [140.3448861, 36.5371121], [140.3451932, 36.5369283], [140.345647, 36.536649], [140.3459301, 36.5364499], [140.3460171, 36.5363887], [140.3463852, 36.5361352], [140.3470557, 36.5356456], [140.3474172, 36.5353912], [140.3479397, 36.5350318], [140.3481028, 36.5349146], [140.3483002, 36.5347491], [140.348532, 36.534556], [140.3487125, 36.5344196], [140.3487895, 36.5343284], [140.349004, 36.5341284], [140.34921, 36.5339284], [140.3494075, 36.5337146], [140.3496735, 36.5334111], [140.349936, 36.5330849], [140.3500683, 36.5329284], [140.35024, 36.5326939], [140.3503859, 36.5324732], [140.3505211, 36.5322456], [140.3506434, 36.5320249], [140.3507893, 36.5317352], [140.3508837, 36.5315352], [140.3509523, 36.5313675], [140.3510032, 36.531233], [140.3511015, 36.5309559], [140.3512088, 36.5306275], [140.351351, 36.5301259], [140.3515521, 36.5294147], [140.3519082, 36.5281556], [140.3519223, 36.5281058], [140.3520318, 36.5277842], [140.3521521, 36.5274715], [140.3523236, 36.527063], [140.3526269, 36.5262353], [140.3526538, 36.5261566], [140.3527473, 36.5259246], [140.3529018, 36.5255624], [140.3529984, 36.5253512], [140.3530939, 36.5251917], [140.3532092, 36.5250579], [140.3533471, 36.5249348], [140.3535874, 36.5247899], [140.3538181, 36.5246667], [140.3541367, 36.5245209], [140.354303, 36.5244407], [140.3545659, 36.524314], [140.3552525, 36.5239898], [140.3556123, 36.5238179], [140.3558877, 36.5236863], [140.3561881, 36.5235487], [140.356746, 36.5232932], [140.3568501, 36.5232302], [140.3576193, 36.5228448], [140.358594, 36.5223182], [140.358896, 36.5221404], [140.3592265, 36.5219352], [140.3597372, 36.5215615], [140.3599146, 36.5214353], [140.3599424, 36.5214155], [140.3602725, 36.5211808], [140.3605356, 36.5209661], [140.3606974, 36.5208341], [140.3608382, 36.520712], [140.3610188, 36.5205554], [140.3610662, 36.5205142], [140.3611702, 36.5204241], [140.3612771, 36.520332], [140.3613157, 36.5202987], [140.3615102, 36.5201311], [140.3615868, 36.5200651], [140.3619645, 36.5197271], [140.3623627, 36.5193855], [140.3636751, 36.5182629], [140.3638785, 36.5180854], [140.3642899, 36.5177399], [140.36434, 36.5176971], [140.3645693, 36.5174938], [140.3647788, 36.5173094], [140.3649625, 36.5171317], [140.3651418, 36.5169451], [140.365298, 36.5167562], [140.3654474, 36.5165469], [140.3655041, 36.516462], [140.3656236, 36.5162641], [140.3656915, 36.5161516], [140.3658194, 36.5159296], [140.3662911, 36.515058], [140.3665969, 36.5144933], [140.36664, 36.5144144], [140.3666814, 36.5143378], [140.3667117, 36.5142799], [140.3667325, 36.5142403], [140.3672162, 36.5133151], [140.3673801, 36.5130335], [140.3676038, 36.5127212], [140.3677928, 36.512496], [140.368024, 36.5122458], [140.3685421, 36.5118195], [140.3690419, 36.5114753], [140.3695559, 36.5111585], [140.3697032, 36.511057], [140.3699513, 36.5108576], [140.3702128, 36.5105939], [140.3703707, 36.5103997], [140.370504, 36.5101862], [140.3705952, 36.5100223], [140.3706842, 36.5098048], [140.3706993, 36.509768], [140.370928, 36.5091182], [140.3713114, 36.5080344], [140.3713897, 36.5078377], [140.3714715, 36.5076651], [140.3715896, 36.507447], [140.3717017, 36.5072717], [140.3721872, 36.5064895], [140.3722501, 36.5063558], [140.3723055, 36.5061895], [140.3723193, 36.5061094], [140.3724373, 36.5054258], [140.3724465, 36.5053519], [140.3724532, 36.5052003], [140.3724476, 36.5050699], [140.3724172, 36.5049126], [140.372366, 36.5047683], [140.3721097, 36.5041531], [140.3720652, 36.503976], [140.3720383, 36.5037825], [140.3720241, 36.5032014], [140.3720108, 36.5026595], [140.3719991, 36.5021794], [140.3719679, 36.5008742], [140.3719416, 36.5005972], [140.3719117, 36.5003593], [140.3719073, 36.5003245], [140.3718726, 36.500131], [140.3718568, 36.5000441], [140.3718443, 36.4999562], [140.3716983, 36.4991749], [140.3716704, 36.4989167], [140.371677, 36.4986858], [140.3717058, 36.498288], [140.3717206, 36.4981549], [140.3717915, 36.4974536], [140.3718487, 36.4971872], [140.3719343, 36.4969089], [140.3719704, 36.4968388], [140.3720734, 36.4966393], [140.3722333, 36.4964056], [140.3723842, 36.4962278], [140.3726151, 36.4959806], [140.3729341, 36.4956456], [140.3730269, 36.4955346], [140.3731339, 36.4953846], [140.3753405, 36.4949587], [140.3759676, 36.4948413], [140.3762955, 36.4947962], [140.3764987, 36.4947853], [140.3768148, 36.4947829], [140.3777965, 36.4948429], [140.377931, 36.4948413], [140.3780356, 36.4948247], [140.3782126, 36.4947686], [140.3783253, 36.4947184], [140.3784433, 36.4946501], [140.3788237, 36.4942029], [140.3791215, 36.4937479], [140.3791639, 36.4936726], [140.3797075, 36.4926863], [140.3800137, 36.4920175], [140.3802339, 36.4914543], [140.3804061, 36.4907946], [140.3804437, 36.4905762], [140.380349, 36.4907805], [140.379889, 36.4920841], [140.3796235, 36.4926743], [140.3789851, 36.4938069], [140.3786873, 36.4942619], [140.3784433, 36.4946501]], [[140.3804437, 36.4905762], [140.3806013, 36.4897028], [140.3806437, 36.4894691], [140.3806738, 36.4892729], [140.3807118, 36.4890021], [140.3807425, 36.4886919], [140.3807712, 36.4883573], [140.3807822, 36.4880683], [140.3807862, 36.4878573], [140.380803, 36.4863048], [140.3807784, 36.4854953], [140.3807909, 36.4841451], [140.3808094, 36.4835003], [140.3808244, 36.48224], [140.38084, 36.4806978], [140.3808387, 36.4794822], [140.3808479, 36.4786132], [140.3808584, 36.4776046], [140.3808653, 36.4775268], [140.3808815, 36.4774628], [140.3809503, 36.4773574], [140.3810032, 36.4772621], [140.3810514, 36.4772109], [140.3810996, 36.4771516], [140.3811618, 36.4770942], [140.3812326, 36.4770432], [140.381295, 36.477001], [140.3814409, 36.4769073], [140.3818601, 36.4766779], [140.3822227, 36.4764794], [140.3823785, 36.4764005], [140.3836905, 36.4756807], [140.3840655, 36.4754749], [140.3849494, 36.47499], [140.3851152, 36.4748968], [140.385669, 36.474636], [140.3861518, 36.4744134], [140.3863579, 36.4743119], [140.386788, 36.4741003], [140.387438, 36.4738453], [140.3880671, 36.4736176], [140.3883889, 36.4734893], [140.3887363, 36.4733405], [140.3888033, 36.4733053], [140.3888938, 36.4732504], [140.389025, 36.4731785], [140.3897502, 36.4727808], [140.3904461, 36.4724289], [140.3910225, 36.4721305], [140.3924133, 36.4714621], [140.3926747, 36.4713239], [140.3929384, 36.4711314], [140.3935538, 36.4706594], [140.3941322, 36.4701988], [140.3947141, 36.469723], [140.3953011, 36.4692118], [140.3953374, 36.4691775], [140.3955663, 36.468959], [140.3957385, 36.468766], [140.395947, 36.4685059], [140.3963842, 36.4678095], [140.3966443, 36.4673953], [140.3970991, 36.4666967], [140.3971695, 36.4665885], [140.3973095, 36.4663855], [140.3975098, 36.4661178], [140.397566, 36.4660427], [140.3977588, 36.4658019], [140.3980314, 36.4655223], [140.3980954, 36.4654627], [140.3985197, 36.4650676], [140.3987059, 36.464889], [140.3988853, 36.4646872], [140.3990252, 36.464505], [140.3993685, 36.4639819], [140.3995573, 36.4637422], [140.3997392, 36.463555], [140.399985, 36.4633113], [140.4002652, 36.4630155], [140.400544, 36.4626781], [140.4007196, 36.4624345], [140.4009044, 36.4621942], [140.4011669, 36.4619131], [140.4014873, 36.4615958], [140.4017106, 36.4613934], [140.4019878, 36.4611422], [140.4023591, 36.4608287], [140.4027752, 36.460523], [140.4034614, 36.4600141], [140.4039085, 36.459697], [140.4041062, 36.4595568], [140.4047052, 36.459154], [140.4050944, 36.4588922], [140.4054217, 36.4586548], [140.4057831, 36.4583927], [140.4059101, 36.4583006], [140.4060801, 36.458166], [140.4062333, 36.458035], [140.4063143, 36.4579531], [140.406407, 36.4578594], [140.4065911, 36.457648], [140.4066952, 36.4575229], [140.4067708, 36.4574019], [140.4068293, 36.4572588], [140.4068829, 36.4570513], [140.4069461, 36.4568064], [140.4070779, 36.4562043], [140.4070896, 36.45601], [140.4070788, 36.4558402], [140.4070608, 36.4555971], [140.4070611, 36.4554567], [140.4071075, 36.4552797], [140.4071749, 36.4551511], [140.4075525, 36.4546704], [140.4076444, 36.4545403], [140.4077003, 36.4543767], [140.4077358, 36.454168], [140.4077537, 36.4539235], [140.4077197, 36.4535602], [140.4077214, 36.4533011], [140.407762, 36.4529878], [140.4078441, 36.4526873], [140.4079958, 36.4523612], [140.4083552, 36.4515171], [140.4086296, 36.4509075], [140.4090166, 36.4499564], [140.4095409, 36.4486772], [140.4097997, 36.4480717], [140.4100035, 36.4475947], [140.4100279, 36.4475376], [140.4101257, 36.4473057], [140.4101782, 36.4471809], [140.4105229, 36.4463536], [140.410926, 36.4453872], [140.4111059, 36.4449511], [140.4113405, 36.4443915], [140.4114912, 36.4440309], [140.4117457, 36.4434261], [140.4117523, 36.4434105], [140.4119723, 36.4428853], [140.412011, 36.4427935], [140.4120441, 36.4427137], [140.4122586, 36.4422414], [140.4123786, 36.4420231], [140.4124803, 36.4418626], [140.4126002, 36.4416741], [140.4127219, 36.4415009], [140.4128638, 36.4413179], [140.413025, 36.4411169], [140.4131829, 36.4409415], [140.4134408, 36.4406681], [140.4136604, 36.4404569], [140.4138941, 36.4402602], [140.4147149, 36.4395939], [140.4159488, 36.4385839], [140.4162908, 36.4382812], [140.4165274, 36.4380539], [140.4167993, 36.437781], [140.4170054, 36.4375511], [140.4171757, 36.4373407], [140.4175032, 36.4369428], [140.4176411, 36.4367646], [140.4180653, 36.4361961], [140.4188969, 36.4349178], [140.4192919, 36.4342478], [140.4195106, 36.4338492], [140.4197262, 36.4334357], [140.4197575, 36.4333738], [140.420364, 36.432067], [140.4205526, 36.4315718], [140.4206468, 36.4312111], [140.4210792, 36.4284012], [140.4211823, 36.4278945], [140.4216745, 36.4259056], [140.4222298, 36.4240124], [140.4224718, 36.4232767], [140.422782, 36.4223631], [140.4230994, 36.4214508], [140.4234073, 36.4205351], [140.4237232, 36.4196222], [140.4238883, 36.4191506], [140.4239776, 36.4188907], [140.4239912, 36.4188508], [140.4240492, 36.418682], [140.4240905, 36.418567], [140.4241088, 36.4185162], [140.424189, 36.4182932], [140.4243633, 36.4177856], [140.4244557, 36.4175125], [140.4245653, 36.4171509], [140.4246555, 36.4169201], [140.4249007, 36.4161906], [140.4250603, 36.4157204], [140.4251306, 36.4155102], [140.4251912, 36.4153288], [140.4252075, 36.4152798], [140.4252628, 36.415109], [140.425296, 36.4150088], [140.4253091, 36.4149688], [140.4253954, 36.4147071], [140.4256255, 36.4140092], [140.4261759, 36.4124536], [140.4262058, 36.4123643], [140.4262286, 36.4122865], [140.4264019, 36.4117913], [140.4264095, 36.4117645], [140.426494, 36.4115274], [140.4265888, 36.4113056], [140.4267083, 36.4110525], [140.4268746, 36.4107589], [140.4271131, 36.4104197], [140.4272647, 36.4102461], [140.4273552, 36.4101425], [140.4274262, 36.4100496], [140.4274581, 36.410008], [140.4277383, 36.4097304], [140.4281634, 36.4093116], [140.428308, 36.4091619], [140.4283915, 36.4090577], [140.428568, 36.4088373], [140.4287676, 36.4085754], [140.4289982, 36.4082573], [140.4291803, 36.4080059], [140.4292061, 36.4079705], [140.4293018, 36.4078383], [140.4293945, 36.4076988], [140.4294462, 36.407621], [140.4296104, 36.4073736], [140.4297633, 36.4071196], [140.4299012, 36.4068879], [140.43012, 36.4064217], [140.4301383, 36.4063827], [140.4301822, 36.4062892], [140.430225, 36.4061972], [140.4302608, 36.4061207], [140.430675, 36.4052369], [140.4308294, 36.4049238], [140.4309192, 36.4047642], [140.4309945, 36.4046563], [140.4310878, 36.4045468], [140.4311648, 36.4044739], [140.4312535, 36.4044094], [140.4313565, 36.404351], [140.4314679, 36.4042948], [140.4319521, 36.4040711], [140.4333931, 36.4034431], [140.433668, 36.4033522], [140.4340512, 36.4032441], [140.4345162, 36.4031236], [140.4346865, 36.4030675], [140.4348462, 36.403025], [140.4350218, 36.4029477], [140.4351748, 36.4028823], [140.4356649, 36.4026253], [140.4357279, 36.4025922], [140.4357818, 36.4025631], [140.4373782, 36.4017011], [140.4376446, 36.4015445], [140.4377054, 36.4015088], [140.437771, 36.401469], [140.438892, 36.4007878], [140.4393929, 36.4004928], [140.4395552, 36.4003939], [140.4401743, 36.3999977], [140.440512, 36.3997816], [140.4407957, 36.3996], [140.4408178, 36.3995864], [140.4412655, 36.3993119], [140.4415841, 36.3991178], [140.4423884, 36.3986178], [140.4433804, 36.398054], [140.443561, 36.3979513], [140.4440021, 36.3976945], [140.4443286, 36.3974837], [140.4443826, 36.3974489], [140.4445708, 36.3973275]], [[140.380803, 36.4863048], [140.3808662, 36.4856948], [140.3808922, 36.4854732], [140.3809389, 36.4848877], [140.3809454, 36.4840723], [140.3809497, 36.4835017], [140.3809595, 36.4822531], [140.3809604, 36.4821404], [140.3809721, 36.4806467], [140.3809972, 36.4794372], [140.3810003, 36.4785797], [140.3809937, 36.4776054], [140.3809847, 36.4775258], [140.3809722, 36.4774581], [140.3809503, 36.4773574]]]}, "id": "relation/3262076"}, {"type": "Feature", "properties": {"@id": "relation/9055807", "description": "整備中の桂常北バイパスの現道区間", "name": "国道123号", "ref": "123", "route": "road", "type": "route"}, "geometry": {"type": "MultiLineString", "coordinates": [[[140.3766802, 36.4874838], [140.3763454, 36.4873279], [140.3759759, 36.4871646], [140.375794, 36.4871036], [140.3755837, 36.4870426], [140.3747513, 36.4868257], [140.3746667, 36.4868022], [140.3746147, 36.4867845], [140.3745758, 36.4867609], [140.3745582, 36.4867331], [140.3745544, 36.4866971], [140.3745559, 36.4866683], [140.374564, 36.4866416], [140.3746043, 36.4866116], [140.3746419, 36.4866031], [140.3746798, 36.4866031], [140.3747183, 36.4866077], [140.3747624, 36.4866192], [140.3751853, 36.4867557], [140.3752328, 36.4867648], [140.3752819, 36.486763], [140.3753338, 36.4867487], [140.3754039, 36.4867107], [140.3754698, 36.4866573], [140.3755109, 36.4866084], [140.3755385, 36.4865601], [140.3755634, 36.4865012], [140.375583, 36.4864366], [140.3755925, 36.4863692], [140.3755944, 36.4863126], [140.3755948, 36.486227], [140.3755827, 36.485647], [140.3755745, 36.4853682], [140.3755669, 36.4851332], [140.3755593, 36.4846604], [140.3755291, 36.4836596], [140.375527, 36.4835908], [140.3755237, 36.483478]]]}, "id": "relation/9055807"}]}