{"type": "FeatureCollection", "generator": "kokudo-quiz tools/fetch_raw.py (Overpass API)", "copyright": "The data included in this document is from www.openstreetmap.org. The data is made available under ODbL.", "timestamp": "2026-09-30T14:39:46Z", "features": [{"type": "Feature", "properties": {"@id": "relation/3767038", "colour": "red", "distance": "0.482", "from": "東京都港区東京港", "name": "国道130号", "name:en": "National Highway Route 130", "name:ja": "国道130号", "network": "JP:national", "official_name": "一般国道130号", "ref": "130", "route": "road", "to": "東京都港区芝一丁目", "type": "route", "wikidata": "Q6156766", "wikipedia": "ja:国道130号"}, "geometry": {"type": "MultiLineString", "coordinates": [[[139.7582598, 35.6472221], [139.7577493, 35.6473824], [139.757639, 35.6474169], [139.7573453, 35.6475074], [139.7573004, 35.6475231], [139.7570805, 35.6475932], [139.7565043, 35.6477771], [139.7551713, 35.6482107], [139.7551247, 35.6482307], [139.7551164, 35.6482347], [139.7549929, 35.6483], [139.7549207, 35.6483456], [139.7548796, 35.6483786], [139.754854, 35.6484033], [139.7547153, 35.6485261], [139.7546897, 35.648546], [139.7546325, 35.648577], [139.7545535, 35.6486061], [139.7542012, 35.6487154], [139.7536546, 35.6488872], [139.7536377, 35.6488925], [139.7533187, 35.6489917], [139.7532649, 35.6490084], [139.7531423, 35.6490458], [139.7529459, 35.649107]], [[139.7530113, 35.6491821], [139.7532039, 35.649136], [139.753328, 35.6491064], [139.7537001, 35.6489924], [139.7537651, 35.6489716], [139.7543068, 35.6487984], [139.7547018, 35.648665], [139.7547576, 35.6486389], [139.7548401, 35.6485839], [139.7548898, 35.6485329], [139.7549249, 35.6484969], [139.7549437, 35.6484758], [139.7549596, 35.6484546], [139.754997, 35.648417], [139.7550507, 35.6483771], [139.7551416, 35.6483101], [139.7551595, 35.6483001], [139.7552375, 35.6482597], [139.7565349, 35.6478397], [139.757114, 35.6476601], [139.7573361, 35.6475901], [139.7573787, 35.6475764], [139.7576724, 35.6474837], [139.7577835, 35.6474501], [139.7581579, 35.6473361]]]}, "id": "relation/3767038"}]}