{"type": "FeatureCollection", "generator": "kokudo-quiz tools/fetch_raw.py (Overpass API)", "copyright": "The data included in this document is from www.openstreetmap.org. The data is made available under ODbL.", "timestamp": "2026-09-30T14:39:46Z", "features": [{"type": "Feature", "properties": {"@id": "relation/2665187", "colour": "red", "distance": "4.6 km", "from": "神奈川県川崎市川崎区川崎港", "name": "国道132号", "name:en": "National Highway Route 132", "name:ja": "国道132号", "network": "JP:national", "official_name": "一般国道132号", "ref": "132", "route": "road", "to": "神奈川県川崎市川崎区宮前町", "type": "route", "wikidata": "Q11421407", "wikipedia": "ja:国道132号"}, "geometry": {"type": "MultiLineString", "coordinates": [[[139.7529869, 35.5229674], [139.7524682, 35.523357], [139.7521115, 35.5236175], [139.7505869, 35.5248012], [139.7504086, 35.5249075], [139.7502262, 35.5250166], [139.7498722, 35.5251651], [139.7496361, 35.5252393], [139.7488253, 35.5254378], [139.7485104, 35.5255154], [139.7477305, 35.5257075], [139.7476028, 35.5257741], [139.7474327, 35.5258316], [139.7471012, 35.525918], [139.746833, 35.5259861], [139.7464934, 35.5260586], [139.7461452, 35.5260941], [139.7459356, 35.5260987], [139.7457319, 35.5260943], [139.7455035, 35.526076], [139.7447389, 35.5259458], [139.744532, 35.5259266], [139.7441345, 35.5259292], [139.7437498, 35.5259595], [139.7423651, 35.5261207], [139.7419569, 35.5261903], [139.7413718, 35.5263162], [139.7411705, 35.5263595], [139.7409721, 35.526404], [139.7407202, 35.5264793], [139.740585, 35.5265356], [139.7404603, 35.5265971]], [[139.7045779, 35.5298763], [139.7048208, 35.5298195], [139.7056275, 35.5296184], [139.7059764, 35.5295295], [139.7066532, 35.5293722], [139.7068052, 35.5293341], [139.7069836, 35.5292981], [139.7071163, 35.5292785], [139.7072178, 35.5292636], [139.707453, 35.5292391], [139.7076461, 35.5292315], [139.7078616, 35.5292325], [139.7090428, 35.5293065], [139.7099315, 35.5293708], [139.712723, 35.5295366], [139.7131987, 35.5295648], [139.7133683, 35.5295749], [139.7137957, 35.529574], [139.713984, 35.5295622], [139.7141003, 35.5295514], [139.7142135, 35.5295443], [139.7143449, 35.5295318], [139.715055, 35.5295392], [139.7151301, 35.5295374], [139.7157969, 35.5295635], [139.7164167, 35.5295878], [139.7164973, 35.5295894], [139.7165677, 35.5295921], [139.7173744, 35.5296302], [139.7178179, 35.5296428], [139.7178884, 35.5296474], [139.7182333, 35.5296518], [139.7185493, 35.5296428], [139.718787, 35.529642], [139.7189202, 35.5296417], [139.7192884, 35.529609], [139.7195925, 35.5296011], [139.7197353, 35.5295985], [139.7200177, 35.5295852], [139.7208367, 35.5295491], [139.7209102, 35.5295477], [139.7210031, 35.5295478], [139.7210832, 35.5295449], [139.7219934, 35.5295058], [139.7220886, 35.529503], [139.7222843, 35.5295033], [139.7224766, 35.529507], [139.7229061, 35.5295097], [139.7230501, 35.5295113], [139.7231867, 35.5295177], [139.7235617, 35.5295242], [139.7238191, 35.5295366], [139.7240881, 35.5295435], [139.7249436, 35.5295567], [139.725014, 35.5295571], [139.7253146, 35.5295589], [139.7258366, 35.5295621], [139.7267912, 35.5295642], [139.7268626, 35.5295644], [139.7271956, 35.5295766], [139.7278955, 35.5296088], [139.7284313, 35.5296282], [139.7289643, 35.5296557], [139.7290432, 35.5296617], [139.7291273, 35.5296659], [139.7306793, 35.5297276], [139.7309007, 35.529736], [139.7323192, 35.5297973], [139.7325903, 35.5298066], [139.7326591, 35.5298105], [139.7327326, 35.5298138], [139.7331831, 35.5298327], [139.733268, 35.5298379], [139.7333571, 35.5298403], [139.7343053, 35.5298829], [139.7346231, 35.5298908], [139.7347506, 35.5298876], [139.7348786, 35.5298769], [139.7350163, 35.52986], [139.7351555, 35.5298324], [139.7353123, 35.5297888], [139.7354237, 35.5297556], [139.7355854, 35.5296985], [139.7356434, 35.5296803], [139.7357417, 35.5296426], [139.7358091, 35.5296027], [139.7369808, 35.5290783], [139.737527, 35.5288445], [139.7378746, 35.5286915], [139.7380031, 35.5286336], [139.7381984, 35.5285207], [139.7382819, 35.5284526], [139.7386514, 35.5281513], [139.7393221, 35.5275655], [139.7397375, 35.5272057], [139.7402894, 35.526719], [139.7403543, 35.5266697], [139.7404603, 35.5265971]], [[139.7477305, 35.5257075], [139.7475676, 35.525697], [139.7470537, 35.5258335], [139.7467999, 35.5259055], [139.7465725, 35.5259508], [139.7461414, 35.5260142], [139.7459355, 35.5260195], [139.7457072, 35.5260119], [139.7455567, 35.5259981], [139.7450359, 35.5259056], [139.7447567, 35.5258661], [139.7445239, 35.525844], [139.7441081, 35.5258461], [139.7437058, 35.5258833], [139.7430085, 35.5259418], [139.7423236, 35.5260284], [139.7419212, 35.5261074], [139.7413313, 35.5262281], [139.7411211, 35.5262738], [139.7409321, 35.5263303], [139.7406885, 35.5264098], [139.7405447, 35.5264723], [139.7404362, 35.5265141], [139.7403242, 35.526579], [139.7401817, 35.5266989], [139.7400158, 35.5268311], [139.739654, 35.5271568], [139.7394892, 35.5272996], [139.7389469, 35.5277692], [139.7382382, 35.5283791], [139.7381434, 35.5284323], [139.7379419, 35.5285417], [139.7378173, 35.5286073], [139.7371714, 35.5289018], [139.7369201, 35.529025], [139.7358897, 35.5294868], [139.7357675, 35.5295432], [139.735679, 35.529584], [139.7355984, 35.5296124], [139.7355089, 35.529644], [139.7353421, 35.5297018], [139.7351414, 35.5297554], [139.7350644, 35.5297714], [139.7350162, 35.5297815], [139.7348933, 35.5298034], [139.7347847, 35.5298099], [139.7345862, 35.5298132], [139.7340449, 35.529791], [139.7333604, 35.5297698], [139.7332746, 35.5297672], [139.7331896, 35.529763], [139.7327351, 35.5297408], [139.7326625, 35.5297373], [139.732593, 35.5297344], [139.7314824, 35.5296882], [139.7309048, 35.5296642], [139.7308158, 35.5296605], [139.7301286, 35.5296407], [139.7291307, 35.529597], [139.7290262, 35.5295883], [139.7289662, 35.5295818], [139.7279004, 35.5295283], [139.7268637, 35.529492], [139.7267914, 35.5294911], [139.7264313, 35.5294865], [139.7258301, 35.5294787], [139.7250036, 35.5294813], [139.7249304, 35.5294815], [139.7245951, 35.5294782], [139.7238217, 35.5294614], [139.7231885, 35.5294466], [139.7230267, 35.5294475], [139.722907, 35.5294455], [139.7226885, 35.5294502], [139.7225576, 35.5294513], [139.7223099, 35.5294527], [139.7220588, 35.5294369], [139.7219588, 35.5294345], [139.7215165, 35.5294486], [139.7211412, 35.529466], [139.7210704, 35.5294701], [139.7209811, 35.5294734], [139.7208948, 35.5294777], [139.7198731, 35.5295205], [139.719588, 35.5295288], [139.7191721, 35.529548], [139.7189133, 35.5295575], [139.7186806, 35.5295655], [139.7185517, 35.529568], [139.7178592, 35.5295791], [139.7177931, 35.5295807], [139.7170802, 35.5295393], [139.7164977, 35.5295246], [139.7164173, 35.5295223], [139.7157887, 35.529494], [139.7151253, 35.5294614], [139.7150465, 35.5294585], [139.7148906, 35.5294538], [139.7143127, 35.5294362], [139.7142007, 35.5294407], [139.7140935, 35.5294518], [139.7139688, 35.529466], [139.7136681, 35.5294733], [139.7127328, 35.529421], [139.7093031, 35.5292298], [139.7090498, 35.5292157], [139.7089061, 35.5292064], [139.7085797, 35.5291863], [139.7078128, 35.529133], [139.7075874, 35.529133], [139.7074504, 35.5291382], [139.707216, 35.5291602], [139.7071002, 35.5291746], [139.7069627, 35.5291917], [139.7067706, 35.5292291], [139.7066422, 35.5292566], [139.7058954, 35.5294418], [139.705438, 35.5295553], [139.7047521, 35.5297254], [139.7045266, 35.5298027]]]}, "id": "relation/2665187"}]}