{"type": "FeatureCollection", "generator": "kokudo-quiz tools/fetch_raw.py (Overpass API)", "copyright": "The data included in this document is from www.openstreetmap.org. The data is made available under ODbL.", "timestamp": "2026-09-30T14:41:44Z", "features": [{"type": "Feature", "properties": {"@id": "relation/2104795", "colour": "red", "from": "長野県大町市", "name": "国道147号", "name:en": "National Highway Route 147", "name:ja": "国道147号", "name:ja-Hira": "こくどうひゃくよんじゅうななごう", "name:ja-Latn": "kokudou 147 gou", "network": "JP:national", "official_name": "一般国道147号", "ref": "147", "route": "road", "to": "長野県松本市", "type": "route", "wikidata": "Q6156805", "wikipedia": "ja:国道147号"}, "geometry": {"type": "MultiLineString", "coordinates": [[[137.9448092, 36.2658466], [137.9446927, 36.2658041], [137.9442782, 36.265788], [137.9441052, 36.2657847], [137.9439027, 36.2657847], [137.9436277, 36.2658019], [137.9436006, 36.2658101], [137.9435335, 36.2658201], [137.9434741, 36.2658352], [137.9432755, 36.2658827], [137.9431952, 36.2659139], [137.943108, 36.2659447], [137.9429746, 36.2660102], [137.9428928, 36.2660561], [137.942817, 36.2661075], [137.9427077, 36.2661869], [137.9426393, 36.2662443], [137.9425709, 36.2663081], [137.9424819, 36.2663831], [137.942087, 36.2666996], [137.9418669, 36.2668659], [137.9414875, 36.2671467], [137.9413459, 36.2672565], [137.9412482, 36.2673324], [137.9410017, 36.267489], [137.9409569, 36.2675173], [137.9408343, 36.2675947], [137.9407507, 36.2676425], [137.9401848, 36.2679402], [137.9396864, 36.2682028], [137.9393301, 36.2683885], [137.9392039, 36.2684591], [137.9391289, 36.2685506]], [[137.9448092, 36.2658466], [137.9446973, 36.2658845], [137.9441632, 36.2658667], [137.9439001, 36.2658643], [137.9436273, 36.2658754], [137.9435964, 36.2658811], [137.9435301, 36.2658967], [137.9434548, 36.2659179], [137.9432627, 36.2659765], [137.9431916, 36.266008], [137.9431129, 36.2660428], [137.94298, 36.2661121], [137.9427135, 36.2662816], [137.9422394, 36.2666708], [137.9419182, 36.2669143], [137.9413974, 36.2673025], [137.9412223, 36.2674355], [137.9410552, 36.2675409], [137.9410059, 36.2675789], [137.9408819, 36.2676511], [137.9392504, 36.268518], [137.9391289, 36.2685506], [137.9390418, 36.2686167], [137.9390152, 36.2686317], [137.9382916, 36.2690042], [137.937718, 36.2693051], [137.9364097, 36.2699904], [137.936296, 36.2700459], [137.936076, 36.2701639], [137.9357291, 36.2703535], [137.9354437, 36.2705479], [137.9351951, 36.2707551], [137.9350691, 36.2708539], [137.9349113, 36.2709869], [137.9346658, 36.271197], [137.9344008, 36.2714021], [137.9341628, 36.2715576], [137.9339877, 36.2716563], [137.9338125, 36.2717304], [137.9334652, 36.2718596], [137.9333225, 36.2719107], [137.9331804, 36.2719619], [137.9325198, 36.2722015], [137.9322997, 36.2722481], [137.932051, 36.2723212], [137.9318022, 36.2724159], [137.9304579, 36.2730109], [137.9299801, 36.2732548], [137.929724, 36.2734224], [137.9295253, 36.2735714], [137.9293009, 36.2737672], [137.9290835, 36.273965], [137.9288237, 36.2742207], [137.9282718, 36.2748055], [137.9282168, 36.2748395], [137.9279238, 36.2751381], [137.9276561, 36.2753909], [137.9273359, 36.2756765], [137.9260394, 36.276719], [137.9249185, 36.2776234], [137.9245795, 36.2778921], [137.9238989, 36.2784112], [137.9234682, 36.2786548], [137.9225196, 36.2790788], [137.9217517, 36.2793954], [137.9212806, 36.2795636], [137.920851, 36.2796851], [137.9212915, 36.2796054], [137.9215204, 36.2795436], [137.9218088, 36.2794537], [137.9225997, 36.2791881], [137.9235048, 36.2787592], [137.9238349, 36.2785796], [137.9242847, 36.2782804], [137.9246997, 36.2779455], [137.9257202, 36.2771245], [137.926111, 36.2768038], [137.9262353, 36.276718], [137.9274504, 36.2757212], [137.9275943, 36.2755859], [137.9277302, 36.2754398], [137.927858, 36.2752808], [137.9279858, 36.2751347], [137.9282468, 36.2748555], [137.9282718, 36.2748055]], [[137.920851, 36.2796851], [137.9207649, 36.2797077], [137.9206816, 36.2797303], [137.9198787, 36.2799627], [137.9187969, 36.280247], [137.917732, 36.2805139], [137.9171431, 36.2806694], [137.9165976, 36.2808247], [137.9163436, 36.2809082], [137.9157752, 36.2811002], [137.915527, 36.2812005], [137.9151898, 36.2813544], [137.9147593, 36.2815664], [137.9143287, 36.2817915], [137.9140201, 36.2819587], [137.9135533, 36.2822427], [137.9129308, 36.2826256], [137.9123136, 36.2830431], [137.9122523, 36.2830947], [137.9115087, 36.2837116], [137.9110881, 36.2841172], [137.9110426, 36.2841642], [137.9109401, 36.2842747], [137.910879, 36.2843393], [137.9108251, 36.2843963], [137.9106902, 36.2845469], [137.9105073, 36.2847511], [137.9102177, 36.2850487], [137.9100637, 36.2851873], [137.9099882, 36.2852481], [137.9099087, 36.2853068], [137.9098252, 36.2853579], [137.9097376, 36.2854069], [137.909617, 36.2854659], [137.9094937, 36.2855162], [137.9092998, 36.2855757], [137.9091886, 36.2856015], [137.9090466, 36.2856273], [137.9089188, 36.2856421], [137.9088207, 36.2856472], [137.9087602, 36.2856503], [137.9080888, 36.2856461], [137.9079784, 36.2856458], [137.9079736, 36.2857481], [137.9079534, 36.2861775], [137.9079123, 36.2864853], [137.9078606, 36.2867142], [137.9078057, 36.2871139], [137.9076953, 36.2877408], [137.9076477, 36.288011], [137.9076132, 36.2881738], [137.9073644, 36.2892129], [137.9073065, 36.2894378], [137.9072447, 36.2897027], [137.9070159, 36.2906275], [137.9067919, 36.2914214], [137.9066439, 36.2919469], [137.9064189, 36.2927515], [137.9062276, 36.2933976], [137.9061238, 36.2937714], [137.9060937, 36.2938897], [137.9060916, 36.2939077], [137.9059274, 36.2947462], [137.905918, 36.2948111], [137.9059102, 36.2948588], [137.9057264, 36.2960073], [137.9055958, 36.296751], [137.9055299, 36.297095], [137.9055085, 36.2972076], [137.9054971, 36.2973145], [137.9054769, 36.2975075], [137.9054662, 36.2975869], [137.9054174, 36.2979201], [137.9053671, 36.2981302], [137.9053049, 36.2983062], [137.9052092, 36.2984774], [137.9050666, 36.2987326], [137.9048005, 36.2991805], [137.9045621, 36.2995739], [137.9045064, 36.2996609], [137.9042506, 36.3001168], [137.9037351, 36.3010472], [137.903692, 36.301125], [137.9036513, 36.3012014], [137.903141, 36.3021616], [137.9028724, 36.3026816], [137.9028486, 36.3027276], [137.902826, 36.302768], [137.902818, 36.302784], [137.9027783, 36.3028543], [137.902389, 36.3035501], [137.9023434, 36.3036408], [137.9020988, 36.3040922], [137.9012893, 36.3056511], [137.901003, 36.306215], [137.9007992, 36.3066501], [137.9007421, 36.3067761], [137.9007119, 36.3068416], [137.9001513, 36.3080227], [137.8998087, 36.3087333], [137.8997992, 36.3087546], [137.8997643, 36.3088297], [137.8997539, 36.3088535], [137.8996609, 36.3090455], [137.899453, 36.3094686], [137.8993866, 36.3095959], [137.8991151, 36.3101199], [137.8990614, 36.3102465], [137.8990106, 36.3103465], [137.898684, 36.3110367], [137.8985788, 36.3112283], [137.8983169, 36.3116678], [137.8981339, 36.3120083], [137.8979509, 36.3123661], [137.8978999, 36.3124862], [137.897516, 36.3133902], [137.8974926, 36.3134453], [137.8974662, 36.313504], [137.8974087, 36.3136319], [137.89709, 36.3143414], [137.8967342, 36.3151017], [137.8963481, 36.315786], [137.896319, 36.3158377], [137.8960057, 36.3163749], [137.8959869, 36.3164047], [137.895782, 36.3167351], [137.8954968, 36.3171623], [137.8950885, 36.3176987], [137.8950697, 36.3177257], [137.8949228, 36.3179104], [137.8948981, 36.3179461], [137.8945726, 36.3184126], [137.8940168, 36.3192093], [137.8937248, 36.3196773], [137.8936468, 36.3198179], [137.8935853, 36.3199781], [137.8935208, 36.3201865]], [[137.8858699, 36.345262], [137.8861228, 36.3449109], [137.8861793, 36.3448251], [137.8862844, 36.3446514], [137.8865197, 36.3441314], [137.8866652, 36.3437339], [137.8870083, 36.3428014], [137.8874289, 36.3416561], [137.8874839, 36.3415057], [137.8877439, 36.3407952], [137.887754, 36.3407539], [137.8879469, 36.3402177], [137.8884453, 36.338823], [137.8886002, 36.33846], [137.8888015, 36.3379494], [137.8890129, 36.3374656], [137.8891357, 36.3371698], [137.8891624, 36.3371082], [137.8892693, 36.336861], [137.8893457, 36.3366845], [137.8900397, 36.3350514], [137.8900573, 36.3350072], [137.89042, 36.334127], [137.8905342, 36.3338587], [137.8907066, 36.3334538], [137.891184, 36.332329], [137.8913035, 36.3320186], [137.891455, 36.331478], [137.8916259, 36.3308156], [137.8919949, 36.3294042], [137.8921699, 36.3286683], [137.8924018, 36.3277905], [137.8925333, 36.3272795], [137.8928777, 36.3259503], [137.8932053, 36.3247145], [137.89323, 36.3246214], [137.8933606, 36.3241411], [137.8933902, 36.324032], [137.8934019, 36.3239299], [137.8934436, 36.3235685], [137.8934542, 36.3221294], [137.8934524, 36.3209054], [137.8934621, 36.3205889], [137.8934752, 36.3204014], [137.8935208, 36.3201865]], [[137.8858699, 36.345262], [137.8857962, 36.3453414], [137.8850701, 36.3461935], [137.8848271, 36.3464937], [137.8846479, 36.346692], [137.8836161, 36.3479254], [137.8834218, 36.3481187], [137.8833091, 36.3484019], [137.8832535, 36.3485495], [137.8829146, 36.3494274], [137.8826975, 36.3500173], [137.8825966, 36.3502655], [137.8824957, 36.3505137], [137.8823407, 36.3509209], [137.8823304, 36.3509484], [137.8823169, 36.350981], [137.8816685, 36.3526526], [137.8816551, 36.3526794], [137.8816294, 36.3527418], [137.8815834, 36.3528607], [137.8815109, 36.353053], [137.8811845, 36.3538698], [137.8807406, 36.355017], [137.8806423, 36.3552675], [137.8803441, 36.3560299], [137.8795408, 36.3581225], [137.8793191, 36.358708], [137.8790905, 36.3593006], [137.87906, 36.3593732], [137.8789049, 36.3597697], [137.8779735, 36.3621596], [137.8779176, 36.362303], [137.8777304, 36.3628087], [137.8772936, 36.3639258], [137.8769586, 36.3648052], [137.8764853, 36.3660516], [137.8760174, 36.3672554], [137.8759927, 36.3673223], [137.8757559, 36.3679506], [137.8754915, 36.3686151], [137.8749683, 36.3700101], [137.8749337, 36.3701046], [137.8745562, 36.3710826], [137.8744451, 36.3713648], [137.8742934, 36.3717511], [137.8741742, 36.3720094], [137.8740558, 36.3722118], [137.8738226, 36.3725572], [137.8732044, 36.3734908], [137.8730887, 36.3736829], [137.8730118, 36.3738252], [137.8729436, 36.3739568], [137.8728788, 36.3740984], [137.8727347, 36.3744134], [137.8724282, 36.3750923], [137.8722623, 36.3754575], [137.8719939, 36.3760579], [137.8718428, 36.3763851], [137.8717896, 36.3764907], [137.8717416, 36.3765663], [137.8716822, 36.3766359], [137.8716263, 36.3766928], [137.8715532, 36.3767509], [137.8714703, 36.3768044], [137.8713525, 36.3768633], [137.871188, 36.3769253], [137.8709272, 36.3770223], [137.8707115, 36.3770977], [137.8705073, 36.3771731], [137.8704038, 36.3772181], [137.8703048, 36.3772709], [137.8702071, 36.3773364], [137.8701256, 36.3773992], [137.8700611, 36.377462], [137.8699833, 36.3775391], [137.8693248, 36.3783457], [137.8688293, 36.378984], [137.8687229, 36.3791288], [137.8686201, 36.3792934], [137.868541, 36.3794545], [137.868276, 36.3799735], [137.8682124, 36.3801166], [137.8681517, 36.3802533], [137.867881, 36.380816], [137.8676913, 36.3811997], [137.8674578, 36.3817347], [137.8673636, 36.3820221], [137.8671562, 36.3827842], [137.8667683, 36.3838582], [137.8667347, 36.3839394], [137.8664997, 36.3845833], [137.8663773, 36.3848386], [137.8658256, 36.3857709], [137.8652695, 36.3866893], [137.8651881, 36.3868508], [137.8651175, 36.3870468], [137.8650566, 36.3872791], [137.8647524, 36.3886418], [137.8645672, 36.3894631], [137.8644578, 36.3899235], [137.8643947, 36.3901888], [137.864201, 36.3910038], [137.8640213, 36.3917939], [137.8639154, 36.3922385], [137.863576, 36.3937215], [137.8633631, 36.394589], [137.8633523, 36.3946181], [137.8632705, 36.3948943], [137.8628062, 36.3962974], [137.8625336, 36.3971297], [137.8624891, 36.3972715], [137.8621161, 36.3983538], [137.8620233, 36.3986251], [137.8616525, 36.399706], [137.861586, 36.3999059], [137.8614561, 36.4003117], [137.8614162, 36.4005103], [137.8614143, 36.4005409], [137.8614012, 36.400637], [137.8613981, 36.4007087], [137.8613776, 36.4009], [137.8613748, 36.4011101], [137.8613937, 36.4017395], [137.8614378, 36.4026852], [137.861435, 36.4027451], [137.8614641, 36.403271], [137.8614515, 36.4037456], [137.8614213, 36.4039926], [137.8613632, 36.4042412], [137.8612945, 36.4044578], [137.8611698, 36.4048809], [137.8608754, 36.4058738], [137.8608031, 36.4061158], [137.8605209, 36.4070707], [137.8603299, 36.4077363], [137.8601386, 36.4083178], [137.8599659, 36.4087708], [137.8597523, 36.4092364], [137.8595739, 36.4095755], [137.8593039, 36.4100307], [137.859048, 36.4104765], [137.8589374, 36.4106822], [137.8588736, 36.4108567], [137.858845, 36.4109764], [137.8588192, 36.411084], [137.8588142, 36.4111188], [137.8587532, 36.4115446], [137.858735, 36.4116864], [137.8586886, 36.4121054], [137.8586322, 36.4127584], [137.8586133, 36.4130057], [137.8585741, 36.4134725], [137.8584536, 36.4150922], [137.8584085, 36.4156495], [137.858304, 36.4169296], [137.8582842, 36.417272], [137.8582142, 36.4181134], [137.8581264, 36.4190902], [137.8581256, 36.4191477], [137.8580324, 36.4203863], [137.8579977, 36.4208593], [137.857967, 36.4210988], [137.8579402, 36.4213108], [137.8579302, 36.4214067], [137.8579213, 36.4214997], [137.8577644, 36.4227817], [137.8575902, 36.4242924], [137.8575022, 36.4252473], [137.8574604, 36.4259051], [137.8574339, 36.4262519], [137.8573811, 36.4265441], [137.8573464, 36.4267304], [137.8572255, 36.4277356], [137.8572114, 36.4278089], [137.8570688, 36.4286275], [137.8569342, 36.429474], [137.8568921, 36.4298085], [137.856732, 36.430927], [137.8567248, 36.430981], [137.8566688, 36.4313392], [137.8566449, 36.4316262], [137.8566357, 36.4318334], [137.8566655, 36.4327122], [137.8567582, 36.4347064], [137.8567599, 36.4347376], [137.8567976, 36.43517], [137.8567863, 36.4356637], [137.8567537, 36.4359304], [137.8567261, 36.4361335], [137.8566749, 36.4365101], [137.8566595, 36.4366928], [137.8566393, 36.4368001], [137.8564566, 36.4381181], [137.8564464, 36.4381824], [137.8564321, 36.4383548], [137.8564509, 36.4386035], [137.8565312, 36.4390622], [137.8566651, 36.4395684], [137.8567977, 36.440122], [137.8568157, 36.4403308], [137.8568336, 36.4405376], [137.8568169, 36.4407604], [137.8567438, 36.4410005], [137.8561897, 36.4425956], [137.8560334, 36.4430451], [137.8553254, 36.4450414], [137.8552348, 36.4453044], [137.8547236, 36.4467416], [137.8545764, 36.4471523], [137.8544921, 36.4473576], [137.8544024, 36.4475586], [137.8542422, 36.4478449], [137.8540894, 36.4480737], [137.8540376, 36.4481468], [137.8535241, 36.4488228], [137.8531334, 36.4493067], [137.8528848, 36.4496436], [137.8527994, 36.4497692], [137.8527007, 36.4499481], [137.852619, 36.4501303], [137.8525538, 36.4503144], [137.8524893, 36.450555], [137.8524783, 36.4506064], [137.8523754, 36.451103], [137.8523644, 36.4511474], [137.8521046, 36.452434], [137.852083, 36.4525302], [137.8520247, 36.4527769], [137.8519046, 36.4533154], [137.8515947, 36.4548202], [137.8515119, 36.4552633], [137.851287, 36.4562813], [137.8510207, 36.4576001], [137.8509651, 36.4579027], [137.8507095, 36.4591366], [137.8506563, 36.4594207], [137.8504309, 36.4605269], [137.8502827, 36.4612553], [137.8500941, 36.4619915], [137.8499584, 36.4626006], [137.8498948, 36.4630016], [137.8498235, 36.4633583], [137.8497325, 36.4637905], [137.8495281, 36.4648162], [137.8495023, 36.4650047], [137.8494926, 36.4652191], [137.8494761, 36.4655453], [137.849466, 36.4660718], [137.8494436, 36.4667046], [137.8494186, 36.4669199], [137.8492912, 36.4674796], [137.8490787, 36.468479], [137.8490046, 36.4688114], [137.8485738, 36.4708535], [137.8484239, 36.4715573], [137.8482899, 36.4726482], [137.848216, 36.473185], [137.848132, 36.4739008], [137.8481014, 36.4744397], [137.8481259, 36.4747206], [137.848191, 36.4750213], [137.8483069, 36.4753793], [137.8483998, 36.4755383], [137.848654, 36.4760549], [137.8488348, 36.4764224], [137.8496377, 36.4780461], [137.8496916, 36.4781548], [137.849791, 36.4783522], [137.8499606, 36.478689], [137.8500884, 36.4789806], [137.8502176, 36.4792164], [137.8505693, 36.4799737], [137.8510407, 36.4809108], [137.8513096, 36.4813943], [137.8515645, 36.4818457], [137.8516657, 36.4820151], [137.8518408, 36.482374], [137.8519178, 36.4825423], [137.8519948, 36.4827498], [137.8520318, 36.4829056], [137.8520494, 36.4830217], [137.8520537, 36.4831365], [137.8520488, 36.4832572], [137.8520059, 36.483501], [137.8518912, 36.4838866], [137.8518534, 36.4840119], [137.8514419, 36.485318], [137.8513994, 36.4855015], [137.851202, 36.4861916], [137.8511505, 36.4864676], [137.8511568, 36.4865946], [137.8511591, 36.4866401], [137.851202, 36.4867781], [137.8512486, 36.486852], [137.8514182, 36.4870611], [137.8515554, 36.4871877], [137.8539558, 36.4889769], [137.8539908, 36.4890021], [137.8546949, 36.4895094], [137.8549932, 36.4897243], [137.8550118, 36.4897622], [137.85576, 36.4903168], [137.8565151, 36.4908299], [137.856653, 36.4909308], [137.8587027, 36.49229], [137.8598169, 36.4930488], [137.8600597, 36.4932472], [137.8601265, 36.4933057], [137.8602087, 36.4933877], [137.8618562, 36.4949881], [137.8626247, 36.4957152], [137.8628821, 36.4959492], [137.8628884, 36.4959549], [137.8629014, 36.4959606], [137.8630874, 36.496055]], [[137.8549932, 36.4897243], [137.8550463, 36.4897377], [137.8557254, 36.4901927], [137.8567089, 36.4908704], [137.8580007, 36.491736], [137.8592926, 36.492606], [137.8598939, 36.4930261], [137.8600579, 36.4931497], [137.860211, 36.4932887], [137.8607764, 36.4938347], [137.8613946, 36.4944389], [137.8619277, 36.4949578], [137.8620407, 36.4950707], [137.8626335, 36.4956405], [137.8626997, 36.4957041], [137.8629247, 36.4959032], [137.8629379, 36.4959159], [137.8629482, 36.4959259], [137.8630874, 36.496055], [137.8628853, 36.4961487], [137.8626885, 36.4962813], [137.8625919, 36.496349], [137.8604692, 36.4978339], [137.8600152, 36.4981503], [137.8587161, 36.4990452], [137.8585932, 36.4991419], [137.8584515, 36.4992405], [137.8577647, 36.4997164], [137.8573149, 36.5000623], [137.8569972, 36.5003432], [137.856885, 36.5004563], [137.8566697, 36.5006733], [137.8565157, 36.5008403], [137.8563866, 36.5010041], [137.8561912, 36.5012377], [137.8557851, 36.5018747], [137.8555844, 36.5022648], [137.8555078, 36.5024456], [137.855357, 36.5028479], [137.8553131, 36.5029997], [137.8550857, 36.5038838], [137.8548895, 36.5046094], [137.8546822, 36.5054096], [137.854443, 36.5063295], [137.8543188, 36.5068408], [137.8539198, 36.5081708], [137.853743, 36.5087182], [137.8534016, 36.5097915], [137.8532061, 36.5104144], [137.8531649, 36.5105273], [137.8527832, 36.5117759], [137.8526907, 36.5120771], [137.8524606, 36.5128682], [137.8523987, 36.5130512], [137.8524792, 36.5130561]], [[137.8630874, 36.496055], [137.8629463, 36.4961842], [137.8628279, 36.4962673], [137.8627447, 36.4963234], [137.8626534, 36.4963904], [137.8605039, 36.4978915], [137.8600578, 36.4982021], [137.8587826, 36.4991045], [137.8586571, 36.4991962], [137.8576604, 36.499895], [137.8573107, 36.5001764], [137.8569669, 36.5004881], [137.8569562, 36.5004995], [137.8566667, 36.5008103], [137.8564558, 36.5010469], [137.8562478, 36.5013099], [137.8558678, 36.5019043], [137.855705, 36.5022029], [137.8556037, 36.5024579], [137.8555981, 36.5024735], [137.8554566, 36.5028703], [137.8553456, 36.5032835], [137.8549876, 36.5046264], [137.8547735, 36.505424], [137.8546616, 36.5058508], [137.8545345, 36.5063426], [137.8543983, 36.506856], [137.8542944, 36.507279], [137.8540667, 36.5080299], [137.8538734, 36.5086235], [137.8536548, 36.5092782], [137.8534947, 36.5098106], [137.8532518, 36.5105342], [137.8528687, 36.5117902], [137.8527741, 36.5121004], [137.8526394, 36.5125369], [137.8524792, 36.5130561], [137.852845, 36.5131031], [137.8529232, 36.5131131], [137.8542758, 36.5132762], [137.8554939, 36.5134332], [137.8568408, 36.5135805]]]}, "id": "relation/2104795"}]}