{"type": "FeatureCollection", "generator": "kokudo-quiz tools/fetch_raw.py (Overpass API)", "copyright": "The data included in this document is from www.openstreetmap.org. The data is made available under ODbL.", "timestamp": "2026-09-30T14:41:44Z", "features": [{"type": "Feature", "properties": {"@id": "relation/3770972", "colour": "red", "distance": "2.6", "from": "静岡県静岡市清水区清水港", "name": "国道149号", "name:en": "National Highway Route 149", "name:ja": "国道149号", "name:ja-Hira": "こくどうひゃくよんじゅうきゅうごう", "name:ja-Latn": "kokudou 149 gou", "network": "JP:national", "official_name": "一般国道149号", "ref": "149", "route": "road", "to": "静岡県静岡市清水区大和町", "type": "route", "wikidata": "Q6156809", "wikipedia": "ja:国道149号"}, "geometry": {"type": "MultiLineString", "coordinates": [[[138.4949012, 35.0029061], [138.494904, 35.0033554], [138.4948988, 35.0040202], [138.4948967, 35.0042442], [138.4948937, 35.0047277], [138.4948703, 35.0055838], [138.4948355, 35.0057009], [138.4947804, 35.005818], [138.4944658, 35.0064453], [138.4942347, 35.0069304], [138.4941472, 35.007104], [138.4939137, 35.0075833], [138.493677, 35.0080578], [138.4934251, 35.0085328], [138.4931505, 35.0090344], [138.4929208, 35.0094326], [138.4926522, 35.0099104], [138.4926128, 35.0099904], [138.4925639, 35.010086], [138.4922746, 35.0106246], [138.4921783, 35.0108329], [138.4919007, 35.0115047], [138.4912067, 35.0113363], [138.4904336, 35.0111462], [138.490037, 35.0111191], [138.4899398, 35.011116], [138.4892719, 35.0110776], [138.489178, 35.0110688], [138.4889465, 35.0122553], [138.4888312, 35.0129303], [138.4886337, 35.0139753], [138.4884789, 35.0148528], [138.4882386, 35.0160186], [138.4880976, 35.0168261], [138.4880792, 35.0169849], [138.4880533, 35.0171373], [138.4880266, 35.0172862], [138.4878453, 35.0180309], [138.4874661, 35.0196232], [138.4872771, 35.0204177], [138.4871209, 35.021009], [138.4870074, 35.021544], [138.4870115, 35.0221738], [138.4871384, 35.023496]], [[138.4892719, 35.0110776], [138.4890738, 35.0122492], [138.4889444, 35.0129512], [138.4887432, 35.0139871], [138.4886008, 35.0148678], [138.48836, 35.0160321], [138.4882109, 35.0168355], [138.4881714, 35.0170558], [138.4879217, 35.0180434], [138.4875478, 35.0196329], [138.4873601, 35.0204093], [138.4872182, 35.021027], [138.4871591, 35.0212612], [138.4871124, 35.0216475], [138.4871124, 35.0221705], [138.4872328, 35.023489]]]}, "id": "relation/3770972"}]}