{"type": "FeatureCollection", "generator": "kokudo-quiz tools/fetch_raw.py (Overpass API)", "copyright": "The data included in this document is from www.openstreetmap.org. The data is made available under ODbL.", "timestamp": "2026-09-30T14:41:44Z", "features": [{"type": "Feature", "properties": {"@id": "relation/8843661", "colour": "red", "from": "静岡県静岡市清水区", "name": "国道150号", "name:en": "National Highway Route 150", "name:ja": "国道150号", "name:ja-Hira": "こくどうひゃくごじゅうごう", "name:ja-Latn": "kokudou 150 gou", "network": "JP:national", "ref": "150", "route": "road", "to": "静岡県浜松市中央区", "type": "route", "wikidata": "Q6156812", "wikipedia": "ja:国道150号"}, "geometry": {"type": "MultiLineString", "coordinates": [[[138.4949012, 35.0029061], [138.4949023, 35.0028511], [138.4949105, 35.0020929], [138.4949108, 35.0020065], [138.494925, 35.0002322], [138.4949254, 35.0001245], [138.4949226, 35.0000048], [138.4949221, 34.9992982], [138.4949301, 34.9976931], [138.4949477, 34.9960829], [138.494954, 34.9944746], [138.4949683, 34.9928851], [138.4949769, 34.9926313], [138.4950018, 34.9925368], [138.4950574, 34.9924457], [138.4958821, 34.9913946], [138.4963997, 34.9907519], [138.4964639, 34.9906719], [138.4968257, 34.9902172], [138.4970632, 34.9899126], [138.4973991, 34.9895117], [138.4980558, 34.9886497], [138.4986678, 34.9878542], [138.4994401, 34.986872], [138.4995501, 34.9867348], [138.4996239, 34.9866442], [138.4998344, 34.9864631], [138.4999612, 34.9863583], [138.5001057, 34.9862691], [138.5018196, 34.9854963], [138.5018983, 34.9854635], [138.5019805, 34.9854309], [138.5020164, 34.9854148], [138.5027544, 34.9850856], [138.5046884, 34.9842734], [138.5048276, 34.984215], [138.5050483, 34.9841078], [138.5051843, 34.9840705], [138.5051954, 34.983882], [138.5052031, 34.9836665], [138.5052387, 34.9824609], [138.5049425, 34.9823328], [138.5041778, 34.9816535], [138.5036296, 34.9811578], [138.5033589, 34.980916], [138.5029447, 34.9805425], [138.5025726, 34.9802063], [138.5018984, 34.9795933], [138.5018735, 34.9795568], [138.5016862, 34.9793796], [138.5014946, 34.9791813], [138.5013042, 34.9789473], [138.5010611, 34.9786403], [138.5008937, 34.9784289], [138.5008676, 34.9783927], [138.5004787, 34.9779162], [138.4998512, 34.9771686], [138.4994191, 34.9767366], [138.498767, 34.9762283], [138.4986143, 34.9761085], [138.4982559, 34.9758537], [138.4980909, 34.9757226], [138.4978816, 34.9755754], [138.4970174, 34.9750577], [138.4967811, 34.9749204], [138.4966983, 34.9748744], [138.4958831, 34.9743741], [138.4956878, 34.9742364], [138.4954902, 34.9740784], [138.4954109, 34.9740036], [138.4944605, 34.9732074], [138.4938971, 34.9727774], [138.4931801, 34.9722363], [138.4907086, 34.9705759], [138.4900809, 34.9701847], [138.4881527, 34.9691485], [138.4879154, 34.9689888], [138.487274, 34.968492], [138.4859681, 34.9678049], [138.4848299, 34.9672648], [138.4840313, 34.9668907], [138.4838853, 34.9668224], [138.4834675, 34.9666267], [138.4826761, 34.966256], [138.4818722, 34.9658794], [138.4805689, 34.9652906], [138.4790164, 34.9645947], [138.4784776, 34.9643423], [138.4783718, 34.9643022], [138.4782848, 34.9642055], [138.4776019, 34.9638154], [138.4773286, 34.9636756], [138.4772123, 34.9636029], [138.4771888, 34.963521], [138.4772394, 34.9633996], [138.4772409, 34.9632717], [138.4765523, 34.9629645], [138.4764291, 34.9629089], [138.4759941, 34.9627127], [138.474649, 34.9621831], [138.4745348, 34.9621388], [138.4742754, 34.9620382], [138.4740176, 34.9619383], [138.4737044, 34.9618074], [138.4732901, 34.9616186]], [[138.4783718, 34.9643022], [138.4780283, 34.9641432], [138.4776961, 34.9639843], [138.4774033, 34.9638344], [138.4771613, 34.9637214], [138.4770782, 34.9636703], [138.4770303, 34.9635765], [138.4770392, 34.9635001], [138.4771402, 34.9633462], [138.4764997, 34.9630384], [138.4763787, 34.962981], [138.4760349, 34.962818], [138.474502, 34.9621932], [138.4742559, 34.9620929], [138.4736652, 34.9618521], [138.4732901, 34.9616186], [138.4729518, 34.961424], [138.4725648, 34.9612228], [138.4720839, 34.9610216], [138.4702182, 34.9603352], [138.468358, 34.9596835], [138.4664342, 34.9589774], [138.4662462, 34.9589103], [138.4655323, 34.9586536], [138.4642815, 34.9582071], [138.4632022, 34.9578432], [138.4622864, 34.9575669], [138.4597985, 34.956754], [138.459005, 34.9565101], [138.457903, 34.9562016], [138.4578685, 34.9561932], [138.45776, 34.9561641], [138.4552153, 34.9552627], [138.4543345, 34.9549953], [138.4529273, 34.9545943], [138.4504581, 34.9538796], [138.4491774, 34.9534674], [138.4487119, 34.9533173], [138.4481554, 34.9531347], [138.4478711, 34.9530414], [138.4469259, 34.9527246], [138.446287, 34.9525063], [138.4448217, 34.9520117], [138.4439138, 34.951713], [138.4414928, 34.9509287], [138.4391807, 34.9501515], [138.4379281, 34.9497008], [138.4373246, 34.9494931], [138.4371865, 34.9494447], [138.4366232, 34.949271], [138.4362833, 34.9491836], [138.4355539, 34.9489916], [138.4332097, 34.9483677], [138.4320812, 34.9480597], [138.430508, 34.947661], [138.4297093, 34.9474789], [138.4294122, 34.9474186], [138.4290037, 34.9473466], [138.4285862, 34.947271], [138.4282642, 34.9472027], [138.4278411, 34.9471084], [138.427737, 34.9470785], [138.4273797, 34.946976], [138.4267579, 34.9467976], [138.4266462, 34.9467675], [138.4224797, 34.9455548], [138.4209411, 34.9451105], [138.4205856, 34.9450153], [138.4202177, 34.9449345], [138.4198268, 34.9448782], [138.4193791, 34.944828], [138.4189559, 34.9447763], [138.4186945, 34.9447443], [138.4183202, 34.9446748], [138.4177875, 34.9445372], [138.4169961, 34.9443119], [138.416426, 34.9441516], [138.4160267, 34.9440394], [138.4150417, 34.9437627], [138.4142432, 34.9435387], [138.414011, 34.9434707], [138.4138671, 34.9434252], [138.4138208, 34.9434106], [138.4125683, 34.943025], [138.4124651, 34.9429926], [138.4119063, 34.9428175], [138.4117182, 34.9427573], [138.4109453, 34.942514], [138.4104556, 34.9423648], [138.4100053, 34.9422446], [138.4094474, 34.9421018], [138.4089912, 34.9420057], [138.4081912, 34.9418028], [138.4077116, 34.9416702], [138.4072592, 34.9415399], [138.4069529, 34.941439], [138.4065931, 34.9413086], [138.4062813, 34.9411795], [138.4060052, 34.9410608], [138.4057226, 34.9409232], [138.4055155, 34.9408205], [138.4050066, 34.9405461], [138.4048713, 34.9404736], [138.4047404, 34.9404036], [138.4040071, 34.9399946], [138.4038263, 34.9398921], [138.4036589, 34.9397965], [138.4035868, 34.9397554], [138.4030661, 34.9394824], [138.4024124, 34.9391367], [138.4003697, 34.9380091], [138.4001118, 34.9378615], [138.3999381, 34.9377841], [138.3997476, 34.9377121], [138.3995861, 34.9376764], [138.3994086, 34.9376465], [138.3992877, 34.9376425], [138.3990917, 34.9376394], [138.3989094, 34.9376559], [138.3987926, 34.9376783], [138.3986669, 34.9377132], [138.3985317, 34.9377547], [138.3984134, 34.937803], [138.3982402, 34.9378914], [138.398083, 34.9379906], [138.3979236, 34.93813], [138.3977714, 34.9382991], [138.3976663, 34.9384339], [138.3971617, 34.9390578], [138.3970535, 34.9391803], [138.3969504, 34.9392805], [138.3968519, 34.9393511], [138.3967437, 34.9394257], [138.3966514, 34.9394764], [138.3965598, 34.9395214], [138.3964607, 34.9395641], [138.3962841, 34.9396188], [138.3961571, 34.939649], [138.3960324, 34.9396689], [138.3959276, 34.9396797], [138.3957926, 34.939686], [138.395677, 34.9396831], [138.3955603, 34.9396746], [138.3954526, 34.9396615], [138.3953558, 34.9396421], [138.3952596, 34.9396182], [138.3951687, 34.9395888], [138.3950591, 34.9395442], [138.3949378, 34.9394969], [138.3945944, 34.9393318], [138.3940938, 34.9390835], [138.3932461, 34.9386519], [138.3918464, 34.9379276], [138.3857782, 34.9348745], [138.3838444, 34.9339175], [138.3834766, 34.9337405], [138.3833937, 34.9337003], [138.3832294, 34.9336334], [138.3828962, 34.9335103], [138.3825773, 34.9333846], [138.38238, 34.9333216], [138.3821672, 34.9332597], [138.3813213, 34.9330213], [138.3806059, 34.9328162], [138.3796318, 34.932552], [138.3786247, 34.9322663], [138.3767738, 34.9317143], [138.3761088, 34.9315282], [138.3754677, 34.9313554], [138.3749296, 34.9312143], [138.3748694, 34.9312016], [138.3743751, 34.9310971], [138.3735653, 34.9309674], [138.3728297, 34.9308302], [138.372372, 34.9307546], [138.3723361, 34.9307486], [138.3711486, 34.9305369], [138.3710552, 34.9305238], [138.3710254, 34.930521], [138.3708889, 34.9305227], [138.3707541, 34.9305335], [138.370611, 34.9305538], [138.3704655, 34.9305834], [138.3700578, 34.9307068], [138.3694392, 34.9308827], [138.3692563, 34.9309278], [138.3691121, 34.9309493], [138.368993, 34.9309561], [138.3688296, 34.9309527], [138.3686128, 34.9309349], [138.3685563, 34.9309302], [138.3684086, 34.9309046], [138.3683315, 34.9308834], [138.3682078, 34.9308432], [138.3679594, 34.9307445], [138.3678242, 34.9306738], [138.3672908, 34.9304056], [138.3663695, 34.9299926], [138.366129, 34.9298931], [138.365343, 34.9295677], [138.3640655, 34.9291281], [138.363276, 34.9289116], [138.3620897, 34.9286077], [138.3615474, 34.9284855], [138.3609548, 34.9283509], [138.3604084, 34.9282272], [138.360107, 34.9281432], [138.3598605, 34.9280624], [138.3594508, 34.9278966], [138.3591202, 34.9277312], [138.3586632, 34.9274753], [138.3581549, 34.9271319], [138.3577547, 34.9268615], [138.3556864, 34.9254608], [138.3554714, 34.9252998], [138.3552895, 34.9251435], [138.3549607, 34.9247898], [138.354787, 34.9245508], [138.3546095, 34.9242543], [138.3545074, 34.9240343], [138.3544356, 34.9237692], [138.3543953, 34.9235985], [138.354358, 34.9233788], [138.3543434, 34.9231959], [138.354337, 34.9230344], [138.3543377, 34.9228565], [138.3543554, 34.9227024], [138.354389, 34.9225228], [138.3544367, 34.9223431], [138.3544943, 34.9221639], [138.3546033, 34.9218379], [138.354698, 34.9215316], [138.3547616, 34.9212667], [138.3548112, 34.9210012], [138.3548493, 34.9207471], [138.3548531, 34.9204187], [138.3548301, 34.920103], [138.3547842, 34.9198439], [138.3547088, 34.9195626], [138.3545885, 34.9192296], [138.354447, 34.918888], [138.3535397, 34.9171093], [138.3531732, 34.9163856], [138.3522096, 34.9144035], [138.3521276, 34.9142759], [138.3520186, 34.9141176], [138.3518719, 34.9139093], [138.35182, 34.9138425], [138.3516454, 34.9136341], [138.3513978, 34.9133393], [138.3511876, 34.9131052], [138.3510464, 34.9129577], [138.3508485, 34.91279], [138.3506061, 34.9126097], [138.350344, 34.9124412], [138.3483516, 34.9111605], [138.3477746, 34.910779], [138.3471439, 34.9103052], [138.3461399, 34.9094454], [138.3456236, 34.9089861], [138.3449363, 34.9082959], [138.34397, 34.9072626], [138.3433776, 34.9066005], [138.3428946, 34.9060432], [138.3419094, 34.9048529], [138.3405786, 34.9031821], [138.3379572, 34.9000864], [138.3361357, 34.8979542], [138.3350655, 34.8967126], [138.3346501, 34.8962049], [138.3343136, 34.8958049], [138.3337495, 34.8952374], [138.33232, 34.8937955], [138.3322436, 34.8937206], [138.331914, 34.8934054], [138.3312517, 34.8927435], [138.3304799, 34.8919747], [138.3304609, 34.8919558], [138.3296717, 34.8911722], [138.3287192, 34.8902222], [138.3281556, 34.8896601], [138.3277313, 34.8892403], [138.3269333, 34.8884574], [138.326157, 34.8876807], [138.3253724, 34.8869001], [138.3245531, 34.8860789], [138.3245368, 34.886063], [138.3244535, 34.8859815], [138.3237256, 34.8852697], [138.3234784, 34.8850461], [138.3224982, 34.8841592], [138.3224418, 34.8841082], [138.3217793, 34.8835503], [138.3214683, 34.8832955], [138.3210372, 34.8829423], [138.320905, 34.8828422], [138.3203448, 34.8824025], [138.3191501, 34.8815029], [138.3187249, 34.8811987], [138.3185862, 34.8811224], [138.3184038, 34.8810221], [138.318127, 34.8808951], [138.3176955, 34.8807291], [138.3172049, 34.880583], [138.3169816, 34.8805313], [138.3161142, 34.880303], [138.3153282, 34.8800955], [138.3152184, 34.8800681], [138.315143, 34.8800493], [138.3137878, 34.8797144], [138.3126671, 34.8794303], [138.3116767, 34.8791777], [138.3116097, 34.8791605], [138.3115616, 34.8791483], [138.3113947, 34.8791056], [138.3108234, 34.8789597], [138.3103257, 34.8788329], [138.3092062, 34.8785459], [138.3075332, 34.8781141], [138.3056175, 34.8776277], [138.3040161, 34.8772218], [138.3036095, 34.8771305], [138.303081, 34.8770005], [138.3026169, 34.8768636], [138.3023822, 34.8767826], [138.3022231, 34.8767149], [138.3020195, 34.8766283], [138.301827, 34.8765392], [138.3015752, 34.8764094], [138.3013965, 34.8763052], [138.3012037, 34.8761877], [138.3010319, 34.8760655], [138.3007713, 34.8758507], [138.3006888, 34.875783], [138.3005636, 34.8756704], [138.3004447, 34.8755498], [138.300298, 34.8754065], [138.3002124, 34.8752822], [138.2999988, 34.8750356], [138.2999139, 34.8749185], [138.2998275, 34.8747749], [138.299747, 34.8746215], [138.2996765, 34.874478], [138.2995846, 34.8742706], [138.2995, 34.8740483], [138.2994301, 34.8738413], [138.2993803, 34.8737009], [138.2993519, 34.8735741], [138.2993036, 34.8732799], [138.299288, 34.8730745], [138.2992868, 34.8728748], [138.2992947, 34.8726337], [138.2993413, 34.8721018], [138.2993912, 34.8716103], [138.2994081, 34.8714221], [138.2994955, 34.8706464], [138.2995584, 34.8699875], [138.2996066, 34.8695352], [138.2996846, 34.8688029], [138.2997036, 34.8686845], [138.2997191, 34.8685735], [138.2997463, 34.8683075], [138.2997668, 34.8681332], [138.2997889, 34.8679435], [138.2998112, 34.8677996], [138.2998169, 34.8677552], [138.2998442, 34.8676685], [138.2998722, 34.8675858], [138.2999016, 34.8675193], [138.3000202, 34.8673186], [138.3000514, 34.8672759], [138.3001917, 34.867084], [138.300237, 34.867022], [138.300344, 34.8668788], [138.3004156, 34.8667647], [138.3004797, 34.8666407], [138.3005618, 34.8664672], [138.3006105, 34.8663363], [138.3006395, 34.8662407], [138.3006454, 34.8662129], [138.300653, 34.8660888], [138.3006639, 34.8659029], [138.3007081, 34.8653679], [138.3007426, 34.8647384], [138.3007693, 34.8644134], [138.3008115, 34.8639172], [138.3008793, 34.8632025], [138.3009799, 34.8618893], [138.3010063, 34.8616095], [138.3010136, 34.8614375], [138.3010893, 34.8604929], [138.3011742, 34.8594722], [138.301171, 34.8591173], [138.3011489, 34.8588224], [138.3011355, 34.8586659], [138.301076, 34.8583153], [138.3010438, 34.8581789], [138.3007617, 34.8571564], [138.3004889, 34.8562625], [138.3001912, 34.8552875], [138.3001386, 34.8551162], [138.2998558, 34.8541616], [138.299768, 34.8537973], [138.2997002, 34.8535448], [138.2996414, 34.8532796], [138.299594, 34.8530317], [138.2995683, 34.852825], [138.2995474, 34.8526195], [138.2995205, 34.8522306], [138.2995162, 34.8519623], [138.2995203, 34.8516199], [138.2995404, 34.8514621], [138.2996098, 34.8502131], [138.2996309, 34.8498301], [138.2996405, 34.8496638], [138.2996747, 34.8491694], [138.2996955, 34.848818], [138.2997338, 34.8484721], [138.2997843, 34.8477545], [138.2998352, 34.8470296], [138.2998844, 34.8462963], [138.2999072, 34.8455854], [138.299999, 34.8448836], [138.3000706, 34.8441109], [138.300113, 34.8434045], [138.3001882, 34.8422264], [138.3002481, 34.8413395], [138.3003256, 34.8400266], [138.3003572, 34.8386135], [138.300399, 34.8378244], [138.3004285, 34.837267], [138.3004375, 34.8371425], [138.3004868, 34.8364623], [138.3006132, 34.8345663], [138.3006907, 34.8335195], [138.3007586, 34.8323459], [138.3008453, 34.8312877], [138.30104, 34.8299745], [138.3009312, 34.829906]], [[138.446287, 34.9525063], [138.4457159, 34.9523674], [138.4452642, 34.9522401], [138.4451273, 34.9521966], [138.4444075, 34.9519681], [138.4435881, 34.9516781], [138.443211, 34.9515523], [138.4422209, 34.9512419], [138.4418619, 34.9511279], [138.4408777, 34.9508175], [138.4398856, 34.9504802], [138.4394686, 34.950337], [138.4388714, 34.95013], [138.4384444, 34.9499856], [138.4377042, 34.9497235], [138.437144, 34.9495342], [138.4365732, 34.9493527], [138.4362102, 34.949237], [138.4359735, 34.9491737], [138.4331747, 34.948428], [138.4315448, 34.9479987], [138.4307998, 34.9478165], [138.430199, 34.9476662], [138.4297323, 34.9475717], [138.4296454, 34.9475542], [138.4283342, 34.9472988], [138.427779, 34.9471719], [138.4276983, 34.9471499], [138.42735, 34.9470559], [138.4273091, 34.9470449], [138.4266125, 34.9468439], [138.4265002, 34.9468107], [138.4243095, 34.9461562], [138.4242912, 34.9461508], [138.4226624, 34.945694], [138.4225287, 34.9456545], [138.4209627, 34.9451964], [138.4208756, 34.9451731], [138.4205357, 34.9450794], [138.4202298, 34.9450129], [138.4201257, 34.9449903], [138.419589, 34.9449192], [138.4190468, 34.9448634], [138.4189086, 34.9448477], [138.4187089, 34.944825], [138.4184178, 34.9447786], [138.4181113, 34.9447083], [138.4176545, 34.9445898], [138.4167419, 34.9443271], [138.4164329, 34.944228], [138.4149662, 34.943807], [138.4141576, 34.9435838], [138.4139748, 34.9435316], [138.4138329, 34.9434869], [138.4137894, 34.9434732], [138.4127589, 34.9431484], [138.4124407, 34.9430503], [138.4119357, 34.9428947], [138.4118527, 34.942869], [138.4110876, 34.9426345], [138.4107418, 34.942533], [138.4103819, 34.9424312], [138.4099956, 34.9423287], [138.4091811, 34.9421147], [138.408306, 34.9418876], [138.4076625, 34.9417162], [138.4071768, 34.9415749], [138.4067634, 34.9414423], [138.4064986, 34.9413417], [138.4062415, 34.9412403], [138.4059391, 34.9411098], [138.4057001, 34.941005], [138.4054386, 34.9408756], [138.4049628, 34.9406019], [138.4048323, 34.9405227], [138.4044095, 34.9403031], [138.4040808, 34.940132], [138.4038778, 34.9400158], [138.4035285, 34.9398262], [138.4034557, 34.9397863], [138.4030273, 34.9395355], [138.4023903, 34.9391635], [138.4005105, 34.9381484], [138.4003318, 34.9380573], [138.4001793, 34.9379774], [138.4000105, 34.9378889], [138.3998681, 34.9378287], [138.3996448, 34.9377654], [138.3995301, 34.9377449], [138.3993626, 34.9377223], [138.3991859, 34.9377187], [138.3990556, 34.9377222], [138.3989088, 34.9377364], [138.3987815, 34.9377619], [138.3986323, 34.937801], [138.398464, 34.9378585], [138.3983103, 34.937937], [138.398171, 34.9380294], [138.3979945, 34.9381656], [138.3978414, 34.9383359], [138.3971993, 34.9391057], [138.3971014, 34.9392253], [138.3970461, 34.9392822], [138.3969954, 34.9393352], [138.3969094, 34.9394001], [138.3968012, 34.9394684], [138.3966629, 34.9395462], [138.3964764, 34.9396278], [138.3962989, 34.9396849], [138.3961714, 34.9397156], [138.396037, 34.9397316], [138.3959299, 34.9397407], [138.3957909, 34.9397486], [138.3956679, 34.9397481], [138.3955552, 34.9397401], [138.3954413, 34.9397253], [138.3953387, 34.9397031], [138.3952397, 34.9396792], [138.3951485, 34.9396507], [138.3950289, 34.9396051], [138.3948962, 34.9395436], [138.3945699, 34.9393728], [138.3940796, 34.9391131], [138.3932249, 34.9386813], [138.3924311, 34.9382861], [138.3918001, 34.937996], [138.3857275, 34.9349416], [138.3842666, 34.9342013], [138.3838586, 34.9340052], [138.3834214, 34.9338171], [138.3833395, 34.93378], [138.3831789, 34.9337119], [138.3829276, 34.9336034], [138.3827227, 34.9335264], [138.3825613, 34.933473], [138.3823587, 34.9334062], [138.3821992, 34.9333517], [138.3818997, 34.9332629], [138.3814678, 34.9331414], [138.3812926, 34.9330923], [138.3804938, 34.9328673], [138.3798003, 34.9326677], [138.3793177, 34.9325245], [138.3785979, 34.9323217], [138.3767458, 34.9317785], [138.3760842, 34.9315858], [138.3754336, 34.931414], [138.3749067, 34.9312713], [138.3748505, 34.9312597], [138.3745788, 34.9312038], [138.3742946, 34.9311535], [138.3736174, 34.9310445], [138.3727772, 34.9308956], [138.3723245, 34.9308159], [138.3722711, 34.9308076], [138.3711564, 34.9306228], [138.3710365, 34.9306068], [138.3709257, 34.930602], [138.3707943, 34.9306061], [138.370639, 34.9306257], [138.3704974, 34.9306565], [138.3700412, 34.9308088], [138.3694253, 34.9309786], [138.369271, 34.9310081], [138.3691077, 34.9310295], [138.368887, 34.931034], [138.3686753, 34.9310252], [138.3685112, 34.9309997], [138.368345, 34.9309639], [138.3682428, 34.9309392], [138.3681754, 34.9309157], [138.3680809, 34.9308828], [138.36793, 34.9308209], [138.3677758, 34.9307491], [138.3675061, 34.9306136], [138.3671217, 34.9304277], [138.3664312, 34.9301021], [138.3660889, 34.9299629], [138.3652958, 34.9296405], [138.3642484, 34.9292704], [138.3632798, 34.9289886], [138.3620712, 34.9286783], [138.3615149, 34.9285558], [138.3608175, 34.9284022], [138.3602548, 34.9282639], [138.3600956, 34.9282175], [138.3600256, 34.9281986], [138.359811, 34.9281254], [138.3596165, 34.9280487], [138.3594129, 34.9279656], [138.3590956, 34.9278145], [138.35856, 34.9275145], [138.3580764, 34.9271829], [138.3576197, 34.9268696], [138.357067, 34.9264906], [138.355879, 34.9256759], [138.3555667, 34.9254689], [138.3553585, 34.9253141], [138.355153, 34.925132], [138.3550208, 34.9249962], [138.3548901, 34.9248391], [138.3547827, 34.9246983], [138.3547074, 34.9245803], [138.3546774, 34.9245332], [138.3545146, 34.9242237], [138.3544476, 34.9240636], [138.3543857, 34.9238979], [138.3543206, 34.9236818], [138.3542758, 34.9234604], [138.3542516, 34.9232377], [138.3542424, 34.9230502], [138.3542421, 34.9228724], [138.354273, 34.9226183], [138.3543867, 34.9220492], [138.3544316, 34.9217903], [138.3544762, 34.9215013], [138.3544959, 34.9213367], [138.3544984, 34.9210947], [138.354493, 34.9206955], [138.3544618, 34.9202732], [138.3544076, 34.9199025], [138.354363, 34.9197026], [138.3542916, 34.9194752], [138.3541831, 34.9192119], [138.3540631, 34.9189824], [138.3539015, 34.9187352], [138.3536441, 34.9183633], [138.3530351, 34.9176475], [138.352627, 34.917222], [138.3465284, 34.9112173], [138.345059, 34.9097777], [138.3435232, 34.9081686], [138.3422909, 34.9066449], [138.3406309, 34.9043772], [138.3358728, 34.8980273], [138.3349241, 34.8966631], [138.3344614, 34.8961058], [138.3338052, 34.8954344], [138.3336634, 34.8952897], [138.3330397, 34.8946545], [138.3323025, 34.8939061], [138.3322649, 34.8938689], [138.3321483, 34.893755], [138.331715, 34.8933236], [138.3311598, 34.8927777], [138.3303935, 34.8920152], [138.3296069, 34.8912237], [138.3286516, 34.8902713], [138.3283304, 34.8899556], [138.3276511, 34.8892819], [138.3268473, 34.8884873], [138.3260625, 34.8876972], [138.3250936, 34.8867499], [138.3249098, 34.8865702], [138.3244381, 34.8860981], [138.3244291, 34.8860895], [138.3243553, 34.8860186], [138.3242315, 34.8858999], [138.3237468, 34.8854096], [138.3233737, 34.8850624], [138.3232767, 34.8849618], [138.3227611, 34.8844923], [138.3223942, 34.8841789], [138.3216476, 34.8835369], [138.3208523, 34.8829184], [138.3207115, 34.8828089], [138.3201857, 34.882421], [138.3188024, 34.8813623], [138.3186986, 34.881297], [138.318564, 34.8812129], [138.3182784, 34.8810558], [138.3181308, 34.8809827], [138.3178322, 34.8808611], [138.3175795, 34.8807765], [138.317235, 34.8806769], [138.3169949, 34.8806086], [138.3160843, 34.8803805], [138.3152582, 34.8801765], [138.3151487, 34.8801487], [138.3150758, 34.8801302], [138.3138442, 34.8798112], [138.3137369, 34.8797825], [138.3126189, 34.8794979], [138.3125491, 34.879481], [138.3115825, 34.8792468], [138.3115115, 34.8792295], [138.3114633, 34.8792179], [138.3112999, 34.8791757], [138.3107305, 34.8790285], [138.3104778, 34.8789613], [138.309172, 34.8786325], [138.3075013, 34.8782077], [138.3056223, 34.8777245], [138.3039782, 34.8773134], [138.3031049, 34.8771024], [138.3027435, 34.8769995], [138.3025234, 34.8769328], [138.3023794, 34.8768826], [138.3021797, 34.8767926], [138.3018757, 34.8766622], [138.3016883, 34.8765729], [138.3014843, 34.8764595], [138.3012646, 34.8763187], [138.3010957, 34.8762068], [138.3009243, 34.8760864], [138.300654, 34.8758767], [138.300532, 34.8757561], [138.3003475, 34.8755781], [138.3001625, 34.8753853], [138.3000061, 34.8752013], [138.2999253, 34.8750876], [138.2997808, 34.8748556], [138.2996667, 34.8746379], [138.2995979, 34.8745018], [138.2995458, 34.8743916], [138.2994832, 34.8742478], [138.2994176, 34.8740753], [138.299341, 34.8738547], [138.299302, 34.8737107], [138.2992689, 34.8735572], [138.2992263, 34.8733017], [138.2992029, 34.8730708], [138.2991982, 34.8728693], [138.2992007, 34.8727191], [138.2992133, 34.8725394], [138.2992479, 34.8721343], [138.2993005, 34.8716012], [138.299316, 34.8714224], [138.2993865, 34.8706399], [138.2994563, 34.8699812], [138.2995058, 34.8695297], [138.2995994, 34.8687946], [138.2996132, 34.8686798], [138.299626, 34.8685703], [138.2996601, 34.8679631], [138.2996958, 34.8677545], [138.2997037, 34.8677029], [138.2997577, 34.867547], [138.2998216, 34.8674078], [138.2999345, 34.8672202], [138.3001045, 34.8670141], [138.3001396, 34.8669632], [138.3002754, 34.866766], [138.3003679, 34.8666153], [138.3004194, 34.8665077], [138.3004663, 34.8664045], [138.3005098, 34.8663002], [138.3005289, 34.866236], [138.3005495, 34.8661621], [138.3005802, 34.865997], [138.3005864, 34.8658957], [138.3006033, 34.8656216], [138.3006085, 34.865398], [138.300656, 34.8647183], [138.3006804, 34.864336], [138.3007195, 34.8638203], [138.3007691, 34.8633407], [138.3007854, 34.8631825], [138.3009053, 34.8618608], [138.3009293, 34.861564], [138.3009472, 34.8613321], [138.3009957, 34.860485], [138.3010604, 34.8594629], [138.3010603, 34.8591178], [138.3009922, 34.8584217], [138.3009506, 34.8581926], [138.300669, 34.8571955], [138.3003771, 34.8562751], [138.3000894, 34.855249], [138.300051, 34.8551253], [138.2998126, 34.8543564], [138.2997498, 34.8541524], [138.299666, 34.8538089], [138.2995785, 34.8534079], [138.2994889, 34.8529316], [138.2994411, 34.85256], [138.2994209, 34.8523293], [138.2994131, 34.8521825], [138.2994063, 34.8519133], [138.2994139, 34.8515901], [138.2994434, 34.8514576], [138.2994574, 34.8512926], [138.2995217, 34.8502049], [138.2995408, 34.8497951], [138.2995485, 34.8496295], [138.2995792, 34.8491621], [138.299622, 34.8484508], [138.29967, 34.8477478], [138.2997182, 34.8470265], [138.2997679, 34.8462857], [138.2997961, 34.8455796], [138.2998034, 34.8448602], [138.299832, 34.8440947], [138.299876, 34.8433975], [138.2999671, 34.842222], [138.3000006, 34.8415273], [138.3001022, 34.8400131], [138.3002507, 34.8385937], [138.3003014, 34.8378391], [138.3003351, 34.8372488], [138.300342, 34.8371529], [138.3003905, 34.8364809], [138.3004447, 34.8356314], [138.3005126, 34.8345636], [138.3005715, 34.833697], [138.3005779, 34.8335147], [138.3006492, 34.8323415], [138.300751, 34.8312788], [138.3008549, 34.8304197], [138.3009312, 34.829906], [138.3008442, 34.8298377], [138.3006907, 34.8297271], [138.3000504, 34.8292793], [138.2997502, 34.8290703], [138.2993471, 34.8287965], [138.2981961, 34.82798], [138.2977879, 34.827694], [138.2977212, 34.8276475], [138.2976292, 34.8275834], [138.2959199, 34.826385], [138.2950453, 34.8257714], [138.2940262, 34.8250564], [138.293952, 34.8250037], [138.2936904, 34.8248227], [138.2936411, 34.8247896], [138.2927794, 34.8241875], [138.2927343, 34.8241559], [138.2926291, 34.8240821], [138.2923269, 34.8238749], [138.2920341, 34.8236879], [138.291763, 34.8235413], [138.2915511, 34.8234367], [138.291521, 34.8234231], [138.2913605, 34.8233506], [138.2913437, 34.8233431], [138.2910319, 34.823211], [138.2906577, 34.8230787], [138.2905167, 34.8230423], [138.2901768, 34.8229459], [138.2897957, 34.8228548], [138.289721, 34.8228372], [138.288728, 34.8226024], [138.2886291, 34.822579], [138.2878642, 34.8223982], [138.2866271, 34.8220892], [138.286298, 34.8219902], [138.2861537, 34.8219426], [138.2860898, 34.8219215], [138.2858385, 34.8218114], [138.2857819, 34.8217796], [138.2856448, 34.8217098], [138.285636, 34.8217042], [138.2854485, 34.8215841], [138.2852283, 34.821411], [138.2848526, 34.8210731], [138.2844359, 34.8207074], [138.2836812, 34.8200464], [138.2833852, 34.8197871], [138.2826941, 34.8191818], [138.2819829, 34.8185598], [138.2814528, 34.8180889], [138.2811035, 34.8177967], [138.2809866, 34.8176989], [138.2809474, 34.8176641], [138.280224, 34.8170227], [138.2791375, 34.8160869], [138.2781461, 34.8152273], [138.2781322, 34.8152118], [138.276581, 34.8138623], [138.2765646, 34.8138468], [138.2764918, 34.8137828], [138.2756892, 34.81308], [138.2750403, 34.8125119], [138.2748295, 34.8123288], [138.2746576, 34.8121786], [138.2745068, 34.8120466], [138.274214, 34.8117948], [138.2737188, 34.8113627], [138.2728705, 34.8106274], [138.2718488, 34.8097437], [138.2712351, 34.8091977], [138.270643, 34.8086822], [138.2698613, 34.8080018], [138.2682536, 34.8065948], [138.2677163, 34.8061249], [138.2675575, 34.8059875], [138.2669756, 34.8054724], [138.2664719, 34.8050308], [138.2656469, 34.8043124], [138.2656053, 34.8042739], [138.2647866, 34.8035647], [138.2647825, 34.8035611], [138.2646982, 34.8034878], [138.2642431, 34.8030918], [138.2636157, 34.802546], [138.2623746, 34.8014578], [138.2618832, 34.8010316], [138.2618568, 34.8010128], [138.2617627, 34.8009257], [138.2617548, 34.8009202], [138.2606681, 34.7999778], [138.2605813, 34.7998937], [138.2572828, 34.797002], [138.2568198, 34.7965992], [138.2563955, 34.7962283], [138.2562089, 34.7960609], [138.2538159, 34.7939678], [138.2537461, 34.7939143], [138.2533662, 34.7935925], [138.2531586, 34.7933544], [138.2529977, 34.7931081], [138.2529215, 34.7928636], [138.2528915, 34.7926264], [138.2528977, 34.7922963], [138.252906, 34.7920911], [138.2530926, 34.7911454], [138.2530977, 34.7911193], [138.2534325, 34.7894227], [138.253605, 34.7885483], [138.2540298, 34.7865195], [138.2540525, 34.7864139], [138.2540743, 34.7863164], [138.2541059, 34.786145], [138.2544741, 34.7845696], [138.2547387, 34.783021], [138.2548866, 34.78162], [138.2549176, 34.7813269], [138.2549525, 34.780886], [138.2549937, 34.7803661], [138.2550269, 34.7799464], [138.2550389, 34.7797841], [138.2550541, 34.7796151], [138.2551681, 34.7785443], [138.255172, 34.7784758], [138.2551954, 34.7780694], [138.2551902, 34.7779705], [138.2551594, 34.7777743], [138.2550378, 34.7774568], [138.2549183, 34.7772416], [138.2548084, 34.7770966], [138.2547956, 34.7770822], [138.2545835, 34.776846], [138.2545678, 34.7768319], [138.2545009, 34.7767659], [138.2541336, 34.7763719], [138.2540179, 34.7762499], [138.2534637, 34.7756654], [138.2529251, 34.7751145], [138.2527909, 34.774942], [138.2527569, 34.7748965], [138.2526286, 34.7746973], [138.2525269, 34.7744849], [138.2524303, 34.7741917], [138.2522283, 34.7734453], [138.2519877, 34.7726352], [138.2519362, 34.7725201], [138.2518965, 34.772435], [138.2515177, 34.7718057], [138.2514444, 34.771687], [138.2514242, 34.7716533], [138.2510273, 34.7710249], [138.2510098, 34.770998], [138.2506469, 34.7704407], [138.2502349, 34.7698013], [138.2501086, 34.7695482], [138.2500407, 34.7692669], [138.2499883, 34.768755], [138.249853, 34.7676409], [138.2497792, 34.7670336], [138.2494198, 34.7662568], [138.2485776, 34.764958], [138.2474177, 34.7632021], [138.2468263, 34.7622402], [138.2457363, 34.7606266], [138.2455812, 34.760397], [138.2448902, 34.7593464], [138.2447607, 34.7591435], [138.2447484, 34.7591235], [138.2444967, 34.7587473], [138.2444779, 34.758718], [138.2444177, 34.7586216], [138.2436216, 34.7573893], [138.2434934, 34.7571909], [138.2434313, 34.7570921], [138.2432775, 34.7569083], [138.2431115, 34.7567553], [138.2402809, 34.7543988], [138.2396898, 34.7539066], [138.2390402, 34.753273], [138.2384406, 34.7525026], [138.2381517, 34.7519331], [138.2380443, 34.7517156], [138.2378161, 34.7508494], [138.2377428, 34.7502982], [138.237759, 34.7498121], [138.2378276, 34.7483585], [138.2378221, 34.7479537], [138.2378156, 34.7477315], [138.2376418, 34.7463335], [138.2375023, 34.745371], [138.2373815, 34.744523], [138.2373355, 34.7442003], [138.2372599, 34.7437879], [138.2369255, 34.7429111], [138.2367228, 34.7425629], [138.2363441, 34.7420335], [138.2359949, 34.7416788], [138.2358947, 34.7415855], [138.2358267, 34.7415275], [138.2356476, 34.7413942], [138.2355548, 34.741325], [138.2355095, 34.7412366], [138.2354978, 34.7411516], [138.2352049, 34.7409825], [138.2348668, 34.7407673], [138.2345806, 34.7405714], [138.2338068, 34.7399783], [138.232564, 34.7390125], [138.2319103, 34.7385081], [138.2314116, 34.7381122], [138.2306448, 34.7375116], [138.2299436, 34.7369865], [138.2293517, 34.7365035], [138.2280542, 34.7353646], [138.2271461, 34.7344227], [138.2270037, 34.7342613], [138.2267669, 34.7339732], [138.2257056, 34.7326815], [138.2252791, 34.7321686], [138.2250308, 34.7318699], [138.2245594, 34.7312691], [138.223951, 34.730513], [138.2235033, 34.7299292], [138.2228315, 34.7291468], [138.2222259, 34.7283982], [138.222149, 34.728276], [138.2214562, 34.7274591], [138.2208478, 34.7267135], [138.2207853, 34.7266367], [138.2207125, 34.7265471], [138.2206411, 34.7264536], [138.2203097, 34.7260197], [138.2201499, 34.7257799], [138.2200012, 34.7255104], [138.2199408, 34.7254008], [138.2197832, 34.7250484], [138.219635, 34.7246372], [138.2195835, 34.7243643], [138.2194942, 34.7236725], [138.2193849, 34.7227379], [138.2193191, 34.7224836], [138.2193134, 34.7224615], [138.2192711, 34.7222891], [138.2192294, 34.7221195], [138.2191106, 34.721717], [138.2187729, 34.7209773], [138.2187292, 34.7208843], [138.2183914, 34.7201568], [138.2183447, 34.7200563], [138.2182393, 34.7198622], [138.2181476, 34.7196931], [138.2179551, 34.719387], [138.2177647, 34.7190985], [138.2174612, 34.7186017], [138.217079, 34.7179939], [138.216064, 34.7163645], [138.2158708, 34.7160247], [138.215627, 34.7154884], [138.2154347, 34.7150275], [138.2151716, 34.714397], [138.2150646, 34.7141406], [138.214878, 34.7136932], [138.2147372, 34.7133558], [138.2146159, 34.7130651], [138.21436, 34.7124517], [138.2139524, 34.7114749], [138.2138242, 34.7111676], [138.2136808, 34.7108239], [138.2136689, 34.7107954], [138.2134917, 34.7101932], [138.2133999, 34.7097289], [138.2133791, 34.709579], [138.2133696, 34.7095104], [138.2133315, 34.7092365], [138.2132716, 34.7079882], [138.2132595, 34.7077348], [138.2132352, 34.707228], [138.2132294, 34.7071864], [138.213182, 34.7068434], [138.2131762, 34.7068018], [138.2128446, 34.7045372], [138.2127229, 34.7035418], [138.2127057, 34.7034016], [138.2125605, 34.7023433], [138.212365, 34.7015468], [138.21222, 34.7009541], [138.2121803, 34.7005208], [138.212169, 34.7000294], [138.2122032, 34.6991519], [138.2121654, 34.6984244], [138.2121338, 34.6981738], [138.2114674, 34.6962927], [138.210835, 34.6945951], [138.210732, 34.6943877], [138.2103432, 34.6938261], [138.2099732, 34.693261], [138.2096286, 34.6927823], [138.209503, 34.6926044], [138.209151, 34.6921093], [138.2089864, 34.6918792], [138.208866, 34.6917109], [138.2087627, 34.6915663], [138.2086192, 34.6913658], [138.2085093, 34.6912133], [138.2083966, 34.6910569], [138.2082611, 34.6908689], [138.20819, 34.6907954], [138.2079606, 34.6905581], [138.2077712, 34.6903623], [138.2074705, 34.6901162], [138.2072528, 34.6898714], [138.2071935, 34.6898047], [138.2071041, 34.6897432], [138.2070288, 34.6896431], [138.2063019, 34.6890388], [138.2061009, 34.6888682], [138.2050478, 34.6879723], [138.2048681, 34.6878004], [138.2046338, 34.6875187], [138.204432, 34.6872396], [138.2043322, 34.6870737], [138.2042344, 34.6868619], [138.2040674, 34.6863478], [138.203655, 34.6849705], [138.2034195, 34.6841309], [138.203369, 34.683928], [138.2032761, 34.6836693], [138.2030435, 34.6831545], [138.2027371, 34.6827277], [138.202413, 34.6822762], [138.2019539, 34.6816712], [138.201477, 34.6810585], [138.2010296, 34.6804383], [138.2005577, 34.6796598], [138.2005117, 34.6795834], [138.2002498, 34.6791482], [138.2001745, 34.6790276], [138.1998668, 34.6785278], [138.199775, 34.6783744], [138.1994548, 34.6778397], [138.1989984, 34.6771443], [138.1989178, 34.6770432], [138.198317, 34.6759943], [138.1982855, 34.6759393], [138.1981369, 34.6756605], [138.1981291, 34.675643], [138.1978248, 34.6749565], [138.1976042, 34.6744212], [138.1969181, 34.672842], [138.1968738, 34.6727394], [138.1967026, 34.6723413], [138.196564, 34.6720191], [138.196303, 34.6714121], [138.1958709, 34.6704038], [138.1955767, 34.6697406], [138.195435, 34.6694051], [138.1953238, 34.6691524], [138.1952381, 34.6689338], [138.1950859, 34.6685991], [138.1949399, 34.6682609], [138.194881, 34.6681307], [138.1948173, 34.6679861], [138.1947794, 34.6679002], [138.1946212, 34.6675361], [138.1944649, 34.667175], [138.1942856, 34.666761], [138.1942686, 34.6667212], [138.1942142, 34.6665943], [138.1941984, 34.6665573], [138.1940889, 34.6663012], [138.1939057, 34.6658231], [138.1938501, 34.665617], [138.1937934, 34.6653781], [138.1937734, 34.6651866], [138.1937606, 34.6650458], [138.1937556, 34.6648331], [138.193753, 34.6645125], [138.1937523, 34.6644308], [138.1937469, 34.6638417], [138.1937465, 34.6638008], [138.1937453, 34.663664], [138.1937437, 34.6634861], [138.1937407, 34.663274], [138.1937244, 34.6629914], [138.1937229, 34.6627447], [138.1937228, 34.6627265], [138.1937158, 34.6624483], [138.1937198, 34.6618983], [138.1937225, 34.6618021], [138.1937507, 34.6608025], [138.1937544, 34.6606782], [138.1937662, 34.660276], [138.1937844, 34.6597578], [138.1937974, 34.6593891], [138.1938, 34.659268], [138.1938181, 34.6584424], [138.1938211, 34.6583065], [138.1938453, 34.6572063], [138.1938613, 34.656477], [138.193843, 34.6561662], [138.1937815, 34.6555874], [138.1936839, 34.6548071], [138.1936572, 34.6546256], [138.1936312, 34.6543859], [138.1935974, 34.6541257], [138.1935325, 34.6536105], [138.193489, 34.6533064], [138.1934511, 34.6529733], [138.1933725, 34.6523397], [138.1932163, 34.6510771], [138.1931822, 34.65077], [138.1930949, 34.6498957], [138.1930432, 34.6493015], [138.1929768, 34.6485282], [138.1929425, 34.6481289], [138.192894, 34.6473763], [138.1928856, 34.6466271], [138.192892, 34.6458128], [138.1929161, 34.6449709], [138.1929173, 34.644908], [138.1929258, 34.6444639], [138.1929457, 34.6439531], [138.1929817, 34.642939], [138.1930352, 34.6426286], [138.1930992, 34.642371], [138.1931109, 34.6423241], [138.1931765, 34.6420327], [138.1932431, 34.6417656], [138.1934591, 34.6408719], [138.1936311, 34.6401637], [138.1938933, 34.6390984], [138.1941051, 34.638235], [138.1943188, 34.6375057], [138.1944386, 34.6371358], [138.1946286, 34.636549], [138.1946696, 34.6364129], [138.1947011, 34.636255], [138.1947131, 34.6360762], [138.1946967, 34.6359844], [138.1946848, 34.6359119], [138.1946164, 34.6357359], [138.1945516, 34.635631], [138.1944436, 34.6355205], [138.1942412, 34.6354018], [138.1940205, 34.6352998], [138.1938956, 34.6352458], [138.1933716, 34.6350194], [138.1929141, 34.6348194], [138.1920909, 34.6345016], [138.1920087, 34.6344684], [138.1918075, 34.634387], [138.1917378, 34.6343588], [138.191497, 34.6342476], [138.1911241, 34.6340753], [138.1910311, 34.634026], [138.1905876, 34.6338021], [138.1903876, 34.6336885], [138.1901521, 34.6335547], [138.1895833, 34.6331917], [138.1893002, 34.6329961], [138.1891538, 34.6328842], [138.1884483, 34.6323447], [138.1882847, 34.6322196], [138.1880456, 34.6320406], [138.1878602, 34.631902], [138.1871527, 34.6313725], [138.1870587, 34.6313016], [138.1867552, 34.6310731], [138.1865932, 34.6309511], [138.186548, 34.6309171], [138.1860173, 34.6305506], [138.185906, 34.6304695], [138.1852485, 34.6299903], [138.1851538, 34.6299277], [138.1848582, 34.6297322], [138.1843232, 34.6294041], [138.1841548, 34.629298], [138.1841306, 34.6292828], [138.1837799, 34.6290619], [138.1827026, 34.6283288], [138.182541, 34.6282083], [138.1821273, 34.6278502], [138.1819577, 34.6276839], [138.1814752, 34.6272682], [138.1813234, 34.6270966], [138.1809104, 34.626645], [138.180704, 34.6263906], [138.1804159, 34.6260253], [138.180231, 34.6257909], [138.1797465, 34.625207], [138.179319, 34.6247631], [138.1790418, 34.6245375], [138.1787772, 34.6243227], [138.1787409, 34.6242933], [138.1782549, 34.6239755], [138.1778921, 34.6237419], [138.1775433, 34.6235707], [138.1772851, 34.6234553], [138.1769518, 34.6233337], [138.1763086, 34.6231582], [138.1761707, 34.623126], [138.1757029, 34.6230292], [138.1753586, 34.6229741], [138.1750283, 34.6229456], [138.1744992, 34.6229313], [138.1739198, 34.6229378], [138.1732342, 34.6229733], [138.1721123, 34.6230403], [138.1715775, 34.623063], [138.1714319, 34.6230741], [138.1703413, 34.6231264], [138.1699484, 34.6231481], [138.1694487, 34.623175], [138.1693781, 34.62318], [138.1672, 34.6232981], [138.1664538, 34.6233341], [138.1657156, 34.6233875], [138.1652122, 34.6234283], [138.1651216, 34.6234357], [138.1647509, 34.6234639], [138.164159, 34.623509], [138.1636959, 34.623547], [138.162433, 34.6236984], [138.1617432, 34.6237853], [138.1612575, 34.6238591], [138.1611386, 34.6238771], [138.1606269, 34.6239371], [138.1598976, 34.6240552], [138.1596843, 34.6240922], [138.1587422, 34.6242556], [138.1585449, 34.6242916], [138.1580956, 34.6243736], [138.1575651, 34.6244358], [138.1570634, 34.6245338], [138.1563539, 34.6246724], [138.156224, 34.6246978], [138.1548479, 34.6249341], [138.1537737, 34.6251407], [138.1532923, 34.6252453], [138.1522824, 34.6254914], [138.1520693, 34.625553], [138.1515859, 34.6256927], [138.150952, 34.6258958], [138.149967, 34.6262304], [138.1498694, 34.6262702], [138.1490706, 34.6265956], [138.1477315, 34.627161], [138.1475498, 34.6272377], [138.1464766, 34.6276722], [138.145569, 34.6280667], [138.1453769, 34.628156], [138.1449659, 34.6283471], [138.1442337, 34.628726], [138.143473, 34.6291528], [138.1427811, 34.6295691], [138.1421626, 34.6299774], [138.1415788, 34.6303823], [138.1409235, 34.6308708], [138.1404345, 34.6312798], [138.1402839, 34.631396], [138.139665, 34.6318986], [138.139311, 34.6321415], [138.1389943, 34.6323166], [138.138653, 34.6324899], [138.1382811, 34.6326432], [138.1380565, 34.6327222], [138.1378058, 34.6327957], [138.1370612, 34.632981], [138.1364186, 34.6331499], [138.136156, 34.6332111], [138.1354843, 34.6333951], [138.1353606, 34.6334277], [138.1334093, 34.6339419], [138.1333068, 34.6339691], [138.1312631, 34.6345114], [138.1309164, 34.6346], [138.1307251, 34.6346489], [138.1303615, 34.6347419], [138.1293164, 34.6350267], [138.127313, 34.6355389], [138.1263293, 34.6358013], [138.1254707, 34.6360346], [138.1246013, 34.6362435], [138.1240019, 34.6363722], [138.1237335, 34.6364271], [138.1226459, 34.6366621], [138.1221534, 34.6367631], [138.1206054, 34.6370654], [138.1195598, 34.6372805], [138.1185669, 34.637549], [138.1180753, 34.6377223], [138.1172579, 34.6380471], [138.1170572, 34.6381332], [138.116336, 34.6384426], [138.1154362, 34.6388285], [138.1144704, 34.6392536], [138.1131663, 34.6398241], [138.1112978, 34.6406179], [138.1110306, 34.6407295], [138.1106678, 34.6408811], [138.1105387, 34.6409266], [138.1104156, 34.6409694], [138.1095412, 34.6412695], [138.1085274, 34.6415872], [138.1076012, 34.6418274], [138.1062317, 34.6421742], [138.1053803, 34.6423887], [138.1048635, 34.6425295], [138.104732, 34.6425576], [138.1038315, 34.6427714], [138.1034929, 34.6428495], [138.1033126, 34.6429406]], [[138.1782549, 34.6239755], [138.1774588, 34.6236221], [138.1769453, 34.6234258], [138.1762786, 34.6232271], [138.1761488, 34.6231997], [138.175785, 34.6231293], [138.1752595, 34.6230607], [138.1746103, 34.6230128], [138.1739405, 34.623017], [138.1732855, 34.6230492], [138.172189, 34.6231258], [138.171585, 34.62315], [138.1714429, 34.6231587], [138.1708881, 34.6232001], [138.170436, 34.6232178], [138.1699904, 34.6232282], [138.1694924, 34.6232544], [138.1694118, 34.6232576], [138.1673055, 34.6233669], [138.1658456, 34.6234534], [138.1651542, 34.6235199], [138.1645237, 34.6235719], [138.1640654, 34.623612], [138.1637895, 34.6236317], [138.1625713, 34.6237767], [138.1612656, 34.6239488], [138.1612002, 34.6239574], [138.1606621, 34.6240308], [138.1599086, 34.6241493], [138.1590399, 34.6243046], [138.1588424, 34.6243399], [138.1576131, 34.6245502], [138.1552502, 34.6249639], [138.1548613, 34.6250251], [138.1538138, 34.6252255], [138.1535298, 34.6252838], [138.1530682, 34.6253854], [138.152305, 34.6255699], [138.1521778, 34.6256056], [138.1516405, 34.6257564], [138.151002, 34.6259574], [138.1503222, 34.6261929], [138.1496644, 34.626447], [138.1490791, 34.6266804], [138.1476598, 34.6272796], [138.1465495, 34.6277505], [138.1456898, 34.6281201], [138.1454818, 34.6282159], [138.1449575, 34.6284573], [138.1442041, 34.6288385], [138.143531, 34.629208], [138.1428516, 34.6296216], [138.1422348, 34.6300279], [138.1416198, 34.6304591], [138.1410482, 34.6309084], [138.1404645, 34.6313738], [138.1403315, 34.6314909], [138.1401807, 34.631615], [138.1398435, 34.6318923], [138.1395888, 34.6320722], [138.1392678, 34.6322707], [138.1389569, 34.6324337], [138.1387008, 34.6325574], [138.1383186, 34.6327123], [138.1380815, 34.6328009], [138.137815, 34.632878], [138.1371516, 34.6330648], [138.1370985, 34.6330778], [138.1364568, 34.6332451], [138.136379, 34.6332654], [138.1362218, 34.6333067], [138.1354297, 34.6335095], [138.1339944, 34.6338906], [138.1334343, 34.6340393], [138.1333523, 34.6340607], [138.1327527, 34.6342175], [138.1319297, 34.6344327], [138.1312991, 34.6345976], [138.130694, 34.6347546], [138.1303888, 34.6348337], [138.1300309, 34.6349237], [138.129346, 34.635096], [138.1273784, 34.6356273], [138.1263693, 34.6358849], [138.1255094, 34.6361152], [138.1246385, 34.6363245], [138.1240033, 34.6364812], [138.123526, 34.6365778], [138.1224648, 34.6367777], [138.122188, 34.6368298], [138.1208138, 34.6370972], [138.1196299, 34.6373543], [138.1192015, 34.6374699], [138.1185886, 34.6376359], [138.1180949, 34.6378071], [138.1173965, 34.6380904], [138.1166092, 34.6384348], [138.1157784, 34.6387898], [138.1154938, 34.6389211], [138.114595, 34.6393064], [138.1137746, 34.6396506], [138.1135441, 34.6397485], [138.1133017, 34.6398561], [138.1128859, 34.6400337], [138.1119595, 34.6404379], [138.1115265, 34.6406294], [138.1110883, 34.6408124], [138.1105793, 34.6410011], [138.1095798, 34.6413535], [138.1091206, 34.6414912], [138.1085589, 34.6416573], [138.1078608, 34.6418363], [138.1076227, 34.6418958], [138.1061434, 34.6422767], [138.1053991, 34.6424693], [138.1047446, 34.6426324], [138.1038669, 34.6428487], [138.1035398, 34.6429211], [138.1033126, 34.6429406], [138.1018418, 34.6433194], [138.1016288, 34.6433743], [138.101063, 34.6435147], [138.100483, 34.6436587], [138.0993667, 34.6439399], [138.0982885, 34.6442168], [138.0981834, 34.6442437], [138.0971421, 34.6445111], [138.0959603, 34.6448052], [138.0950329, 34.6450356], [138.0941837, 34.645227], [138.0930338, 34.6454861], [138.0929681, 34.6455009], [138.0922288, 34.6456568], [138.0910537, 34.6458904], [138.090428, 34.6460005], [138.0892901, 34.6462144], [138.0877965, 34.6464894], [138.086559, 34.6467592], [138.0865095, 34.6467714], [138.0853696, 34.6470754], [138.0844078, 34.6473728], [138.0843457, 34.647392], [138.0843109, 34.6474028], [138.0820257, 34.6480998], [138.0811315, 34.6483725], [138.0807721, 34.6484821], [138.0800742, 34.6486925], [138.0784314, 34.6491878], [138.0778175, 34.6493765], [138.0766887, 34.6497308], [138.0762699, 34.6498659], [138.0759085, 34.6499843], [138.0755607, 34.6501107], [138.0751414, 34.6502664], [138.0748452, 34.6503879], [138.0745242, 34.6505098], [138.0741902, 34.6506333], [138.0738074, 34.6507844], [138.072895, 34.6511481], [138.0727424, 34.6512022], [138.0723307, 34.6513569], [138.0714687, 34.651699], [138.0711368, 34.6518294], [138.0709008, 34.6519206], [138.0706301, 34.6520253], [138.0701516, 34.6522154], [138.0694977, 34.6524771], [138.0688187, 34.6527287], [138.0686982, 34.6527711], [138.0684245, 34.6528865], [138.06814, 34.652989], [138.0675338, 34.6532388], [138.067228, 34.6533635], [138.0667636, 34.6535441], [138.0663338, 34.6536691], [138.0660606, 34.6537621], [138.0657618, 34.6538474], [138.0654325, 34.6539469], [138.064669, 34.6540981], [138.0638058, 34.6542141], [138.062183, 34.6544649], [138.0615393, 34.654554], [138.0615112, 34.6545566], [138.0608361, 34.6546627], [138.0599925, 34.6547853], [138.0596447, 34.6548396], [138.059172, 34.6549397], [138.0587753, 34.6550528], [138.058266, 34.655198], [138.0574575, 34.6554753], [138.0574361, 34.6554826], [138.056664, 34.6557474], [138.0566159, 34.6557641], [138.0551317, 34.6562785], [138.0539884, 34.6566663], [138.0537273, 34.6567434], [138.0533905, 34.6568506], [138.0531518, 34.6569155], [138.0529548, 34.6569691], [138.0520455, 34.6571376], [138.0516375, 34.6571968], [138.0514127, 34.6572382], [138.0506553, 34.6573404], [138.0500752, 34.6574219], [138.0496043, 34.6574896], [138.0488598, 34.6575948], [138.0474819, 34.6577824], [138.0469911, 34.6578545], [138.0461854, 34.6579737], [138.046127, 34.6579823], [138.0453545, 34.6581149], [138.0452674, 34.6581298], [138.0443719, 34.6582807], [138.0441704, 34.6583205], [138.0432588, 34.6585025], [138.0425839, 34.6586371], [138.042104, 34.6587327], [138.0414621, 34.658874], [138.0397167, 34.6592704], [138.0363646, 34.660105], [138.0351837, 34.6603689], [138.0345248, 34.6605164], [138.0342734, 34.6605676], [138.0332831, 34.660773], [138.0322382, 34.6610005], [138.0318404, 34.6610709], [138.0314106, 34.6611479], [138.0306601, 34.6612435], [138.0304255, 34.6612723], [138.0301171, 34.6613115], [138.029542, 34.6613737], [138.0290528, 34.6614103], [138.0285714, 34.6614442], [138.0273145, 34.6615227], [138.0266768, 34.6615626], [138.0255611, 34.661662], [138.0250214, 34.6616888], [138.0243798, 34.6617398], [138.0237322, 34.6618187], [138.0233253, 34.6618664], [138.0228835, 34.6619352], [138.0223841, 34.6620285], [138.0219475, 34.6621165], [138.021913, 34.6621234], [138.0216013, 34.6621861], [138.020978, 34.6623115], [138.019312, 34.6626468], [138.018627, 34.6627896], [138.017884, 34.6629359], [138.0173793, 34.66304], [138.0170363, 34.6631099], [138.0168516, 34.6631475], [138.0158202, 34.6633553], [138.0157572, 34.6633719], [138.0155812, 34.6634145], [138.0149456, 34.6635359], [138.0148691, 34.663552], [138.0142318, 34.663686], [138.0140428, 34.6637231], [138.0137038, 34.6637896], [138.0134931, 34.6638315], [138.0131184, 34.663906], [138.0127765, 34.6639794], [138.0120822, 34.6641286], [138.0119932, 34.6641477], [138.0117245, 34.6642114], [138.0116472, 34.6642292], [138.0111472, 34.664361], [138.0101087, 34.6646647], [138.0099013, 34.6647368], [138.0094632, 34.6648813], [138.0090349, 34.6650253], [138.0085339, 34.6652021], [138.0080692, 34.6653584], [138.0077976, 34.6654542], [138.007413, 34.6655775], [138.0068723, 34.665775], [138.0062871, 34.6659741], [138.0061189, 34.6660315], [138.0055848, 34.6662169], [138.0049692, 34.6664249], [138.0044502, 34.6666012], [138.0040747, 34.6667329], [138.0037142, 34.6668536], [138.0030076, 34.6670914], [138.0028428, 34.6671365], [138.0020284, 34.6673797], [138.0013587, 34.6675555], [138.0012119, 34.6675943], [138.0004102, 34.6677755], [138.0003213, 34.6677945], [137.9997155, 34.6679237], [137.9994702, 34.667971], [137.9991072, 34.6680312], [137.9983518, 34.6681571], [137.9980756, 34.6682005], [137.9977944, 34.6682419], [137.9973423, 34.6682982], [137.9972287, 34.6683124], [137.9964004, 34.6684069], [137.9961133, 34.6684372], [137.9960278, 34.6684462], [137.9958455, 34.6684652], [137.9953263, 34.6685196], [137.9944679, 34.6686099], [137.9929813, 34.668762], [137.9924783, 34.6688066], [137.9904323, 34.6690311], [137.989651, 34.6691092], [137.9890111, 34.6692001], [137.9884017, 34.669322], [137.9882192, 34.6693693], [137.9879733, 34.6694331], [137.9874546, 34.6696116], [137.9871266, 34.6697528], [137.986803, 34.669913], [137.9867526, 34.6699333], [137.9864247, 34.6701176], [137.985192, 34.6709348], [137.984981, 34.6710949], [137.9845804, 34.6713776], [137.9838096, 34.6719251], [137.9827092, 34.6727181], [137.9821715, 34.6730992], [137.981476, 34.6735722], [137.9809856, 34.673857], [137.9805249, 34.674077], [137.9801756, 34.6742249], [137.9796227, 34.6744216], [137.9793998, 34.6744901], [137.9790565, 34.6745756], [137.9784814, 34.6746954], [137.9772268, 34.6748954], [137.9749791, 34.6752355], [137.9731726, 34.6755164], [137.9707409, 34.6758776], [137.9699296, 34.6760142], [137.968813, 34.6762175], [137.9685152, 34.6762717], [137.9674087, 34.6764963], [137.9671868, 34.6765413], [137.9664581, 34.6767074], [137.9660895, 34.6767834], [137.9657314, 34.6768662], [137.9653985, 34.6769335], [137.9653874, 34.676936], [137.9648976, 34.6770459], [137.9642274, 34.6771975], [137.9630385, 34.6774541], [137.9623652, 34.6775983], [137.9618049, 34.6776949], [137.9605833, 34.6778379], [137.9593126, 34.6779784], [137.9582203, 34.6781125], [137.9580583, 34.6781324], [137.9568129, 34.6782766], [137.9562016, 34.6783481], [137.9555482, 34.6784245], [137.9549391, 34.6784939], [137.953974, 34.6786041], [137.953939, 34.6786083], [137.9535305, 34.6786532], [137.953477, 34.6786621], [137.9522591, 34.6788043], [137.9509819, 34.678954], [137.9507188, 34.6789773], [137.9496963, 34.6791019], [137.9483957, 34.6792522], [137.9483423, 34.6792575], [137.9477287, 34.679314], [137.9471116, 34.6794071], [137.946115, 34.6795123], [137.9454355, 34.6795394], [137.9453504, 34.6795424], [137.9448457, 34.6795604], [137.9435763, 34.6796054], [137.942919, 34.6796284], [137.9423175, 34.6796494], [137.9403855, 34.6797191], [137.93851, 34.67979], [137.9377119, 34.6798157], [137.9369183, 34.6798438], [137.9362421, 34.6798633], [137.9355836, 34.6798662], [137.934799, 34.679823], [137.9340573, 34.6797242], [137.9334243, 34.6796152], [137.9325936, 34.6794661], [137.9311587, 34.6791917], [137.9310902, 34.6791786], [137.9310272, 34.6791665], [137.9291427, 34.6788086], [137.9286799, 34.6787592], [137.9282213, 34.678731], [137.9274145, 34.6787028], [137.9273305, 34.6787089], [137.9266207, 34.6787267], [137.925674, 34.6787829], [137.9249235, 34.6788294], [137.9247065, 34.6788489], [137.922621, 34.6789841], [137.9214229, 34.679057], [137.9197776, 34.679157], [137.9175922, 34.6793067], [137.9170617, 34.6793431], [137.9141705, 34.6795257], [137.9124442, 34.6796363], [137.911178, 34.679712], [137.9109358, 34.679723], [137.9105553, 34.6797389], [137.9102016, 34.679723], [137.9098851, 34.6796863], [137.9093857, 34.6796032], [137.9077673, 34.6792606], [137.9068826, 34.6790734], [137.9053727, 34.6787459], [137.9053322, 34.6787376], [137.9051115, 34.6786901], [137.9044394, 34.6785455], [137.9041451, 34.6785002], [137.9041055, 34.6784974], [137.9037838, 34.6784743], [137.9022904, 34.6784049], [137.900812, 34.6783343], [137.9001959, 34.6783045], [137.8988252, 34.6782531], [137.898784, 34.6782517], [137.8945609, 34.6780633], [137.8940904, 34.678048], [137.8940572, 34.6780463], [137.8939782, 34.6780422], [137.8924317, 34.6779666], [137.8903385, 34.6778723], [137.8880027, 34.6777683], [137.8867707, 34.6777226], [137.8864093, 34.6776881], [137.8863715, 34.6776799], [137.8862113, 34.6776452], [137.886002, 34.6775833], [137.8858454, 34.6775227], [137.8857933, 34.6775003], [137.885586, 34.6773928], [137.8848706, 34.6770302], [137.8842758, 34.676732], [137.8838731, 34.6765303], [137.8837261, 34.676451], [137.8834231, 34.6763032], [137.8831757, 34.6761918], [137.882819, 34.6760723], [137.882544, 34.676011], [137.8821869, 34.6759396], [137.8813787, 34.6758072], [137.8810313, 34.6757601], [137.878866, 34.6754162], [137.8784612, 34.6753534], [137.8780705, 34.6752895], [137.8779725, 34.6752735], [137.8775249, 34.675199], [137.8772734, 34.6751689], [137.8772419, 34.6751661], [137.8767909, 34.6751264], [137.8762245, 34.6751083], [137.8761225, 34.6751051], [137.8760342, 34.6751049], [137.8752543, 34.6751028], [137.8735191, 34.6750936], [137.8717133, 34.6750692], [137.8715622, 34.6750683], [137.8708829, 34.6750644], [137.8701487, 34.6750559], [137.8687702, 34.67504], [137.8686582, 34.6750382], [137.8682404, 34.6750458], [137.8678913, 34.6750625], [137.8676889, 34.6750857], [137.8674531, 34.6751395], [137.8673499, 34.6751631], [137.8671209, 34.6752226], [137.8668653, 34.6753251], [137.866521, 34.6754582], [137.8653372, 34.6758801], [137.8640866, 34.6763388], [137.8640401, 34.6763537], [137.8629943, 34.676736], [137.8629577, 34.6767485], [137.8629238, 34.6767611], [137.861148, 34.6773943], [137.8610827, 34.6774126], [137.8608523, 34.6774744], [137.8605572, 34.6775308], [137.8601943, 34.6775472], [137.8600112, 34.6775527], [137.8597686, 34.6775546], [137.8585228, 34.6775642], [137.858307, 34.6775657], [137.8575597, 34.6775709], [137.8575239, 34.6775713], [137.8567391, 34.67758], [137.8558098, 34.6775974], [137.8538362, 34.6776171], [137.8522007, 34.677633], [137.8506329, 34.6776481], [137.8498903, 34.6776552], [137.8489509, 34.6776641], [137.8487304, 34.677668], [137.8473574, 34.6776878], [137.8466717, 34.6777002], [137.8455504, 34.6777136], [137.8442657, 34.677727], [137.844067, 34.677729], [137.8427113, 34.6777398], [137.8425771, 34.6777409], [137.8422115, 34.6777471], [137.8412794, 34.677763], [137.8407852, 34.6777642], [137.8403609, 34.6777652], [137.8403408, 34.6777653], [137.8397869, 34.677768], [137.8393006, 34.6777497], [137.838029, 34.6776419], [137.8380193, 34.677641], [137.8371441, 34.6775575], [137.8370015, 34.6775442], [137.8358162, 34.6774341], [137.8357809, 34.677431], [137.835221, 34.6773817], [137.8342052, 34.6772885], [137.8336471, 34.6772329], [137.8331667, 34.6771599], [137.8322089, 34.6769881], [137.8313441, 34.6768269], [137.8310641, 34.6767785], [137.8304531, 34.6766713], [137.8295611, 34.6765016], [137.8290988, 34.6764162], [137.8279506, 34.6762043], [137.8272369, 34.6760791], [137.8268069, 34.6760019], [137.826502, 34.6759472], [137.8260062, 34.6758532], [137.8258627, 34.675826], [137.8253371, 34.6757326], [137.8238715, 34.6754721], [137.8234726, 34.6754012], [137.8224395, 34.6752112], [137.8214912, 34.6750378], [137.8210071, 34.6749454], [137.8203941, 34.6748328], [137.819817, 34.6747354], [137.8191183, 34.6746175], [137.8183704, 34.6744825], [137.8173366, 34.674308], [137.8172904, 34.6742996], [137.8167618, 34.6742032], [137.8165261, 34.6741608], [137.8162784, 34.6741163], [137.8157967, 34.6739966], [137.8152151, 34.6738156], [137.8145876, 34.6736264], [137.813675, 34.673326], [137.8127473, 34.6730319], [137.8122786, 34.6728752], [137.81209, 34.6728121], [137.8117534, 34.6727133], [137.811382, 34.6726299], [137.8113603, 34.672625], [137.8110603, 34.6725716], [137.8107513, 34.6725216], [137.8102099, 34.6725047], [137.8096113, 34.6725179], [137.8092204, 34.67256], [137.8085382, 34.672624], [137.8079108, 34.6726891], [137.8074406, 34.6727361], [137.8070872, 34.6727806], [137.806714, 34.6728357], [137.8061867, 34.6729414], [137.8056018, 34.6730731], [137.8048614, 34.6732322], [137.803573, 34.6735173], [137.8030512, 34.6736328], [137.8017322, 34.6739247], [137.8012651, 34.6740254], [137.8006598, 34.6741609], [137.8005115, 34.6741941], [137.8004655, 34.6742044], [137.8001593, 34.674273], [137.7991937, 34.6744892], [137.7986603, 34.674605], [137.7978794, 34.6747825], [137.7965452, 34.6750724], [137.795619, 34.6752288], [137.7922419, 34.675799], [137.78708, 34.676647], [137.7869823, 34.6766648], [137.7868994, 34.6766799], [137.7865466, 34.6767618], [137.7862039, 34.6768582], [137.7856705, 34.6770664], [137.7854086, 34.6771781], [137.7853138, 34.6772488], [137.7849548, 34.6775231], [137.7847723, 34.6776959], [137.7842582, 34.678293], [137.7839565, 34.678648], [137.783937, 34.6786721], [137.7837053, 34.6789447], [137.7833903, 34.6793154], [137.7832459, 34.6794858], [137.7828511, 34.6799532], [137.7825503, 34.6803094], [137.7815517, 34.6814749], [137.7812946, 34.6817746], [137.7809421, 34.6820912], [137.7809027, 34.6821197], [137.7808419, 34.6821635], [137.7802995, 34.6825167], [137.7794128, 34.6830821], [137.779339, 34.6831307], [137.7784918, 34.6836767], [137.7779074, 34.6840583], [137.7775984, 34.6842628], [137.7766031, 34.6849105], [137.7761223, 34.6852302], [137.7761176, 34.6852333], [137.7760856, 34.6852556], [137.7755128, 34.6856351], [137.7750722, 34.685921], [137.7745337, 34.6862749], [137.7738728, 34.6867127], [137.773708, 34.6868219], [137.7728718, 34.6873772], [137.7723756, 34.687704], [137.7717273, 34.6881285], [137.7716556, 34.6881772], [137.7709019, 34.6886745], [137.7706265, 34.6888548], [137.7703911, 34.6890158], [137.770329, 34.6890497], [137.7692876, 34.6897343], [137.768992, 34.6899255], [137.7685429, 34.6902345], [137.7676663, 34.6908055], [137.767392, 34.6909666], [137.7671553, 34.6910819], [137.7668829, 34.691196], [137.7666167, 34.6912877], [137.7664426, 34.6913401], [137.7659629, 34.6914784], [137.7654515, 34.6916363], [137.7653988, 34.6916526], [137.7643397, 34.6919513], [137.7640645, 34.6920273], [137.7640143, 34.6920418], [137.7637765, 34.6921106], [137.7637326, 34.6921233], [137.7636675, 34.6921419], [137.763116, 34.6922997], [137.7630701, 34.6923128], [137.7628644, 34.6923728], [137.762728, 34.6924126], [137.7626551, 34.6924931], [137.762601, 34.6925589], [137.762447, 34.6927941], [137.7621744, 34.6932582], [137.7619577, 34.693627], [137.761573, 34.694278], [137.7610538, 34.6951333], [137.7604999, 34.6960481], [137.760177, 34.6965814], [137.7599638, 34.6969371], [137.7594984, 34.6975316], [137.7594322, 34.6976135], [137.7591827, 34.6979223], [137.758736, 34.698489], [137.7585583, 34.6987105], [137.7584004, 34.6989074], [137.7580656, 34.699315], [137.7580407, 34.6993435], [137.7577611, 34.699696], [137.7574234, 34.7001182], [137.7572063, 34.7003388], [137.7570778, 34.7004407], [137.7569591, 34.7005646], [137.7568237, 34.700706], [137.7557214, 34.7017644], [137.7545536, 34.7028713], [137.7540577, 34.7033545], [137.7535628, 34.7038267], [137.7533731, 34.7040146], [137.7530817, 34.7042316], [137.7529195, 34.7043128], [137.7524031, 34.7045392], [137.7518572, 34.7047778], [137.7514747, 34.704945], [137.7510891, 34.7051038], [137.7509395, 34.7051655], [137.7508096, 34.7052245], [137.7500228, 34.7055595], [137.7496528, 34.7057153], [137.7490624, 34.7059639], [137.7486995, 34.7061258], [137.7480309, 34.706436], [137.7475517, 34.7067065], [137.7471935, 34.7069526], [137.7465944, 34.70737], [137.7464264, 34.7074892], [137.746213, 34.7076576], [137.7458903, 34.7078814], [137.7455326, 34.7081338], [137.7454965, 34.7081689], [137.7454722, 34.7081992], [137.7454588, 34.7082472]]]}, "id": "relation/8843661"}]}