{"type": "FeatureCollection", "generator": "kokudo-quiz tools/fetch_raw.py (Overpass API)", "copyright": "The data included in this document is from www.openstreetmap.org. The data is made available under ODbL.", "timestamp": "2026-09-30T14:43:46Z", "features": [{"type": "Feature", "properties": {"@id": "relation/8376126", "colour": "red", "from": "大阪府大阪市北区", "name": "国道163号", "name:en": "National Highway Route 163", "name:ja": "国道163号", "name:ja-Hira": "こくどうひゃくろくじゅうさんごう", "name:ja-Latn": "Kokudo 163 Gou", "network": "JP:national", "official_name": "一般国道163号", "ref": "163", "route": "road", "to": "三重県津市", "type": "route", "wikidata": "Q6156843", "wikipedia": "ja:国道163号"}, "geometry": {"type": "MultiLineString", "coordinates": [[[135.5004203, 34.6983092], [135.5005918, 34.6983108], [135.5011312, 34.698267], [135.5014352, 34.6982423], [135.5014897, 34.6982379], [135.5018544, 34.6982169], [135.5018904, 34.6982143], [135.502124, 34.6981989], [135.5024909, 34.6981705], [135.5035156, 34.6981182], [135.5040405, 34.6980991], [135.5041413, 34.6980958], [135.504253, 34.6980878], [135.5046489, 34.6980642], [135.5054043, 34.6980194], [135.5056765, 34.6979621], [135.5059994, 34.6979419], [135.5061765, 34.6979302], [135.5063715, 34.6979184], [135.5069201, 34.697875], [135.5075392, 34.6978392], [135.5076426, 34.6978313], [135.5077579, 34.6978213], [135.5083707, 34.6977871], [135.5084124, 34.6977838], [135.5087433, 34.6977477], [135.5091297, 34.6977227], [135.509236, 34.697718], [135.5095697, 34.6977031], [135.5097302, 34.6976959], [135.50991, 34.6976826], [135.5101424, 34.6976674], [135.5103, 34.6976458], [135.5103695, 34.6976362], [135.5108138, 34.6976073], [135.5110176, 34.6975997], [135.5112243, 34.697592], [135.5116184, 34.6975651], [135.5117143, 34.6975585], [135.5118403, 34.697547], [135.5119889, 34.6975334], [135.5122868, 34.6975062], [135.5124559, 34.6974947], [135.5138146, 34.6974035], [135.5141795, 34.6973814], [135.5142546, 34.6973749], [135.514404, 34.6973622], [135.514495, 34.6973544], [135.5146068, 34.6973462], [135.5154722, 34.6972941], [135.5162902, 34.6972417], [135.5163676, 34.697235], [135.5168576, 34.6972044], [135.5171035, 34.6971855], [135.517204, 34.6971777], [135.5173339, 34.697168], [135.5177013, 34.6971526], [135.5177653, 34.6971499], [135.5179743, 34.6971365], [135.5180921, 34.6971313], [135.5182888, 34.6971192], [135.5184257, 34.6971277], [135.5185697, 34.6971558], [135.52006, 34.6975547], [135.5201038, 34.6975653], [135.5201933, 34.6975901], [135.5202672, 34.6976111], [135.520698, 34.6977245], [135.5209071, 34.6977672], [135.5211125, 34.6977969], [135.5212823, 34.6978122], [135.5214342, 34.6978147], [135.5216132, 34.6978141], [135.5216419, 34.6978133], [135.5217276, 34.6978108], [135.5219333, 34.6977954], [135.5235678, 34.697679], [135.5242779, 34.6976001], [135.5243449, 34.6975926], [135.5244058, 34.6975859], [135.524465, 34.6975793], [135.5246094, 34.6975632], [135.5249465, 34.6975258], [135.5250553, 34.697517], [135.5254601, 34.6974845], [135.5257988, 34.6974497], [135.5259556, 34.6974285], [135.5260393, 34.6974172], [135.5262455, 34.6973894], [135.5263382, 34.6973816], [135.5265128, 34.697395], [135.5271513, 34.697522], [135.5281909, 34.6977255], [135.5282419, 34.6977355], [135.5283014, 34.6977472], [135.5283576, 34.697759], [135.5286091, 34.6978119], [135.5287484, 34.697828], [135.529449, 34.6979679], [135.5295041, 34.6979789], [135.5295896, 34.697996], [135.5296517, 34.6980229], [135.5300171, 34.6980913], [135.5301319, 34.6981128], [135.5306959, 34.6982265], [135.5311263, 34.6983174], [135.5311828, 34.6983293], [135.5313228, 34.6983589], [135.5313379, 34.6983621], [135.5314131, 34.6983773], [135.53181, 34.6984575], [135.5319296, 34.6984814], [135.5319917, 34.6984938], [135.5321781, 34.698517], [135.5326227, 34.6986047], [135.5326895, 34.6986178], [135.5329409, 34.6986674], [135.5331811, 34.6987205], [135.5332309, 34.6987315], [135.5334076, 34.6987706], [135.5338554, 34.6988534], [135.5342233, 34.6989216], [135.5343011, 34.698936], [135.534394, 34.6989533], [135.5356672, 34.6991893], [135.5358427, 34.6992094], [135.5362369, 34.6992847], [135.536364, 34.6993083], [135.5364411, 34.699338], [135.536567, 34.6993612], [135.5370208, 34.6994437], [135.5383075, 34.6996779], [135.5383704, 34.6996894], [135.5384687, 34.6997074], [135.5392066, 34.6998433], [135.5398713, 34.6999664], [135.5404255, 34.7000712], [135.5405686, 34.700093], [135.540626, 34.7000991], [135.5407074, 34.7001062], [135.5411182, 34.7001227], [135.5414766, 34.7001375], [135.5419374, 34.7001601], [135.5423146, 34.7001786], [135.5424034, 34.7001837], [135.5425007, 34.7001879], [135.5432583, 34.7002194], [135.5434568, 34.7002142], [135.5436949, 34.7002244], [135.5438492, 34.7002311], [135.5439674, 34.7002501], [135.5444197, 34.7002723], [135.5455899, 34.7003074], [135.5460337, 34.7003267], [135.5462501, 34.7003361], [135.5462525, 34.7005428], [135.5462573, 34.700896], [135.5462768, 34.7015485], [135.5462969, 34.7027869], [135.5462981, 34.7028611], [135.5463101, 34.7037378], [135.5463231, 34.7046107], [135.5463299, 34.7055542], [135.5463416, 34.7064949], [135.5463516, 34.707337], [135.5463521, 34.7074393], [135.5463569, 34.7075533], [135.5463673, 34.7083548], [135.5463791, 34.709297], [135.5463973, 34.7102468], [135.5464113, 34.7113531], [135.5464131, 34.7118609], [135.546414, 34.7120463], [135.5464231, 34.7126997], [135.5464263, 34.7129919], [135.5464307, 34.7132836], [135.5464502, 34.7134877], [135.5464622, 34.7139708], [135.5464414, 34.7140156], [135.5464401, 34.7141763], [135.5464569, 34.7143014], [135.5464624, 34.7148386], [135.5464734, 34.7151886], [135.5464752, 34.7152373], [135.5465016, 34.7154195], [135.5465282, 34.7155171], [135.5466347, 34.7155328], [135.5468501, 34.7155284], [135.5475995, 34.715511], [135.5477764, 34.715503], [135.5479934, 34.7154983], [135.5480503, 34.7154971], [135.5481545, 34.7154942], [135.5482493, 34.7154699], [135.5494992, 34.7154404], [135.5496768, 34.715444], [135.5497389, 34.7154605], [135.550744, 34.71544], [135.550801, 34.7154388], [135.5508805, 34.7154367], [135.5509725, 34.715435], [135.5515829, 34.7154223], [135.5520328, 34.7154115], [135.5522795, 34.7153953], [135.5523265, 34.7153922], [135.5528204, 34.7153779], [135.5528785, 34.7153762], [135.5530116, 34.7153773], [135.5531454, 34.7153791], [135.5532068, 34.7153782], [135.5542152, 34.7153489], [135.5542777, 34.7153479], [135.5546249, 34.7153428], [135.554679, 34.715342], [135.5547042, 34.7153413], [135.5547822, 34.7153344], [135.5553182, 34.7153244], [135.5557886, 34.7153204], [135.5558539, 34.7153198], [135.555972, 34.7153192], [135.5560879, 34.7153164], [135.5565263, 34.7153067], [135.5567857, 34.7152867], [135.5571129, 34.7152794], [135.5571692, 34.7152782], [135.5572608, 34.7152861], [135.5573552, 34.7152864], [135.5577699, 34.7152692], [135.5585389, 34.7152495], [135.5588262, 34.715244], [135.5592556, 34.715242], [135.5595244, 34.7152226], [135.5598192, 34.7152145], [135.5602773, 34.7152058], [135.5603368, 34.7152047], [135.5605001, 34.7152103], [135.5605982, 34.7152136], [135.5607602, 34.7152191], [135.5612656, 34.7152057], [135.5614802, 34.7151998], [135.5619355, 34.7151686], [135.562541, 34.7151574], [135.5626552, 34.7151601], [135.5628798, 34.7151757], [135.5630261, 34.7151932], [135.5630879, 34.7152014], [135.5632293, 34.7152262], [135.5633654, 34.7152519], [135.563488, 34.7152816], [135.5636439, 34.7153225], [135.5638493, 34.7153887], [135.5640335, 34.7154575], [135.5642637, 34.7155585], [135.5644729, 34.7156669], [135.5647397, 34.7158195], [135.5647927, 34.7158487], [135.5648814, 34.7158976], [135.5654452, 34.7162212], [135.5657047, 34.7163507], [135.5659478, 34.7164898], [135.5660028, 34.7165213], [135.5661513, 34.7166062], [135.5662543, 34.7166777], [135.5665879, 34.7168658], [135.5668343, 34.7169885], [135.5672478, 34.7172222], [135.5674331, 34.7173263], [135.5674972, 34.7173623], [135.5676086, 34.7174249], [135.5676519, 34.7174666], [135.5677225, 34.7175056], [135.5680046, 34.7176616], [135.5682803, 34.7178031], [135.5685396, 34.7179493], [135.5686785, 34.7180277], [135.5687222, 34.718066], [135.5691286, 34.7182974], [135.5694815, 34.7185899], [135.5699342, 34.7190927], [135.5702564, 34.719492], [135.5702774, 34.7195471], [135.5709281, 34.7203147], [135.5713563, 34.7208641], [135.5717202, 34.721331], [135.5721851, 34.7219112], [135.5723686, 34.7221386], [135.5725285, 34.7223475], [135.5726506, 34.7225081], [135.5730704, 34.7230352], [135.5731477, 34.723131], [135.5735882, 34.7236813], [135.5742879, 34.7245476], [135.5744453, 34.7247409], [135.574741, 34.7251138], [135.5749804, 34.7254034], [135.5755097, 34.7260921], [135.5757124, 34.7263385], [135.5759789, 34.7266568], [135.5763969, 34.7271865], [135.5768693, 34.7277738], [135.5770162, 34.7279668], [135.5772755, 34.7282919], [135.5773951, 34.7284391], [135.5777132, 34.7288653], [135.5778986, 34.7291516], [135.5780343, 34.7293938], [135.5783537, 34.72994], [135.5786496, 34.730482], [135.5789113, 34.730981], [135.5789553, 34.7310515], [135.5791565, 34.7314083], [135.5794032, 34.7318749], [135.5794537, 34.7319614], [135.5794615, 34.7319852], [135.5799541, 34.7328786], [135.5801115, 34.7331475], [135.5802955, 34.7333784], [135.5804268, 34.7334877], [135.5805659, 34.7335913], [135.5807359, 34.7336725], [135.580867, 34.7337221], [135.5810626, 34.7337774], [135.5813377, 34.7338081], [135.5817039, 34.7338136], [135.5818561, 34.7338181], [135.5820313, 34.7338203], [135.5821628, 34.7338232], [135.5822791, 34.7338268], [135.5823785, 34.7338307], [135.5825148, 34.7338361], [135.5827824, 34.733843], [135.5836388, 34.7338624], [135.5845296, 34.733891], [135.5856256, 34.7339256], [135.5859428, 34.7339325], [135.586065, 34.7339351], [135.5861751, 34.733938], [135.5892217, 34.7340178], [135.5893031, 34.7340206], [135.5912183, 34.7340789], [135.5913067, 34.7340816], [135.5914545, 34.7340843], [135.5930681, 34.7341139], [135.5935042, 34.7341325], [135.5936506, 34.7341387], [135.593801, 34.7341431], [135.5953387, 34.7341884], [135.5954456, 34.7341902], [135.5959849, 34.734202], [135.5960225, 34.7341984], [135.5967539, 34.7342235], [135.5969427, 34.7342369], [135.5971211, 34.7342495], [135.597571, 34.7343065], [135.5979535, 34.7343727], [135.5983866, 34.7344785], [135.5986557, 34.7345494], [135.5992422, 34.7347472], [135.6001576, 34.7350596], [135.6009168, 34.7352956], [135.601599, 34.7355194], [135.6018335, 34.7355963], [135.6027457, 34.7358847], [135.6034998, 34.7361399], [135.6037623, 34.7362225], [135.6041997, 34.7363713], [135.6049034, 34.7365948], [135.6058486, 34.7368954], [135.6064436, 34.7370558], [135.6073815, 34.7372906], [135.6079405, 34.7374404], [135.6087915, 34.7376645], [135.6091212, 34.7377485], [135.6101707, 34.7380386], [135.6109597, 34.7382688], [135.6110761, 34.7382982], [135.6112143, 34.7383422], [135.6118754, 34.7385527], [135.6122717, 34.7386962], [135.6123212, 34.7387141], [135.6129427, 34.7389682], [135.6134918, 34.7392111], [135.6139524, 34.7394016], [135.614034, 34.7394387], [135.6142342, 34.7395197], [135.6155807, 34.7400921], [135.6160212, 34.740274], [135.6164136, 34.7403722], [135.6167932, 34.7404499], [135.6172451, 34.740505], [135.6175485, 34.7405489], [135.6178886, 34.7405738], [135.6179899, 34.7405774], [135.6184975, 34.7406212], [135.6188255, 34.7406495], [135.6194874, 34.7406931], [135.6203451, 34.7407201], [135.6203899, 34.7407231], [135.620928, 34.7407592], [135.6209844, 34.740767], [135.6212927, 34.7407729], [135.6213095, 34.7407739], [135.6215933, 34.7407914], [135.6221964, 34.7408212], [135.6224492, 34.7408337], [135.622505, 34.7408365], [135.6231721, 34.7408499], [135.6234796, 34.7408524], [135.6235811, 34.7408532], [135.6242207, 34.7408297], [135.6242542, 34.7408276], [135.6248552, 34.7407895], [135.6252193, 34.7407568], [135.6254611, 34.7407287], [135.6260226, 34.7406645], [135.6264005, 34.7406213], [135.6276134, 34.740481], [135.6283924, 34.7403886], [135.6286693, 34.740359], [135.6297748, 34.7402374], [135.6299758, 34.7402153], [135.6304839, 34.7401706], [135.6310693, 34.7401315], [135.631562, 34.7400871], [135.6317981, 34.7400698], [135.6320709, 34.7400455], [135.6330921, 34.739994], [135.6347885, 34.7399703], [135.6353748, 34.7399649], [135.636024, 34.7399438], [135.6365799, 34.7399153], [135.6367879, 34.7399027], [135.6372591, 34.739874], [135.6376813, 34.7398485], [135.6384106, 34.7398108], [135.6391057, 34.7397757], [135.6392256, 34.7397697], [135.6397071, 34.7397437], [135.6404213, 34.7396832], [135.6407049, 34.7396504], [135.6410403, 34.7396089], [135.6414507, 34.7395406], [135.6417387, 34.739485], [135.6420041, 34.7394369], [135.6421132, 34.7394121], [135.6432525, 34.7391728], [135.6435663, 34.7391067], [135.644186, 34.7389798], [135.6447183, 34.7388592], [135.6448264, 34.7388415], [135.6454816, 34.7386998], [135.6459521, 34.7386039], [135.6467806, 34.7384536], [135.6469597, 34.7384253], [135.6473934, 34.7383512], [135.6478547, 34.7383027], [135.6482498, 34.7382755], [135.6485073, 34.7382622], [135.6486922, 34.7382621], [135.6493356, 34.7382412], [135.6496097, 34.7382556], [135.6500281, 34.7382644], [135.6505805, 34.7382997], [135.6512531, 34.738371], [135.6518277, 34.7383989], [135.6523768, 34.73841], [135.652674, 34.7384171], [135.6530401, 34.7384187], [135.6534115, 34.7384048], [135.654011, 34.7383702], [135.6543215, 34.7383402], [135.6549277, 34.7382718], [135.6551623, 34.7382517], [135.6553803, 34.7382267], [135.6557885, 34.7382047], [135.6562119, 34.738203], [135.656592, 34.7382201], [135.6570327, 34.7382563], [135.6575152, 34.7383036], [135.658003, 34.7383525], [135.6585284, 34.7383809], [135.6589785, 34.7383835], [135.6593989, 34.73836], [135.6598737, 34.7383181], [135.6604101, 34.7382652], [135.6608098, 34.7382476], [135.6613906, 34.7382448], [135.6617178, 34.7382791], [135.6622186, 34.738346], [135.6627121, 34.7384298], [135.662975, 34.7384782], [135.6633693, 34.7385179], [135.6637567, 34.7385609], [135.664047, 34.7385677], [135.6643326, 34.7385369], [135.6646499, 34.7385056], [135.6648732, 34.7384655], [135.6650965, 34.7384254], [135.6654846, 34.7382731], [135.6656462, 34.7382118], [135.6672163, 34.7376162], [135.6680905, 34.7373114], [135.6686462, 34.7371359], [135.669205, 34.7369952], [135.6698889, 34.7368463], [135.6709771, 34.7366756], [135.6716815, 34.7366011], [135.6759513, 34.7362922], [135.6778014, 34.7361386], [135.6791351, 34.7359944], [135.6807137, 34.7357793], [135.6813968, 34.7356826], [135.6814648, 34.7356724], [135.6820141, 34.735584], [135.6839477, 34.7352305], [135.6852182, 34.7350265], [135.6861297, 34.7348819], [135.686637, 34.7348088], [135.6871308, 34.7347514], [135.6876253, 34.7347153], [135.6881024, 34.7346908], [135.688564, 34.7346758], [135.6889978, 34.7346695], [135.6894607, 34.7346796], [135.6899217, 34.7347023], [135.6903828, 34.7347393], [135.6908649, 34.7347969], [135.691264, 34.7348517], [135.691728, 34.7349359], [135.6919097, 34.7346311]], [[135.5005847, 34.6981496], [135.500869, 34.69813], [135.5014992, 34.6980864], [135.5018934, 34.69806], [135.502118, 34.6980498], [135.5022685, 34.6980387], [135.5023153, 34.6980352], [135.5025076, 34.6980209], [135.5026911, 34.6980085], [135.5035816, 34.6979481], [135.5040263, 34.697915], [135.5041355, 34.6979064], [135.5042363, 34.6979023], [135.5046515, 34.6978767], [135.505421, 34.6978091], [135.5059994, 34.6978162], [135.5061872, 34.6978043], [135.5063638, 34.6977927], [135.5067383, 34.697765], [135.5069291, 34.697751], [135.5075258, 34.6976988], [135.5076335, 34.6976914], [135.5077469, 34.6976835], [135.5083642, 34.6976408], [135.509117, 34.6975935], [135.5092367, 34.697585], [135.509579, 34.6975607], [135.5097182, 34.6975508], [135.5102586, 34.6975157], [135.5102956, 34.6975132], [135.510804, 34.6974801], [135.5110189, 34.6974641], [135.5112118, 34.6974497], [135.511569, 34.6974208], [135.511606, 34.697418], [135.511723, 34.6974084], [135.5118248, 34.6974028], [135.5119783, 34.6973947], [135.5124097, 34.6973642], [135.5138036, 34.697273], [135.5143871, 34.6972282], [135.5144804, 34.6972212], [135.5145918, 34.6972142], [135.51499, 34.6971898], [135.515184, 34.6971768], [135.5162507, 34.6970995], [135.5163513, 34.6970915], [135.5167547, 34.6970673], [135.5169324, 34.6970585], [135.5170911, 34.6970449], [135.5171938, 34.697036], [135.5173235, 34.6970296], [135.5177516, 34.6970087], [135.5179685, 34.6970004], [135.5181036, 34.6970017], [135.5182756, 34.6970032], [135.5183623, 34.6970025], [135.5184221, 34.6970078], [135.518493, 34.6970188], [135.5185947, 34.6970392], [135.5187435, 34.6970768], [135.5190133, 34.6971413], [135.520107, 34.6974459], [135.5202384, 34.6974808], [135.5203118, 34.6975004], [135.5205254, 34.6975604], [135.5208159, 34.6976209], [135.5210148, 34.6976481], [135.5211289, 34.6976566], [135.5212588, 34.6976594], [135.5213812, 34.6976604], [135.5215056, 34.6976567], [135.5217082, 34.697644], [135.5219157, 34.6976294], [135.5240901, 34.6974779], [135.5243331, 34.6974596], [135.5244673, 34.6974496], [135.5245973, 34.6974396], [135.5246632, 34.6974346], [135.5250529, 34.6974048], [135.5253995, 34.6973783], [135.5260514, 34.6973205], [135.526302, 34.6972993], [135.5265312, 34.6973328], [135.5265925, 34.6973452], [135.5271754, 34.6974626], [135.5272729, 34.6974689], [135.528257, 34.6976696], [135.5283167, 34.6976818], [135.5283766, 34.6976935], [135.528428, 34.6977035], [135.5295211, 34.6979171], [135.5295898, 34.6979306], [135.5296799, 34.6979503], [135.5297329, 34.6979619], [135.5300305, 34.698027], [135.5307689, 34.6981768], [135.5312024, 34.698257], [135.5313104, 34.6982769], [135.5314313, 34.6983141], [135.5314867, 34.6983254], [135.5318351, 34.6983968], [135.5320259, 34.6984208], [135.5327053, 34.6985609], [135.5328427, 34.6985892], [135.5329589, 34.6986132], [135.5331251, 34.6986474], [135.5332481, 34.6986728], [135.5334423, 34.6987122], [135.5338121, 34.6987812], [135.5342402, 34.6988599], [135.5343047, 34.6988718], [135.5344104, 34.6988913], [135.5354033, 34.6990739], [135.5355448, 34.6990986], [135.5358391, 34.6991455], [135.5362258, 34.6992174], [135.5363837, 34.6992502], [135.5365369, 34.6992905], [135.5369615, 34.6993688], [135.5370815, 34.6993787], [135.5372063, 34.6994016], [135.5383195, 34.6996061], [135.5383859, 34.6996186], [135.5384419, 34.699629], [135.5385497, 34.6996492], [135.540536, 34.7000168], [135.5406454, 34.7000308], [135.5407142, 34.7000361], [135.5413521, 34.700062], [135.5417748, 34.7000794], [135.5423086, 34.7000993], [135.542397, 34.7001127], [135.5424998, 34.7001206], [135.5428508, 34.7001345], [135.5430226, 34.7001287], [135.5434438, 34.7001464], [135.5436982, 34.700157], [135.5438563, 34.7001651], [135.5439729, 34.7001827], [135.5443181, 34.7001998], [135.5445662, 34.7001968], [135.5450732, 34.7002182], [135.5460323, 34.7002604], [135.5462496, 34.7002645], [135.5463576, 34.7003088], [135.5463578, 34.700342], [135.5463625, 34.7005423], [135.5463669, 34.7009011], [135.5463732, 34.7015665], [135.5463858, 34.7027846], [135.5463866, 34.7028597], [135.5463968, 34.7037352], [135.5464022, 34.7040994], [135.5464098, 34.7046104], [135.5464257, 34.705552], [135.54644, 34.7064946], [135.54645, 34.7073349], [135.5464493, 34.7074381], [135.5464509, 34.7075493], [135.5464633, 34.7083565], [135.5464743, 34.7092972], [135.5464859, 34.7102466], [135.5464953, 34.7111593], [135.5465091, 34.7116911], [135.5465031, 34.7118783], [135.5465002, 34.7120359], [135.5465011, 34.7123609], [135.546521, 34.712543], [135.5465213, 34.7127116], [135.5465284, 34.7130574], [135.5465328, 34.7135968], [135.5465382, 34.7139703], [135.5465517, 34.714884], [135.5465541, 34.7152384], [135.5466011, 34.7154465], [135.5466542, 34.7154574], [135.5467299, 34.7154597], [135.5468476, 34.7154576], [135.5469091, 34.7154563], [135.5472355, 34.7154491], [135.547573, 34.7154429], [135.5477745, 34.7154263], [135.5478979, 34.7154237], [135.5480464, 34.7154221], [135.5481499, 34.7154189], [135.548248, 34.7154396], [135.5483082, 34.715438], [135.5498164, 34.7153978], [135.5498975, 34.7153805], [135.5501769, 34.7153763], [135.5508004, 34.715359], [135.5508759, 34.7153587], [135.5509712, 34.7153592], [135.5510293, 34.7153582], [135.5513415, 34.7153526], [135.5515823, 34.7153368], [135.5516412, 34.715333], [135.5528765, 34.7153051], [135.553005, 34.7152965], [135.5531435, 34.715303], [135.5532009, 34.715302], [135.5537138, 34.7152925], [135.5542754, 34.7152795], [135.5546773, 34.7152702], [135.554702, 34.7152694], [135.554767, 34.715268], [135.5548491, 34.7152655], [135.5556596, 34.7152411], [135.5558526, 34.715241], [135.5559688, 34.7152416], [135.5560852, 34.7152419], [135.5561513, 34.7152403], [135.556511, 34.7152317], [135.556774, 34.7152123], [135.5571677, 34.7152035], [135.5572613, 34.7152024], [135.5573551, 34.7152008], [135.5574103, 34.7152003], [135.5575428, 34.715199], [135.5577838, 34.7151981], [135.558537, 34.7151821], [135.5598349, 34.7151426], [135.5603348, 34.7151303], [135.5605015, 34.7151305], [135.5606026, 34.7151301], [135.5607568, 34.7151309], [135.5608164, 34.7151296], [135.5612734, 34.71512], [135.5614614, 34.7151162], [135.5618611, 34.7151036], [135.5625739, 34.7150885], [135.5628593, 34.7150962], [135.5630119, 34.7151073], [135.5631029, 34.7151178], [135.5632243, 34.7151372], [135.563389, 34.7151788], [135.5634506, 34.7151934], [135.5635351, 34.7152153], [135.563767, 34.7152816], [135.5639267, 34.7153369], [135.5640867, 34.7153862], [135.5641357, 34.7154068], [135.5642766, 34.715477], [135.5644644, 34.7155818], [135.5646846, 34.7157064], [135.5648387, 34.715792], [135.56491, 34.7158317], [135.5650176, 34.7158914], [135.5655224, 34.7161717], [135.5657537, 34.7162945], [135.5660513, 34.7164621], [135.5661533, 34.7165195], [135.5663114, 34.7166104], [135.5663612, 34.7166391], [135.5675477, 34.7172987], [135.5676474, 34.7173541], [135.5677786, 34.7174377], [135.5678289, 34.7174698], [135.5680238, 34.7175803], [135.56834, 34.7177477], [135.5686605, 34.7179249], [135.5686962, 34.7179622], [135.5688395, 34.7180427], [135.5691939, 34.7182417], [135.5694828, 34.7184679], [135.5695456, 34.7185317], [135.5698794, 34.7188991], [135.5700001, 34.7190424], [135.5703289, 34.7194504], [135.5709957, 34.7202774], [135.5713859, 34.7207789], [135.5718626, 34.721354], [135.5724591, 34.7221133], [135.5725585, 34.7222441], [135.5726032, 34.722303], [135.5727218, 34.722459], [135.5731136, 34.7229516], [135.5731569, 34.7229997], [135.5737259, 34.7237009], [135.5744187, 34.7245656], [135.5748441, 34.7251054], [135.5749443, 34.7252309], [135.5752667, 34.7256339], [135.5757235, 34.726205], [135.5761071, 34.7266761], [135.5768244, 34.7275988], [135.5769661, 34.7277776], [135.5774184, 34.7283275], [135.5774357, 34.7283485], [135.5777258, 34.7287294], [135.5778481, 34.7289071], [135.5779559, 34.7290897], [135.5781504, 34.7294063], [135.5784711, 34.7299462], [135.5787641, 34.7304913], [135.5790256, 34.7309785], [135.5790792, 34.7310681], [135.5791828, 34.7312912], [135.5792664, 34.7314437], [135.5792979, 34.7315002], [135.579433, 34.7317474], [135.5794865, 34.7318437], [135.5796284, 34.7320707], [135.5797121, 34.7322467], [135.5799395, 34.7326684], [135.5801191, 34.7329743], [135.5802103, 34.7331097], [135.5802598, 34.7331781], [135.5804026, 34.7333239], [135.5805119, 34.7334133], [135.5806413, 34.7335075], [135.5807947, 34.7335787], [135.5809649, 34.7336481], [135.5811498, 34.7337017], [135.5813263, 34.7337194], [135.5818737, 34.7337467], [135.5820326, 34.7337512], [135.582163, 34.7337548], [135.5822805, 34.7337601], [135.5823803, 34.7337629], [135.5825191, 34.7337665], [135.5827019, 34.7337741], [135.5827529, 34.7337756], [135.5838231, 34.7338071], [135.5840328, 34.7338132], [135.5845285, 34.7338292], [135.5856283, 34.7338582], [135.5859457, 34.7338651], [135.5860631, 34.7338684], [135.5861762, 34.7338708], [135.5882416, 34.733927], [135.5892234, 34.7339611], [135.5893041, 34.7339638], [135.5912208, 34.7340157], [135.5913098, 34.7340181], [135.5914592, 34.7340212], [135.5917627, 34.7340276], [135.593071, 34.7340612], [135.5934868, 34.7340753], [135.5936396, 34.7340805], [135.5937905, 34.7340841], [135.5945109, 34.7341013], [135.5948869, 34.7341103], [135.5953349, 34.734121], [135.5954286, 34.7341228], [135.5959562, 34.7341332], [135.5960005, 34.7341326], [135.5967651, 34.7341534], [135.5971912, 34.7341881], [135.5976037, 34.7342368], [135.597962, 34.734307], [135.598388, 34.7344118], [135.5986859, 34.7344977], [135.599273, 34.7346903], [135.6001508, 34.7349856], [135.6007962, 34.7351884], [135.600953, 34.7352377], [135.6027697, 34.7358345], [135.6035154, 34.7360726], [135.6038051, 34.7361698], [135.6042508, 34.7363291], [135.6049271, 34.7365445], [135.6058566, 34.7368443], [135.6064634, 34.7370044], [135.6074011, 34.7372391], [135.6077085, 34.7373202], [135.6079406, 34.7373814], [135.6087709, 34.7376038], [135.6091004, 34.7376849], [135.6100563, 34.7379358], [135.6109628, 34.7382041], [135.6110998, 34.738248], [135.6119004, 34.7385028], [135.6123491, 34.7386652], [135.6129723, 34.7389201], [135.6135257, 34.73914], [135.6140659, 34.7393576], [135.6142695, 34.7394482], [135.6155834, 34.73999], [135.6160581, 34.7401686], [135.6164475, 34.7402808], [135.6166764, 34.740337], [135.617265, 34.7404425], [135.6175319, 34.7404769], [135.6179978, 34.7405101], [135.6187816, 34.7405582], [135.6193412, 34.740598], [135.6203115, 34.7406452], [135.6204936, 34.7406624], [135.6210241, 34.7406925], [135.6213429, 34.7407061], [135.6215974, 34.740726], [135.6220669, 34.7407507], [135.6225105, 34.740774], [135.6231787, 34.7407892], [135.6234862, 34.7407903], [135.6235813, 34.7407906], [135.6242196, 34.740781], [135.6248434, 34.7407382], [135.6252026, 34.7407005], [135.6259478, 34.7406116], [135.6259969, 34.7406057], [135.6263665, 34.7405615], [135.6276074, 34.7404217], [135.6283849, 34.7403316], [135.6286636, 34.7403024], [135.6296171, 34.7401938], [135.6299472, 34.7401562], [135.6302091, 34.7401276], [135.6304795, 34.7400981], [135.6310118, 34.7400601], [135.6315916, 34.7400139], [135.6317952, 34.7399904], [135.6320563, 34.7399655], [135.6330529, 34.7399302], [135.6343989, 34.7399181], [135.6347338, 34.7399151], [135.6352223, 34.7399097], [135.6353705, 34.7399102], [135.6360195, 34.7398865], [135.63647, 34.7398673], [135.6366801, 34.7398529], [135.6372583, 34.7398131], [135.6376665, 34.7397918], [135.6384285, 34.7397558], [135.6390172, 34.739719], [135.6392333, 34.7397055], [135.6396974, 34.7396778], [135.6404062, 34.7396305], [135.640734, 34.7395978], [135.641049, 34.7395541], [135.6414171, 34.7394954], [135.6417368, 34.7394301], [135.6419865, 34.7393865], [135.6420944, 34.7393632], [135.6428184, 34.7392065], [135.6430188, 34.7391593], [135.6435501, 34.7390341], [135.6441314, 34.7389013], [135.6448179, 34.7387587], [135.6455903, 34.7386008], [135.6458948, 34.7385325], [135.6467631, 34.7383732], [135.6469886, 34.73833], [135.6479239, 34.7382047], [135.6481358, 34.7381831], [135.6484774, 34.7381634], [135.6488945, 34.7381531], [135.649355, 34.7381555], [135.6500402, 34.7381861], [135.6504522, 34.7382187], [135.6512516, 34.738286], [135.6518185, 34.7383155], [135.6524729, 34.7383391], [135.653034, 34.7383452], [135.6533994, 34.7383276], [135.6539152, 34.7382865], [135.6548918, 34.7382008], [135.6557497, 34.7381359], [135.6564169, 34.7381319], [135.656863, 34.7381665], [135.6578434, 34.7382663], [135.6580298, 34.7382754], [135.6585287, 34.7383055], [135.6588268, 34.7383029], [135.6597158, 34.7382541], [135.6598859, 34.738237], [135.6606397, 34.7381917], [135.6612328, 34.7381644], [135.6615611, 34.7381821], [135.6619123, 34.7382213], [135.6630144, 34.738396], [135.6633164, 34.7384124], [135.6640216, 34.7384306], [135.664345, 34.7383978], [135.6646538, 34.7383547], [135.6651119, 34.7382832], [135.6655101, 34.7381646], [135.6659843, 34.7379753], [135.6677564, 34.7372214], [135.6679859, 34.7371297], [135.6685631, 34.7369132], [135.6689029, 34.7368157], [135.6696008, 34.7366483], [135.66999, 34.7365695], [135.6703939, 34.7364988], [135.670685, 34.73645], [135.6714766, 34.7363575], [135.672735, 34.7362587], [135.6780932, 34.7358688], [135.6793169, 34.7357432], [135.6805482, 34.7355862], [135.6812724, 34.7354922], [135.6813618, 34.735482], [135.6829544, 34.7352682], [135.6836577, 34.7351511], [135.6845157, 34.7349637], [135.6851544, 34.7348113], [135.6860174, 34.7346144], [135.6864652, 34.7345144], [135.6869188, 34.7344265], [135.68734, 34.7343574], [135.6878173, 34.7342962], [135.6882125, 34.7342566], [135.6885334, 34.7342326], [135.6888575, 34.7342181], [135.6891716, 34.7342183], [135.6895027, 34.7342324], [135.6898334, 34.7342596], [135.6903812, 34.7343204], [135.6907368, 34.7343738], [135.6911248, 34.7344479], [135.6915173, 34.7345348], [135.6919097, 34.7346311], [135.6919233, 34.7346035], [135.6919728, 34.7345086], [135.6920105, 34.734434], [135.6920885, 34.7342799], [135.6923089, 34.7340108], [135.6925347, 34.7338303], [135.6931629, 34.7335483], [135.6932968, 34.733486], [135.6936622, 34.7333279], [135.6937356, 34.7332961], [135.6939248, 34.7332266], [135.6939539, 34.7332159], [135.6942514, 34.7331508], [135.694459, 34.7331297], [135.6946915, 34.7331309], [135.6960189, 34.7333367], [135.6960406, 34.7333401], [135.6961726, 34.7333589], [135.6966439, 34.7334404], [135.696701, 34.7334492], [135.6971441, 34.7335177], [135.697623, 34.7335862], [135.6977686, 34.7336026], [135.6978987, 34.733607], [135.6980322, 34.7336001], [135.6981813, 34.7335849], [135.6983225, 34.7335618], [135.6983752, 34.7335491], [135.6984551, 34.7335297], [135.6990239, 34.7333934], [135.6992732, 34.7333322], [135.6994886, 34.7332537], [135.6996462, 34.7331709], [135.6997678, 34.7330769], [135.699925, 34.7329248], [135.7000578, 34.7327963], [135.7001404, 34.7327164], [135.7003238, 34.7325428], [135.7005072, 34.7323691], [135.7017297, 34.7312386], [135.7024626, 34.7305717], [135.7032403, 34.72986], [135.7034353, 34.7297332], [135.7036219, 34.7296489], [135.7037756, 34.7296039], [135.7038926, 34.7295744], [135.7039376, 34.7295631], [135.7040634, 34.7295368], [135.7041837, 34.729537], [135.7042716, 34.7295372], [135.7043914, 34.7295517], [135.7045058, 34.7295684], [135.7046057, 34.7295944], [135.7048378, 34.7296651], [135.7050466, 34.7297652], [135.7052408, 34.7298951], [135.7054391, 34.7300852], [135.7057138, 34.7303529], [135.7059428, 34.7305548], [135.7061305, 34.7306935], [135.7063335, 34.7308152], [135.7065398, 34.7309107], [135.7066155, 34.7309373], [135.7067362, 34.7309798], [135.7070103, 34.7310416], [135.7074558, 34.7311164], [135.7076055, 34.7311356], [135.7077033, 34.7311481], [135.70773, 34.7311525], [135.7077525, 34.7311548], [135.7079429, 34.7311858], [135.7080683, 34.7312062], [135.7083171, 34.731243], [135.7093458, 34.7313952], [135.7095256, 34.7314196], [135.7103071, 34.7315256], [135.7104739, 34.7315482], [135.7106359, 34.7315728], [135.7108369, 34.7316033], [135.7115489, 34.7317115], [135.7120438, 34.7317788], [135.7124359, 34.7318201], [135.7125258, 34.7318241], [135.7128544, 34.7318389], [135.7130831, 34.7318411], [135.7131671, 34.7318419], [135.713235, 34.7318425], [135.713423, 34.7318456], [135.7143693, 34.7318609], [135.7155965, 34.7318799], [135.7157372, 34.7318884], [135.7158675, 34.7319061], [135.715961, 34.7319259], [135.7161116, 34.7319662], [135.7163002, 34.7320334], [135.7165528, 34.7321592], [135.7167437, 34.7322576], [135.7170114, 34.7323982], [135.7175112, 34.7326381], [135.7179771, 34.7328365], [135.7184863, 34.7330826], [135.7188511, 34.7332547], [135.7189485, 34.7332985], [135.7190253, 34.7333302], [135.7190942, 34.7333566], [135.7192167, 34.7334119], [135.7193203, 34.7334398], [135.7194115, 34.7334546], [135.7195191, 34.733466], [135.7196461, 34.7334688], [135.7197708, 34.733454], [135.7198887, 34.733429], [135.7200054, 34.7333988], [135.7201114, 34.7333578], [135.7202253, 34.7332991], [135.7203471, 34.7332154], [135.7204855, 34.7330844], [135.7206997, 34.7328782], [135.7208625, 34.7327285], [135.7212196, 34.7324209], [135.7214184, 34.7322626], [135.721443, 34.7322421], [135.7214947, 34.7321933], [135.7216999, 34.7320222], [135.721744, 34.7319901], [135.7218081, 34.7319436], [135.7219217, 34.7318415], [135.7219479, 34.731818], [135.7221058, 34.731676], [135.7225054, 34.7313248], [135.7226308, 34.7312147], [135.7231434, 34.7307796], [135.7233188, 34.7306384], [135.7234646, 34.7305359], [135.723599, 34.7304641], [135.7236787, 34.73043], [135.7237801, 34.7304049], [135.7239648, 34.7303382]], [[135.7190942, 34.7333566], [135.7196074, 34.7333845], [135.719678, 34.7333703], [135.719768, 34.7333469], [135.7198522, 34.7333162], [135.7199451, 34.7332689], [135.7200168, 34.7332251], [135.720092, 34.7331693], [135.7201609, 34.7330998], [135.7202469, 34.7330098], [135.7205049, 34.7327188], [135.7206906, 34.7325303], [135.720932, 34.7323042], [135.7212855, 34.7319969], [135.721376, 34.7319183], [135.7214345, 34.7318649], [135.7216448, 34.7317104], [135.7216703, 34.7316902], [135.7217103, 34.7316575], [135.7218994, 34.7315123], [135.7223128, 34.7311613], [135.7224283, 34.7310632], [135.7225288, 34.7309784], [135.7226867, 34.7308582], [135.7228165, 34.730766], [135.7229506, 34.7306906], [135.7231491, 34.7305837], [135.7233427, 34.7304949], [135.7235193, 34.7304345], [135.7236455, 34.730394], [135.723747, 34.7303689], [135.7239648, 34.7303382], [135.7240546, 34.730324], [135.7242141, 34.7303058], [135.7246591, 34.7302754], [135.7261371, 34.7301803], [135.7275434, 34.7300939], [135.7281938, 34.7300521], [135.7298099, 34.7299525], [135.7305766, 34.7298996], [135.7310804, 34.7298755], [135.731089, 34.7298751], [135.7312076, 34.7298602], [135.7313177, 34.7298443], [135.7313263, 34.7298441], [135.7317714, 34.7298348], [135.7348872, 34.7296313], [135.7367362, 34.7295207], [135.7369887, 34.729495], [135.7372624, 34.729454], [135.7374974, 34.7293925], [135.7376779, 34.7293375], [135.7379564, 34.729233], [135.7382939, 34.7291036], [135.7387003, 34.7289479], [135.7391934, 34.7287666], [135.7394397, 34.7286807], [135.7401275, 34.7284192], [135.7402686, 34.7283754], [135.7404195, 34.7283427], [135.7405279, 34.7283291], [135.7406631, 34.7283185], [135.7408009, 34.728322], [135.7409725, 34.7283307], [135.7411703, 34.7283609], [135.7415351, 34.72843], [135.7433147, 34.7287672], [135.743454, 34.7287924], [135.7435861, 34.7288187], [135.7449358, 34.7290877], [135.7453793, 34.7291813], [135.7458664, 34.7292584], [135.7460121, 34.7292713], [135.7462263, 34.7292776], [135.746376, 34.7292713], [135.7465233, 34.7292645], [135.7465758, 34.7292561], [135.7466485, 34.7292407], [135.7468117, 34.729206], [135.7469975, 34.7291483], [135.7471521, 34.72909], [135.7472817, 34.7290354], [135.7477723, 34.7288261], [135.7479832, 34.7287354], [135.7487744, 34.7284025], [135.7490625, 34.7282843], [135.7492405, 34.7282036], [135.7494783, 34.7281095], [135.7497226, 34.7279901], [135.7501152, 34.7278117], [135.7502474, 34.7277616], [135.7504615, 34.727687], [135.7506663, 34.7276493], [135.7508365, 34.7276483], [135.7509942, 34.7276679], [135.7511754, 34.7277274], [135.7513151, 34.7277971], [135.7514161, 34.7278608], [135.751521, 34.7279535], [135.7516373, 34.7280743], [135.7518141, 34.7282579], [135.7530111, 34.7295009], [135.7531047, 34.729598], [135.7531716, 34.7296675], [135.7536144, 34.7301273], [135.7538337, 34.730355], [135.7538623, 34.7303847], [135.7541187, 34.7306393], [135.7543611, 34.7308212], [135.7545464, 34.7309293], [135.7547684, 34.7310257], [135.754955, 34.7310822], [135.7551336, 34.7311226], [135.7553043, 34.7311401], [135.7553691, 34.7311459], [135.7557101, 34.7311779], [135.755834, 34.7311944], [135.7558988, 34.731203], [135.7560252, 34.7312199], [135.7562477, 34.7312318], [135.7563105, 34.7312352], [135.7567081, 34.7312242], [135.7571325, 34.7311527], [135.7572651, 34.7311036], [135.7576686, 34.730934], [135.7580018, 34.7307712], [135.7582602, 34.7306467], [135.7584935, 34.7305695], [135.758723, 34.7305109], [135.7587315, 34.7305087], [135.7588899, 34.7304876], [135.7591633, 34.7304852], [135.759467, 34.730502], [135.7602019, 34.7306116], [135.7611962, 34.7307612], [135.7620833, 34.7308779], [135.7624721, 34.7309038], [135.7628646, 34.7309085], [135.7634023, 34.7308709], [135.7641774, 34.7307816], [135.7644847, 34.7307445], [135.7646783, 34.7307211], [135.7647357, 34.7307035], [135.7648067, 34.7306971], [135.7652436, 34.7306578], [135.766083, 34.730564], [135.7668185, 34.730479], [135.7670232, 34.7304782], [135.7677522, 34.7304585], [135.7682184, 34.7304519], [135.7686142, 34.7304688], [135.7689672, 34.7305011], [135.7693404, 34.7305771], [135.7696781, 34.7306737], [135.7701192, 34.7308453], [135.7712688, 34.7313789], [135.7720866, 34.7317741], [135.7733393, 34.7323769], [135.7737309, 34.732555]], [[135.7668185, 34.730479], [135.7672471, 34.7304111], [135.7677522, 34.7303803], [135.7682197, 34.7303673], [135.76863, 34.7303822], [135.7689586, 34.730415], [135.7693768, 34.7304993], [135.7697245, 34.7305919], [135.7701673, 34.7307758], [135.771313, 34.7313241], [135.7725154, 34.7318998], [135.7735346, 34.7323594], [135.7738225, 34.7324913], [135.7740398, 34.7325998], [135.7747163, 34.732844], [135.7752454, 34.7329884], [135.7756818, 34.733082], [135.7761576, 34.7331353], [135.7766653, 34.733193], [135.7768959, 34.7332316], [135.7765128, 34.7332193], [135.7759737, 34.7331918], [135.7755527, 34.733149], [135.7750317, 34.7330537], [135.7745629, 34.7329229], [135.7743454, 34.732846], [135.7741829, 34.7327757], [135.7739646, 34.7326658], [135.7737309, 34.732555]], [[135.7768959, 34.7332316], [135.7772761, 34.7332615], [135.7775287, 34.7332711], [135.777775, 34.7332668], [135.7779515, 34.7332561], [135.7780492, 34.7332502], [135.7782007, 34.7332361], [135.7788746, 34.7331849], [135.7790201, 34.7331816], [135.7796007, 34.7331238], [135.7802752, 34.733028], [135.7806373, 34.7330019], [135.7809272, 34.7330133], [135.7813222, 34.7331067], [135.7815707, 34.733194], [135.7818314, 34.7333011], [135.7820759, 34.7334558], [135.7828352, 34.7340017], [135.7831671, 34.7342072], [135.7835363, 34.7343837], [135.7839418, 34.7345487], [135.7843215, 34.7346716], [135.784473, 34.7347069], [135.7846334, 34.7347312], [135.7847891, 34.7347547], [135.7851885, 34.7348138], [135.7863659, 34.7349374], [135.7880042, 34.735131], [135.7880728, 34.7351391], [135.7889636, 34.7352948], [135.7893637, 34.7353748], [135.7900458, 34.7355111], [135.7905419, 34.7356195], [135.7907627, 34.7356753], [135.7909797, 34.7357328], [135.7911846, 34.7357873], [135.7912345, 34.7358001], [135.7914901, 34.7358686], [135.7915579, 34.735886], [135.791625, 34.7359031], [135.7917218, 34.7359279], [135.7917603, 34.7359383], [135.791886, 34.7359722], [135.7921249, 34.7360386], [135.7924938, 34.7361409], [135.7927884, 34.7362252], [135.7933129, 34.7363656], [135.7936442, 34.7364416], [135.7939787, 34.7365003], [135.7943403, 34.7365677], [135.7950141, 34.7366534], [135.795391, 34.7366997], [135.7959632, 34.7367585], [135.7960391, 34.7367669], [135.7962795, 34.7367794], [135.7962984, 34.7367798], [135.7964023, 34.7367819], [135.7965372, 34.7367845], [135.7966863, 34.7367893], [135.7968547, 34.7367946], [135.7971026, 34.7368023], [135.7973652, 34.7368189], [135.7979855, 34.7368833], [135.7982887, 34.7369148], [135.7992112, 34.7370405], [135.7996414, 34.73707], [135.8001356, 34.7370831], [135.8005061, 34.7370563], [135.8006387, 34.7370467], [135.8007833, 34.7370327], [135.8014775, 34.7369656], [135.8023961, 34.7369018], [135.8030279, 34.7368873], [135.8032726, 34.7368817], [135.8032663, 34.7367492], [135.8032284, 34.7359504], [135.8031847, 34.7350276], [135.8031812, 34.7349544], [135.8031767, 34.7348786], [135.8031406, 34.7342665], [135.8031158, 34.733905], [135.8030637, 34.7328715], [135.8030106, 34.7319318], [135.8029568, 34.7310454], [135.8029548, 34.7310042], [135.802919, 34.7302819], [135.8028999, 34.7300881], [135.8031366, 34.730046], [135.8041109, 34.729975], [135.8057771, 34.7299191], [135.8058516, 34.7299166], [135.8062847, 34.7299021], [135.8064805, 34.7298955], [135.8073357, 34.7298678], [135.8073596, 34.7298663], [135.8075119, 34.7298613], [135.8075313, 34.7298613], [135.8090478, 34.7298145], [135.8091742, 34.7298106], [135.8092652, 34.7298097], [135.8093165, 34.7298071], [135.8093603, 34.7298065], [135.8095329, 34.729804], [135.8095656, 34.729804], [135.8114211, 34.729744], [135.8126676, 34.7297037], [135.8138579, 34.7296672], [135.8150709, 34.7296286], [135.816329, 34.7295852], [135.8170325, 34.7295628], [135.8175986, 34.7295502], [135.8181248, 34.7295479], [135.8186171, 34.7295555], [135.8191173, 34.7295632], [135.8197099, 34.7295973], [135.8203747, 34.7296533], [135.8207668, 34.7296802], [135.8210198, 34.7296866], [135.8212414, 34.7296916], [135.8215056, 34.7296864], [135.8216667, 34.7296667], [135.8218054, 34.7296594], [135.821849, 34.7297739], [135.8219041, 34.730011], [135.8219364, 34.7302199], [135.8220236, 34.7308623], [135.8220636, 34.7311863], [135.8220972, 34.7314916], [135.8221091, 34.731611], [135.8221448, 34.731924], [135.8222443, 34.732487], [135.8222808, 34.7328603], [135.8223251, 34.7332571], [135.8223497, 34.7335018], [135.8223668, 34.7337106], [135.8224201, 34.7343603], [135.8224273, 34.7344249], [135.8224378, 34.7345166], [135.8224475, 34.7346062], [135.8224665, 34.7348689], [135.8225235, 34.7354652], [135.8226431, 34.7364391], [135.8226469, 34.7365463], [135.8226607, 34.7366568], [135.8227471, 34.7373212], [135.8227534, 34.7373817], [135.822813, 34.7378649], [135.8228707, 34.7384182], [135.8229557, 34.7391822], [135.8229759, 34.7393653], [135.822985, 34.7394374], [135.8230045, 34.7397393], [135.8230031, 34.7398881], [135.8229945, 34.7400027], [135.8229635, 34.7402251], [135.8229317, 34.7403605], [135.8229052, 34.7404605], [135.8228645, 34.7405777], [135.8226697, 34.7410684], [135.8225908, 34.7412472], [135.8225374, 34.7413582], [135.8225072, 34.7414332], [135.8211329, 34.7447219], [135.8211048, 34.7447823], [135.8209612, 34.7451126], [135.8208226, 34.7454792], [135.8207251, 34.745719], [135.8205961, 34.7460363], [135.8207563, 34.746079], [135.8210576, 34.7461527], [135.8213079, 34.7461982], [135.82154, 34.7462203], [135.8224046, 34.7462862], [135.822631, 34.7463006], [135.8227215, 34.7463063], [135.8233625, 34.746353], [135.8237552, 34.7463816], [135.8241335, 34.746409], [135.824487, 34.7464393], [135.8248236, 34.7464683], [135.8250831, 34.7464896], [135.8255166, 34.746575], [135.8258561, 34.746651], [135.8262031, 34.746758], [135.8265503, 34.7468895], [135.8268936, 34.7470272], [135.8274658, 34.7472707], [135.8280017, 34.7475034], [135.8284793, 34.7477196], [135.8289816, 34.7479765], [135.8292239, 34.7481199], [135.829763, 34.7484525], [135.8300802, 34.7486465], [135.830377, 34.7488173], [135.8305354, 34.7489074], [135.8311993, 34.7492851], [135.8319826, 34.7497126], [135.8323521, 34.7499379], [135.8340587, 34.7510053], [135.8342419, 34.7511078], [135.8348141, 34.751447], [135.8349024, 34.7514993], [135.8350376, 34.7515623], [135.8353198, 34.7517404], [135.8359238, 34.7521483], [135.8360295, 34.7522175], [135.8361683, 34.7523445], [135.8363808, 34.752582], [135.8367218, 34.7530223], [135.8368221, 34.7531978], [135.8369166, 34.7534041], [135.8370022, 34.7536277], [135.8371156, 34.7538846], [135.8372692, 34.754167], [135.8373532, 34.7542879], [135.8374817, 34.7544463], [135.8376165, 34.7545968], [135.8378459, 34.7548205], [135.838207, 34.7551621], [135.8383846, 34.7553216], [135.838629, 34.7555184], [135.8396158, 34.7562298], [135.8400558, 34.756559], [135.8404984, 34.756905], [135.8412927, 34.7575934], [135.8419532, 34.7582495], [135.8425834, 34.7588505], [135.8428787, 34.7590999], [135.8434139, 34.7596], [135.843672, 34.7598862], [135.8438965, 34.7601659], [135.8441512, 34.7604596], [135.8442286, 34.7605384], [135.8442613, 34.7605637], [135.8445493, 34.7607674], [135.8447562, 34.7608811], [135.8451501, 34.7610636], [135.8457116, 34.7613245], [135.8461517, 34.7615499], [135.8464698, 34.7617495], [135.8474675, 34.7622975], [135.8480442, 34.762612], [135.8481773, 34.7626838], [135.848347, 34.7627815], [135.8485386, 34.7628606], [135.8490573, 34.7630095], [135.8511936, 34.7635341], [135.8531105, 34.7640006], [135.8534585, 34.7640815], [135.8537191, 34.7641386], [135.8539826, 34.7641685], [135.8542052, 34.7641797], [135.8544368, 34.7641778], [135.8546685, 34.7641629], [135.8549456, 34.7641368], [135.8572567, 34.7638756], [135.8582682, 34.7637692], [135.8582742, 34.7637685], [135.8583582, 34.7637589], [135.8583723, 34.7637573], [135.8587684, 34.7637299], [135.85943, 34.7637315], [135.8602723, 34.7637362], [135.8619185, 34.7637489], [135.8632734, 34.763772], [135.8635534, 34.7638016], [135.8637646, 34.7638421], [135.8639637, 34.7638917], [135.8642492, 34.7640001], [135.8644377, 34.7641012], [135.8646281, 34.764226], [135.8651723, 34.7646225], [135.8659185, 34.7651628], [135.86668, 34.7657221], [135.8677749, 34.7665259], [135.8684676, 34.7670191], [135.8686337, 34.7671523], [135.8689791, 34.7673935], [135.8698897, 34.7680457], [135.8701259, 34.768223], [135.87035, 34.7683614], [135.8705597, 34.7684562], [135.8708118, 34.7685401], [135.8710525, 34.7686054], [135.871366, 34.7686334], [135.8725629, 34.7686763], [135.8744202, 34.7687406], [135.874472, 34.7687424], [135.8758586, 34.7687914], [135.8760939, 34.7687736], [135.8762448, 34.7687589], [135.8764233, 34.7687216], [135.8765312, 34.7686886], [135.8766704, 34.7686461], [135.8768794, 34.768542], [135.8771107, 34.7683989], [135.877299, 34.7681945], [135.8773624, 34.7681164], [135.8777315, 34.7677484], [135.8779564, 34.767535], [135.8781896, 34.7673447], [135.8783239, 34.7672553], [135.8788206, 34.7669457], [135.8793184, 34.766647], [135.8795962, 34.7664868], [135.879921, 34.766291], [135.880345, 34.7660466], [135.8804531, 34.7659942], [135.880821, 34.7657738], [135.8815999, 34.7653247], [135.882125, 34.7650189], [135.8821714, 34.7649946], [135.8824438, 34.7648518], [135.8828679, 34.764712], [135.8831019, 34.7646643], [135.8834319, 34.7645971], [135.8844676, 34.7644383], [135.8846609, 34.7644051], [135.8848427, 34.7643612], [135.8853288, 34.7641539], [135.8856462, 34.7640484], [135.8860013, 34.7640023], [135.8867688, 34.7639021], [135.887005, 34.7638718], [135.8873426, 34.7638434], [135.8878895, 34.7638109], [135.8884495, 34.7637776], [135.8884831, 34.7637742], [135.8886615, 34.7637562], [135.8891679, 34.7636757], [135.8897816, 34.7635418], [135.8903926, 34.763395], [135.8914986, 34.7631074], [135.8917019, 34.7630558], [135.8919835, 34.7629953], [135.8921767, 34.7629739], [135.8925826, 34.7629683], [135.8932566, 34.762983], [135.8934742, 34.7629934], [135.8937023, 34.7630089], [135.8939803, 34.763046], [135.8949233, 34.7632565], [135.8958306, 34.763408], [135.8969306, 34.7635387], [135.8970919, 34.7635613], [135.89766, 34.7636913], [135.897964, 34.76377], [135.8984026, 34.7639577], [135.8991533, 34.7643114], [135.8994328, 34.7645259], [135.8997592, 34.7647488], [135.9000652, 34.7648962], [135.9003977, 34.7651945], [135.9010322, 34.7656638], [135.9013463, 34.7659889], [135.9015821, 34.766211], [135.9021058, 34.7665535], [135.9024071, 34.7667078], [135.90269, 34.7667929], [135.9031098, 34.7669007], [135.9035067, 34.7669224], [135.9056492, 34.7668259], [135.9067959, 34.7666488], [135.9078173, 34.7664031], [135.9084283, 34.7662497], [135.9086592, 34.7662012], [135.9087651, 34.7661835], [135.9089032, 34.7661604], [135.9091311, 34.766135], [135.9093046, 34.7661202], [135.9105234, 34.7660293], [135.9106161, 34.7660224], [135.9107964, 34.7660083], [135.9110051, 34.7659865], [135.9112592, 34.7659435], [135.9115089, 34.7658898], [135.9119959, 34.7657501], [135.9121231, 34.7657136], [135.9127116, 34.765547], [135.9130024, 34.7654649], [135.9131541, 34.7654285], [135.9140353, 34.7652546], [135.9144653, 34.765154], [135.9146769, 34.7651045], [135.9148897, 34.7650771], [135.9150769, 34.7650761], [135.9152417, 34.7650883], [135.9156816, 34.7651333], [135.9157986, 34.7651526], [135.9161808, 34.7651443], [135.9167809, 34.7650507], [135.9170766, 34.7650329], [135.9174445, 34.7650578], [135.9181571, 34.7651977], [135.9185163, 34.7652285], [135.9187644, 34.7652332], [135.9190976, 34.765187], [135.9194178, 34.7650934], [135.9201568, 34.7648259], [135.921208, 34.764681], [135.9217677, 34.7645589], [135.9221413, 34.7644298], [135.9225972, 34.7642165], [135.9235377, 34.7637519], [135.9242701, 34.7634283], [135.9246602, 34.7632572], [135.9250491, 34.7630861], [135.9258437, 34.7627538], [135.9262482, 34.7626028], [135.9266862, 34.7624518], [135.9270388, 34.7623508], [135.9273877, 34.7622665], [135.9276143, 34.762218], [135.9283929, 34.7621088], [135.9292026, 34.7620074], [135.9305021, 34.7618364], [135.9313984, 34.7617803], [135.9318879, 34.7617981], [135.9328359, 34.7620526], [135.9330848, 34.7620744], [135.9338294, 34.7620543], [135.9349501, 34.7620877], [135.9357266, 34.7621012], [135.9360408, 34.7620828], [135.9361524, 34.7620465], [135.9362672, 34.7620091], [135.9366467, 34.7618204], [135.9374953, 34.7614007], [135.9377695, 34.7612398], [135.9379094, 34.7611577], [135.9380543, 34.7610238], [135.9381944, 34.7608904], [135.9382869, 34.7608098], [135.9383757, 34.7607136], [135.9385643, 34.7605058], [135.9387424, 34.7603454], [135.9388693, 34.7602557], [135.9390325, 34.7601557], [135.9392289, 34.7600669], [135.9393625, 34.7600079], [135.9398092, 34.7598211], [135.9401309, 34.7597143], [135.9401981, 34.759692], [135.9402351, 34.7596766], [135.9404568, 34.7596089], [135.9406095, 34.759567], [135.9407933, 34.7595275], [135.9410137, 34.759499], [135.9411926, 34.7594954], [135.9415172, 34.7595176], [135.9495794, 34.7607748], [135.9501646, 34.7609155], [135.9504948, 34.7610638], [135.9508115, 34.7612673], [135.9511773, 34.7615384], [135.951475, 34.7617876], [135.9516227, 34.7619393], [135.9517389, 34.7621325], [135.9518275, 34.7623744], [135.9521453, 34.7632574], [135.9522172, 34.7634431], [135.9522419, 34.7634921], [135.9524097, 34.7638559], [135.952535, 34.7640341], [135.9526905, 34.7642253], [135.9528816, 34.7644123], [135.9532702, 34.7647148], [135.9535843, 34.7649465], [135.9538564, 34.7651172], [135.95412, 34.76526], [135.9543659, 34.7653722], [135.954655, 34.7654712], [135.9558302, 34.7658253], [135.956272, 34.7659335], [135.9567286, 34.7660221], [135.9571608, 34.7660803], [135.957472, 34.7661011], [135.9577725, 34.7661131], [135.9581241, 34.7661147], [135.9595109, 34.7660522], [135.9598219, 34.7660526], [135.9601449, 34.7660726], [135.9604611, 34.7661184], [135.9613165, 34.7662534], [135.9617899, 34.7663007], [135.9621036, 34.7663163], [135.9625213, 34.7663082], [135.9628645, 34.7662894], [135.9631142, 34.7662624], [135.9633269, 34.7662191], [135.9641613, 34.7660826], [135.9643663, 34.7660653], [135.964569, 34.7660664], [135.964881, 34.7661019], [135.9649934, 34.7661171], [135.9650846, 34.7661295], [135.9656698, 34.7662027], [135.9669744, 34.7663725], [135.9676766, 34.7664697], [135.9680569, 34.7665538], [135.9688023, 34.7668024], [135.9690935, 34.7668931], [135.969419, 34.7669794], [135.9696769, 34.7670315], [135.9724032, 34.7675528], [135.9768059, 34.7684059], [135.9771591, 34.7684816], [135.9774838, 34.7685657], [135.9777433, 34.7686565], [135.9779382, 34.7687477], [135.9782433, 34.768911], [135.978364, 34.7689863], [135.9791845, 34.7695497], [135.9796029, 34.7697876], [135.9802857, 34.7700884], [135.980624, 34.7702492], [135.9808204, 34.7703556], [135.9810361, 34.7704878], [135.9813517, 34.7707174], [135.9814983, 34.7708415], [135.9816512, 34.7709744], [135.9818421, 34.7711732], [135.9820461, 34.7714238], [135.9821145, 34.771514], [135.9823288, 34.7718505], [135.9825777, 34.7722708], [135.982784, 34.7725811], [135.9828875, 34.7727143], [135.983025, 34.7728664], [135.9832909, 34.7731346], [135.983598, 34.7733768], [135.9839209, 34.7735915], [135.9842793, 34.7737973], [135.9844718, 34.7738856], [135.9846582, 34.7739605], [135.9850485, 34.7740982], [135.9854543, 34.7742047], [135.9863089, 34.7743865], [135.9867209, 34.7744667], [135.9871364, 34.7745399], [135.9875571, 34.7746107], [135.9879883, 34.7746847], [135.9888287, 34.7748103], [135.9900927, 34.7749722], [135.9909482, 34.775055], [135.991581, 34.7751095], [135.9922305, 34.7751584], [135.9926475, 34.7751839], [135.9930776, 34.775189], [135.9935027, 34.7751736], [135.9939303, 34.7751354], [135.9943471, 34.7750806], [135.9947757, 34.7750053], [135.9951749, 34.7749175], [135.9957212, 34.7747632], [135.9958526, 34.7747206], [135.9966903, 34.7744005], [135.9968048, 34.7743579], [135.996992, 34.7742825], [135.9973343, 34.7741756], [135.9976291, 34.7740935], [135.9980744, 34.7740076], [135.9984141, 34.7739613], [135.9986399, 34.7739404], [135.9989953, 34.7739246], [135.9992845, 34.7739227], [135.9995017, 34.7739287], [135.9998247, 34.773956], [136.0001611, 34.7739952], [136.000474, 34.7740513], [136.0029165, 34.7745229], [136.0033157, 34.7746017], [136.0035971, 34.7746695], [136.0041658, 34.7748241], [136.0047701, 34.7750147], [136.0077258, 34.7759094], [136.0080116, 34.77598], [136.0082306, 34.7760238], [136.00836, 34.7760497], [136.0087372, 34.7761022], [136.0091143, 34.7761448], [136.0094604, 34.7761978], [136.0097651, 34.7762691], [136.0101521, 34.7763984], [136.0105359, 34.7765736], [136.0110684, 34.7768688], [136.0113002, 34.7769723], [136.0115354, 34.777055], [136.0117631, 34.7771155], [136.0119963, 34.7771538], [136.0122195, 34.7771682], [136.0124893, 34.7771593], [136.0127737, 34.7771191], [136.0134006, 34.7769785], [136.0150655, 34.7765642], [136.0152361, 34.7765274], [136.0154307, 34.7765009], [136.0156898, 34.7764954], [136.0161301, 34.7765132], [136.0162296, 34.7765176], [136.0166435, 34.7765406], [136.01694, 34.7765505], [136.0171167, 34.7765237], [136.0172812, 34.7764736], [136.0174108, 34.7764153], [136.0175152, 34.7763645], [136.0176552, 34.7762512], [136.0177647, 34.7761329], [136.0178658, 34.7759634], [136.0179211, 34.7758262], [136.0179221, 34.7758238], [136.0184324, 34.7743041], [136.0184852, 34.7741462], [136.0185886, 34.7736311], [136.018603, 34.773338], [136.0186155, 34.7731183], [136.01861, 34.7729164], [136.0185443, 34.7721528], [136.0185511, 34.7719834], [136.0185853, 34.7718269], [136.0186743, 34.7716382], [136.0187986, 34.7714618], [136.0189554, 34.7713322], [136.0191047, 34.7712185], [136.0193421, 34.7710745], [136.0196294, 34.7709543], [136.0213136, 34.7704185], [136.0216046, 34.770297], [136.0218293, 34.7701849], [136.0220712, 34.7700455], [136.0228828, 34.769405], [136.0231823, 34.7691578], [136.0234147, 34.7689297], [136.0235559, 34.7687757], [136.0237119, 34.7685533], [136.0238171, 34.7683346], [136.0238974, 34.7681158], [136.0239416, 34.7678736], [136.0239796, 34.7676382], [136.0239887, 34.7672948], [136.023971, 34.7670078], [136.0238796, 34.7662755], [136.0237901, 34.7657253], [136.0237794, 34.7656643], [136.0237393, 34.7653732], [136.0237242, 34.7652348], [136.0237241, 34.7651238], [136.0237281, 34.7650281], [136.02374, 34.7649195], [136.0237598, 34.7648019], [136.0238218, 34.7645956], [136.0239035, 34.7643591], [136.0239653, 34.7642047], [136.0240459, 34.7640412], [136.02419, 34.7638239], [136.0242856, 34.7637229], [136.024385, 34.7636179], [136.0247119, 34.7633639], [136.0249379, 34.7632255], [136.0250609, 34.7631646], [136.0253074, 34.7630729], [136.0254379, 34.7630374], [136.0255829, 34.763007], [136.0257183, 34.7629876], [136.0259089, 34.7629752], [136.0260937, 34.7629774], [136.0262765, 34.7629967], [136.0264915, 34.7630386], [136.0266581, 34.763085], [136.0268047, 34.7631439], [136.0269083, 34.7631886], [136.0270466, 34.7632669], [136.0271973, 34.7633652], [136.0274044, 34.7635189], [136.0275583, 34.7636441], [136.0284438, 34.7643457], [136.0286303, 34.7644915], [136.0287557, 34.7645854], [136.0288582, 34.7646523], [136.0289705, 34.7647194], [136.0290738, 34.7647707], [136.0291851, 34.7648201], [136.0292817, 34.7648539], [136.0293974, 34.7648841], [136.0296563, 34.7649446], [136.0298905, 34.7649878], [136.0314585, 34.7652441], [136.0342261, 34.7656991], [136.0350266, 34.7658399], [136.0357392, 34.7659998], [136.0365905, 34.7661992], [136.0369244, 34.7662098], [136.0371862, 34.7661541], [136.0374084, 34.7660469], [136.0379436, 34.7657548], [136.0381044, 34.7657009], [136.0382818, 34.7656926], [136.0385402, 34.7657442], [136.0387018, 34.7658188], [136.0389845, 34.7659326], [136.0392528, 34.7659646], [136.03952, 34.7659311], [136.0406968, 34.7656162], [136.0417152, 34.7653081], [136.0421335, 34.765211], [136.0424855, 34.7652121], [136.0437126, 34.7654606], [136.0440951, 34.7655243], [136.0449112, 34.765443], [136.0460322, 34.7652846], [136.0462484, 34.7652193], [136.0464983, 34.765076], [136.0466605, 34.7649369], [136.0470501, 34.7644961], [136.0474235, 34.7641743], [136.0476448, 34.7640486], [136.0479692, 34.7639154], [136.0482415, 34.7638559], [136.0488433, 34.7637121], [136.0495029, 34.7635503], [136.0498746, 34.7634309], [136.0499969, 34.7633892], [136.0504077, 34.7632172], [136.0509123, 34.7629701], [136.0514909, 34.7626843], [136.0517787, 34.7625295], [136.0519213, 34.7624638], [136.0520693, 34.762411], [136.0522504, 34.7623534], [136.0524388, 34.7623078], [136.0526242, 34.7622803], [136.0528294, 34.7622657], [136.053633, 34.7622173], [136.0555482, 34.762089], [136.0556163, 34.7620866], [136.0556499, 34.7620854], [136.0564007, 34.7620366], [136.0578473, 34.761951], [136.057992, 34.7619309], [136.0582184, 34.7619006], [136.0584135, 34.7618576], [136.0585913, 34.7617978], [136.058768, 34.7617283], [136.0589528, 34.7616329], [136.0591059, 34.7615358], [136.0592684, 34.761408], [136.0593526, 34.7613371], [136.0595846, 34.7610887], [136.0599144, 34.7607484], [136.0611288, 34.7595187], [136.0612255, 34.7594148], [136.0613394, 34.759312], [136.0615415, 34.7591763], [136.0616711, 34.7590956], [136.0618063, 34.7590298], [136.0619467, 34.7589745], [136.0621995, 34.7588876], [136.0624398, 34.7588313], [136.063269, 34.7586545], [136.0640104, 34.7584885], [136.0642098, 34.7584434], [136.0642349, 34.7584418], [136.0649133, 34.7583062], [136.0653366, 34.7582356], [136.0659154, 34.7581901], [136.0666081, 34.7581739], [136.0683745, 34.7581167], [136.069831, 34.7580665], [136.0708854, 34.7580357], [136.0711678, 34.7580388], [136.0714486, 34.7580616], [136.0717099, 34.7581022], [136.0720097, 34.7581644], [136.0722721, 34.7582368], [136.0728336, 34.7584558], [136.0734551, 34.7587021], [136.0737375, 34.7587864], [136.0741217, 34.7588839], [136.0743208, 34.7589241], [136.0746009, 34.758961], [136.0748513, 34.7589766], [136.0750753, 34.7589805], [136.0752281, 34.7589764], [136.0754057, 34.7589678], [136.0757274, 34.7589405], [136.0763599, 34.7588689], [136.0769374, 34.7588082], [136.0773118, 34.7587916], [136.0775735, 34.7587896], [136.0778326, 34.7587955], [136.0781392, 34.7588199], [136.0784114, 34.7588534], [136.0786483, 34.7588932], [136.0788735, 34.7589357], [136.079214, 34.7590197], [136.0796516, 34.7591565], [136.0798518, 34.7592258], [136.0803463, 34.7593859], [136.0810112, 34.7596085], [136.081535, 34.7597846], [136.0818019, 34.7598608], [136.0819347, 34.7598966], [136.0821181, 34.7599329], [136.0822981, 34.7599624], [136.0824429, 34.7599742], [136.0825792, 34.7599808], [136.0827377, 34.7599819], [136.0828888, 34.7599769], [136.0830124, 34.759967], [136.0831456, 34.7599496], [136.0832928, 34.7599269], [136.0835065, 34.7598806], [136.0840012, 34.7597615], [136.0844661, 34.7596505], [136.0846516, 34.7596114], [136.0847868, 34.7595877], [136.0849741, 34.7595581], [136.0852378, 34.7595307], [136.0854757, 34.7595094], [136.0857392, 34.7595028], [136.0860853, 34.7595054], [136.086272, 34.7595081], [136.0875524, 34.7595397], [136.0879254, 34.7595519], [136.0879999, 34.7595542], [136.088081, 34.7595567], [136.0887372, 34.7595772], [136.0893811, 34.7595963], [136.0893933, 34.7595966], [136.0902929, 34.7596196], [136.0914307, 34.7596486], [136.0919228, 34.7596576], [136.0928681, 34.7596866], [136.0934634, 34.7597011], [136.0936165, 34.7597124], [136.0937855, 34.7597474], [136.0939483, 34.7597921], [136.0941439, 34.7598583], [136.0942905, 34.7599215], [136.0944588, 34.7600115], [136.0946231, 34.7601083], [136.0947207, 34.760173], [136.0948258, 34.7602534], [136.0949311, 34.7603543], [136.0952028, 34.7606631], [136.0956966, 34.7612564], [136.0962072, 34.76186], [136.0967725, 34.76254], [136.0970376, 34.7628511], [136.097141, 34.7629604], [136.0972768, 34.7631041], [136.0974851, 34.7632793], [136.0976183, 34.7633704], [136.0978311, 34.7634946], [136.0989277, 34.7641258], [136.0993231, 34.764331], [136.0998831, 34.7645849], [136.1008421, 34.7650285], [136.1013595, 34.7652645], [136.1022717, 34.7656817], [136.1029504, 34.7659941], [136.103236, 34.7661271], [136.1033016, 34.7661548], [136.1039332, 34.7664532], [136.1042963, 34.7666839], [136.104465, 34.7668551], [136.1047062, 34.7671644], [136.1048316, 34.7673557], [136.1054128, 34.768277], [136.1059937, 34.7691979], [136.1061608, 34.7694333], [136.1067171, 34.770293], [136.1069947, 34.7706913], [136.1071321, 34.7708118], [136.1073816, 34.7709888], [136.1075918, 34.7710989], [136.1095986, 34.7719317], [136.1096788, 34.7719652], [136.1127536, 34.7732212], [136.1144133, 34.7738934], [136.1147735, 34.7740246], [136.1152401, 34.7741456], [136.1159278, 34.7742622], [136.1177838, 34.7744901], [136.1202926, 34.7747877], [136.1217468, 34.7749198], [136.1219634, 34.7749277], [136.1234654, 34.7749304], [136.1236508, 34.7749295], [136.12379, 34.7749288], [136.1237853, 34.7747951], [136.123769, 34.7743213], [136.1237518, 34.7738185], [136.1237506, 34.7735809], [136.1237499, 34.7733899], [136.1237481, 34.7730012], [136.1237321, 34.7728003], [136.1237214, 34.7726671], [136.1237167, 34.7726182], [136.1237088, 34.7725285], [136.1236962, 34.7724226], [136.1236864, 34.7723418], [136.1236608, 34.77213], [136.1235961, 34.7710366], [136.1236135, 34.7699848], [136.1236193, 34.7698384], [136.1236118, 34.7697216], [136.1236081, 34.7696629], [136.1235599, 34.7693635], [136.1233605, 34.7684518], [136.123254, 34.7679322], [136.1231773, 34.7674144], [136.1231572, 34.767281], [136.1233403, 34.7673029], [136.1235276, 34.7673257], [136.1238957, 34.7673584], [136.1251305, 34.7674854], [136.1253885, 34.7675119], [136.1258205, 34.767561], [136.1276418, 34.7677544], [136.1276727, 34.7677575], [136.1277346, 34.7677636], [136.129532, 34.7679671], [136.129625, 34.7679763], [136.1299862, 34.7680167], [136.1300444, 34.7680231], [136.1301375, 34.7680333], [136.130251, 34.7680457], [136.1304262, 34.7680655], [136.1307473, 34.7681], [136.130985, 34.768126], [136.1311479, 34.7681413], [136.1316733, 34.768193], [136.1327332, 34.7682939], [136.1327716, 34.7682976], [136.1328955, 34.7683083], [136.1337395, 34.768381], [136.1337767, 34.7683842], [136.1338665, 34.7683891], [136.1339657, 34.7683975], [136.1345531, 34.7684481], [136.1346091, 34.7684516], [136.1355122, 34.7685159], [136.1355764, 34.7685194], [136.1356946, 34.7685245], [136.1366557, 34.7685579], [136.1368113, 34.7685634], [136.1369607, 34.7685685], [136.1370818, 34.7685794], [136.1379481, 34.7686572], [136.1381207, 34.7686769], [136.1382686, 34.7687117], [136.1384136, 34.768784], [136.1385314, 34.7688502], [136.1387349, 34.7690102], [136.1389922, 34.7692316], [136.1390265, 34.7692598], [136.1392835, 34.76941], [136.1395832, 34.7695405], [136.1400843, 34.7697356], [136.1404759, 34.7698477], [136.1408012, 34.7699123], [136.1419546, 34.7701564], [136.14234, 34.7702342], [136.1423701, 34.7702404], [136.1424511, 34.7702571], [136.1426468, 34.7702975], [136.1428986, 34.7703494], [136.1429348, 34.7703569], [136.1432512, 34.7704221], [136.1448374, 34.7707679], [136.1450187, 34.7708074], [136.1454341, 34.7709053], [136.1456789, 34.770963], [136.1462652, 34.7710421], [136.1466306, 34.7710868], [136.1477154, 34.7710996], [136.1479979, 34.7711029], [136.1484026, 34.7711072], [136.1494741, 34.7711157], [136.1500581, 34.7711158], [136.1512224, 34.7711093], [136.1520188, 34.7711254], [136.1527471, 34.7711707], [136.1535315, 34.7712691], [136.153993, 34.7713639], [136.1552431, 34.7716138], [136.1554337, 34.7716519], [136.156241, 34.7718334], [136.156769, 34.7719403], [136.1568522, 34.7719566], [136.1572177, 34.7720273], [136.1572922, 34.7720415], [136.1573601, 34.7720543], [136.1584315, 34.7722735], [136.1607138, 34.7727593], [136.1617324, 34.7729865], [136.1619897, 34.7730875], [136.1622157, 34.7732141], [136.162398, 34.773363], [136.1625657, 34.7735461], [136.1626501, 34.7736608], [136.1627559, 34.7738886], [136.1627699, 34.773917], [136.1631401, 34.7747052], [136.1632574, 34.7749567], [136.1633818, 34.775044], [136.163753, 34.775145], [136.1642125, 34.7751945], [136.1645071, 34.7751945], [136.1647885, 34.7751388], [136.1658918, 34.7747649], [136.1669996, 34.774391], [136.1672353, 34.7743245], [136.1675152, 34.7742966], [136.169006, 34.7743475], [136.1700666, 34.7743825], [136.1705154, 34.7744127], [136.1708975, 34.7744527], [136.1715793, 34.7746235], [136.1724446, 34.7748428], [136.1731842, 34.7750344], [136.1739487, 34.775286], [136.1743862, 34.7754639], [136.1752425, 34.7759927], [136.1755665, 34.7762466], [136.1758581, 34.7765213], [136.1761277, 34.7767911], [136.1762628, 34.7769806], [136.1767728, 34.7781235], [136.1769734, 34.7784922], [136.1772643, 34.7788366], [136.1777224, 34.779225], [136.1779655, 34.7793351], [136.1782292, 34.7794077], [136.1785268, 34.7794126], [136.1789068, 34.7793351], [136.1795624, 34.7791778], [136.1798187, 34.7790811], [136.1801472, 34.778856], [136.1807423, 34.7783055], [136.1812255, 34.7778566], [136.1815437, 34.7775734], [136.181744, 34.7774573], [136.182046, 34.777346], [136.1824053, 34.7772768], [136.1827102, 34.7772501], [136.1829916, 34.7772695], [136.184232, 34.7775163], [136.1846106, 34.7775853], [136.1848816, 34.7775974], [136.1851939, 34.7775623], [136.1858963, 34.7774419], [136.1863291, 34.777363], [136.1873056, 34.7771859], [136.1875462, 34.7771423], [136.1878963, 34.7770827], [136.1887274, 34.7769413], [136.1897864, 34.7767611], [136.1907393, 34.7765612], [136.1918915, 34.7763049], [136.192684, 34.7761745], [136.1932968, 34.776085], [136.1949008, 34.7758372], [136.1951505, 34.775793], [136.1953759, 34.7757234], [136.1955401, 34.7756406], [136.1957206, 34.7755026], [136.19608, 34.7750883], [136.1965238, 34.7745835], [136.1967835, 34.7742684], [136.1971186, 34.7738939], [136.197655, 34.7732659], [136.197795, 34.773067], [136.1979508, 34.7727491], [136.1980759, 34.7724207], [136.1984269, 34.7714425], [136.1985731, 34.7711309], [136.1987075, 34.7709066], [136.1988026, 34.7707897], [136.1989203, 34.7706698], [136.1992117, 34.7704036], [136.199814, 34.7699457], [136.2003609, 34.7696138], [136.2010277, 34.7692178], [136.2018024, 34.7687592], [136.2022411, 34.7685115], [136.2025657, 34.7683752], [136.2031826, 34.7682054], [136.2040442, 34.7679996], [136.2044931, 34.7679015], [136.2048879, 34.7678437], [136.2055954, 34.7677809], [136.2070831, 34.7676506], [136.2072864, 34.7676268], [136.2073944, 34.7676102], [136.2075762, 34.7675761], [136.2077311, 34.7675388], [136.2080895, 34.767421], [136.208837, 34.7672004], [136.2093917, 34.7670384], [136.209477, 34.7670135], [136.2098041, 34.7669179], [136.2103294, 34.7667646], [136.2104576, 34.7667223], [136.2106531, 34.7666465], [136.2107389, 34.7666058], [136.2109535, 34.7664991], [136.2112383, 34.7663054], [136.2112961, 34.7662677], [136.2114715, 34.7661478], [136.2119187, 34.7658297], [136.2123905, 34.7654899], [136.213098, 34.7649731], [136.2135459, 34.7646596], [136.2137405, 34.7645137], [136.2139439, 34.7643833], [136.2141856, 34.7642506], [136.2143651, 34.7641657], [136.2146039, 34.7640528], [136.2150163, 34.7638771], [136.2153276, 34.7637707], [136.2155277, 34.7637159], [136.2158472, 34.7636386], [136.2161698, 34.7635768], [136.2163511, 34.7635467], [136.2165199, 34.7635295], [136.2167894, 34.7635079], [136.2169579, 34.7635021], [136.2173247, 34.7634919], [136.2177551, 34.7634988], [136.2179068, 34.7635103], [136.2180433, 34.7635206], [136.2182141, 34.7635312], [136.218386, 34.7635352], [136.2185402, 34.7635284], [136.2189377, 34.7634764], [136.2201657, 34.7633154], [136.2210399, 34.7631694], [136.22149, 34.7630817], [136.2219747, 34.7629601], [136.2220894, 34.7629224], [136.2223609, 34.7628366], [136.2228953, 34.7626479], [136.2232589, 34.7624689], [136.2235401, 34.7623252], [136.2240103, 34.7619954], [136.2243829, 34.7616993], [136.2248732, 34.7612797], [136.2251427, 34.7610333], [136.2255253, 34.7606318], [136.2263831, 34.7596221], [136.2264448, 34.7594746], [136.2264793, 34.7592415], [136.2265426, 34.7586776], [136.2265947, 34.7578005], [136.2266255, 34.7574438], [136.2269438, 34.7557852], [136.2270533, 34.7552837], [136.2271678, 34.7549186], [136.2274574, 34.7543798], [136.2278185, 34.7538263], [136.2279368, 34.7536042], [136.2279656, 34.7535262], [136.2287052, 34.7515205], [136.2288389, 34.7511778], [136.2289115, 34.7510119], [136.2289679, 34.7509128], [136.229055, 34.7507879], [136.2291634, 34.7506536], [136.2292631, 34.7505569], [136.2293632, 34.7504666], [136.2294548, 34.7503929], [136.2295329, 34.7503312], [136.2296241, 34.7502705], [136.2297545, 34.7502045], [136.2298621, 34.7501523], [136.2299571, 34.7501221], [136.2302724, 34.750019], [136.2304331, 34.749981], [136.2305933, 34.7499539], [136.230757, 34.7499396], [136.2309194, 34.7499345], [136.2310796, 34.7499382], [136.2315526, 34.7499904], [136.2317096, 34.7500117], [136.2320159, 34.7500515], [136.2329372, 34.750207], [136.2344741, 34.7504825], [136.2348192, 34.7505456], [136.2349869, 34.7505619], [136.2352188, 34.7505781], [136.2356259, 34.7505994], [136.2367733, 34.7506008], [136.2382333, 34.7505345], [136.2389138, 34.7505094], [136.2389354, 34.7505095], [136.2391067, 34.7505059], [136.239833, 34.7504941], [136.2406898, 34.7504431], [136.2419366, 34.7503421], [136.2421113, 34.7503133], [136.2428732, 34.7501783], [136.2433728, 34.7500898], [136.243959, 34.7499442], [136.2457195, 34.7493907], [136.2460464, 34.7492948], [136.2461647, 34.749266], [136.246268, 34.7492447], [136.2465362, 34.7492104], [136.2470191, 34.7491541], [136.2472826, 34.7491203], [136.2476195, 34.7490517], [136.2480613, 34.7489501], [136.2483494, 34.7488816], [136.248621, 34.748811], [136.2489732, 34.7487237], [136.2491806, 34.7486525], [136.249653, 34.7483664], [136.2497571, 34.7482727], [136.2498613, 34.7481608], [136.2499632, 34.7480279], [136.2500473, 34.747878], [136.2504365, 34.7471467], [136.2504985, 34.747035], [136.2505604, 34.7469577], [136.2506191, 34.7468936], [136.2506901, 34.7468262], [136.2507623, 34.7467703], [136.2508567, 34.7467226], [136.2509707, 34.7466767], [136.2527526, 34.7460678], [136.2530108, 34.7459841], [136.2531193, 34.7459542], [136.2531942, 34.7459456], [136.2533559, 34.7459501], [136.2534952, 34.7459723], [136.2536219, 34.7460109], [136.2537282, 34.7460756], [136.2538225, 34.7461766], [136.2539033, 34.7463869], [136.2539947, 34.7470489], [136.2540868, 34.7476771], [136.2541065, 34.7477498], [136.2541374, 34.747821], [136.2541726, 34.7478787], [136.2542266, 34.7479348], [136.2542842, 34.7479776], [136.2543737, 34.7480268], [136.2544472, 34.7480562], [136.2545406, 34.748077], [136.2546525, 34.7480814], [136.2547943, 34.7480752], [136.2551793, 34.7480358], [136.2554396, 34.7480323], [136.2555888, 34.7480435], [136.255708, 34.7480641], [136.2558332, 34.7481025], [136.2559472, 34.7481533], [136.256034, 34.7482013], [136.2561199, 34.7482515], [136.2561966, 34.7483116], [136.2562583, 34.7483755], [136.2563295, 34.7484611], [136.256383, 34.7485428], [136.2564283, 34.7486319], [136.2564678, 34.7487345], [136.2564923, 34.7488463], [136.2564984, 34.7489234], [136.2565025, 34.748997], [136.2564864, 34.7492095], [136.2564519, 34.7495686], [136.2564316, 34.7499614], [136.2564489, 34.7501318], [136.256462, 34.7502602], [136.2566677, 34.7513777], [136.2567462, 34.7516778], [136.2567767, 34.7517788], [136.2568338, 34.7519153], [136.2568944, 34.7520448], [136.2569671, 34.7521733], [136.2570264, 34.75227], [136.2571502, 34.7524467], [136.2575795, 34.7530201], [136.258027, 34.7536121], [136.2581042, 34.7537255], [136.2582798, 34.7539465], [136.2583877, 34.7540728], [136.2587626, 34.754469], [136.2590078, 34.7547252], [136.2597287, 34.7554667], [136.2598762, 34.7556303], [136.2599582, 34.7557238], [136.2600401, 34.7558383], [136.260744, 34.7568806], [136.2609261, 34.7571422], [136.2613413, 34.7576729], [136.2614515, 34.7577923], [136.2618866, 34.7582307], [136.2619975, 34.7583306], [136.2622288, 34.7585354], [136.2625657, 34.7587871], [136.2630451, 34.7591395], [136.26359, 34.759425], [136.2638639, 34.7595196], [136.2640116, 34.7595582], [136.2641733, 34.7596051], [136.2644411, 34.7596869], [136.2645943, 34.7597435], [136.2647129, 34.7598043], [136.2655455, 34.7603921], [136.265732, 34.7605353], [136.266861, 34.7613648], [136.2679866, 34.7622012], [136.2685879, 34.7626541], [136.2688206, 34.7628293], [136.2691351, 34.7630662], [136.2692379, 34.7631414], [136.2707512, 34.7642311], [136.2722539, 34.7653323], [136.2726799, 34.765614], [136.2731562, 34.7657855], [136.2735335, 34.76592], [136.2748419, 34.7663237], [136.2752995, 34.7664633], [136.2755315, 34.7665247], [136.2757736, 34.766577], [136.2758704, 34.766589], [136.2760203, 34.7666109], [136.276204, 34.7666326], [136.2763584, 34.7666462], [136.2766626, 34.7666546], [136.2771445, 34.766664], [136.2776878, 34.7666817], [136.2779371, 34.7666943], [136.2788856, 34.7667118], [136.2789539, 34.7667131], [136.2802083, 34.7667445], [136.2813512, 34.7668144], [136.2817643, 34.7668407], [136.2822062, 34.7668702], [136.2822677, 34.7668638], [136.2824208, 34.7668712], [136.2825056, 34.7668889], [136.2825736, 34.7669226], [136.2830365, 34.767229], [136.2831551, 34.7673065], [136.2833884, 34.7675438], [136.2834905, 34.7676569], [136.2839282, 34.7681222], [136.2839962, 34.7682048], [136.2851399, 34.7694097], [136.28526, 34.7695368], [136.2866205, 34.7708652], [136.286752, 34.7709732], [136.2868454, 34.7710433], [136.2869439, 34.7711084], [136.2870461, 34.7711688], [136.2871185, 34.7712008], [136.2872414, 34.7712422], [136.2873997, 34.771296], [136.2875176, 34.771328], [136.2885036, 34.7715157], [136.2886827, 34.7715489], [136.2888125, 34.7715619], [136.2889604, 34.7715526], [136.2891213, 34.771523], [136.2894244, 34.7714427], [136.2895879, 34.771386], [136.2897135, 34.7713365], [136.2902923, 34.7710675], [136.290601, 34.7709285], [136.2907606, 34.770855], [136.2909277, 34.7707984], [136.2910504, 34.7707803], [136.2911196, 34.7707729], [136.2912195, 34.7707623], [136.2912849, 34.7707553], [136.2915925, 34.7707817], [136.2921276, 34.7708705], [136.2925542, 34.7710209], [136.2927168, 34.7711319], [136.2929303, 34.7713405], [136.2930312, 34.7714363], [136.2931743, 34.7715458], [136.2933894, 34.771666], [136.2940204, 34.7719715], [136.294173, 34.7720423], [136.2942859, 34.7720857], [136.2944159, 34.7721271], [136.2945704, 34.7721646], [136.2950629, 34.77226], [136.2958479, 34.7724122], [136.2960733, 34.7724562], [136.2968325, 34.7726262], [136.2968917, 34.7726395], [136.2975011, 34.7727694], [136.2977848, 34.7727893], [136.2979539, 34.7727598], [136.2981595, 34.7726907], [136.2985465, 34.7725724], [136.2990394, 34.7725255], [136.2995558, 34.772498], [136.3003737, 34.7726041], [136.3013473, 34.7728506], [136.3023331, 34.7729468], [136.3027131, 34.7729337], [136.3030087, 34.7728909], [136.3035347, 34.7727931], [136.3039127, 34.7726989], [136.3046177, 34.7725149], [136.3051137, 34.7723286], [136.3055252, 34.7721423], [136.3063844, 34.7719182], [136.3077739, 34.7715345], [136.3079444, 34.7714874], [136.309402, 34.7709328], [136.3097125, 34.7708654], [136.3100219, 34.7709193], [136.3105132, 34.7710048], [136.3112544, 34.7711338], [136.3116146, 34.7711744], [136.3119222, 34.7711634], [136.3128085, 34.7710564], [136.3133089, 34.7709791], [136.3136828, 34.7710127], [136.3151543, 34.7711468], [136.315348, 34.7711433], [136.3155643, 34.7711045], [136.3157717, 34.7710114], [136.3167408, 34.7702283], [136.3169824, 34.7700331], [136.3171791, 34.7698623], [136.3173493, 34.769648], [136.317531, 34.7693424], [136.3179125, 34.7687931], [136.3183233, 34.768166], [136.3189459, 34.7673398], [136.319224, 34.7670241], [136.3195352, 34.7667291], [136.319994, 34.766338], [136.3204494, 34.7659639], [136.321326, 34.765403], [136.3219116, 34.7650899], [136.3235669, 34.7643616], [136.3245963, 34.7639521], [136.3264056, 34.7632168], [136.3279153, 34.762612], [136.3293193, 34.7620579], [136.3305735, 34.7615834], [136.3317484, 34.7611089], [136.3337414, 34.7602587], [136.3359376, 34.7593011], [136.3364661, 34.7590538], [136.3366426, 34.7589505], [136.3367555, 34.7588612], [136.3368767, 34.758701], [136.3370023, 34.7584116], [136.3370579, 34.7582634], [136.3371189, 34.758142], [136.3372113, 34.7580223], [136.3373182, 34.7579258], [136.337417, 34.7578645], [136.3375379, 34.7578056], [136.3376698, 34.7577717], [136.3380277, 34.7577266], [136.3387311, 34.7577066], [136.3388535, 34.7577015], [136.3389919, 34.7576655], [136.3390971, 34.7576157], [136.3396256, 34.7574301], [136.3397277, 34.7573878], [136.3398278, 34.7573231], [136.3399284, 34.757226], [136.340045, 34.7569834], [136.3401318, 34.7568509], [136.340266, 34.7567105], [136.3407889, 34.7562288], [136.3410284, 34.7560575], [136.3412297, 34.7559392], [136.3414014, 34.7558892], [136.3415947, 34.755873], [136.3418318, 34.7558969], [136.3420751, 34.7559135], [136.3422594, 34.7558881], [136.3424194, 34.7558239], [136.3425263, 34.7557319], [136.3425941, 34.7556154], [136.3428721, 34.7551375], [136.3429602, 34.7550395], [136.3430918, 34.7549537], [136.3431731, 34.7549258], [136.343405, 34.7549125], [136.3435487, 34.7548724], [136.3439189, 34.7546017], [136.3441345, 34.7545437], [136.344388, 34.7545337], [136.3452545, 34.7546068], [136.3453696, 34.7545934], [136.3457114, 34.754474], [136.3473741, 34.7538438], [136.3474556, 34.753839], [136.3475496, 34.7538611], [136.3476982, 34.7539438], [136.3477989, 34.7540415], [136.3479034, 34.7541675], [136.3479993, 34.7542329], [136.3481459, 34.7542967], [136.3482984, 34.7543117], [136.3485017, 34.7542959], [136.348609, 34.754225], [136.3487375, 34.7540572], [136.3488545, 34.7537201], [136.3488833, 34.7535728], [136.3488852, 34.7534491], [136.3488507, 34.7533388], [136.3487749, 34.7532411], [136.3486225, 34.7531182], [136.3484202, 34.7529851], [136.3483578, 34.7529276], [136.3482687, 34.7528228], [136.3482495, 34.7527125], [136.348262, 34.7526535], [136.3483185, 34.7525329], [136.348541, 34.7523581], [136.3487174, 34.7522675], [136.34889, 34.752258], [136.3491067, 34.7522879], [136.3492706, 34.7523336], [136.349586, 34.7524746], [136.349726, 34.7525164], [136.3498497, 34.7525345], [136.3501306, 34.7525463], [136.3502754, 34.7525046], [136.3505055, 34.7524069], [136.3506148, 34.7523344], [136.3507922, 34.7521847], [136.3511911, 34.7516948], [136.3513464, 34.7515656], [136.351494, 34.7514947], [136.3516896, 34.7514285], [136.3519456, 34.7514056], [136.35231, 34.7514427], [136.3524471, 34.7514301], [136.3525669, 34.751408], [136.3526877, 34.751367], [136.352815, 34.7512962], [136.3529506, 34.751177], [136.3530129, 34.75106], [136.3530998, 34.750806], [136.3533469, 34.7503202], [136.3534303, 34.7502223], [136.3535472, 34.7501429], [136.3536525, 34.7501156], [136.3537737, 34.7501166], [136.3539006, 34.7501627], [136.3542525, 34.7503111], [136.354335, 34.750337], [136.3544475, 34.7503504], [136.3546126, 34.7503306], [136.3547932, 34.7502804], [136.3549218, 34.7502053], [136.3551523, 34.7499595], [136.3552187, 34.7497004], [136.3552316, 34.7495305], [136.3551955, 34.7490451], [136.3552698, 34.7488381], [136.3553948, 34.7487005], [136.3557247, 34.7484821], [136.355971, 34.7483379], [136.3562225, 34.7482861], [136.3564855, 34.7482794], [136.3566306, 34.7482478], [136.3567844, 34.7481855], [136.3569461, 34.7480004], [136.3571193, 34.7477015], [136.3573069, 34.7474145], [136.3573979, 34.7473113], [136.3575639, 34.7471701], [136.3584281, 34.746648], [136.3586131, 34.7465572], [136.3589267, 34.7464227], [136.3594204, 34.7462604], [136.3595716, 34.7461933], [136.3596804, 34.7461112], [136.3597568, 34.7460278], [136.3597998, 34.7459544], [136.3598354, 34.7458763], [136.359865, 34.7457894], [136.3598744, 34.7456914], [136.3598567, 34.7455065], [136.359805, 34.7452365], [136.3596936, 34.7446718], [136.3597063, 34.7443632], [136.3597466, 34.7441608], [136.3598216, 34.7439584], [136.3599572, 34.7437727], [136.3601881, 34.7435466], [136.3613481, 34.7426023], [136.3616105, 34.7423745], [136.3618383, 34.7421443], [136.3622322, 34.7413922], [136.3624753, 34.7410423], [136.3626665, 34.7408631], [136.3630695, 34.740649], [136.3635014, 34.7404917], [136.3642065, 34.7402626], [136.3642957, 34.7402242], [136.3646939, 34.7400763], [136.3650327, 34.7399479]], [[136.3872664, 34.7234865], [136.3871812, 34.7234688], [136.3869565, 34.7234322], [136.3867195, 34.7234185], [136.3859884, 34.7235281], [136.3858168, 34.7235719], [136.3856969, 34.7236316], [136.3854301, 34.7238115], [136.3846391, 34.7243953], [136.3839173, 34.7249202], [136.3838369, 34.7249786], [136.3835904, 34.7251849], [136.383172, 34.7257301], [136.3828374, 34.7260849], [136.3826581, 34.7263587], [136.3824983, 34.726538], [136.3822637, 34.7267185], [136.3820755, 34.7268474], [136.3819485, 34.7269137], [136.3818603, 34.7270095], [136.3817647, 34.7271605], [136.3814047, 34.7279574], [136.3812672, 34.7281588], [136.3807635, 34.7286895], [136.3806517, 34.7287531], [136.3803544, 34.7288857], [136.3799256, 34.7290883], [136.3794012, 34.7293928], [136.3787499, 34.7297255], [136.3778131, 34.7302952], [136.3775248, 34.7305604], [136.3772036, 34.7309754], [136.3763565, 34.7316875], [136.3761414, 34.7319331], [136.3759815, 34.7321259], [136.3757978, 34.7322511], [136.3754096, 34.7325397], [136.3753287, 34.7325998], [136.3748954, 34.7328988], [136.3747697, 34.73295], [136.3746319, 34.732995], [136.3744685, 34.7330361], [136.3740044, 34.7331099], [136.3737299, 34.7331066], [136.3729428, 34.7329893], [136.3727184, 34.7329748], [136.3726584, 34.7329816], [136.3725791, 34.732999], [136.3724607, 34.7330286], [136.3723916, 34.7330532], [136.3720897, 34.7331293], [136.3715973, 34.7332572], [136.3713527, 34.7333378], [136.37129, 34.7333681], [136.3712089, 34.7334189], [136.37115, 34.7334647], [136.3711019, 34.7335196], [136.3710681, 34.7335832], [136.3709234, 34.7339216], [136.3708739, 34.7340584], [136.3707493, 34.7342404], [136.3705994, 34.734393], [136.370284, 34.7345957], [136.3701172, 34.7348051], [136.3700739, 34.7349489], [136.3700718, 34.7350978], [136.370175, 34.7354702], [136.3702134, 34.7356307], [136.3702353, 34.7358691], [136.3701782, 34.7361639], [136.3700546, 34.7364792], [136.3699, 34.7370217], [136.3697724, 34.7372892], [136.3695917, 34.7374996], [136.3693696, 34.7376659], [136.3689243, 34.7379385], [136.3678126, 34.7385825], [136.3674836, 34.7386786], [136.366799, 34.7388174], [136.3666152, 34.7388838], [136.3664256, 34.7390001], [136.3656904, 34.7395832], [136.3653743, 34.739791], [136.3651122, 34.7399158], [136.3650327, 34.7399479]], [[136.3872664, 34.7234865], [136.3874155, 34.7235005], [136.3874792, 34.7234931], [136.3875585, 34.7234702], [136.3876299, 34.7234511], [136.3885309, 34.723106], [136.3886508, 34.723062], [136.3887321, 34.7230271], [136.3887894, 34.7229921], [136.3888576, 34.7229443], [136.3889716, 34.7228628], [136.3890276, 34.7228008], [136.3890679, 34.7227354], [136.389099, 34.7226819], [136.389125, 34.7226246], [136.3891428, 34.7225545], [136.3891531, 34.7224215], [136.3891567, 34.7222662], [136.3891351, 34.7220805], [136.3891355, 34.7218138], [136.3891603, 34.721598], [136.3892215, 34.7214443], [136.3893147, 34.7212985], [136.3894232, 34.7211569], [136.3904044, 34.7204746], [136.3906972, 34.7202781], [136.3911783, 34.7200558], [136.3912933, 34.720003], [136.3913844, 34.7199551], [136.3915338, 34.7198274], [136.3920236, 34.7193089], [136.3925453, 34.7187443], [136.3926424, 34.7186498], [136.3927948, 34.7185638], [136.3937981, 34.7182349], [136.3938585, 34.7182151], [136.3942066, 34.7180947], [136.3944351, 34.7179867], [136.3945801, 34.7178749], [136.3949914, 34.7174802], [136.3956938, 34.7167825], [136.3971062, 34.715343], [136.3972251, 34.7152273], [136.397708, 34.7147572], [136.3980911, 34.7144143], [136.3983368, 34.7141487], [136.3988092, 34.7136109], [136.3990366, 34.7133922], [136.3991885, 34.7132215], [136.3993703, 34.7129952], [136.3994062, 34.7129494], [136.3999551, 34.712249], [136.4001279, 34.7120477], [136.4002602, 34.7119107], [136.4005915, 34.7116619], [136.4014996, 34.7109458], [136.4022773, 34.7103499], [136.4024755, 34.7102453], [136.4041343, 34.7095107], [136.4050066, 34.7091283], [136.405771, 34.7088072], [136.4058953, 34.7087544], [136.4060232, 34.7087336], [136.4061639, 34.7087374], [136.406418, 34.7087479], [136.4066219, 34.7087486], [136.4076378, 34.7086527], [136.4081393, 34.7085962], [136.4082587, 34.7085619], [136.4083662, 34.7085296], [136.4086799, 34.7084006], [136.4089315, 34.7082808], [136.4091923, 34.7081719], [136.4092978, 34.7081347], [136.4093882, 34.7081284], [136.4094878, 34.7081243], [136.4095464, 34.7081363], [136.4096072, 34.7081565], [136.4096867, 34.7081895], [136.4098905, 34.7082723], [136.4102604, 34.7084261], [136.4106022, 34.7085724], [136.4111253, 34.7088405], [136.4112189, 34.7088879], [136.4113226, 34.7089341], [136.4114352, 34.7089803], [136.4115597, 34.7090112], [136.4119277, 34.7090906], [136.4122629, 34.709171], [136.4123711, 34.7092096], [136.4124747, 34.7092617], [136.4126271, 34.7093624], [136.4126841, 34.7094072], [136.4129963, 34.7096418], [136.4130487, 34.7096792], [136.4132071, 34.7097661], [136.4135329, 34.7099299], [136.4139347, 34.7101231], [136.4140777, 34.7101516], [136.4143547, 34.7101552], [136.4150549, 34.7101594], [136.4157241, 34.7101614], [136.4159933, 34.7101842], [136.4161233, 34.7102143], [136.4162123, 34.7102476], [136.416366, 34.710299], [136.4167895, 34.7104501], [136.4173586, 34.7106552], [136.4175792, 34.7107253], [136.417746, 34.7107902], [136.4181558, 34.7109467], [136.4182449, 34.7109732], [136.4183525, 34.7109942], [136.4185157, 34.7110186], [136.4186318, 34.7110277], [136.418743, 34.7110256], [136.4188829, 34.711006], [136.4190366, 34.7109656], [136.4191781, 34.7109119], [136.4193524, 34.7108461], [136.4196825, 34.7107081], [136.4198926, 34.7106376], [136.4200388, 34.7106037], [136.4207755, 34.7104919], [136.4216745, 34.7103552], [136.4219366, 34.7103097], [136.4219974, 34.7102888], [136.4221198, 34.7102467], [136.4223674, 34.7101283], [136.4223792, 34.7101224], [136.4231854, 34.7097176], [136.4237566, 34.7094307], [136.4238712, 34.7093697], [136.4245295, 34.7090337], [136.4250509, 34.7087068], [136.4251819, 34.7086522], [136.4252946, 34.7086205], [136.4258372, 34.7084456], [136.4261737, 34.7083308], [136.4262996, 34.7082704], [136.4264217, 34.7082195], [136.4265768, 34.7081839], [136.4267209, 34.7081604], [136.4268777, 34.7081614], [136.4271343, 34.7081526], [136.4279099, 34.7081206], [136.4280483, 34.7081184], [136.4284118, 34.7081067], [136.4285422, 34.7081252], [136.4286735, 34.7081614], [136.4291172, 34.7082849], [136.4291587, 34.7082964], [136.4295752, 34.708414], [136.4296539, 34.7084363], [136.4298516, 34.7084846], [136.4299798, 34.7084903], [136.4301058, 34.7084671], [136.4302036, 34.7084455], [136.4303147, 34.7084003], [136.4306204, 34.7082866], [136.4308727, 34.7081985], [136.4311204, 34.708112], [136.4313948, 34.7080167], [136.4319026, 34.7078425], [136.4319287, 34.7078331], [136.4320361, 34.7077945], [136.4325712, 34.707602], [136.4326794, 34.7075663], [136.4332648, 34.7073731], [136.4334147, 34.7073216], [136.4334377, 34.7073137], [136.4334593, 34.7073063], [136.4335205, 34.7072853], [136.4336932, 34.707226], [136.4343705, 34.7069851], [136.4348385, 34.7068353], [136.4351311, 34.7067744], [136.4352369, 34.7067589], [136.4355077, 34.7067452], [136.4358862, 34.7067221], [136.4361458, 34.7067117], [136.4362125, 34.706709], [136.4364103, 34.7067181], [136.4365965, 34.7067372], [136.4367511, 34.7067671], [136.4369347, 34.7068175], [136.4371394, 34.7068953], [136.4374515, 34.7070084], [136.4378007, 34.7071397], [136.4380934, 34.7072538], [136.4384275, 34.707383], [136.4390644, 34.707622], [136.4393763, 34.7077488], [136.4396622, 34.7078582], [136.4399087, 34.7079699], [136.4400342, 34.7080305], [136.4402208, 34.70814], [136.4404361, 34.7082731], [136.4407813, 34.7085097], [136.4409232, 34.7086156], [136.4412752, 34.7088746], [136.4416468, 34.7091175], [136.4423844, 34.7096082], [136.4428802, 34.709936], [136.4429925, 34.7100241], [136.443079, 34.7101007], [136.4432133, 34.7102296], [136.4433028, 34.7103272], [136.4434255, 34.7104647], [136.4437009, 34.7108435], [136.4447172, 34.7122537], [136.4449506, 34.7125619], [136.4451246, 34.7127299], [136.4453514, 34.7129032], [136.445441, 34.7129669], [136.4461098, 34.7133947], [136.4466439, 34.713748], [136.4473651, 34.714225], [136.447584, 34.7143787], [136.447697, 34.7144727], [136.4477369, 34.7145218], [136.4477761, 34.7145736], [136.4479098, 34.7148212], [136.4479666, 34.7149336], [136.447992, 34.714973], [136.4480657, 34.7150732], [136.4481397, 34.7151655], [136.4482977, 34.7153381], [136.4485036, 34.7155091], [136.4489705, 34.7158235], [136.4491791, 34.7159702], [136.4494658, 34.7161717], [136.4495681, 34.7162409], [136.4511247, 34.7172998], [136.4513176, 34.717429], [136.4514164, 34.7174858], [136.451493, 34.71753], [136.4515955, 34.7175874], [136.4517427, 34.7176575], [136.4519559, 34.7177471], [136.4521693, 34.7178167], [136.4524094, 34.7178797], [136.4526517, 34.7179265], [136.4528392, 34.7179548], [136.4533527, 34.7179904], [136.4547483, 34.7181072], [136.4553284, 34.7181542], [136.4554001, 34.7181607], [136.4575935, 34.7183313], [136.4587081, 34.7184168], [136.4598106, 34.7185038], [136.4603326, 34.7185489], [136.4604927, 34.7185688], [136.4606538, 34.71859], [136.461231, 34.7187192], [136.4614292, 34.7187761], [136.461576, 34.7188274], [136.4618265, 34.7189212], [136.4621748, 34.7190452], [136.4625347, 34.719182], [136.4636505, 34.7195943], [136.4638937, 34.7196842], [136.4643077, 34.7198351], [136.4644605, 34.7198832], [136.4662159, 34.7205206], [136.4664453, 34.7206051], [136.4665413, 34.7206474], [136.4668465, 34.7208], [136.4669725, 34.7208792], [136.467088, 34.7209782], [136.4671764, 34.7210629], [136.4672605, 34.7211517], [136.4673256, 34.7212315], [136.4674089, 34.7213582], [136.4674893, 34.7214944], [136.4678214, 34.7221182], [136.4679266, 34.7222992], [136.4680236, 34.7224551], [136.4685316, 34.7232786], [136.4687335, 34.7236268], [136.4690396, 34.7241103], [136.4693814, 34.7246386], [136.4695547, 34.7248933], [136.4698025, 34.7253051], [136.4698965, 34.7254532], [136.4700095, 34.7256099], [136.4701049, 34.7257341], [136.4701881, 34.7258308], [136.4703194, 34.7259559], [136.471229, 34.7256106], [136.4713916, 34.7255256], [136.4715574, 34.7254238], [136.4717505, 34.7252945], [136.4719378, 34.7251601], [136.4724335, 34.7247633], [136.4729104, 34.7243707], [136.473117, 34.7241893], [136.4735187, 34.7237995], [136.4736667, 34.7236371], [136.4738723, 34.7234044], [136.4739758, 34.7233075], [136.4741592, 34.7231935], [136.4742711, 34.7231377], [136.4744035, 34.723082], [136.4745318, 34.7230329], [136.4746669, 34.7229911], [136.4749577, 34.7229227], [136.4751621, 34.7228648], [136.4753439, 34.7228017], [136.4755357, 34.7227066], [136.4757811, 34.7226068], [136.4762088, 34.7224388], [136.4763934, 34.7223833], [136.4765304, 34.7223513], [136.4766584, 34.72233], [136.4767929, 34.7223141], [136.4769291, 34.7223038], [136.477071, 34.7223093], [136.4773472, 34.7223192], [136.4777555, 34.7223342], [136.478015, 34.7223381], [136.4781101, 34.7223384], [136.4791955, 34.7223583], [136.4796031, 34.7223608], [136.479989, 34.7223542], [136.4805431, 34.7223283], [136.481397, 34.7222867], [136.4817657, 34.7222744], [136.4819992, 34.7222706], [136.4823117, 34.722277], [136.48272, 34.722307], [136.4832213, 34.7223438], [136.4832675, 34.7223266], [136.4832846, 34.7223142], [136.4833047, 34.7222996], [136.4833568, 34.7222316], [136.4834718, 34.7222835], [136.4834834, 34.722288], [136.4836311, 34.7223456], [136.4837519, 34.7223797], [136.4838463, 34.7224011], [136.4841128, 34.722435], [136.4844942, 34.7224724], [136.4847059, 34.7225239], [136.4848944, 34.7225689], [136.4850475, 34.7225961], [136.4852158, 34.722612], [136.4856566, 34.7226032], [136.4857065, 34.7226011], [136.4858087, 34.7225881], [136.4859402, 34.7225673], [136.4860864, 34.7225364], [136.4862507, 34.7224928], [136.4863654, 34.7224578], [136.4864909, 34.7224044], [136.4868088, 34.7222702], [136.4874457, 34.7220208], [136.489741, 34.7210595], [136.4902045, 34.7208697], [136.490736, 34.7206525], [136.4917636, 34.72023], [136.4918488, 34.7201937], [136.4929732, 34.71972], [136.4930286, 34.7196967], [136.4931913, 34.7196316], [136.4937426, 34.7194074], [136.4938151, 34.7193779], [136.4941595, 34.7192319], [136.4950178, 34.7188681], [136.4956786, 34.7185974], [136.4968462, 34.7181121], [136.4969821, 34.7180635], [136.4971285, 34.7180112], [136.4972552, 34.717966], [136.4973264, 34.7179365], [136.4977856, 34.7177472], [136.4978294, 34.7177294], [136.497983, 34.7176672], [136.4981257, 34.7176093], [136.4982913, 34.7175422], [136.4985334, 34.7174418], [136.4985568, 34.7174321], [136.49868, 34.717381], [136.4987761, 34.7173412], [136.4989172, 34.7172827], [136.4993059, 34.7171215], [136.4993709, 34.7170931], [136.4999994, 34.7168189], [136.5001245, 34.716766], [136.5002743, 34.7167021], [136.500359, 34.7166657], [136.5004207, 34.7166404], [136.5005275, 34.7165984], [136.500966, 34.7164394], [136.5010695, 34.7164041], [136.5014598, 34.7162654], [136.5021472, 34.7160143], [136.5028082, 34.7157748], [136.5034147, 34.715552], [136.5039749, 34.7153554], [136.5040196, 34.7153389], [136.5047736, 34.7150639], [136.5052517, 34.7149013], [136.5057262, 34.7147333], [136.5060334, 34.7146225], [136.5066614, 34.7144082], [136.5067339, 34.7143834], [136.5068473, 34.7143434], [136.5068863, 34.7143317], [136.5069274, 34.7143221], [136.506964, 34.7143189], [136.5069944, 34.7143181], [136.507034, 34.7143186], [136.5070972, 34.7143272], [136.5081436, 34.7145276], [136.5087489, 34.7146438], [136.5090945, 34.7147135], [136.5092606, 34.7147322]], [[135.8218054, 34.7296594], [135.8219405, 34.7296412], [135.8220727, 34.7296234], [135.8223473, 34.7295691], [135.8225689, 34.7295164], [135.8228128, 34.7294538], [135.8230221, 34.7293893], [135.8232974, 34.7292926], [135.8235981, 34.7291657], [135.823881, 34.7290316], [135.824049, 34.7289432], [135.8242734, 34.7288114], [135.8244403, 34.7287077], [135.8246041, 34.7286007], [135.825047, 34.728318], [135.8251572, 34.7282476], [135.8257369, 34.7278871], [135.8261944, 34.7275919], [135.8263462, 34.7275023], [135.8265028, 34.7274186], [135.8266642, 34.7273411], [135.8268297, 34.72727], [135.8270218, 34.7271973], [135.8272183, 34.7271331], [135.8274187, 34.7270776], [135.8278667, 34.7269879], [135.8279443, 34.7270085], [135.8297569, 34.7269661], [135.8299175, 34.7269612], [135.8300163, 34.7269336], [135.8298972, 34.7268948], [135.8297334, 34.726899], [135.828706, 34.7269102], [135.8279282, 34.7269432], [135.8278667, 34.7269879]], [[135.830377, 34.7488173], [135.8304694, 34.748711], [135.8314298, 34.7476519], [135.8326281, 34.7463423], [135.8329631, 34.7459968], [135.8332078, 34.7457608], [135.8334384, 34.7455442], [135.8335998, 34.7453936], [135.8338599, 34.7451626], [135.8344434, 34.7446761], [135.8345565, 34.7445775], [135.8346286, 34.7445222], [135.8347499, 34.7444205], [135.8348728, 34.7443189], [135.8359201, 34.7434572], [135.8361984, 34.7431894], [135.8363674, 34.7429874], [135.8364741, 34.7428437], [135.8365701, 34.7426872], [135.8366311, 34.7425593], [135.8367261, 34.7422968], [135.836784, 34.742027], [135.8368146, 34.7418079], [135.8368072, 34.7416048], [135.8367987, 34.7413661], [135.836712, 34.740759], [135.8366787, 34.7405963], [135.8366576, 34.7404931], [135.836606, 34.7403888], [135.8365277, 34.7401302], [135.8364577, 34.7399981], [135.8363568, 34.7398054], [135.8361735, 34.739534], [135.8359674, 34.7392738], [135.8354239, 34.7386003], [135.8345027, 34.7374489], [135.8335219, 34.736227], [135.8331813, 34.7357892], [135.832958, 34.7354773], [135.8327525, 34.7351634], [135.8326963, 34.73508], [135.8326521, 34.7350164], [135.8325986, 34.7349261], [135.8324623, 34.7346946], [135.8323061, 34.7344079], [135.8321904, 34.7341353], [135.8320836, 34.7338613], [135.8319005, 34.7333006], [135.8318643, 34.7331761], [135.8317289, 34.7327363], [135.8315881, 34.7322629], [135.8312307, 34.7311547], [135.8311969, 34.7310435], [135.8311598, 34.7309257], [135.8310496, 34.7305775], [135.8306582, 34.7293562], [135.8303608, 34.7284024], [135.8299536, 34.7270945], [135.8299175, 34.7269612]], [[135.8366576, 34.7404931], [135.8366824, 34.7403747], [135.8366098, 34.7401501], [135.8365333, 34.7399578], [135.8364469, 34.7397886], [135.836302, 34.7395363], [135.8361274, 34.7393011], [135.8360265, 34.7391726], [135.8359228, 34.7390456], [135.835118, 34.7380344], [135.8345999, 34.7374007], [135.8343085, 34.7370326], [135.8336865, 34.7362648], [135.8334812, 34.7360024], [135.8332485, 34.7356937], [135.8328695, 34.7351224], [135.8327936, 34.7349981], [135.832723, 34.7348795], [135.8325095, 34.7345304], [135.8323994, 34.7343008], [135.8322799, 34.7340609], [135.8321361, 34.7336549], [135.8320103, 34.7332463], [135.8319384, 34.7330302], [135.8313427, 34.731132], [135.8313051, 34.7310186], [135.8312666, 34.7309017], [135.8309115, 34.7297853], [135.8307681, 34.7293338], [135.8306773, 34.729029], [135.8304504, 34.7283092], [135.8300583, 34.7270927], [135.8300163, 34.7269336]]]}, "id": "relation/8376126"}, {"type": "Feature", "properties": {"@id": "relation/9144401", "description": "清滝峠の旧道区間", "name": "国道163号旧道", "network": "JP:national", "ref": "163", "route": "road", "type": "route"}, "geometry": {"type": "MultiLineString", "coordinates": [[[135.6800045, 34.735308], [135.6800365, 34.735524], [135.6801136, 34.7356874], [135.6802237, 34.7357932], [135.6803675, 34.7358859], [135.6805362, 34.7359552], [135.6807229, 34.7360048], [135.6809159, 34.7360388], [135.6811, 34.7360481], [135.6812745, 34.7360397], [135.681449, 34.7360209], [135.6816, 34.7359813], [135.681787, 34.7359237], [135.6824493, 34.7356835], [135.6826532, 34.7356205], [135.6828477, 34.7355731], [135.6830615, 34.7355458], [135.6832777, 34.7355468], [135.6834955, 34.7355718], [135.683726, 34.7356277], [135.6839628, 34.7357149], [135.6853992, 34.7363707], [135.6856179, 34.7364563], [135.6858365, 34.7365223], [135.6860279, 34.7365611], [135.6862289, 34.7365805], [135.6864491, 34.7365921], [135.6866569, 34.7365864], [135.6868431, 34.7365689], [135.6870068, 34.7365307], [135.6871665, 34.7364712], [135.6879494, 34.7360859], [135.6881864, 34.7359709], [135.6887492, 34.7357156], [135.6889213, 34.7356498], [135.689115, 34.7355998], [135.689312, 34.7355663], [135.6895364, 34.7355448], [135.6896899, 34.7355321], [135.6899122, 34.735518], [135.6902632, 34.7354917], [135.6905691, 34.7354457], [135.6908407, 34.7353846], [135.6910925, 34.7353094], [135.6912856, 34.735231], [135.6914423, 34.7351581], [135.6915537, 34.7350835], [135.6916173, 34.7350377], [135.6916515, 34.7350131], [135.691728, 34.7349359]]]}, "id": "relation/9144401"}]}