{"type": "FeatureCollection", "generator": "kokudo-quiz tools/fetch_raw.py (Overpass API)", "copyright": "The data included in this document is from www.openstreetmap.org. The data is made available under ODbL.", "timestamp": "2026-09-30T14:46:34Z", "features": [{"type": "Feature", "properties": {"@id": "relation/8386008", "colour": "red", "from": "岡山県新見市", "name": "国道182号", "name:en": "National Highway Route 182", "name:ja": "国道182号", "name:ja-Hira": "こくどうひゃくはちじゅうにごう", "name:ja-Latn": "Kokudo 182 Gou", "network": "JP:national", "ref": "182", "route": "road", "to": "広島県福山市", "type": "route", "wikidata": "Q6156875", "wikipedia": "ja:国道182号"}, "geometry": {"type": "MultiLineString", "coordinates": [[[133.4162567, 35.0150253], [133.4165091, 35.0153092], [133.4166837, 35.0154679], [133.4168765, 35.0156248], [133.4185822, 35.0169591], [133.4204568, 35.0182248], [133.420625, 35.0183225], [133.42079, 35.0183982], [133.420975, 35.0184478], [133.4211764, 35.0184779], [133.4213212, 35.0184855], [133.421466, 35.0184782], [133.4224441, 35.0183831], [133.4227113, 35.0183747], [133.4229914, 35.0183832], [133.4236275, 35.0184251], [133.4238831, 35.0184271], [133.4241705, 35.0184026], [133.4244656, 35.0183621], [133.4255831, 35.0181368], [133.4257732, 35.01807], [133.4259282, 35.0179915], [133.4260424, 35.0179188], [133.426447, 35.0175668], [133.4266235, 35.0174425], [133.4273757, 35.0170124], [133.427487, 35.016926], [133.4275944, 35.01683], [133.4281816, 35.0162133], [133.4283172, 35.01609], [133.4284866, 35.0159731], [133.4290867, 35.0156545], [133.4295116, 35.0154615], [133.4303987, 35.0151822], [133.4305141, 35.0151411], [133.4307402, 35.0150437], [133.4309971, 35.014872], [133.4313014, 35.0145536], [133.4317758, 35.0138211], [133.4321274, 35.0133061], [133.4323689, 35.0130747], [133.4325006, 35.0129781], [133.4326447, 35.0129029], [133.4327472, 35.0128596], [133.4329891, 35.0127534], [133.4333426, 35.0126061], [133.4335769, 35.012529], [133.4336556, 35.0125095], [133.4337611, 35.0124953]], [[133.4162567, 35.0150253], [133.4117907, 35.0099986], [133.4116808, 35.0098622], [133.4115572, 35.0097341], [133.4113443, 35.0095759], [133.4111488, 35.0094594], [133.4109135, 35.0093594], [133.4107117, 35.0093098], [133.4099569, 35.0091478], [133.4089763, 35.0089328], [133.4084348, 35.008795], [133.408294, 35.0087445], [133.4082066, 35.008707], [133.4079816, 35.0086204], [133.4066125, 35.0080188], [133.4063843, 35.0078916], [133.4062016, 35.007751], [133.4060398, 35.0076019], [133.4056316, 35.0070968], [133.4051412, 35.0064855], [133.4049897, 35.0063062]], [[133.3655534, 34.9680353], [133.3659888, 34.9685445], [133.3661559, 34.9687284], [133.366291, 34.9689404], [133.3663752, 34.9690868], [133.366465, 34.9692727], [133.3665272, 34.969457], [133.3666018, 34.9697046], [133.3667254, 34.9702094], [133.3668298, 34.9706453], [133.366901, 34.9709108], [133.3669163, 34.9709585], [133.3669545, 34.9710776], [133.3669812, 34.9711609], [133.3670453, 34.9712703], [133.3672006, 34.9715359], [133.3673538, 34.9717023], [133.3675566, 34.9719421], [133.3683636, 34.9726774], [133.3688462, 34.973139], [133.3691439, 34.9734772], [133.3693869, 34.973806], [133.369896, 34.974561], [133.3703688, 34.9753078], [133.3703999, 34.975357], [133.3704114, 34.9753752], [133.3707103, 34.9759289], [133.3710512, 34.9765405], [133.3711537, 34.9767276], [133.3712447, 34.9769158], [133.3713763, 34.9771203], [133.3717118, 34.9774741], [133.3721273, 34.9778741], [133.372333, 34.9780741], [133.3726217, 34.9783723], [133.3728968, 34.9785857], [133.3731261, 34.9787411], [133.3733979, 34.9788956], [133.3738101, 34.9790673], [133.3741977, 34.9792142], [133.3746789, 34.9793879], [133.3751136, 34.9795525], [133.3754824, 34.9796661], [133.3758193, 34.9797933], [133.3761203, 34.9799164], [133.3763954, 34.9800406], [133.3785877, 34.9812232], [133.3792643, 34.9815999], [133.3795986, 34.9818252], [133.3800315, 34.9821283], [133.380514, 34.9824912], [133.3810207, 34.982851], [133.3812833, 34.9830444], [133.3815713, 34.9832734], [133.3818766, 34.983517], [133.3825552, 34.984066], [133.3839689, 34.9850588], [133.3842117, 34.9852176], [133.3847497, 34.9855804], [133.3851475, 34.9858772], [133.3852949, 34.9860177], [133.3854059, 34.9861494], [133.3857662, 34.9867215], [133.3859662, 34.9870342], [133.3861779, 34.987365], [133.386261, 34.9874906], [133.3863291, 34.9876066], [133.3865503, 34.9879857], [133.3867799, 34.9883531], [133.3871772, 34.9890011], [133.3874655, 34.9894342], [133.3876297, 34.9896483], [133.3877344, 34.9897319], [133.3879102, 34.9898638], [133.3881074, 34.9899724], [133.3882708, 34.9900421], [133.3884511, 34.9901005], [133.3886444, 34.990145], [133.3888611, 34.9901697], [133.3891116, 34.9901602], [133.3893407, 34.9901397], [133.389547, 34.9901096], [133.3898461, 34.9900592], [133.3900668, 34.9900282], [133.3902273, 34.9900138], [133.3904318, 34.9900221], [133.3907151, 34.9900487], [133.3909459, 34.9900928], [133.3928551, 34.9904372], [133.3931073, 34.9904905], [133.39339, 34.9905408], [133.3935734, 34.990614], [133.3937494, 34.9906918], [133.3938722, 34.9907584], [133.3939988, 34.9908381], [133.39409, 34.9909421], [133.394223, 34.9910941], [133.3943438, 34.9912849], [133.3944122, 34.9914301], [133.3944605, 34.9916174], [133.394514, 34.9918342], [133.394513, 34.9920537], [133.3944997, 34.9921547], [133.3944868, 34.9922519], [133.39438, 34.9928726], [133.3943601, 34.9930337], [133.3943671, 34.9931908], [133.3943808, 34.9933723], [133.3944156, 34.9935046], [133.3944497, 34.9936197], [133.3944966, 34.9937294], [133.3945534, 34.9938458], [133.3946268, 34.9939735], [133.394705, 34.9940882], [133.3963358, 34.996015], [133.3963981, 34.9960903], [133.3965231, 34.9962411], [133.396658, 34.996447], [133.3968023, 34.9966837], [133.3970362, 34.9971761], [133.3977762, 34.999153], [133.3979291, 34.9994184], [133.39817, 34.9997572], [133.3984918, 35.0001688], [133.3988611, 35.0006438], [133.3993096, 35.00125], [133.4001041, 35.0022818], [133.4005115, 35.002758], [133.4007843, 35.0030791], [133.4010409, 35.0033747], [133.4012365, 35.0035758], [133.4014182, 35.0037196], [133.4015895, 35.0038427], [133.4017723, 35.0039613], [133.4019671, 35.0040508], [133.4023469, 35.0042279], [133.4026382, 35.0043579], [133.402752, 35.0044294], [133.4028707, 35.004504], [133.4030666, 35.0046604], [133.4032733, 35.004821], [133.4042605, 35.0055898], [133.404666, 35.0059174], [133.4048302, 35.0060984], [133.4049897, 35.0063062]], [[133.3655534, 34.9680353], [133.36534, 34.9677892], [133.3650559, 34.967456], [133.3647391, 34.9671395], [133.3645067, 34.9668352], [133.364336, 34.966664], [133.3641262, 34.966513], [133.3639647, 34.9664273], [133.363829, 34.966371], [133.3636327, 34.9663139], [133.3634572, 34.9662946], [133.3632864, 34.9662932], [133.3631067, 34.9663139], [133.3628828, 34.9663608], [133.3627277, 34.9664175], [133.3625389, 34.9665304], [133.362224, 34.9667654], [133.3614847, 34.9673698], [133.3613205, 34.9674715], [133.3611243, 34.9675606], [133.3594442, 34.9680879], [133.3577828, 34.9685307], [133.3566748, 34.9687721], [133.356288, 34.9688238], [133.3559766, 34.9688366], [133.3557207, 34.968823], [133.3554305, 34.968781], [133.3550394, 34.9686693], [133.354827, 34.9685845], [133.3545102, 34.9684434], [133.3542809, 34.9683045], [133.3541232, 34.9682203], [133.3537719, 34.9680768], [133.3533159, 34.9679511], [133.3531117, 34.9679042], [133.3522912, 34.9676787], [133.3515912, 34.9674367], [133.350974, 34.967257], [133.349941, 34.966925], [133.3480472, 34.9662997], [133.3475733, 34.9661755], [133.3472201, 34.9661216], [133.3468789, 34.9660904], [133.3467503, 34.9660787], [133.3460028, 34.9659847], [133.345592, 34.9658933], [133.345137, 34.9657585], [133.3446589, 34.9655788], [133.3440592, 34.9653434], [133.343395, 34.965075], [133.343031, 34.964952], [133.342746, 34.964856], [133.3423334, 34.9646696], [133.341549, 34.964388], [133.340064, 34.96382], [133.3392278, 34.963494], [133.3390367, 34.9634248], [133.3388859, 34.96337], [133.338617, 34.9632602], [133.3383325, 34.9631671], [133.338235, 34.9631529], [133.3380502, 34.9631315], [133.3378468, 34.9631208], [133.3374072, 34.963099], [133.3372267, 34.9630776], [133.3369554, 34.9630058], [133.336754, 34.9629049], [133.3365579, 34.9627238], [133.3357205, 34.9617868], [133.3346821, 34.9607309], [133.333826, 34.959848], [133.3335743, 34.9595506], [133.3334749, 34.9594465], [133.3334492, 34.9594219], [133.3330725, 34.9590101], [133.3329598, 34.9588731], [133.3328863, 34.9586995], [133.3328534, 34.9585101], [133.3327989, 34.9580129], [133.332718, 34.9573674], [133.3327137, 34.9572668], [133.3325492, 34.9558146], [133.3325003, 34.9553637], [133.3325083, 34.9552237], [133.3325423, 34.9550267], [133.3328228, 34.9538505], [133.3328544, 34.9537181], [133.3329224, 34.9535151], [133.3329364, 34.9534431], [133.3330129, 34.9532321], [133.3330569, 34.9530033], [133.3331621, 34.9525621], [133.3331586, 34.9523154], [133.3331661, 34.9519687], [133.3332248, 34.951728], [133.333498, 34.9507716], [133.3337105, 34.9499986], [133.3338267, 34.9495275], [133.3338691, 34.9493965], [133.3339007, 34.9492653], [133.3339136, 34.9487858], [133.3338842, 34.9485686], [133.3338457, 34.9483707], [133.3338037, 34.9482366], [133.3337548, 34.9480959], [133.3336654, 34.9478778], [133.3335064, 34.9476153], [133.3333555, 34.9474137], [133.3331077, 34.9471462], [133.332845, 34.9468977], [133.3320975, 34.9462336], [133.331589, 34.945728], [133.3312035, 34.9452094], [133.3311185, 34.945046], [133.3310415, 34.9448431], [133.3310137, 34.944752], [133.3308784, 34.944309], [133.3304597, 34.9423665], [133.3302843, 34.9416214], [133.3301465, 34.9410152], [133.3301146, 34.940814], [133.3300836, 34.940575], [133.3300967, 34.9402619], [133.3301363, 34.9399763], [133.3301801, 34.9397884], [133.3302285, 34.9396374], [133.3308627, 34.9380217], [133.3310024, 34.9376926], [133.3315825, 34.9361418], [133.3316565, 34.9359441], [133.3316995, 34.9358336], [133.332182, 34.9345936], [133.3323553, 34.9341055], [133.3324902, 34.9336258], [133.3325633, 34.9332621], [133.3325797, 34.9331418], [133.332582, 34.9331248], [133.3325995, 34.9329591], [133.3326072, 34.9328864], [133.3326283, 34.9325635], [133.3326166, 34.9322352], [133.33257, 34.9318444], [133.3325196, 34.931525], [133.3324323, 34.9312118], [133.3323908, 34.9310867], [133.3323326, 34.930938], [133.3322996, 34.9308536], [133.332192, 34.9305823], [133.3321658, 34.9305163], [133.3321313, 34.9304456], [133.3320434, 34.9302655], [133.3319903, 34.9301737], [133.331939, 34.9300847], [133.3317837, 34.9298349], [133.3315001, 34.929404], [133.3310252, 34.928691], [133.330626, 34.928183], [133.3300371, 34.9272749], [133.3299026, 34.9270737], [133.3297388, 34.9268598], [133.3295606, 34.9266711], [133.3293203, 34.9264894], [133.3292523, 34.9264425], [133.3291903, 34.9264046], [133.3288416, 34.9261792], [133.3287473, 34.9261196], [133.3285599, 34.9259335], [133.3284237, 34.9257245], [133.3283, 34.9254811], [133.3281155, 34.924937], [133.3280182, 34.9247189], [133.3279307, 34.9245522], [133.3278245, 34.9243804], [133.327698, 34.9242326], [133.3275359, 34.9240711], [133.3254457, 34.9221993], [133.3252368, 34.9220122], [133.3251347, 34.9219296], [133.324062, 34.9210188], [133.3230411, 34.9201025], [133.3223139, 34.9194771], [133.3207751, 34.9181071], [133.3205375, 34.9179002], [133.3203032, 34.9176979], [133.3201361, 34.9175032], [133.3200359, 34.9173437], [133.3199439, 34.9171691], [133.3198604, 34.9169576], [133.3197907, 34.916781], [133.3196907, 34.9165278], [133.3195907, 34.9162627], [133.3195082, 34.9160959], [133.3194147, 34.9159358], [133.3192018, 34.9156568], [133.3189748, 34.9154143], [133.3181913, 34.9146631], [133.3178189, 34.9143074], [133.3173856, 34.9138675], [133.3168008, 34.9134345], [133.3163764, 34.9131878], [133.315141, 34.9125199], [133.3143436, 34.9120887], [133.3133564, 34.9115353], [133.313161, 34.9114416], [133.3129768, 34.9113674], [133.3128285, 34.9113283], [133.3124332, 34.9112721], [133.3121911, 34.9112548], [133.3120132, 34.9112639], [133.3118119, 34.9112789], [133.3109189, 34.9113835], [133.3104709, 34.9114212], [133.3103112, 34.9114282], [133.3101505, 34.9114277], [133.3099698, 34.9114128], [133.3096015, 34.911308], [133.3094079, 34.9112409], [133.30777, 34.9106375], [133.3070986, 34.9103682], [133.3064413, 34.9100682], [133.306401, 34.9100461], [133.3059975, 34.9098275], [133.3052825, 34.9093926], [133.3043042, 34.9086787], [133.3032619, 34.9078185], [133.303071, 34.9077078], [133.3028805, 34.9076154], [133.3026637, 34.9075334], [133.3018882, 34.9073188], [133.3013643, 34.9071836], [133.3011758, 34.9071446], [133.3009549, 34.9071176], [133.300606, 34.9071249], [133.3002624, 34.9071614], [133.299722, 34.907263], [133.2987146, 34.9073897], [133.2984686, 34.907408], [133.2977, 34.9074845], [133.2965322, 34.9075999], [133.2959089, 34.9076659], [133.295266, 34.9077575], [133.2949204, 34.9078253], [133.2942295, 34.9082058], [133.2933975, 34.9086278], [133.2925861, 34.9090392], [133.2923609, 34.9091221], [133.2921122, 34.9091763], [133.2919156, 34.9091969], [133.2916761, 34.9092027], [133.2913256, 34.9091265], [133.2908195, 34.9089386], [133.2903988, 34.9087897], [133.2894302, 34.9084816], [133.2892203, 34.9083932], [133.2891671, 34.9083536], [133.2890426, 34.9082609], [133.2882092, 34.9074831], [133.2868311, 34.9061129], [133.2866505, 34.9058601], [133.2865306, 34.9056192], [133.2864708, 34.9053916], [133.2864225, 34.9051738], [133.2863872, 34.9050541], [133.2863219, 34.9049197], [133.286256, 34.9048404], [133.2859076, 34.9046456], [133.2858257, 34.9045722], [133.2857225, 34.9044496], [133.2856299, 34.9042972], [133.285531, 34.9041354], [133.2852047, 34.9035151], [133.2849317, 34.9032873], [133.2841151, 34.9029918], [133.2838718, 34.9027871], [133.2838257, 34.9026633], [133.2836, 34.9023363], [133.2833984, 34.9022171], [133.2829407, 34.9021309], [133.2817561, 34.9020292], [133.2813129, 34.9019427], [133.2808904, 34.9018632], [133.2806624, 34.901784], [133.2804931, 34.901711], [133.2804464, 34.9016821], [133.2796855, 34.9009355], [133.2793974, 34.9005821], [133.2792345, 34.9003044], [133.2791338, 34.9001327], [133.2787863, 34.899527], [133.2786606, 34.899311], [133.2782216, 34.8985234], [133.2780021, 34.8980597], [133.2777979, 34.8976164], [133.2777348, 34.897477], [133.2776381, 34.8970327], [133.277653, 34.8966286], [133.277707, 34.895927], [133.2777522, 34.895339], [133.277737, 34.8948576], [133.2777187, 34.8946807], [133.2776273, 34.8943524], [133.2776048, 34.8942822], [133.27743, 34.893798], [133.277383, 34.893674], [133.2773512, 34.893595], [133.2769587, 34.892621], [133.2767739, 34.8921813], [133.2766458, 34.8918764], [133.2765383, 34.8915855], [133.2764656, 34.8912977], [133.2764398, 34.8910478], [133.2764394, 34.8906717], [133.2764231, 34.8904678], [133.276418, 34.8904036], [133.2763614, 34.8896957], [133.2763442, 34.8892719], [133.2762928, 34.8880008], [133.2762556, 34.8877154], [133.2761379, 34.8874696], [133.2760362, 34.887326], [133.275935, 34.8872245], [133.2758777, 34.8871769], [133.2756721, 34.8870588], [133.2754301, 34.8869549], [133.275319, 34.8869042], [133.2751493, 34.8868339], [133.2749496, 34.8867566], [133.2749723, 34.8867077], [133.2750133, 34.8866575], [133.2752549, 34.8864643], [133.2755043, 34.8862509], [133.2757491, 34.8860425], [133.2759667, 34.8858762], [133.276199, 34.8857213], [133.2763881, 34.8856097], [133.2765977, 34.8855163], [133.2768198, 34.8854365], [133.277026, 34.8853784], [133.2778153, 34.885203], [133.2780773, 34.885137], [133.278362, 34.8850493], [133.2787789, 34.8848932], [133.2793166, 34.8846713], [133.2819886, 34.8835686], [133.2821663, 34.8834866], [133.2822779, 34.8834091], [133.2824112, 34.8832872], [133.2824818, 34.8832041], [133.2825307, 34.8831153], [133.28259, 34.8830071], [133.2827073, 34.8827667], [133.2828212, 34.8825104], [133.2829214, 34.8823111], [133.2830456, 34.8820697], [133.2831059, 34.8819751], [133.2831948, 34.881851], [133.283352, 34.8816585], [133.2835627, 34.8814523], [133.2837267, 34.8813077], [133.2839124, 34.881171], [133.2840821, 34.8810821], [133.2842495, 34.8810263], [133.2844295, 34.8809796], [133.2845809, 34.8809455], [133.2847267, 34.8809295], [133.2848623, 34.8809295], [133.2849876, 34.8809363], [133.2853145, 34.8809671], [133.2854044, 34.8809728], [133.2854796, 34.8809682], [133.2855616, 34.88095], [133.2856266, 34.8809284], [133.2857188, 34.8808748], [133.2857894, 34.8808054], [133.2858521, 34.8807188], [133.2862405, 34.8801003], [133.2865366, 34.8796083], [133.2867143, 34.8793155], [133.2869113, 34.8790513], [133.287089, 34.8788599], [133.2872268, 34.8787107], [133.2873806, 34.8785547], [133.2875275, 34.8784192], [133.2877827, 34.8782187], [133.2881187, 34.8779738], [133.2884638, 34.8777266], [133.2887679, 34.8775307], [133.2889456, 34.8774385], [133.2891404, 34.8773485], [133.2893568, 34.8772745], [133.289572, 34.8772278], [133.2898192, 34.8771788], [133.2900003, 34.8771549], [133.2903318, 34.8771549], [133.2907156, 34.8771503], [133.2912031, 34.8771697], [133.2913785, 34.8771856], [133.2915516, 34.8771996], [133.291645, 34.8772175], [133.2917475, 34.8772517], [133.2918318, 34.877295], [133.2919138, 34.8773474], [133.2923717, 34.8776344], [133.2924856, 34.8776799], [133.2925927, 34.8777164], [133.2926861, 34.8777255], [133.2927909, 34.8777278], [133.2929184, 34.8777187], [133.2930141, 34.8776891], [133.2930893, 34.877664], [133.293185, 34.8776048], [133.2932533, 34.8775319], [133.2933444, 34.8774271], [133.2937079, 34.8769178], [133.2939435, 34.8765888], [133.2940028, 34.8764749], [133.2940688, 34.8763473], [133.2941075, 34.8762243], [133.2941463, 34.8760648], [133.2941645, 34.8758917], [133.2941599, 34.8757254], [133.2940529, 34.8746138], [133.294021, 34.8744042], [133.294021, 34.8742516], [133.2940324, 34.8741172], [133.2940483, 34.8739736], [133.2940973, 34.8738153], [133.2941508, 34.8736616], [133.2942214, 34.8735044], [133.2943718, 34.87328], [133.2947237, 34.8728141], [133.2950222, 34.8724098], [133.2952579, 34.8720578], [133.2955085, 34.8716729], [133.2956851, 34.8713403], [133.2959933, 34.8707225], [133.2968643, 34.8690593], [133.2970084, 34.8687341], [133.2973068, 34.8679887], [133.297766, 34.8668401], [133.2978298, 34.8666966], [133.2978776, 34.8665963], [133.2979391, 34.8665064], [133.2980291, 34.8664312], [133.2981886, 34.8663252], [133.2984039, 34.8662239], [133.2986112, 34.8661214], [133.298839, 34.8659938], [133.2990736, 34.8658366], [133.2993811, 34.8656168], [133.299683, 34.8653765], [133.2999757, 34.8651714], [133.3005725, 34.8647956], [133.3006671, 34.8647284], [133.3007753, 34.8646395], [133.3008709, 34.8645382], [133.3009393, 34.8644493], [133.3010042, 34.8643536], [133.3010498, 34.8642534], [133.3010816, 34.8641418], [133.3011033, 34.8640108], [133.3011101, 34.8638775], [133.3010965, 34.8637648], [133.3010657, 34.8636452], [133.3010115, 34.8635275], [133.3008721, 34.8633091], [133.3001682, 34.8623661], [133.3000326, 34.8621702], [133.2998891, 34.8619219], [133.2997786, 34.86171], [133.299716, 34.8615654], [133.2996385, 34.8613467], [133.2995858, 34.8611572], [133.2995285, 34.8608539], [133.2995007, 34.8606747], [133.2994836, 34.8605722], [133.2994791, 34.8604685], [133.2994984, 34.8602942], [133.2995167, 34.8602339], [133.2995474, 34.8601667], [133.2995987, 34.8600858], [133.2996636, 34.8600254], [133.2997593, 34.8599594], [133.2998595, 34.8599115], [133.299962, 34.8598853], [133.3001283, 34.8598637], [133.3003049, 34.8598557], [133.3009108, 34.8598876], [133.3011386, 34.8599013], [133.3013379, 34.8599047], [133.3015316, 34.8598796], [133.3016785, 34.8598364], [133.301863, 34.859768], [133.3020395, 34.8596985], [133.3021774, 34.8596291], [133.3023357, 34.8595368], [133.3024735, 34.8594035], [133.3025692, 34.8592965], [133.3026478, 34.8591803], [133.3026933, 34.8590687], [133.3027229, 34.8589457], [133.3027355, 34.8588147], [133.3027252, 34.8586848], [133.3026956, 34.8585459], [133.3026409, 34.8584058], [133.3019222, 34.856998], [133.3018083, 34.85681], [133.3017229, 34.8566973], [133.3016329, 34.8565879], [133.3015429, 34.8565059], [133.3013653, 34.8563522], [133.3005338, 34.8556836], [133.2997297, 34.8550138], [133.2995155, 34.8548521], [133.2992946, 34.8546562], [133.2991943, 34.8545582], [133.29911, 34.8544375], [133.2990463, 34.8543122], [133.2989939, 34.8541596], [133.2989734, 34.8540138], [133.2989893, 34.853827], [133.2990554, 34.853622], [133.2991351, 34.8534716], [133.2992391, 34.8533188], [133.2997724, 34.8527224], [133.3002009, 34.85224], [133.3003538, 34.8520661], [133.3004791, 34.8518656], [133.3006021, 34.8516492], [133.3017092, 34.8494524], [133.30195, 34.8489531], [133.3021338, 34.8485578], [133.3022289, 34.8482406], [133.3024792, 34.8472777], [133.3025065, 34.8471001], [133.3025248, 34.846936], [133.3025248, 34.8467584], [133.3025044, 34.8465915], [133.302324, 34.8459633], [133.3022476, 34.8457293], [133.3020692, 34.8453916], [133.3020008, 34.8452913], [133.3015361, 34.8446603], [133.3012096, 34.8442541], [133.3009892, 34.8440132], [133.3007138, 34.8437457], [133.3005065, 34.8435703], [133.3002969, 34.8434165], [133.2999632, 34.8431899], [133.2997194, 34.8430486], [133.2994791, 34.8429154], [133.2992376, 34.8427981], [133.2990622, 34.8427445], [133.2988765, 34.8427012], [133.2987011, 34.8426933], [133.2985326, 34.842699], [133.2983629, 34.8427274], [133.2982228, 34.8427719], [133.2980747, 34.8428277], [133.2979335, 34.8429017], [133.2978161, 34.8429849], [133.2974014, 34.843341], [133.2972045, 34.843494], [133.2970428, 34.8435749], [133.2969129, 34.8436284], [133.2967648, 34.8436683], [133.2965735, 34.843707], [133.296389, 34.8437241], [133.296127, 34.8437525], [133.2958707, 34.8437662], [133.2956475, 34.8437571], [133.2954493, 34.8437263], [133.2952727, 34.8436808], [133.2950267, 34.8435908], [133.294832, 34.8434849], [133.2944022, 34.8432007], [133.2940312, 34.842937], [133.2932977, 34.8424734], [133.2931736, 34.8423846], [133.2930563, 34.8422958], [133.2929503, 34.8421989], [133.292759, 34.8419928], [133.2925767, 34.8417707], [133.292407, 34.8415816], [133.2921872, 34.8413732], [133.2911906, 34.8404745], [133.290991, 34.8403224], [133.290776, 34.8401852], [133.2905983, 34.8400963], [133.2902293, 34.8399483], [133.2898363, 34.8397808], [133.2896882, 34.8396886], [133.2895629, 34.8395918], [133.2894661, 34.8394813], [133.2893909, 34.8393617], [133.2893363, 34.8392535], [133.2892998, 34.8391168], [133.2892884, 34.8389915], [133.2892964, 34.8388583], [133.2893249, 34.8387409], [133.2893784, 34.8386122], [133.2895926, 34.8382398], [133.2896803, 34.8380587], [133.2897292, 34.8378833], [133.2897361, 34.8377022], [133.2897178, 34.8375097], [133.2896677, 34.8372648], [133.28958, 34.836922], [133.2894832, 34.8364937], [133.2893831, 34.836115], [133.2892603, 34.8356611], [133.2892428, 34.8355997], [133.2891688, 34.835333], [133.2891313, 34.8351986], [133.2891192, 34.8351545], [133.288296, 34.8324026], [133.2882708, 34.8323082], [133.2882287, 34.832183], [133.2881369, 34.8319741], [133.287922, 34.8315915], [133.2877841, 34.8313239], [133.2875492, 34.8306233], [133.2873601, 34.8300583], [133.2872986, 34.8298647], [133.2871391, 34.8293544], [133.2868908, 34.8285731], [133.2867542, 34.8281904], [133.2865218, 34.8277279], [133.2862644, 34.8273156], [133.2858343, 34.8267421], [133.285652, 34.8264762], [133.2855244, 34.8262023], [133.2854, 34.8258636], [133.2853141, 34.825499], [133.2852721, 34.8252117], [133.2852721, 34.8249634], [133.2853205, 34.8247497], [133.285422, 34.8244164], [133.2854428, 34.8243339], [133.2854914, 34.8241211], [133.2855134, 34.8239082], [133.2854926, 34.8237357], [133.2854607, 34.8235966], [133.285443, 34.823537], [133.285325, 34.823356], [133.2851826, 34.8231634], [133.2850153, 34.822954], [133.2848638, 34.8227977], [133.2846499, 34.8226424], [133.2841574, 34.8222742], [133.2834327, 34.8218793], [133.2832266, 34.8217713], [133.2830315, 34.8216397], [133.2826899, 34.821365], [133.2824459, 34.8210102], [133.2822507, 34.8206382], [133.2817278, 34.8189613], [133.2815605, 34.8186809], [133.2812956, 34.8183089], [133.280975, 34.8179655], [133.2805915, 34.817645], [133.2800548, 34.8174619], [133.2793478, 34.8172601], [133.2789198, 34.8170721], [133.2787173, 34.8169529], [133.278641, 34.816879], [133.278525, 34.816738], [133.278395, 34.816524], [133.278327, 34.816361], [133.278178, 34.815883], [133.278155, 34.815804], [133.2779631, 34.8150704], [133.2779447, 34.8149933], [133.2774842, 34.8133682], [133.2774571, 34.8132948], [133.2772635, 34.8126787], [133.2771453, 34.8123333], [133.2769831, 34.811986], [133.2769171, 34.8118223], [133.276598, 34.8110926], [133.2762341, 34.8102978], [133.2761317, 34.8100651], [133.2760893, 34.8099973], [133.2759728, 34.8098111], [133.2759173, 34.8097516], [133.2758202, 34.8096722], [133.2756432, 34.8095493], [133.2752532, 34.8092908], [133.2750177, 34.8091059], [133.2748819, 34.8089266], [133.2748255, 34.8088176], [133.2747846, 34.8087034], [133.2747411, 34.8084622], [133.2747162, 34.8082797], [133.2747017, 34.8081728], [133.2746774, 34.8079948], [133.2746397, 34.8077297], [133.2746025, 34.8076121], [133.2745338, 34.8074136], [133.2744694, 34.8073166], [133.2743999, 34.8072314], [133.274332, 34.8071682], [133.2742628, 34.8071188], [133.274137, 34.8070421], [133.2735926, 34.8067842], [133.2734713, 34.8067099], [133.2732861, 34.8065705], [133.2729142, 34.8062246], [133.2724311, 34.8057869], [133.272331, 34.8056797], [133.2722561, 34.8055748], [133.2722089, 34.8054507], [133.2721879, 34.8053247], [133.2722058, 34.8051927], [133.2722685, 34.8049511], [133.2723201, 34.8047943], [133.2723285, 34.8047013], [133.2723205, 34.8046005], [133.2722872, 34.8044843], [133.2722447, 34.8043834], [133.2721413, 34.8042432], [133.2720556, 34.804153], [133.2719555, 34.8040502], [133.271861, 34.8039605], [133.2717145, 34.8038312], [133.2714435, 34.8036479], [133.2710544, 34.8034299], [133.270863, 34.803334], [133.2707005, 34.8032088], [133.2705091, 34.8030443], [133.2702742, 34.8028066], [133.2700251, 34.8026119], [133.2697291, 34.8024261], [133.2694622, 34.8022953], [133.2690887, 34.802213], [133.2687542, 34.8021501], [133.2685944, 34.80212], [133.268419, 34.8020503], [133.2682732, 34.8019419], [133.2681694, 34.8018429], [133.2680825, 34.8016805], [133.2680499, 34.8016058], [133.2678647, 34.8010129], [133.267849, 34.8008581], [133.2678595, 34.8007463], [133.2680114, 34.8004022], [133.2680637, 34.8002517], [133.2680952, 34.8000023], [133.2680795, 34.7998216], [133.2679957, 34.7995894], [133.2679223, 34.7993141], [133.2678966, 34.7991551], [133.26787, 34.7989916], [133.2678857, 34.7985615], [133.2679276, 34.7977787], [133.2680271, 34.7969787], [133.2680323, 34.7968755], [133.2680114, 34.7967422], [133.2679485, 34.7966519], [133.2678542, 34.7965873], [133.2677233, 34.7965529], [133.2675924, 34.7965529], [133.2674562, 34.7965873], [133.26732, 34.7966476], [133.2672414, 34.7967594], [133.2672153, 34.7968927], [133.2672483, 34.7971035], [133.2673305, 34.7974739], [133.2675029, 34.7979617], [133.2676322, 34.7981494], [133.2677783, 34.7982651], [133.2679138, 34.7983179], [133.268068, 34.7983565], [133.268237, 34.7983609], [133.2683993, 34.7983399], [133.2685226, 34.7982904], [133.2686474, 34.7982331], [133.2687305, 34.7981483], [133.268815, 34.7980509], [133.2688472, 34.798003], [133.268878, 34.7979149], [133.2688841, 34.7977199], [133.268864, 34.7976203], [133.2688444, 34.7975693], [133.2688304, 34.7975327], [133.2687634, 34.7974286], [133.2685977, 34.7971897], [133.2685273, 34.7970702], [133.268475, 34.7968973], [133.2684479, 34.79675], [133.2684465, 34.7963724], [133.2684197, 34.7960231], [133.2683808, 34.7958084], [133.2683178, 34.7955385], [133.2682823, 34.7953817], [133.2682387, 34.7951635], [133.2682212, 34.794967], [133.2682273, 34.7947439], [133.2682568, 34.7945011], [133.2682923, 34.7943249], [133.2685572, 34.7935237], [133.2686739, 34.793136], [133.2687597, 34.7927373], [133.2688403, 34.7922644], [133.2689415, 34.7917868], [133.2690132, 34.7913683], [133.269052, 34.7909443], [133.2690279, 34.7897328], [133.2689783, 34.7893947], [133.2688965, 34.7889365], [133.2686309, 34.7879067], [133.268588, 34.7877668], [133.2685169, 34.7874287], [133.268462, 34.7868791], [133.2684512, 34.7866301], [133.2684579, 34.7863438], [133.2684807, 34.78602], [133.2685022, 34.785749], [133.2685371, 34.7854758], [133.2686501, 34.785004], [133.2687855, 34.7845789], [133.2689645, 34.7842247], [133.2690563, 34.7840648], [133.2692142, 34.7838374], [133.2693825, 34.7836339], [133.2695378, 34.7834618], [133.2697715, 34.7832308], [133.2700163, 34.7829884], [133.2702777, 34.782723], [133.270438, 34.78255], [133.2705493, 34.7823997], [133.2706894, 34.7821973], [133.2708081, 34.7819968], [133.271077, 34.7815215], [133.2712433, 34.7811883], [133.2714552, 34.7808061], [133.2716973, 34.7803209], [133.271814, 34.779967], [133.271936, 34.7791993], [133.2719622, 34.7790098], [133.2720071, 34.7788137], [133.2720755, 34.7786144], [133.2721452, 34.7784315], [133.272278, 34.7781682], [133.2724389, 34.7779226], [133.2726146, 34.7776924], [133.2728412, 34.7774467], [133.2731798, 34.7771549], [133.2733643, 34.7770259], [133.2736432, 34.7768574], [133.2739363, 34.776707], [133.2742849, 34.7765826], [133.2746162, 34.7764812], [133.2755898, 34.7762532], [133.2759855, 34.7761441], [133.2762872, 34.7760483], [133.2767947, 34.7758629], [133.2773063, 34.7756394], [133.2774662, 34.7755608], [133.2776295, 34.7754796], [133.2777457, 34.7754204], [133.2785121, 34.774982], [133.2788728, 34.7747794], [133.2789171, 34.7747562], [133.2790445, 34.774688], [133.2793409, 34.7745182], [133.2805425, 34.7738352], [133.2808617, 34.7736469], [133.2811125, 34.7734342], [133.2812426, 34.7732877], [133.2813365, 34.7731434], [133.2814196, 34.7729738], [133.2814687, 34.7728236], [133.2815497, 34.7721773], [133.2816141, 34.77161], [133.2817127, 34.7710771], [133.2817911, 34.7709237], [133.2818635, 34.7708069], [133.2820006, 34.7706183], [133.2820901, 34.770506], [133.2821849, 34.7703775], [133.2822597, 34.7702712], [133.2823242, 34.7701472], [133.2823621, 34.7700445], [133.2823992, 34.7699297], [133.2824162, 34.7698126], [133.2824258, 34.7697014], [133.2824278, 34.7696309], [133.2824667, 34.7691495], [133.2824613, 34.7689275], [133.2824385, 34.7687038], [133.2823728, 34.7682566], [133.2823151, 34.7680164], [133.2822467, 34.7678258], [133.2821797, 34.7676495], [133.2820411, 34.7673771], [133.2816969, 34.7668839], [133.2813321, 34.7663088], [133.2808118, 34.7655982], [133.2807474, 34.7655143], [133.2806326, 34.7653025], [133.2805744, 34.7651647], [133.2805205, 34.7650116], [133.2803477, 34.7645207], [133.2802814, 34.7643466], [133.2800974, 34.7638282], [133.2800625, 34.7637048], [133.2800411, 34.7635947], [133.2800201, 34.7633136], [133.2800253, 34.7626743], [133.280023, 34.7625375], [133.2800283, 34.7622963], [133.2800565, 34.7621057], [133.280094, 34.7620269], [133.2801846, 34.7619079], [133.2806084, 34.761546], [133.2812139, 34.7610568], [133.2813621, 34.7609361], [133.2814767, 34.7608276], [133.2815672, 34.7607191], [133.2816155, 34.7606188], [133.2816263, 34.760507], [133.2816109, 34.760454], [133.2816061, 34.7604376], [133.2815719, 34.7603726], [133.2815082, 34.7602955], [133.2814365, 34.7602481], [133.2813473, 34.7602112], [133.2811636, 34.7601621], [133.281057, 34.7601148], [133.2809552, 34.7600543], [133.2808788, 34.7600009], [133.280756, 34.7598857], [133.280369, 34.7594217], [133.2801789, 34.7591661], [133.279848, 34.758597], [133.279728, 34.7584393], [133.2797083, 34.7584135], [133.2790217, 34.7577774], [133.2787078, 34.757545], [133.2784488, 34.7574195], [133.2778469, 34.7571681], [133.2776484, 34.7570679], [133.2775065, 34.7569839], [133.2773724, 34.7568869], [133.277241, 34.7567569], [133.2771626, 34.7566726], [133.2770807, 34.7565536], [133.2770016, 34.7564082], [133.2769581, 34.7563154], [133.2769131, 34.7561839], [133.2768474, 34.7558523], [133.2767596, 34.755341], [133.2767126, 34.7552055], [133.2766482, 34.7550678], [133.2765631, 34.7549339], [133.2764638, 34.7548083], [133.276376, 34.7547119], [133.2763054, 34.7546442], [133.2761949, 34.7545383], [133.2760873, 34.7544334], [133.2760276, 34.7543593], [133.2758892, 34.7541849], [133.2757242, 34.7539194], [133.2754665, 34.7534626], [133.2753505, 34.7532377], [133.2752905, 34.7530797], [133.2752414, 34.7529045], [133.2752346, 34.7527335], [133.2752481, 34.7525993], [133.2753229, 34.752296], [133.2757695, 34.7514002], [133.2758902, 34.7511291], [133.2759291, 34.7509616], [133.2759516, 34.7508282], [133.2759586, 34.7507864], [133.2759545, 34.7505837], [133.2759143, 34.7503467], [133.275844, 34.7501115], [133.2757977, 34.749911], [133.2757776, 34.7497628], [133.2757693, 34.7496924], [133.2757621, 34.7496317], [133.2757147, 34.7488219], [133.275685, 34.748684], [133.2755626, 34.7482733], [133.2754339, 34.747956], [133.2751013, 34.7472342], [133.2750342, 34.7470612], [133.2749792, 34.7469191], [133.2749551, 34.7467956], [133.2749404, 34.7466766], [133.2749457, 34.746573], [133.2749548, 34.7465305], [133.2749685, 34.7464662], [133.2750114, 34.7463604], [133.27516, 34.746119], [133.2754205, 34.7458116], [133.2754875, 34.7457157], [133.2755398, 34.7456066], [133.2756109, 34.7454083], [133.2756337, 34.7452121], [133.2756418, 34.7449531], [133.2756495, 34.7443948], [133.275672, 34.743883], [133.275713, 34.743658], [133.2759198, 34.7432432], [133.276251, 34.7426426], [133.2764092, 34.7423726], [133.276546, 34.7421721], [133.2767646, 34.7419054], [133.2768746, 34.7417698], [133.2769953, 34.74161], [133.2771053, 34.7414216], [133.277179, 34.741264], [133.2772233, 34.7411163], [133.2772448, 34.7409499], [133.2772434, 34.7407956], [133.2772193, 34.7401036], [133.277222, 34.7399041], [133.2772434, 34.7397906], [133.2772756, 34.7396738], [133.2773131, 34.7395911], [133.2773869, 34.7394743], [133.277454, 34.7393872], [133.2775371, 34.7392991], [133.2777155, 34.7391613], [133.2782707, 34.7387657], [133.2784249, 34.7386406], [133.2785054, 34.7385585], [133.2786462, 34.7383899], [133.278838, 34.7380978], [133.279239, 34.7375247], [133.2800061, 34.7364045], [133.2801422, 34.736216], [133.2803682, 34.7358754], [133.2807819, 34.7352891], [133.2809656, 34.735007], [133.2811454, 34.7347662], [133.2813566, 34.7344973], [133.2816153, 34.7342089], [133.2818209, 34.7339789], [133.2820911, 34.7336905], [133.2822161, 34.733563], [133.2823123, 34.7334715], [133.2824247, 34.733369], [133.28254, 34.7332897], [133.2826607, 34.7332059], [133.2828485, 34.7331018], [133.2831335, 34.732948], [133.283548, 34.732728], [133.283719, 34.732638], [133.2840072, 34.7325116], [133.2842647, 34.7324151], [133.2844665, 34.7323451], [133.2848239, 34.7322228], [133.2849218, 34.7321915], [133.2849962, 34.7321677], [133.2851693, 34.7321054], [133.2853315, 34.7320448], [133.2854609, 34.7319908], [133.2855729, 34.7319269], [133.2860115, 34.7316381], [133.2862103, 34.7315139], [133.286448, 34.7313989], [133.2866934, 34.7313207], [133.2869341, 34.7312788], [133.2871735, 34.7312617], [133.2875799, 34.7312314], [133.2878743, 34.7311873], [133.288077, 34.731122], [133.2884869, 34.7309235], [133.2891343, 34.7306056], [133.2894632, 34.7304375], [133.289769, 34.7302108], [133.2900801, 34.730001], [133.290192, 34.729888], [133.290451, 34.729646], [133.2913614, 34.7287989], [133.2914807, 34.7287146], [133.2916133, 34.7286707], [133.2918077, 34.7286481], [133.291927, 34.7286584], [133.2920872, 34.7287057], [133.2923319, 34.7288063], [133.2930811, 34.7291162], [133.2932112, 34.7291423], [133.2934048, 34.7291724], [133.2935499, 34.7291765], [133.2937068, 34.7291601], [133.2938836, 34.7291354], [133.2940705, 34.7290792], [133.2942174, 34.729001], [133.2943976, 34.7288899], [133.2945227, 34.7287871], [133.2946145, 34.7286691], [133.294728, 34.7284909], [133.2947947, 34.7283153], [133.2948548, 34.7279382], [133.2949098, 34.7277215], [133.2949833, 34.727583], [133.295085, 34.7274733], [133.2952169, 34.7273567], [133.2958342, 34.7268672], [133.2970256, 34.7259168], [133.2972442, 34.7257248], [133.2973677, 34.7255616], [133.2974378, 34.7254162], [133.2974945, 34.7252654], [133.2975195, 34.7250939], [133.2975028, 34.7249088], [133.2974678, 34.7247456], [133.297381, 34.7244535], [133.2972966, 34.7241623], [133.2969187, 34.7228589], [133.296841, 34.7226246], [133.2967794, 34.7223451], [133.2967882, 34.7221803], [133.2968275, 34.7220221], [133.2968989, 34.721883], [133.2970055, 34.7217729], [133.297317, 34.7215506], [133.2975111, 34.7213713], [133.2976186, 34.7211709], [133.2976491, 34.7208861], [133.297232, 34.7195873], [133.2972548, 34.7193533], [133.2972865, 34.7192274], [133.2973473, 34.7191299], [133.2974214, 34.719011], [133.2974968, 34.7189378], [133.2976115, 34.7188469], [133.2977952, 34.7187579], [133.2979925, 34.7186999], [133.2981578, 34.7186775], [133.2986944, 34.7186775], [133.2988692, 34.7186557], [133.2990377, 34.7186142], [133.2991588, 34.7185648], [133.2993377, 34.718456], [133.3000162, 34.718003], [133.3002079, 34.7178646], [133.3003603, 34.7177242], [133.3005023, 34.7175422], [133.3005617, 34.7174143], [133.300605, 34.7172824], [133.3008344, 34.7163304], [133.3008602, 34.7161066], [133.3008647, 34.7158638], [133.3008405, 34.7156097], [133.3007677, 34.7153992], [133.3006708, 34.7151875], [133.3005799, 34.7150081], [133.300448, 34.7148226], [133.3000071, 34.7143742], [133.2996965, 34.714079], [133.2995147, 34.713825], [133.2994042, 34.7135774], [133.2993558, 34.7133715], [133.2993161, 34.7131197], [133.2993536, 34.712711], [133.2993943, 34.7123508], [133.2994243, 34.7121888], [133.2994833, 34.7119712], [133.2995775, 34.7117511], [133.2997265, 34.7115106], [133.2998497, 34.7113451], [133.3, 34.711155], [133.3001942, 34.710939], [133.3006688, 34.7106001], [133.3008607, 34.7104722], [133.3009923, 34.7103447], [133.3010485, 34.7102456], [133.3010759, 34.7101789], [133.3011039, 34.7099732], [133.3010462, 34.7097708], [133.3009945, 34.7095896], [133.3009414, 34.7094624], [133.3008389, 34.7092533], [133.3005681, 34.7087181], [133.2988442, 34.706247], [133.2981117, 34.7055299], [133.2978176, 34.7052542], [133.2964657, 34.7042721], [133.2961089, 34.7039724], [133.2960686, 34.7039262], [133.2956767, 34.703538], [133.2953347, 34.7031361], [133.2948385, 34.7027094], [133.2943272, 34.7023217], [133.294129, 34.7021437], [133.2939324, 34.7019538], [133.2938142, 34.7017631], [133.2934888, 34.7012579], [133.2930339, 34.7004907], [133.2929057, 34.7002745], [133.2927448, 34.7000539], [133.2926053, 34.6998951], [133.292437, 34.6997489], [133.2910685, 34.6988131], [133.2904763, 34.6984085], [133.2903828, 34.6983469], [133.2902072, 34.6982254], [133.2901077, 34.6981566], [133.2899835, 34.6980516], [133.2898749, 34.6979461], [133.289772, 34.697809], [133.2897113, 34.6977012], [133.2896331, 34.69749], [133.2895676, 34.6971867], [133.2895593, 34.6970393], [133.2895621, 34.6964193], [133.289618, 34.6961649], [133.2900764, 34.6955053], [133.290116, 34.6954262], [133.290155, 34.6953484], [133.2902437, 34.6950415], [133.2902515, 34.6945913], [133.2902454, 34.6943403], [133.2904848, 34.6935732], [133.2904948, 34.6935087], [133.2910756, 34.6915686], [133.2911195, 34.6914473], [133.291205, 34.6912675], [133.2913636, 34.691045], [133.291651, 34.6906685], [133.2917729, 34.690494], [133.29181, 34.6904286], [133.2919223, 34.6901694], [133.2922016, 34.689266], [133.2925414, 34.6882423], [133.2925885, 34.6880739], [133.2926087, 34.6878879], [133.2926122, 34.6877304], [133.292561, 34.6873737], [133.2924949, 34.6871305], [133.2924325, 34.6869005], [133.2923663, 34.6866596], [133.2923372, 34.6864274], [133.2923509, 34.686244], [133.2923956, 34.6860532], [133.2924648, 34.6858736], [133.292545, 34.685708], [133.2926636, 34.6855156], [133.2927994, 34.6853417], [133.2929392, 34.6852236], [133.2932131, 34.6850089], [133.2934199, 34.6848757], [133.2938131, 34.684593], [133.2951252, 34.6835352], [133.2953087, 34.6833729], [133.2954748, 34.6831945], [133.2955864, 34.6830226], [133.2956993, 34.6827494], [133.2957828, 34.6823813], [133.2958688, 34.6820778], [133.2959413, 34.6819198], [133.2960008, 34.6818211], [133.2961594, 34.6816168], [133.2975147, 34.6803088], [133.2976446, 34.6801889], [133.2980618, 34.6797572], [133.2981737, 34.6796144], [133.298289, 34.6794301], [133.2984563, 34.6790477], [133.2985207, 34.6789241], [133.2985902, 34.678822], [133.2986901, 34.6787157], [133.2989394, 34.67854], [133.2992427, 34.6783644], [133.2995297, 34.6781837], [133.299701, 34.6780147], [133.2997905, 34.6778847], [133.2998454, 34.6777549], [133.2998847, 34.6775983], [133.299897, 34.6773333], [133.2998779, 34.6763654], [133.2998574, 34.6761634], [133.2996912, 34.675588], [133.2992263, 34.6741079], [133.2991904, 34.6738982], [133.2991616, 34.6736828], [133.2991606, 34.6734761], [133.2992529, 34.6729313], [133.299289, 34.6726343], [133.2992857, 34.672408], [133.2992399, 34.6721642], [133.2990014, 34.6713236], [133.2989503, 34.6711643], [133.2989268, 34.6709963], [133.2989112, 34.6708243], [133.2989159, 34.6706398], [133.2989619, 34.6704151], [133.2990401, 34.6701862], [133.2991287, 34.6700083], [133.3000389, 34.6686219], [133.300283, 34.6682913], [133.3004133, 34.6681566], [133.3005777, 34.6680297], [133.3010869, 34.6676725], [133.301269, 34.6675297], [133.3014007, 34.6673943], [133.3015341, 34.6672379], [133.3020333, 34.6664616], [133.3021133, 34.6662933], [133.3021969, 34.6659722], [133.3022089, 34.6656145], [133.3022064, 34.6651751], [133.3022404, 34.6649723], [133.3022935, 34.6647763], [133.3023805, 34.6645999], [133.3024873, 34.6644266], [133.3027728, 34.6641147], [133.3030195, 34.6639482], [133.3033157, 34.6638009], [133.3035998, 34.6637187], [133.3039653, 34.6636352], [133.3042465, 34.6635468], [133.3044565, 34.6634294], [133.3046134, 34.6633112], [133.30489, 34.6630585], [133.3053113, 34.6627019], [133.3054537, 34.6626181], [133.3057034, 34.662509], [133.3059144, 34.6624588], [133.306337, 34.6623538], [133.3065399, 34.6622665], [133.3066501, 34.6621594], [133.3067123, 34.6620871], [133.3067496, 34.6619923], [133.3067728, 34.6618167], [133.3067471, 34.6616654], [133.306484, 34.6610649], [133.3064203, 34.6608667], [133.3064009, 34.6607166], [133.3063981, 34.660558], [133.3064781, 34.6602732], [133.3066795, 34.659613], [133.3067472, 34.6593554], [133.3067851, 34.6591403], [133.306793, 34.6589512], [133.3067482, 34.6586397], [133.3066167, 34.6579562], [133.3066236, 34.6576809], [133.3069025, 34.6563391], [133.3068816, 34.656104], [133.306784, 34.6558173], [133.3066306, 34.6555478], [133.3064006, 34.6553127], [133.3059962, 34.6550145], [133.305637, 34.6547056], [133.305527, 34.6545985], [133.3054292, 34.6544947], [133.3053502, 34.654387], [133.3052273, 34.6541727], [133.3050314, 34.6535171], [133.3045021, 34.6516467], [133.3044601, 34.6514503], [133.3044732, 34.6513133], [133.3045019, 34.6512061], [133.3045626, 34.6510842], [133.3046591, 34.6509536], [133.3051495, 34.6503784], [133.305327, 34.6501171], [133.3054012, 34.6499679], [133.3054455, 34.6497845], [133.3054769, 34.6495974], [133.3054828, 34.6493541], [133.3051318, 34.6485573], [133.3050358, 34.648237], [133.3049646, 34.6480536], [133.3049191, 34.6478589], [133.3049186, 34.6476712], [133.3049344, 34.6474811], [133.3051837, 34.6467349], [133.3052433, 34.6465099], [133.3052546, 34.6463787], [133.305255, 34.646241], [133.3051811, 34.6460072], [133.3050853, 34.6458443], [133.3048898, 34.6455442], [133.3045916, 34.6450795], [133.3044684, 34.6448626], [133.3043976, 34.6446351], [133.3043803, 34.6443316], [133.3043943, 34.6442056], [133.3044259, 34.6440782], [133.3044745, 34.643924], [133.3045532, 34.643771], [133.3049258, 34.6433072], [133.3051536, 34.6430236], [133.3054982, 34.642363], [133.3056022, 34.6421948], [133.3057049, 34.6420916], [133.3058225, 34.6419941], [133.3061712, 34.6417554], [133.3063105, 34.6416542], [133.306401, 34.6415409], [133.3065309, 34.6413192], [133.3066869, 34.6409837], [133.3068701, 34.6407106], [133.307107, 34.6404582], [133.307591, 34.6399786], [133.3079089, 34.6396206], [133.3082929, 34.6391278], [133.308343, 34.6390572], [133.3083892, 34.6389969], [133.3085118, 34.6388369], [133.3086299, 34.6386825], [133.3087099, 34.6384743], [133.3087773, 34.6382142], [133.3088216, 34.6378879], [133.3088913, 34.637612], [133.3089947, 34.6373708], [133.309136, 34.6371818], [133.3093417, 34.6369953], [133.3096082, 34.6368226], [133.310182, 34.6365259], [133.3105488, 34.6362951], [133.3107765, 34.6360175], [133.3109304, 34.6357815], [133.3110708, 34.6353447], [133.3111757, 34.6348527], [133.3115156, 34.6332487], [133.3119237, 34.631652], [133.3120333, 34.6312841], [133.3122105, 34.6308815], [133.3124045, 34.6305692], [133.312609, 34.6303513], [133.3129274, 34.6300928], [133.3131847, 34.6299228], [133.3140609, 34.6294973], [133.3159729, 34.6286886], [133.3163771, 34.6285046], [133.3173627, 34.6280771], [133.3176314, 34.6279415], [133.3177796, 34.6278293], [133.3178568, 34.6277454], [133.318056, 34.6275083], [133.3181235, 34.6272654], [133.318139, 34.6269972], [133.3180417, 34.6264307], [133.3179266, 34.6258684], [133.3178367, 34.6256342], [133.3176448, 34.6253018], [133.3174555, 34.6250738], [133.3172209, 34.6248499], [133.3170784, 34.62474], [133.3169249, 34.6246458], [133.3159749, 34.6240539], [133.3157585, 34.6239164], [133.3155745, 34.623731], [133.315513, 34.623617], [133.3154699, 34.6234947], [133.3154457, 34.6233101], [133.3154499, 34.6230888], [133.3154074, 34.6215389], [133.3154411, 34.6213237], [133.315517, 34.6211154], [133.3156267, 34.6209211], [133.3165714, 34.6194981], [133.3167148, 34.6191649], [133.3167654, 34.618908], [133.3167342, 34.6185359], [133.3166219, 34.6175526], [133.3165907, 34.6173355], [133.3165369, 34.6171882], [133.3164323, 34.6170223], [133.3163762, 34.6169626], [133.3162253, 34.6168019], [133.3159866, 34.6165888], [133.315876, 34.6164391], [133.315801, 34.616286], [133.3155378, 34.6154389], [133.3154664, 34.6151664], [133.3154664, 34.614972], [133.3154917, 34.6146804], [133.3155864, 34.6143707], [133.3156597, 34.6141978], [133.315758, 34.6140113], [133.3159005, 34.6138071], [133.3166217, 34.6129615], [133.3167084, 34.61287], [133.3168465, 34.6127242], [133.3176065, 34.6118728], [133.3178609, 34.6115794], [133.3180113, 34.6114044], [133.3181319, 34.6111955], [133.3181657, 34.611008], [133.3181657, 34.6108692], [133.3181323, 34.6106937], [133.3180829, 34.6105002], [133.3179408, 34.6100925], [133.3179149, 34.6099483], [133.3179247, 34.6098172], [133.317988, 34.60965], [133.3180729, 34.6094876], [133.3182128, 34.6092948], [133.3184277, 34.6091275], [133.3186552, 34.6089871], [133.3192048, 34.608654], [133.3193889, 34.6085379], [133.3195025, 34.6084616], [133.3195992, 34.6083625], [133.3197225, 34.6082211], [133.3202191, 34.6072259], [133.320339, 34.6070744], [133.3205732, 34.6068469], [133.3213094, 34.6063659], [133.3214737, 34.606291], [133.3216522, 34.6062399], [133.3218534, 34.606233], [133.322029, 34.6062642], [133.3225135, 34.6064078], [133.3226769, 34.6064262], [133.3228394, 34.6064257], [133.3229926, 34.6063741], [133.3231113, 34.6062925], [133.3231948, 34.6061683], [133.3232275, 34.6060832], [133.3232399, 34.6059886], [133.3232183, 34.6058289], [133.323131, 34.6056719], [133.3226109, 34.6049101], [133.3224254, 34.6046417], [133.3223242, 34.6044681], [133.3222736, 34.6042945], [133.3223073, 34.6041765], [133.3223917, 34.6040029], [133.3225435, 34.6037391], [133.3226278, 34.603503], [133.3230775, 34.6014783], [133.3231176, 34.6013518], [133.3231897, 34.6012246], [133.3233142, 34.6010259], [133.3234861, 34.6008138], [133.3236232, 34.6006008], [133.3236738, 34.6004481], [133.3236975, 34.6003669], [133.3237053, 34.6002607], [133.3236822, 34.5999134], [133.32369, 34.5998093], [133.3237666, 34.5996774], [133.3238802, 34.5995858], [133.3240281, 34.5995524], [133.3241565, 34.5995573], [133.3243026, 34.5995895], [133.3247411, 34.5997994], [133.3248716, 34.5998232], [133.3249538, 34.5998235], [133.325065, 34.5997932], [133.3251687, 34.5997285], [133.3252113, 34.5996357], [133.3252231, 34.5995497], [133.3252065, 34.5994517], [133.3251236, 34.5993105], [133.3250515, 34.5992278], [133.324931, 34.5990854], [133.3248259, 34.5989375], [133.3246433, 34.5986583], [133.3246038, 34.5985898], [133.3244816, 34.5983777], [133.3242811, 34.5980665], [133.3242136, 34.5979276], [133.324174, 34.5977517], [133.3241968, 34.597636], [133.3242793, 34.5975494], [133.3244161, 34.5974922], [133.3245605, 34.597495], [133.3246702, 34.5975353], [133.3247737, 34.5976081], [133.3248487, 34.5977192], [133.3250537, 34.5985502], [133.3251094, 34.598668], [133.3252447, 34.598783], [133.3253919, 34.598829], [133.3255372, 34.5988237], [133.3256473, 34.5987759], [133.3257741, 34.5986845], [133.3258079, 34.5985317], [133.3257895, 34.5980709], [133.32574, 34.5976114], [133.3257391, 34.5973768], [133.3257975, 34.5970797], [133.3259091, 34.5968722], [133.326019, 34.5967091], [133.3261535, 34.5965536], [133.3264493, 34.5962646], [133.3270613, 34.5956889], [133.3272319, 34.5955531], [133.3274612, 34.5954349], [133.327672, 34.5953655], [133.327883, 34.5953142], [133.3281872, 34.595296], [133.3285649, 34.595275], [133.3287089, 34.5952437], [133.3288426, 34.5951977], [133.3289363, 34.5951568], [133.3290447, 34.5950871], [133.3290947, 34.5950394], [133.3292258, 34.5948703], [133.3293252, 34.5946415], [133.3295413, 34.5939854], [133.3296092, 34.5938025], [133.3300024, 34.5925969], [133.3300788, 34.5923977], [133.3302103, 34.5921398], [133.3303835, 34.5918063], [133.330731, 34.5910959], [133.3308687, 34.5907396], [133.3310292, 34.5903242], [133.3311389, 34.5901159], [133.331257, 34.5899328], [133.3314134, 34.5897725], [133.3318274, 34.5894602], [133.3322861, 34.5891507], [133.3324801, 34.588984], [133.3325982, 34.5888313], [133.3333882, 34.5876197], [133.33354, 34.5874616], [133.3337884, 34.5872495], [133.3339873, 34.5871058], [133.334067, 34.5870475], [133.334214, 34.58694], [133.3344386, 34.5868218], [133.3346479, 34.586748], [133.3349853, 34.5867063], [133.3353055, 34.5866861], [133.3357321, 34.5866591], [133.335958, 34.5866442], [133.3367461, 34.5865104], [133.3372238, 34.5864189], [133.3378642, 34.5863018], [133.338354, 34.5862123], [133.3386707, 34.5861539], [133.3389255, 34.5860859], [133.3391837, 34.5859767], [133.3393865, 34.5858313], [133.3396546, 34.5855454], [133.3398041, 34.5853885], [133.3400958, 34.5851021], [133.3402472, 34.5849294], [133.3406115, 34.5843452], [133.3425224, 34.5811381], [133.3426575, 34.5808947], [133.3427173, 34.5807869], [133.3428198, 34.5805006], [133.3431432, 34.57947], [133.3433309, 34.5788213], [133.3433782, 34.5784977], [133.3433723, 34.5781141], [133.3433714, 34.5780454], [133.3431317, 34.5767744], [133.3431194, 34.5766426], [133.3431516, 34.5765011], [133.3432327, 34.5762321], [133.3433244, 34.5759701], [133.3434343, 34.5757409], [133.3435168, 34.5756356], [133.3444983, 34.5743496], [133.344649, 34.5741494], [133.3448112, 34.5739319], [133.3449626, 34.5736834], [133.3450014, 34.573507], [133.3450709, 34.5731191], [133.3451393, 34.5728316], [133.3451918, 34.5725548], [133.3452443, 34.5722779], [133.345289, 34.5720421], [133.3453722, 34.5716245], [133.3454178, 34.5713952], [133.3455836, 34.5704379], [133.3457469, 34.569495], [133.3458412, 34.5690101], [133.3460613, 34.5678223], [133.3461292, 34.567456], [133.3462238, 34.5668941], [133.3464785, 34.5654884], [133.3465214, 34.5651835], [133.3466537, 34.5645329], [133.3468814, 34.5636732], [133.3473099, 34.5620644], [133.3474394, 34.5616146], [133.3475022, 34.5613474], [133.3475662, 34.5611106], [133.3476536, 34.5608546], [133.347766, 34.5606192], [133.3479204, 34.560376], [133.3480827, 34.5601703], [133.348298, 34.5599558], [133.3485302, 34.5597569], [133.3488004, 34.5595773], [133.3491231, 34.5593983], [133.3497239, 34.5591385], [133.3500406, 34.5589985], [133.3506804, 34.5587175], [133.3510457, 34.5585458], [133.351375, 34.5583522], [133.3515357, 34.5582271], [133.3516678, 34.5580866], [133.352267, 34.5573856], [133.3529189, 34.556624], [133.3535801, 34.5558517], [133.3540645, 34.5552858], [133.3543122, 34.5549957], [133.3557782, 34.5532741], [133.3562806, 34.5526837], [133.3571981, 34.5515884], [133.3575331, 34.5512156], [133.3582426, 34.5503513], [133.3590689, 34.5494055], [133.3591688, 34.5492971], [133.3612368, 34.5468734], [133.3613129, 34.5467897], [133.3614433, 34.5466593], [133.3621273, 34.5458294], [133.3633662, 34.5443793], [133.3634894, 34.5442351], [133.3635037, 34.5442184], [133.3635189, 34.5442006], [133.3636168, 34.5440855], [133.3651448, 34.5422965], [133.3661584, 34.5410956], [133.3662123, 34.5410332], [133.3666238, 34.540541], [133.3666731, 34.5404855], [133.3678619, 34.539095], [133.368005, 34.5389267], [133.3682955, 34.5385893], [133.3686907, 34.5379886], [133.3688762, 34.5376507], [133.3691159, 34.5370145], [133.3692332, 34.5365837], [133.3693379, 34.5360849], [133.3695492, 34.5350635], [133.3697465, 34.5341097], [133.3699539, 34.5331009], [133.3701225, 34.5324395], [133.3703419, 34.5319061], [133.3706895, 34.5312796], [133.370815, 34.531113], [133.3708466, 34.5310771], [133.3710491, 34.5308163], [133.3715085, 34.5302969], [133.372541, 34.5291666], [133.3727475, 34.5289328], [133.3728385, 34.528846], [133.3732543, 34.5283871], [133.3740594, 34.5274724], [133.3752578, 34.5261502], [133.3758842, 34.5254588], [133.3765896, 34.5246707], [133.3777512, 34.523425], [133.3780399, 34.5231645], [133.3783698, 34.5229832], [133.3789903, 34.5227898], [133.3811011, 34.5222563], [133.3820654, 34.5220478], [133.3822485, 34.5220082], [133.3829234, 34.5218407], [133.3832456, 34.5217766], [133.3835237, 34.5217053], [133.3838043, 34.5216236], [133.3840375, 34.5215201], [133.38405, 34.5215137], [133.3842274, 34.5214226], [133.384613, 34.521153], [133.385201, 34.5206446], [133.3859458, 34.5200154], [133.386036, 34.5199404], [133.386687, 34.519399], [133.3873643, 34.5188395], [133.3876632, 34.5185911], [133.3878451, 34.51844], [133.3880367, 34.5182645], [133.388183, 34.5180736], [133.3883546, 34.5177799], [133.3886141, 34.517213], [133.388914, 34.516367], [133.3890898, 34.5159018], [133.3893147, 34.5153546], [133.38956, 34.5147571], [133.3902012, 34.5131321], [133.390393, 34.5126502], [133.3905539, 34.5123386], [133.3907668, 34.5119958], [133.3909804, 34.5117153], [133.3912467, 34.511388], [133.3916971, 34.510884], [133.3919731, 34.510626], [133.3922965, 34.5103445], [133.3930268, 34.5098467], [133.393936, 34.5092401], [133.3949246, 34.508547], [133.3955343, 34.5081189], [133.3959426, 34.5078639], [133.3961147, 34.5077655], [133.3965625, 34.5074309], [133.3968523, 34.5071685], [133.397077, 34.5069379], [133.3972267, 34.5067765], [133.3974316, 34.5065023], [133.3975223, 34.5063765], [133.3975857, 34.506258], [133.397828, 34.5058316], [133.3979317, 34.5055622], [133.3979917, 34.5053586], [133.398048, 34.5051398], [133.3981233, 34.5047049], [133.3984629, 34.5024585], [133.3988179, 34.5002194], [133.3990082, 34.4990191], [133.3991776, 34.4978683], [133.399457, 34.4960718], [133.3994878, 34.4958811], [133.399601, 34.49506], [133.3997468, 34.4941454], [133.3998978, 34.4932183], [133.4000718, 34.4922027], [133.4002316, 34.4912265], [133.400406, 34.4900432], [133.4004259, 34.4899102], [133.4004396, 34.4898185], [133.4003227, 34.4897919]], [[133.3725437, 34.5290421], [133.3726883, 34.5288949], [133.3727752, 34.5288101], [133.3751919, 34.5261057], [133.3758124, 34.5254163], [133.3765228, 34.5246276], [133.3768431, 34.5242249], [133.3775044, 34.5235106], [133.3776574, 34.5233453], [133.3779461, 34.5230847], [133.3782761, 34.5229035], [133.3789384, 34.522677], [133.3798751, 34.5224552], [133.3808566, 34.5222284], [133.3818408, 34.5220125], [133.3828066, 34.521799], [133.3831646, 34.5217189], [133.38366, 34.5215886], [133.3837822, 34.5215532], [133.3840013, 34.5214583], [133.3841619, 34.5213678], [133.3845287, 34.5210932], [133.3851293, 34.5205833], [133.3858718, 34.5199715], [133.3859726, 34.5198882], [133.387308, 34.5187852], [133.3877741, 34.5183913], [133.3879602, 34.5182107], [133.3881026, 34.5180392], [133.3882676, 34.5177333], [133.3884954, 34.5171739], [133.3888403, 34.5163027], [133.389008, 34.5158795], [133.389242, 34.515331], [133.3894801, 34.5147312], [133.3901366, 34.5130535], [133.3903098, 34.5126237], [133.3904734, 34.5123098], [133.3906874, 34.5119523], [133.3908811, 34.5116707], [133.391155, 34.5113213], [133.3916284, 34.5108131], [133.3922497, 34.5102822], [133.3929689, 34.5097893], [133.3939169, 34.5091401], [133.3950394, 34.5083594], [133.3954811, 34.5080486], [133.395882, 34.5077937], [133.3960188, 34.5076995], [133.3961082, 34.5076381], [133.396497, 34.5073832], [133.3966918, 34.5072058], [133.3968993, 34.5070075], [133.397018, 34.5068915], [133.3971535, 34.5067357], [133.3973578, 34.5064688], [133.3974418, 34.506329], [133.3974969, 34.5062183], [133.397706, 34.5057919], [133.3978059, 34.5055368], [133.397875, 34.5053321], [133.3979206, 34.5051177], [133.3979896, 34.5046906], [133.3983499, 34.5024465], [133.3986929, 34.5002065], [133.3988755, 34.4990153], [133.3990574, 34.4978528], [133.3991532, 34.4972674], [133.3993375, 34.4960606], [133.3995098, 34.495049], [133.3998021, 34.4932075], [133.3999279, 34.4923454], [133.3999503, 34.492192], [133.4000977, 34.4912155], [133.400281, 34.4900171], [133.4003042, 34.4898899], [133.4003227, 34.4897919]], [[133.3661256, 34.5410052], [133.3660667, 34.541073]], [[133.3556952, 34.5532243], [133.356207, 34.5526386], [133.3574552, 34.5511742], [133.3581927, 34.5503176], [133.3584132, 34.5500606], [133.3590544, 34.5493151], [133.3611136, 34.5468725], [133.3611872, 34.5467881], [133.3613132, 34.5466351], [133.3616414, 34.5462273], [133.3620866, 34.5457135], [133.3633095, 34.5443002], [133.3633855, 34.5442123], [133.3633965, 34.5441997], [133.3634089, 34.5441853], [133.3635044, 34.5440767], [133.3635183, 34.5440614], [133.364999, 34.5422682], [133.3660667, 34.541073]], [[133.3661256, 34.5410052], [133.3665373, 34.5405098], [133.3665807, 34.5404546], [133.3676401, 34.539173], [133.3678869, 34.5389073], [133.3681988, 34.538539], [133.3685796, 34.5379597], [133.3687907, 34.5375588], [133.3690159, 34.5369867], [133.3691382, 34.5365062], [133.369215, 34.5360651], [133.3694425, 34.5350324], [133.3696496, 34.5340926], [133.3698508, 34.5330819], [133.3700369, 34.532372], [133.3702668, 34.531832], [133.3705178, 34.5313791], [133.3706544, 34.5311962], [133.3707385, 34.5310836], [133.3707702, 34.5310373], [133.3709941, 34.5307622], [133.3714544, 34.5302269], [133.3725437, 34.5290421]], [[133.3450709, 34.5731191], [133.3450554, 34.5727519], [133.3451051, 34.5724752], [133.34516, 34.5721852], [133.3451865, 34.5720474], [133.3452489, 34.5716158], [133.3452945, 34.5713783], [133.3453231, 34.5712293], [133.3454772, 34.5704265], [133.3455207, 34.5702], [133.3455637, 34.5699369], [133.3456448, 34.5694397], [133.3457304, 34.569], [133.3457927, 34.5687456], [133.3459539, 34.5678112], [133.3460273, 34.5674415], [133.346127, 34.5668491], [133.3463815, 34.5654756], [133.3464436, 34.5651012], [133.3465578, 34.5645208], [133.3468818, 34.5633009], [133.3472127, 34.5620552], [133.3473456, 34.5615981], [133.3474062, 34.5613468], [133.3474858, 34.561047], [133.3475911, 34.5607685], [133.34774, 34.5604947], [133.347858, 34.5603214], [133.3480304, 34.5601067], [133.3482387, 34.5598928], [133.3484809, 34.559692], [133.3487997, 34.5594867], [133.349168, 34.5592957], [133.3496124, 34.5590993], [133.3496876, 34.5590656], [133.3499924, 34.5589291], [133.3506053, 34.5586545], [133.3509849, 34.5584866], [133.3512859, 34.5583084], [133.3514514, 34.5581834], [133.3516099, 34.5580261], [133.352192, 34.5573444], [133.3526897, 34.5567617], [133.3528444, 34.5565805], [133.3539469, 34.5552895], [133.3542656, 34.5549147], [133.3556952, 34.5532243]]]}, "id": "relation/8386008"}]}