{"type": "FeatureCollection", "generator": "kokudo-quiz tools/fetch_raw.py (Overpass API)", "copyright": "The data included in this document is from www.openstreetmap.org. The data is made available under ODbL.", "timestamp": "2026-09-30T14:47:51Z", "features": [{"type": "Feature", "properties": {"@id": "relation/4165287", "colour": "red", "from": "山口県岩国市", "name": "国道187号", "name:en": "National Highway Route 187", "name:ja": "国道187号", "name:ja-Hira": "こくどうひゃくはちじゅうななごう", "name:ja-Latn": "kokudo 187 Gou", "network": "JP:national", "official_name": "一般国道187号", "operator": "中国地方整備局", "ref": "187", "route": "road", "to": "島根県益田市", "type": "route", "wikidata": "Q6156888", "wikipedia": "ja:国道187号"}, "geometry": {"type": "MultiLineString", "coordinates": [[[132.2260538, 34.1763413], [132.2256404, 34.1762507], [132.2252621, 34.1761695], [132.2247574, 34.1760631], [132.2242527, 34.1759567], [132.2238313, 34.1758703], [132.2236475, 34.1758131], [132.2234766, 34.1757273], [132.2234248, 34.1756929], [132.2233234, 34.1756245], [132.222987, 34.1754179], [132.2219494, 34.1747538], [132.2219163, 34.1747338], [132.2214869, 34.1744524], [132.2214288, 34.1744163], [132.2210564, 34.174185], [132.2205575, 34.1738657], [132.2200858, 34.173571], [132.2195274, 34.1732164], [132.2186122, 34.172641], [132.2185335, 34.1725882], [132.2178826, 34.1721848], [132.2172323, 34.1717583], [132.2170055, 34.1716214], [132.216842, 34.1715253], [132.2166769, 34.1714582], [132.2164813, 34.171411], [132.2163326, 34.1713959], [132.2157705, 34.1713508], [132.2151206, 34.1712943], [132.213033, 34.1711089], [132.2127442, 34.1710834], [132.2126778, 34.1710775], [132.2124951, 34.1710614], [132.2122698, 34.1710403], [132.2111147, 34.1709636], [132.2096339, 34.1708713], [132.2085685, 34.1708067], [132.2080112, 34.1707701], [132.2066628, 34.1706891], [132.206366, 34.1706689], [132.2052032, 34.1705925], [132.2050812, 34.1705836], [132.2047309, 34.1705414], [132.2043933, 34.1704781], [132.2042005, 34.1704283], [132.2037221, 34.1702748], [132.2035028, 34.170176], [132.2031459, 34.1700013], [132.202951, 34.1698992], [132.2028389, 34.1698266], [132.2026811, 34.1697187], [132.2026267, 34.1696815], [132.2024414, 34.1695237], [132.2022537, 34.1693236], [132.2020742, 34.1691228], [132.2014765, 34.168392], [132.2009872, 34.1678109], [132.2005973, 34.1673227], [132.2003252, 34.1669954], [132.1998943, 34.1664771], [132.1995535, 34.1660586], [132.1992859, 34.1657722], [132.1990309, 34.1655705], [132.1988498, 34.1654424], [132.198218, 34.1650979], [132.197216, 34.1645265], [132.1970855, 34.1644725], [132.1969976, 34.1644521], [132.1968804, 34.1644381], [132.1967098, 34.164447], [132.195946, 34.1644985], [132.1956604, 34.164534], [132.1952973, 34.1645973], [132.1949852, 34.1646682], [132.1947139, 34.1647357], [132.1946776, 34.1647497], [132.1939938, 34.1649695], [132.193393, 34.1651594], [132.1923506, 34.1654741], [132.1920987, 34.1655459], [132.191858, 34.1656033], [132.1917061, 34.1656307], [132.1915214, 34.1656558], [132.1912967, 34.1656632], [132.1904267, 34.1657031], [132.1902661, 34.1657094], [132.1900893, 34.1657164], [132.1894149, 34.165747], [132.1891073, 34.1657853], [132.1889474, 34.1658089], [132.1887664, 34.1658525], [132.1886052, 34.1658972], [132.188569, 34.1659077], [132.18831, 34.1660053], [132.1879378, 34.1661438], [132.1876613, 34.1662846], [132.1875098, 34.1663639], [132.1872695, 34.166503], [132.1870361, 34.1666771], [132.1869298, 34.1667752], [132.1868131, 34.1668828], [132.1865806, 34.1671077], [132.1860711, 34.1677322], [132.1858652, 34.1680026], [132.1852542, 34.1687954], [132.1833753, 34.1713001], [132.1831916, 34.1715614], [132.1830682, 34.1717844], [132.182998, 34.1719645], [132.1829407, 34.1721615], [132.1829209, 34.172363], [132.1829279, 34.1725025], [132.1829554, 34.172602], [132.1830136, 34.172759], [132.1831142, 34.1730767], [132.1831708, 34.1732872], [132.1832135, 34.1736015], [132.1833306, 34.1744862], [132.1833714, 34.1747473], [132.183387, 34.1749187], [132.1833834, 34.1750424], [132.1833505, 34.1751687], [132.1832447, 34.175386], [132.1831106, 34.1757297], [132.1829514, 34.1761326], [132.1828304, 34.1764302], [132.182713, 34.1766619], [132.1825897, 34.176876], [132.1824378, 34.1770801], [132.1821759, 34.1774197], [132.1819176, 34.1777648], [132.1816881, 34.1780556], [132.1815165, 34.1782928], [132.1813412, 34.1785569], [132.1810033, 34.1790827], [132.1807582, 34.1794798], [132.1805875, 34.1797139], [132.1804248, 34.1799026], [132.1802694, 34.1800371], [132.1800983, 34.1801505], [132.1799159, 34.1802524], [132.1797176, 34.1803624], [132.1796038, 34.1804378], [132.1794955, 34.1805244], [132.1794135, 34.1806231], [132.1793351, 34.1807572], [132.1792603, 34.1809051], [132.1791868, 34.1810454], [132.1790387, 34.1812716], [132.1788122, 34.18162], [132.1786286, 34.1819006], [132.1784673, 34.1821423], [132.178333, 34.1823088], [132.178191, 34.1824532], [132.1778466, 34.1828031], [132.1777128, 34.1829254], [132.1775967, 34.1830013], [132.1774416, 34.1831173], [132.1773283, 34.1832229], [132.1772491, 34.1833132], [132.1771616, 34.1834442], [132.1770319, 34.1836465], [132.176844, 34.1839476], [132.1767252, 34.1841538], [132.1766196, 34.1843666], [132.1765853, 34.1844895], [132.1765536, 34.184597], [132.1764718, 34.1848186], [132.1763714, 34.1850314], [132.1762407, 34.1852631], [132.1760478, 34.1854521], [132.1759393, 34.1855457], [132.1758246, 34.1856317], [132.1756834, 34.1857212], [132.1755355, 34.1858084], [132.1753302, 34.1859104], [132.175162, 34.1859779], [132.1750431, 34.1860171], [132.1749507, 34.1860388], [132.1748157, 34.1860603], [132.1747009, 34.1860729], [132.1741502, 34.1861369], [132.173615, 34.1861954], [132.1734087, 34.1862149], [132.1732568, 34.1862147], [132.1730015, 34.1861924], [132.1728102, 34.1861671], [132.1726355, 34.1861351], [132.172478, 34.1860888], [132.1722852, 34.1860209], [132.1720813, 34.1859112], [132.1716131, 34.1856469], [132.1708933, 34.1852363], [132.1698777, 34.1846578], [132.169131, 34.1842535], [132.1685392, 34.1839405], [132.1679975, 34.1836476], [132.1678773, 34.1835784], [132.1677032, 34.1834579], [132.1675678, 34.183332], [132.1674305, 34.1831708], [132.1672654, 34.1829357], [132.1671524, 34.1827816], [132.167043, 34.1826596], [132.1669153, 34.1825475], [132.1667615, 34.1824455], [132.1663707, 34.182199], [132.1661792, 34.1820752], [132.1660212, 34.1819835], [132.1658936, 34.1819045], [132.1658329, 34.181856], [132.1657902, 34.1818218], [132.1657234, 34.1817594], [132.1656086, 34.1816522], [132.1652822, 34.1813412], [132.1651679, 34.1812287], [132.1649544, 34.1810321], [132.1647954, 34.1808666], [132.1646791, 34.1807442], [132.1645887, 34.1806334], [132.1645056, 34.1805099], [132.1644207, 34.1803604], [132.1642713, 34.1800511], [132.163974, 34.179463], [132.1638896, 34.1792779], [132.1638387, 34.179156], [132.1637771, 34.1789908], [132.163731, 34.1788397], [132.1636393, 34.1784594], [132.1636158, 34.1782945], [132.1636058, 34.1781539], [132.1635977, 34.1776839], [132.1635918, 34.177524], [132.1635648, 34.1773807], [132.1635223, 34.1772428], [132.1634654, 34.1771253], [132.1633938, 34.177001], [132.1632532, 34.1768085], [132.1631573, 34.1766656], [132.1630149, 34.1764552], [132.1628592, 34.1762198], [132.1627358, 34.1760138], [132.162593, 34.1757577], [132.1623984, 34.1753732], [132.1622907, 34.1751484], [132.162218, 34.1749967], [132.1619681, 34.174495], [132.1618904, 34.1743559], [132.1617792, 34.1742093], [132.1617035, 34.1741396], [132.1616051, 34.1740554], [132.1614381, 34.1739138], [132.1612016, 34.1736954], [132.160889, 34.173404], [132.1607865, 34.1733151], [132.160482, 34.1730482], [132.15971, 34.1730882], [132.1593674, 34.1731285], [132.1589141, 34.1731819], [132.158591, 34.1732112], [132.1571757, 34.1733998], [132.1558008, 34.1735912], [132.1556072, 34.1736224], [132.15547, 34.1736621], [132.1550278, 34.1738132], [132.1548079, 34.1738764], [132.1542621, 34.1739996], [132.1536948, 34.1741205], [132.1534346, 34.1741927], [132.153043, 34.1743314], [132.1527922, 34.1743868], [132.1521946, 34.1744666], [132.1519216, 34.1745163], [132.151714, 34.1745843], [132.1509542, 34.1748664], [132.1508411, 34.1748971], [132.1507231, 34.1749115], [132.149237, 34.1750642], [132.1490948, 34.1750659], [132.1489994, 34.1750416], [132.1485874, 34.1749095], [132.1483894, 34.1748706], [132.1482184, 34.1748639], [132.1479053, 34.1748862], [132.1476057, 34.1748877], [132.1472548, 34.1748595], [132.1468965, 34.1748054], [132.1466862, 34.1747585], [132.1463925, 34.1746676], [132.1461518, 34.1745476], [132.143981, 34.1731566], [132.1438444, 34.1730643], [132.1436995, 34.1729478], [132.1434829, 34.1727298], [132.1429799, 34.172197], [132.1428493, 34.1720446], [132.142754, 34.1719065], [132.1426333, 34.1716451], [132.1425352, 34.1715081], [132.1423879, 34.1713633], [132.1421867, 34.1712248], [132.1420057, 34.171127], [132.1417973, 34.1710606], [132.1414733, 34.1710016], [132.1411788, 34.1709571], [132.1407558, 34.170965], [132.1405933, 34.1709789], [132.1399445, 34.1710345], [132.1397615, 34.1710689], [132.1395396, 34.1711569], [132.138885, 34.1715862], [132.1381541, 34.1720647], [132.1378743, 34.1722777], [132.1377014, 34.1724256], [132.1373902, 34.1727266], [132.137256, 34.1728294], [132.1370461, 34.1729435], [132.1358986, 34.1734395], [132.1354823, 34.1735735], [132.1349609, 34.1736903], [132.1344754, 34.1737682], [132.1333036, 34.1739364], [132.1329443, 34.1739782], [132.1326517, 34.1739942], [132.1319027, 34.1739788], [132.1311984, 34.1739614], [132.1309617, 34.173943], [132.1308112, 34.1739096], [132.1296244, 34.1735233], [132.1292625, 34.1734337], [132.1287035, 34.1733402], [132.1284673, 34.1733106], [132.1282113, 34.1733158], [132.1279858, 34.1733394], [132.1272015, 34.1734692], [132.1265361, 34.1735447], [132.1259242, 34.1736045], [132.1255866, 34.1736179], [132.1253441, 34.1736103], [132.1250729, 34.1735671], [132.1238788, 34.173265], [132.1234851, 34.1731896], [132.1231407, 34.1731434], [132.1210054, 34.1728616], [132.1207473, 34.1728361], [132.1205134, 34.1728581], [132.1199035, 34.1729792], [132.1195929, 34.173016], [132.1192767, 34.1730254], [132.118475, 34.1730207], [132.1181247, 34.173041], [132.1177232, 34.1730868], [132.1170196, 34.1731852], [132.1166924, 34.1732251], [132.1165675, 34.1732288], [132.1165037, 34.1732307], [132.1162425, 34.1732269], [132.1160097, 34.1732129], [132.1153164, 34.1731153], [132.1151324, 34.1730775], [132.1148697, 34.1729963], [132.1143273, 34.1728023], [132.1141602, 34.1727469], [132.1140291, 34.172718], [132.1138647, 34.1726963], [132.1136892, 34.172696], [132.1130369, 34.1727344], [132.1128016, 34.1727399], [132.1126134, 34.1727415], [132.1125074, 34.1727399], [132.1124389, 34.1729189], [132.1123961, 34.1730094], [132.1123624, 34.173092], [132.1123242, 34.1731466], [132.1122887, 34.173195], [132.1120636, 34.1733788], [132.1118019, 34.1735975], [132.1116467, 34.1736999], [132.111491, 34.1737699], [132.1113515, 34.1738057], [132.1112265, 34.1738165], [132.1110326, 34.1738156], [132.110811, 34.1737787], [132.1104661, 34.1736907], [132.1100276, 34.1735714], [132.10912, 34.1733357], [132.1089858, 34.1732861], [132.1088704, 34.1732051], [132.1087946, 34.1731319], [132.1087364, 34.1730327], [132.1081559, 34.1719468], [132.10806, 34.1717954], [132.1079712, 34.1716927], [132.1078378, 34.1715782], [132.1076798, 34.1714946], [132.107543, 34.1714494], [132.1073977, 34.1714256], [132.1072557, 34.1714338], [132.1070829, 34.1714707], [132.1068285, 34.1715552], [132.1065865, 34.1716551], [132.1062881, 34.1718227], [132.1060024, 34.171958], [132.1057543, 34.1720579], [132.1055333, 34.1721127], [132.1053131, 34.1721329], [132.1050674, 34.1721246], [132.1048497, 34.1720945], [132.1046687, 34.1720403], [132.1043092, 34.1719097], [132.1035495, 34.1716068], [132.1031845, 34.1714632], [132.1029728, 34.1713905], [132.1027806, 34.1713515], [132.1026564, 34.1713389], [132.1023323, 34.1713006], [132.1021776, 34.1712623], [132.1020495, 34.1712209], [132.1019193, 34.1711595], [132.1017935, 34.1710956], [132.1016317, 34.1709612], [132.1009305, 34.1703853], [132.1008113, 34.170297], [132.1007202, 34.1702459], [132.1006142, 34.1702], [132.1003991, 34.1701472], [132.1001018, 34.170068], [132.0998927, 34.1699799], [132.09969, 34.1698633], [132.0994228, 34.1697059], [132.0989508, 34.1693546], [132.0982076, 34.1688237], [132.0975548, 34.1683197], [132.0969848, 34.167835], [132.0964283, 34.1673865], [132.0959941, 34.1670739], [132.0954297, 34.1666778], [132.0952744, 34.1665565], [132.0951861, 34.1664704], [132.0951129, 34.1663882], [132.0950188, 34.1662443], [132.09497, 34.1661436], [132.0949286, 34.166018], [132.0948984, 34.1658822], [132.094874, 34.1657167], [132.0947798, 34.1647194], [132.0947593, 34.1644964], [132.0947377, 34.1643242], [132.0947126, 34.164189], [132.0946866, 34.1641236], [132.0945623, 34.1638524], [132.0945004, 34.1637723], [132.0944633, 34.1637178], [132.0943414, 34.1635323], [132.0942314, 34.163403], [132.0941404, 34.1633117], [132.094006, 34.163225], [132.0938323, 34.163136], [132.0936522, 34.1630767], [132.0930764, 34.162938], [132.0919883, 34.1626758], [132.091739, 34.1626354], [132.0915314, 34.1626247], [132.0912571, 34.162639], [132.0910047, 34.1626744], [132.0905312, 34.1628385], [132.0903412, 34.1629321], [132.090153, 34.1630392], [132.0899993, 34.1631622], [132.0898683, 34.1633063], [132.0898041, 34.1633832], [132.0896329, 34.1636947], [132.0893714, 34.164133], [132.0892472, 34.1643899], [132.0891824, 34.1645732], [132.0891211, 34.1647535], [132.0890307, 34.1649523], [132.0887075, 34.1654601], [132.0885225, 34.1656843], [132.0883416, 34.1658965], [132.0879828, 34.1663327], [132.0877728, 34.1665764], [132.0876467, 34.1666907], [132.0875534, 34.1667611], [132.0871442, 34.1670058], [132.0863302, 34.1675091], [132.0856512, 34.167918], [132.085328, 34.1680866], [132.0850689, 34.1682255], [132.0848438, 34.168364], [132.0845273, 34.1685949], [132.0843446, 34.168695], [132.083672, 34.168957], [132.0834325, 34.1690384], [132.0832197, 34.1690831], [132.0828723, 34.1691488], [132.0826082, 34.1692251], [132.0823955, 34.1693101], [132.0815854, 34.1696958], [132.081235, 34.1698824], [132.0802774, 34.1704297], [132.0798771, 34.1706426], [132.0796551, 34.1707397], [132.0794365, 34.1708118], [132.0792822, 34.1708474], [132.0790596, 34.1708909], [132.0788759, 34.1709539], [132.0787147, 34.1710301], [132.078592, 34.1711004], [132.078352, 34.1712749], [132.0782135, 34.1713535], [132.0780643, 34.1714166], [132.0778656, 34.1714678], [132.0776615, 34.1715048], [132.0768897, 34.171624], [132.0760618, 34.1717585], [132.0758428, 34.1718011], [132.0756935, 34.1718463], [132.0755272, 34.1719458], [132.0753419, 34.1721081], [132.0750281, 34.1724394], [132.0748419, 34.1726574], [132.074673, 34.172912], [132.0740439, 34.1739486], [132.0734926, 34.1748581], [132.0731623, 34.1754035], [132.0731065, 34.1755352], [132.0730842, 34.1756722], [132.0730944, 34.1757789], [132.0731148, 34.175893], [132.0731182, 34.1759122], [132.0731289, 34.1759887], [132.073135, 34.1760468], [132.0731408, 34.1761781], [132.0731171, 34.1763241], [132.0730344, 34.1768678], [132.0730004, 34.1770052], [132.0729319, 34.17716], [132.0728214, 34.1773633], [132.072692, 34.1775144], [132.0725514, 34.1776373], [132.0723905, 34.177763], [132.0714882, 34.1784449], [132.0712973, 34.1785597], [132.0711171, 34.1786235], [132.0709086, 34.1786441], [132.0706009, 34.178628], [132.07, 34.1785815], [132.0697687, 34.1785483], [132.0689444, 34.1783416], [132.0684441, 34.1782153], [132.0678951, 34.1780738], [132.0676515, 34.1780387], [132.0674457, 34.1780285], [132.0671585, 34.1780435], [132.0668021, 34.1781138], [132.0659746, 34.1783171], [132.0656839, 34.1783777], [132.0655651, 34.1783995], [132.0654509, 34.1784135], [132.0651926, 34.1784299], [132.0649471, 34.1784239], [132.0644952, 34.1784177], [132.0641253, 34.1784369], [132.063659, 34.1784932], [132.06338, 34.1785333], [132.0631109, 34.1785825], [132.0626202, 34.1786969], [132.061905, 34.1788916], [132.0612112, 34.1790624], [132.0609905, 34.1791276], [132.0608371, 34.1791863], [132.0605765, 34.1793175], [132.0603194, 34.179413], [132.0600281, 34.1794893], [132.0598255, 34.1795161], [132.0596127, 34.1795103], [132.0588653, 34.1794143], [132.058597, 34.1794006], [132.0580264, 34.1793899], [132.0578385, 34.1794074], [132.0576198, 34.1794684], [132.0567853, 34.179721], [132.0563385, 34.1798306], [132.0557526, 34.1799798], [132.0551307, 34.1801235], [132.0547923, 34.1802117], [132.0546046, 34.1802854], [132.0544151, 34.1803968], [132.0541677, 34.1805849], [132.0539933, 34.1807524], [132.0539039, 34.1808886], [132.0538615, 34.1810211], [132.053849, 34.1812195], [132.0538625, 34.1814257], [132.0538929, 34.1816676], [132.0539403, 34.181876], [132.0539966, 34.1820947], [132.0540571, 34.1822177], [132.0541513, 34.1823718], [132.0541813, 34.1824712], [132.0541974, 34.1826055], [132.05418, 34.1828312], [132.05415, 34.1829861], [132.0540824, 34.1831447], [132.0539443, 34.1833208], [132.0537647, 34.1835455], [132.0536153, 34.1837764], [132.053379, 34.184142], [132.0532407, 34.18431], [132.053128, 34.184396], [132.0529701, 34.1844982], [132.0526977, 34.1846454], [132.0524657, 34.1847394], [132.0522075, 34.1848288], [132.0518445, 34.1849486], [132.0513913, 34.1850766], [132.0508701, 34.1852113], [132.0503585, 34.1853615], [132.0499188, 34.1855026], [132.049705, 34.1855743], [132.0495099, 34.1856748], [132.049272, 34.185804], [132.0489227, 34.1860095], [132.0484946, 34.1862511], [132.0482903, 34.1863423], [132.04806, 34.1864156], [132.0478301, 34.1864667], [132.0475932, 34.1865232], [132.0474076, 34.1865598], [132.0472767, 34.1865732], [132.047046, 34.1865691], [132.0465197, 34.1865658], [132.0463125, 34.1865859], [132.0460966, 34.1866241], [132.0457652, 34.1866662], [132.0454556, 34.1866902], [132.0451473, 34.1867157], [132.0449368, 34.1867228], [132.0447346, 34.1867238], [132.0444584, 34.1867107], [132.0440766, 34.1866749], [132.0434654, 34.1866164], [132.0431683, 34.1865818], [132.0430269, 34.1865816], [132.0428366, 34.1866019], [132.0423452, 34.186667], [132.0421021, 34.1867027], [132.0419063, 34.186747], [132.041416, 34.186919], [132.0410751, 34.1870478], [132.0408026, 34.1871135], [132.0399919, 34.1872853], [132.0394565, 34.1874314], [132.039302, 34.1874795], [132.0391823, 34.1875486], [132.0390698, 34.1876694], [132.0388108, 34.1880146], [132.0386932, 34.1882066], [132.0385981, 34.1884294], [132.038455, 34.1887415], [132.0384161, 34.1888728], [132.0384101, 34.1890345], [132.0384466, 34.1894958], [132.038455, 34.189788], [132.038419, 34.1899656], [132.0383665, 34.1900853], [132.0383063, 34.1901966], [132.0382307, 34.1903352], [132.0381145, 34.1904682], [132.0380155, 34.1905462], [132.037885, 34.1906411], [132.0378657, 34.1906489], [132.0376812, 34.1907232], [132.037463, 34.1907875], [132.0371179, 34.1908796], [132.0368712, 34.190975], [132.0365748, 34.191117], [132.0363881, 34.1911946], [132.0361751, 34.1912646], [132.035872, 34.19136], [132.0357098, 34.1914487], [132.0356073, 34.1915344], [132.0354812, 34.191729], [132.0352779, 34.1920633], [132.0351733, 34.1922441], [132.0351196, 34.1923703], [132.0350905, 34.1925239], [132.0350319, 34.1930972], [132.0349936, 34.1933072], [132.0348675, 34.1936884], [132.0346699, 34.1942315], [132.0345134, 34.1948135], [132.0344131, 34.1951327], [132.0343083, 34.195329], [132.0341739, 34.1954994], [132.0338818, 34.1957943], [132.0335881, 34.1961151], [132.0333978, 34.1963074], [132.0330504, 34.1965802], [132.0327593, 34.1967965], [132.0326233, 34.1969161], [132.0321643, 34.1973963], [132.031897, 34.1976724], [132.0317535, 34.1978636], [132.0316408, 34.1980704], [132.0315806, 34.1982459], [132.0315642, 34.1984208], [132.0315932, 34.1985806], [132.0316444, 34.1986857], [132.0317179, 34.1988204], [132.0318892, 34.1990326], [132.0321347, 34.1992375], [132.0323154, 34.1993577], [132.0325087, 34.1994649], [132.0327313, 34.1995423], [132.0330706, 34.1996256], [132.0332238, 34.1996804], [132.0333617, 34.1997709], [132.0335814, 34.1999412], [132.033703, 34.2000732], [132.0338796, 34.2002903], [132.0339574, 34.200397], [132.0340838, 34.2006546], [132.0341792, 34.2008153], [132.0344321, 34.2010737], [132.0345372, 34.2012908], [132.0346096, 34.2015623], [132.0346732, 34.2021581], [132.0347101, 34.2023732], [132.0348971, 34.2029569], [132.0349631, 34.203209], [132.035009, 34.2035025], [132.0349938, 34.204372], [132.0349938, 34.2053171], [132.0349633, 34.2062622], [132.0349535, 34.206651], [132.0348668, 34.2071486], [132.0347978, 34.2073826], [132.0345999, 34.2077557], [132.0344903, 34.2079229], [132.0343343, 34.208102], [132.0339288, 34.2085325], [132.0337597, 34.2086976], [132.0335652, 34.2088946], [132.0329617, 34.2094306], [132.0328512, 34.2095294], [132.0327285, 34.2095916], [132.0320982, 34.2098453], [132.0317609, 34.2099867], [132.0316615, 34.210032], [132.0306615, 34.210365], [132.0304336, 34.2104663], [132.0302334, 34.2105638], [132.0300535, 34.2106169], [132.0299065, 34.2106364], [132.0297653, 34.2106271], [132.0291756, 34.2105998], [132.028912, 34.2105697], [132.0287032, 34.2105291], [132.0284725, 34.2104583], [132.0280683, 34.2103248], [132.0278622, 34.2102715], [132.0275122, 34.2102143], [132.0271316, 34.2101307], [132.0265374, 34.2099669], [132.0260367, 34.2098351], [132.025867, 34.2097904], [132.0252575, 34.2096518], [132.0251008, 34.2096119], [132.0248507, 34.2095749], [132.0245871, 34.209551], [132.0245233, 34.209547], [132.024282, 34.2095321], [132.0239776, 34.2095132], [132.0231377, 34.2094494], [132.0228133, 34.2094306], [132.0227222, 34.2094368], [132.0226366, 34.2094537], [132.0225158, 34.2095014], [132.0223254, 34.2095959], [132.0218641, 34.2099181], [132.0212077, 34.2103893], [132.0210875, 34.2104864], [132.0208503, 34.2106906], [132.0205951, 34.2108867], [132.0201886, 34.2112452], [132.0201379, 34.2112899], [132.0196961, 34.2116805], [132.0192085, 34.2121971], [132.0186905, 34.2128145], [132.0181317, 34.2134027], [132.0178476, 34.2137112], [132.0175142, 34.2141545], [132.017295, 34.2143753], [132.0170127, 34.2146019], [132.0168586, 34.2147079], [132.0159534, 34.2151745], [132.0157233, 34.2152872], [132.0155639, 34.215351], [132.0152492, 34.2154467], [132.0148087, 34.2155942], [132.0144971, 34.2157254], [132.0144343, 34.2157686], [132.0143714, 34.2158117], [132.0142516, 34.2158796], [132.0140603, 34.2159593], [132.0139149, 34.2159991], [132.0137645, 34.2160223], [132.0136022, 34.216039], [132.0129462, 34.2160653], [132.0125196, 34.2160023], [132.012032, 34.2158889], [132.0115771, 34.2156904], [132.0112951, 34.2155673], [132.0111486, 34.2154933], [132.0108797, 34.2153112], [132.0106758, 34.2151746], [132.0104628, 34.2149936], [132.0103481, 34.2148438], [132.0100597, 34.2144162], [132.0099484, 34.2142216], [132.0098834, 34.2140533], [132.0098227, 34.2138648], [132.0097823, 34.2137049], [132.0097535, 34.2135666], [132.0097189, 34.2132659], [132.009694, 34.2131143], [132.0096489, 34.2129507], [132.0095876, 34.2127645], [132.0093701, 34.2122156], [132.0092653, 34.2118962], [132.0091159, 34.2113248], [132.0090819, 34.2112276], [132.0090268, 34.2111392], [132.0089694, 34.2110757], [132.0088443, 34.2109972], [132.0087333, 34.2109507], [132.0086068, 34.2109156], [132.008489, 34.2108951], [132.0083485, 34.210892], [132.0081871, 34.2109205], [132.0080296, 34.2109747], [132.0079071, 34.2110378], [132.007461, 34.2113277], [132.0069997, 34.2116364], [132.0059982, 34.2121971], [132.0050096, 34.2127665], [132.0047465, 34.2129424], [132.0045203, 34.2131169], [132.0042266, 34.2134225], [132.0040596, 34.2136263], [132.0039184, 34.2138482], [132.0037063, 34.2142412], [132.0035451, 34.2146037], [132.0034773, 34.2147578], [132.0034024, 34.2148712], [132.0031894, 34.2151125], [132.0028997, 34.2155535], [132.0028396, 34.2156334], [132.0027593, 34.2157171], [132.0026485, 34.215792], [132.002032, 34.2161143], [132.0019213, 34.2161537], [132.0018231, 34.2161803], [132.0017065, 34.2161973], [132.0011644, 34.2162168], [132.0010117, 34.2162191], [132.0008267, 34.2161957], [132.0003952, 34.2161094], [132.0002712, 34.2160667], [132.0001474, 34.2159968], [132.0000314, 34.2158984], [131.9997448, 34.215581], [131.9996066, 34.2154281], [131.9995301, 34.2153161], [131.9994649, 34.21516], [131.9994057, 34.2149841], [131.9991145, 34.2138917], [131.9989256, 34.2131629], [131.9988477, 34.2129182], [131.9987291, 34.2126565], [131.9984733, 34.2121718], [131.9983307, 34.2119598], [131.9981702, 34.2117692], [131.9981342, 34.2117285], [131.9977363, 34.2112781], [131.9972213, 34.2107581], [131.9963885, 34.2100505], [131.9961779, 34.2098365], [131.9959877, 34.2096014], [131.9955713, 34.2087425], [131.9954754, 34.2085711], [131.9953617, 34.2084461], [131.9952156, 34.2083391], [131.9950329, 34.2082677], [131.9948081, 34.2082393], [131.9945731, 34.2082341], [131.9942863, 34.2082741], [131.9938876, 34.2083351], [131.993649, 34.2083896], [131.9934699, 34.2084599], [131.9932755, 34.2085808], [131.9929556, 34.2088076], [131.9924526, 34.2092297], [131.9922902, 34.2093975], [131.9922011, 34.2095582], [131.9921579, 34.2097041], [131.9921301, 34.2099196], [131.9920724, 34.2107958], [131.992049, 34.2110101], [131.9918081, 34.2124488], [131.9916442, 34.2132878], [131.9915577, 34.2138418], [131.9915137, 34.2140392], [131.9914117, 34.2143016], [131.991285, 34.2145161], [131.9909518, 34.2150056], [131.9908799, 34.2151475], [131.9908408, 34.2152591], [131.9908263, 34.2153623], [131.9908309, 34.2154734], [131.9909156, 34.215891], [131.9909919, 34.2160939], [131.9913475, 34.2168258], [131.9914381, 34.2170561], [131.9914888, 34.2171903], [131.9915501, 34.2173123], [131.9916212, 34.2174257], [131.9917661, 34.2175861], [131.9918718, 34.2176935], [131.9919888, 34.2177757], [131.992219, 34.2178892], [131.992555, 34.2180469], [131.992727, 34.2181568], [131.9929635, 34.2183246], [131.9931055, 34.2184583], [131.9932301, 34.2186277], [131.993575, 34.2191795], [131.9938259, 34.2195896], [131.9939612, 34.2197731], [131.9942179, 34.2200589], [131.9943403, 34.2201706], [131.9945143, 34.220279], [131.9951888, 34.220578], [131.9952878, 34.2206481], [131.9953706, 34.2207452], [131.9954379, 34.2208662], [131.9954694, 34.2209708], [131.9954771, 34.22111], [131.9954505, 34.2214511], [131.9954294, 34.2215413], [131.9954029, 34.2216183], [131.9953839, 34.2216594], [131.9953524, 34.2217272], [131.9952419, 34.2219328], [131.995069, 34.2222545], [131.9950177, 34.2223487], [131.9947879, 34.2227706], [131.9947198, 34.2228763], [131.994616, 34.2230186], [131.9943373, 34.2233566], [131.9941243, 34.223615], [131.9937207, 34.2241046], [131.9936629, 34.224193], [131.993646, 34.2242188], [131.993476, 34.224527], [131.9933032, 34.2249251], [131.9930838, 34.2255896], [131.9929944, 34.2258429], [131.9929363, 34.2259586], [131.9926809, 34.2263849], [131.992516, 34.2266485], [131.9924265, 34.2267409], [131.9922891, 34.2268264], [131.9920776, 34.2269159], [131.9919106, 34.2269703], [131.9917263, 34.2270079], [131.9906643, 34.2270731], [131.9902626, 34.227087], [131.9900263, 34.2270785], [131.989771, 34.2270566], [131.9894914, 34.227017], [131.9891936, 34.2269354], [131.9876968, 34.2264097], [131.9868974, 34.226041], [131.9865364, 34.2258982], [131.9859113, 34.2256994], [131.9855708, 34.2255951], [131.9852638, 34.2255145], [131.9849749, 34.2254843], [131.9844622, 34.2254568], [131.984069, 34.2254511], [131.9838678, 34.2254757], [131.9837151, 34.2255326], [131.9834158, 34.2257014], [131.9832744, 34.2258153], [131.9831533, 34.225988], [131.9830758, 34.2261644], [131.9830049, 34.2264242], [131.9829724, 34.2270732], [131.9829752, 34.2272952], [131.9830026, 34.2274148], [131.9830849, 34.2276367], [131.9831946, 34.2278322], [131.9834206, 34.2282628], [131.9835371, 34.2284734], [131.9837358, 34.2288946], [131.9837769, 34.2290141], [131.9838039, 34.2291316], [131.9838103, 34.2292277], [131.9838131, 34.2296559], [131.9837985, 34.2297769], [131.9837696, 34.2298896], [131.9834772, 34.2303962], [131.98324, 34.2308016], [131.9831568, 34.2309028], [131.9830636, 34.2309824], [131.982962, 34.2310507], [131.9828108, 34.2311236], [131.9826631, 34.2311832], [131.9825572, 34.2312451], [131.9824381, 34.2313113], [131.9823448, 34.2313931], [131.9822569, 34.2314821], [131.9821798, 34.231585], [131.9819184, 34.2320827], [131.9817197, 34.2324521], [131.9816868, 34.2325337], [131.9816733, 34.2326452], [131.9816654, 34.2327417], [131.9816765, 34.2328508], [131.9817026, 34.2329623], [131.9817439, 34.2330682], [131.9823747, 34.2341859], [131.9824944, 34.2343691], [131.9826222, 34.2345137], [131.9828331, 34.2347141], [131.9829895, 34.2348223], [131.9831701, 34.2349374], [131.9833514, 34.2350268], [131.9837909, 34.2352426], [131.9839866, 34.2353336], [131.9841638, 34.2353958], [131.9843406, 34.2354328], [131.984565, 34.2354452], [131.9848072, 34.2354428], [131.9851337, 34.2354282], [131.9854254, 34.2354218], [131.9855967, 34.2354437], [131.9865063, 34.2356718], [131.9866618, 34.2357236], [131.9868536, 34.2358271], [131.9869777, 34.2359272], [131.9881732, 34.2369151], [131.9882436, 34.2369885], [131.9882996, 34.2370779], [131.9883423, 34.2371757], [131.9883765, 34.2372821], [131.9883954, 34.23742], [131.9883946, 34.2375244], [131.988368, 34.2377615], [131.9883049, 34.238078], [131.9882952, 34.2381277], [131.9882182, 34.2385871], [131.9881827, 34.2387597], [131.9881532, 34.2388817], [131.9880802, 34.2391045], [131.9880366, 34.2392374], [131.9879979, 34.2393265], [131.9879008, 34.2395438], [131.9878501, 34.2396255], [131.9876048, 34.2400243], [131.9875431, 34.2401246], [131.9875251, 34.2401535], [131.9872921, 34.2404715], [131.9872462, 34.2405282], [131.9872315, 34.2405463], [131.9871447, 34.2406534], [131.9863247, 34.2415803], [131.9863095, 34.2415999], [131.9859953, 34.2420043], [131.9858624, 34.2421753], [131.9858448, 34.242198], [131.9855274, 34.2425737], [131.9852711, 34.2428377], [131.9849015, 34.2433134], [131.984663, 34.243711], [131.984344, 34.2441516], [131.9841204, 34.2444471], [131.9839835, 34.244663], [131.9838983, 34.2447879], [131.9838366, 34.2448636], [131.9837309, 34.2449449], [131.9835959, 34.2450367], [131.983445, 34.2451212], [131.9832737, 34.2452056], [131.9830682, 34.2452943], [131.9823662, 34.2455744], [131.9821369, 34.2456567], [131.982018, 34.2456893], [131.9819628, 34.2456986], [131.9818968, 34.245705], [131.9816944, 34.2457075], [131.9807688, 34.245717], [131.9802206, 34.2456771], [131.9801507, 34.2456684], [131.9799465, 34.2456544], [131.9797958, 34.2456601], [131.9796588, 34.2456771], [131.9795403, 34.2457034], [131.9793915, 34.2457511], [131.9792303, 34.2458101], [131.9789354, 34.2459179], [131.9782693, 34.2461616], [131.9782227, 34.2461825], [131.9781444, 34.2462177], [131.9780759, 34.2462576], [131.9780279, 34.2463031], [131.9779755, 34.2463487], [131.9779164, 34.2464223], [131.9778703, 34.2464875], [131.9778533, 34.2465321], [131.9778292, 34.2465956], [131.9776468, 34.2471547], [131.9776342, 34.2471932], [131.9775292, 34.2474742], [131.9774884, 34.2476075], [131.9774673, 34.2477189], [131.9774429, 34.2479119], [131.9774343, 34.247971], [131.9774207, 34.2480641], [131.9774009, 34.2484035], [131.9774063, 34.2486437], [131.977419, 34.248842], [131.9774498, 34.2490972], [131.9774737, 34.2491977], [131.9775078, 34.2493127], [131.9776339, 34.2495799], [131.9780645, 34.250439], [131.9782792, 34.2507908], [131.978333, 34.2508731], [131.9784048, 34.2510202], [131.9784735, 34.2513128], [131.9785058, 34.2514538], [131.9786183, 34.2520148], [131.9786309, 34.2521412], [131.9786284, 34.2522569], [131.9786124, 34.2523744], [131.9785856, 34.2524916], [131.978531, 34.2526612], [131.9784429, 34.252867], [131.9782488, 34.2533078], [131.9779939, 34.2538909], [131.9778977, 34.2540602], [131.9775829, 34.2546143], [131.9774592, 34.2549235], [131.9774044, 34.2551454], [131.9773662, 34.2553646], [131.9773604, 34.2554737], [131.9773745, 34.2556042], [131.9774112, 34.2558241], [131.977495, 34.2562915], [131.9775293, 34.2564386], [131.977572, 34.2565731], [131.9776215, 34.2567086], [131.9776515, 34.2567809], [131.9778672, 34.2572581], [131.9779237, 34.2573785], [131.9779698, 34.2574491], [131.9780267, 34.2575204], [131.9780935, 34.257597], [131.9782092, 34.2577055], [131.9783576, 34.2578683], [131.9784528, 34.2580276], [131.9785276, 34.2581953], [131.9785616, 34.2583291], [131.9785728, 34.2585142], [131.9785417, 34.2589941], [131.9785288, 34.2590666], [131.9785054, 34.2591362], [131.9784665, 34.2592169], [131.9779114, 34.2602037], [131.9778528, 34.2603238], [131.9774889, 34.2609129], [131.977342, 34.2611118], [131.9772151, 34.2612848], [131.9770692, 34.2614657], [131.9769897, 34.2615639], [131.9767603, 34.2618476], [131.9766232, 34.2620467], [131.9763834, 34.2624507], [131.9760073, 34.2631878], [131.9759394, 34.2633634], [131.9759136, 34.2635037], [131.9759101, 34.2636079], [131.9759228, 34.2637048], [131.9759553, 34.2638375], [131.975997, 34.2639557], [131.976265, 34.2646984], [131.9764028, 34.2650634], [131.9764905, 34.2652632], [131.9767418, 34.2657903], [131.9768413, 34.2659718], [131.9774207, 34.2668135], [131.9775343, 34.2669868], [131.977666, 34.2671885], [131.9777532, 34.2673154], [131.9778645, 34.2674424], [131.9780156, 34.2675879], [131.9781465, 34.2677034], [131.978335, 34.267815], [131.9784942, 34.2679007], [131.9788379, 34.2680676], [131.978974, 34.2681431], [131.9791366, 34.2682531], [131.9792148, 34.2683171], [131.979291, 34.2683901], [131.9793367, 34.2684434], [131.9793665, 34.2685199], [131.9793773, 34.2686009], [131.9793727, 34.2686771], [131.9793642, 34.2687201], [131.9793407, 34.2687739], [131.9793054, 34.2688347], [131.9792465, 34.2689088], [131.9788404, 34.2693879], [131.9787595, 34.2694766], [131.9786692, 34.2695556], [131.9782156, 34.2699044], [131.977406, 34.270532], [131.9771936, 34.2707029], [131.9770334, 34.2708724], [131.9765679, 34.2714123], [131.976484, 34.271508], [131.9764062, 34.2716035], [131.9763554, 34.2716916], [131.9762834, 34.2718456], [131.9762312, 34.2719672], [131.9761934, 34.2720725], [131.9761748, 34.2721727], [131.9761475, 34.2723864], [131.976122, 34.2725227], [131.9760796, 34.2726301], [131.9760138, 34.2727538], [131.9759589, 34.2728359], [131.9757373, 34.2730876], [131.9754653, 34.2733754], [131.9749718, 34.2739477], [131.974816, 34.274143], [131.9747528, 34.2742276], [131.9746829, 34.2743653], [131.9746195, 34.2745191], [131.9745622, 34.2746924], [131.9745432, 34.2748178], [131.9745395, 34.2749701], [131.9745657, 34.2755938], [131.9745478, 34.2757824], [131.9745266, 34.2759398], [131.9744878, 34.2760794], [131.974381, 34.276429], [131.974212, 34.276861], [131.9740836, 34.2772048], [131.9740139, 34.277375], [131.9738892, 34.2775824], [131.9736927, 34.2778306], [131.9736092, 34.2779134], [131.973511, 34.278011], [131.9732762, 34.2782464], [131.9731867, 34.2783344], [131.9729946, 34.2785233], [131.9728504, 34.2786403], [131.9726936, 34.2787341], [131.9725252, 34.2788031], [131.9722457, 34.278884], [131.9717777, 34.279024], [131.9716971, 34.2790448], [131.9716305, 34.2790552], [131.9715408, 34.2790574], [131.9709475, 34.2790763], [131.9707645, 34.2790915], [131.9707064, 34.2791004], [131.9706042, 34.2791161], [131.9699631, 34.2792303], [131.9699221, 34.2792375], [131.9693731, 34.2793333], [131.96902, 34.2793855], [131.9690064, 34.2793878], [131.9688675, 34.2794122], [131.9685459, 34.2794685], [131.9681818, 34.2795472], [131.9680223, 34.2795831], [131.9678395, 34.2796243], [131.9676432, 34.2796753], [131.9671317, 34.2798139], [131.9669647, 34.279852], [131.9668141, 34.279912], [131.9665774, 34.28001], [131.9664401, 34.2800884], [131.9662855, 34.2802308], [131.9661952, 34.2803128], [131.9656974, 34.2808565], [131.9654592, 34.2811272], [131.965355, 34.281277], [131.965213, 34.281563], [131.965063, 34.281985], [131.964961, 34.282323], [131.9645563, 34.2839007], [131.9644619, 34.2841038], [131.9643531, 34.2843202], [131.9641153, 34.2845499], [131.9639056, 34.2846753], [131.9636873, 34.2847773], [131.9634597, 34.2848561], [131.9632498, 34.28495], [131.9631058, 34.285049], [131.963001, 34.2851827], [131.9626797, 34.2857347], [131.9622636, 34.286376], [131.9618606, 34.28685], [131.9616498, 34.2871114], [131.961397, 34.2873613], [131.9611413, 34.2875129], [131.9608671, 34.2876224], [131.9606557, 34.2876653], [131.9604061, 34.2876896], [131.9601615, 34.2876843], [131.9591873, 34.2876385], [131.958247, 34.2876009], [131.9579868, 34.2876204], [131.9577885, 34.287657], [131.957623, 34.2877206], [131.9572196, 34.2879225], [131.9570358, 34.2879892], [131.9568143, 34.2880175], [131.9566254, 34.2879996], [131.9564728, 34.2879537], [131.956319, 34.287899], [131.955983, 34.287744], [131.9557946, 34.2877009], [131.9556124, 34.2876825], [131.9554714, 34.2876886], [131.9552944, 34.2877201], [131.9551467, 34.2877728], [131.9546091, 34.2880675], [131.9544259, 34.2881523], [131.9542367, 34.2882145], [131.9527228, 34.2885136], [131.9525726, 34.2885508], [131.9524435, 34.2886188], [131.9523512, 34.2887067], [131.9522905, 34.2887954], [131.9522315, 34.2889008], [131.9522221, 34.2890123], [131.9522258, 34.2891358], [131.9522646, 34.2893031], [131.952299, 34.289487], [131.952368, 34.289678], [131.952467, 34.290212], [131.9524902, 34.2903512], [131.9524485, 34.2905063], [131.9523817, 34.2906166], [131.9522948, 34.2907096], [131.952178, 34.2907806], [131.9520322, 34.2908186], [131.9518242, 34.2908484], [131.9514765, 34.2909006], [131.9512698, 34.290962], [131.9509432, 34.2911604], [131.9506592, 34.2913972], [131.950535, 34.291511], [131.950485, 34.291595], [131.950441, 34.291708], [131.9502112, 34.2921847], [131.9501154, 34.2923203], [131.9500035, 34.292433], [131.9498414, 34.2925368], [131.9496184, 34.2926246], [131.9494315, 34.2926756], [131.9485342, 34.2929657], [131.9483352, 34.2930285], [131.9478024, 34.2932065], [131.947669, 34.293271], [131.9475463, 34.2933474], [131.9474499, 34.2934189], [131.9473613, 34.2935004], [131.9472707, 34.2936029], [131.9470219, 34.2939411], [131.9469336, 34.2940511], [131.9468577, 34.2941332], [131.9467693, 34.2942256], [131.946299, 34.2946111], [131.9461466, 34.294745], [131.945579, 34.2952205], [131.9454746, 34.2953125], [131.9452948, 34.2955143], [131.9452095, 34.2956425], [131.9451358, 34.2957548], [131.9449356, 34.2961717], [131.9448592, 34.2962853], [131.9447534, 34.2964123], [131.9446183, 34.2965358], [131.9444832, 34.2966243], [131.9443354, 34.2967009], [131.9441756, 34.2967612], [131.9436336, 34.2969171], [131.9434405, 34.2969742], [131.9432466, 34.2970435], [131.9430541, 34.2971714], [131.9429536, 34.2972624], [131.9428641, 34.2973664], [131.9428021, 34.2974736], [131.942532, 34.29824], [131.9424906, 34.2983708], [131.9424716, 34.2985071], [131.9424591, 34.298702], [131.9424426, 34.2991482], [131.9424238, 34.2993138], [131.942357, 34.299683], [131.9421991, 34.3003597], [131.9421767, 34.3004568], [131.9421429, 34.3006029], [131.9420955, 34.300803], [131.9420412, 34.300917], [131.9419488, 34.301019], [131.9415702, 34.301325], [131.9410758, 34.3017133], [131.9409594, 34.3018239], [131.9408773, 34.3019325], [131.9408083, 34.3020545], [131.9407501, 34.3022022], [131.9407304, 34.3024722], [131.9407104, 34.3029242], [131.9407519, 34.303254], [131.940953, 34.3038], [131.941094, 34.304217], [131.9411115, 34.304388], [131.941136, 34.304611], [131.9411181, 34.3048033], [131.9410676, 34.3050675], [131.941014, 34.30527], [131.9405842, 34.3070199], [131.9405, 34.3074602], [131.9404808, 34.3079725], [131.94047, 34.3086268], [131.940471, 34.3088714], [131.9405092, 34.3090487], [131.9405619, 34.3091854], [131.9406184, 34.3092821], [131.9407787, 34.3095278], [131.940927, 34.3097168], [131.9410752, 34.3099713], [131.941171, 34.3102458], [131.941244, 34.310507], [131.941271, 34.310732], [131.9412679, 34.3111099], [131.9412426, 34.3114381], [131.9412102, 34.3119615], [131.9411791, 34.3123648], [131.9412191, 34.312551], [131.9413174, 34.3127782], [131.941531, 34.313063], [131.9416632, 34.3132593], [131.9417503, 34.3134618], [131.9418, 34.313631], [131.9418158, 34.3137178], [131.9417956, 34.3138874], [131.941711, 34.3140779], [131.9416609, 34.3141522], [131.9414989, 34.3143927], [131.941133, 34.3149989], [131.9405501, 34.3159465], [131.940459, 34.3161564], [131.9404172, 34.3163018], [131.94039, 34.316509], [131.9404127, 34.316737], [131.9404735, 34.31692], [131.9406975, 34.317319], [131.9407752, 34.317469], [131.9408809, 34.3177774], [131.9409102, 34.3180293], [131.9409015, 34.3182266], [131.9408929, 34.3183722], [131.940822, 34.3187115], [131.9407606, 34.3189219], [131.9406855, 34.3191367], [131.940538, 34.3194472], [131.9404642, 34.3195782], [131.9403146, 34.319824], [131.9401172, 34.3200941], [131.9394734, 34.3208943], [131.9394137, 34.3209888], [131.9393494, 34.3211513], [131.9392832, 34.321484], [131.9390419, 34.3227217], [131.9389885, 34.3229972], [131.938972, 34.323147], [131.9389922, 34.3233246], [131.9390475, 34.3235326], [131.939218, 34.3237894], [131.9393609, 34.3239673], [131.939542, 34.3242126], [131.9399433, 34.3247691], [131.9401259, 34.3250223], [131.9413322, 34.3266952], [131.9416751, 34.3271949], [131.9425689, 34.328528], [131.9428287, 34.32896], [131.943034, 34.329437], [131.9434064, 34.3304115], [131.9435603, 34.3307345], [131.9437434, 34.331119], [131.9438619, 34.3313759], [131.9441066, 34.3318205], [131.9442526, 34.3320876], [131.944458, 34.332418], [131.9448671, 34.3330858], [131.9449093, 34.3331548], [131.9449454, 34.3332137], [131.9451459, 34.3335535], [131.9452428, 34.3338029], [131.9453835, 34.33416], [131.9454725, 34.3344538], [131.9455237, 34.3348136], [131.945503, 34.3350448], [131.9454606, 34.3352534], [131.9453981, 34.3355006], [131.9453557, 34.3357351], [131.9452813, 34.3360587], [131.9452146, 34.3366543], [131.9452098, 34.3368138], [131.9452003, 34.3371211], [131.9452495, 34.3379074], [131.9452258, 34.3381721], [131.945195, 34.3383219], [131.9451231, 34.3384903], [131.9449602, 34.3387458], [131.9431491, 34.340874], [131.9430713, 34.3409868], [131.9430255, 34.3410798], [131.9429914, 34.3411932], [131.9429735, 34.3413119], [131.9429811, 34.3414301], [131.9430216, 34.3415712], [131.9430814, 34.3416948], [131.9431656, 34.3418068], [131.9432767, 34.3419047], [131.943456, 34.3420161], [131.9435934, 34.3420847], [131.9442296, 34.342391], [131.9446081, 34.3425895], [131.9449698, 34.3428146], [131.9455403, 34.3431914], [131.9468788, 34.3440704], [131.9473244, 34.344352], [131.9475167, 34.3444613], [131.9478064, 34.3446085], [131.9479609, 34.3447107], [131.9480374, 34.3447881], [131.9481096, 34.3448727], [131.9481552, 34.344981], [131.9481938, 34.3451211], [131.9482173, 34.3453102], [131.9482228, 34.3454792], [131.9482502, 34.3458603], [131.9482574, 34.3460968], [131.9482266, 34.3463739], [131.9481143, 34.3469565], [131.9480089, 34.3475553], [131.9479738, 34.3477226], [131.9479339, 34.3478405], [131.9478981, 34.3479166], [131.947876, 34.3479598], [131.9478582, 34.3479863], [131.947798, 34.348059], [131.9477057, 34.348143], [131.9469918, 34.348702], [131.9464233, 34.349157], [131.9461561, 34.3493672], [131.9460591, 34.3494327], [131.9459012, 34.3495361], [131.9456787, 34.3496545], [131.9453363, 34.3498253], [131.944537, 34.3502122], [131.9428578, 34.3510293], [131.9422602, 34.3513226], [131.9414161, 34.3517316], [131.9411034, 34.3518817], [131.9403419, 34.3522494], [131.939853, 34.3524669], [131.9394923, 34.3523949], [131.9379505, 34.3520643], [131.9371721, 34.3518918], [131.9365285, 34.3518182], [131.9355558, 34.3517216], [131.9353555, 34.3517076], [131.9350343, 34.3516867], [131.933884, 34.351586], [131.9333766, 34.3515454], [131.9322381, 34.3514451], [131.93057, 34.3512598], [131.9302341, 34.351241], [131.9300732, 34.3512482], [131.9299314, 34.3512741], [131.9297249, 34.3513548], [131.9295509, 34.3514846], [131.9293602, 34.351646], [131.9292701, 34.3517146], [131.9290721, 34.3518714], [131.9288537, 34.3520124], [131.928623, 34.352087], [131.928446, 34.352115], [131.928127, 34.352143], [131.927462, 34.352216], [131.927217, 34.352211], [131.927041, 34.352183], [131.926729, 34.352081], [131.926301, 34.351924], [131.925981, 34.351834], [131.925799, 34.351817], [131.925438, 34.351822], [131.924725, 34.351884], [131.92423, 34.351924], [131.923972, 34.351946], [131.923918, 34.351952], [131.923077, 34.352019], [131.9229, 34.352053], [131.92271, 34.352115], [131.922541, 34.352188], [131.922513, 34.352199], [131.922296, 34.352329], [131.922059, 34.352532], [131.921796, 34.352773], [131.921481, 34.353067], [131.9214, 34.353162], [131.921305, 34.353265], [131.921217, 34.353444], [131.921074, 34.353771], [131.920932, 34.354216], [131.920871, 34.354542], [131.920857, 34.354598], [131.920796, 34.354812], [131.920769, 34.354964], [131.920701, 34.355234], [131.920504, 34.356011], [131.920429, 34.356197], [131.920266, 34.356518], [131.920165, 34.356703], [131.919716, 34.357605], [131.919628, 34.357775], [131.919554, 34.357925], [131.919262, 34.358461], [131.918956, 34.358957], [131.918834, 34.359109], [131.91882, 34.359143], [131.918176, 34.359874], [131.918128, 34.359914], [131.918088, 34.359965], [131.918019, 34.360027], [131.917999, 34.36006], [131.917605, 34.360455], [131.917232, 34.360899], [131.91719, 34.360945], [131.917095, 34.361069], [131.916859, 34.361434], [131.91679, 34.361581], [131.916682, 34.361862], [131.9166, 34.36229], [131.91656, 34.363152], [131.916567, 34.363912], [131.916587, 34.364131], [131.916647, 34.364305], [131.916689, 34.364384], [131.916954, 34.364936], [131.917095, 34.365235], [131.917538, 34.366175], [131.917612, 34.366377], [131.917762, 34.367004], [131.917993, 34.367831], [131.918067, 34.368068], [131.918101, 34.368203], [131.918237, 34.368653], [131.918284, 34.368818], [131.918325, 34.368963], [131.91861, 34.369949], [131.9188259, 34.3706809], [131.9189478, 34.3711231], [131.918982, 34.3712815], [131.918991, 34.3714262], [131.9189874, 34.371593], [131.9189731, 34.3717263], [131.9189409, 34.3718519], [131.9189063, 34.3719573], [131.9188643, 34.3720809], [131.9187747, 34.3722838], [131.9185093, 34.3728186], [131.9184784, 34.372877], [131.9180847, 34.3736101], [131.917809, 34.374048], [131.917619, 34.374335], [131.9173825, 34.3746455], [131.9172592, 34.3747988], [131.9168664, 34.375155], [131.9165634, 34.3754137], [131.9164225, 34.375534], [131.9162586, 34.3756947], [131.9162092, 34.3757365], [131.9157266, 34.3761634], [131.915638, 34.3762336], [131.9153027, 34.3765295], [131.915056, 34.3767483], [131.9148398, 34.3769451], [131.9146484, 34.3771022], [131.9144269, 34.3772468], [131.9142577, 34.3773285], [131.9140297, 34.3774018], [131.9138589, 34.3774587], [131.9119164, 34.3779756], [131.911633, 34.3780794], [131.9113645, 34.3782313], [131.9105561, 34.3788927], [131.910014, 34.379298], [131.9098096, 34.3794584], [131.9096456, 34.3795563], [131.9094074, 34.3796881], [131.907885, 34.380135], [131.907517, 34.380235], [131.9073, 34.380275], [131.906987, 34.38028], [131.906716, 34.380235], [131.906478, 34.38018], [131.906051, 34.38009], [131.905684, 34.380038], [131.905372, 34.380038], [131.905203, 34.380062], [131.904973, 34.380123], [131.904653, 34.380252], [131.904444, 34.380363], [131.90409, 34.380545], [131.903913, 34.380648], [131.903832, 34.380698], [131.90373, 34.380783], [131.903588, 34.380974], [131.903466, 34.381239], [131.903398, 34.381503], [131.903262, 34.382089], [131.90314, 34.382478], [131.903031, 34.382708], [131.902929, 34.382889], [131.90278, 34.383108], [131.902629, 34.383274], [131.902223, 34.38362], [131.901877, 34.383879], [131.90166, 34.38402], [131.901361, 34.384189], [131.9010145, 34.3843668], [131.9004819, 34.3845508], [131.9000997, 34.3846808], [131.8997682, 34.3847845], [131.8994646, 34.3848767], [131.8986759, 34.3850946], [131.8977848, 34.3853421], [131.8973434, 34.3854574], [131.896946, 34.3855739], [131.8967258, 34.3856366], [131.895841, 34.385898], [131.8955042, 34.3860048], [131.895074, 34.3861275], [131.8946108, 34.3862661], [131.8939231, 34.3864434], [131.8933748, 34.3865564], [131.8926052, 34.38668], [131.8921406, 34.3867467], [131.8910964, 34.3868802], [131.890695, 34.38692], [131.8899645, 34.3869965], [131.889439, 34.387111], [131.889174, 34.387173], [131.8884394, 34.3874525], [131.8880739, 34.3876449], [131.8879007, 34.3877379], [131.8876374, 34.3878794], [131.8865146, 34.3884867], [131.8861085, 34.3886902], [131.8854212, 34.3890861], [131.8850382, 34.3892905], [131.8847864, 34.3894323], [131.8842509, 34.3897269], [131.8838271, 34.3899687], [131.8836518, 34.3900701], [131.8834767, 34.390164], [131.8831048, 34.3903936], [131.8829062, 34.3905581], [131.8826668, 34.390832], [131.8825605, 34.390991], [131.882361, 34.3913842], [131.882189, 34.3916551], [131.8819008, 34.3921086], [131.8817852, 34.3923105], [131.8817177, 34.3924323], [131.8816384, 34.3926366], [131.8815632, 34.3929139], [131.8815465, 34.3931245], [131.881546, 34.3932525], [131.8815557, 34.3934678], [131.8816131, 34.3938521], [131.8817312, 34.3947825], [131.8817799, 34.3951101], [131.8818291, 34.3954028], [131.8819328, 34.3958801], [131.8819889, 34.3960565], [131.8820548, 34.3962259], [131.8821112, 34.3963345], [131.8821932, 34.3964641], [131.8823293, 34.3966268], [131.882508, 34.3968009], [131.8833869, 34.3974638], [131.8835989, 34.3976194], [131.8838258, 34.3977935], [131.883927, 34.397877], [131.884389, 34.39822], [131.885821, 34.39928], [131.8860313, 34.3994366], [131.886283, 34.399623], [131.886493, 34.399775], [131.887403, 34.400462], [131.8886725, 34.4014113], [131.889399, 34.401938], [131.8903567, 34.4026384], [131.890722, 34.402934], [131.890914, 34.403086], [131.8912721, 34.4033386], [131.8914628, 34.4034861], [131.8916053, 34.4036227], [131.8918108, 34.4038457], [131.8920068, 34.4041204], [131.8921334, 34.4043194], [131.8924004, 34.4047221], [131.8925778, 34.4049943], [131.8928134, 34.4054142], [131.8929084, 34.4056037], [131.8929731, 34.4057991], [131.8930216, 34.4060089], [131.8930308, 34.4062556], [131.8930157, 34.4064556], [131.8929833, 34.4066021], [131.8929253, 34.4067765], [131.8927694, 34.407321], [131.8926766, 34.4076374], [131.892554, 34.4078706], [131.8923794, 34.4080957], [131.8922254, 34.4082277], [131.8921481, 34.4082819], [131.8919399, 34.4084078], [131.8916966, 34.4085016], [131.8910516, 34.4086431], [131.8906638, 34.408731], [131.8902164, 34.4088255], [131.8897113, 34.4089412], [131.8895217, 34.4089811], [131.8890292, 34.409097], [131.888521, 34.409162], [131.887544, 34.409393], [131.887286, 34.409466], [131.88713, 34.409545], [131.886946, 34.40968], [131.886817, 34.40981], [131.88675, 34.4099], [131.88668, 34.410044], [131.886547, 34.410315], [131.886213, 34.41101], [131.886098, 34.411264], [131.886063, 34.411386], [131.886045, 34.411517], [131.886035, 34.411653], [131.886045, 34.411789], [131.886072, 34.411928], [131.8861, 34.412023], [131.886147, 34.412145], [131.886322, 34.412523], [131.886852, 34.413532], [131.887103, 34.41392], [131.887314, 34.414157], [131.887904, 34.414664], [131.888142, 34.414839], [131.888542, 34.415148], [131.889147, 34.415632], [131.889703, 34.415959], [131.89009, 34.416184], [131.890348, 34.416398], [131.890545, 34.416607], [131.890946, 34.417132], [131.891203, 34.417457], [131.891427, 34.417693], [131.891828, 34.418037], [131.891991, 34.418178], [131.892072, 34.418234], [131.893598, 34.419635], [131.893858, 34.419894], [131.894089, 34.420238], [131.894137, 34.420333], [131.89428, 34.42061], [131.89443, 34.420976], [131.894579, 34.421635], [131.89464, 34.421972], [131.894675, 34.422581], [131.894673, 34.423105], [131.894654, 34.423454], [131.89462, 34.423736], [131.894545, 34.424468], [131.8945207, 34.4248411], [131.894503, 34.424929], [131.89449, 34.425149], [131.894348, 34.426427], [131.894301, 34.426934], [131.894267, 34.427126], [131.894243, 34.4273932], [131.8940809, 34.42828], [131.8935678, 34.4295547], [131.893461, 34.429813], [131.893437, 34.429892], [131.893281, 34.430239], [131.892962, 34.430847], [131.892846, 34.430993], [131.892717, 34.431106], [131.892615, 34.431175], [131.892459, 34.431281], [131.892169, 34.431412], [131.892017, 34.431438], [131.891933, 34.431444], [131.891823, 34.431448], [131.891502, 34.431513], [131.891378, 34.43154], [131.891093, 34.43159], [131.890631, 34.431686], [131.890493, 34.431721], [131.890413, 34.431753], [131.890271, 34.431849], [131.890189, 34.431956], [131.890114, 34.432074], [131.890026, 34.432243], [131.889836, 34.432666], [131.8895139, 34.433538], [131.8892968, 34.4342259], [131.8892409, 34.4344038], [131.8889612, 34.4351684], [131.8888493, 34.4353925], [131.8886536, 34.4356183], [131.888494, 34.4357732], [131.8883539, 34.4358868], [131.888202, 34.4359856], [131.8880342, 34.4360845], [131.8876826, 34.4362493], [131.887466, 34.4363237], [131.887045, 34.4365097], [131.886875, 34.4365657], [131.886658, 34.4366167], [131.886399, 34.4366557], [131.8861, 34.4366617], [131.885485, 34.436614], [131.885207, 34.436598], [131.884895, 34.436564], [131.884547, 34.436502], [131.884248, 34.436445], [131.882937, 34.43608], [131.88274, 34.435978], [131.882583, 34.43586], [131.882455, 34.435719], [131.882264, 34.435545], [131.881924, 34.435314], [131.881634, 34.435088], [131.881469, 34.434959], [131.881265, 34.434813], [131.881116, 34.434734], [131.880756, 34.43462], [131.8806, 34.434593], [131.880383, 34.434565], [131.880118, 34.434558], [131.8798992, 34.4345422], [131.8795076, 34.4345422], [131.879153, 34.434637], [131.878983, 34.434693], [131.878813, 34.43479], [131.878609, 34.434959], [131.878201, 34.435314], [131.877451, 34.435991], [131.877101, 34.436299], [131.876883, 34.436406], [131.876346, 34.436553], [131.876074, 34.436643], [131.875374, 34.436902], [131.875103, 34.436986], [131.87496, 34.437014], [131.874831, 34.437026], [131.874464, 34.437031], [131.8739937, 34.4370006], [131.8731786, 34.4368161], [131.8729388, 34.4367568], [131.8726192, 34.4366777], [131.8725313, 34.4366645], [131.8722832, 34.4366099], [131.8720518, 34.436559], [131.8717721, 34.4365195], [131.8713965, 34.4365063], [131.8710769, 34.4365261], [131.8708291, 34.436592], [131.8703337, 34.4367568], [131.869657, 34.437011], [131.8691036, 34.437188], [131.8689346, 34.437252], [131.8688136, 34.437306], [131.8687836, 34.437325], [131.8686886, 34.437404], [131.8685866, 34.437522], [131.8684986, 34.437663], [131.8684376, 34.43795], [131.8685144, 34.4387617], [131.8685236, 34.4388367], [131.8686073, 34.4395163], [131.8686219, 34.4396347], [131.8686785, 34.4401855], [131.8686785, 34.4404983], [131.8686163, 34.4407924], [131.8685653, 34.4409371], [131.8684719, 34.4411025], [131.8684259, 34.4411594], [131.8681351, 34.4414366], [131.8678974, 34.441614], [131.8677647, 34.4417397], [131.8676718, 34.4418255], [131.8675843, 34.4419143], [131.8674955, 34.4420342], [131.8673879, 34.4422162], [131.8672577, 34.442529], [131.8671976, 34.442707], [131.8669866, 34.443267], [131.8669256, 34.443413], [131.8668846, 34.443542], [131.8668916, 34.443757], [131.8669526, 34.443976], [131.8670313, 34.4441162], [131.8671389, 34.4442375], [131.8672691, 34.4443589], [131.8673702, 34.444413], [131.8675262, 34.444492], [131.8677362, 34.444548], [131.8678592, 34.444565], [131.8683142, 34.444558], [131.8689785, 34.4445176], [131.8697087, 34.4444896], [131.8698446, 34.4444803], [131.8699408, 34.4444756], [131.8700427, 34.4444896], [131.8701842, 34.4445223], [131.870354, 34.4445923], [131.8704956, 34.444681], [131.8706144, 34.4448024], [131.8706937, 34.4449611], [131.8707276, 34.4451105], [131.870705, 34.4452505], [131.8706484, 34.4453672], [131.8705408, 34.4455539], [131.8704446, 34.4456753], [131.870339, 34.445829], [131.87023, 34.445964], [131.870189, 34.446015], [131.8697937, 34.4464642], [131.869666, 34.446735], [131.869611, 34.446842], [131.869611, 34.44696], [131.8696106, 34.4471547], [131.8696273, 34.4473063], [131.8697109, 34.4477141], [131.8697944, 34.4481026], [131.8698813, 34.4485077], [131.8699347, 34.4487667], [131.8699682, 34.4489486], [131.8699915, 34.4491359], [131.8699882, 34.4492489], [131.8699682, 34.4494583], [131.8699648, 34.4495245], [131.8698913, 34.4498055], [131.8698545, 34.4499709], [131.869767, 34.450318], [131.8697242, 34.4505109], [131.8697008, 34.4505936], [131.8696574, 34.4507424], [131.8695805, 34.4508829], [131.8694402, 34.4510868], [131.8692664, 34.4512824], [131.8691194, 34.451456], [131.8688488, 34.4517619], [131.8687184, 34.4519107], [131.868558, 34.452041], [131.8684077, 34.4521311], [131.8681805, 34.4521917], [131.8680234, 34.4522083], [131.8678597, 34.4521917], [131.8677227, 34.4521614], [131.8675924, 34.4521146], [131.8674754, 34.452054], [131.8672315, 34.4518776], [131.8670845, 34.4517674], [131.8669241, 34.4516517], [131.866866, 34.451601], [131.8667336, 34.4515001], [131.8665442, 34.4513684], [131.8663426, 34.4512494], [131.866214, 34.4511896], [131.8660686, 34.4511336], [131.8659016, 34.4510813], [131.8657178, 34.45104], [131.8654471, 34.4509959], [131.8649994, 34.4509215], [131.8646452, 34.4508801], [131.8645249, 34.4508719], [131.8643979, 34.4508774], [131.8642843, 34.4508967], [131.8641473, 34.4509435], [131.8639902, 34.4510152], [131.8638298, 34.4511033], [131.8636928, 34.4511943], [131.8633821, 34.4513761], [131.8632284, 34.4514671], [131.862931, 34.4516462], [131.862804, 34.4517371], [131.8626904, 34.451817], [131.8625768, 34.45193], [131.8625267, 34.4520071], [131.8624966, 34.452087], [131.8624465, 34.4524011], [131.8624431, 34.4526408], [131.8624598, 34.4527263], [131.8625868, 34.4531671], [131.862726, 34.453623], [131.862807, 34.453882], [131.86289, 34.454096], [131.8629349, 34.4541889], [131.8631161, 34.4545636], [131.8631228, 34.4545776], [131.8632689, 34.4548798], [131.8633933, 34.4551371], [131.863459, 34.4552728], [131.863683, 34.4557558], [131.863737, 34.4558518], [131.863853, 34.4561048], [131.863968, 34.4563528], [131.864002, 34.4564088], [131.8643222, 34.4571235], [131.86448, 34.457401], [131.8646686, 34.4576218], [131.8648676, 34.4577797], [131.8650371, 34.4578891], [131.8651999, 34.4579668], [131.8653908, 34.4580258], [131.8656045, 34.4580775], [131.8658648, 34.4581211], [131.866062, 34.4581679], [131.8662424, 34.4582258], [131.8664863, 34.4583305], [131.8667637, 34.458482], [131.8672849, 34.4587768], [131.8674988, 34.4589063], [131.8676057, 34.458978], [131.8676827, 34.4590436], [131.8677859, 34.4591652], [131.8679031, 34.4593361], [131.8681838, 34.4599733], [131.8682428, 34.460107], [131.8684197, 34.4605202], [131.8684712, 34.460666], [131.8685302, 34.4610792], [131.8685302, 34.4612797], [131.8685449, 34.4615106], [131.8685744, 34.4622701], [131.8686481, 34.4625496], [131.8687439, 34.462817], [131.8688913, 34.4632484], [131.869013, 34.463647], [131.8690903, 34.4638742], [131.8692156, 34.4641051], [131.869304, 34.4642266], [131.869454, 34.464333], [131.869671, 34.464474], [131.869902, 34.464604], [131.8700041, 34.4646519], [131.8702252, 34.4647613], [131.8711316, 34.4652291], [131.871279, 34.4653081], [131.8714927, 34.4654236], [131.8716622, 34.4655937], [131.8717654, 34.4658064], [131.8717359, 34.4661162], [131.8717064, 34.4662438], [131.871478, 34.4670033], [131.870999, 34.4686012], [131.8709842, 34.4686741], [131.8709253, 34.4688503], [131.8708442, 34.4691116], [131.8705863, 34.4699075], [131.8705642, 34.4699804], [131.8704905, 34.4701626], [131.8704463, 34.4702902], [131.8703283, 34.4705636], [131.8702768, 34.4707459], [131.8702623, 34.4710519], [131.8703433, 34.4712999], [131.8704453, 34.4714799], [131.8705483, 34.4716039], [131.8706153, 34.4716659], [131.8706973, 34.4717169], [131.8708251, 34.4718066], [131.8711195, 34.4719886], [131.8713198, 34.4720939], [131.8717138, 34.4723139], [131.8719805, 34.472474], [131.872194, 34.4726074], [131.872377, 34.472726], [131.872526, 34.472833], [131.8735482, 34.4736086], [131.8739104, 34.4739079], [131.874088, 34.47406], [131.8742105, 34.4741667], [131.8743283, 34.4743063], [131.8743945, 34.4744276], [131.8744534, 34.4745732], [131.8744902, 34.4747189], [131.8745417, 34.4758352], [131.8745491, 34.475993], [131.8745712, 34.4766967], [131.8745565, 34.4768484], [131.8745298, 34.4770101], [131.8745138, 34.4770981], [131.8744387, 34.4772852], [131.8743283, 34.4774855], [131.8741075, 34.4778373], [131.8740118, 34.477989], [131.8738867, 34.478171], [131.873769, 34.4783591], [131.8734525, 34.4787898], [131.8728048, 34.4796574], [131.872658, 34.479857], [131.8725325, 34.4800275], [131.8723633, 34.4802095], [131.8721572, 34.4803551], [131.8720026, 34.4804218], [131.8718611, 34.4804617], [131.8717661, 34.4804787], [131.8715463, 34.4804825], [131.8708398, 34.4803672], [131.8706632, 34.4803369], [131.8703835, 34.4803066], [131.8702068, 34.4803005], [131.8700302, 34.4803066], [131.8698536, 34.4803248], [131.8697137, 34.4803551], [131.8690293, 34.4805492], [131.8685454, 34.48073], [131.8683091, 34.4808113], [131.8681318, 34.4808724], [131.8679173, 34.4809462], [131.8677487, 34.4810042], [131.8671774, 34.4811687], [131.866967, 34.4812293], [131.8668214, 34.4812712], [131.8666006, 34.481344], [131.8661075, 34.4815199], [131.8648342, 34.4821084], [131.8646944, 34.4821751], [131.864584, 34.482254], [131.8644736, 34.4823389], [131.8644147, 34.4824238], [131.8643853, 34.4825391], [131.8643927, 34.4826362], [131.864481, 34.4828606], [131.8645648, 34.4830236], [131.8646064, 34.48308], [131.8653003, 34.484017], [131.8654213, 34.484242], [131.8655233, 34.484551], [131.8655948, 34.484757], [131.8656743, 34.4850118], [131.8657114, 34.4851285], [131.866037, 34.4860689], [131.8663236, 34.486652], [131.8667386, 34.487401], [131.8668197, 34.487535], [131.8668436, 34.4875745], [131.866994, 34.487823], [131.8675266, 34.4884427], [131.8677076, 34.4886595], [131.8679795, 34.4889384], [131.8680377, 34.489001], [131.8681251, 34.489099], [131.8685488, 34.4895973], [131.8686521, 34.4896936], [131.8688292, 34.4898396], [131.8690158, 34.4899655], [131.8693149, 34.4902076], [131.8694689, 34.4903253], [131.8695725, 34.4903869], [131.8697694, 34.4904923], [131.8702639, 34.490753], [131.8705996, 34.4909331], [131.8707489, 34.4910308], [131.8708424, 34.4910958], [131.8709718, 34.4912118], [131.8710972, 34.4913528], [131.8711976, 34.49152], [131.8712658, 34.491667], [131.8712997, 34.4918004], [131.8713119, 34.4919601], [131.8712925, 34.4921112], [131.8712601, 34.4922342], [131.8712106, 34.4923575], [131.8711485, 34.4924605], [131.871048, 34.4926054], [131.8708801, 34.4927862], [131.8705909, 34.493053], [131.8702172, 34.4933647], [131.8695183, 34.4939175], [131.8691156, 34.4942599], [131.8685301, 34.4947409], [131.8683587, 34.4948926], [131.8682207, 34.4950589], [131.8681122, 34.4952438], [131.8680237, 34.4954576], [131.8679844, 34.4957147], [131.8679922, 34.4959193], [131.86803, 34.4961232], [131.8681452, 34.496639], [131.8681532, 34.4967525], [131.86815, 34.4968343], [131.8681244, 34.4969699], [131.8680724, 34.4970905], [131.8680012, 34.4971993], [131.8679161, 34.4973192], [131.8677733, 34.4974696], [131.8676082, 34.4976221], [131.8670247, 34.4981068], [131.8666484, 34.4984473], [131.8661984, 34.4988972], [131.8658812, 34.4992134], [131.8656009, 34.4996025], [131.8651469, 34.5002232], [131.8648068, 34.5007587], [131.8644742, 34.5012611], [131.8642536, 34.5015822], [131.8639559, 34.5019668], [131.8637228, 34.5022708], [131.8635458, 34.5025322], [131.8632487, 34.5029931], [131.8629769, 34.5034283], [131.8626422, 34.503927], [131.8622484, 34.5044912], [131.861798, 34.5051428], [131.8613777, 34.5057917], [131.8610069, 34.5064272], [131.8606485, 34.5070767], [131.8605333, 34.5073846], [131.8604693, 34.5076208], [131.8604119, 34.5078352], [131.8604045, 34.5080575], [131.8604306, 34.508295], [131.8604812, 34.5085555], [131.8605629, 34.5087914], [131.8607033, 34.5090516], [131.8608767, 34.5092791], [131.8611035, 34.5094965], [131.8613017, 34.5096566], [131.8615924, 34.5098188], [131.8618101, 34.5099192], [131.8620867, 34.5100158], [131.8623881, 34.5100908], [131.8627764, 34.5101745], [131.8631292, 34.5102509], [131.8633496, 34.5103208], [131.863577, 34.5104276], [131.8637574, 34.5105368], [131.8639793, 34.5107066], [131.8642101, 34.5109182], [131.8644064, 34.5111697], [131.8647204, 34.5116105], [131.864975, 34.5118931], [131.86516, 34.5120701], [131.8654286, 34.512275], [131.8656376, 34.5124215], [131.8659042, 34.5125577], [131.8662171, 34.5126691], [131.8665601, 34.5127522], [131.866894, 34.5128066], [131.8671915, 34.5128204], [131.8674991, 34.512816], [131.8678146, 34.5127911], [131.8681691, 34.5127673], [131.8685009, 34.5127623], [131.8687241, 34.5127886], [131.8689461, 34.5128403], [131.8691695, 34.5129146], [131.8693784, 34.5130072], [131.8695769, 34.5131274], [131.8697891, 34.5133091], [131.8699508, 34.513494], [131.8701115, 34.5137199], [131.8703618, 34.5141117], [131.8706268, 34.5145593], [131.8709816, 34.5152884], [131.8713157, 34.5159582], [131.8714876, 34.5163428], [131.8715984, 34.5166604], [131.8717395, 34.5170506], [131.8718312, 34.517252], [131.8718574, 34.5172597], [131.8720487, 34.5175325], [131.8722841, 34.5178175], [131.8723798, 34.5179811], [131.8724473, 34.518127], [131.872492, 34.5182925], [131.8724867, 34.5184943], [131.8724452, 34.5186189], [131.8723874, 34.5187351], [131.8722752, 34.5189051], [131.8721571, 34.5190434], [131.8719785, 34.5192788], [131.8718415, 34.5194859], [131.8717135, 34.5197273], [131.8716071, 34.5199917], [131.8714936, 34.5203462], [131.871295, 34.5210204], [131.8711831, 34.5214218], [131.8711136, 34.521773], [131.8710466, 34.5221458], [131.870991, 34.5226999], [131.8708789, 34.5240211], [131.8708266, 34.5246426], [131.8708259, 34.5246962], [131.8706888, 34.5258323], [131.870558, 34.5266805], [131.8705175, 34.5269043], [131.8704375, 34.5271244], [131.8702935, 34.5273339], [131.8701256, 34.5275009], [131.8699166, 34.5276287], [131.869719, 34.5277178], [131.8694563, 34.5277727], [131.8691874, 34.5277972], [131.8685889, 34.5277755], [131.8682645, 34.5277742], [131.8678927, 34.5278001], [131.8675535, 34.5278534], [131.8670754, 34.527967], [131.8666943, 34.5281039], [131.8664386, 34.5282277], [131.8661754, 34.5284068], [131.8658431, 34.5286939], [131.8655477, 34.5289528], [131.8649959, 34.5293477], [131.8644384, 34.5296262], [131.8638888, 34.5297726], [131.8629622, 34.5298938], [131.8623948, 34.5299958], [131.8620101, 34.5301148], [131.8618814, 34.5301697], [131.8609378, 34.5305704], [131.8608087, 34.5306199], [131.8592687, 34.5312419], [131.8578597, 34.5318359], [131.8567551, 34.532282], [131.8566439, 34.5323279], [131.8564728, 34.5324002], [131.8561791, 34.5325032], [131.8558969, 34.5325731], [131.855711, 34.5325903], [131.8554163, 34.532591], [131.8551432, 34.5325417], [131.854934, 34.532486], [131.8545389, 34.5323432], [131.8539473, 34.5321165], [131.853657, 34.5320364], [131.853361, 34.5319795], [131.8531238, 34.5319425], [131.85276, 34.5319328], [131.8524087, 34.5319859], [131.8520116, 34.5321016], [131.8514373, 34.5323234], [131.8510759, 34.5324676], [131.850579, 34.532681], [131.8499074, 34.5330017], [131.8483892, 34.5336817], [131.8475288, 34.5340773], [131.8467682, 34.5344406], [131.8464086, 34.5346385], [131.846092, 34.5348267], [131.8453361, 34.5353456], [131.8447202, 34.5358091], [131.8445334, 34.5359243], [131.8442984, 34.5360628], [131.8439847, 34.5362065], [131.8433846, 34.5364614], [131.8424105, 34.5368836], [131.8420446, 34.5370605], [131.8416503, 34.5372886], [131.8412975, 34.5375397], [131.8407151, 34.5380169], [131.8403538, 34.5383491], [131.840079, 34.5386666], [131.8398376, 34.5390135], [131.8396309, 34.5393749], [131.8394831, 34.5396867], [131.8393735, 34.5398854], [131.8392658, 34.5399946], [131.839143, 34.5400753], [131.8390454, 34.5401301], [131.8388148, 34.5402083], [131.8386363, 34.5402289], [131.8380498, 34.5402611], [131.8379686, 34.5402668], [131.8375049, 34.5402933], [131.8369313, 34.540324], [131.8368001, 34.5403364], [131.8366101, 34.5403634], [131.8364275, 34.5404033], [131.8361643, 34.5405056], [131.8358493, 34.540704], [131.8351592, 34.5412482], [131.8349061, 34.541445], [131.83452, 34.5417551], [131.8343843, 34.5418935], [131.8343009, 34.5420175], [131.8342337, 34.5421456], [131.8341551, 34.5423733], [131.8339646, 34.5429379], [131.8339068, 34.5430554], [131.8340651, 34.5431876], [131.8342896, 34.5433651], [131.8344443, 34.5435181], [131.8345193, 34.5436437], [131.8345633, 34.5438163], [131.8345444, 34.543979], [131.8344769, 34.544195], [131.8343641, 34.5445855], [131.8343223, 34.5447625], [131.8342803, 34.5449102], [131.8341895, 34.5450597], [131.8339428, 34.5453844], [131.833692, 34.5457136], [131.8335391, 34.5460086], [131.833452, 34.5462604], [131.8333956, 34.5466305], [131.8333943, 34.5467884], [131.8334082, 34.5468982], [131.8334881, 34.54709], [131.8335181, 34.5472042], [131.8335217, 34.5472877], [131.8334833, 34.5474461], [131.833393, 34.5477009], [131.8333156, 34.547857], [131.833232, 34.5480211], [131.8331958, 34.548188], [131.8332038, 34.5483912], [131.8332226, 34.5487447], [131.8332655, 34.5489126], [131.8333809, 34.5492384], [131.8334077, 34.5494361], [131.833389, 34.5499873], [131.8333863, 34.5505982], [131.8333782, 34.5508125], [131.8333326, 34.5509908], [131.8332601, 34.5511196], [131.8331435, 34.5512731], [131.8329933, 34.551399], [131.8328471, 34.5514818], [131.8326312, 34.5515603], [131.8318547, 34.5517878], [131.8314068, 34.5519181], [131.8310756, 34.5519999], [131.8307362, 34.5520484], [131.830417, 34.5520528], [131.8300939, 34.5520253], [131.82978, 34.5519468], [131.8294917, 34.5518297], [131.82921, 34.5516762], [131.8289942, 34.5514917], [131.8288278, 34.5512984], [131.8286722, 34.5510764], [131.8284872, 34.5506865], [131.8283298, 34.5502634], [131.8282915, 34.5501625], [131.8281774, 34.5498614], [131.8279668, 34.549339], [131.8277161, 34.5487712], [131.8274733, 34.5482266], [131.8271515, 34.5474987], [131.8270093, 34.5471927], [131.8268926, 34.5469917], [131.8268041, 34.5468581], [131.8266796, 34.5467363], [131.8264943, 34.5465829], [131.8262641, 34.5464519], [131.8260133, 34.5463569], [131.8256416, 34.5462566], [131.8251747, 34.5461566], [131.8249467, 34.546076], [131.8246691, 34.5459379], [131.8242399, 34.5456374], [131.8238429, 34.5453546], [131.8236069, 34.5451779], [131.8232636, 34.5449128], [131.8228988, 34.5446123], [131.8226199, 34.5443737], [131.8222873, 34.5441528], [131.8219881, 34.5440257], [131.8211943, 34.5436733], [131.8208523, 34.5435673], [131.8205255, 34.5435224], [131.8201549, 34.5435297], [131.819833, 34.5435916], [131.8196144, 34.5436733], [131.8192805, 34.5438291], [131.8189439, 34.5440026], [131.8182854, 34.5443671], [131.8178213, 34.5445946], [131.817293, 34.5449061], [131.8166264, 34.5453568], [131.8159921, 34.5458804], [131.8156837, 34.5461345], [131.815284, 34.5465543], [131.8146792, 34.5473761], [131.8144954, 34.5476135], [131.8141829, 34.5479405], [131.8135164, 34.548569], [131.8132457, 34.5488196], [131.8130725, 34.5489799], [131.8127775, 34.5492495], [131.8124074, 34.549526], [131.8122464, 34.5496306], [131.8118999, 34.5498358], [131.8114297, 34.5501154], [131.8108731, 34.550438], [131.8102224, 34.5508061], [131.8101878, 34.5508246], [131.8099364, 34.5509682], [131.8097512, 34.5510726], [131.8093416, 34.5513294], [131.808844, 34.5516276], [131.8069812, 34.5527532], [131.8062022, 34.5532152], [131.8054309, 34.55365], [131.8045511, 34.554168], [131.804118, 34.554386], [131.803599, 34.5546341], [131.8031014, 34.5548296], [131.8022029, 34.5551897], [131.8018917, 34.5553134], [131.8016772, 34.5554195], [131.8015001, 34.5555442], [131.8012749, 34.5557177], [131.8010858, 34.5558789], [131.8008716, 34.556087], [131.8006713, 34.556334], [131.8005157, 34.5564898], [131.8002999, 34.5566554], [131.8001162, 34.5568343], [131.7999329, 34.5570656], [131.7997594, 34.5573611], [131.7993763, 34.558043], [131.7991666, 34.5585319], [131.7990138, 34.55904], [131.7988608, 34.5597004], [131.798775, 34.5599002], [131.7985918, 34.5602743], [131.798514, 34.5604209], [131.7982927, 34.5608737], [131.7981675, 34.5611991], [131.7980361, 34.5616487], [131.7979692, 34.5618644], [131.7979006, 34.5620727], [131.7977638, 34.5624041], [131.7974835, 34.5629839], [131.7972341, 34.5635471], [131.7970128, 34.5641689], [131.79691, 34.5644498], [131.796817, 34.564657], [131.7966185, 34.5649596], [131.7964174, 34.5651982], [131.7961492, 34.5654423], [131.7957763, 34.5657482], [131.7956998, 34.5658081], [131.7952118, 34.5662043], [131.7949971, 34.5663953], [131.7945143, 34.5668171], [131.7938853, 34.5673594], [131.7936377, 34.5675729], [131.7934736, 34.5677421], [131.7933958, 34.567832], [131.7933234, 34.5679304], [131.793167, 34.5681527], [131.7930431, 34.568403], [131.7926274, 34.5693693], [131.7924745, 34.5696774], [131.7923726, 34.5699038], [131.7923248, 34.5700952], [131.792323, 34.5702815], [131.792394, 34.5705399], [131.7925549, 34.571004], [131.7926404, 34.5712271], [131.7927124, 34.571353], [131.7927865, 34.5714597], [131.7928596, 34.5715616], [131.7930968, 34.5718783], [131.7934213, 34.5722946], [131.7936868, 34.5726501], [131.7939524, 34.5729792], [131.7942823, 34.5733525], [131.7949234, 34.5740658], [131.7955322, 34.5748101], [131.7960713, 34.5755522], [131.7963101, 34.5758834], [131.7964602, 34.5761948], [131.7965394, 34.5764311], [131.7965756, 34.5766785], [131.7965707, 34.5769174], [131.7965341, 34.5771312], [131.7964898, 34.5772626], [131.7963839, 34.5774912], [131.796318, 34.5776066], [131.7961854, 34.577839], [131.7958581, 34.5784098], [131.7954946, 34.5790271], [131.7952305, 34.5794776], [131.7950092, 34.5798541], [131.7948421, 34.5801456], [131.7946002, 34.5805752], [131.7943708, 34.5809694], [131.7940771, 34.5814596], [131.7937754, 34.5818781], [131.793602, 34.5820868], [131.7932149, 34.5825254], [131.7929363, 34.5828413], [131.7927735, 34.5830893], [131.7924456, 34.5837599], [131.7923706, 34.5839589], [131.7923045, 34.5842129], [131.7922741, 34.5843933], [131.792273, 34.5845979], [131.7922975, 34.5850569], [131.7924026, 34.5854028], [131.7925898, 34.5856995], [131.792901, 34.5860218], [131.7932202, 34.5862714], [131.7934486, 34.5864021], [131.7936954, 34.5864838], [131.7941133, 34.5866037], [131.7945331, 34.5867516], [131.7948683, 34.5869096], [131.7957012, 34.5873556], [131.7963878, 34.5876912], [131.7969779, 34.5880004], [131.797248, 34.588225], [131.797992, 34.58897], [131.7987375, 34.5897492], [131.7995043, 34.5905755], [131.7999927, 34.5911006], [131.8004755, 34.5915687], [131.8006928, 34.5918623], [131.8009782, 34.5922754], [131.801189, 34.5926484], [131.801366, 34.5929553], [131.8014814, 34.5933284], [131.8015108, 34.5936177], [131.8015216, 34.5943044], [131.8015511, 34.5947195], [131.8016825, 34.5956689], [131.8017898, 34.5965686], [131.8018033, 34.5968568], [131.8017742, 34.5972027], [131.8016812, 34.5977808], [131.8016584, 34.5980921], [131.8016464, 34.5992644], [131.8016294, 34.5995386], [131.8015779, 34.5997678], [131.8014747, 34.6000328], [131.8011555, 34.6006289], [131.8008296, 34.601257], [131.8004259, 34.6019999], [131.8000957, 34.6026448], [131.7998345, 34.6031557], [131.7993986, 34.6040123], [131.7990349, 34.6047316], [131.7988019, 34.6051857], [131.7984843, 34.6058138], [131.7983834, 34.6060124], [131.7983164, 34.6061879], [131.7982882, 34.6063326], [131.7983204, 34.6064628], [131.7984625, 34.6066648], [131.7994926, 34.6076428], [131.7995716, 34.6077146], [131.7996821, 34.6078739], [131.7997607, 34.6080832], [131.7997755, 34.6083173], [131.7997084, 34.6087455], [131.7996521, 34.6091781], [131.7996253, 34.6096307], [131.7996521, 34.609983], [131.7996923, 34.610229], [131.799762, 34.61058], [131.7998774, 34.6109298], [131.800054, 34.6114364], [131.8004433, 34.6126043], [131.8007598, 34.6135072], [131.8009276, 34.6140405], [131.8010503, 34.6144708], [131.8012427, 34.6152377], [131.8013553, 34.6156406], [131.8014934, 34.6161417], [131.8016414, 34.6165405], [131.8017791, 34.6168006], [131.8020031, 34.617114], [131.8021832, 34.6173286], [131.8023692, 34.6175047], [131.8029914, 34.6180809], [131.8036888, 34.6187232], [131.8043848, 34.6193766], [131.8047899, 34.6197562], [131.8050934, 34.6200193], [131.8056295, 34.6205152], [131.8059003, 34.6207716], [131.8061444, 34.6210475], [131.8063241, 34.6213422], [131.8064187, 34.621569], [131.806481, 34.6218167], [131.8065185, 34.6220849], [131.8065386, 34.6222151], [131.8066822, 34.6232392], [131.8066896, 34.6232854], [131.8067613, 34.6238849], [131.8067908, 34.6241387], [131.8068096, 34.6246342], [131.8067994, 34.6248732], [131.8067841, 34.6252125], [131.8067773, 34.6255381], [131.8067639, 34.625962], [131.8067534, 34.6261443], [131.8067379, 34.6266761], [131.8067204, 34.6274152], [131.8067077, 34.627766], [131.8067057, 34.6278311], [131.8066884, 34.6279563], [131.8066528, 34.6281135], [131.806638, 34.6281492], [131.8065942, 34.6282762], [131.8065229, 34.6284161], [131.8064437, 34.6285319], [131.8062784, 34.6287273], [131.8060352, 34.6289679], [131.8054631, 34.6294887], [131.8051533, 34.6297602], [131.8048074, 34.6300596], [131.8044774, 34.6303451], [131.8038135, 34.6309255], [131.8031377, 34.6315192], [131.8024483, 34.6321338], [131.8017308, 34.6327694], [131.801343, 34.633106], [131.8012158, 34.6332285], [131.8006968, 34.6336963], [131.7999833, 34.6343253], [131.7994992, 34.6347634], [131.7991653, 34.6350726], [131.798253, 34.6358927], [131.7979878, 34.636136], [131.7978327, 34.6363185], [131.797733, 34.6364612], [131.7976994, 34.6365134], [131.7976287, 34.6367033], [131.797579, 34.636914], [131.7975737, 34.6371642], [131.79761, 34.6373815], [131.7977148, 34.6376319], [131.7980874, 34.6381664], [131.798246, 34.638384], [131.7986992, 34.6390062], [131.7990934, 34.6395386], [131.7992484, 34.6396939], [131.7993859, 34.6398316], [131.7997359, 34.6400681], [131.800429, 34.6404359], [131.801104, 34.6408282], [131.8014391, 34.641008], [131.801898, 34.6412366], [131.8030943, 34.6417983], [131.8039596, 34.6421798], [131.8043594, 34.6423735], [131.8050949, 34.6427024], [131.8057612, 34.6429644], [131.8060974, 34.6430797], [131.8068325, 34.6433019], [131.8081407, 34.6436233], [131.8086532, 34.6437562], [131.8090075, 34.6438769], [131.8095575, 34.6441052], [131.81011, 34.6443331], [131.8105241, 34.6445633], [131.8115536, 34.6452418], [131.8116532, 34.6453157], [131.8118231, 34.6454844], [131.8119785, 34.6456849], [131.8120913, 34.6459057], [131.8121477, 34.6460901], [131.8121691, 34.6463007], [131.8121452, 34.6465559], [131.8120343, 34.6469776], [131.8119872, 34.6472919], [131.8119917, 34.6475243], [131.8120401, 34.6477505], [131.8121726, 34.6481891], [131.8121982, 34.6483017], [131.8122585, 34.6485664], [131.8123791, 34.6493486], [131.8125656, 34.6505512], [131.8126193, 34.6509678], [131.8126419, 34.6512079], [131.8126278, 34.6514562], [131.812557, 34.6517163], [131.8123542, 34.6522042], [131.8121812, 34.652748], [131.8120289, 34.6531938], [131.81174, 34.653931], [131.8115771, 34.6545393], [131.8115239, 34.6549329], [131.8114613, 34.6559083], [131.81141, 34.6562088], [131.8113213, 34.6565108], [131.8111521, 34.6568319], [131.8106089, 34.657616], [131.8104672, 34.6578939], [131.8104173, 34.6581118], [131.810412, 34.6583355], [131.8104433, 34.6585873], [131.8105263, 34.6588309], [131.8106851, 34.6591134], [131.8108922, 34.6593598], [131.8111148, 34.6595533], [131.8114671, 34.6597598], [131.8122748, 34.6601802], [131.8129851, 34.660574], [131.8138635, 34.6611129], [131.8141737, 34.6612864], [131.8144187, 34.6613953], [131.8147844, 34.6615366], [131.8154649, 34.6617275], [131.8168102, 34.6621187], [131.8171602, 34.6622584], [131.817596, 34.6625095], [131.8181867, 34.6629224], [131.8186056, 34.6631916], [131.819067, 34.6634384], [131.8191496, 34.6634717], [131.8194124, 34.6635897], [131.8196466, 34.6636993], [131.8198224, 34.6638112], [131.8200468, 34.6639736], [131.8202018, 34.6641092], [131.8204621, 34.6644971], [131.8205885, 34.6647922], [131.8206331, 34.6653016], [131.8205667, 34.6659602], [131.8205903, 34.6663817], [131.8207093, 34.6667117], [131.8210378, 34.6672529], [131.8211318, 34.6674201], [131.8212283, 34.6676599], [131.8212985, 34.667933], [131.8215227, 34.6693333], [131.8216204, 34.6696767], [131.8217874, 34.6700327], [131.8224834, 34.6710933], [131.8225796, 34.6712562], [131.8227531, 34.6714248], [131.8237407, 34.6722111], [131.8247934, 34.6730606], [131.8248732, 34.6731255], [131.8259209, 34.6739549], [131.8263569, 34.6743001], [131.8276444, 34.6753166], [131.8283243, 34.6758833], [131.8285113, 34.6760207], [131.8288753, 34.6763552], [131.8294698, 34.6768109], [131.8302539, 34.6774285], [131.8302854, 34.6774533], [131.8308802, 34.6779352], [131.8311004, 34.6781136], [131.8314944, 34.6784191], [131.8317393, 34.6785509], [131.8319372, 34.6786075], [131.8321294, 34.6786287], [131.8333105, 34.6786888], [131.8335147, 34.6787171], [131.8340467, 34.6787427], [131.8342948, 34.6787264], [131.8343699, 34.6789415], [131.8345189, 34.6794783], [131.8345934, 34.6797772], [131.8346488, 34.6799992], [131.8347431, 34.68042], [131.8348206, 34.6807482], [131.8349982, 34.6813161], [131.8351423, 34.681657], [131.8354028, 34.6821006], [131.8356059, 34.6823683], [131.8360575, 34.6828]]]}, "id": "relation/4165287"}]}