{"type": "FeatureCollection", "generator": "kokudo-quiz tools/fetch_raw.py (Overpass API)", "copyright": "The data included in this document is from www.openstreetmap.org. The data is made available under ODbL.", "timestamp": "2026-09-30T14:47:51Z", "features": [{"type": "Feature", "properties": {"@id": "relation/9444474", "colour": "red", "from": "愛媛県松山市", "name": "国道196号", "name:en": "National Highway Route 196", "name:ja": "国道196号", "name:ja-Hira": "こくどうひゃくきゅうじゅうろくごう", "name:ja-Latn": "Kokudo 196 Gou", "network": "JP:national", "ref": "196", "route": "road", "to": "愛媛県西条市", "type": "route", "wikidata": "Q8191859", "wikipedia": "ja:国道196号"}, "geometry": {"type": "MultiLineString", "coordinates": [[[132.7587716, 33.8526607], [132.7587749, 33.8527191], [132.7587799, 33.8528098], [132.758814, 33.8534179], [132.7588172, 33.8534636], [132.7588204, 33.8535097], [132.7588246, 33.8536566], [132.7588513, 33.8540011], [132.7588795, 33.8543701], [132.7589511, 33.855225], [132.7590218, 33.8557779], [132.7591478, 33.8563276], [132.759172, 33.8564331], [132.7591637, 33.8563277], [132.7591205, 33.8557763], [132.7590769, 33.8552204], [132.7590115, 33.8543589], [132.7589878, 33.8539974], [132.7589601, 33.8535689], [132.7589569, 33.8535201], [132.7589537, 33.8534731], [132.7589283, 33.8531389], [132.7589096, 33.8528072], [132.7589016, 33.8526872], [132.7589017, 33.8525608], [132.7589022, 33.8518392], [132.7588921, 33.8514771], [132.758888, 33.8513298], [132.758887, 33.8511758], [132.7588849, 33.8508532], [132.7588837, 33.8505635], [132.7588831, 33.8504066], [132.7588829, 33.8503039], [132.7588806, 33.8493306], [132.7588804, 33.8492592], [132.7588772, 33.8488105], [132.7588767, 33.8487421], [132.7588669, 33.8481475], [132.7588713, 33.847855], [132.7588733, 33.8477188], [132.7588721, 33.8476195], [132.7588728, 33.8475105], [132.7588693, 33.8470705], [132.7588642, 33.8464355], [132.7588628, 33.8463752], [132.7588619, 33.8463124], [132.75885, 33.8454531], [132.7588556, 33.8450744], [132.758857, 33.844978], [132.7588558, 33.84485], [132.7588482, 33.8442546], [132.7588418, 33.8433885], [132.7588356, 33.8425552], [132.7588352, 33.8421362], [132.7588319, 33.8418611], [132.7588295, 33.8417796], [132.7588304, 33.8416876], [132.7588301, 33.8415797], [132.7588279, 33.841004], [132.7588253, 33.8403047], [132.7588297, 33.8401805], [132.7588311, 33.8400317], [132.7588233, 33.8396155], [132.7588194, 33.8394633], [132.7588187, 33.8394363], [132.758672, 33.8394246], [132.7586724, 33.8396145], [132.7586729, 33.8398825], [132.7586777, 33.8400211], [132.7586783, 33.8400376], [132.7586791, 33.8400701], [132.7586805, 33.8401831], [132.7586856, 33.8403065], [132.7586986, 33.8410068], [132.7587038, 33.8414905], [132.7587048, 33.8415798], [132.758706, 33.8416883], [132.7587053, 33.8417801], [132.7587072, 33.8418622], [132.7587091, 33.8421386], [132.7587092, 33.8422105], [132.7587098, 33.8425553], [132.7587157, 33.8433896], [132.7587097, 33.8442572], [132.7587082, 33.8448492], [132.7587078, 33.8450122], [132.7587097, 33.845074], [132.7587212, 33.8454519], [132.7587276, 33.8463157], [132.758728, 33.8463753], [132.7587277, 33.8464368], [132.7587226, 33.8475135], [132.7587221, 33.8476192], [132.7587232, 33.8477233], [132.7587244, 33.8478561], [132.7587272, 33.8481496], [132.7587349, 33.8487444], [132.7587359, 33.8488089], [132.7587428, 33.8492608], [132.7587439, 33.8493298], [132.7587589, 33.8503011], [132.7587585, 33.8504077], [132.7587579, 33.8505618], [132.7587569, 33.8508527], [132.758756, 33.8511754], [132.7587555, 33.8513297], [132.7587571, 33.8514758], [132.7587612, 33.8518404], [132.7587703, 33.8525616], [132.7587716, 33.8526607]], [[132.759172, 33.8564331], [132.7591827, 33.8565191], [132.7591932, 33.8566038], [132.7592026, 33.8566815], [132.7592102, 33.8568879], [132.759204, 33.8575503], [132.7591946, 33.8577885], [132.7591937, 33.8578316], [132.7591712, 33.8582508], [132.7591657, 33.8583377], [132.7591318, 33.8590544], [132.7591323, 33.8591012], [132.7591676, 33.8602129], [132.7591681, 33.8602466], [132.7591526, 33.8607291], [132.7591431, 33.8611664], [132.7591396, 33.8612729], [132.7591369, 33.861349], [132.7591184, 33.8622755], [132.7590956, 33.8628136], [132.7590967, 33.8629186], [132.7590832, 33.8632169], [132.759075, 33.8636393], [132.759064, 33.8642071], [132.7590634, 33.864372], [132.7590414, 33.8648562], [132.7589894, 33.8650666], [132.7589637, 33.8651706], [132.758925, 33.8652525], [132.7588431, 33.8654569], [132.7588084, 33.8655436], [132.7586489, 33.8658317], [132.7586039, 33.8659129], [132.7584541, 33.8661484], [132.7583734, 33.866259], [132.7581566, 33.8665804], [132.7578184, 33.8670821], [132.7577316, 33.8672107], [132.7576269, 33.8673606], [132.757488, 33.8675594], [132.7572807, 33.8678665], [132.75682, 33.8685489], [132.7564508, 33.8690091], [132.7562504, 33.8691838], [132.7561554, 33.8692648], [132.7558258, 33.8695261], [132.7557464, 33.8695764], [132.7554589, 33.8697587], [132.7550499, 33.8700179], [132.7549429, 33.8700857], [132.7546543, 33.8702686], [132.754338, 33.8704616], [132.7542778, 33.8704981], [132.7534054, 33.8710271], [132.7529874, 33.8713821], [132.7528413, 33.8715291], [132.7527095, 33.8716903], [132.7526029, 33.8717909], [132.7525696, 33.8718383], [132.752519, 33.8718954], [132.7524536, 33.8719681], [132.7523846, 33.8720447], [132.7522876, 33.8721332], [132.7522008, 33.8722175], [132.7521717, 33.8730752], [132.7521075, 33.8738509], [132.7521021, 33.8741224], [132.7520897, 33.8749753], [132.7520807, 33.8753125], [132.7520513, 33.8764109], [132.7520282, 33.876994], [132.7520069, 33.877923], [132.7519811, 33.879236], [132.7519569, 33.8798719], [132.7519533, 33.8799647], [132.7519242, 33.8808579], [132.7518972, 33.8819283], [132.7518965, 33.8819359], [132.7518564, 33.8829334], [132.7518307, 33.883964], [132.7518138, 33.8849834], [132.7518082, 33.8853271], [132.7518063, 33.8856534], [132.7517967, 33.8860194], [132.7518393, 33.8860727], [132.7518854, 33.8861206], [132.7519485, 33.886183], [132.752016, 33.8862398], [132.7521182, 33.8862973], [132.7523638, 33.8863969], [132.7530718, 33.8866843], [132.7536484, 33.8869253], [132.7542659, 33.8872131], [132.7547172, 33.8874611], [132.7551473, 33.8877593], [132.7555043, 33.8880493], [132.7558468, 33.8883947], [132.7561388, 33.8887573], [132.7563741, 33.889085], [132.7565718, 33.8894452], [132.7567728, 33.8899051], [132.756974, 33.8903963], [132.7571612, 33.8909108], [132.7573389, 33.8914672], [132.7575376, 33.892121], [132.7576837, 33.892693], [132.7577987, 33.893153], [132.7579279, 33.8937048], [132.7579932, 33.8941724], [132.7580756, 33.8946823], [132.758134, 33.8951545], [132.7581736, 33.8956204], [132.7582119, 33.8960478], [132.7582222, 33.8964584], [132.7581997, 33.8968576], [132.7581812, 33.8971438], [132.7581269, 33.8974541], [132.7580141, 33.8978935], [132.7578816, 33.8983323], [132.7577326, 33.8987422], [132.7576235, 33.8990076], [132.7572653, 33.8998742], [132.7571786, 33.9001244], [132.7570788, 33.9004886], [132.7570041, 33.9008903], [132.7569585, 33.9012789], [132.7569433, 33.9017268], [132.7569454, 33.9021265], [132.7569681, 33.9026939], [132.7569704, 33.902768], [132.756979, 33.9029621], [132.7569816, 33.9030562], [132.7570278, 33.9042169], [132.7570814, 33.9054535], [132.7570586, 33.9061409], [132.7569678, 33.9067885], [132.756882, 33.9072066], [132.7568314, 33.9074532], [132.7567542, 33.9078681], [132.7567128, 33.9081378], [132.7566399, 33.9085821], [132.7566043, 33.9090111], [132.7565849, 33.9096874], [132.7566229, 33.9104191], [132.7567125, 33.910931], [132.7569029, 33.9118169], [132.7580341, 33.9159126], [132.7584894, 33.9175678], [132.7585838, 33.9179478], [132.7587044, 33.9183943], [132.759762, 33.9221342], [132.7599889, 33.9229965], [132.7602075, 33.9236412], [132.7604503, 33.924195], [132.760553, 33.9244028], [132.7606791, 33.9246579], [132.7608108, 33.9248796], [132.7609362, 33.925081], [132.7611716, 33.9254408], [132.7614354, 33.9258063], [132.7621701, 33.9267306], [132.7622501, 33.9268411], [132.7625277, 33.9272244], [132.7627979, 33.9275631], [132.7635786, 33.9285417], [132.7639268, 33.9289923], [132.7640478, 33.9291485], [132.7646523, 33.9299287], [132.76469, 33.9299774], [132.7653442, 33.9308287], [132.7654431, 33.9309564], [132.7658259, 33.9314614], [132.7661077, 33.9318143], [132.7663639, 33.9321415], [132.7666177, 33.9324655], [132.7666465, 33.9324999], [132.7668844, 33.9327838], [132.7669488, 33.9328494], [132.7671729, 33.9330777], [132.7674164, 33.9333247], [132.7676624, 33.9335322], [132.7678982, 33.9337276], [132.768355, 33.934059], [132.7684495, 33.9341216], [132.7687065, 33.934292], [132.76913, 33.9345424], [132.769826, 33.9349146], [132.7703795, 33.9352097], [132.7704888, 33.935268], [132.7710515, 33.9355977], [132.7714092, 33.9358418], [132.7715471, 33.935949], [132.7716636, 33.9360396], [132.7717086, 33.9360762], [132.7720632, 33.9363645], [132.7723149, 33.9365902], [132.772544, 33.9368392], [132.7728981, 33.9372931], [132.7730714, 33.937552], [132.7731656, 33.9377311], [132.7733118, 33.9380348], [132.7734443, 33.9383137], [132.7735394, 33.9385922], [132.7736172, 33.9388662], [132.7737072, 33.9392837], [132.7737866, 33.9396964], [132.7738592, 33.9401547], [132.7739347, 33.9404519], [132.7740139, 33.9407293], [132.7741784, 33.9411082], [132.7743466, 33.9414653], [132.7745606, 33.9418012], [132.7747556, 33.9420635], [132.7750599, 33.9424414], [132.7752446, 33.9426572], [132.7754212, 33.9429001], [132.7755933, 33.9431289], [132.7757556, 33.9433945], [132.7759118, 33.9437138], [132.7760043, 33.9439949], [132.7760766, 33.9443106], [132.7761291, 33.9446752], [132.7761269, 33.9448052], [132.7761264, 33.9448354], [132.7761213, 33.9449843], [132.7760994, 33.9453238], [132.7760329, 33.9456171], [132.7760059, 33.9456772], [132.7759628, 33.945818], [132.7758862, 33.9460133], [132.7757367, 33.9463326], [132.7755164, 33.946696], [132.7752486, 33.9470693], [132.7751549, 33.9471881], [132.775024, 33.9473541], [132.7749198, 33.9474864], [132.7748442, 33.9475894], [132.7746783, 33.9478456], [132.7745474, 33.9480776], [132.7744873, 33.9482145], [132.7744091, 33.9483927], [132.774321, 33.948692], [132.7742502, 33.9490472], [132.774226, 33.9492336], [132.7742141, 33.9493757], [132.7742126, 33.949582], [132.7742353, 33.9498238], [132.7742774, 33.9500688], [132.7743089, 33.9502443], [132.7744713, 33.9508432], [132.7746231, 33.9513354], [132.7748867, 33.9521901], [132.7752042, 33.9532356], [132.7752701, 33.9534482], [132.7753276, 33.9536339], [132.7756547, 33.9546893], [132.7756782, 33.9547652], [132.7757781, 33.9550995], [132.7763503, 33.9569664], [132.7767267, 33.9582197], [132.7769475, 33.9589151], [132.7770991, 33.9594403], [132.7772257, 33.9598553], [132.7772629, 33.9599648], [132.7773018, 33.9600913], [132.7774163, 33.9604637], [132.7776524, 33.9612293], [132.7777265, 33.9614698], [132.7778514, 33.9618761], [132.7778939, 33.9620152], [132.7780655, 33.9625719], [132.7783935, 33.9636346], [132.7785417, 33.9641305], [132.778706, 33.9646804], [132.7787582, 33.964855], [132.778912, 33.9653462], [132.7790477, 33.9657798], [132.779198, 33.9662074], [132.7793615, 33.9665527], [132.7795741, 33.9668772], [132.7798221, 33.9671953], [132.7799716, 33.9673695], [132.7801749, 33.9675611], [132.7804479, 33.9677812], [132.780504, 33.9678278], [132.7805785, 33.9678814], [132.7808682, 33.9680424], [132.7820289, 33.968705], [132.7820762, 33.9687298], [132.7824356, 33.9689574], [132.7827835, 33.9692481], [132.7829552, 33.9694011], [132.7831216, 33.9695835], [132.7832375, 33.9697278], [132.7833578, 33.9699174], [132.7835423, 33.9702157], [132.7836414, 33.9704403], [132.7837486, 33.9707238], [132.783878, 33.9712151], [132.7840683, 33.9720606], [132.7841962, 33.9726283], [132.7843258, 33.9732291], [132.7844673, 33.9738613], [132.7845888, 33.9743914], [132.7847103, 33.9749381], [132.7851933, 33.9771811], [132.7853462, 33.9778771], [132.7854715, 33.9784174], [132.7856818, 33.9794163], [132.7857133, 33.9795839], [132.7857106, 33.9797706], [132.7856918, 33.9799095], [132.7856381, 33.9800583], [132.7855675, 33.9801945], [132.7854452, 33.9803307], [132.7853019, 33.980457], [132.7851626, 33.9805569], [132.7850365, 33.9806291], [132.7849082, 33.9806812], [132.7843113, 33.980846]], [[132.7527095, 33.8716903], [132.7526502, 33.871812], [132.752614, 33.8718632], [132.7524817, 33.87205], [132.7523634, 33.8723153], [132.7523013, 33.8725028], [132.752286, 33.8730418], [132.7522427, 33.8738497], [132.7522272, 33.8741251], [132.7521915, 33.8749719], [132.752169, 33.8757668], [132.7521507, 33.876415], [132.7521306, 33.8769659], [132.7521008, 33.8779204], [132.7520936, 33.8782132], [132.7520729, 33.8792342], [132.7520579, 33.8798715], [132.7520545, 33.8799652], [132.7520219, 33.8808731], [132.7519924, 33.8819219], [132.7519629, 33.8829396], [132.7519361, 33.8839616], [132.7519066, 33.8853243], [132.751908, 33.8856728], [132.7519039, 33.8858454], [132.7519468, 33.8859567], [132.7519898, 33.8860291], [132.7520762, 33.8861268], [132.7521653, 33.886207], [132.7531262, 33.8865566], [132.753746, 33.8868081], [132.754393, 33.8870789], [132.754849, 33.8873372], [132.7553103, 33.8876556], [132.7556456, 33.8879673], [132.7559702, 33.8883191], [132.7562543, 33.888691], [132.7564839, 33.8890646], [132.7566647, 33.8894124], [132.7568686, 33.8898577], [132.7570751, 33.890372], [132.7572655, 33.890893], [132.7574399, 33.8914385], [132.7576464, 33.892102], [132.7577912, 33.892692], [132.7579039, 33.893144], [132.7580139, 33.8936805], [132.7581024, 33.8941659], [132.7581775, 33.8946847], [132.7582445, 33.8951589], [132.7582974, 33.8956144], [132.7582973, 33.8956462], [132.758317, 33.8960583], [132.758325, 33.8964591], [132.758319, 33.8967823], [132.7582821, 33.8971493], [132.7582392, 33.8974676], [132.7581399, 33.8979262], [132.7580005, 33.8983693], [132.7578449, 33.8987722], [132.7577417, 33.8990125], [132.7573943, 33.8998876], [132.7573033, 33.9001218], [132.7571851, 33.900511], [132.7571126, 33.9009095], [132.7570724, 33.901299], [132.7570536, 33.9017376], [132.7570724, 33.9021205], [132.7570904, 33.9026254], [132.757094, 33.9027167], [132.7571018, 33.9029043], [132.7571037, 33.9029981], [132.75714, 33.9042037], [132.7571799, 33.905462], [132.7571744, 33.9056664], [132.7571611, 33.906161], [132.7570887, 33.9068132], [132.7570104, 33.9072165], [132.7568396, 33.9081464], [132.7567722, 33.9085963], [132.7567453, 33.9090097], [132.7567507, 33.9093665], [132.756794, 33.9098779], [132.7568795, 33.9103905], [132.7570009, 33.91089], [132.7572791, 33.9118752], [132.7583443, 33.9157655], [132.7585035, 33.9163641], [132.7588137, 33.9175084], [132.7590333, 33.9182835], [132.7601223, 33.9220516], [132.7603506, 33.9231172], [132.7604924, 33.9236408], [132.7606575, 33.9241001], [132.7608196, 33.9245177], [132.7610078, 33.9249022], [132.7610371, 33.924951], [132.7612112, 33.9252588], [132.7613305, 33.9254491], [132.7614631, 33.925645], [132.7619117, 33.926222], [132.7622869, 33.92667], [132.7623669, 33.9267771], [132.763625, 33.9284614], [132.7640193, 33.928951], [132.7641028, 33.9290594], [132.7647484, 33.9298979], [132.7654355, 33.9307981], [132.7655186, 33.9309005], [132.7659317, 33.9314279], [132.7660828, 33.9316313], [132.7661946, 33.9317818], [132.7664782, 33.9321239], [132.7667203, 33.9324205], [132.766828, 33.9325502], [132.7669697, 33.9327209], [132.7671304, 33.9328877], [132.7672514, 33.9330213], [132.7675491, 33.933304], [132.7677529, 33.9334909], [132.768103, 33.9337535], [132.7684342, 33.9339983], [132.7685633, 33.9340843], [132.7686526, 33.9341425], [132.7686855, 33.9341629], [132.7688044, 33.9342364], [132.7691922, 33.9344609], [132.7698826, 33.9348439], [132.7705639, 33.9351955], [132.7711164, 33.9355227], [132.7714758, 33.9357563], [132.7716235, 33.9358713], [132.7717467, 33.935961], [132.7721639, 33.9363048], [132.7723505, 33.9364839], [132.7724133, 33.9365441], [132.7726439, 33.9367966], [132.7728389, 33.9370425], [132.773003, 33.9372572], [132.7731469, 33.9374731], [132.773289, 33.9377336], [132.7733811, 33.9379132], [132.7735291, 33.9382543], [132.7735456, 33.9382923], [132.7736431, 33.938578], [132.7737289, 33.9388673], [132.7737978, 33.9391643], [132.7738254, 33.9392834], [132.773903, 33.9396942], [132.7739073, 33.9397194], [132.7739774, 33.9401303], [132.7740489, 33.9404348], [132.7741216, 33.9406844], [132.7742787, 33.9410858], [132.7744558, 33.9414352], [132.7746596, 33.9417756], [132.7748581, 33.9420382], [132.7751746, 33.9424143], [132.7753484, 33.9426282], [132.775549, 33.9428658], [132.7756762, 33.9430885], [132.7758532, 33.9433711], [132.7760043, 33.9436603], [132.7760159, 33.9436906], [132.776108, 33.9439763], [132.7761858, 33.9443101], [132.7762314, 33.9446817], [132.7762321, 33.9447629], [132.7762341, 33.9449887], [132.7761965, 33.9453447], [132.7761321, 33.9456384], [132.7760758, 33.9458054], [132.7759927, 33.9460367], [132.7758496, 33.9463462], [132.7756586, 33.946674], [132.77534, 33.9471172], [132.7752545, 33.9472264], [132.7751148, 33.9474048], [132.7750269, 33.9475244], [132.7749386, 33.9476477], [132.7747589, 33.9479147], [132.7746543, 33.948126], [132.7745175, 33.9484375], [132.7744264, 33.948723], [132.7743592, 33.9490605], [132.7743431, 33.9491985], [132.774327, 33.949372], [132.7743217, 33.9495923], [132.7743324, 33.9497859], [132.7743673, 33.9499995], [132.7744263, 33.950262], [132.7745657, 33.9507982], [132.7749827, 33.9521461], [132.7753135, 33.9532055], [132.7754394, 33.9536256], [132.775475, 33.9537574], [132.7756192, 33.9542265], [132.7757464, 33.9546303], [132.7757593, 33.954674], [132.7758693, 33.9550277], [132.7759739, 33.9553548], [132.7764565, 33.9569469], [132.7768322, 33.958207], [132.7770534, 33.9588823], [132.7772024, 33.9594172], [132.7773332, 33.9598396], [132.7773606, 33.95994], [132.7773979, 33.9600735], [132.7775162, 33.9604517], [132.7778354, 33.9614595], [132.7779614, 33.9618532], [132.7780007, 33.9619814], [132.7780419, 33.9621135], [132.7781679, 33.9625585], [132.7784952, 33.9636085], [132.7786588, 33.9641201], [132.7787714, 33.9644827], [132.7788224, 33.964654], [132.778876, 33.9648565], [132.7790221, 33.9653261], [132.7791577, 33.9657619], [132.7793025, 33.966189], [132.7794608, 33.9665182], [132.7796512, 33.966843], [132.7798953, 33.9671344], [132.7800804, 33.9673457], [132.7802493, 33.9675059], [132.7805578, 33.967755], [132.7809279, 33.9679931], [132.7820051, 33.9685814], [132.7821376, 33.9686537], [132.7825131, 33.9689029], [132.7828603, 33.9691892], [132.7830281, 33.9693478], [132.7831963, 33.9695365], [132.7833233, 33.9696989], [132.7834278, 33.9698683], [132.7836209, 33.9701753], [132.7837437, 33.9704133], [132.7838542, 33.970698], [132.783983, 33.9711896], [132.7843054, 33.9726039], [132.7844451, 33.9732371], [132.7846947, 33.9743625], [132.7848043, 33.9748786], [132.7848145, 33.9749265], [132.7851578, 33.9765324], [132.7852946, 33.9771575], [132.785446, 33.9778526], [132.7857229, 33.9789898], [132.785823, 33.979395], [132.7858416, 33.9795579], [132.7858364, 33.9797398], [132.7858069, 33.9799244], [132.7857398, 33.9800979], [132.785651, 33.9802477], [132.7855188, 33.9803918], [132.7853996, 33.9804884], [132.7853284, 33.9805409], [132.7851457, 33.9806383], [132.7849459, 33.9807206], [132.7843113, 33.980846], [132.7837805, 33.9809644], [132.7821978, 33.9813088], [132.7814938, 33.9814587], [132.7813382, 33.9814918], [132.7802037, 33.9817291], [132.7782885, 33.9821411], [132.7780276, 33.9821966], [132.7782654, 33.9826277], [132.7783803, 33.9829182], [132.7784243, 33.983039], [132.7785007, 33.9833225], [132.778529, 33.9837018], [132.7785294, 33.9838658], [132.7785054, 33.9840937], [132.7783873, 33.9845053], [132.7781648, 33.985031], [132.7777873, 33.9858548], [132.7777825, 33.9858652], [132.7777244, 33.9859854], [132.7773212, 33.9868578], [132.7771729, 33.9871454], [132.7767989, 33.9879255], [132.7764743, 33.9885947], [132.7759838, 33.9896161], [132.7759577, 33.9896753], [132.7759144, 33.9897595], [132.7755723, 33.9904998], [132.7752574, 33.9911717], [132.7751167, 33.9914858], [132.7749133, 33.9918694], [132.7747068, 33.9921447], [132.7746503, 33.99222], [132.7745041, 33.9923944], [132.7743231, 33.9925625], [132.7740213, 33.992797], [132.773674, 33.9930472], [132.7733454, 33.9932684], [132.7730396, 33.9935197], [132.7728486, 33.9937447], [132.7726216, 33.9941948], [132.7723329, 33.9950309], [132.7720754, 33.9955646], [132.7719341, 33.9959221], [132.7718044, 33.9962056], [132.7715959, 33.9964724], [132.7714629, 33.9966425], [132.7713029, 33.9968455], [132.7709703, 33.9972724], [132.770695, 33.9980386], [132.7707251, 33.9983403], [132.7708538, 33.9986312], [132.7710775, 33.9988923], [132.7720194, 33.99929], [132.773184, 33.9997966], [132.773815, 34.0002112], [132.7740554, 34.0003873], [132.7743414, 34.0006134], [132.7746049, 34.0008392], [132.7748452, 34.0010727], [132.7750641, 34.0012929], [132.7750993, 34.0013299], [132.7752946, 34.0015348], [132.7753493, 34.0015959], [132.7763379, 34.0026102], [132.7771012, 34.0034219], [132.7772214, 34.0035312], [132.777356, 34.0036536], [132.7776562, 34.0038435], [132.7780922, 34.0040145], [132.7786089, 34.004173], [132.7789947, 34.0042874], [132.7795364, 34.0045025], [132.7798051, 34.0046336], [132.7802298, 34.0048889], [132.7812056, 34.0057044], [132.7819216, 34.0062619], [132.782187, 34.0064057], [132.7825232, 34.0065172], [132.783231, 34.0067229], [132.7834753, 34.0068106], [132.783797, 34.0069895], [132.7843249, 34.0073462], [132.7851702, 34.007986], [132.7853732, 34.008137], [132.785606, 34.0082458], [132.7858974, 34.0083543], [132.7861789, 34.0084113], [132.7864905, 34.0084451], [132.7872339, 34.0085092], [132.7875326, 34.0085644], [132.7879515, 34.0086678], [132.7886573, 34.0089018], [132.7895329, 34.0092431], [132.7898746, 34.0093588], [132.7901904, 34.0094621], [132.7906201, 34.0095761], [132.7910843, 34.009642], [132.7915054, 34.0096759], [132.791905, 34.0096812], [132.7923434, 34.0096634], [132.7928461, 34.0095868], [132.7933274, 34.0094942], [132.7941304, 34.0093186], [132.7946467, 34.0092056], [132.7949475, 34.0091415], [132.7952419, 34.0090596], [132.7955448, 34.0089688], [132.7958908, 34.008837], [132.7964601, 34.0086054], [132.7966929, 34.0085018], [132.7971923, 34.0082367], [132.7974918, 34.0081032], [132.797961, 34.0078937], [132.7982064, 34.0078064], [132.7983103, 34.0077828], [132.798484, 34.0077595], [132.7986677, 34.0077468], [132.7988907, 34.0077512], [132.7990763, 34.0077937], [132.7992294, 34.007829], [132.7994089, 34.0078907], [132.7994914, 34.0079219], [132.7996253, 34.0079917], [132.799777, 34.008107], [132.7999429, 34.0082725], [132.8002279, 34.008655], [132.8003758, 34.0088279], [132.8005043, 34.0089854], [132.800657, 34.0091725], [132.8008745, 34.0094456], [132.8009456, 34.0095349], [132.8009908, 34.0095878], [132.8015296, 34.0102185], [132.8016736, 34.0103671], [132.801703, 34.0103975], [132.8019614, 34.0106058], [132.8023082, 34.0108698], [132.8024094, 34.0109467], [132.8027672, 34.0112184], [132.8032996, 34.0115878], [132.8035965, 34.0117939], [132.8044494, 34.0124217], [132.8048246, 34.012721], [132.80509, 34.0129557], [132.8053342, 34.0132138], [132.8055609, 34.0135195], [132.8056971, 34.0137087], [132.80589, 34.0140226], [132.8061145, 34.0144551], [132.8061811, 34.0146528], [132.806588, 34.0160789], [132.8066184, 34.0163153], [132.8066662, 34.0165808], [132.8066905, 34.0167351], [132.8067051, 34.0168947], [132.8067388, 34.0170033], [132.8067901, 34.0171001], [132.8068841, 34.0171881], [132.8070034, 34.017258], [132.8071821, 34.0173313], [132.8073892, 34.0174325], [132.8075538, 34.0175484], [132.8077661, 34.0177361], [132.8081515, 34.0180748], [132.8083861, 34.0182167], [132.8086304, 34.0183315], [132.8088612, 34.0183984], [132.8091463, 34.018442], [132.8094826, 34.0184978], [132.8101444, 34.0185988], [132.8104256, 34.0186491], [132.8106938, 34.0187031], [132.8109433, 34.0187719], [132.8111693, 34.0188479], [132.8114015, 34.0189506], [132.8116891, 34.0191218], [132.8118753, 34.0192649], [132.8120665, 34.0194377], [132.8124556, 34.0197927], [132.8126317, 34.0199524], [132.8127846, 34.0200769], [132.813076, 34.0202703], [132.8132674, 34.0203781], [132.8134605, 34.0204735], [132.8136832, 34.0205593], [132.8139045, 34.0206361], [132.8145506, 34.0207676], [132.8147426, 34.0207983], [132.8149626, 34.0208404], [132.8151463, 34.0208872], [132.8153032, 34.0209399], [132.8155234, 34.0210327], [132.8156653, 34.0211017], [132.8158216, 34.021187], [132.816031, 34.0213327], [132.8162412, 34.0215013], [132.8165276, 34.0217816], [132.8169027, 34.022243], [132.8174819, 34.0230073], [132.8178618, 34.0236481], [132.8178884, 34.0237031], [132.818149, 34.0242413], [132.8183855, 34.0245878], [132.8183964, 34.0246038], [132.8185466, 34.024754], [132.818741, 34.0248675], [132.8189398, 34.024918], [132.8192226, 34.0249517], [132.8196158, 34.0249737], [132.8200692, 34.0249889], [132.8203456, 34.0249921], [132.8205683, 34.0250077], [132.8207424, 34.0250469], [132.8209059, 34.0250982], [132.8211476, 34.0251967], [132.8213193, 34.0252767], [132.821467, 34.0253838], [132.8217284, 34.0256103], [132.8221032, 34.0259806], [132.8222578, 34.0261491], [132.8223639, 34.0262882], [132.8224876, 34.0263944], [132.8226392, 34.0264822], [132.8227792, 34.0265372], [132.822923, 34.0265727], [132.8231483, 34.0265888], [132.8231945, 34.0265921], [132.8238789, 34.026582], [132.8241411, 34.0265941], [132.8243641, 34.0266458], [132.8245461, 34.0267317], [132.8246818, 34.0268259], [132.8247956, 34.0269243], [132.8252722, 34.0274872], [132.8255088, 34.0277756], [132.8256476, 34.0279166], [132.8257524, 34.0280063], [132.8258778, 34.0280936], [132.8260441, 34.0281879], [132.8262295, 34.0282752], [132.8265159, 34.0283908], [132.8270416, 34.0285985], [132.8272818, 34.0287123], [132.8274466, 34.0287993], [132.8276008, 34.0289003], [132.8277331, 34.0289865], [132.8278802, 34.0290974], [132.8280282, 34.0292334], [132.8282876, 34.0294938], [132.8283786, 34.0296059], [132.8284424, 34.0296901], [132.8285551, 34.0298578], [132.8286678, 34.0300503], [132.8291779, 34.0309384], [132.8293304, 34.0312125], [132.8296288, 34.0316045], [132.8300217, 34.032292], [132.8301527, 34.0324488], [132.8303289, 34.0325663], [132.8305137, 34.0326429], [132.8307109, 34.0326787], [132.8308878, 34.0326901], [132.8309594, 34.032681], [132.831077, 34.032666], [132.8313535, 34.0325815], [132.8318193, 34.0324127], [132.8321031, 34.0323343], [132.8323578, 34.0323041], [132.8326289, 34.0323111], [132.8343153, 34.0326167], [132.8347607, 34.0327015], [132.8360697, 34.0329816], [132.8364722, 34.0330917], [132.8366061, 34.0331283], [132.8371159, 34.0333174], [132.8373603, 34.033438], [132.8377916, 34.0336328], [132.8380287, 34.0337776], [132.8381484, 34.0338507], [132.8384219, 34.0340796], [132.8390783, 34.0347429], [132.8391869, 34.0348657], [132.8395881, 34.0352792], [132.8400445, 34.0357526], [132.8405327, 34.036275], [132.8408546, 34.0365839], [132.8411121, 34.036784], [132.8411321, 34.0367962], [132.8413347, 34.0369195], [132.8415949, 34.037044], [132.841848, 34.0371422], [132.8419731, 34.0371907], [132.8425792, 34.0374441], [132.8426302, 34.0374619], [132.8428984, 34.0375752], [132.8429386, 34.037593], [132.8438202, 34.0379771], [132.8438323, 34.0379824], [132.8451047, 34.0385059], [132.8460074, 34.0388771], [132.8465229, 34.0391466], [132.8468278, 34.039337], [132.8471547, 34.039564], [132.847315, 34.0397035], [132.8474104, 34.0398013], [132.8478042, 34.0402889], [132.8482416, 34.0409076], [132.8483211, 34.041043], [132.8487497, 34.041735], [132.8489529, 34.0420498], [132.8490766, 34.0423244], [132.8492634, 34.0430938], [132.849365, 34.0433025], [132.8494976, 34.0434526], [132.8496743, 34.0435697], [132.8499085, 34.0436722], [132.8504033, 34.043815], [132.8507921, 34.0438699], [132.851066, 34.0438516], [132.8514769, 34.043793], [132.8516978, 34.0437491], [132.8520336, 34.0436905], [132.8524798, 34.0437161], [132.852736, 34.0437674], [132.8531999, 34.0439504], [132.8535086, 34.0440632], [132.8544652, 34.0442417], [132.8548295, 34.0443257], [132.8551636, 34.0444118], [132.8552546, 34.0444445], [132.8554306, 34.0445068], [132.8556706, 34.0446495], [132.8560046, 34.0448527], [132.8563541, 34.0451294], [132.856615, 34.0453931], [132.8569055, 34.0457365], [132.8569333, 34.0457693], [132.8576429, 34.0465475], [132.8580029, 34.0469452], [132.8582221, 34.0471571], [132.8585404, 34.0474294], [132.858902, 34.0476597], [132.8591158, 34.047767], [132.8600386, 34.048152], [132.8609674, 34.0485022], [132.8616341, 34.048785], [132.8629241, 34.0495537], [132.8631171, 34.049596], [132.8638883, 34.0500739], [132.8641906, 34.0502848], [132.8647386, 34.0506561], [132.8650837, 34.0509212], [132.8654151, 34.0511578], [132.8659631, 34.0516224], [132.8666949, 34.052205], [132.8671162, 34.0524858], [132.8674699, 34.0526496], [132.8679082, 34.0528139], [132.8682838, 34.0529133], [132.8687065, 34.0529652], [132.8691516, 34.0530185], [132.8696144, 34.0530603], [132.8700787, 34.0531467], [132.8704492, 34.0532894], [132.8707988, 34.0534969], [132.870947, 34.0536102], [132.8710642, 34.0537414], [132.8711804, 34.0539049], [132.8713303, 34.0540511], [132.8713765, 34.0541073], [132.8715283, 34.0543295], [132.8716265, 34.0544555], [132.8719465, 34.0548675], [132.8721096, 34.0550363], [132.8723218, 34.0552226], [132.8724316, 34.0552968], [132.8726322, 34.055443], [132.87293, 34.0556268], [132.8732816, 34.0558], [132.87363, 34.0559312], [132.874064, 34.0560545], [132.8747166, 34.0561779], [132.8752951, 34.0563373], [132.8755459, 34.056415], [132.8755767, 34.0564167], [132.8758307, 34.0565311], [132.8764364, 34.0568546], [132.8769713, 34.0571648], [132.8777569, 34.0575979], [132.8785483, 34.0580247], [132.8788556, 34.0581349], [132.8789159, 34.0581483], [132.8792104, 34.0582137], [132.879581, 34.0582767], [132.8800847, 34.0583528], [132.8808512, 34.0584682], [132.8809304, 34.0584785], [132.8824699, 34.0586782], [132.8827899, 34.0586992], [132.8829565, 34.0586882], [132.8831478, 34.0586756], [132.8832692, 34.0586543], [132.8834772, 34.0586178], [132.8835563, 34.0585983], [132.8837433, 34.0585522], [132.8837871, 34.0585378], [132.8840062, 34.0584656], [132.8841208, 34.0584098], [132.8843135, 34.058316], [132.8848328, 34.0580041], [132.8853868, 34.0576857], [132.8856885, 34.0575286], [132.8861164, 34.0573384], [132.8866329, 34.0571958], [132.887233, 34.0571093], [132.8878149, 34.0571111], [132.888407, 34.0572087], [132.888996, 34.0573885], [132.8895491, 34.0576609], [132.8898704, 34.0578533], [132.8903213, 34.0581234], [132.8909969, 34.0584727], [132.8910891, 34.0585204], [132.8916385, 34.0588618], [132.8917423, 34.0589263], [132.8922665, 34.0593606], [132.8926791, 34.0598163], [132.893398, 34.0606805], [132.8936432, 34.0609226], [132.8937945, 34.0610609], [132.8940972, 34.0612986], [132.8948381, 34.0617049], [132.8954652, 34.0620374], [132.8954903, 34.0620507], [132.8956426, 34.0621324], [132.8962231, 34.0624435], [132.8972904, 34.063019], [132.8979844, 34.0633648], [132.8985061, 34.0635982], [132.899178, 34.0638592], [132.8996069, 34.0640042], [132.9001011, 34.0641316], [132.9005819, 34.0642272], [132.9010376, 34.0642925], [132.9014223, 34.0643371], [132.9014605, 34.0643392], [132.9020704, 34.0643796], [132.9026756, 34.0643839], [132.9031678, 34.0643513], [132.9031974, 34.0643493], [132.9037899, 34.0642906], [132.9048163, 34.0640853], [132.9054179, 34.0639094], [132.9058197, 34.0637735], [132.906692, 34.063483], [132.9073969, 34.0632293], [132.9074841, 34.0631988], [132.9083562, 34.0628738], [132.9085445, 34.062807], [132.9085992, 34.0627823], [132.9086754, 34.0627483], [132.909563, 34.0624237], [132.9105203, 34.0620737], [132.9109595, 34.0619828], [132.9112732, 34.0619366], [132.9116127, 34.0619223], [132.9119006, 34.0619401], [132.91257, 34.062037], [132.9130136, 34.0621252], [132.9138172, 34.0622926], [132.9140879, 34.0622961], [132.9144102, 34.0622463], [132.9146551, 34.0621217], [132.9149001, 34.0618796], [132.915218, 34.0614809], [132.9156844, 34.0608241], [132.9159572, 34.060541], [132.9162022, 34.0603559], [132.9165327, 34.0602033], [132.9170507, 34.0600651], [132.917491, 34.0600218], [132.9178133, 34.0600574], [132.9179469, 34.0600811], [132.9181789, 34.0601223], [132.9193348, 34.0604456], [132.9200607, 34.060652], [132.9208127, 34.0608699], [132.921299, 34.0610002], [132.921828, 34.0611419], [132.9218766, 34.0611539], [132.9219805, 34.0611838], [132.9220153, 34.0611941], [132.9228289, 34.0614328], [132.923909, 34.0617434], [132.9244164, 34.0618969], [132.9250519, 34.0620638], [132.9250874, 34.0620746], [132.9251547, 34.0620934], [132.9251757, 34.0620984], [132.9256177, 34.0622221], [132.9256958, 34.0622457], [132.9273425, 34.0627046], [132.9279353, 34.0628751], [132.9282593, 34.0629677], [132.9285498, 34.0630642], [132.9287671, 34.0631473], [132.9290646, 34.063261], [132.929344, 34.063379], [132.9296305, 34.0635157], [132.9300138, 34.0637209], [132.931201, 34.0643552], [132.9313686, 34.0644527], [132.9320512, 34.0648202], [132.9322192, 34.0649075], [132.932258, 34.0649307], [132.9329801, 34.065321], [132.9333607, 34.0655263], [132.9342924, 34.0660258], [132.9345409, 34.0661513], [132.9350121, 34.0663752], [132.9358571, 34.0666996], [132.9363023, 34.0668706], [132.9370021, 34.0670631], [132.9387854, 34.0673657], [132.9405559, 34.0676825], [132.9424791, 34.0679883], [132.9426143, 34.0680135], [132.9428011, 34.0680442], [132.9428545, 34.0680515], [132.9435423, 34.0682252], [132.9439285, 34.0682749], [132.9451388, 34.0683826], [132.9457502, 34.0684246], [132.9461018, 34.0684246], [132.9464217, 34.0683774], [132.9466973, 34.0683092], [132.9475935, 34.0680204], [132.9483537, 34.0677711], [132.9495926, 34.0673461], [132.9498998, 34.0672044], [132.9502353, 34.0669599], [132.9502609, 34.0669414], [132.9503858, 34.0668253], [132.9506839, 34.0665503], [132.9509135, 34.0663385], [132.9517403, 34.0654647], [132.9517527, 34.0654515], [132.9518273, 34.0653721], [132.9524181, 34.0647431], [132.9527603, 34.0644046], [132.9531879, 34.0640503], [132.9538246, 34.0636278], [132.9543536, 34.0633444], [132.9548382, 34.0631292], [132.9554116, 34.0629298], [132.9563936, 34.0626831], [132.9569638, 34.0625703], [132.9576036, 34.0624443], [132.9587186, 34.0622475], [132.9596563, 34.0620743], [132.9611989, 34.0617725], [132.9623903, 34.0614865], [132.9636339, 34.0611418], [132.9643824, 34.060917], [132.9655909, 34.0604938], [132.9659409, 34.0603712], [132.9669727, 34.0599477], [132.9677983, 34.0596089], [132.9687178, 34.059247], [132.9689819, 34.059143], [132.970074, 34.0587056], [132.9708206, 34.058414], [132.9717661, 34.0580081], [132.9721964, 34.0577968], [132.9722287, 34.057781], [132.9728464, 34.0575186], [132.9738538, 34.0570147], [132.9748666, 34.0564694], [132.9756593, 34.0559833], [132.9760204, 34.0557025], [132.9764738, 34.0553392], [132.9764968, 34.0553222], [132.9766492, 34.0552098], [132.9767304, 34.0551372], [132.976894, 34.0549859], [132.9769299, 34.0549529], [132.9772355, 34.0546723], [132.9774271, 34.0544786], [132.9786347, 34.0532581], [132.9790404, 34.0527578], [132.9792842, 34.0525133], [132.9804877, 34.051323], [132.9809322, 34.0508833], [132.9811494, 34.0506754], [132.9820128, 34.049865], [132.9825975, 34.049302], [132.9830769, 34.0488285], [132.9833427, 34.0485837], [132.9842178, 34.0477923], [132.9845734, 34.0474634], [132.9860885, 34.0461184], [132.987331, 34.0450504], [132.9887586, 34.0438587], [132.9892981, 34.0434032], [132.9902249, 34.0426444], [132.9912374, 34.0417998], [132.9919129, 34.0412365], [132.9926506, 34.0406367], [132.9934114, 34.0400096], [132.9939655, 34.0395469], [132.9943502, 34.0392256], [132.9949707, 34.0387074], [132.9963781, 34.0375383], [132.9964547, 34.037484], [132.9968107, 34.0371879], [133.0006717, 34.0339852], [133.0010546, 34.0336672], [133.0011531, 34.0335854], [133.0011754, 34.0335669], [133.002111, 34.0327734], [133.0021691, 34.0327253], [133.0022178, 34.0326764], [133.0027811, 34.0321348], [133.0031786, 34.031736], [133.0035004, 34.0313928], [133.0035138, 34.0313785], [133.0040526, 34.0308079], [133.0042582, 34.0305902], [133.0042619, 34.0305863], [133.0049273, 34.0297901], [133.0050507, 34.0296424], [133.0053206, 34.0293115], [133.0056489, 34.0289089], [133.0061458, 34.0283041], [133.0063698, 34.0280317], [133.0071906, 34.027031], [133.0076516, 34.0264552], [133.007749, 34.0263347], [133.008358, 34.0255641], [133.0090689, 34.0247038], [133.0099615, 34.0236299], [133.010496, 34.023], [133.0109726, 34.0225494], [133.0113372, 34.0222106], [133.0114773, 34.0220829], [133.012124, 34.0215907], [133.012458, 34.021357], [133.0132811, 34.0208662], [133.0137896, 34.0206125], [133.0143981, 34.0203382], [133.0148086, 34.0201858], [133.0152148, 34.0200499], [133.0152439, 34.0200417], [133.0160072, 34.0198274], [133.0165687, 34.0197015], [133.0172058, 34.0195884], [133.0177172, 34.0195269], [133.0180837, 34.0194944], [133.0186436, 34.0194566], [133.0190341, 34.0194381], [133.0194264, 34.0194213], [133.0222794, 34.0193871], [133.0240487, 34.0193641], [133.0257029, 34.0193382], [133.026176, 34.019324], [133.0266047, 34.0192877], [133.0270673, 34.0192438], [133.0274004, 34.0192031], [133.0276282, 34.0191631], [133.0278608, 34.0191143], [133.0282069, 34.0190406], [133.0286323, 34.0189081], [133.0287965, 34.018855], [133.0290399, 34.0187556], [133.0293239, 34.0186428], [133.0295605, 34.0185326], [133.0298895, 34.0183602], [133.0302119, 34.0181524], [133.0305782, 34.0179088], [133.0306019, 34.017893], [133.0308095, 34.0177161], [133.0310232, 34.0175255], [133.0312335, 34.017318], [133.0315627, 34.0169696], [133.0316962, 34.0168216], [133.0319566, 34.0164836], [133.0321629, 34.0161332]], [[132.9428545, 34.0680515], [132.9435262, 34.0681332], [132.943919, 34.0681857], [132.9451639, 34.0682933], [132.9457911, 34.0683379], [132.9460984, 34.0683431], [132.9463644, 34.0683011], [132.946659, 34.0682329], [132.9475555, 34.0679364], [132.9482809, 34.0677002], [132.9492502, 34.0673775], [132.9495543, 34.0672673], [132.9498178, 34.0671315], [132.9500772, 34.0669583], [132.9501798, 34.0668697], [132.9502524, 34.0668155], [132.9503006, 34.0667762], [132.9508847, 34.0662386], [132.9517001, 34.0653662], [132.9517155, 34.0653499], [132.9517954, 34.0652649], [132.9520916, 34.0649502], [132.9523893, 34.0646222], [132.9527315, 34.0643047], [132.9531223, 34.063994], [132.9535075, 34.0637169], [132.9538401, 34.0635096], [132.9541284, 34.0633521], [132.9544293, 34.0631947], [132.9548031, 34.0630477], [132.9553247, 34.0628545], [132.9555602, 34.0627932], [132.9563838, 34.0625964], [132.9569748, 34.0624784], [132.957578, 34.0623628], [132.9583461, 34.0622289], [132.958706, 34.0621661], [132.9596326, 34.0619943], [132.9611371, 34.0616978], [132.9623595, 34.0614228], [132.9635577, 34.0610711], [132.9643422, 34.0608333], [132.9658956, 34.0602926], [132.9677548, 34.0595425], [132.9689221, 34.0590716], [132.9699276, 34.0586645], [132.9707648, 34.058307], [132.9716868, 34.0579331], [132.9721285, 34.057742], [132.9727955, 34.0574371], [132.9737691, 34.0569474], [132.973787, 34.0569384], [132.9747556, 34.056369], [132.9751554, 34.0560934], [132.9755355, 34.0558126], [132.9758396, 34.0555738], [132.9761325, 34.0553063], [132.9762182, 34.055228], [132.9763301, 34.0551198], [132.9764125, 34.055041], [132.9765283, 34.0549432], [132.976574, 34.0549046], [132.9769478, 34.0545818], [132.9776986, 34.0538312], [132.9782286, 34.0533298], [132.978461, 34.0531099], [132.9785253, 34.0530491], [132.9792144, 34.0524444], [132.980413, 34.0512403], [132.9808346, 34.0508168], [132.981913, 34.0497817], [132.9825303, 34.0492165], [132.9830128, 34.0487439], [132.9832563, 34.048514], [132.9841314, 34.0477184], [132.9844815, 34.0474083], [132.9860363, 34.0460326], [132.9872447, 34.0449918], [132.9886871, 34.0437852], [132.9892257, 34.0433331], [132.9897123, 34.0429338], [132.9901502, 34.0425745], [132.9910009, 34.0418692], [132.9918435, 34.0411706], [132.9925758, 34.0405638], [132.9928676, 34.040323], [132.9933678, 34.0399102], [132.9939586, 34.0394209], [132.9948779, 34.0386595], [132.9948865, 34.0386524], [132.9959237, 34.0377785], [132.9963261, 34.0374394], [132.9967174, 34.0371097], [132.9982991, 34.0358081], [132.999561, 34.0347695], [133.0000042, 34.0344048], [133.0005877, 34.0339246], [133.0009784, 34.0336074], [133.0010739, 34.0335298], [133.0010928, 34.0335145], [133.002059, 34.0326421], [133.0026871, 34.0320641], [133.0030888, 34.0316699], [133.0034468, 34.0313185], [133.004127, 34.0305635], [133.0041674, 34.0305241], [133.0041713, 34.0305203], [133.0048456, 34.0297244], [133.0049609, 34.0295883], [133.0052315, 34.0292557], [133.0055641, 34.0288469], [133.0060507, 34.0282334], [133.0062725, 34.0279594], [133.0071066, 34.0269432], [133.0076444, 34.0262836], [133.007995, 34.025871], [133.008309, 34.0255014], [133.009004, 34.0246264], [133.0098781, 34.0235709], [133.0104237, 34.0229443], [133.0108628, 34.0224869], [133.0112479, 34.0221279], [133.0114086, 34.0220042], [133.0120664, 34.0214954], [133.0123727, 34.0212765], [133.0132079, 34.020798], [133.01372, 34.0205346], [133.014341, 34.0202769], [133.0147201, 34.0201169], [133.0151086, 34.0199963], [133.0151459, 34.0199849], [133.0159698, 34.0197324], [133.0165323, 34.0196165], [133.0171899, 34.0195014], [133.0176936, 34.0194403], [133.0180865, 34.0194041], [133.0186281, 34.0193655], [133.0190325, 34.0193447], [133.0194113, 34.0193354], [133.0222763, 34.0192967], [133.0240183, 34.0192757], [133.0244364, 34.0192701], [133.0257037, 34.0192561], [133.0261816, 34.0192271], [133.02661, 34.0192045], [133.027019, 34.0191626], [133.0273757, 34.0191085], [133.0276174, 34.0190723], [133.027822, 34.0190283], [133.0281501, 34.0189482], [133.0285995, 34.0188124], [133.0287486, 34.0187574], [133.0289856, 34.0186722], [133.0292523, 34.018554], [133.0294932, 34.0184479], [133.029821, 34.0182746], [133.0301499, 34.0180695], [133.0304958, 34.0178412], [133.0305108, 34.0178313], [133.0307355, 34.017647], [133.03093, 34.0174707], [133.0311543, 34.0172496], [133.0314928, 34.0168953], [133.031719, 34.0166651], [133.0321629, 34.0161332], [133.0325338, 34.0155184], [133.0328947, 34.0146991], [133.0332385, 34.0137516], [133.0335307, 34.0127934], [133.0337456, 34.0118602], [133.0337715, 34.0117066], [133.0338896, 34.0108893], [133.0339152, 34.0104849], [133.0339018, 34.0101023], [133.0338927, 34.0096825], [133.0339145, 34.0092811], [133.0340624, 34.0072244], [133.0341003, 34.0068674], [133.0341351, 34.0065576], [133.0341853, 34.006245], [133.03425, 34.0059577], [133.0343391, 34.0056422], [133.0344645, 34.0052399], [133.0345615, 34.0049954], [133.0346664, 34.0047524], [133.0347965, 34.0045022], [133.034925, 34.0042777], [133.0350724, 34.0040506], [133.0352191, 34.0038388], [133.0353901, 34.0036259], [133.035569, 34.0034208], [133.0357046, 34.0032844], [133.0360558, 34.0029407], [133.0366002, 34.0024797], [133.0369638, 34.0022428], [133.0373071, 34.0020427], [133.0376209, 34.001867], [133.0387142, 34.0012975], [133.0388818, 34.0012262], [133.0390959, 34.0011529], [133.0393143, 34.0010616], [133.0395483, 34.0009429], [133.0397841, 34.0008057], [133.040007, 34.0006633], [133.0401859, 34.0005486], [133.0403515, 34.0004101], [133.0405835, 34.0001974], [133.0408185, 33.9999702], [133.0410468, 33.9997257], [133.0412488, 33.9994918], [133.0414205, 33.99929], [133.0415672, 33.9991091], [133.0420288, 33.9985473], [133.0426385, 33.9977975], [133.0426599, 33.9977729], [133.0427036, 33.9977224], [133.043543, 33.9967545], [133.0436479, 33.996645], [133.043702, 33.9965859], [133.0438325, 33.9964527], [133.044283, 33.9960257], [133.0445084, 33.9958244], [133.0449336, 33.9954627], [133.0453476, 33.9951316], [133.0456653, 33.9949014], [133.0459889, 33.9946785], [133.0464087, 33.9943893], [133.0469109, 33.9940771], [133.0472443, 33.9938877], [133.0476215, 33.9936882], [133.0480645, 33.9934699], [133.0484528, 33.9932872], [133.049336, 33.9928557], [133.0499528, 33.9925696], [133.05042, 33.992235], [133.049894, 33.9924476], [133.0495363, 33.9926311], [133.0492914, 33.9927567], [133.0492688, 33.9927683], [133.0487472, 33.9930233], [133.048325, 33.9932344], [133.0481237, 33.993335], [133.0475737, 33.9936079], [133.0472228, 33.9937901], [133.0468653, 33.9939933], [133.0463431, 33.9943157], [133.045942, 33.9945769], [133.0455551, 33.9948393], [133.0452589, 33.9950531], [133.0448339, 33.9953952], [133.0444184, 33.9957491], [133.044205, 33.9959383], [133.0437297, 33.9963878], [133.043569, 33.996554], [133.0434485, 33.9966807], [133.0426374, 33.9976453], [133.0425915, 33.9976999], [133.0425688, 33.9977269], [133.0419349, 33.9984969], [133.0414829, 33.9990509], [133.0413381, 33.9992309], [133.0411558, 33.9994392], [133.0409465, 33.999673], [133.0407218, 33.9999027], [133.0404968, 34.0001137], [133.0402498, 34.0003295], [133.0400871, 34.0004539], [133.0399336, 34.0005755], [133.0396437, 34.0007583], [133.0388818, 34.0012262]], [[133.05042, 33.992235], [133.0505603, 33.9921234], [133.0509873, 33.9917853], [133.05116, 33.991581], [133.0514994, 33.9912256], [133.051825, 33.9908265], [133.0518668, 33.9907582], [133.0520119, 33.990521], [133.0521936, 33.9901316], [133.052316, 33.9897256], [133.052386, 33.9892567], [133.0524103, 33.9889237], [133.0524274, 33.9886886], [133.0524744, 33.9876284], [133.0525155, 33.9867022], [133.0525211, 33.9865762], [133.0525343, 33.9862799], [133.0525885, 33.985104], [133.0526396, 33.9847645], [133.0526742, 33.984557], [133.0529522, 33.9838572], [133.0533179, 33.9832534], [133.0534929, 33.9829398], [133.0535119, 33.9828983], [133.0536515, 33.982666], [133.0538558, 33.982359], [133.0539487, 33.9822406], [133.0540258, 33.9821447], [133.0541845, 33.9819472], [133.0544429, 33.9817153], [133.0547073, 33.9815202], [133.0550658, 33.9813074], [133.0554371, 33.9811101], [133.0555373, 33.9810616], [133.0557171, 33.9809881], [133.0562836, 33.9807564], [133.0576313, 33.9802053], [133.0592949, 33.9794753], [133.0597179, 33.9792461], [133.0599712, 33.9790658], [133.060126, 33.978929], [133.0603191, 33.9787025], [133.0604383, 33.9785242], [133.0605766, 33.9782956], [133.0607248, 33.9779772], [133.0607683, 33.9778617], [133.0608309, 33.9776027], [133.0610176, 33.9764135], [133.0612738, 33.9748753], [133.061302, 33.9747061], [133.0614806, 33.9736335], [133.0616038, 33.9731138], [133.061622, 33.973037], [133.0618861, 33.9722364], [133.0620157, 33.9719679], [133.0622482, 33.971415], [133.0622632, 33.9713793], [133.0623967, 33.9710618], [133.0628058, 33.9700889], [133.0630564, 33.9695709], [133.0631053, 33.9695028], [133.0632391, 33.9692973], [133.0634678, 33.9689463], [133.0639402, 33.9683863], [133.0646827, 33.9676566], [133.0660849, 33.9662932], [133.0661515, 33.9662285], [133.0667527, 33.9656437], [133.0674767, 33.9649396], [133.067523, 33.9648946], [133.0680867, 33.9643505], [133.068131, 33.9643098], [133.0682263, 33.9642169], [133.0682469, 33.964197], [133.0701341, 33.9623796], [133.0723708, 33.9601816], [133.0731904, 33.9593838], [133.073922, 33.95868], [133.0744898, 33.9581337], [133.0749212, 33.9577234], [133.0752087, 33.957439], [133.0757236, 33.9569296], [133.0761903, 33.9564678], [133.077022, 33.955645], [133.0774105, 33.9551623], [133.077909, 33.9543707], [133.0782964, 33.9537482], [133.0783294, 33.9537035], [133.0785565, 33.9533242], [133.0785871, 33.9532756], [133.0788611, 33.9528349], [133.0791046, 33.9524052], [133.0793077, 33.9519841], [133.0795829, 33.9512734], [133.0797497, 33.9508653], [133.0803982, 33.9492874], [133.08061, 33.9487649], [133.0812626, 33.9471549], [133.0812706, 33.9471317], [133.081316, 33.9470236], [133.081324, 33.9470048], [133.0815583, 33.9464329], [133.0817724, 33.9458734], [133.0819267, 33.945473], [133.0820913, 33.9449318], [133.0824027, 33.9439572], [133.0827326, 33.9429244], [133.0827786, 33.9427685], [133.0827895, 33.9427318], [133.082889, 33.9423935], [133.0828961, 33.9423707], [133.0830851, 33.9417249], [133.0831359, 33.9415516], [133.0833876, 33.940635], [133.0835032, 33.9402306], [133.0836399, 33.9398661], [133.0836665, 33.939818], [133.0838606, 33.9394668], [133.0839693, 33.9392899], [133.0840667, 33.9391708], [133.0841796, 33.939052], [133.0845245, 33.9387447], [133.0849058, 33.9384329], [133.0849722, 33.9383781], [133.085241, 33.9381368], [133.0853938, 33.9379997], [133.0854928, 33.9379108], [133.0855795, 33.9378381], [133.0857681, 33.93768], [133.0858105, 33.9376444], [133.0859893, 33.9374894], [133.0861253, 33.9373714], [133.0862709, 33.9372345], [133.0870837, 33.9365101], [133.0871808, 33.9364235], [133.0875624, 33.9360834], [133.0879366, 33.9357855], [133.0883716, 33.9354392], [133.0885521, 33.9352955], [133.0889154, 33.9349925], [133.0889598, 33.9349555], [133.0890886, 33.9348383], [133.0891157, 33.9348146], [133.0891421, 33.9347915], [133.0891946, 33.9347436], [133.0898046, 33.9342327], [133.0900026, 33.9340669], [133.0902529, 33.9338502], [133.0904455, 33.9336562], [133.0912598, 33.9329919], [133.0912995, 33.9329595], [133.0921643, 33.9322538], [133.092232, 33.9321986], [133.0927186, 33.9318003], [133.093253, 33.9313335], [133.0936798, 33.9309687], [133.0937287, 33.9309269], [133.0938766, 33.9308005], [133.0939192, 33.9307641], [133.0952296, 33.929644], [133.0959729, 33.9290087], [133.0965363, 33.928536], [133.0967447, 33.9283564], [133.096833, 33.9282698], [133.0969069, 33.9281809], [133.0969902, 33.9280764], [133.0970693, 33.927942], [133.0971262, 33.9278261], [133.0971861, 33.9276735], [133.0972116, 33.9275834], [133.0972731, 33.9273539], [133.097372, 33.926986], [133.0975808, 33.9261958], [133.09766, 33.9258853], [133.0977848, 33.9254228], [133.097891, 33.9250664], [133.0979464, 33.9248775], [133.0980019, 33.9246953], [133.0980624, 33.9245805], [133.0981435, 33.9244609], [133.0982692, 33.9242949], [133.0984313, 33.9241328], [133.0985418, 33.9240261], [133.0990553, 33.9235106], [133.0994991, 33.9230715], [133.1000896, 33.9224861], [133.1001106, 33.9224652], [133.1001773, 33.9223991], [133.1001894, 33.9223871], [133.1002552, 33.9223219], [133.1009771, 33.9216063], [133.101532, 33.9210445], [133.1019762, 33.9206175], [133.1022611, 33.9203436], [133.1025282, 33.9200532], [133.1028183, 33.9197377], [133.1029016, 33.9196472], [133.1032752, 33.9190803], [133.1037893, 33.9183002], [133.1041561, 33.9177436], [133.1042702, 33.9175706], [133.104283, 33.9175516], [133.1043255, 33.9174885], [133.1043465, 33.9174574], [133.104956, 33.9165412], [133.1049859, 33.9164969], [133.1051223, 33.9163182], [133.1052688, 33.9161346], [133.1054535, 33.9159007], [133.1055784, 33.9157616], [133.1056733, 33.9156558], [133.1060457, 33.9152754], [133.1071775, 33.9141651], [133.1079646, 33.9134393], [133.1095296, 33.9119558], [133.1101399, 33.9113684], [133.1112507, 33.910348], [133.1119169, 33.9097047], [133.1121497, 33.9094062], [133.1123097, 33.9091577], [133.1123799, 33.9090181], [133.1124744, 33.9087987], [133.1125245, 33.9086337], [133.1125705, 33.9084751], [133.1126062, 33.9082319], [133.1126205, 33.9079947], [133.1126132, 33.9077689], [133.1125846, 33.9075552], [133.112531, 33.9073534], [133.1124666, 33.9071277], [133.1123174, 33.9067625], [133.1122933, 33.9066919], [133.1116941, 33.9051687], [133.1115341, 33.9047495], [133.1114742, 33.9046075], [133.1111003, 33.9036102], [133.110917, 33.9031565], [133.1104841, 33.9019878], [133.1104258, 33.9018304], [133.1103833, 33.9017214], [133.1098766, 33.9004197], [133.1098462, 33.9003408], [133.1098173, 33.9002658], [133.1094898, 33.8994174], [133.1092418, 33.898772], [133.109022, 33.8981698], [133.1089849, 33.8980571], [133.1089067, 33.8978611], [133.1087792, 33.8975923], [133.1087107, 33.8974516], [133.1085852, 33.8971757]]]}, "id": "relation/9444474"}]}