{"type": "FeatureCollection", "generator": "kokudo-quiz tools/fetch_raw.py (Overpass API)", "copyright": "The data included in this document is from www.openstreetmap.org. The data is made available under ODbL.", "timestamp": "2026-09-30T14:48:56Z", "features": [{"type": "Feature", "properties": {"@id": "relation/9361958", "colour": "red", "from": "佐賀県唐津市", "name": "国道203号", "name:en": "National Highway Route 203", "name:ja": "国道203号", "name:ja-Hira": "こくどうにひゃくさんごう", "name:ja-Latn": "Kokudo 203 Gou", "network": "JP:national", "note": "ルートリレーションの一貫性確保のため、現道のみを扱います。", "official_name": "一般国道203号", "operator": "九州地方整備局", "ref": "203", "route": "road", "to": "佐賀県佐賀市", "type": "route", "wikidata": "Q6156931", "wikipedia": "ja:国道203号"}, "geometry": {"type": "MultiLineString", "coordinates": [[[129.982729, 33.4286141], [129.9827856, 33.4284835], [129.9830007, 33.4281184], [129.9831524, 33.427857], [129.983358, 33.4275621], [129.9835645, 33.427365], [129.9839051, 33.4271288], [129.9842229, 33.4269845], [129.9844892, 33.4268896], [129.9847004, 33.4268144], [129.9851068, 33.4266755], [129.9856801, 33.4264577], [129.9859864, 33.4262936], [129.9861904, 33.4261596], [129.986464, 33.4259204], [129.986708, 33.4256358], [129.9868474, 33.4254221], [129.9871501, 33.4248159], [129.9873058, 33.4244122], [129.9873557, 33.4242249], [129.987386, 33.4239683], [129.987388, 33.4236959], [129.9873593, 33.4234368], [129.9871867, 33.4225796], [129.9870957, 33.4221315], [129.9869671, 33.4214536], [129.9868683, 33.4209465], [129.9868503, 33.4208381], [129.9867892, 33.4205582], [129.9866791, 33.4199928], [129.9865674, 33.4193463], [129.9865036, 33.4190328], [129.9863577, 33.4183462], [129.9862155, 33.4179586], [129.986016, 33.4175765], [129.9856959, 33.4170447], [129.9856514, 33.4169781], [129.985607, 33.4169116], [129.9855509, 33.4168254], [129.9854335, 33.4166339], [129.9851505, 33.4161888], [129.9848798, 33.4157674], [129.9845821, 33.4153034], [129.9841267, 33.4146213], [129.9840405, 33.4144897], [129.9836189, 33.4138672], [129.983042, 33.4131806], [129.9821958, 33.4122585], [129.9821153, 33.4121732], [129.9811498, 33.4111509], [129.9807459, 33.4107805], [129.9801362, 33.4102691], [129.9790304, 33.4093669], [129.9789727, 33.4093253], [129.9783883, 33.4089038], [129.9769, 33.4080377], [129.9761915, 33.4075354], [129.9751871, 33.4067584], [129.9747003, 33.4063321], [129.9743636, 33.4059872], [129.9740734, 33.4056086], [129.9736794, 33.4049779], [129.9734077, 33.4045043], [129.9731842, 33.4041681], [129.973008, 33.4039537], [129.9727652, 33.4036866]], [[129.9826408, 33.4284747], [129.982863, 33.4280813], [129.9830267, 33.4278082], [129.9832372, 33.4275183], [129.9833298, 33.4274177], [129.9836476, 33.4271608], [129.9839199, 33.4270035], [129.9842377, 33.4268759], [129.9846997, 33.4267237], [129.9850986, 33.4265972], [129.9853543, 33.426497], [129.9856558, 33.4263633], [129.9859664, 33.4261943], [129.9861836, 33.4260465], [129.9863965, 33.4258517], [129.9866045, 33.4256067], [129.9867558, 33.4253772], [129.9870593, 33.4247594], [129.9871297, 33.4246112], [129.9872027, 33.4244026], [129.9872578, 33.4241992], [129.9872927, 33.4239476], [129.9872814, 33.4236527], [129.9872376, 33.4233799], [129.9871172, 33.4228059], [129.9870455, 33.4223974], [129.9869998, 33.4221796], [129.9868392, 33.4213332], [129.9867486, 33.4208535], [129.9867401, 33.4208086], [129.9867341, 33.4207706], [129.9865232, 33.4196827], [129.9864112, 33.4191266], [129.9863013, 33.4185671], [129.9862101, 33.418228], [129.9860845, 33.4178954], [129.9859512, 33.4176328], [129.9855087, 33.416957], [129.9854468, 33.4168676], [129.985398, 33.4167924], [129.9853685, 33.4167469], [129.9853314, 33.4166896], [129.9851393, 33.4163801], [129.9848577, 33.4159364], [129.9839462, 33.414527], [129.9835318, 33.4139164], [129.9829473, 33.4132388], [129.9821357, 33.4123458], [129.9820241, 33.4122314], [129.9809084, 33.4110893], [129.9806011, 33.4107968], [129.9800471, 33.4103377], [129.9798908, 33.4102051], [129.9792781, 33.4096763], [129.9789744, 33.4094482], [129.9789028, 33.4093888], [129.9783186, 33.4089814], [129.9768448, 33.4081009], [129.9761995, 33.4076518], [129.9751576, 33.4068484], [129.9746595, 33.4064161], [129.9743189, 33.4060683], [129.9740306, 33.4057302], [129.9736933, 33.405182], [129.9734649, 33.4048045], [129.9732692, 33.404481], [129.9730791, 33.4041811], [129.972917, 33.4039852], [129.9727094, 33.4037694], [129.9727652, 33.4036866], [129.9727968, 33.4036453], [129.9728581, 33.4035649], [129.9733977, 33.402916], [129.9734512, 33.4028374], [129.9735932, 33.4026209], [129.9737479, 33.4023489], [129.9738436, 33.4021806], [129.9738725, 33.4021299], [129.9740065, 33.4019026], [129.9741052, 33.401758], [129.9742299, 33.4016002], [129.974378, 33.4014368], [129.9744096, 33.4014055], [129.9745019, 33.4013145], [129.9746359, 33.4011912], [129.9751369, 33.4007527], [129.9756137, 33.4003239], [129.9763089, 33.3997068], [129.9765744, 33.3994652], [129.9767005, 33.399336], [129.9769675, 33.3990242], [129.9770692, 33.3988988], [129.9771656, 33.3987413], [129.9773154, 33.3984979], [129.9774048, 33.3983478], [129.9774297, 33.3983032], [129.9774902, 33.3981948], [129.977886, 33.3975018], [129.9780415, 33.3972271], [129.9780679, 33.3971785], [129.9781219, 33.3970788], [129.9781865, 33.3969728], [129.9782081, 33.3969373], [129.9785756, 33.396348], [129.9787644, 33.3960142], [129.9790631, 33.395495], [129.9791208, 33.3953989], [129.9792808, 33.3951148], [129.9794739, 33.3947771], [129.9797418, 33.3943409], [129.9797725, 33.3942939], [129.9802787, 33.3934664], [129.9803243, 33.3933903], [129.9806456, 33.3928539], [129.9807868, 33.3926266], [129.9808112, 33.3925858], [129.9808466, 33.3925266], [129.9809615, 33.3923381], [129.9810578, 33.3921594], [129.9811767, 33.3919471], [129.9814618, 33.3914953], [129.9817366, 33.3910885], [129.9819336, 33.3908266], [129.982196, 33.3905042], [129.9822969, 33.3903812], [129.9824725, 33.3901795], [129.9829247, 33.3896062], [129.9830737, 33.3893845], [129.9831903, 33.3891528], [129.9832882, 33.3888863], [129.9833767, 33.388445], [129.9833955, 33.3881786], [129.9833901, 33.3879325], [129.9833681, 33.3875396], [129.9831973, 33.3865693], [129.9831299, 33.3859948], [129.9831337, 33.3858398], [129.9831538, 33.3856631], [129.9831781, 33.3855909], [129.9832165, 33.3854767], [129.9832881, 33.3853754], [129.9833179, 33.3853333], [129.9834339, 33.3851821], [129.9835419, 33.3850642], [129.9836862, 33.384932], [129.9838591, 33.3848085], [129.9840513, 33.3846902], [129.9843666, 33.3844964], [129.9845021, 33.3844137], [129.984703, 33.3842711], [129.9848864, 33.3841172], [129.9850134, 33.3839941], [129.9851215, 33.3838747], [129.9851344, 33.3838587], [129.985308, 33.3836434], [129.9854615, 33.3834317], [129.9855437, 33.3833186], [129.9856616, 33.3831556], [129.9858448, 33.3828992], [129.985998, 33.3826803], [129.9862453, 33.3823247], [129.9865504, 33.3818959], [129.9871662, 33.3810064], [129.9875189, 33.3804944], [129.9875455, 33.3804559], [129.98775, 33.3801828], [129.9879892, 33.3799264], [129.9882456, 33.3797135], [129.9884898, 33.3795526], [129.9887696, 33.3794154], [129.9893333, 33.3791839], [129.9893564, 33.3791745], [129.9899003, 33.378955], [129.990395, 33.3787366], [129.990739, 33.3785476], [129.9911276, 33.3782812], [129.9913605, 33.3780823], [129.9916925, 33.3777697], [129.9920201, 33.3774126], [129.9924258, 33.3769656], [129.9928287, 33.3765183], [129.9933731, 33.3759178], [129.9937844, 33.3754655], [129.994141, 33.3750798], [129.9944088, 33.3748294], [129.994554, 33.3746938], [129.9948001, 33.3744686], [129.9951001, 33.3741563], [129.9951645, 33.3740773], [129.9952632, 33.3739562], [129.995423, 33.3737536], [129.9955745, 33.3735457], [129.9956915, 33.3733916], [129.9958461, 33.3732166], [129.9960689, 33.3729595], [129.9962326, 33.3727874], [129.99645, 33.3725512], [129.9965605, 33.3724321], [129.9966146, 33.3723729], [129.9967913, 33.3721749], [129.9971079, 33.3718121], [129.9974676, 33.3714053], [129.9974828, 33.3713887], [129.9981078, 33.3707076], [129.9982482, 33.3705576], [129.9986045, 33.370165], [129.999033, 33.3696947], [130.0000835, 33.3685294], [130.0005371, 33.3680429], [130.0005705, 33.3680071], [130.0009827, 33.367635], [130.0014555, 33.3672072], [130.0015506, 33.3671212], [130.0028978, 33.3658945], [130.0038151, 33.3650814], [130.0040294, 33.3649085], [130.0040421, 33.3648976], [130.0046332, 33.3644967], [130.0049138, 33.3642625], [130.0051173, 33.364034], [130.0053332, 33.3637194], [130.0054511, 33.3635083], [130.0055505, 33.3632758], [130.0056242, 33.3630258], [130.0056698, 33.3628322], [130.0056873, 33.3625981], [130.0057717, 33.3617299], [130.0058401, 33.3611162], [130.005844, 33.3608685], [130.0058443, 33.3608498], [130.0058335, 33.3605897], [130.0057705, 33.3601573], [130.0056511, 33.3597574], [130.005509, 33.3594148], [130.0051427, 33.3587766], [130.0049591, 33.3584615], [130.004814, 33.3582535], [130.0047177, 33.3581574], [130.0046513, 33.3580911], [130.0044349, 33.3579123], [130.0040191, 33.3576093], [130.0037926, 33.3573873], [130.0036738, 33.3572035], [130.0035272, 33.3568732], [130.003504, 33.3566692], [130.0035255, 33.3562749], [130.0035898, 33.3559881], [130.0036899, 33.355636], [130.003783, 33.3552623], [130.003864, 33.3549434], [130.0038859, 33.3548573], [130.0039143, 33.3547665], [130.0039975, 33.3545005], [130.004072, 33.3542942], [130.0041627, 33.3541149], [130.0042695, 33.3539575], [130.0044176, 33.3537989], [130.0045336, 33.3536929], [130.004669, 33.353589], [130.0047146, 33.3535618], [130.0048227, 33.353502], [130.0049417, 33.353452], [130.0050459, 33.3534119], [130.0052374, 33.3533493], [130.0053781, 33.3533235], [130.005517, 33.3533154], [130.00569, 33.3533187], [130.0059877, 33.35334], [130.0061989, 33.3533565], [130.0069641, 33.3534162], [130.0074174, 33.3534263], [130.0075856, 33.353429], [130.0077821, 33.3534173], [130.0079981, 33.3533882], [130.0082823, 33.3533344], [130.0086863, 33.3532354], [130.0090026, 33.353135], [130.0093807, 33.3529904], [130.0099166, 33.3527321], [130.0104272, 33.3524585], [130.0110471, 33.3521134], [130.0118345, 33.3516915], [130.0124358, 33.3513527], [130.0127649, 33.3511671], [130.0128114, 33.3511426], [130.0129597, 33.3510644], [130.0130978, 33.3509903], [130.0137255, 33.3506539], [130.0139588, 33.3505201], [130.0142008, 33.3503583], [130.0144563, 33.3501583], [130.0146945, 33.3499409], [130.0148915, 33.3497159], [130.0150895, 33.3494616], [130.015348, 33.3491045], [130.0155282, 33.3488624], [130.0157498, 33.3486041], [130.0159851, 33.3483959], [130.0162526, 33.3482193], [130.0164872, 33.3480916], [130.0167219, 33.3479941], [130.0169794, 33.347907], [130.0171298, 33.3478701], [130.0172545, 33.3478467], [130.0173679, 33.3478258], [130.0174999, 33.3478087], [130.0176281, 33.3477997], [130.0178449, 33.3477937], [130.0180619, 33.3477979], [130.0183847, 33.3478341], [130.0187706, 33.347895], [130.0191457, 33.3479578], [130.0195585, 33.3480198], [130.019817, 33.3480591], [130.020037, 33.3480813], [130.0202785, 33.3480851], [130.0205282, 33.348065], [130.0207457, 33.3480198], [130.0209444, 33.3479634], [130.0211202, 33.3479004], [130.0212701, 33.3478418], [130.0213299, 33.3478135], [130.0213994, 33.3477809], [130.0214948, 33.3477361], [130.0216398, 33.3476671], [130.0220565, 33.3474509], [130.0223333, 33.3473048], [130.0226551, 33.3471361], [130.0228603, 33.3470053], [130.0230514, 33.346856], [130.0232236, 33.34668], [130.0233743, 33.3464898], [130.0237072, 33.3460384], [130.0238395, 33.3458894], [130.0240336, 33.3457334], [130.0242476, 33.3455805], [130.0250667, 33.3450711], [130.025651, 33.3447111], [130.0259487, 33.34451], [130.0263332, 33.3442373], [130.0265346, 33.3440911], [130.027208, 33.343626], [130.0273297, 33.343539], [130.0269147, 33.3431334], [130.0268208, 33.3430369], [130.0267578, 33.3429524], [130.0267077, 33.3428713], [130.0266698, 33.3427921], [130.0266444, 33.3427129], [130.0266259, 33.3426321], [130.0266165, 33.3425499], [130.0266204, 33.3424511], [130.0266343, 33.3423611], [130.0266945, 33.3421577], [130.0268264, 33.3418227], [130.0270621, 33.3411871], [130.027102, 33.3410148], [130.0271189, 33.3408221], [130.0271111, 33.3406189], [130.0270738, 33.3403846], [130.0269859, 33.3399867], [130.0269663, 33.3398735], [130.0269643, 33.3397546], [130.026971, 33.3396871], [130.026985, 33.3396215], [130.0270067, 33.3395491], [130.0270319, 33.3394877], [130.0270647, 33.3394241], [130.0271032, 33.3393605], [130.0271427, 33.3393063], [130.0271952, 33.3392466], [130.0272597, 33.3391865], [130.0273217, 33.3391369], [130.0273885, 33.3390914], [130.0274579, 33.3390532], [130.0275418, 33.3390151], [130.0276371, 33.3389791], [130.0277408, 33.3389506], [130.0278288, 33.3389338], [130.0279305, 33.3389228], [130.0280317, 33.3389199], [130.0281392, 33.338922], [130.0282959, 33.3389351], [130.0288648, 33.3389981], [130.0289873, 33.3390067], [130.0291148, 33.3390088], [130.0292377, 33.3389994], [130.0293463, 33.3389835], [130.0294568, 33.3389572], [130.0295582, 33.3389228], [130.0296427, 33.3388846], [130.0297251, 33.3388392], [130.0298144, 33.3387765], [130.0298952, 33.3387108], [130.0299785, 33.3386237], [130.0300465, 33.3385464], [130.0302918, 33.338222], [130.0306004, 33.33785], [130.0309534, 33.3374587], [130.0324944, 33.3359232], [130.0331373, 33.335249], [130.0334457, 33.3349068], [130.0337579, 33.3345001], [130.0340336, 33.3340864], [130.0342702, 33.3336405], [130.0344765, 33.3331814], [130.0346523, 33.3327146], [130.0347918, 33.3322645], [130.0348846, 33.3318649], [130.03491, 33.3316867], [130.0349522, 33.3314492], [130.0350155, 33.3308776], [130.035045, 33.3306116], [130.035086, 33.3292166], [130.0350754, 33.3287709], [130.0350582, 33.3281786], [130.035066, 33.3278323], [130.0350954, 33.3274467], [130.0351596, 33.3270826], [130.0352532, 33.3267081], [130.0353797, 33.3263071], [130.0355951, 33.3257729], [130.0357523, 33.3254658], [130.0359881, 33.3250847], [130.0361431, 33.324863], [130.0363775, 33.3245986], [130.0365841, 33.3243887], [130.0367532, 33.3242255], [130.036964, 33.324051], [130.0371941, 33.3238809], [130.0374359, 33.3237183], [130.0377379, 33.3235429], [130.0381786, 33.3233354], [130.0385938, 33.3231826], [130.0400858, 33.3226093], [130.0403786, 33.3224908], [130.0413719, 33.3221023], [130.0421173, 33.3218284], [130.0428374, 33.3215415], [130.0431416, 33.3214156], [130.0435326, 33.3212461], [130.0437624, 33.3211327], [130.043958, 33.3210213], [130.0443642, 33.3207759], [130.0445514, 33.320672], [130.0449668, 33.3204544], [130.0467357, 33.31953], [130.0478633, 33.3189651], [130.0482805, 33.3187653], [130.0487786, 33.3185594], [130.0491911, 33.318398], [130.0495736, 33.3182644], [130.0499937, 33.3181456], [130.0504741, 33.3180417], [130.0507872, 33.3179873], [130.0514614, 33.3179004], [130.0520766, 33.3178495], [130.0525826, 33.3177955], [130.0527379, 33.3177789], [130.0532161, 33.3177403], [130.0538156, 33.3177157], [130.0545252, 33.3177089], [130.0552461, 33.3177116], [130.0558858, 33.3177129], [130.0569189, 33.3177025], [130.0574116, 33.3176861], [130.0578349, 33.317644], [130.0582398, 33.3175917], [130.0586907, 33.3175038], [130.0588915, 33.3174543], [130.0591287, 33.3173959], [130.0595728, 33.3172608], [130.060008, 33.3170951], [130.06023, 33.3170032], [130.060594, 33.316854], [130.0609392, 33.3166939], [130.0612667, 33.3165121], [130.0615182, 33.3163476], [130.0617329, 33.3161727], [130.0619541, 33.3159671], [130.062145, 33.3157795], [130.0626914, 33.3152544], [130.0631091, 33.3148667], [130.0634899, 33.3145551], [130.063914, 33.3142674], [130.0643286, 33.3140027], [130.0647575, 33.3137418], [130.0651449, 33.3135319], [130.0654667, 33.3133695], [130.0664834, 33.3128654], [130.0680406, 33.3120958], [130.0688015, 33.3117887], [130.0695474, 33.3114659], [130.0700487, 33.3113027], [130.0705709, 33.3111614], [130.0707344, 33.3110912], [130.0708477, 33.3110708], [130.0706299, 33.3108522], [130.0705246, 33.3107897], [130.0704678, 33.3107776], [130.0703766, 33.310769], [130.0702968, 33.310781], [130.0701596, 33.3108326], [130.0697747, 33.3110316], [130.0693352, 33.3113292], [130.0688334, 33.3116302], [130.0687432, 33.3117394]], [[130.0711732, 33.3113775], [130.0710493, 33.3112432], [130.0708477, 33.3110708]], [[130.1163061, 33.2907504], [130.1165144, 33.290744], [130.1166958, 33.2907388], [130.116967, 33.2906703], [130.11716, 33.2906079], [130.117351, 33.29051], [130.1174846, 33.2904189], [130.1178037, 33.2901702], [130.1181466, 33.2899208], [130.1185704, 33.2896389], [130.1191406, 33.2894186], [130.119758, 33.2892215], [130.120187, 33.2891033], [130.1224909, 33.2884684], [130.1239962, 33.2880565], [130.1240772, 33.288035], [130.125342, 33.2876983], [130.1254051, 33.2876811], [130.1257148, 33.2875967], [130.1258263, 33.2875663], [130.1264877, 33.2873862], [130.1279452, 33.2869875], [130.1286424, 33.2867967], [130.1300661, 33.2864073], [130.1306534, 33.2862466], [130.1309522, 33.2861694], [130.1315712, 33.2860009], [130.1345005, 33.2852027], [130.1346776, 33.2851544], [130.1360465, 33.2847814], [130.1371928, 33.284469], [130.1377408, 33.2843197], [130.138471, 33.2841308], [130.1386154, 33.2840915], [130.1389774, 33.2839905], [130.1392743, 33.2839076], [130.1401479, 33.2836638], [130.1407475, 33.2835004], [130.1412343, 33.2833677], [130.1414649, 33.2833049], [130.1418244, 33.2832001], [130.1421069, 33.2831598], [130.1422965, 33.2831615], [130.1425209, 33.2831813], [130.1427931, 33.2832087], [130.1434694, 33.2832783], [130.1435526, 33.2832869], [130.1436986, 33.2833019], [130.1437924, 33.2833186], [130.1440159, 33.2833585], [130.1448197, 33.2835062], [130.1451757, 33.2835716], [130.1453808, 33.2835953], [130.1455316, 33.283593], [130.1462107, 33.2834368], [130.1463416, 33.2834131], [130.1465205, 33.2833925], [130.1469084, 33.2833892], [130.1470985, 33.2833793], [130.1472604, 33.2833708], [130.1475508, 33.28335], [130.1478304, 33.2833132], [130.1483555, 33.2832334], [130.148801, 33.2831637], [130.1493007, 33.2830779], [130.1497426, 33.2830106], [130.1498794, 33.2829897], [130.1506569, 33.2828713], [130.1509705, 33.2828235], [130.151455, 33.2827497], [130.1521459, 33.2826445], [130.1522115, 33.282634], [130.1526671, 33.2825613], [130.1533632, 33.2824643], [130.1541445, 33.2824731], [130.1557997, 33.2825507], [130.1558876, 33.2825506], [130.1562849, 33.2825504], [130.1563999, 33.2825585], [130.1566854, 33.2825935], [130.1573396, 33.2826303], [130.1580788, 33.2826714], [130.1585232, 33.2826861], [130.1587522, 33.2826695], [130.1593618, 33.2826066], [130.1598791, 33.2825874], [130.1600859, 33.2826027], [130.1602636, 33.2826479], [130.1604152, 33.2827085], [130.1605993, 33.2828259], [130.1608333, 33.2830809], [130.1613519, 33.2838607], [130.1617436, 33.2844235], [130.1622138, 33.285154], [130.1625302, 33.2855128], [130.1632296, 33.2861588], [130.1635465, 33.2863953], [130.1638573, 33.2865648], [130.1645462, 33.2868729], [130.1649406, 33.2870493], [130.1651768, 33.2871682], [130.165478, 33.2873521], [130.165852, 33.2876267], [130.1662562, 33.2879808], [130.1664057, 33.2881543], [130.1666783, 33.288493], [130.1668924, 33.2887241], [130.1671106, 33.2889342], [130.1677585, 33.2894069], [130.1678639, 33.2894844], [130.1679401, 33.2895802], [130.1680158, 33.2897027], [130.1682427, 33.2900613], [130.1683528, 33.2902167], [130.1684331, 33.2902981], [130.1685359, 33.2903797], [130.1686681, 33.2904591], [130.1688398, 33.2905349], [130.1690613, 33.2905941], [130.1692392, 33.2906098], [130.1696174, 33.2906165], [130.1697554, 33.2906127], [130.170674, 33.2905639], [130.1708919, 33.2905599], [130.1711313, 33.2905717], [130.1717523, 33.2906524], [130.172095, 33.2906953], [130.1728404, 33.2907888], [130.1730276, 33.2908123], [130.1735216, 33.2908742], [130.1741239, 33.2909497], [130.1747296, 33.2910257], [130.1752678, 33.2910932], [130.1753571, 33.2911044], [130.17644, 33.2912401], [130.1770046, 33.2913109], [130.1777558, 33.2914051], [130.1785305, 33.2915023], [130.1787927, 33.2915351], [130.1790929, 33.2915728], [130.1795146, 33.2916257], [130.1798178, 33.2916637], [130.1809905, 33.2918107], [130.1815484, 33.2918807], [130.1824058, 33.2919882], [130.1827604, 33.2920326], [130.1839767, 33.2921851], [130.1851217, 33.2923287], [130.186224, 33.2924669], [130.1864342, 33.2924933], [130.1874745, 33.2926237], [130.1884723, 33.2927537], [130.1894277, 33.2928697], [130.1895648, 33.2928863], [130.1897363, 33.2929084], [130.1909797, 33.2930686], [130.1913413, 33.2931152], [130.191716, 33.2931675], [130.1921278, 33.293225], [130.192332, 33.2932535], [130.1928516, 33.2933034], [130.1935215, 33.2933477], [130.1938747, 33.2933672], [130.1945091, 33.2933963], [130.1947819, 33.2934088], [130.1957536, 33.2934534], [130.1960556, 33.2934672], [130.19628, 33.2934775], [130.1968312, 33.2935028], [130.1982605, 33.2935684], [130.19867, 33.2935871], [130.1993341, 33.2936116], [130.1997588, 33.2936297], [130.2000208, 33.2936474], [130.2002003, 33.2936499], [130.2003268, 33.2936421], [130.2004447, 33.2936268], [130.2006522, 33.2935755], [130.2009859, 33.2934609], [130.2009991, 33.293456], [130.2014897, 33.2933198], [130.2016917, 33.2932546], [130.2019374, 33.293183], [130.2021191, 33.2931057], [130.2021939, 33.2930574], [130.2023042, 33.2929861], [130.2023549, 33.2929618], [130.2025813, 33.2927852], [130.2026379, 33.2927535], [130.2029785, 33.2923824], [130.2030611, 33.2922786], [130.203254, 33.2920361], [130.2033985, 33.2918546], [130.2036775, 33.291504], [130.203727, 33.2914418], [130.2041877, 33.2908629], [130.2043061, 33.290714], [130.2044319, 33.290556], [130.2045608, 33.2903939], [130.2047908, 33.2901049], [130.2050934, 33.2897247], [130.20573, 33.288938], [130.2059025, 33.2887248], [130.2061602, 33.2884064], [130.2063349, 33.2881904], [130.206629, 33.287827], [130.2074381, 33.2868271], [130.207533, 33.2867099], [130.2076441, 33.2865725], [130.2076741, 33.2865355], [130.2076917, 33.2865137], [130.2080295, 33.2860963], [130.2081884, 33.2858999], [130.2084446, 33.285559], [130.2086761, 33.285251], [130.2089326, 33.2849377], [130.2091427, 33.284681], [130.2094596, 33.2842939], [130.2097906, 33.2838842], [130.2100323, 33.283585], [130.2101812, 33.2834007], [130.210402, 33.2831273], [130.2106745, 33.2827901], [130.2109946, 33.2823776], [130.2113625, 33.2819451], [130.2116398, 33.2815891], [130.2117791, 33.2814089], [130.2121354, 33.2809757], [130.2123692, 33.2806914], [130.2131652, 33.2797266], [130.2138936, 33.2788086], [130.2140805, 33.2785845], [130.214231, 33.2783976], [130.2144482, 33.2781276], [130.2146355, 33.277895], [130.2148012, 33.2776891], [130.2148465, 33.2776328], [130.2151747, 33.2772125], [130.2156777, 33.2765826], [130.2159391, 33.2762604], [130.2167227, 33.2752927], [130.2172586, 33.2746238], [130.2173899, 33.2744599], [130.2176784, 33.2740989], [130.2180888, 33.2735854], [130.218824, 33.2726709], [130.219477, 33.2718659], [130.2200619, 33.2711588], [130.220289, 33.2708749], [130.2210745, 33.2698732], [130.2215032, 33.2693264], [130.2216471, 33.2691461], [130.2220855, 33.2685966], [130.2225285, 33.2680414], [130.2230983, 33.267319], [130.223187, 33.2672248], [130.224446, 33.2656614], [130.224589, 33.2654876], [130.2253209, 33.2645993], [130.2260863, 33.2636397], [130.2268072, 33.262778], [130.2272899, 33.2621576], [130.2273379, 33.2620959], [130.2287044, 33.2623263], [130.2302265, 33.2625551], [130.2304802, 33.2625464], [130.2313755, 33.2626776], [130.2323898, 33.2628327], [130.2377607, 33.2636863], [130.2379532, 33.2637169], [130.2407651, 33.264187], [130.2423586, 33.2644558], [130.2423846, 33.2644602], [130.2424147, 33.2644653], [130.2431356, 33.264587], [130.2431631, 33.2645916], [130.2431911, 33.2645961], [130.245101, 33.2649037], [130.2451226, 33.2649072], [130.2451613, 33.2649138], [130.2465395, 33.2651494], [130.2475893, 33.2653035], [130.2478552, 33.2653485], [130.2485532, 33.2654667], [130.2511185, 33.265901], [130.2512201, 33.2659182], [130.2512454, 33.2659225], [130.2556539, 33.2666513], [130.2566462, 33.2668438], [130.2574598, 33.2670613], [130.258127, 33.267291], [130.2587208, 33.2675309], [130.2594487, 33.2678813], [130.259633, 33.2679758], [130.2602012, 33.2682672], [130.2610933, 33.2687247], [130.2611255, 33.2687398], [130.2612443, 33.2688016], [130.2614446, 33.2689046], [130.2616453, 33.2690078], [130.2624095, 33.2694124], [130.262556, 33.26949], [130.2626525, 33.26954], [130.2642131, 33.2703493], [130.2642924, 33.2703904], [130.2647364, 33.2706183], [130.2651154, 33.2707796], [130.2651871, 33.2708101], [130.2657053, 33.271005], [130.2661501, 33.2711493], [130.2666551, 33.2712941], [130.267108, 33.2714078], [130.2677495, 33.2715367], [130.2687829, 33.2716774], [130.2711319, 33.2719858], [130.2730436, 33.2722505], [130.2739908, 33.2723705], [130.2740929, 33.2723827], [130.2752161, 33.2725175], [130.2753473, 33.2725332], [130.2754899, 33.2725524], [130.2766133, 33.2727039], [130.2772715, 33.2727792], [130.2774093, 33.272795], [130.2775369, 33.2728039], [130.2784379, 33.2728633], [130.2784728, 33.2728652], [130.2786942, 33.2728771], [130.2787299, 33.2728787], [130.2787865, 33.272882], [130.2792402, 33.2728992], [130.2806156, 33.2729585], [130.2821552, 33.2730488], [130.2821724, 33.2730504], [130.2822533, 33.273054], [130.2823417, 33.2730586], [130.2823579, 33.2730594], [130.2838953, 33.2731371], [130.2852387, 33.2732157], [130.2856676, 33.2732407], [130.2863643, 33.2732907], [130.2875246, 33.2733396], [130.2884564, 33.2734136], [130.2892035, 33.2735093], [130.2893055, 33.2735224], [130.2894473, 33.2735413], [130.2902471, 33.2736912], [130.2907971, 33.2738025], [130.2911338, 33.273917], [130.2912173, 33.2739324], [130.2935485, 33.2743616], [130.2936933, 33.2743868], [130.2938046, 33.2744095]], [[130.2273379, 33.2620959], [130.2274841, 33.2619169], [130.2302356, 33.2623628], [130.2304955, 33.2624611], [130.2313699, 33.2625955], [130.2324404, 33.2627621], [130.2332873, 33.2628935], [130.2377776, 33.2636116], [130.2379841, 33.2636447], [130.240785, 33.2641012]], [[130.242425, 33.2643714], [130.2423943, 33.2643655], [130.2423623, 33.2643602], [130.240785, 33.2641012]], [[130.242425, 33.2643714], [130.243146, 33.264489], [130.2431722, 33.2644933], [130.2432026, 33.2644984], [130.2450978, 33.2648155], [130.2451283, 33.2648206], [130.2451651, 33.2648268], [130.24656, 33.2650617], [130.2476025, 33.265218], [130.2511395, 33.2658184], [130.2512389, 33.2658353], [130.2512619, 33.2658392], [130.2526574, 33.2660868], [130.2556782, 33.2665772], [130.2565124, 33.2667268], [130.2570716, 33.2668596], [130.2577257, 33.2670554], [130.2582789, 33.2672534], [130.2588648, 33.2675041], [130.2593187, 33.2677147], [130.2611068, 33.2686324], [130.261135, 33.2686473], [130.2612529, 33.2687079], [130.2614877, 33.2688282], [130.2616447, 33.2689085], [130.2619644, 33.2690741], [130.2624658, 33.2693338], [130.2625559, 33.2693805], [130.2627105, 33.2694619], [130.264209, 33.2702506], [130.2643294, 33.2703139], [130.2647278, 33.2705088], [130.265199, 33.2707199], [130.2656477, 33.2708887], [130.2660891, 33.2710444], [130.2666738, 33.2712119], [130.2671028, 33.2713188], [130.2677193, 33.2714452], [130.2680826, 33.2715047], [130.2688062, 33.2716032], [130.2711505, 33.2719102], [130.2730512, 33.2721763], [130.274129, 33.2723197], [130.2752325, 33.2724458], [130.2753589, 33.2724603], [130.2755042, 33.2724791], [130.2758881, 33.2725286], [130.2764213, 33.2725974], [130.2766373, 33.2726253], [130.2772814, 33.2726913], [130.2774229, 33.2727059], [130.2775465, 33.2727143], [130.2788407, 33.2727875], [130.2805206, 33.2728709], [130.2806221, 33.2728763], [130.2821744, 33.2729589], [130.2821943, 33.2729601], [130.2822681, 33.2729651], [130.2823502, 33.27297], [130.282369, 33.2729711], [130.284136, 33.273076], [130.2852451, 33.2731336], [130.2856787, 33.273156], [130.2863777, 33.2731961], [130.2874764, 33.2732608], [130.2884338, 33.2733368], [130.2892231, 33.2734344], [130.2893234, 33.2734466], [130.2894657, 33.2734705], [130.2902799, 33.2736197], [130.2909535, 33.2737425], [130.2910963, 33.2737229], [130.2913468, 33.2737569], [130.2917154, 33.2738286], [130.2920808, 33.2738968], [130.2924629, 33.2739654], [130.2928904, 33.2740474], [130.2931328, 33.2740894], [130.2935947, 33.2741772], [130.2937426, 33.2742043], [130.2938548, 33.2742246]]]}, "id": "relation/9361958"}]}