{"type": "FeatureCollection", "generator": "kokudo-quiz tools/fetch_raw.py (Overpass API)", "copyright": "The data included in this document is from www.openstreetmap.org. The data is made available under ODbL.", "timestamp": "2026-09-30T14:48:56Z", "features": [{"type": "Feature", "properties": {"@id": "relation/9608067", "colour": "red", "from": "大分県中津市", "name": "国道212号", "name:en": "National Highway Route 212", "name:ja": "国道212号", "name:ja-Hira": "こくどうにひゃくじゅうにごう", "name:ja-Latn": "Kokudou 212 Gou", "network": "JP:national", "ref": "212", "route": "road", "to": "熊本県阿蘇市", "type": "route", "wikidata": "Q6156957", "wikipedia": "ja:国道212号"}, "geometry": {"type": "MultiLineString", "coordinates": [[[131.190048, 33.5954106], [131.1893893, 33.593828], [131.1888512, 33.5925351], [131.1884547, 33.5915823], [131.1882954, 33.5911736], [131.188241, 33.591034], [131.1879998, 33.5904953], [131.1876586, 33.5897331], [131.1872866, 33.5887933], [131.187121, 33.588249], [131.187074, 33.58809], [131.1870217, 33.5878673], [131.1869792, 33.5873705], [131.1869299, 33.5868385], [131.1868658, 33.5862585], [131.1867184, 33.5849243], [131.1866635, 33.5843626], [131.1865326, 33.5830246], [131.186454, 33.5822207], [131.1863078, 33.5807436], [131.1862089, 33.5797446], [131.1860985, 33.5786298], [131.1860903, 33.5783706], [131.1860806, 33.5782243], [131.1860137, 33.5776741], [131.185916, 33.5768116], [131.1858473, 33.5761302], [131.185806, 33.575708], [131.1857642, 33.5752799], [131.1857593, 33.5752004], [131.1856808, 33.5744549], [131.1856492, 33.5740926], [131.1856585, 33.573978], [131.1856715, 33.5738062], [131.1857161, 33.57356], [131.1857494, 33.573421], [131.1858046, 33.5731902], [131.1860014, 33.5725283], [131.1861161, 33.5722758], [131.1864798, 33.5718988], [131.1868835, 33.5714799], [131.1869931, 33.5713731], [131.187142, 33.5712174], [131.187196, 33.571161], [131.1875218, 33.5707585], [131.1876314, 33.5705944], [131.1876764, 33.5705188], [131.1877633, 33.570373], [131.1878637, 33.5701856], [131.1879547, 33.5699751], [131.1880755, 33.5696639], [131.1880922, 33.569612], [131.1881405, 33.5694626], [131.1882037, 33.5691468], [131.1882831, 33.5686585], [131.188296, 33.568512], [131.188311, 33.5683985], [131.1883332, 33.5681309], [131.1883431, 33.5680274], [131.1883858, 33.5676759], [131.1884194, 33.5674181], [131.1884564, 33.5672145], [131.1885067, 33.5669137], [131.1885492, 33.5666451], [131.1885661, 33.5665518], [131.1886008, 33.5663787], [131.188698, 33.5660951], [131.1887696, 33.5659273], [131.1888597, 33.5657328], [131.1889581, 33.5655129], [131.1890808, 33.5652961], [131.189235, 33.5650701], [131.1895026, 33.5647945], [131.1898055, 33.5643966], [131.190047, 33.5640064], [131.190361, 33.5635248], [131.1905101, 33.5632422], [131.1906382, 33.5630079], [131.1907589, 33.5627419], [131.1908393, 33.5625452], [131.1908736, 33.5624542], [131.1909628, 33.5620749], [131.191078, 33.5617064], [131.1911653, 33.5613456], [131.1912675, 33.5609894], [131.191405, 33.5604134], [131.1914414, 33.5601783], [131.1915054, 33.5597646], [131.1915871, 33.5592444], [131.191596, 33.559126], [131.1916051, 33.5590041], [131.1916132, 33.558896], [131.191641, 33.5584082], [131.1916373, 33.5580288], [131.1916198, 33.5577681], [131.1915686, 33.5574141], [131.1915184, 33.5571075], [131.1914552, 33.5568179], [131.1913307, 33.5562899], [131.1910687, 33.5554971], [131.1908141, 33.5546888], [131.1906153, 33.5540972], [131.1904165, 33.5534546], [131.1902827, 33.553055], [131.1901656, 33.5526416], [131.1900672, 33.5522064], [131.1900412, 33.5517852], [131.1900319, 33.5513191], [131.1900616, 33.5509536], [131.1901471, 33.5504736], [131.1903837, 33.5494472], [131.1904096, 33.5493349], [131.1904374, 33.5491555], [131.1904454, 33.549012], [131.1904508, 33.5488902], [131.1904029, 33.5485456], [131.1903676, 33.5483923], [131.1903156, 33.548222], [131.1902227, 33.5479556], [131.19015, 33.547791], [131.1898796, 33.5472033], [131.189747, 33.546957], [131.189619, 33.546681], [131.1892383, 33.5458734], [131.1890468, 33.5455343], [131.1887752, 33.5451146], [131.188415, 33.544709], [131.188341, 33.544619], [131.1878311, 33.5440736], [131.1875151, 33.5437357], [131.1872903, 33.5434879], [131.1866622, 33.542791], [131.1857622, 33.5417696], [131.185536, 33.541548], [131.185419, 33.5414164], [131.1848708, 33.5408015], [131.1846478, 33.5405738], [131.1845066, 33.5404081], [131.1842948, 33.5401603], [131.183964, 33.5398087], [131.1833323, 33.5391211], [131.1828576, 33.5385903], [131.1824024, 33.5380951], [131.1818735, 33.5375039], [131.1812439, 33.5368166], [131.1810095, 33.5365485], [131.1807736, 33.5363208], [131.1804632, 33.5359444], [131.1802124, 33.5355526], [131.1801353, 33.5354094], [131.1798036, 33.5348773], [131.1796103, 33.5345992], [131.1794979, 33.534418], [131.1793251, 33.5341113], [131.1791969, 33.5339216], [131.1789581, 33.5335336], [131.1787955, 33.5332858], [131.1786274, 33.5330155], [131.1784462, 33.532787], [131.1782762, 33.5325934], [131.1780978, 33.5324153], [131.1778813, 33.5322039], [131.1777048, 33.5320219], [131.177532, 33.5318461], [131.1771241, 33.5314193], [131.1769519, 33.531181], [131.176707, 33.5308478], [131.1765066, 33.5305803], [131.1764528, 33.530512], [131.1760694, 33.5299696], [131.1757412, 33.5294892], [131.1754966, 33.5291547], [131.1753777, 33.5289928], [131.175177, 33.5286714], [131.175046, 33.5284166], [131.1749605, 33.5281718], [131.1748908, 33.5278163], [131.1748917, 33.5275336], [131.1748611, 33.5271836], [131.1748369, 33.5268219], [131.1748369, 33.5265748], [131.1748462, 33.5263455], [131.1748936, 33.5261705], [131.1749716, 33.5259831], [131.1750813, 33.5257314], [131.1751668, 33.5255369], [131.1751872, 33.5254215], [131.17519, 33.52531], [131.1751733, 33.5250327], [131.1751342, 33.5248205], [131.1750153, 33.5244518], [131.1749196, 33.5241738], [131.1747942, 33.523874], [131.1746604, 33.5236208], [131.1745601, 33.5234504], [131.174299, 33.5231971], [131.1739394, 33.5228547], [131.173605, 33.522507], [131.173159, 33.5220345], [131.1727511, 33.52161], [131.1723869, 33.5212228], [131.1721825, 33.5210074], [131.1720404, 33.5208618], [131.1717437, 33.5205722], [131.170919, 33.5199254], [131.1705185, 33.5196], [131.1702082, 33.5193491], [131.1700577, 33.5192174], [131.1699016, 33.5190369], [131.1697939, 33.5189022], [131.1696749, 33.518645], [131.1695774, 33.5184536], [131.1695459, 33.5179858], [131.1695814, 33.517747], [131.169617, 33.517591], [131.169677, 33.517428], [131.1697863, 33.5172245], [131.1699309, 33.5170153], [131.1701556, 33.5167491], [131.1707626, 33.5160009], [131.1708664, 33.5158628], [131.1710385, 33.5155013], [131.1711817, 33.5152121], [131.1713433, 33.5149821], [131.1715391, 33.5147542], [131.171974, 33.5142788], [131.1720877, 33.5141609], [131.172426, 33.5138646], [131.1729971, 33.5136356], [131.1731551, 33.5135953], [131.1734291, 33.5135302], [131.1735982, 33.5134868], [131.1739513, 33.5133954], [131.174139, 33.5133451], [131.1743777, 33.5132599], [131.1745227, 33.513194], [131.1747168, 33.513098], [131.1749382, 33.512969], [131.1753637, 33.5126855], [131.1757446, 33.5124113], [131.1760066, 33.5122191], [131.1766012, 33.5117915], [131.1767369, 33.511663], [131.176831, 33.51154], [131.1768666, 33.5114967], [131.176895, 33.511462], [131.1769128, 33.5114357], [131.1770063, 33.5112534], [131.177055, 33.511103], [131.1771013, 33.5108597], [131.1771867, 33.5105311], [131.1772472, 33.5102966], [131.1772945, 33.5099888], [131.1773208, 33.5098058], [131.1774141, 33.5095221], [131.1776164, 33.5090718], [131.1779002, 33.5082776], [131.1779567, 33.50795], [131.1779843, 33.507767], [131.178046, 33.5073387], [131.1780723, 33.5071606], [131.1780993, 33.5070182], [131.1780973, 33.5069409], [131.1781031, 33.5068361], [131.1780748, 33.5064934], [131.1779488, 33.5062237], [131.177783, 33.5059479], [131.1776188, 33.5057748], [131.1774979, 33.5056871], [131.1772784, 33.5055316], [131.176768, 33.5052895], [131.1766391, 33.5052283], [131.1764161, 33.5051283], [131.1761409, 33.5050073], [131.1756215, 33.5047916], [131.17472, 33.5044249], [131.1742464, 33.5042291], [131.1740779, 33.5041611], [131.1737072, 33.5040034], [131.172756, 33.5036201], [131.172319, 33.5034308], [131.1722742, 33.5034117], [131.1721172, 33.5033447], [131.1717698, 33.5031658], [131.1713408, 33.50285], [131.1713187, 33.5028284], [131.1711994, 33.5027118], [131.1709377, 33.5024543], [131.1708853, 33.5024144], [131.1706126, 33.5021503], [131.1704225, 33.5019755], [131.1702502, 33.501802], [131.1701173, 33.5016389], [131.169988, 33.5014115], [131.1699482, 33.5012639], [131.1699169, 33.5010872], [131.1699119, 33.5009211], [131.1699377, 33.5006919], [131.170043, 33.500368], [131.170191, 33.499944], [131.170379, 33.499404], [131.1704232, 33.4992632], [131.1704641, 33.4991562], [131.170723, 33.4984], [131.1707388, 33.4983518], [131.170951, 33.497703], [131.171071, 33.497303], [131.171139, 33.497033], [131.171179, 33.496779], [131.171172, 33.496193], [131.171125, 33.495867], [131.171065, 33.495568], [131.171004, 33.495376], [131.1709154, 33.4951221], [131.1707881, 33.4948168], [131.1706169, 33.4945529], [131.1703861, 33.4942675], [131.17009, 33.494008], [131.169741, 33.493714], [131.1696406, 33.4936458], [131.169527, 33.4935687], [131.1694119, 33.4934957], [131.168426, 33.4928702], [131.1680738, 33.4926777], [131.167785, 33.49252], [131.167382, 33.492356], [131.16706, 33.492261], [131.166528, 33.492131], [131.1657674, 33.4920155], [131.1651372, 33.491928], [131.1646631, 33.4918717], [131.1643113, 33.4918107], [131.1639764, 33.4917309], [131.1636739, 33.4915936], [131.1633924, 33.4914398], [131.163263, 33.4913436], [131.1631645, 33.4912709], [131.1628994, 33.49104], [131.1624006, 33.4905934], [131.1618289, 33.4900426], [131.1616896, 33.4899131], [131.1613672, 33.4896011], [131.1611878, 33.4894332], [131.1608617, 33.4891248], [131.160711, 33.48893], [131.160617, 33.488784], [131.160424, 33.4885008], [131.1603762, 33.4882734], [131.1602966, 33.4877125], [131.1602867, 33.4876146], [131.1602906, 33.4874602], [131.1603265, 33.487198], [131.1603503, 33.4870901], [131.1603822, 33.4870204], [131.1604319, 33.4869325], [131.1608518, 33.4863084], [131.1613275, 33.485621], [131.1615786, 33.4851833], [131.161928, 33.48456], [131.162142, 33.484203], [131.1622911, 33.4839611], [131.1624079, 33.483744], [131.1624628, 33.4835433], [131.1624839, 33.483359], [131.1623917, 33.4830595], [131.1623575, 33.4829991], [131.1623004, 33.4829199], [131.1621575, 33.4827652], [131.1620815, 33.4826901], [131.1619458, 33.4825819], [131.161665, 33.482367], [131.1613736, 33.4822287], [131.161141, 33.4821398], [131.1608826, 33.4820458], [131.1605787, 33.481946], [131.1603887, 33.4818991], [131.1596486, 33.4817054], [131.159421, 33.481646], [131.1590112, 33.4815705], [131.1586242, 33.4814977], [131.1578194, 33.4813815], [131.1570103, 33.4813158], [131.1561012, 33.4812293], [131.1553133, 33.4811421], [131.1550192, 33.4810777], [131.1538513, 33.4807654], [131.1536529, 33.4807138], [131.1534404, 33.4806187], [131.1532463, 33.4804932], [131.153023, 33.480333], [131.1529184, 33.4802655], [131.152774, 33.480143], [131.1526004, 33.4800354], [131.1524133, 33.4799451], [131.1519461, 33.4797632], [131.1510244, 33.4794334], [131.1505911, 33.4792855], [131.1504166, 33.4792362], [131.1502688, 33.4791552], [131.1501126, 33.4790414], [131.1499748, 33.4789052], [131.1498101, 33.4786787], [131.149675, 33.4784944], [131.1495765, 33.478309], [131.1495277, 33.4781523], [131.1494938, 33.4780328], [131.1494707, 33.4777831], [131.1494719, 33.4774834], [131.1494839, 33.4773158], [131.1495197, 33.4768311], [131.149496, 33.476569], [131.149469, 33.476163], [131.149416, 33.475807], [131.149382, 33.47556], [131.14934, 33.475266], [131.1492849, 33.4748034], [131.1492638, 33.4745851], [131.1492554, 33.4743915], [131.1492666, 33.4741908], [131.1493215, 33.4739279], [131.149543, 33.473183], [131.1496446, 33.4728093], [131.1496615, 33.4725652], [131.1496489, 33.4723621], [131.1496493, 33.4723269], [131.1496409, 33.4722928], [131.1496128, 33.4721984], [131.1494847, 33.4719648], [131.1492582, 33.4716502], [131.1488557, 33.4711854], [131.1484761, 33.470814], [131.1480781, 33.4704245], [131.1480456, 33.4703965], [131.1478185, 33.4702009], [131.1473653, 33.4697935], [131.1470912, 33.4695504], [131.1468926, 33.4694151], [131.1466072, 33.4692088], [131.1463426, 33.4690797], [131.1460669, 33.4689388], [131.1458023, 33.4688179], [131.1456475, 33.4687463], [131.1454055, 33.4686172], [131.1450411, 33.4684493], [131.1444051, 33.4681582], [131.1440931, 33.4680179], [131.1439112, 33.4679493], [131.1435466, 33.467875], [131.1431007, 33.4678495], [131.1425234, 33.4677494], [131.1422747, 33.467677], [131.1419877, 33.4675373], [131.1414394, 33.4671905], [131.1412685, 33.4671066], [131.1410112, 33.4670419], [131.1406486, 33.4669469], [131.1402726, 33.466864], [131.1400075, 33.4668052], [131.1397142, 33.4668006], [131.1391754, 33.4668615], [131.1389545, 33.4668927], [131.138531, 33.4669441], [131.1378841, 33.4670203], [131.1375273, 33.4670549], [131.1372242, 33.4671443], [131.1370423, 33.4672339], [131.1367753, 33.4674078], [131.1363354, 33.4677041], [131.1360792, 33.4678636], [131.1354121, 33.4682544], [131.1350462, 33.4684635], [131.1348438, 33.4685594], [131.1347218, 33.468603], [131.134575, 33.4686216], [131.134335, 33.4686294], [131.1336881, 33.4686503], [131.1328165, 33.4686752], [131.1325278, 33.4686544], [131.128922, 33.4682458], [131.1287249, 33.468213], [131.1284661, 33.4681346], [131.128229, 33.468019], [131.1280276, 33.467879], [131.127559, 33.4675275], [131.1259613, 33.4663908], [131.1247916, 33.4655722], [131.1237767, 33.4648724], [131.1230641, 33.464356], [131.1227051, 33.4641254], [131.1221255, 33.4638534], [131.1210925, 33.463395], [131.1206468, 33.463226], [131.1199626, 33.4629941], [131.1196066, 33.4629022], [131.117689, 33.4625586], [131.1173008, 33.4625068], [131.1168998, 33.4625111], [131.1165348, 33.4625441], [131.1163097, 33.4625358], [131.1161455, 33.4624912], [131.1159884, 33.4624383], [131.1157815, 33.4623146], [131.1155996, 33.4621297], [131.1155038, 33.4619714], [131.1154524, 33.4618194], [131.1154325, 33.4616922], [131.115437, 33.4615387], [131.1154538, 33.4613982], [131.1156019, 33.4610955], [131.1157616, 33.4608956], [131.1158754, 33.4607701], [131.1169583, 33.4599323], [131.1172453, 33.4597246], [131.1179627, 33.4591582], [131.1181427, 33.4589864], [131.1182461, 33.4588701], [131.1183217, 33.4587505], [131.1184135, 33.4585975], [131.1184706, 33.4584666], [131.1185027, 33.4583037], [131.1185087, 33.4580416], [131.1184857, 33.4577033], [131.1184175, 33.4574976], [131.1183193, 33.4573621], [131.1182214, 33.4572543], [131.118088, 33.457168], [131.117933, 33.4570994], [131.1177026, 33.4570177], [131.1174401, 33.4569335], [131.1171063, 33.4568224], [131.1167853, 33.4567283], [131.116413, 33.4566882], [131.1160816, 33.4566685], [131.1156014, 33.4566593], [131.1150137, 33.456661], [131.1146095, 33.4566228], [131.1142333, 33.4564948], [131.1139759, 33.4563371], [131.1137772, 33.4561588], [131.1136625, 33.4559881], [131.1135777, 33.4558128], [131.1135597, 33.4555939], [131.1135607, 33.4554014], [131.1136087, 33.4551565], [131.1136819, 33.4549456], [131.1138851, 33.4543626], [131.1140091, 33.453999], [131.1141239, 33.453724], [131.1143045, 33.4534072], [131.1145322, 33.4530699], [131.1147381, 33.4527203], [131.1148286, 33.452523], [131.1149127, 33.4522468], [131.1149768, 33.4520786], [131.1151299, 33.4517158], [131.115343, 33.4513281], [131.1153498, 33.4513178], [131.1154937, 33.4510996], [131.1159343, 33.4504256], [131.1160518, 33.4502364], [131.1162296, 33.4499622], [131.117103, 33.44886], [131.117191, 33.44873], [131.1172953, 33.4485938], [131.117836, 33.447806], [131.118084, 33.447401], [131.1181442, 33.4472303], [131.1181522, 33.4470327], [131.1180808, 33.4466494], [131.1180605, 33.4466076], [131.1179903, 33.4464938], [131.1179336, 33.4464381], [131.1177255, 33.4462733], [131.1174429, 33.4460879], [131.1171601, 33.4459162], [131.1169961, 33.4458166], [131.1167413, 33.4456969], [131.1166363, 33.4456476], [131.1162437, 33.4455155], [131.1160793, 33.4454801], [131.1158012, 33.4454203], [131.1150255, 33.4452268], [131.1147604, 33.44516], [131.1145036, 33.4450759], [131.1143767, 33.4449966], [131.1141814, 33.4449222], [131.1138706, 33.4447653], [131.1136387, 33.4446422], [131.1131419, 33.4443892], [131.1126951, 33.4441722], [131.1122843, 33.4440375], [131.1117045, 33.4438502], [131.1114401, 33.4437692], [131.1110546, 33.4436882], [131.1101648, 33.4434924], [131.1098559, 33.443414], [131.1093338, 33.4432601], [131.1088043, 33.443108], [131.1085082, 33.4430221], [131.1080574, 33.4429695], [131.1075893, 33.4429761], [131.1070098, 33.4429981], [131.1066279, 33.4430152], [131.1063236, 33.4430172], [131.106011, 33.4430003], [131.1056185, 33.4429213], [131.1045674, 33.4426637], [131.1039494, 33.4425011], [131.1035888, 33.4423876], [131.1033955, 33.4422444], [131.1031846, 33.4420444], [131.1030157, 33.4417984], [131.1027429, 33.4413757], [131.1025089, 33.4410181], [131.1023976, 33.4407782], [131.102353, 33.4405868], [131.1023351, 33.4403621], [131.1023807, 33.4400952], [131.1024285, 33.4398406], [131.1024638, 33.4396267], [131.1025177, 33.4394833], [131.1025934, 33.4392563], [131.1027372, 33.4390463], [131.1028645, 33.4389334], [131.1030576, 33.4387923], [131.1034376, 33.4385641], [131.103912, 33.438223], [131.1043766, 33.4377646], [131.1045595, 33.4375756], [131.1046433, 33.4374797], [131.104753, 33.437321], [131.1047801, 33.4372687], [131.1048257, 33.4371663], [131.1048595, 33.4369512], [131.1048455, 33.4367827], [131.1048059, 33.4366345], [131.1047523, 33.4364911], [131.1046768, 33.436389], [131.1045122, 33.4362125], [131.1042076, 33.4359378], [131.1038293, 33.4356664], [131.1033258, 33.4352523], [131.1029507, 33.4349321], [131.1026952, 33.4347388], [131.1025236, 33.434611], [131.1021699, 33.4343312], [131.1019539, 33.4341475], [131.1017216, 33.4339372], [131.1015461, 33.4336985], [131.1014771, 33.4335698], [131.1014312, 33.4334265], [131.1013741, 33.4332629], [131.1013462, 33.4330969], [131.1013499, 33.432939], [131.1013533, 33.4326605], [131.101385, 33.4321673], [131.1013918, 33.4319235], [131.1014177, 33.4314216], [131.1014576, 33.4308053], [131.1014695, 33.4305263], [131.1014575, 33.4303167], [131.1014265, 33.4301541], [131.1013232, 33.4298548], [131.1012604, 33.4297532], [131.1009946, 33.4293083], [131.10051, 33.4284402], [131.1003633, 33.4281919], [131.1003118, 33.4281048], [131.1002608, 33.428031], [131.1000603, 33.4277408], [131.0998961, 33.427552], [131.0997022, 33.4273566], [131.0994397, 33.42713], [131.0992515, 33.4269863], [131.0991184, 33.4268048], [131.0990963, 33.4266801], [131.0990996, 33.426579], [131.0986867, 33.4264149], [131.0982396, 33.4261742], [131.0979062, 33.4259621], [131.0972741, 33.4254979], [131.0967894, 33.425175], [131.0965358, 33.4250368], [131.0962489, 33.4249532], [131.0959708, 33.4249189], [131.0956491, 33.4249231], [131.0946181, 33.4250833], [131.0941301, 33.4251577], [131.0937036, 33.4251724], [131.0935954, 33.4251575], [131.0930802, 33.4251197], [131.0925999, 33.4250787], [131.091924, 33.4250137], [131.0914843, 33.4249755], [131.0910878, 33.4249967], [131.0909588, 33.425011], [131.0906573, 33.425084], [131.0904626, 33.4251436], [131.0899716, 33.4254024], [131.0894519, 33.4256987], [131.0889252, 33.4259465], [131.0884806, 33.4261101], [131.0881425, 33.4262335], [131.0876171, 33.4264713], [131.0861917, 33.4273103], [131.0859871, 33.4274072], [131.0857304, 33.4275263], [131.0854553, 33.4276304], [131.0852249, 33.4276911], [131.08474, 33.4277957], [131.0838852, 33.4279216], [131.0836248, 33.4279437], [131.0833809, 33.4279434], [131.0831548, 33.4279033], [131.0829605, 33.4278605], [131.082659, 33.427739], [131.082106, 33.4275017], [131.0817413, 33.4273441], [131.0813146, 33.4271886], [131.0810474, 33.4270583], [131.0806764, 33.4267872], [131.0805494, 33.4266387], [131.0803007, 33.4263473], [131.0798139, 33.4257823], [131.079099, 33.4250339], [131.0787782, 33.4247485], [131.0779397, 33.4240404], [131.0773673, 33.4235356], [131.0771764, 33.4233757], [131.0769431, 33.4232282], [131.0767195, 33.4231374], [131.0763426, 33.4230692], [131.0756102, 33.42308], [131.0755383, 33.4230749], [131.0750037, 33.4230599], [131.0743125, 33.4230034], [131.0741596, 33.4229828], [131.073328, 33.4228498], [131.0730372, 33.422786], [131.0721835, 33.4225979], [131.0718584, 33.4225046], [131.0715866, 33.4223524], [131.071257, 33.422112], [131.0710418, 33.4217963], [131.0709368, 33.4215393], [131.0708609, 33.4212495], [131.0708329, 33.4210093], [131.0708371, 33.420801], [131.0708982, 33.4203864], [131.0709983, 33.4201043], [131.0712028, 33.4196934], [131.0713165, 33.4194765], [131.0713822, 33.4191887], [131.0713703, 33.4189119], [131.0712136, 33.4184786], [131.0711183, 33.4182179], [131.0710626, 33.4180573], [131.0710399, 33.4179999], [131.0710167, 33.4179412], [131.0709323, 33.4177611], [131.0706977, 33.4172998], [131.0703767, 33.4167603], [131.0702606, 33.4165064], [131.0701993, 33.4162482], [131.0701464, 33.4159395], [131.0700792, 33.4153744], [131.0700393, 33.4151859], [131.0699775, 33.41493], [131.0699229, 33.4146369], [131.0699093, 33.4143172], [131.0699587, 33.4139899], [131.0700186, 33.4137703], [131.0700906, 33.4135711], [131.0702615, 33.4132716], [131.0704066, 33.4130004], [131.0706069, 33.4126479], [131.070755, 33.4123895], [131.0708273, 33.4122241], [131.0708844, 33.4119883], [131.0708939, 33.4118756], [131.0708844, 33.411748], [131.07083, 33.411423], [131.0707381, 33.4108771], [131.0707154, 33.4104721], [131.0706929, 33.4098017], [131.0706209, 33.4096113], [131.0705513, 33.4094576], [131.070312, 33.4092026], [131.0701255, 33.4090623], [131.0699065, 33.4089238], [131.0696248, 33.4087254], [131.0694166, 33.4085699], [131.0691554, 33.4084023], [131.0689357, 33.4082551], [131.0687574, 33.408162], [131.0685891, 33.4080868], [131.0681684, 33.4079429], [131.0679233, 33.407895], [131.067868, 33.407879], [131.0676762, 33.4078639], [131.0673908, 33.4078415], [131.0667907, 33.4078211], [131.0651559, 33.4077703], [131.0645615, 33.4077386], [131.0642543, 33.4077194], [131.0639881, 33.4076905], [131.0637306, 33.4076465], [131.0634162, 33.4075508], [131.0633119, 33.4075063], [131.063109, 33.407412], [131.0628499, 33.4072635], [131.0625869, 33.4070212], [131.0624475, 33.4068758], [131.0623043, 33.4067012], [131.0621454, 33.4064246], [131.0620761, 33.406304], [131.0620149, 33.4062035], [131.0618372, 33.4059117], [131.0617482, 33.4057807], [131.0614192, 33.4053527], [131.0611524, 33.4050523], [131.0609863, 33.4049139], [131.0607912, 33.4047453], [131.0605421, 33.4045804], [131.0598008, 33.4041393], [131.0594904, 33.4039855], [131.0591857, 33.4038196], [131.0589665, 33.4036776], [131.0585134, 33.4033205], [131.0583149, 33.4031095], [131.0581627, 33.4029878], [131.057886, 33.4028339], [131.0578284, 33.4028105], [131.0575936, 33.4027151], [131.0572078, 33.402615], [131.0568143, 33.4025637], [131.0561287, 33.4025049], [131.0559838, 33.4024884], [131.0556145, 33.4024483], [131.0552867, 33.4024157], [131.0543375, 33.4023136], [131.053364, 33.4022149], [131.0531891, 33.402193], [131.0515384, 33.4019823], [131.0505969, 33.401857], [131.0495643, 33.401718], [131.0492635, 33.4016783], [131.0483266, 33.4015417], [131.0479169, 33.4014893], [131.0476649, 33.4014551], [131.0475212, 33.4014363], [131.0472547, 33.4014231], [131.0470664, 33.4014254], [131.0468164, 33.4014425], [131.0466956, 33.4014627], [131.0463931, 33.4015253], [131.0459529, 33.4016829], [131.0456163, 33.4018454], [131.0453247, 33.4019978], [131.0449657, 33.4022198], [131.044754, 33.4024357], [131.0445478, 33.4026856], [131.0444211, 33.402855], [131.0442729, 33.4030362], [131.0440806, 33.4032613], [131.0438449, 33.4034891], [131.0434212, 33.4038867], [131.0429573, 33.4043168], [131.0426134, 33.4047294], [131.0424396, 33.4049708], [131.0423154, 33.40508], [131.0421673, 33.4052019], [131.0420173, 33.4052819], [131.0417462, 33.4053783], [131.0414587, 33.4054409], [131.0411888, 33.4055152], [131.0408335, 33.4055917], [131.0406343, 33.405664], [131.0402561, 33.4058065], [131.0399828, 33.4059373], [131.039324, 33.406225], [131.0390728, 33.4063364], [131.0383155, 33.4066074], [131.0378045, 33.4067297], [131.0376444, 33.4067398], [131.0373024, 33.4067256], [131.0371351, 33.4067089], [131.0369099, 33.406652], [131.0366776, 33.4065686], [131.0364772, 33.4064768], [131.0362708, 33.4063536], [131.036079, 33.406205], [131.0358998, 33.4060064], [131.0356591, 33.4055899], [131.0355426, 33.4052125], [131.0354926, 33.4050507], [131.0354708, 33.404935], [131.0352465, 33.4037459], [131.03497, 33.4024013], [131.0348344, 33.4020497], [131.0346247, 33.4016922], [131.0344254, 33.4014504], [131.0342703, 33.4012951], [131.0340357, 33.4011027], [131.0336777, 33.4008225], [131.0334122, 33.4006089], [131.0332134, 33.4003927], [131.0330715, 33.4002115], [131.0329774, 33.400027], [131.0328957, 33.3998903], [131.0328202, 33.3996707], [131.032753, 33.3993734], [131.0327505, 33.3990939], [131.0327529, 33.3986086], [131.0327614, 33.3982075], [131.0327738, 33.398113], [131.0327871, 33.3979994], [131.0327746, 33.3976326], [131.032781, 33.3972567], [131.0327524, 33.3968734], [131.0326574, 33.396126], [131.032585, 33.3955107], [131.0325942, 33.3951747], [131.0325534, 33.3942623], [131.0325124, 33.3940533], [131.0324515, 33.3939108], [131.0323342, 33.3937615], [131.032184, 33.3936133], [131.031984, 33.3934513], [131.0317832, 33.3933065], [131.0315711, 33.3931467], [131.0314388, 33.3930067], [131.0312129, 33.3926416], [131.0310989, 33.3923594], [131.0310182, 33.3920929], [131.0308885, 33.3918531], [131.0307208, 33.3915694], [131.0304558, 33.3913007], [131.0302251, 33.3910713], [131.0301468, 33.3909979], [131.029976, 33.3908249], [131.029865, 33.3906694], [131.0297614, 33.3905608], [131.0296659, 33.3903863], [131.02956, 33.390124], [131.0294558, 33.38993], [131.029375, 33.3896384], [131.0292508, 33.3890957], [131.0290808, 33.3885681], [131.0289276, 33.3881442], [131.0288348, 33.3879708], [131.0287241, 33.3877643], [131.028454, 33.3873063], [131.0281946, 33.3868696], [131.0280896, 33.3866058], [131.0280253, 33.3863954], [131.027993, 33.386116], [131.027981, 33.3859806], [131.027949, 33.3855914], [131.0278704, 33.3852277], [131.027586, 33.38459], [131.027353, 33.384058], [131.0271729, 33.3837037], [131.0268566, 33.3830804], [131.0267628, 33.3828906], [131.0266827, 33.3826416], [131.0266366, 33.3823453], [131.0266273, 33.3820649], [131.0265986, 33.3817895], [131.0265128, 33.3815108], [131.0262326, 33.3808775], [131.0261928, 33.3807731], [131.0261627, 33.3806414], [131.0261036, 33.380376], [131.0260804, 33.3800685], [131.0260813, 33.3798107], [131.0261073, 33.379564], [131.0261163, 33.3794781], [131.0261571, 33.3792562], [131.0261672, 33.3792012], [131.0262063, 33.3789433], [131.0262213, 33.3788449], [131.0263635, 33.3779676], [131.0264163, 33.3776393], [131.0264825, 33.3773242], [131.0265017, 33.3770428], [131.026513, 33.3767384], [131.0264475, 33.3764928], [131.0263702, 33.3762264], [131.0262134, 33.3758462], [131.0261518, 33.3756665], [131.026136, 33.3754781], [131.0261297, 33.3751572], [131.0261149, 33.3747975], [131.0260861, 33.3744448], [131.026007, 33.3741855], [131.0258119, 33.3737429], [131.0256226, 33.3734014], [131.0254284, 33.3731329], [131.025139, 33.3727917], [131.0247558, 33.3726149], [131.0210461, 33.3714255], [131.0195455, 33.3708982], [131.0180966, 33.3704929], [131.0178296, 33.3704577], [131.0175139, 33.3704449], [131.0172059, 33.3704497], [131.0160455, 33.3706051], [131.0154869, 33.370656], [131.0151252, 33.3706339], [131.0147508, 33.3705826], [131.0143453, 33.3704651], [131.0133602, 33.3700433], [131.0127794, 33.3699669], [131.0120918, 33.3699231], [131.0117356, 33.3698338], [131.0114672, 33.3697271], [131.0112552, 33.3696096], [131.0107301, 33.3691299], [131.0105013, 33.3689732], [131.0099643, 33.3686805], [131.0094318, 33.3682779], [131.0085865, 33.3672443], [131.008315, 33.3670262], [131.0080209, 33.3668962], [131.0076716, 33.3668002], [131.007234, 33.366777], [131.0061657, 33.3668212], [131.0050987, 33.3667582], [131.0034099, 33.3667575], [131.0030722, 33.3667574], [131.0013387, 33.3669037], [131.000949, 33.3669027], [131.0001692, 33.3669127], [130.9993804, 33.3668842], [130.9990238, 33.3667757], [130.9987868, 33.3666576], [130.9983539, 33.3663371], [130.9979582, 33.3660301], [130.9976028, 33.3658536], [130.9972407, 33.3657595], [130.9967518, 33.3656937], [130.996342, 33.3656613], [130.9957064, 33.3655777], [130.9954065, 33.3655369], [130.9950822, 33.3655624], [130.9944173, 33.3657446], [130.9925617, 33.3663655], [130.9921896, 33.3664646], [130.9919724, 33.366505], [130.9917953, 33.3665062], [130.9915649, 33.3664978], [130.9911415, 33.3664597], [130.9908714, 33.3664393], [130.9905447, 33.3664442], [130.9898674, 33.3665973], [130.9896403, 33.3666353], [130.9875859, 33.3666296], [130.9872147, 33.3666387], [130.9868108, 33.3666778], [130.9860192, 33.3668482], [130.9857123, 33.3669087], [130.9835549, 33.3669451], [130.9826247, 33.3669706], [130.9819915, 33.3669968], [130.9819856, 33.3669976], [130.9818992, 33.367009], [130.9815155, 33.3670597], [130.9806842, 33.3672211], [130.9804482, 33.3672443], [130.9802619, 33.3672537], [130.9800907, 33.36725], [130.9798934, 33.3672379], [130.9795939, 33.367183], [130.9793131, 33.3671142], [130.9789616, 33.3670064], [130.9785616, 33.3668707], [130.9783222, 33.366786], [130.9776112, 33.3665669], [130.9769699, 33.3664242], [130.9768219, 33.366401], [130.9765612, 33.3663601], [130.9761501, 33.3663258], [130.9757537, 33.3663132], [130.975311, 33.3663108], [130.9748605, 33.3663109], [130.9744065, 33.3662912], [130.9741175, 33.3661877], [130.9739704, 33.366126], [130.9733022, 33.3655132], [130.9731635, 33.3654249], [130.9729336, 33.3653425], [130.9713258, 33.3650657], [130.9709432, 33.3650105], [130.969791, 33.3648094], [130.9691522, 33.3646884], [130.9689083, 33.3646651], [130.9684666, 33.3646639], [130.9680938, 33.3647394], [130.9678795, 33.3648196], [130.9672051, 33.3651491], [130.965496, 33.365957], [130.9653602, 33.3660023], [130.9649013, 33.3661554], [130.9645158, 33.3662371], [130.963966, 33.3663065], [130.9635773, 33.3662849], [130.9630849, 33.3662293], [130.9616419, 33.3658821], [130.961133, 33.365721], [130.9608906, 33.3656136], [130.9607751, 33.3655566], [130.9606156, 33.3654666], [130.960488, 33.3653867], [130.9602051, 33.3651655], [130.9598746, 33.3648366], [130.9596563, 33.3645384], [130.9595132, 33.3642593], [130.9593789, 33.3639217], [130.9592713, 33.3635186], [130.9592607, 33.363421], [130.9591235, 33.3621598], [130.9589833, 33.3615369], [130.9587481, 33.3609888], [130.9586043, 33.3607026], [130.9572827, 33.3583344], [130.9572173, 33.3582111], [130.9569628, 33.3577323], [130.9567302, 33.357318], [130.9560418, 33.3560537], [130.9560004, 33.3559792], [130.9559977, 33.3559743], [130.9556604, 33.3553659], [130.9554563, 33.3550964], [130.9552767, 33.3548868], [130.9551746, 33.3547857], [130.9551553, 33.3547666], [130.9551268, 33.3547419], [130.9549626, 33.3545997], [130.9548395, 33.3545241], [130.9546393, 33.3544012], [130.954408, 33.354271], [130.953446, 33.353792], [130.9533056, 33.3537205], [130.953043, 33.353589], [130.9525563, 33.3533378], [130.9519252, 33.353012], [130.9508136, 33.3524575], [130.9495524, 33.3518264], [130.9495101, 33.3518048], [130.9478749, 33.3509697], [130.9469855, 33.3505307], [130.946395, 33.3502299], [130.9456634, 33.3498599], [130.9449208, 33.3494757], [130.9446698, 33.3493239], [130.9443583, 33.3491202], [130.9439053, 33.3487032], [130.9438144, 33.3486195], [130.9437687, 33.348562], [130.943586, 33.348332], [130.9434707, 33.3481589], [130.9433788, 33.3479908], [130.943288, 33.3478194], [130.9432165, 33.3476603], [130.9430972, 33.347347], [130.9430046, 33.3470045], [130.9429781, 33.346868], [130.9427547, 33.3457178], [130.942673, 33.345264], [130.9426519, 33.3451555], [130.9424904, 33.3443241], [130.9424866, 33.3443044], [130.9423793, 33.3437523], [130.9423262, 33.3434792], [130.9421095, 33.3423368], [130.9420704, 33.3421261], [130.9420098, 33.3418001], [130.9419799, 33.341639], [130.9419283, 33.3413711], [130.9419002, 33.3412294], [130.9417364, 33.34036], [130.9415715, 33.3395209], [130.9415598, 33.3394616], [130.9415462, 33.3393917], [130.9413192, 33.3382245], [130.9413038, 33.3381451], [130.9412711, 33.3379909], [130.9412079, 33.3376935], [130.9411103, 33.3374462], [130.9410825, 33.3373757], [130.9409454, 33.3371165], [130.9409193, 33.3370672], [130.9407265, 33.3368116], [130.9406368, 33.3367008], [130.9401615, 33.3362892], [130.9401065, 33.3362503], [130.9400029, 33.3361769], [130.9398635, 33.3360782], [130.9396644, 33.3359822], [130.9396168, 33.3359592], [130.9388476, 33.3357209], [130.9387118, 33.3356918], [130.9385754, 33.3356263], [130.9370921, 33.3353308], [130.9362993, 33.3351728], [130.9361455, 33.3351421], [130.9360218, 33.3351154], [130.9355422, 33.3350118], [130.9352453, 33.3349473], [130.9351018, 33.3349162], [130.9344245, 33.3347876], [130.9341267, 33.3347187], [130.9339169, 33.3346606], [130.9337605, 33.3346173], [130.9337189, 33.3346058], [130.9334863, 33.3345224], [130.9333201, 33.3344509], [130.933248, 33.3344199], [130.9330253, 33.3343211], [130.9327939, 33.3341988], [130.9325687, 33.3340747], [130.932375, 33.3339506], [130.9321652, 33.3338027], [130.9319633, 33.3336494], [130.9317215, 33.3334443], [130.9315601, 33.333287], [130.9315172, 33.3332408], [130.9314127, 33.3331281], [130.931349, 33.3330533], [130.9311795, 33.3328543], [130.9309572, 33.3326066], [130.9303597, 33.3319223], [130.9303413, 33.3319009], [130.9300749, 33.3315923], [130.9299145, 33.3314092], [130.929701, 33.3311522], [130.9295149, 33.3309282], [130.9294523, 33.3308579], [130.9286362, 33.3299409], [130.9284696, 33.3297484], [130.9283889, 33.3296225], [130.9283222, 33.3295045], [130.9283151, 33.3294901], [130.9282035, 33.3292652], [130.9281343, 33.3291007], [130.9280848, 33.3289428], [130.927535, 33.3269132], [130.9275146, 33.3268379], [130.9273579, 33.3262498], [130.927291, 33.3259979], [130.927257, 33.3258697], [130.9270425, 33.3250926], [130.9270194, 33.3250089], [130.9268599, 33.3244301], [130.9265856, 33.3234088], [130.9263719, 33.3226198], [130.9262431, 33.3221747], [130.926208, 33.3220533], [130.9261709, 33.3219223], [130.9260852, 33.3216174], [130.9259766, 33.3211997], [130.925965, 33.3211678], [130.925922, 33.3210195], [130.9259181, 33.3210052], [130.925704, 33.3202118], [130.9255107, 33.3194945], [130.9254914, 33.3194123], [130.9254722, 33.3193437], [130.9254607, 33.3192999], [130.9254048, 33.3190919], [130.9253852, 33.3190214], [130.9251586, 33.3182057], [130.9251419, 33.3181521], [130.925084, 33.3179304], [130.9249347, 33.3173899], [130.9249249, 33.3173544], [130.9247591, 33.3167555], [130.9247196, 33.3166082], [130.9246605, 33.3163977], [130.9245707, 33.3160777], [130.9245119, 33.3158265], [130.9244888, 33.3157159], [130.9244621, 33.3155324], [130.92444, 33.31535], [130.9244208, 33.315146], [130.9243941, 33.3148627], [130.9243882, 33.3148094], [130.9242614, 33.3133919], [130.9242571, 33.3133363], [130.9242533, 33.3132728], [130.9242526, 33.3131584], [130.9242621, 33.3130111], [130.9242741, 33.3128659], [130.9242924, 33.3127381], [130.924316, 33.3126027], [130.9243838, 33.3123665], [130.9245399, 33.3117665], [130.9245596, 33.3116914], [130.9245646, 33.311672], [130.9245726, 33.3116416]], [[130.9387118, 33.3356918], [130.9385612, 33.335704], [130.9362801, 33.3352481], [130.9361252, 33.3352171], [130.9359965, 33.3351916], [130.9354799, 33.3350895], [130.9352301, 33.3350385], [130.9351003, 33.335012], [130.9344068, 33.3348663], [130.9340072, 33.3347721], [130.9337201, 33.3346929], [130.9337067, 33.3346892], [130.9334549, 33.3345932], [130.9332771, 33.3345317], [130.9331623, 33.334492], [130.9329209, 33.3343665], [130.9325963, 33.3341985], [130.9323415, 33.3340438], [130.9321296, 33.3338937], [130.9319445, 33.3337525], [130.9317648, 33.3336001], [130.9315422, 33.3333984], [130.9314428, 33.3332914], [130.9313267, 33.3331665], [130.9312719, 33.3331042], [130.930844, 33.3326179], [130.9299911, 33.3316389], [130.9299233, 33.3315592], [130.9296997, 33.3312964], [130.9294167, 33.3309748], [130.9293621, 33.330913], [130.929128, 33.330648], [130.9285639, 33.3299805], [130.9284125, 33.3298279], [130.9283154, 33.3297064], [130.9282304, 33.3295378], [130.9282236, 33.3295241], [130.928139, 33.329355], [130.928111, 33.3292859], [130.9280639, 33.329169], [130.927978, 33.3289046], [130.9274289, 33.3268874], [130.9274112, 33.3268225], [130.9271957, 33.3260176], [130.9269517, 33.3251061], [130.9269274, 33.3250153], [130.926772, 33.3244434], [130.9264915, 33.3234407], [130.9263997, 33.3231011], [130.926278, 33.3226506], [130.926158, 33.3221903], [130.9261246, 33.3220696], [130.926089, 33.321936], [130.9260016, 33.321624], [130.925892, 33.3212194], [130.9258825, 33.3211873], [130.9258422, 33.3210533], [130.9258337, 33.3210213], [130.9256665, 33.3203939], [130.9254328, 33.3195168], [130.9254312, 33.3195101], [130.9254092, 33.3194182], [130.9253882, 33.3193557], [130.9253858, 33.3193484], [130.9253726, 33.3193085], [130.9253121, 33.3190649], [130.9252937, 33.3190002], [130.9250731, 33.3182252], [130.9250548, 33.3181607], [130.9248593, 33.3174173], [130.9248476, 33.3173738], [130.924685, 33.316768], [130.9246442, 33.3166209], [130.9245866, 33.3164126], [130.9245207, 33.3161744], [130.9244322, 33.3158225], [130.9243946, 33.3156544], [130.9243785, 33.3155714], [130.9243361, 33.3151408], [130.9243086, 33.3148609], [130.9243032, 33.3148028], [130.924172, 33.313404], [130.9241668, 33.3133433], [130.9241678, 33.3132685], [130.9241693, 33.3131484], [130.92418, 33.3129333], [130.9241961, 33.3127764], [130.9242203, 33.3126419], [130.9242498, 33.3124962], [130.9244536, 33.3117499], [130.9244755, 33.3116753], [130.9244814, 33.3116549], [130.9244876, 33.3116339]], [[130.9249154, 33.3101974], [130.924832, 33.3103434], [130.9248226, 33.3103782], [130.9244876, 33.3116339]], [[130.9245726, 33.3116416], [130.9249211, 33.3103838], [130.9249274, 33.3103471], [130.9249154, 33.3101974], [130.9249704, 33.3100373], [130.9249822, 33.3100029], [130.9250188, 33.3098962], [130.9250859, 33.3096094], [130.9251157, 33.3094819], [130.9251892, 33.3091631], [130.9252606, 33.3089431], [130.9253218, 33.3087649], [130.9254478, 33.3085624], [130.9254962, 33.3084845], [130.9256176, 33.3083643], [130.9257788, 33.308256], [130.9260052, 33.3081528], [130.9262861, 33.3080749], [130.9266858, 33.3079732], [130.9269458, 33.3079], [130.9270865, 33.3078502], [130.9273133, 33.3077451], [130.9274747, 33.3076329], [130.9276028, 33.3075299], [130.9277465, 33.3073899], [130.9278791, 33.3072458], [130.9279957, 33.3070584], [130.9281273, 33.3067839], [130.928265, 33.3064514], [130.9285097, 33.3057455], [130.929002, 33.3042933], [130.9291723, 33.3037136], [130.9292121, 33.3035738], [130.9292325, 33.3034314], [130.9292325, 33.3032745], [130.9291968, 33.3030716], [130.9290662, 33.3027741], [130.9288902, 33.3024028], [130.9288216, 33.302258], [130.9290278, 33.3021923], [130.9296019, 33.3020095], [130.9312872, 33.3014728], [130.932052, 33.301216], [130.9321793, 33.3011733], [130.9323086, 33.3011245], [130.9324974, 33.3010533], [130.9337975, 33.3006027], [130.9349918, 33.3001653], [130.9355103, 33.2999792], [130.9369428, 33.2994657], [130.9375869, 33.2992314], [130.9380839, 33.2990636], [130.9384755, 33.2989205], [130.9389656, 33.2988027], [130.9391997, 33.2987675], [130.9392963, 33.298753], [130.9394803, 33.2987539], [130.9398908, 33.2987601], [130.9399877, 33.2987714], [130.940159, 33.2987915], [130.9403679, 33.2988462], [130.9403819, 33.2988498], [130.940815, 33.2989755], [130.9412993, 33.2991653], [130.9419099, 33.2994268], [130.9423024, 33.2995537], [130.9426874, 33.2996342], [130.9430109, 33.2996564], [130.9432454, 33.2996417], [130.943477, 33.299604], [130.9437146, 33.2995537], [130.9440861, 33.2994242], [130.944805, 33.2991376], [130.9469976, 33.2982339], [130.9479481, 33.297848], [130.9485572, 33.2976003], [130.9490226, 33.2974955], [130.9493526, 33.2974698], [130.9496024, 33.2974689], [130.9497919, 33.2974682], [130.9498567, 33.2973727], [130.9502132, 33.2968475], [130.9505427, 33.2963154], [130.9506365, 33.2961168], [130.9506855, 33.2959599], [130.9507355, 33.295722], [130.9507446, 33.2955123], [130.9507273, 33.2953128], [130.9506855, 33.2950877], [130.9506304, 33.294918], [130.9505243, 33.2946938], [130.9503468, 33.2944201], [130.9501183, 33.2941063], [130.9498107, 33.293737], [130.9496174, 33.2935553], [130.9490285, 33.2931011], [130.9484599, 33.2926151], [130.9482045, 33.2923971], [130.9479705, 33.292152], [130.947823, 33.2919309], [130.9477858, 33.2917718], [130.9477892, 33.291641], [130.9478132, 33.2914684], [130.9478706, 33.2912745], [130.9480071, 33.290894], [130.9480543, 33.2907524], [130.9480725, 33.2906839], [130.9481111, 33.2905391], [130.948204, 33.2902456], [130.9482989, 33.2900725], [130.9484427, 33.2898738], [130.9486692, 33.2896692], [130.949019, 33.2894765], [130.9494588, 33.289277], [130.9500156, 33.2890041], [130.9504472, 33.2888183], [130.9509566, 33.2885879], [130.9515752, 33.2882957], [130.9521532, 33.2879797], [130.952949, 33.2874946], [130.9535121, 33.2870843], [130.9539005, 33.28679], [130.9541317, 33.2865088], [130.9543047, 33.2861976], [130.9545585, 33.2856823], [130.9547993, 33.285227], [130.954968, 33.2847702], [130.955197, 33.2842601], [130.9553109, 33.2838982], [130.9553736, 33.2836864], [130.9554466, 33.283376], [130.9554929, 33.2830804], [130.9556378, 33.2821561], [130.9556939, 33.2818176], [130.9556924, 33.2815495], [130.955619, 33.281275], [130.9554792, 33.2810473], [130.955262, 33.2808282], [130.9550794, 33.2807011], [130.9547724, 33.2805408], [130.9542043, 33.2802927], [130.9537368, 33.2800766], [130.9535501, 33.2799743], [130.9533982, 33.2798669], [130.9532554, 33.2797117], [130.9531462, 33.2795301], [130.9530983, 33.2793732], [130.9530993, 33.2792674], [130.9531238, 33.2790807], [130.9532574, 33.2787294], [130.9535012, 33.2781444], [130.9536773, 33.2776926], [130.9537824, 33.2774172], [130.9539027, 33.2771503], [130.9540119, 33.2769712], [130.9541404, 33.2768038], [130.954341, 33.2765967], [130.9546062, 33.2763272], [130.9550366, 33.2758957], [130.9552742, 33.2756499], [130.9557168, 33.2751872], [130.9559197, 33.2749553], [130.9559969, 33.2748124], [130.9560647, 33.274659], [130.9561158, 33.2743676], [130.9562089, 33.2736382], [130.9563925, 33.2724988], [130.9564256, 33.2723442], [130.9564578, 33.2721483], [130.9565469, 33.2719581], [130.9566414, 33.2718277], [130.9568005, 33.2716426], [130.9570534, 33.27142], [130.9571973, 33.2713171], [130.957362, 33.2711992], [130.9574122, 33.2711633], [130.9576904, 33.2709223], [130.9579484, 33.2706727], [130.9583548, 33.2703141], [130.9588193, 33.2698352], [130.9590063, 33.2694847], [130.9590912, 33.2692819], [130.9591325, 33.2690813], [130.9591302, 33.2687511], [130.9592371, 33.2683769], [130.9594212, 33.2677702], [130.9594628, 33.2675045], [130.959452, 33.267139], [130.9594534, 33.2668104], [130.9596438, 33.2662385], [130.9597725, 33.2656823], [130.9598074, 33.26531], [130.9598503, 33.2646686], [130.9598637, 33.2640653], [130.9598584, 33.2637626], [130.9597814, 33.2631472], [130.959702, 33.2625565], [130.9596437, 33.2622106], [130.9595828, 33.2617616], [130.95963, 33.2614027], [130.9596753, 33.2612227], [130.9599333, 33.2608519], [130.960048, 33.2607284], [130.9602578, 33.2605207], [130.9604411, 33.260361], [130.9606554, 33.2602701], [130.9611842, 33.2600097], [130.9613071, 33.2599513], [130.9622407, 33.2595081], [130.9633835, 33.2589238], [130.9640877, 33.2585695], [130.9643479, 33.2584421], [130.965173, 33.258035], [130.9655892, 33.2578035], [130.9657992, 33.257645], [130.9659162, 33.2575331], [130.96605, 33.25737], [130.9663269, 33.2569069], [130.9666502, 33.2563926], [130.9669643, 33.2558922], [130.9672263, 33.255583], [130.9674846, 33.2553856], [130.9678005, 33.2551572], [130.9680941, 33.2548418], [130.9684412, 33.2542964], [130.9686856, 33.2539755], [130.9689064, 33.2536261], [130.9690798, 33.2533448], [130.9692677, 33.2530574], [130.9694052, 33.2529159], [130.9695743, 33.2527963], [130.9697508, 33.2527108], [130.97005, 33.2526005], [130.9705053, 33.2524233], [130.9706093, 33.2523487], [130.9706614, 33.2522508], [130.9707152, 33.2516883], [130.9707264, 33.2512656], [130.9707627, 33.2509248], [130.9707803, 33.2508367], [130.970849, 33.2503985], [130.9709721, 33.2498856], [130.971125, 33.2494695], [130.9712122, 33.2492968], [130.9713746, 33.2490006], [130.9714469, 33.2488527], [130.9715876, 33.2485207], [130.9717741, 33.2481213], [130.9718707, 33.2478433], [130.9719766, 33.247389], [130.9720477, 33.2470181], [130.9721361, 33.2468075], [130.9722506, 33.2466364], [130.9723941, 33.2464439], [130.9725747, 33.2462488], [130.9728849, 33.2460599], [130.9733075, 33.245827], [130.9734694, 33.2457318], [130.9739869, 33.2454142], [130.9743552, 33.2451256], [130.9746641, 33.2447918], [130.9751856, 33.2440643], [130.9755079, 33.243692], [130.9758918, 33.2433626], [130.9770286, 33.2426163], [130.9773221, 33.2423894], [130.9775233, 33.2421625], [130.9776664, 33.2419374], [130.9778095, 33.2417123], [130.9780645, 33.2412169], [130.9802091, 33.2368744], [130.9803278, 33.2365456], [130.9803577, 33.2360481], [130.9803502, 33.2357577], [130.980301, 33.2355375], [130.980193, 33.2352446], [130.9797751, 33.2344667], [130.9796098, 33.2340584], [130.9795425, 33.2337568], [130.9794965, 33.2335169], [130.97948, 33.2328342], [130.9795449, 33.2325209], [130.9796153, 33.2322467], [130.9797113, 33.2320049], [130.9799328, 33.2315486], [130.9801212, 33.2312681], [130.9804779, 33.2308199], [130.981239, 33.2299197], [130.9819889, 33.2291657], [130.9823779, 33.2287188], [130.982767, 33.2281947], [130.9830077, 33.2279018], [130.9832127, 33.2276741], [130.9833386, 33.2275342], [130.9835509, 33.2273221]], [[130.9870452, 33.2037711], [130.9870023, 33.204175], [130.9869272, 33.2048124], [130.9869058, 33.2051984], [130.9869272, 33.2054677], [130.9869283, 33.2055472], [130.9869272, 33.2056742], [130.9867985, 33.2058897], [130.9865303, 33.2061859], [130.9863479, 33.2063564], [130.9861011, 33.2065629], [130.9857256, 33.2068412], [130.9854467, 33.2071105], [130.9850926, 33.2073529], [130.9846313, 33.207703], [130.9841806, 33.2081877], [130.9839768, 33.2084929], [130.9839017, 33.2087263], [130.9839009, 33.2087971], [130.983891, 33.2089687], [130.9838695, 33.2091033], [130.9838266, 33.2093277], [130.9837944, 33.2094893], [130.9838373, 33.2098484], [130.9839339, 33.2102792], [130.9840411, 33.2104879], [130.9841565, 33.2106876], [130.9843416, 33.2109278], [130.9844971, 33.2111252], [130.9846554, 33.2112913], [130.9848539, 33.2114013], [130.9851462, 33.2115405], [130.985503, 33.2117334], [130.9858865, 33.2119848], [130.9863157, 33.212263], [130.9865839, 33.2124695], [130.9868092, 33.2126849], [130.9869273, 33.2129228], [130.9871123, 33.213192], [130.9872437, 33.213495], [130.9872205, 33.2138817], [130.9872062, 33.2139797], [130.9871703, 33.2141186], [130.9871204, 33.2145699], [130.9870265, 33.2149266], [130.9870131, 33.2151084], [130.9869165, 33.2155034], [130.9869006, 33.215632], [130.9868843, 33.2157637], [130.9869165, 33.2159253], [130.9869504, 33.2160387], [130.9869701, 33.2161048], [130.9870629, 33.2162129], [130.9871525, 33.2163202], [130.9873457, 33.2165356], [130.9876782, 33.2167331], [130.9878928, 33.216843], [130.9879705, 33.2169464], [130.9880108, 33.2170719], [130.9881933, 33.2175678], [130.988338, 33.2178169], [130.9885607, 33.2181311], [130.9887592, 33.218333], [130.9889523, 33.2185709], [130.9890461, 33.218876], [130.9891454, 33.2191318], [130.9892795, 33.2195044], [130.9893331, 33.2198341], [130.9893219, 33.2200215], [130.9893331, 33.2201729], [130.989309, 33.2205276], [130.9892615, 33.2207144], [130.9892232, 33.2209112], [130.9891159, 33.221158], [130.9889657, 33.2213914], [130.988837, 33.2217953], [130.9888048, 33.2220197], [130.9887832, 33.2223264], [130.9887902, 33.2225861], [130.9888244, 33.2228587], [130.988902, 33.2231279], [130.9890161, 33.2234817], [130.9891483, 33.2238476], [130.9891641, 33.2239963], [130.9891562, 33.2241244], [130.9890907, 33.2243801], [130.9888346, 33.2246731], [130.9886782, 33.224792], [130.9880254, 33.2253064], [130.9878117, 33.2254442], [130.9876014, 33.2255409], [130.9873394, 33.2255638], [130.9869782, 33.2255427], [130.9865333, 33.2254871], [130.9863555, 33.2254752], [130.9861969, 33.2254785], [130.9859969, 33.2255054], [130.9858006, 33.225567], [130.9855954, 33.2256805], [130.985431, 33.2258191], [130.985092, 33.2260911], [130.9847157, 33.2264153], [130.9843888, 33.2267066], [130.9840906, 33.2269141], [130.9835509, 33.2273221]], [[130.994373, 33.1910047], [130.9941477, 33.1896759], [130.9941156, 33.1894694], [130.9941048, 33.189218], [130.9941799, 33.1890833], [130.994373, 33.1888678], [130.9945232, 33.1887331], [130.9947593, 33.1885266], [130.9949953, 33.1884189], [130.9950784, 33.1883906], [130.995285, 33.1883201], [130.9955318, 33.1882572], [130.9960146, 33.1880597], [130.9963257, 33.1879699], [130.9966797, 33.1877903], [130.9968836, 33.1877006], [130.9970982, 33.1875569], [130.9972806, 33.1874222], [130.9973664, 33.1872786], [130.9974093, 33.187072], [130.9972806, 33.1869463], [130.9971518, 33.1868117], [130.9970553, 33.18665], [130.9969694, 33.1865064], [130.9969587, 33.1863268], [130.9970338, 33.1860484], [130.9971733, 33.1857611], [130.9973342, 33.185366], [130.9975488, 33.1849171], [130.9977312, 33.1844951], [130.9979565, 33.1839025], [130.9981818, 33.1833727], [130.9984607, 33.182789], [130.9985895, 33.1826274], [130.9987397, 33.1825556], [130.9990186, 33.1824658], [130.9995014, 33.182367], [131.0000701, 33.182376], [131.0010356, 33.1823311]], [[130.994373, 33.1910047], [130.9945795, 33.1918931], [130.9946326, 33.1920056], [130.9950382, 33.1923245], [130.9951562, 33.192513], [130.9951458, 33.1926424], [130.9950361, 33.1927668], [130.9948343, 33.1929652], [130.9946963, 33.1931044], [130.9946114, 33.1932703], [130.994575, 33.1933692], [130.9945183, 33.1934274], [130.994438, 33.1934821], [130.9926964, 33.1944744], [130.992465, 33.1946193], [130.992616, 33.1948927], [130.993016, 33.1954623], [130.9930801, 33.1955759], [130.9930962, 33.1956924], [130.9930397, 33.1959396], [130.9929622, 33.1962053], [130.9928683, 33.1963803], [130.992694, 33.1965353], [130.9922327, 33.1967552], [130.9918142, 33.1969482], [130.9916921, 33.1970213], [130.9915889, 33.1971076], [130.9914428, 33.1973757], [130.9913234, 33.1976294], [130.9912348, 33.197745], [130.990972, 33.1978909], [130.9908003, 33.1979358], [130.9905978, 33.1979819], [130.9904382, 33.1980762], [130.9902746, 33.1982073], [130.9898508, 33.198516], [130.9893949, 33.1987707], [130.9891293, 33.198939], [130.9888289, 33.1991881], [130.9885513, 33.1994227], [130.9883742, 33.1995339], [130.988161, 33.1996146], [130.9877641, 33.1997313], [130.9874721, 33.1998445], [130.9873564, 33.1999557], [130.987241, 33.2001228], [130.987135, 33.2004679], [130.9870232, 33.2010105], [130.9869592, 33.2013397], [130.9868961, 33.2016552], [130.9868141, 33.2020187], [130.9867463, 33.2023858], [130.9867019, 33.2026489], [130.9866668, 33.2028536], [130.9867234, 33.2030439], [130.9867878, 33.2031068], [130.986895, 33.2032145], [130.9869701, 33.2033671], [130.9870345, 33.2035556], [130.9870399, 33.2036653], [130.9870452, 33.2037711]], [[131.0010356, 33.1823311], [131.0013897, 33.1823132], [131.0018431, 33.182245], [131.0021397, 33.1821455], [131.0024312, 33.1819838], [131.0028202, 33.1817762], [131.0033712, 33.1814908], [131.0039229, 33.1811644], [131.0040934, 33.1810364], [131.0045094, 33.1806792], [131.0050403, 33.1802123], [131.0056598, 33.179734], [131.0061887, 33.1792804], [131.0068991, 33.1789103], [131.0073227, 33.1788021], [131.0076277, 33.1786898], [131.0079599, 33.1786617], [131.0082976, 33.1787555], [131.0085524, 33.1788676], [131.0089535, 33.1790446], [131.0092432, 33.1792062], [131.009608, 33.1793858], [131.0099728, 33.1795295], [131.0102303, 33.1795744], [131.0106487, 33.1795834], [131.0110564, 33.1795564], [131.0115821, 33.1794756], [131.0119254, 33.1794307], [131.0123438, 33.1792691], [131.0128052, 33.1790356], [131.0135884, 33.1786944], [131.0144467, 33.1783442], [131.0150153, 33.1781287], [131.0153265, 33.1780478], [131.015584, 33.1780478], [131.0158629, 33.1781646], [131.0160667, 33.1782993], [131.0164315, 33.1786046], [131.0167749, 33.178874], [131.0170323, 33.1790895], [131.0172577, 33.1793589], [131.0175259, 33.1796552], [131.0180148, 33.1799617], [131.0184837, 33.1803463], [131.0187957, 33.1805636], [131.0191034, 33.1808146], [131.0194629, 33.1810457], [131.0200078, 33.1814814], [131.0204634, 33.1818085], [131.0208522, 33.1820807], [131.021229, 33.1823544], [131.0214964, 33.1825533], [131.0219427, 33.1827624], [131.0223583, 33.1829563], [131.022953, 33.183281], [131.0239479, 33.1838946], [131.0247097, 33.1843741], [131.0252779, 33.1847154], [131.0260786, 33.1851262], [131.0270956, 33.1856241], [131.0272204, 33.1857497], [131.0273186, 33.1858751], [131.0275195, 33.1862143], [131.0279503, 33.186729], [131.0281721, 33.1868493], [131.0282848, 33.1867142], [131.0288048, 33.1858313], [131.0288452, 33.1857627], [131.0289623, 33.1856045], [131.029998, 33.184128], [131.031368, 33.182298], [131.031702, 33.181935], [131.03198, 33.181705], [131.032379, 33.181436], [131.032824, 33.181175], [131.03353, 33.180835], [131.034346, 33.18041], [131.0344736, 33.1803441], [131.034855, 33.180147], [131.0351199, 33.1800843], [131.0353987, 33.1798714], [131.0355836, 33.1796856], [131.0357246, 33.1794958], [131.0358414, 33.1792947], [131.0359238, 33.1790698], [131.0359929, 33.1788381], [131.036096, 33.178445], [131.0363032, 33.1774435], [131.0364031, 33.1768616], [131.0364449, 33.1760442], [131.0364206, 33.175707], [131.0363918, 33.1753797], [131.0363986, 33.1751982], [131.0364174, 33.1750279], [131.0364505, 33.174889], [131.0365669, 33.1745849], [131.0366876, 33.1743301], [131.0368087, 33.1739214], [131.0369291, 33.1735106], [131.0370845, 33.1729741], [131.0373528, 33.1722916], [131.037579, 33.1716297], [131.0379049, 33.1710174], [131.0379536, 33.1709337], [131.0383755, 33.1701771], [131.0384491, 33.1700507], [131.0385198, 33.1698673], [131.0388977, 33.1694179], [131.0391123, 33.1693011], [131.0394663, 33.1692383], [131.0400312, 33.169114], [131.0405541, 33.1690132], [131.0409521, 33.1688573], [131.0416197, 33.1684949], [131.0419714, 33.1682135], [131.0421877, 33.1679465], [131.042441, 33.1675693], [131.0427404, 33.167104], [131.0430176, 33.1666428], [131.0431034, 33.1662836], [131.0431057, 33.1662004], [131.043082, 33.1659692], [131.0430176, 33.165619], [131.0431356, 33.1653406], [131.0436131, 33.1645779], [131.0437618, 33.164414], [131.0443927, 33.163774], [131.044465, 33.1637054], [131.0446516, 33.1634938], [131.0447449, 33.1633917], [131.0448629, 33.1630683], [131.0449488, 33.1626911], [131.0449702, 33.1623678], [131.0449648, 33.1620714], [131.0448737, 33.1618828], [131.0447342, 33.1616627], [131.0446841, 33.1615119], [131.044719, 33.1610996], [131.0448319, 33.16093], [131.044907, 33.1608213], [131.045134, 33.1605578], [131.0453794, 33.1602781], [131.045425, 33.1601704], [131.0455041, 33.1599839], [131.0456287, 33.1596802], [131.0457119, 33.1594811], [131.0458259, 33.1593707], [131.0460682, 33.1591979], [131.0464401, 33.1589227], [131.0470151, 33.1585044], [131.0472235, 33.1583807], [131.0474844, 33.1582878], [131.0477662, 33.1582452], [131.0484356, 33.1582183], [131.0489506, 33.1581644], [131.0493583, 33.1580746], [131.0501309, 33.1577946], [131.0512943, 33.1573777], [131.0517148, 33.1571451], [131.0519339, 33.1569678], [131.0520997, 33.1567481], [131.0524242, 33.1562251], [131.0527259, 33.1557154], [131.0529837, 33.15529], [131.0531283, 33.1549613], [131.0531641, 33.1547064], [131.0531331, 33.154453], [131.0531321, 33.1542455], [131.0532107, 33.1540683], [131.053457, 33.1536387], [131.0534893, 33.1534756], [131.0534942, 33.1529609], [131.053501, 33.1528415], [131.0535647, 33.1517049], [131.0536284, 33.1511314], [131.0535962, 33.1507721], [131.0535518, 33.1506084], [131.0534889, 33.1503768], [131.0534031, 33.1500086], [131.0534567, 33.149766], [131.0535211, 33.1495774], [131.0537572, 33.1491552], [131.0538997, 33.1488862], [131.0541712, 33.1484471], [131.0544044, 33.1480964], [131.0546976, 33.147645], [131.0550207, 33.1472585], [131.0553665, 33.1469903], [131.0557205, 33.1467209], [131.0562677, 33.1463615], [131.056936, 33.145973], [131.0570616, 33.1459034], [131.0576732, 33.1456249], [131.0582418, 33.1453015], [131.0587031, 33.1449602], [131.0590553, 33.1446995], [131.0593898, 33.1444661], [131.0600442, 33.143981], [131.0604949, 33.1436037], [131.0609347, 33.1432354], [131.0611386, 33.142885], [131.0612459, 33.1422113], [131.0613961, 33.1414836], [131.061439, 33.1411423], [131.0616214, 33.140738], [131.0620291, 33.1401541], [131.0625012, 33.1394803], [131.0628874, 33.1388874], [131.0630376, 33.1385999], [131.0630483, 33.1382944], [131.0630161, 33.1379441], [131.0628445, 33.137432], [131.062599, 33.136846], [131.0625763, 33.1367762], [131.0625598, 33.1367261], [131.0625345, 33.1366073], [131.0625012, 33.1363359], [131.0625045, 33.1360697], [131.0625119, 33.1360035], [131.0626835, 33.1354555], [131.0629947, 33.1349434], [131.0633165, 33.1344493], [131.0633707, 33.1343276], [131.0634453, 33.1341797], [131.0635633, 33.1337934], [131.0635646, 33.1336078], [131.0635633, 33.13347], [131.0635418, 33.1329848], [131.0635304, 33.1329043], [131.0634882, 33.1325715], [131.0634346, 33.1320055], [131.0634131, 33.131736], [131.0633702, 33.1313317], [131.063275, 33.130917], [131.0632657, 33.1308181], [131.063221, 33.130399], [131.063165, 33.129736], [131.063115, 33.129198], [131.063102, 33.129153], [131.063082, 33.128719], [131.063109, 33.128483], [131.063129, 33.128359], [131.063216, 33.128059], [131.0633261, 33.12784], [131.0635199, 33.1274905], [131.0639817, 33.1267029], [131.0640603, 33.1264879], [131.0641174, 33.1262814], [131.0641213, 33.1260765], [131.0640912, 33.12585], [131.0639762, 33.1256006], [131.0637546, 33.1252459], [131.063069, 33.124396], [131.062667, 33.123872], [131.062513, 33.123675], [131.061623, 33.122508], [131.061443, 33.122271], [131.0612218, 33.1218819], [131.061147, 33.121775], [131.061013, 33.121528], [131.060705, 33.120959], [131.060452, 33.120525], [131.060197, 33.120165], [131.0599196, 33.1197967], [131.059776, 33.119606], [131.059556, 33.1193374], [131.0593642, 33.1191215], [131.0590566, 33.11876], [131.058792, 33.11836], [131.058752, 33.118298], [131.058598, 33.117977], [131.058504, 33.117662], [131.058471, 33.11747], [131.058437, 33.117138], [131.058457, 33.116767], [131.058544, 33.116462], [131.058632, 33.116265], [131.058725, 33.116107], [131.0593869, 33.1151499], [131.0600467, 33.1141388], [131.0601693, 33.1139008], [131.0605693, 33.1130167], [131.0606649, 33.1128762], [131.0607345, 33.1127496], [131.0608524, 33.1126069], [131.0609913, 33.1124652], [131.0611589, 33.1123172], [131.0616957, 33.1119183], [131.062139, 33.111594], [131.0628378, 33.1110627], [131.0630217, 33.1109129], [131.0631261, 33.1108201], [131.0632688, 33.1106757], [131.0633888, 33.1105287], [131.0635228, 33.1103257], [131.0636497, 33.1100751], [131.0637381, 33.1095214], [131.0637263, 33.109166], [131.0637775, 33.1087735], [131.063851, 33.108573], [131.063933, 33.108448], [131.064076, 33.108264], [131.064213, 33.108117], [131.064427, 33.107961], [131.064772, 33.107748], [131.0652916, 33.1075008], [131.0661669, 33.107014], [131.066283, 33.106945], [131.06639, 33.106866], [131.066544, 33.106714], [131.066758, 33.106477], [131.066846, 33.106353], [131.066946, 33.106156], [131.066993, 33.105999], [131.067026, 33.105886], [131.06716, 33.105148], [131.067254, 33.104584], [131.067466, 33.103394], [131.067528, 33.103045], [131.06774, 33.1020059], [131.0678051, 33.1016508], [131.067843, 33.101326], [131.0679789, 33.1002665], [131.0681854, 33.0989288], [131.0682452, 33.098384], [131.0682556, 33.0981058], [131.0682426, 33.0979089], [131.0682127, 33.0977292], [131.06816, 33.0975741], [131.0680801, 33.0974025], [131.0679441, 33.0971576], [131.067814, 33.0969978], [131.0675944, 33.096724], [131.0673086, 33.0963834], [131.0668445, 33.0958243], [131.0667003, 33.0956254], [131.0665842, 33.0954204], [131.0665211, 33.0952556], [131.0664765, 33.0950756], [131.0664464, 33.0948698], [131.066433, 33.0946459], [131.0664332, 33.0939701], [131.0664321, 33.093432], [131.0664564, 33.0930525], [131.0664981, 33.0928569], [131.0666169, 33.092454], [131.0667578, 33.0919889], [131.066994, 33.091301], [131.0673084, 33.0905307], [131.0675856, 33.0897693], [131.0676058, 33.0897021], [131.0676677, 33.0894832], [131.0677396, 33.0891441], [131.0677547, 33.088924], [131.06777, 33.088579], [131.067677, 33.088145], [131.067529, 33.087565], [131.067375, 33.087097], [131.067275, 33.0869], [131.067142, 33.086686], [131.06661, 33.085891], [131.066081, 33.085029], [131.065947, 33.08482], [131.065746, 33.084527], [131.065599, 33.084313], [131.065305, 33.08393], [131.065105, 33.08371], [131.064811, 33.083422], [131.06441, 33.083084], [131.064143, 33.082859], [131.064022, 33.08274], [131.063701, 33.082464], [131.063032, 33.081884], [131.062401, 33.081339], [131.06203, 33.080958], [131.061694, 33.080591], [131.061454, 33.080245], [131.061266, 33.079913], [131.061112, 33.079596], [131.061066, 33.079444], [131.061039, 33.07919], [131.061039, 33.078361], [131.061072, 33.078204], [131.061126, 33.077843], [131.061192, 33.077539], [131.061354, 33.077009], [131.061554, 33.076429], [131.061728, 33.07604], [131.061915, 33.075752], [131.062102, 33.075499], [131.062484, 33.07507], [131.063092, 33.074524], [131.063354, 33.074219], [131.063621, 33.073791], [131.063715, 33.073504], [131.063735, 33.073368], [131.063751, 33.073057], [131.063735, 33.072918], [131.063681, 33.072636], [131.063533, 33.071976], [131.063467, 33.071571], [131.06348, 33.071306], [131.063547, 33.071126], [131.063727, 33.070838], [131.063921, 33.070618], [131.064035, 33.070479], [131.064107, 33.070353], [131.064182, 33.070111], [131.064216, 33.06988], [131.064202, 33.069609], [131.064155, 33.069221], [131.064142, 33.0689], [131.064175, 33.068781], [131.064242, 33.068657], [131.064309, 33.068573], [131.064436, 33.068454], [131.06469, 33.068308], [131.064818, 33.068246], [131.064972, 33.068195], [131.065112, 33.068139], [131.065601, 33.067908], [131.065969, 33.067681], [131.066182, 33.067507], [131.066481, 33.067143], [131.066904, 33.06652], [131.067139, 33.066075], [131.067266, 33.065726], [131.067285, 33.065625], [131.06728, 33.065135], [131.067259, 33.06501], [131.067205, 33.064706], [131.067126, 33.064475], [131.066972, 33.06403], [131.066872, 33.063776], [131.066845, 33.063597], [131.066852, 33.063332], [131.066877, 33.063157], [131.066917, 33.062966], [131.066945, 33.062876], [131.067066, 33.062549], [131.067179, 33.062334], [131.06728, 33.062188], [131.06744, 33.061889], [131.067454, 33.06176], [131.06744, 33.061658], [131.067388, 33.061553], [131.067266, 33.061377], [131.067032, 33.061095], [131.066236, 33.060385], [131.065989, 33.060148], [131.065922, 33.060086], [131.065761, 33.059849], [131.065734, 33.059788], [131.065714, 33.059664], [131.065714, 33.059421], [131.065761, 33.05932], [131.065875, 33.059179], [131.066002, 33.059083], [131.066575, 33.058831], [131.066591, 33.058824], [131.067005, 33.058627], [131.067166, 33.058508], [131.067326, 33.058356], [131.067407, 33.058249], [131.067487, 33.058114], [131.067561, 33.057911], [131.067561, 33.057798], [131.0675, 33.057494], [131.067454, 33.057364], [131.067146, 33.056767], [131.067086, 33.056609], [131.067019, 33.05635], [131.067019, 33.055932], [131.067072, 33.055752], [131.067179, 33.055544], [131.067407, 33.055149], [131.06756, 33.05484], [131.067627, 33.054602], [131.067647, 33.054462], [131.067654, 33.054247], [131.067627, 33.054147], [131.06746, 33.053865], [131.067326, 33.053696], [131.067199, 33.053521], [131.067026, 33.053199], [131.066992, 33.053092], [131.066985, 33.052911], [131.067025, 33.052675], [131.067152, 33.052354], [131.067186, 33.052263], [131.067293, 33.051993], [131.067413, 33.051605], [131.067507, 33.051036], [131.067487, 33.050512], [131.06746, 33.05018], [131.067447, 33.049983], [131.06742, 33.049779], [131.067339, 33.049216], [131.067319, 33.048664], [131.067346, 33.048213], [131.06742, 33.04761], [131.06742, 33.047608], [131.06752, 33.046934], [131.06762, 33.046427], [131.067814, 33.045694], [131.068261, 33.04437], [131.068361, 33.04407], [131.068918, 33.042409], [131.069038, 33.042031], [131.069098, 33.041654], [131.069098, 33.041384], [131.069078, 33.041265], [131.068998, 33.04095], [131.068984, 33.040933], [131.068937, 33.040764], [131.068864, 33.040578], [131.068228, 33.039163], [131.0682249, 33.0391359], [131.067887, 33.038397], [131.067539, 33.037704], [131.0669235, 33.0366373], [131.0665673, 33.0360716], [131.0661757, 33.0354456], [131.0656792, 33.03458], [131.0654225, 33.0341324], [131.064693, 33.0325313], [131.0637059, 33.0304625], [131.0635065, 33.0299133], [131.0634055, 33.029635], [131.0632339, 33.0291673], [131.0632124, 33.0287715], [131.0632178, 33.0287534], [131.0633197, 33.0284117], [131.0637918, 33.027854], [131.0643926, 33.0273503], [131.0672894, 33.0250295], [131.0675425, 33.0247832], [131.0677321, 33.0245546], [131.0678407, 33.0243514], [131.0679421, 33.0241343], [131.0680199, 33.0238859], [131.0680602, 33.0236688], [131.0680753, 33.0234075], [131.0680681, 33.0231108], [131.0679917, 33.0214182], [131.0678715, 33.0192975], [131.067841, 33.018322], [131.0678544, 33.0180667], [131.0678894, 33.0178695], [131.0679398, 33.0176375], [131.0680543, 33.0173601], [131.0682033, 33.0170909], [131.0686931, 33.0163684], [131.0688157, 33.0161289], [131.0689055, 33.015911], [131.0689608, 33.0156857], [131.0690099, 33.0154294], [131.0690241, 33.0151307], [131.0689964, 33.0147566], [131.0689245, 33.0143321], [131.0688792, 33.0140933], [131.0688812, 33.0137545], [131.0688919, 33.013501], [131.0688799, 33.0132807], [131.0687216, 33.0125813], [131.0686412, 33.0122821], [131.0685316, 33.0120644], [131.0684091, 33.0119039], [131.0682523, 33.0117311], [131.0679465, 33.0114222], [131.0674342, 33.0108786], [131.0671745, 33.0106147], [131.0669142, 33.0103655], [131.0668558, 33.0102927], [131.0667961, 33.0101852], [131.0667068, 33.0098983], [131.0666437, 33.0097079], [131.0665754, 33.0095673], [131.0664843, 33.0094512], [131.0660504, 33.0090906], [131.0658472, 33.0089221], [131.0657318, 33.0088226], [131.0655829, 33.0086568], [131.0654414, 33.0084369], [131.0653512, 33.0082541], [131.0652918, 33.0080809], [131.065265, 33.0078965], [131.0652601, 33.0075187], [131.065273, 33.0073655], [131.0653196, 33.0072553], [131.0655494, 33.0069602], [131.0657095, 33.0066961], [131.065849, 33.0064368], [131.0659225, 33.0063641], [131.066014, 33.0063198], [131.0661321, 33.0063054], [131.0662316, 33.0063086], [131.0663042, 33.0063465], [131.0663747, 33.0064062], [131.0664343, 33.0064963], [131.066542, 33.0067731], [131.0666101, 33.0068537], [131.0666768, 33.0068994], [131.0667797, 33.0069181], [131.0668971, 33.0068991], [131.0669907, 33.0068427], [131.0670461, 33.0067688], [131.0670629, 33.0066845], [131.067039, 33.0066001], [131.0669853, 33.0065211], [131.0667243, 33.0063158], [131.0666598, 33.0062385], [131.0666158, 33.0061441], [131.0666113, 33.0060297], [131.0666787, 33.0056822], [131.0667326, 33.0055746], [131.0668028, 33.005496], [131.0670508, 33.0052813], [131.0670833, 33.0052057], [131.0670702, 33.0051239], [131.0670363, 33.0050536], [131.0666314, 33.004733], [131.0665947, 33.0046993], [131.0664308, 33.0045152], [131.0663763, 33.0044844], [131.0662812, 33.0044523], [131.0661745, 33.0044432], [131.0660694, 33.0044072], [131.0659673, 33.0043383], [131.0658901, 33.004229], [131.0658519, 33.0040898], [131.0658359, 33.003641], [131.0658143, 33.003566], [131.0657568, 33.0035071], [131.065453, 33.0034148], [131.0653411, 33.0033337], [131.0652393, 33.0032375], [131.0651427, 33.0031803], [131.0649657, 33.0031106], [131.0649044, 33.0030763], [131.0648681, 33.0030194], [131.0648663, 33.0029176], [131.0649445, 33.0023308], [131.0649368, 33.0021594], [131.0648824, 33.0020283], [131.0647869, 33.0018775], [131.0647394, 33.0017422], [131.0647222, 33.0015701], [131.0646863, 33.0014297], [131.0645739, 33.0011584], [131.0645577, 33.0010814], [131.0645713, 33.0009918], [131.0646356, 33.0007976], [131.0646415, 33.0006852], [131.0645968, 33.0004864], [131.064582, 33.0001253], [131.0645613, 33.0000431], [131.0644935, 32.9999503], [131.0643918, 32.9998968], [131.0642183, 32.9998863], [131.064093, 32.999837], [131.0639963, 32.9997478], [131.0639414, 32.9996338], [131.0639568, 32.9994905], [131.0640207, 32.9993003], [131.0640346, 32.9992383], [131.0640314, 32.9990661], [131.0640543, 32.9989809], [131.0641661, 32.9987737], [131.0642011, 32.9986858], [131.0642209, 32.9984531], [131.0640707, 32.9979312], [131.0635308, 32.9972768], [131.0633463, 32.9966525], [131.0633166, 32.9965204], [131.0633239, 32.9963394], [131.0634477, 32.9959617], [131.0634758, 32.9958232], [131.0634865, 32.9956822], [131.0635753, 32.9954499], [131.0636251, 32.9951957], [131.0636501, 32.9950798], [131.0636864, 32.9949867], [131.0638545, 32.994779], [131.0638848, 32.9946999], [131.0638885, 32.9945481], [131.0638925, 32.9944591], [131.0639555, 32.9943332], [131.0640377, 32.9942364], [131.0641638, 32.9941498], [131.064244, 32.9940819], [131.0643088, 32.9939809], [131.0644093, 32.9934351], [131.0644388, 32.9932565], [131.0644032, 32.9931108], [131.0643854, 32.9929894], [131.0644045, 32.9928785], [131.0644834, 32.9926547], [131.0644894, 32.9925514], [131.0644605, 32.9924534], [131.0643281, 32.9923229], [131.06422, 32.9922338], [131.0641518, 32.9921637], [131.0641108, 32.9920927], [131.0640928, 32.9920331], [131.0640878, 32.9919743], [131.0640899, 32.9919351], [131.0641308, 32.991855], [131.0642248, 32.9917345], [131.0642906, 32.9916657], [131.0644874, 32.9914786], [131.0646086, 32.9913872], [131.0647432, 32.9913018], [131.0652849, 32.9909917], [131.0654954, 32.9908773], [131.0656026, 32.9908303], [131.0656977, 32.9908105], [131.0658037, 32.9907937], [131.0662348, 32.9907807], [131.0663142, 32.9907626], [131.0664153, 32.9907156], [131.0664709, 32.9906734], [131.0665163, 32.9906225], [131.066568, 32.9905216], [131.0666942, 32.9902722], [131.0667807, 32.9901423], [131.0668773, 32.9900195], [131.0669657, 32.9899015], [131.0669978, 32.9897935], [131.0669937, 32.9897037], [131.0669652, 32.9896484], [131.0669138, 32.9895953], [131.066828, 32.9895455], [131.0667629, 32.9895308], [131.0666818, 32.9895298], [131.066611, 32.9895568], [131.0665602, 32.9895898], [131.0664977, 32.9896548], [131.0664608, 32.989756], [131.0664622, 32.9901004], [131.0664361, 32.9902019], [131.0664028, 32.9902595], [131.0663418, 32.9903209], [131.0662583, 32.9903736], [131.0660926, 32.9904021], [131.0659488, 32.9903985], [131.0658051, 32.9903777], [131.0656528, 32.990367], [131.0652742, 32.9903389], [131.0651472, 32.9903219], [131.0650225, 32.9902934], [131.0648943, 32.990234], [131.0648001, 32.9901544], [131.0646606, 32.9900077], [131.0645572, 32.9898871], [131.0644737, 32.9897956], [131.0643699, 32.9897003], [131.0642533, 32.9896498], [131.0641443, 32.9896403], [131.0640514, 32.989663], [131.0638043, 32.9898209], [131.0636766, 32.9898656], [131.0635806, 32.9898732], [131.0634998, 32.9898542], [131.0634163, 32.9897919], [131.0633667, 32.9897009], [131.0633178, 32.9894642], [131.0632965, 32.9893442], [131.063293, 32.9892115], [131.0633256, 32.9890816], [131.0634239, 32.9888236], [131.0634233, 32.9887365], [131.0634042, 32.9886646], [131.063361, 32.9885393], [131.0633588, 32.9884733], [131.0633799, 32.9884069], [131.0634749, 32.9882082], [131.0634863, 32.9881283], [131.0634771, 32.988057], [131.0634565, 32.9879873], [131.0633829, 32.987902], [131.0632897, 32.987815], [131.0631457, 32.9876774], [131.063023, 32.9875076], [131.0629651, 32.987441], [131.0628957, 32.9873715], [131.0626482, 32.9872584], [131.0625579, 32.9872052], [131.0624899, 32.9871517], [131.062433, 32.9870811], [131.0623879, 32.9869741], [131.0623759, 32.9868844], [131.0623823, 32.9867977], [131.0623828, 32.9867372], [131.0623405, 32.9866652], [131.0621903, 32.9865078], [131.0621252, 32.986427], [131.0620819, 32.9863372], [131.0620657, 32.9862494], [131.0620777, 32.9861668], [131.0621103, 32.9860646], [131.0621464, 32.9860011], [131.0622256, 32.9859355], [131.0622994, 32.9858775], [131.0624026, 32.9858284], [131.0635216, 32.9853504], [131.0636433, 32.9852799], [131.0637145, 32.9852253], [131.0637462, 32.9851626], [131.0637725, 32.9850673], [131.0637203, 32.9849551], [131.0636283, 32.9848833], [131.0635422, 32.9848607], [131.0634467, 32.9848608], [131.0633639, 32.9848833], [131.0632998, 32.9849245], [131.0632397, 32.984985], [131.0631426, 32.9851581], [131.0630502, 32.985293], [131.0629833, 32.9853387], [131.0628808, 32.9853889], [131.062779, 32.9854025], [131.0626334, 32.985384], [131.0622137, 32.9852443], [131.0614675, 32.9850839], [131.0613279, 32.9850098], [131.0612571, 32.9849266], [131.0612259, 32.9848529], [131.0612165, 32.9847742], [131.0611834, 32.9840569], [131.061183, 32.9839503], [131.061207, 32.9838317], [131.0612286, 32.9837566], [131.0612842, 32.98365], [131.0614895, 32.9833622], [131.0615185, 32.9833042], [131.0615351, 32.9832435], [131.0615446, 32.9831778], [131.0615386, 32.9831098], [131.0615245, 32.9830451], [131.0614952, 32.9829718], [131.0612244, 32.9824926], [131.0611009, 32.9822764], [131.0610628, 32.9821655], [131.0610528, 32.982063], [131.0610588, 32.9819966], [131.0610855, 32.9819361], [131.06117, 32.9818176], [131.0614173, 32.9814999], [131.0615089, 32.9814214], [131.0615991, 32.9813777], [131.0617005, 32.9813461], [131.0618094, 32.9813256], [131.0619516, 32.9813281], [131.0620968, 32.9813239], [131.062189, 32.9813079], [131.0622801, 32.9812748], [131.0624033, 32.9811777], [131.0624864, 32.9810525], [131.0625457, 32.9809367], [131.0625796, 32.9808232], [131.0625816, 32.9807215], [131.0625615, 32.9806425], [131.0625115, 32.9805732], [131.0624383, 32.9804938], [131.0623162, 32.9804048], [131.062185, 32.9803317], [131.0620364, 32.9802799], [131.0619516, 32.9802771], [131.0618436, 32.9802996], [131.0617323, 32.9803628], [131.0615585, 32.980483], [131.0614568, 32.9805165], [131.0613192, 32.9805244], [131.0612305, 32.9804964], [131.0611734, 32.9804636], [131.0611345, 32.9804254], [131.0610898, 32.9803345], [131.0610649, 32.9802396], [131.0610004, 32.9798228], [131.0609496, 32.9795913], [131.06091, 32.9795135], [131.0608509, 32.9794507], [131.0607506, 32.9793869], [131.0606529, 32.979381], [131.0605558, 32.9793971], [131.0604383, 32.9794523], [131.0602849, 32.97953], [131.0602103, 32.9795616], [131.0601444, 32.9795711], [131.060061, 32.9795635], [131.060019, 32.9795503], [131.0599886, 32.9795325], [131.0599312, 32.9794861], [131.0599093, 32.9794582], [131.0598951, 32.9794291], [131.0598757, 32.9793479], [131.0599722, 32.9781906], [131.0600134, 32.9779329], [131.0600759, 32.9776803], [131.0600922, 32.9775284], [131.0600559, 32.9774489], [131.0599391, 32.9773726], [131.0598202, 32.9773747], [131.0597187, 32.9774308], [131.0596201, 32.9775822], [131.0594881, 32.9777441], [131.0594277, 32.9777682], [131.0593702, 32.9777833], [131.0593094, 32.9777878], [131.0592499, 32.9777735], [131.0591982, 32.9777551], [131.0591611, 32.9777264], [131.0590951, 32.9776579], [131.0589157, 32.9774242], [131.0588335, 32.9773886], [131.0587634, 32.9773702], [131.0586777, 32.9773785], [131.0586154, 32.9773921], [131.0585403, 32.977448], [131.0584907, 32.9774931], [131.0584143, 32.9775852], [131.0583427, 32.9776636], [131.0582634, 32.9777017], [131.0581586, 32.9777141], [131.0580729, 32.9777022], [131.0579849, 32.9776622], [131.0579299, 32.9776298], [131.0578902, 32.9775888], [131.057818, 32.977502], [131.05771, 32.9773357], [131.0576168, 32.9770874], [131.057553, 32.9769983], [131.0574535, 32.9769315], [131.0573704, 32.9769021], [131.0572896, 32.9769009], [131.0571961, 32.9769163], [131.0571074, 32.9769558], [131.0570467, 32.977004], [131.0570077, 32.9770544], [131.0569871, 32.9771106], [131.0569643, 32.9773636], [131.0569486, 32.9774115], [131.0569005, 32.9774753], [131.0568181, 32.9775344], [131.0567245, 32.9775535], [131.0566411, 32.9775543], [131.0565255, 32.9775271], [131.0562846, 32.9774367], [131.0561954, 32.9774047], [131.0561072, 32.9773834], [131.0560004, 32.9773726], [131.0558949, 32.977385], [131.0557912, 32.977424], [131.0556817, 32.9774825], [131.0555493, 32.9775805], [131.0554596, 32.9776275], [131.0553652, 32.9776559], [131.0553078, 32.9776607], [131.0551943, 32.9776475], [131.0551109, 32.977606], [131.0550521, 32.9775633], [131.0550102, 32.9775212], [131.0548099, 32.9771611], [131.0547113, 32.977011], [131.0546768, 32.9769644], [131.0546315, 32.9769187], [131.0545377, 32.9768612], [131.054458, 32.9768408], [131.0543617, 32.9768391], [131.0542618, 32.9768551], [131.0541436, 32.9769097], [131.0540139, 32.9770036], [131.0539134, 32.9770571], [131.0538426, 32.9770808], [131.0537874, 32.9770966], [131.0536655, 32.977107], [131.0535212, 32.9770827], [131.0534091, 32.9770405], [131.0532995, 32.9769723], [131.0530599, 32.9767142], [131.0527026, 32.9762988], [131.0522439, 32.9757655], [131.0521698, 32.97568], [131.0516937, 32.9750625], [131.0514741, 32.9747819], [131.0511516, 32.974394], [131.0508428, 32.974046], [131.0505329, 32.973728], [131.0502466, 32.9734179], [131.0496734, 32.9727462], [131.0492006, 32.9721927], [131.0486895, 32.9715973], [131.0477111, 32.9704807], [131.0479931, 32.9703256], [131.0523025, 32.9680418], [131.0553317, 32.966454], [131.0558669, 32.9661743], [131.0578445, 32.9651407], [131.0586009, 32.9646839], [131.0590395, 32.9643159], [131.0592427, 32.9641454], [131.0595763, 32.9637369], [131.0599635, 32.9631356], [131.0608064, 32.9615306], [131.0610462, 32.9612187], [131.061581, 32.96072], [131.0621951, 32.960318], [131.063662, 32.9595282], [131.064255, 32.9591567], [131.0660322, 32.9581313], [131.067817, 32.9570688], [131.0685573, 32.9564651], [131.069113, 32.955735], [131.0696166, 32.954961], [131.0708534, 32.9530598], [131.071172, 32.9525702], [131.0711858, 32.9525489], [131.0727433, 32.950143], [131.0729883, 32.949731], [131.0739742, 32.9482311], [131.0740734, 32.9480802], [131.0743079, 32.9477233], [131.0748406, 32.9468675], [131.0751778, 32.9463821], [131.0754344, 32.9460127], [131.0758012, 32.945601], [131.076117, 32.9453714], [131.0763676, 32.9451891], [131.0771725, 32.9448242], [131.077821, 32.9445835], [131.0781541, 32.9444539], [131.0784676, 32.9443131], [131.078763, 32.9441462], [131.0791144, 32.9439095], [131.0792485, 32.9437953], [131.0795312, 32.9435103], [131.0798011, 32.9431675], [131.0802382, 32.9425228], [131.0806657, 32.9418567], [131.0808095, 32.9416368], [131.080968, 32.941388], [131.0821069, 32.939647], [131.0825556, 32.9389921], [131.0825982, 32.9389299], [131.0828298, 32.9385919], [131.083459, 32.9377759], [131.0837962, 32.9373431]]]}, "id": "relation/9608067"}, {"type": "Feature", "properties": {"@id": "relation/16023144", "name": "国道212号", "network": "JP:national", "ref": "212", "route": "road", "type": "route"}, "geometry": {"type": "MultiLineString", "coordinates": [[[131.248741, 33.5709273], [131.2487242, 33.5706324], [131.2487125, 33.5703638], [131.2486533, 33.5690014], [131.2485035, 33.5677521], [131.2485095, 33.5683449], [131.2485335, 33.5690141], [131.2485797, 33.5697469], [131.2486306, 33.5707993]], [[131.2485035, 33.5677521], [131.2485069, 33.5674565], [131.248422, 33.568487], [131.248412, 33.568773], [131.2483702, 33.5696009], [131.2483655, 33.5702765], [131.2484153, 33.5711086]], [[131.2485069, 33.5674565], [131.2485555, 33.5667731], [131.2486236, 33.5662387], [131.2487164, 33.5656914], [131.2489419, 33.5644655], [131.2491563, 33.5634019], [131.2492441, 33.5628971], [131.2493039, 33.562499], [131.2493266, 33.562181], [131.2493329, 33.5619182], [131.2493289, 33.5616951], [131.2493168, 33.5614519], [131.2492909, 33.5611879], [131.2492397, 33.5608548], [131.24917, 33.560546], [131.2490938, 33.5602742], [131.2490017, 33.560009], [131.248892, 33.5597608], [131.2487737, 33.5595265], [131.2486446, 33.5592888], [131.2484914, 33.5590367], [131.2483539, 33.5588307], [131.2482266, 33.5586612], [131.2480481, 33.5584448], [131.2476463, 33.5579998], [131.2467842, 33.5571627], [131.2463391, 33.5567428], [131.2461463, 33.5565574], [131.2459432, 33.556343], [131.2457353, 33.5561018], [131.2455585, 33.5558886], [131.2454159, 33.5556937], [131.2452594, 33.555472], [131.2451374, 33.5552896], [131.2450195, 33.5550952], [131.2448621, 33.5548093], [131.2447032, 33.5544801], [131.2445507, 33.5541114], [131.2444451, 33.5538088], [131.2443591, 33.5535213], [131.2443015, 33.5532905], [131.2442537, 33.5530589], [131.2442141, 33.5528247], [131.244164, 33.5524076], [131.2441484, 33.5520441], [131.2441537, 33.5517202], [131.2441762, 33.5513914], [131.2442028, 33.5511408], [131.2442425, 33.5508922], [131.244286, 33.5506545], [131.2443638, 33.5503324], [131.2444533, 33.5500395], [131.2448001, 33.5490985], [131.2449865, 33.5485765], [131.2451371, 33.5480585], [131.2452237, 33.5477304], [131.2452742, 33.5473788], [131.2452949, 33.5469987], [131.2452892, 33.5466796], [131.2452641, 33.5463773], [131.2451963, 33.5459421], [131.2450815, 33.5455077], [131.2449389, 33.5451173], [131.2447678, 33.5447273], [131.2445884, 33.5443662], [131.2443513, 33.5439429], [131.2441, 33.5435327], [131.2438199, 33.5431368], [131.2434933, 33.5427172], [131.243116, 33.542265], [131.2427494, 33.5418737], [131.2415065, 33.5406591], [131.2410868, 33.5402344], [131.2407112, 33.5398285], [131.2403742, 33.5394008], [131.239919, 33.5387463], [131.2397743, 33.5385234], [131.2396767, 33.5383594], [131.2395339, 33.5381111], [131.2394417, 33.5379376], [131.2393523, 33.5377579], [131.2392655, 33.5375838], [131.2391337, 33.5372912], [131.2389935, 33.5369547], [131.2388772, 33.536662], [131.2388155, 33.5364747], [131.2387417, 33.53624], [131.2386671, 33.5359762], [131.2385774, 33.5356176], [131.238523, 33.5353861], [131.2382726, 33.5342508], [131.2381718, 33.5337168], [131.2379303, 33.5325838], [131.2378535, 33.5322217], [131.2377242, 33.5316194], [131.237627, 33.5311513], [131.2375448, 33.5308139], [131.2372673, 33.5296742], [131.2372481, 33.5295918], [131.2368715, 33.5279719], [131.236777, 33.5275032], [131.2367561, 33.5273992], [131.236702, 33.5271309], [131.2365804, 33.5266934], [131.2364412, 33.5262706], [131.2362726, 33.5258415], [131.2360887, 33.5254453], [131.2358973, 33.5250751], [131.2356911, 33.5247243], [131.2353161, 33.5241677], [131.2349159, 33.5236519], [131.2345187, 33.5232127], [131.2340433, 33.5227635], [131.2335805, 33.5223828], [131.2332356, 33.522139], [131.2327438, 33.5218134], [131.2322335, 33.5215242], [131.2319183, 33.5213646], [131.2314028, 33.5211447], [131.2309332, 33.5209627], [131.2305058, 33.5208108], [131.2300859, 33.5206861], [131.2298818, 33.520631], [131.2293635, 33.5205148], [131.2287744, 33.5204098], [131.2281896, 33.5203368], [131.2275186, 33.5202866], [131.2267396, 33.520267], [131.225957, 33.52028], [131.224961, 33.5203202], [131.2174936, 33.5208089], [131.2165778, 33.52084], [131.2159567, 33.5208422], [131.2157415, 33.520842], [131.2155262, 33.5208417], [131.2152093, 33.5208346], [131.2148687, 33.5208186], [131.2144505, 33.5207871], [131.2140705, 33.5207528], [131.2137341, 33.520706], [131.2134073, 33.5206533], [131.2131124, 33.5205906], [131.2127607, 33.5205074], [131.2123106, 33.5203987], [131.2119149, 33.5202826], [131.2115318, 33.5201461], [131.2111357, 33.5200049], [131.2108594, 33.5199001], [131.2103419, 33.5196894], [131.2098884, 33.5194883], [131.2093986, 33.5192454], [131.2089799, 33.5190136], [131.2085448, 33.5187404], [131.2080465, 33.518405], [131.207569, 33.5180784], [131.2064154, 33.517251], [131.2049434, 33.5161805], [131.2035588, 33.5151784], [131.2027757, 33.5146096], [131.2022262, 33.5141811], [131.2017775, 33.5137955], [131.2011194, 33.513188], [131.2003829, 33.5124592], [131.1997952, 33.5118093], [131.1992313, 33.5111077], [131.1984565, 33.5100314], [131.197554, 33.5087377], [131.196668, 33.5074876], [131.1956365, 33.5061125], [131.1945691, 33.5047336], [131.1937336, 33.5036881], [131.1926809, 33.502401], [131.1917643, 33.5013421], [131.1907081, 33.5001412], [131.189803, 33.499165], [131.1890557, 33.4983293], [131.188411, 33.4976439], [131.1882472, 33.4974721], [131.18715, 33.4963796], [131.1863706, 33.4956301], [131.1854778, 33.4948355], [131.1842621, 33.4937805], [131.1832688, 33.4929827], [131.1821239, 33.4920924], [131.1814688, 33.4916037], [131.180551, 33.490959], [131.1792425, 33.490002], [131.1779672, 33.4890846], [131.1776668, 33.4888551], [131.1772315, 33.4885502], [131.1766687, 33.4881245], [131.1761627, 33.4877272], [131.1760058, 33.4876106], [131.1753755, 33.4870923], [131.1752026, 33.4868992], [131.1748333, 33.4864866], [131.173981, 33.4855338], [131.1726831, 33.483419], [131.1720045, 33.4805378], [131.171952, 33.4777871], [131.172088, 33.4754438], [131.1730032, 33.4718463], [131.1739504, 33.4688359], [131.1751616, 33.4660539], [131.1757439, 33.4644137], [131.1765863, 33.4622844], [131.1774231, 33.4606519], [131.1777882, 33.4601126], [131.1782674, 33.4595354], [131.1789386, 33.4589684], [131.1800795, 33.458179], [131.181132, 33.4576198], [131.1821226, 33.4573447], [131.1830557, 33.4569787], [131.183735, 33.4563185], [131.1843892, 33.455348], [131.1849673, 33.4547007], [131.1853227, 33.4539611], [131.1854123, 33.4536202], [131.1854682, 33.4532441], [131.1854837, 33.4528706], [131.1854728, 33.4524565], [131.1854361, 33.4519964], [131.1853821, 33.4514952], [131.1853328, 33.4511802], [131.1852448, 33.4507845], [131.185102, 33.4504022], [131.1849551, 33.450117], [131.1848231, 33.4498773], [131.1846166, 33.449554], [131.1842201, 33.4490843], [131.1838198, 33.4486986], [131.1831066, 33.4480344], [131.1839784, 33.4486519], [131.1843155, 33.4488274], [131.1845626, 33.4489336], [131.1847911, 33.4490013], [131.1850122, 33.4490403], [131.1852306, 33.4490548], [131.1854413, 33.449043], [131.1856596, 33.4490058], [131.1858564, 33.4489417], [131.1860597, 33.4488525], [131.186263, 33.4487544], [131.1864199, 33.448693], [131.1865821, 33.4486584], [131.1866782, 33.4486407], [131.1873406, 33.4486464], [131.1876395, 33.4486513], [131.1879056, 33.4486556]], [[131.1831066, 33.4480344], [131.182714, 33.4476891], [131.1823124, 33.4473072], [131.1819232, 33.4469033], [131.1816139, 33.4465441], [131.1813489, 33.4461989], [131.181074, 33.4458506], [131.1808586, 33.4455454], [131.1806013, 33.4451178], [131.1797504, 33.4436589], [131.1766831, 33.4383941], [131.1764576, 33.4380159], [131.1762515, 33.4377237], [131.1760434, 33.4374585], [131.1758798, 33.4372752], [131.17569, 33.437092], [131.175432, 33.4368793], [131.1752286, 33.4367349], [131.175085, 33.4366465], [131.1749916, 33.436589], [131.1747357, 33.4364591], [131.1744545, 33.4363305], [131.174146, 33.4362066], [131.1738403, 33.4360997], [131.1726963, 33.4357502], [131.1723409, 33.4356366], [131.1720091, 33.4355121], [131.1716624, 33.435368], [131.1712962, 33.4352146], [131.1709977, 33.4350549], [131.1707125, 33.4348858], [131.1710736, 33.4350291], [131.1713364, 33.4351471], [131.1717225, 33.4353152], [131.1720677, 33.4354388], [131.1724024, 33.4355603], [131.1727446, 33.4356691], [131.1738768, 33.4360111], [131.1741996, 33.4361191], [131.1745105, 33.4362432], [131.1747873, 33.4363717], [131.1750634, 33.4365195], [131.1752952, 33.436666], [131.1755067, 33.4368102], [131.175756, 33.4370168], [131.1759541, 33.4372055], [131.1761382, 33.4374081], [131.1763519, 33.4376755], [131.1765547, 33.4379761], [131.1767902, 33.4383615], [131.1798616, 33.4436435], [131.1806994, 33.4450936], [131.1809368, 33.445517], [131.1811323, 33.4458421], [131.1813489, 33.4461989]], [[131.1707125, 33.4348858], [131.1705037, 33.4347761], [131.170189, 33.4345971], [131.1698167, 33.4343465], [131.169511, 33.4341076], [131.1691891, 33.4338043], [131.1685779, 33.4331686], [131.1625161, 33.4264744], [131.1621384, 33.4260944], [131.1617232, 33.4257166], [131.1612821, 33.4253493], [131.1608143, 33.4250222], [131.1603804, 33.4247495], [131.1598634, 33.4244611], [131.1593862, 33.424231], [131.1588876, 33.4240277], [131.1583249, 33.4238316], [131.1577946, 33.4236838], [131.1572644, 33.4235651], [131.1567035, 33.4234639], [131.1561052, 33.4233963], [131.15551, 33.4233631], [131.1548559, 33.4233524], [131.154211, 33.4233695], [131.1535731, 33.423415], [131.1531045, 33.42348], [131.1521377, 33.4236463], [131.1519203, 33.4236877], [131.1501042, 33.4241611], [131.1496074, 33.4242788], [131.1491595, 33.4243728], [131.149043, 33.4243972], [131.1484555, 33.4244989], [131.1478877, 33.4245789], [131.1473718, 33.424636], [131.1469817, 33.4246729], [131.1466199, 33.4247012], [131.1462679, 33.4247249], [131.1457856, 33.4247462], [131.145362, 33.4247568], [131.1451615, 33.4247625], [131.1446711, 33.4247638], [131.1441152, 33.4247648], [131.1421338, 33.4248055], [131.1420187, 33.4248058], [131.141939, 33.424806], [131.1406765, 33.4248578], [131.1390425, 33.4249472], [131.1373266, 33.4250572], [131.1328584, 33.4254242], [131.111406, 33.4271618], [131.1106097, 33.4272341], [131.1099614, 33.4273032], [131.1086209, 33.4275034], [131.1080329, 33.4276047], [131.1076225, 33.4276612], [131.1070619, 33.4276928], [131.1065932, 33.4276831], [131.1061404, 33.4276407], [131.1057401, 33.4275786], [131.1053957, 33.4274992], [131.104987, 33.4273764], [131.1040945, 33.4270393], [131.1037064, 33.4269064], [131.1033021, 33.4267911], [131.1029918, 33.426728], [131.102725, 33.4266889], [131.1023999, 33.4266627], [131.1020743, 33.4266562], [131.1017963, 33.4266666], [131.1015737, 33.4266771], [131.1012074, 33.4267123], [131.1007483, 33.4267453], [131.1004297, 33.4267597], [131.1001223, 33.4267524], [131.0998024, 33.4267276], [131.0995019, 33.4266828], [131.0992868, 33.4266332], [131.0990996, 33.426579]]]}, "id": "relation/16023144"}]}