{"type": "FeatureCollection", "generator": "kokudo-quiz tools/fetch_raw.py (Overpass API)", "copyright": "The data included in this document is from www.openstreetmap.org. The data is made available under ODbL.", "timestamp": "2026-09-30T14:48:56Z", "features": [{"type": "Feature", "properties": {"@id": "relation/6966370", "colour": "red", "from": "大分県別府市", "name": "国道213号", "name:en": "National Highway Route 213", "name:ja": "国道213号", "name:ja-Hira": "こくどうにひゃくじゅうさんごう", "name:ja-Latn": "Kokudo 213 Gou", "network": "JP:national", "ref": "213", "route": "road", "to": "大分県中津市", "type": "route", "wikidata": "Q11421422", "wikipedia": "ja:国道213号"}, "geometry": {"type": "MultiLineString", "coordinates": [[[131.5068171, 33.2768024], [131.5067975, 33.2769574], [131.506771, 33.2773038], [131.5067623, 33.2775671], [131.5067336, 33.2777406], [131.5067019, 33.2778727], [131.5066611, 33.2780085], [131.5066467, 33.2780545], [131.5066256, 33.2781143], [131.5065752, 33.278247], [131.5065263, 33.2783765], [131.5063594, 33.2788004], [131.5063318, 33.2788734], [131.5063151, 33.2789249], [131.506286, 33.2790468], [131.5061764, 33.2795555], [131.5061422, 33.279719], [131.5060573, 33.2800995], [131.5059018, 33.2807377], [131.5057605, 33.2812028], [131.5057305, 33.2813014], [131.5056718, 33.2814929], [131.5056532, 33.2815535], [131.5055151, 33.2820017], [131.5052998, 33.2826226], [131.5051021, 33.2832529], [131.5050918, 33.2832859], [131.5048825, 33.2839064], [131.504753, 33.2843124], [131.5047011, 33.2844828], [131.5046645, 33.2846068], [131.5046194, 33.2847839], [131.5045319, 33.2852261], [131.5045222, 33.2852772], [131.5044222, 33.285849], [131.5043168, 33.2864971], [131.5042904, 33.2866395], [131.504197, 33.2871427], [131.5040981, 33.2876962], [131.5040801, 33.2877969], [131.503971, 33.2884125], [131.5039331, 33.2886545], [131.5038642, 33.2890638], [131.5038601, 33.2890887], [131.5037824, 33.2895173], [131.5037669, 33.2895929], [131.5036689, 33.2899233], [131.5035617, 33.2902833], [131.5034583, 33.2905947], [131.5034348, 33.2906666], [131.5033556, 33.2909217], [131.5031069, 33.2917252], [131.5029167, 33.2923504], [131.5027655, 33.2928473], [131.5027319, 33.2929565], [131.502694, 33.2930755], [131.5026269, 33.2932845], [131.5025741, 33.2934512], [131.5023787, 33.2940921], [131.5023277, 33.294285], [131.5022877, 33.294428], [131.5022637, 33.2945226], [131.5022616, 33.2945382], [131.5022472, 33.2946398], [131.5022372, 33.2947171], [131.5022253, 33.295889], [131.5022235, 33.2959825], [131.5022205, 33.2961365], [131.5021977, 33.2970547], [131.5021948, 33.2971479], [131.502193, 33.2972529], [131.5021874, 33.2975009], [131.5021703, 33.2989025], [131.5021682, 33.2990702], [131.5021672, 33.2991462], [131.5021619, 33.2996542], [131.5021397, 33.3010521], [131.5021378, 33.3011383], [131.5021348, 33.3012685], [131.5021214, 33.3017762], [131.5021129, 33.3025182], [131.5021123, 33.3025698], [131.5021114, 33.3026239], [131.5020878, 33.303994], [131.5020736, 33.305368], [131.5020688, 33.3054714], [131.5020649, 33.3055557], [131.5020603, 33.3056555], [131.5020457, 33.3063178], [131.5020394, 33.3068815], [131.5020368, 33.3071804], [131.5020373, 33.3072003], [131.5020383, 33.307622], [131.502011, 33.3079174], [131.5019949, 33.3080686], [131.5019876, 33.3081106], [131.5019767, 33.3081717], [131.5019661, 33.3082217], [131.5015965, 33.309784], [131.5015816, 33.3098543], [131.5015084, 33.3101441], [131.5013201, 33.3109717], [131.5012101, 33.3114352], [131.5009064, 33.3126789], [131.5008845, 33.3127692], [131.500551, 33.314142], [131.5003771, 33.3148414], [131.5001892, 33.3156262], [131.5000551, 33.3162353], [131.4998592, 33.317057], [131.4997871, 33.3171287], [131.4996511, 33.3177477], [131.4996014, 33.3179785], [131.499579, 33.3181465], [131.4995661, 33.3183582], [131.4995762, 33.318525], [131.499611, 33.3186707], [131.49964, 33.3187951], [131.4997206, 33.3190021], [131.4998884, 33.3192822], [131.5000865, 33.3196286], [131.5002398, 33.3199088], [131.5003362, 33.3202085], [131.5003747, 33.3205103], [131.5003563, 33.320715], [131.5003044, 33.3209598], [131.500187, 33.3212646], [131.4999062, 33.321787], [131.4988761, 33.3235668], [131.4987809, 33.323734], [131.4986035, 33.3240398], [131.4977586, 33.3255492], [131.4976276, 33.325821], [131.4975052, 33.3260883], [131.4973476, 33.326499], [131.497209, 33.3269318], [131.49707, 33.3273361], [131.4969717, 33.3275464], [131.4968655, 33.3277154], [131.4967468, 33.3278706], [131.496657, 33.3279572], [131.496348, 33.328216], [131.4958107, 33.3285746], [131.4956069, 33.3287439], [131.4954446, 33.3289062], [131.495313, 33.3290787], [131.4951112, 33.3294557], [131.4950409, 33.329852], [131.4949993, 33.3313913], [131.4949966, 33.3314923], [131.4949935, 33.3316083], [131.494992, 33.3316614], [131.4949198, 33.3341915], [131.4948287, 33.3347065], [131.4947564, 33.3349349], [131.4945202, 33.3355975], [131.4944964, 33.3356664], [131.4943356, 33.3363126], [131.4942983, 33.3369164], [131.4943006, 33.3380829], [131.4943652, 33.3407279], [131.494401, 33.3421944], [131.4944119, 33.3426396], [131.4944082, 33.3428119], [131.4944296, 33.3435149], [131.494502, 33.3440932], [131.4946612, 33.344557], [131.4948827, 33.345017], [131.4951537, 33.3454144], [131.4954829, 33.3457745], [131.496152, 33.3465361], [131.4966179, 33.3471978], [131.496752, 33.3474244], [131.4969487, 33.3478227], [131.4971439, 33.3483594], [131.4972568, 33.3487665], [131.4973412, 33.3491852], [131.4974555, 33.350609], [131.4975216, 33.351117], [131.4975827, 33.3515872], [131.4976991, 33.3522078], [131.4980324, 33.353576], [131.4980491, 33.3540171], [131.4980097, 33.3543122], [131.4979092, 33.3546405], [131.4978077, 33.3548753], [131.4976398, 33.355267], [131.4975425, 33.3555257], [131.4974617, 33.3557607], [131.4973891, 33.3560525], [131.4973296, 33.3562429], [131.4973197, 33.3563648], [131.4973115, 33.3566212], [131.4973027, 33.3569303], [131.4973191, 33.3572178], [131.4973773, 33.3575861], [131.4974248, 33.3578966], [131.4974836, 33.3582292], [131.4975411, 33.3584952], [131.4976057, 33.3587272], [131.4976634, 33.3589087], [131.4977267, 33.359079], [131.4978048, 33.3592668], [131.4978899, 33.359416], [131.4979698, 33.3595348], [131.4980687, 33.3596909], [131.4981648, 33.3598139], [131.4982451, 33.3599191], [131.4983444, 33.3600303], [131.498539, 33.3602264], [131.4986833, 33.3603549], [131.4988831, 33.3605124], [131.4990342, 33.3606139], [131.4991928, 33.3607067], [131.4993121, 33.3607755], [131.4994315, 33.3608398], [131.4996788, 33.3609632], [131.5000858, 33.3611404], [131.5009495, 33.3614869], [131.5010811, 33.3615394], [131.5016502, 33.3617664], [131.5025865, 33.3621327], [131.5029846, 33.3622881], [131.503879, 33.3626544], [131.5041184, 33.3627468], [131.5047386, 33.3630004], [131.506275, 33.3635881], [131.5074899, 33.3640545], [131.5082787, 33.3643508], [131.5096642, 33.3648799], [131.5114554, 33.3655546], [131.5137487, 33.366405], [131.5152699, 33.3669802], [131.516941, 33.3676183], [131.519443, 33.3685557], [131.5198215, 33.3686901], [131.5201871, 33.3688109], [131.5204272, 33.3688748], [131.5206702, 33.3689223], [131.5209899, 33.3689659], [131.5211942, 33.3689848], [131.5214885, 33.3689939], [131.5227704, 33.3690588], [131.5231623, 33.3691695], [131.5235474, 33.3692701], [131.5242243, 33.3695051], [131.5254147, 33.3699348], [131.5262545, 33.3702405], [131.5274555, 33.3706407], [131.5282077, 33.3709364], [131.5295115, 33.3713858], [131.53032, 33.3716621], [131.5318172, 33.3721574], [131.5329139, 33.3724977], [131.5333934, 33.3726025], [131.5337988, 33.3727051], [131.5339083, 33.3727224], [131.5340399, 33.3727335], [131.5342368, 33.3727339], [131.5343939, 33.3727373], [131.5345555, 33.3727597], [131.5349872, 33.3728423], [131.5354045, 33.3729223], [131.5369507, 33.3732232], [131.5373981, 33.3733103], [131.5388385, 33.3735907], [131.541543, 33.3741171], [131.5427068, 33.3743466], [131.543913, 33.3745849], [131.5443147, 33.3746642], [131.5443752, 33.3746761], [131.5447726, 33.3747546], [131.5458072, 33.3749998], [131.546271, 33.3751545], [131.5465846, 33.3752676], [131.5468441, 33.3753676], [131.5471771, 33.3755102], [131.5474613, 33.3756438], [131.5477135, 33.375763], [131.5479672, 33.3758937], [131.5481874, 33.3760144], [131.5483612, 33.3761172], [131.5488979, 33.3764454], [131.5490044, 33.376509], [131.5497984, 33.3769832], [131.5498711, 33.377029], [131.5501356, 33.3771832], [131.5502269, 33.3772434], [131.5503124, 33.3773049], [131.550398, 33.3773778], [131.5504887, 33.3774535], [131.5505589, 33.3775121], [131.5506052, 33.3775447], [131.5507256, 33.3776172], [131.550837, 33.3776759], [131.5509244, 33.3777204], [131.5512121, 33.377867], [131.5512853, 33.3779074], [131.5514306, 33.377978], [131.5515046, 33.3780061], [131.551568, 33.3780258], [131.5516254, 33.3780403], [131.5516828, 33.3780529], [131.5520024, 33.3781185], [131.5517662, 33.3780439], [131.5516365, 33.3779946], [131.5514929, 33.3779407], [131.5513468, 33.3778693], [131.5512567, 33.3778278], [131.551026, 33.3777056], [131.5509627, 33.3776706], [131.5509407, 33.3776584], [131.5508677, 33.3776126], [131.5507718, 33.377545], [131.5506306, 33.377451], [131.5504468, 33.3773166], [131.5503325, 33.3772287], [131.5502113, 33.3771449], [131.5498639, 33.3769339], [131.5498411, 33.3769198], [131.5494634, 33.3766859]], [[131.5339212, 33.3726337], [131.53423, 33.3726402], [131.534581, 33.3726885], [131.5349435, 33.3727549], [131.5354163, 33.3728414], [131.5358914, 33.3729337], [131.536724, 33.3730955], [131.5369942, 33.373148], [131.537195, 33.3731871], [131.5374144, 33.3732299], [131.5388407, 33.373508], [131.5407622, 33.3738826], [131.5410248, 33.3739338], [131.541548, 33.3740358], [131.5427289, 33.3742751], [131.5434729, 33.3744296], [131.5456664, 33.3748852], [131.5459845, 33.3749738], [131.5461664, 33.3750338], [131.5463803, 33.3751093], [131.546599, 33.3751872], [131.5468413, 33.3752824], [131.547136, 33.3754036], [131.5473861, 33.375517], [131.5476737, 33.3756537], [131.5479443, 33.3757885], [131.5481716, 33.3759107], [131.5484697, 33.3760842], [131.5489178, 33.3763587], [131.549057, 33.3764435], [131.5494634, 33.3766859]], [[131.5339212, 33.3726337], [131.5331942, 33.3724416], [131.5318239, 33.3720796], [131.529557, 33.3713003], [131.5274829, 33.3705758], [131.5254388, 33.369851]], [[131.581162, 33.3909844], [131.5810812, 33.3908975], [131.5808774, 33.3906857], [131.5800531, 33.3898619], [131.5798519, 33.3896096], [131.579244, 33.3888891], [131.5782097, 33.3876559], [131.5779567, 33.3874157], [131.5776731, 33.3871994], [131.5773528, 33.3869933], [131.5768408, 33.3867548], [131.5759845, 33.3864334], [131.575173, 33.3861548], [131.5745999, 33.3859368], [131.5743274, 33.3857566], [131.5741234, 33.3855403], [131.5739058, 33.385179], [131.5735808, 33.3843172], [131.5733482, 33.3839084], [131.572929, 33.383466], [131.5721899, 33.3827308], [131.57201, 33.382559], [131.571614, 33.382092], [131.57119, 33.381523], [131.570923, 33.381128], [131.570654, 33.380734], [131.570418, 33.380384], [131.570143, 33.379984], [131.57001, 33.379832], [131.569633, 33.379511], [131.5695, 33.379415], [131.56913, 33.379185], [131.569083, 33.379167], [131.569002, 33.379117], [131.5685778, 33.3788502], [131.568392, 33.37879], [131.568211, 33.3787], [131.568017, 33.378605], [131.567748, 33.378492], [131.567406, 33.378367], [131.567366, 33.37835], [131.567164, 33.3783], [131.56701, 33.37826], [131.566913, 33.378245], [131.5666111, 33.3781847], [131.5665174, 33.3781689], [131.5664438, 33.3781565], [131.565535, 33.378034], [131.5654144, 33.3780122], [131.5653298, 33.3779969], [131.564903, 33.377933], [131.5639231, 33.3777913], [131.5634823, 33.3777518], [131.5631239, 33.3777551], [131.562399, 33.377798], [131.561888, 33.377827], [131.561646, 33.377843], [131.561438, 33.377867], [131.561096, 33.377888], [131.560962, 33.377912], [131.560272, 33.377973], [131.559379, 33.378068], [131.558815, 33.378108], [131.557779, 33.378119], [131.557614, 33.37812], [131.557386, 33.378137], [131.5565423, 33.378246], [131.5563328, 33.3782876], [131.5561703, 33.3783178], [131.5560001, 33.3783415], [131.5558188, 33.3783642], [131.5556211, 33.3783827], [131.5553908, 33.3783962], [131.5551462, 33.3783995], [131.5549639, 33.3783962], [131.5546921, 33.3783826], [131.5541658, 33.3783377], [131.5538942, 33.3783129], [131.553567, 33.378283], [131.553332, 33.378261], [131.55254, 33.378188], [131.5523688, 33.378166], [131.5523204, 33.3781598], [131.5522049, 33.3781486], [131.5520024, 33.3781185]], [[131.5039912, 33.2890787], [131.5039321, 33.2893901], [131.5039076, 33.2895224], [131.5038851, 33.2896166], [131.5037359, 33.2900954], [131.5035681, 33.2906244], [131.5035436, 33.2906998], [131.5034191, 33.2910933], [131.5032992, 33.2914902], [131.5031125, 33.2921022], [131.5028741, 33.2928713], [131.5028454, 33.2929665], [131.5028036, 33.2931001], [131.5026965, 33.293453], [131.5026862, 33.293487], [131.5025987, 33.2937751], [131.5024405, 33.2942897], [131.502436, 33.2943053], [131.5024043, 33.2944207], [131.5023758, 33.2945301], [131.5023732, 33.2945467], [131.5023646, 33.2945983], [131.5023531, 33.2947229], [131.5023488, 33.2949077], [131.5023472, 33.2958888], [131.5023458, 33.2960159], [131.5023444, 33.2961367], [131.5023247, 33.2970535], [131.5023227, 33.2971476], [131.5023209, 33.2972534], [131.5023005, 33.2984508], [131.502292, 33.298903], [131.5022891, 33.2990557], [131.502287, 33.2991652], [131.5022797, 33.2996535], [131.5022628, 33.3010521], [131.5022614, 33.3011593], [131.5022594, 33.3012712], [131.5022502, 33.3017481], [131.5022366, 33.3024616], [131.5022352, 33.302521], [131.5022344, 33.30257], [131.5022335, 33.3026244], [131.502192, 33.3053683], [131.5021919, 33.3055174]], [[131.5039912, 33.2890787], [131.5040602, 33.2886695], [131.5042098, 33.2878139], [131.5042271, 33.287714], [131.5044115, 33.286652], [131.504421, 33.2865977], [131.5045389, 33.2859192], [131.5046516, 33.2852702], [131.5046904, 33.285031], [131.5047066, 33.2849589], [131.504729, 33.2848587], [131.5047719, 33.2846861], [131.5048503, 33.2844249], [131.5052128, 33.2833333], [131.5052268, 33.2832882], [131.5054288, 33.2826432], [131.5054721, 33.2825125], [131.5055707, 33.2822224], [131.5055941, 33.28215], [131.5056833, 33.2818746], [131.5057746, 33.2815806], [131.5057962, 33.281511], [131.5058366, 33.2813814], [131.505856, 33.2813193], [131.5058851, 33.2812286], [131.5059117, 33.2811455], [131.5060212, 33.2808036]], [[131.5069431, 33.2768133], [131.5069226, 33.2769616], [131.506882, 33.2776444], [131.5068605, 33.2777724], [131.5068247, 33.277918], [131.5067862, 33.2780317], [131.5067657, 33.2780825], [131.5067441, 33.2781361], [131.5065005, 33.2787935], [131.5064708, 33.2788766], [131.5064395, 33.2789755], [131.5064125, 33.2790807], [131.5063745, 33.2792428], [131.5063037, 33.2795715], [131.5062679, 33.2797349], [131.5062412, 33.2798626], [131.5061881, 33.280117], [131.5060212, 33.2808036]], [[131.5021919, 33.3055174], [131.5021785, 33.3056555], [131.502179, 33.3068809], [131.5021717, 33.3071806], [131.5021685, 33.3073215], [131.5021617, 33.3076256], [131.5021325, 33.3079867], [131.5021075, 33.3081233], [131.5020976, 33.3081806], [131.5020847, 33.3082351], [131.5017227, 33.3098011], [131.5017045, 33.3098734], [131.5016556, 33.3100746], [131.5015033, 33.3107352], [131.5014432, 33.310985], [131.5010297, 33.3127082], [131.5010089, 33.3127955], [131.5006917, 33.3141262], [131.5004618, 33.3150128], [131.5002267, 33.3160613], [131.4999775, 33.3170751], [131.4999061, 33.317141], [131.4997187, 33.3179032], [131.499688, 33.3181512], [131.4996847, 33.3183729], [131.4997092, 33.3185158], [131.4997458, 33.318654], [131.4997837, 33.3187687], [131.4998695, 33.3189712], [131.5000082, 33.3192547], [131.5001869, 33.3195625], [131.5003425, 33.3198814], [131.5004356, 33.3201829], [131.5004675, 33.3205136], [131.5004487, 33.3207709], [131.5004032, 33.3209738], [131.5002869, 33.3212856], [131.500011, 33.3218293], [131.4989726, 33.3236063], [131.4988893, 33.3237514], [131.4987134, 33.3240712], [131.4978686, 33.3255765], [131.4976223, 33.326113], [131.4974656, 33.3265281], [131.4973218, 33.326955], [131.497184, 33.327354], [131.4970791, 33.3275847], [131.4969815, 33.3277524], [131.4968568, 33.3279097], [131.4967823, 33.3280017], [131.4966831, 33.3280835], [131.4964955, 33.3282336], [131.4959086, 33.3286418], [131.4956921, 33.3288097], [131.4955318, 33.3289813], [131.4953858, 33.3291827], [131.4952538, 33.3294785], [131.4951526, 33.329848], [131.4951183, 33.3313948], [131.4951161, 33.3314941], [131.4951135, 33.3316129], [131.4951121, 33.3316693], [131.4950483, 33.3341838], [131.4949463, 33.334697], [131.4948703, 33.3349439], [131.4946277, 33.3356572], [131.4944624, 33.3363371], [131.4944101, 33.3369153], [131.4944309, 33.3380787], [131.4944783, 33.3407251], [131.4945045, 33.3421916], [131.4945125, 33.3426396], [131.4945101, 33.3428109], [131.4945306, 33.3434894], [131.4946107, 33.3440849], [131.4947773, 33.3445416], [131.4949979, 33.3449976], [131.4952417, 33.3453614], [131.4955539, 33.3457121], [131.4962521, 33.3465156], [131.4970421, 33.3478002], [131.4972549, 33.3483559], [131.4973678, 33.3487581], [131.4974346, 33.3491681], [131.4975539, 33.3506305], [131.4976722, 33.3515691], [131.4977943, 33.3521705], [131.4981383, 33.3535794], [131.4981465, 33.3540411], [131.4981048, 33.3543395], [131.4980752, 33.3545064], [131.4980236, 33.3546779], [131.4979211, 33.3549431], [131.4977967, 33.3552267], [131.4976067, 33.3557122], [131.4975118, 33.3559975], [131.4974307, 33.3561929], [131.4974176, 33.3563836], [131.4974173, 33.356635], [131.4974179, 33.3566834], [131.4974206, 33.3569221], [131.4974384, 33.3571999], [131.4974886, 33.3575709], [131.4975245, 33.3578373], [131.4975757, 33.3581091], [131.4976181, 33.3583154], [131.4976842, 33.358592], [131.4977531, 33.3588275], [131.4978059, 33.3589816], [131.4978817, 33.3591614], [131.4979665, 33.3593403], [131.498068, 33.3595046], [131.4981636, 33.359654], [131.4982906, 33.3598246], [131.4984583, 33.3600056], [131.4986018, 33.3601369], [131.4987572, 33.3602686], [131.4989479, 33.3604211], [131.4991062, 33.3605395], [131.4992444, 33.360644], [131.4994292, 33.360745], [131.4996006, 33.3608281], [131.4998222, 33.3609301], [131.50009, 33.3610459], [131.501003, 33.361417], [131.5011331, 33.3614677], [131.5022999, 33.3619226], [131.5030894, 33.3622378], [131.5038804, 33.3625646], [131.5046699, 33.3628784], [131.5058691, 33.363346], [131.5062661, 33.3634966], [131.5067955, 33.3636984], [131.5075321, 33.3639794], [131.509712, 33.3647948], [131.5114417, 33.3654558], [131.5127444, 33.3659421], [131.5137861, 33.3663401], [131.5153084, 33.3669094], [131.5169826, 33.3675376], [131.519896, 33.3686286], [131.5201809, 33.3687191], [131.5204251, 33.368781], [131.5206801, 33.36884], [131.5209299, 33.3688738], [131.5211608, 33.3688961], [131.5227649, 33.3689812], [131.5232261, 33.3690923], [131.5235958, 33.3691975], [131.52424, 33.3694259], [131.5253175, 33.369808], [131.5254388, 33.369851]], [[131.581162, 33.3909844], [131.5813752, 33.3911851], [131.5823192, 33.3921493], [131.5832764, 33.3930539], [131.5836384, 33.3933908], [131.5839331, 33.393575], [131.584371, 33.393741], [131.5855468, 33.3940145], [131.5858679, 33.3941629], [131.5872299, 33.3956616], [131.5875042, 33.3959647], [131.5879888, 33.3964076], [131.5882703, 33.3965762], [131.5885686, 33.3967029], [131.590143, 33.3970267], [131.5903907, 33.3970427], [131.5907694, 33.3969577], [131.5922338, 33.3964067], [131.5941385, 33.3953787], [131.5946588, 33.3951857], [131.594951, 33.3951101], [131.5956795, 33.3949608], [131.5961021, 33.3949222], [131.596976, 33.394935], [131.5975345, 33.3950234], [131.5981923, 33.3951968], [131.5997305, 33.3957667], [131.6014681, 33.3964193], [131.602438, 33.396787], [131.6026857, 33.3969581], [131.603361, 33.3979295], [131.6035052, 33.3980764], [131.6038082, 33.3982427], [131.6049131, 33.3985593], [131.6064528, 33.3989629], [131.6076804, 33.3993423], [131.6078939, 33.3994736], [131.6080252, 33.3996337], [131.6081016, 33.3997843], [131.608129, 33.3999842], [131.6081016, 33.4001275], [131.6079153, 33.4005137], [131.6078627, 33.400679], [131.6078841, 33.4009645], [131.6078802, 33.4017152], [131.6078881, 33.4018593], [131.6079571, 33.4021461], [131.608268, 33.4024842], [131.6086426, 33.402624], [131.6092189, 33.4028207], [131.6095718, 33.4030149], [131.6098064, 33.403215], [131.6100757, 33.4034722], [131.6101838, 33.4036291], [131.611218, 33.4058565], [131.6113689, 33.4061094], [131.6115525, 33.4063078], [131.6118137, 33.4064994], [131.6123612, 33.4067927], [131.61331, 33.407234], [131.6158554, 33.4085298], [131.6168491, 33.4090343], [131.617071, 33.4091202], [131.617357, 33.4091553], [131.617911, 33.409152], [131.619326, 33.409187], [131.6198169, 33.4092031], [131.622342, 33.409214], [131.6235343, 33.4092695], [131.6239424, 33.4093139], [131.6243147, 33.4094069], [131.6245928, 33.4094942], [131.6247996, 33.4095718], [131.6249274, 33.4096377], [131.6251027, 33.4097293], [131.6252096, 33.4097961], [131.6253464, 33.4098871], [131.6255115, 33.4099968], [131.6256469, 33.4101177], [131.6258267, 33.4103058], [131.6259581, 33.410448], [131.6260426, 33.4105666], [131.626123, 33.4106752], [131.6264677, 33.4112517], [131.626579, 33.411423], [131.6269068, 33.4120251], [131.628183, 33.414143], [131.6284417, 33.4145723], [131.6285434, 33.4147843], [131.6286349, 33.4149997], [131.6287078, 33.4152148], [131.6287651, 33.4154862], [131.6288157, 33.4158061], [131.6288281, 33.4159908], [131.6288354, 33.4162061], [131.6287906, 33.4165186], [131.6287392, 33.4168083], [131.6286785, 33.4170471], [131.628467, 33.417829], [131.6283775, 33.4180958], [131.6282232, 33.4186501], [131.6281273, 33.4190172], [131.628083, 33.419401], [131.6280903, 33.4196094], [131.6281028, 33.4197859], [131.628138, 33.4199642], [131.6282322, 33.4203234], [131.6283339, 33.4205985], [131.6284219, 33.4207628], [131.6286246, 33.4210879], [131.6287717, 33.4212739], [131.6288503, 33.421369], [131.6289103, 33.421442], [131.629215, 33.421726], [131.629403, 33.4218746], [131.6296259, 33.4220231], [131.6299119, 33.4221881], [131.6302073, 33.4223191], [131.6305685, 33.4224621], [131.6311352, 33.4226943], [131.63187, 33.4229829], [131.6335765, 33.4237014], [131.6341891, 33.4239378], [131.6344789, 33.423997], [131.6346979, 33.4240114], [131.6349028, 33.4240097], [131.6350723, 33.4240017], [131.6352576, 33.4239604], [131.635472, 33.42389], [131.6356326, 33.4238245], [131.6382203, 33.4227696], [131.639443, 33.422274], [131.6398728, 33.4221031], [131.6404137, 33.4219044], [131.6409373, 33.4218069], [131.6411306, 33.421784], [131.6413412, 33.4217744], [131.6415662, 33.4217744], [131.642175, 33.4217997], [131.6424759, 33.4218143], [131.643166, 33.421851], [131.6436924, 33.421887], [131.643946, 33.4219044], [131.6442064, 33.4219094], [131.6443681, 33.4219007], [131.6444718, 33.4218887], [131.6445809, 33.4218697], [131.6447042, 33.4218426], [131.6448605, 33.4218002], [131.6455227, 33.4215959], [131.6456445, 33.4215564], [131.6458753, 33.4214824], [131.6464803, 33.4212909], [131.6466795, 33.4212349], [131.6469182, 33.4211837], [131.6472233, 33.4211392], [131.6475875, 33.4211139], [131.6480346, 33.4210862], [131.6485316, 33.4210489], [131.6489362, 33.4210212], [131.6496142, 33.4209825], [131.6496995, 33.4209766], [131.6498158, 33.4209685], [131.6501245, 33.4209613], [131.650528, 33.4209565], [131.6514591, 33.4209497], [131.6514896, 33.4209495], [131.6518466, 33.4209512], [131.6521944, 33.4209946], [131.6525269, 33.4210755], [131.6528248, 33.4211844], [131.6530645, 33.4213045], [131.6532973, 33.421457], [131.6536713, 33.4217322], [131.6538132, 33.4218363], [131.6539444, 33.4219246], [131.654388, 33.4222421], [131.65453, 33.4223426], [131.6546513, 33.4224204], [131.654948, 33.4226403], [131.6552767, 33.4228798], [131.6555494, 33.423046], [131.6558018, 33.4231435], [131.6559965, 33.4232133], [131.6562648, 33.4232759], [131.6565539, 33.4233277], [131.6570445, 33.4234153], [131.657437, 33.423513], [131.6577305, 33.4236125], [131.6579712, 33.4236942], [131.6581793, 33.4237692], [131.6583547, 33.4238296], [131.6586607, 33.4238883], [131.6588555, 33.4239079], [131.659184, 33.4239096], [131.6594333, 33.4239047], [131.6601053, 33.4239097], [131.6603704, 33.4238836], [131.6605801, 33.4238433], [131.6608431, 33.4237668], [131.6611036, 33.4236736], [131.6616287, 33.423402], [131.6621121, 33.4230001], [131.6627976, 33.4226534], [131.6630941, 33.4225024], [131.6633513, 33.4223384], [131.6635418, 33.4221926], [131.663799, 33.4219617], [131.6641663, 33.4215036], [131.6645927, 33.4211103], [131.6658935, 33.4202448], [131.6661921, 33.4200892], [131.6665153, 33.419996], [131.666836, 33.4199532], [131.6672144, 33.41994], [131.6678584, 33.4198783], [131.6681566, 33.4198523], [131.6686158, 33.4198332], [131.6690515, 33.4197663], [131.6693079, 33.419702], [131.6707147, 33.4192453], [131.6724389, 33.418653], [131.6728112, 33.4185269], [131.6729818, 33.4184492], [131.67316, 33.4183435], [131.6734158, 33.4181525], [131.6737688, 33.4178753], [131.6738914, 33.4177854], [131.6740609, 33.4176939], [131.6742331, 33.4175989], [131.6744429, 33.4175144], [131.6746579, 33.417464], [131.6748415, 33.4174355], [131.6751917, 33.4174196], [131.6753511, 33.4174214], [131.6755029, 33.4174328], [131.6758469, 33.4174993], [131.6770937, 33.4177841], [131.6777855, 33.4179892], [131.6779121, 33.4180316], [131.6786283, 33.4182382], [131.6789022, 33.4183], [131.6795348, 33.4184223], [131.6798132, 33.4185026], [131.6804275, 33.418715], [131.6812135, 33.4189157], [131.6840439, 33.4197237], [131.6865278, 33.4206437], [131.6869931, 33.4208201], [131.6874806, 33.4210021], [131.6884398, 33.4213026], [131.692041, 33.4224299], [131.6930792, 33.4227412], [131.6934591, 33.4227813], [131.6940153, 33.4227225], [131.6957784, 33.4220477], [131.6973582, 33.4214344], [131.6976823, 33.4213502], [131.6980395, 33.4212944], [131.699628, 33.4212878], [131.6999579, 33.4213325], [131.7016114, 33.4217487], [131.7019378, 33.4219106], [131.7019945, 33.4219387], [131.7021112, 33.4220178], [131.7025352, 33.4223847], [131.7031791, 33.4232073], [131.7033275, 33.4234932], [131.7037304, 33.4251833], [131.7039152, 33.4262891], [131.7041521, 33.426946], [131.7043064, 33.4272927], [131.7045718, 33.4278176], [131.7048747, 33.4284424], [131.7050685, 33.4288629], [131.7051205, 33.4289512], [131.7053938, 33.4295156], [131.7056296, 33.4299749], [131.7057541, 33.4302442], [131.7058499, 33.4305069], [131.7058987, 33.4306843], [131.7059407, 33.4308853], [131.7059876, 33.4311912], [131.7060287, 33.431406], [131.7060449, 33.43156], [131.7060904, 33.4318075], [131.7061683, 33.4322718], [131.7062214, 33.4325126], [131.7062905, 33.4327568], [131.7063818, 33.4330441], [131.7065825, 33.4335837], [131.7069268, 33.4344674], [131.7069512, 33.4345342], [131.7072334, 33.435271], [131.7073686, 33.4356223], [131.7074376, 33.4357895], [131.7076321, 33.4362488], [131.7078789, 33.4368668], [131.7080585, 33.4373486], [131.7082013, 33.4376066], [131.7083125, 33.4377879], [131.7084421, 33.4379649], [131.7086583, 33.438228], [131.7088083, 33.4384059], [131.7095428, 33.4391065], [131.709847, 33.43941], [131.709907, 33.439472], [131.7105241, 33.4400909], [131.7106147, 33.4402144], [131.7106433, 33.4402624], [131.7106779, 33.4403208], [131.71076, 33.4404901], [131.7107942, 33.440588], [131.7109473, 33.4410299], [131.7110577, 33.4413692], [131.7111162, 33.4415333], [131.7111824, 33.4417033], [131.7112353, 33.4418096], [131.7113032, 33.4419151], [131.7113887, 33.442023], [131.7114725, 33.4421201], [131.7117248, 33.442369], [131.7119808, 33.4425978], [131.71217, 33.4427755], [131.7124921, 33.443077], [131.7128123, 33.4433848], [131.7130676, 33.4436219], [131.71345, 33.4439712], [131.7138087, 33.4443013], [131.7140761, 33.4445511], [131.7144748, 33.4449553], [131.7148102, 33.4453521], [131.7151348, 33.4457678], [131.7155813, 33.4463197], [131.7159155, 33.4467292], [131.7161834, 33.4470724], [131.716584, 33.4475727], [131.7169201, 33.4479859], [131.7170882, 33.4482023], [131.7172914, 33.4484615], [131.7173897, 33.4485822], [131.7174826, 33.4486702], [131.7175683, 33.448741], [131.7176572, 33.4488077], [131.7178055, 33.4489091], [131.7183338, 33.4493121], [131.7183792, 33.4494766], [131.7184055, 33.4495746], [131.7187038, 33.4496384], [131.7189907, 33.4497557], [131.7193074, 33.4499209], [131.7197987, 33.4502208], [131.7199383, 33.4503115], [131.7202323, 33.4505283], [131.7205227, 33.4507963], [131.7207649, 33.4510407], [131.7208844, 33.4511821], [131.7209591, 33.4512743], [131.7212431, 33.4516553], [131.7213142, 33.4517752], [131.7215632, 33.4522959], [131.7217277, 33.4528053], [131.7218363, 33.4532562], [131.7218391, 33.4530845], [131.7217944, 33.4528239], [131.7217274, 33.452556], [131.7216254, 33.4522327], [131.7214957, 33.4519445], [131.7213935, 33.4517457], [131.7213092, 33.4515805], [131.7210789, 33.4512856], [131.7208604, 33.4510084], [131.7205849, 33.4507316], [131.720292, 33.4504764], [131.7199934, 33.4502561], [131.7198505, 33.4501634], [131.7193557, 33.4498613], [131.7190325, 33.4496928], [131.7187382, 33.4495724], [131.7183792, 33.4494766]], [[131.7218363, 33.4532562], [131.7218144, 33.4536389], [131.7218233, 33.4540757], [131.7218372, 33.4543779], [131.7218653, 33.4547029], [131.7219024, 33.4549883], [131.7219712, 33.455437], [131.7220797, 33.4559095], [131.7222024, 33.4563796], [131.7223733, 33.4569162], [131.7225501, 33.4574812], [131.7227042, 33.457969], [131.7228698, 33.4584365], [131.7231068, 33.4590033], [131.723216, 33.4592241], [131.7234144, 33.4595833], [131.7237076, 33.4600196], [131.7239052, 33.460299], [131.7241805, 33.4606588], [131.7255927, 33.4623991], [131.7259778, 33.4628473], [131.7268234, 33.4638891], [131.7270985, 33.4642264], [131.7272626, 33.4644624], [131.7273935, 33.464696], [131.7274741, 33.4648563], [131.7275575, 33.4650279], [131.7276457, 33.4652629], [131.7276845, 33.4654217], [131.7278105, 33.4662599], [131.7278764, 33.4665354], [131.7279506, 33.466766], [131.7280447, 33.4669886], [131.7281949, 33.467236], [131.7283125, 33.4674099], [131.7285168, 33.4676862], [131.728684, 33.4679104], [131.7288253, 33.4680911], [131.7289102, 33.4682149], [131.729759, 33.4691278], [131.7314827, 33.4709948], [131.7315907, 33.4711172], [131.7316719, 33.4712192], [131.7317573, 33.4713371], [131.731845, 33.4714748], [131.7319024, 33.471606], [131.7319719, 33.4718021], [131.7319948, 33.471911], [131.7320252, 33.4720853], [131.7320235, 33.4722836], [131.7320085, 33.4724665], [131.7319818, 33.4726354], [131.7319425, 33.4727906], [131.7314382, 33.4746667], [131.7311975, 33.4755253], [131.7308031, 33.476966], [131.7307718, 33.4771227], [131.7307256, 33.477326], [131.7306899, 33.4775518], [131.730669, 33.4777201], [131.7306522, 33.4779028], [131.73064, 33.4780909], [131.7306427, 33.4782702], [131.7306481, 33.4784417], [131.7306651, 33.4786378], [131.7306774, 33.4787757], [131.7306993, 33.4789281], [131.730711, 33.4790156], [131.7307486, 33.479223], [131.7307684, 33.4793388], [131.7308177, 33.4796616], [131.7308654, 33.4799338], [131.730886, 33.4801441], [131.7309013, 33.4804097], [131.7308951, 33.4806607], [131.7308651, 33.4809133], [131.7308263, 33.4812631], [131.7304181, 33.4830279], [131.730348, 33.4833261], [131.7302705, 33.4837818], [131.730221, 33.4841347], [131.7301995, 33.4844649], [131.7301968, 33.4846435], [131.7301954, 33.4852251], [131.7302121, 33.4862846], [131.7302264, 33.4867881], [131.7302483, 33.4876641], [131.7302496, 33.4882189], [131.730236, 33.4884918], [131.7302019, 33.488728], [131.7301083, 33.489135], [131.7300227, 33.489405], [131.7298928, 33.4897182], [131.7297529, 33.4899974], [131.729562, 33.4903189], [131.7293413, 33.4906605], [131.7292236, 33.4908707], [131.7291284, 33.4910684], [131.7290706, 33.4912443], [131.7290335, 33.4914379], [131.7290168, 33.4916195], [131.7290293, 33.4918318], [131.7290527, 33.4920959], [131.7291426, 33.4929969], [131.7291445, 33.4931519], [131.729139, 33.493304], [131.7291117, 33.4934656], [131.7290628, 33.493632], [131.7290028, 33.4937851], [131.7288022, 33.4942103], [131.7287388, 33.494343], [131.7278834, 33.4961591], [131.7277207, 33.4965104], [131.7276129, 33.4967575], [131.7275337, 33.4969662], [131.7274386, 33.4972737], [131.727379, 33.4975613], [131.7273331, 33.4979341], [131.7273142, 33.498444], [131.7273145, 33.4985034], [131.7273174, 33.4990796], [131.7273177, 33.4991427], [131.7273183, 33.5001334], [131.7273266, 33.5010205], [131.7273004, 33.501302], [131.7272973, 33.5023706], [131.7272903, 33.503299], [131.7272875, 33.5044575], [131.7272834, 33.5058969], [131.7272845, 33.5070723], [131.7272845, 33.5074253], [131.7272694, 33.5083436], [131.7272941, 33.5091231], [131.7272942, 33.509246], [131.7272703, 33.5109689], [131.7272728, 33.5112733], [131.7272842, 33.5115359], [131.7273172, 33.5117742], [131.7273409, 33.5119169], [131.7273641, 33.5120362], [131.727433, 33.5122867], [131.7275101, 33.5125135], [131.7277513, 33.5131486], [131.7277957, 33.5132639], [131.7283335, 33.5146579], [131.7285789, 33.5152792], [131.7286189, 33.5153886], [131.7288912, 33.5160999], [131.7291753, 33.5168262], [131.7295738, 33.5178595], [131.7297355, 33.5182762], [131.7298354, 33.5185472], [131.7302627, 33.5196253], [131.7306063, 33.5204997], [131.7306547, 33.5206221], [131.7306692, 33.520657], [131.7307043, 33.520741], [131.7308012, 33.5209822], [131.7309098, 33.5212677], [131.7311712, 33.5219348], [131.7314035, 33.5225258], [131.7315021, 33.5228001], [131.7318194, 33.5236488], [131.7319693, 33.5240437], [131.7320084, 33.5241547], [131.7322704, 33.5248736], [131.7325735, 33.5257323], [131.7327739, 33.5262875], [131.7329932, 33.5269113], [131.7330537, 33.5270702], [131.7332506, 33.5276282], [131.7335509, 33.5285525], [131.7336525, 33.528891], [131.73382, 33.5294968], [131.7340447, 33.5303383], [131.7342503, 33.5310953], [131.7344274, 33.5317588], [131.7344711, 33.5319235], [131.7346215, 33.5324706], [131.7346913, 33.5327241], [131.7348179, 33.5330772], [131.7349809, 33.5334539], [131.7352507, 33.5339498], [131.7354997, 33.5343635], [131.7360089, 33.5352571], [131.7362394, 33.5356716], [131.7366954, 33.5364597], [131.7371945, 33.5373343], [131.7375439, 33.537945], [131.7378875, 33.5384764], [131.7381672, 33.5389129], [131.7383342, 33.5391611], [131.7385677, 33.5394338], [131.7387337, 33.5395934], [131.7391161, 33.5398974], [131.7394892, 33.5401576], [131.7396728, 33.5402952], [131.7397737, 33.5403827], [131.7398254, 33.5404355], [131.7398671, 33.5404779], [131.739975, 33.540613], [131.740047, 33.540697], [131.740117, 33.540805], [131.740151, 33.540873], [131.7401944, 33.5409579], [131.7402523, 33.5410877], [131.7402991, 33.5412246], [131.7403252, 33.5413612], [131.7403409, 33.5415413], [131.7403395, 33.5417048], [131.740327, 33.5418376], [131.7403013, 33.5419786], [131.7402427, 33.5421901], [131.7402048, 33.5423499], [131.7401422, 33.5425275], [131.7400356, 33.5429075], [131.7398904, 33.5434038], [131.7397844, 33.5437834], [131.739658, 33.5441676], [131.7395487, 33.5445154], [131.7394352, 33.5448923], [131.7393736, 33.5450745], [131.7392482, 33.5453762], [131.7391277, 33.5456131], [131.7391127, 33.5456427], [131.7390319, 33.5457658], [131.738943, 33.5458936], [131.7388254, 33.5460476], [131.7387052, 33.5461861], [131.7385887, 33.5463092], [131.73833, 33.5465659], [131.7379172, 33.5469652], [131.737607, 33.5472731], [131.737357, 33.5475102], [131.7369292, 33.5479277], [131.7367982, 33.5480572], [131.7366636, 33.5481675], [131.7365984, 33.5482073], [131.7365642, 33.5482282], [131.7364588, 33.5482801], [131.7363764, 33.5483102], [131.7362669, 33.5483404], [131.7361548, 33.5483582], [131.736033, 33.5483681], [131.7358992, 33.548369], [131.735433, 33.5483258], [131.7348053, 33.5482695], [131.7347683, 33.5485292], [131.7347469, 33.5486893], [131.7346068, 33.5497171], [131.7341971, 33.5526481], [131.7341656, 33.5528946], [131.7340967, 33.5534814], [131.7340114, 33.5540626], [131.7337676, 33.5558874], [131.7334906, 33.5578988], [131.7334871, 33.5579401], [131.7332303, 33.5598266], [131.733028, 33.5612019], [131.7325962, 33.5643877], [131.7325587, 33.5644579], [131.7323783, 33.5650599], [131.7320498, 33.5661733], [131.731858, 33.5668073], [131.7317602, 33.5671543], [131.7317229, 33.5673507], [131.7317057, 33.5674651], [131.7317043, 33.5676558], [131.7317149, 33.5678311], [131.7317503, 33.5680633], [131.7318461, 33.5685157], [131.7318601, 33.568568], [131.7318986, 33.5687604], [131.7319699, 33.5690635], [131.7320608, 33.5695226], [131.7321527, 33.5699732], [131.7321699, 33.570097], [131.7321786, 33.5702382], [131.7321795, 33.5703066], [131.7321793, 33.5704772], [131.7321675, 33.570608], [131.7321311, 33.5708403], [131.7320926, 33.570994], [131.7320535, 33.5711216], [131.7319948, 33.5712639], [131.7319378, 33.5713942], [131.7318631, 33.5715314], [131.7317981, 33.5716317], [131.7317247, 33.5717443], [131.7316247, 33.571876], [131.7315133, 33.5719952], [131.7313512, 33.5721641], [131.7311814, 33.5723252], [131.7310993, 33.5723978], [131.7304004, 33.573041], [131.7297733, 33.5736128], [131.729612, 33.5737604], [131.7292472, 33.5740633], [131.7288705, 33.574415], [131.728659, 33.5746084], [131.7281823, 33.5750233], [131.7279918, 33.5751711], [131.7278244, 33.5753567], [131.7277198, 33.5754805], [131.7276529, 33.5755869], [131.7275551, 33.5757256], [131.7274467, 33.5759285], [131.7273369, 33.5761699], [131.7271188, 33.5768177], [131.7269593, 33.5774851], [131.7266697, 33.578177], [131.726607, 33.5783713], [131.7264433, 33.5788658], [131.726321, 33.5793215], [131.726244, 33.579559], [131.7261635, 33.5797938], [131.7261395, 33.5798637], [131.7257534, 33.5810526], [131.7252039, 33.5827418], [131.7251689, 33.5828493], [131.7251555, 33.5828925], [131.7247466, 33.5839814], [131.7246249, 33.5845411], [131.7241868, 33.5856932], [131.7240952, 33.5859691], [131.7238576, 33.5866991], [131.7236469, 33.5873346], [131.7235119, 33.5877363], [131.7230564, 33.5890981], [131.7225964, 33.5905065], [131.7222791, 33.5914722], [131.7220793, 33.5919623], [131.721975, 33.592105], [131.721937, 33.592186], [131.721868, 33.592318], [131.721767, 33.592472], [131.7217362, 33.5925061], [131.7215829, 33.592726], [131.7213993, 33.5929357], [131.7211234, 33.5932061], [131.7207344, 33.5935756], [131.7205064, 33.593799], [131.7201808, 33.5940963], [131.7196479, 33.5945537], [131.7191055, 33.5950752], [131.7184322, 33.5957106], [131.7180363, 33.596051], [131.7177557, 33.5962715], [131.7175883, 33.5963877], [131.7173634, 33.5965327], [131.7170541, 33.5967095], [131.7168123, 33.5968468], [131.716627, 33.5969407], [131.7163623, 33.5971107], [131.7159985, 33.5973073], [131.7156927, 33.597489], [131.715546, 33.5975813], [131.7153777, 33.5976944], [131.7151872, 33.5978423], [131.7150052, 33.5980063], [131.7148533, 33.598151], [131.7146816, 33.5983161], [131.7144542, 33.5985648], [131.7144009, 33.5986111], [131.7140352, 33.5989549], [131.7139951, 33.5989942], [131.7134526, 33.5995161], [131.713069, 33.5998851], [131.7129037, 33.6000416], [131.7127445, 33.6002136], [131.7126445, 33.6003742], [131.7125844, 33.6004721], [131.7125023, 33.6006501], [131.7124285, 33.6009084], [131.7123937, 33.6010636], [131.7123578, 33.6013284], [131.7123237, 33.6016029], [131.7123025, 33.6019644], [131.7122507, 33.602174], [131.7121993, 33.602293], [131.7120968, 33.602462], [131.7119924, 33.6025418], [131.711898, 33.6026177], [131.7117722, 33.602712], [131.711634, 33.602802], [131.711485, 33.602887], [131.7113372, 33.6029684], [131.711119, 33.603071], [131.710951, 33.603133], [131.710767, 33.603189], [131.7106288, 33.6032253], [131.7104873, 33.6032584], [131.7102967, 33.6032884], [131.7100415, 33.6033108], [131.7095361, 33.6033548], [131.7092097, 33.603376], [131.7090304, 33.6034002], [131.7088623, 33.6034358], [131.7086952, 33.6034836], [131.708544, 33.6035421], [131.7084163, 33.6035976], [131.7082549, 33.6036786], [131.7081451, 33.6037376], [131.708059, 33.6037988], [131.7079291, 33.6039078], [131.7077499, 33.6040868], [131.7074561, 33.6043894], [131.7072374, 33.6046296], [131.7070805, 33.6048066], [131.706991, 33.604898], [131.7068785, 33.6049937], [131.7067522, 33.6050828], [131.706629, 33.6051643], [131.7062647, 33.6053816], [131.7059493, 33.6055983], [131.7057028, 33.6058242], [131.705491, 33.6060075], [131.7049994, 33.6064477], [131.7047784, 33.6066345], [131.7042097, 33.6071174], [131.7039534, 33.6073254], [131.7036843, 33.6075434], [131.7032291, 33.6079156], [131.7027425, 33.6083136], [131.702345, 33.608626], [131.70189, 33.609], [131.7014952, 33.6093148], [131.7010703, 33.6096555], [131.7007485, 33.6099277], [131.7005612, 33.6101208], [131.700428, 33.6102961], [131.7003482, 33.6104068], [131.700242, 33.610582], [131.700182, 33.610689], [131.70015, 33.610754], [131.700108, 33.610844], [131.700031, 33.611049], [131.700013, 33.611099], [131.699939, 33.6113331], [131.6998262, 33.611632], [131.6996451, 33.6121799], [131.6993582, 33.6129876], [131.698997, 33.614044], [131.698968, 33.614148], [131.69896, 33.614178], [131.698945, 33.614233], [131.6989285, 33.6143457], [131.6989072, 33.6145087], [131.6989042, 33.6147671], [131.698932, 33.615254], [131.69896, 33.615866], [131.69899, 33.616339], [131.699025, 33.616951], [131.699052, 33.617697], [131.6990752, 33.6180723], [131.6991245, 33.6193244], [131.6991312, 33.6198119], [131.699118, 33.6200211], [131.6990892, 33.620231], [131.6990548, 33.6204542], [131.6990264, 33.6206371], [131.6989871, 33.6208351], [131.6989295, 33.6209958], [131.6988837, 33.6210911], [131.6988127, 33.621183], [131.6987358, 33.621277], [131.6986572, 33.6213528], [131.6985755, 33.6214037], [131.6984832, 33.621458], [131.6984035, 33.621493], [131.6983308, 33.6215245], [131.6982585, 33.6215555], [131.6981283, 33.6216039], [131.6977414, 33.6217237], [131.6975142, 33.6218009], [131.6973485, 33.6218704], [131.6972077, 33.6219579], [131.6970952, 33.6220595], [131.6970294, 33.6221385], [131.6969474, 33.622262], [131.6967641, 33.6226927], [131.6967075, 33.6228777], [131.6965321, 33.623267], [131.6964865, 33.6233958], [131.6964516, 33.6235205], [131.6964316, 33.623626], [131.6964192, 33.6237723], [131.6963986, 33.6239258], [131.6963842, 33.6241892], [131.6963495, 33.624829], [131.6963296, 33.625054], [131.6963293, 33.625127], [131.6963337, 33.6252112], [131.6963518, 33.6253275], [131.696376, 33.6254376], [131.6964114, 33.625547], [131.6968115, 33.6262949], [131.6971697, 33.6269936], [131.6972308, 33.6271512], [131.697274, 33.6273226], [131.6973125, 33.6275328], [131.6973431, 33.6277291], [131.6973584, 33.6279015], [131.6973649, 33.6280083], [131.6973603, 33.6281198], [131.6973444, 33.6282308], [131.6973263, 33.6283472], [131.6972364, 33.6286235], [131.6971011, 33.6290822], [131.6970605, 33.6292199], [131.6970158, 33.6293652], [131.696988, 33.629418], [131.6969063, 33.6295154], [131.696824, 33.6296081], [131.6967481, 33.629699], [131.696655, 33.6298025], [131.6965238, 33.6299136], [131.6964358, 33.6299766], [131.696305, 33.6300566], [131.696102, 33.6301617], [131.6960011, 33.6302037], [131.6956763, 33.6302899], [131.695537, 33.6303456], [131.6954455, 33.630398], [131.6953797, 33.6304623], [131.6953115, 33.6305406], [131.6952561, 33.6306328], [131.6952222, 33.6307112], [131.6952024, 33.6307702], [131.6951694, 33.6308697], [131.695079, 33.6311446], [131.6949888, 33.6313786], [131.6949121, 33.6315212], [131.6948173, 33.6316638], [131.6946807, 33.6318356], [131.6945647, 33.6319594], [131.6945025, 33.63202], [131.6943025, 33.6322247], [131.6941785, 33.6323701], [131.6941167, 33.63246], [131.6940417, 33.6325742], [131.693977, 33.632678], [131.6939036, 33.6327992], [131.6937186, 33.6331995], [131.6936322, 33.6333977], [131.6935939, 33.6335365], [131.693568, 33.6336744], [131.6935559, 33.633787], [131.6935188, 33.6348654], [131.6935134, 33.6351084], [131.6935192, 33.6351886], [131.6935457, 33.6353286], [131.6935923, 33.635454], [131.6938936, 33.6361212], [131.693931, 33.636204], [131.6940521, 33.6364683], [131.6941136, 33.6366249], [131.6941561, 33.6367586], [131.6941828, 33.6368819], [131.694199, 33.6370139], [131.6942013, 33.6371528], [131.6941894, 33.637274], [131.6941604, 33.6374024], [131.6941211, 33.6375184], [131.6940754, 33.6376483], [131.6938716, 33.6381034], [131.6933728, 33.639106], [131.6931321, 33.6396313], [131.6930558, 33.6397905], [131.6929918, 33.6398999], [131.6928889, 33.6400355], [131.6927739, 33.6401425], [131.6926339, 33.6402349], [131.6925319, 33.6402839], [131.6923946, 33.6403403], [131.6922005, 33.6403873], [131.6920273, 33.6404115], [131.6918988, 33.6404182], [131.6917354, 33.6404143], [131.691591, 33.6403923], [131.691365, 33.6403424], [131.690418, 33.6400975], [131.6899487, 33.6399924], [131.6897492, 33.6399495], [131.6895357, 33.6399314], [131.6893916, 33.6399314], [131.6892461, 33.6399501], [131.6891138, 33.639982], [131.6889557, 33.6400426], [131.6881645, 33.6404123], [131.6879944, 33.6404833], [131.6878756, 33.6405235], [131.687746, 33.6405587], [131.687581, 33.6405812], [131.6874685, 33.6405909], [131.6873612, 33.6405907], [131.6872647, 33.6405837], [131.6871555, 33.640566], [131.6870406, 33.6405415], [131.6869123, 33.6405026], [131.6861514, 33.6401522], [131.6856446, 33.6398835], [131.6852982, 33.6397294], [131.6848832, 33.6395738], [131.6846455, 33.6395133], [131.6843298, 33.6394194], [131.6841243, 33.6393454], [131.6838278, 33.6392245], [131.6833172, 33.6389693], [131.6830513, 33.6388026], [131.6825207, 33.638494], [131.6822978, 33.6383669], [131.6821379, 33.6382877], [131.6820288, 33.6382695], [131.6819098, 33.6382669], [131.681808, 33.6382768], [131.681651, 33.6383398], [131.6814565, 33.6384337], [131.6807324, 33.6387348], [131.6803571, 33.638844], [131.6801388, 33.6389283], [131.6800682, 33.6389722], [131.6799761, 33.639036], [131.6798703, 33.6391179], [131.6791562, 33.6398424], [131.678724, 33.6402702], [131.6780302, 33.6410062], [131.677836, 33.6412498], [131.6776956, 33.6414696], [131.6776328, 33.6416388], [131.6774842, 33.6424356], [131.6774218, 33.6427839], [131.6773962, 33.6429261], [131.677353, 33.6431849], [131.6772495, 33.6436942], [131.6772125, 33.6438337], [131.677182, 33.643939], [131.6771287, 33.6440835], [131.6769356, 33.6444279], [131.6768181, 33.6446328], [131.6765482, 33.6451728], [131.6764422, 33.645394], [131.6760644, 33.6460559], [131.6749729, 33.6477846], [131.6749108, 33.6478824], [131.6748617, 33.6479706], [131.6748102, 33.6480671], [131.6746835, 33.6482674], [131.674589, 33.6483854], [131.6745003, 33.6484927], [131.6744369, 33.6485688], [131.6742843, 33.6487294], [131.6741297, 33.6488546], [131.674017, 33.6489337], [131.673903, 33.6489986], [131.6737335, 33.6490902], [131.673217, 33.64928], [131.67319, 33.649291], [131.672407, 33.649587], [131.671763, 33.649819], [131.671595, 33.649889], [131.671491, 33.649942], [131.67143, 33.649977], [131.671352, 33.6500375], [131.6712641, 33.6501216], [131.6712064, 33.6501788], [131.6711637, 33.6502482], [131.6710773, 33.6503909], [131.6710306, 33.6505276], [131.6710079, 33.6506188], [131.670992, 33.650701], [131.670986, 33.650798], [131.670988, 33.650893], [131.670996, 33.650952], [131.671005, 33.65101], [131.67102, 33.651069], [131.67104, 33.651133], [131.671075, 33.651201], [131.6711337, 33.6513135], [131.6712072, 33.6514405], [131.671492, 33.651769], [131.671747, 33.652103], [131.6717783, 33.6521986], [131.6717793, 33.6522515], [131.6717636, 33.6523186], [131.671745, 33.6523661], [131.6717018, 33.6524293], [131.6716373, 33.6524999], [131.6715611, 33.6525568], [131.670923, 33.653128], [131.670548, 33.653413], [131.670428, 33.653497], [131.670087, 33.653651], [131.6676012, 33.654579], [131.6671815, 33.6547642], [131.6668438, 33.6549213], [131.6666626, 33.6549998], [131.666404, 33.6551902], [131.6662131, 33.655393], [131.666132, 33.655469], [131.6659876, 33.6556025], [131.6658148, 33.6557587], [131.6655581, 33.6559731], [131.6653901, 33.6561036], [131.6651528, 33.6562499], [131.6648857, 33.6563793], [131.6648483, 33.6563974], [131.6647513, 33.6564395], [131.6647194, 33.6564533], [131.6646193, 33.6564838], [131.664481, 33.6565214], [131.6643596, 33.6565473], [131.6641978, 33.6565767], [131.664025, 33.656586], [131.663401, 33.656612], [131.6628267, 33.6566319], [131.662562, 33.6566398], [131.6623368, 33.6566421], [131.6621449, 33.6566364], [131.6620005, 33.6566215], [131.6618455, 33.6565948], [131.6616918, 33.6565665], [131.6613986, 33.6565005], [131.6612233, 33.656467], [131.6610823, 33.6564467], [131.6609446, 33.6564409], [131.6608133, 33.6564555], [131.6607126, 33.6564733], [131.6605849, 33.6565041], [131.6604904, 33.6565269], [131.6604157, 33.6565491], [131.6603318, 33.6565841], [131.6602819, 33.6566097], [131.6602259, 33.6566436], [131.6601573, 33.6567057], [131.6600994, 33.656767], [131.6600434, 33.6568621], [131.6588661, 33.6593396], [131.6588361, 33.6594331], [131.6587965, 33.6596078], [131.6587196, 33.65984], [131.658649, 33.6600451], [131.658584, 33.6601957], [131.6585162, 33.6603022], [131.6584443, 33.6603944], [131.6583576, 33.6604723], [131.6582552, 33.6605408], [131.6581322, 33.6606028], [131.6580017, 33.6606472], [131.6578686, 33.6606801], [131.6577431, 33.6607019], [131.6574342, 33.6607191], [131.656978, 33.660726], [131.6565179, 33.6607332], [131.6562697, 33.6607376], [131.6560823, 33.6607311], [131.6559249, 33.6607137], [131.6557908, 33.6606895], [131.6556855, 33.6606655], [131.6555869, 33.6606398], [131.6554689, 33.6605993], [131.655358, 33.6605588], [131.6552059, 33.6604861], [131.6550502, 33.6604007], [131.6544812, 33.6600418], [131.6540771, 33.6597828], [131.6538444, 33.6596262], [131.6536753, 33.6595017], [131.6536061, 33.659436], [131.6535349, 33.6593568], [131.6533354, 33.6590911], [131.6532446, 33.658986], [131.6531809, 33.6589281], [131.6531174, 33.6588763], [131.653049, 33.658831], [131.6529061, 33.6587612], [131.6527613, 33.658716], [131.6526251, 33.6586655], [131.6524994, 33.6586214], [131.6523866, 33.6585711], [131.6522872, 33.6584987], [131.6521894, 33.658424], [131.6520997, 33.6583245], [131.6519039, 33.6580807], [131.6518122, 33.6579832], [131.6517184, 33.6578996], [131.6516058, 33.6578114], [131.6515283, 33.657767], [131.6514638, 33.6577344], [131.6514108, 33.657708], [131.651308, 33.6576678], [131.6511755, 33.6576303], [131.6510409, 33.6575964], [131.6508836, 33.6575689], [131.6507526, 33.6575541], [131.650518, 33.65753], [131.6501832, 33.6574967], [131.6498819, 33.6574568], [131.649608, 33.6574353], [131.6488451, 33.6573519], [131.6486335, 33.6573322], [131.6485018, 33.6573253], [131.6483763, 33.6573303], [131.6483148, 33.6573412], [131.6482431, 33.6573643], [131.6481465, 33.6574013], [131.6479786, 33.6574746], [131.6469084, 33.6579236], [131.6464301, 33.6581746], [131.6462036, 33.6582995], [131.6460383, 33.658371], [131.6459091, 33.6584231], [131.6456506, 33.6584979], [131.6455384, 33.658521], [131.6453697, 33.6585414], [131.6452457, 33.6585522], [131.6450779, 33.6585671], [131.644787, 33.6585872], [131.6446688, 33.6585971], [131.6445524, 33.6586], [131.6444246, 33.6585991], [131.644295, 33.6585912], [131.6441696, 33.6585762], [131.6440509, 33.6585502], [131.6439249, 33.6585142], [131.6438012, 33.6584753], [131.6436965, 33.6584304], [131.643525, 33.658333], [131.6434002, 33.6582475], [131.6431912, 33.6580698], [131.6424219, 33.6574423], [131.6422071, 33.6572785], [131.6420807, 33.6571924], [131.6419682, 33.6571258], [131.641264, 33.656809], [131.641184, 33.656765], [131.641124, 33.6567321], [131.6410568, 33.6566913], [131.640926, 33.6565933], [131.6407697, 33.6564575], [131.640322, 33.656011], [131.6402339, 33.65593], [131.6401395, 33.6558566], [131.6400325, 33.6557872], [131.6399506, 33.6557412], [131.639864, 33.6557021], [131.6397711, 33.6556683], [131.6396747, 33.6556429], [131.6395373, 33.6556242], [131.6393981, 33.6556158], [131.6393098, 33.6556191], [131.6392106, 33.6556224], [131.6391189, 33.6556285], [131.6390176, 33.6556377], [131.63889, 33.6556511], [131.6387322, 33.6556598], [131.6381873, 33.6556885], [131.6374518, 33.6557154], [131.6370607, 33.6557299], [131.636178, 33.655886], [131.635543, 33.656035], [131.6322322, 33.6567777], [131.6319261, 33.6568645], [131.6317441, 33.6569233], [131.6314808, 33.6570437], [131.6312342, 33.6571999], [131.630972, 33.6574067], [131.6308488, 33.65751], [131.6307417, 33.6576335], [131.6306734, 33.6577172], [131.630586, 33.657886], [131.630553, 33.657962], [131.630547, 33.657996], [131.630542, 33.658023], [131.630534, 33.658083], [131.6305265, 33.658147], [131.6305306, 33.6583785], [131.6305464, 33.658548], [131.6305643, 33.6586989], [131.630658, 33.6590194], [131.6307345, 33.6592372], [131.6307636, 33.6593518], [131.6307901, 33.6594721], [131.6307947, 33.6595041], [131.6308029, 33.6596224], [131.630793, 33.6597298], [131.6307664, 33.6598706], [131.6307337, 33.6599839], [131.6306876, 33.6601117], [131.6306363, 33.6602121], [131.6305707, 33.6603244], [131.6304437, 33.6605095], [131.6303476, 33.6606496], [131.6303108, 33.6607354], [131.6302582, 33.6608592], [131.6302153, 33.6609986], [131.6301883, 33.6611444], [131.630166, 33.6616778], [131.6301388, 33.6621], [131.6301133, 33.662279], [131.6300752, 33.6623976], [131.630041, 33.6624695], [131.6300083, 33.6625309], [131.6299448, 33.6626174], [131.629849, 33.6627253], [131.6297687, 33.6627964], [131.6296731, 33.662868], [131.629533, 33.6629483], [131.6292796, 33.6630926], [131.628781, 33.6633822], [131.6286581, 33.6634535], [131.6285211, 33.6635331], [131.6277961, 33.6639426], [131.627114, 33.6643273], [131.6267674, 33.6645274], [131.6266763, 33.6645862], [131.6265411, 33.6646801], [131.6264701, 33.6647461], [131.6263248, 33.6649041], [131.6262588, 33.664981], [131.626163, 33.6651239], [131.6260987, 33.6652421], [131.6260607, 33.6653424], [131.626031, 33.6654606], [131.625924, 33.665995], [131.6257761, 33.6666785], [131.6256016, 33.6674677], [131.6254885, 33.6679798], [131.6254285, 33.6682411], [131.6253764, 33.6684045], [131.6253314, 33.6685062], [131.6251085, 33.6689281], [131.624918, 33.6692802], [131.6247166, 33.6696313], [131.6246316, 33.6697838], [131.6245681, 33.6698906], [131.6244668, 33.6700149], [131.6243908, 33.6701], [131.6242688, 33.670209], [131.6242245, 33.6702431], [131.6241093, 33.670324], [131.6239856, 33.670398], [131.6238106, 33.670479], [131.6236912, 33.670517], [131.622567, 33.67074], [131.6200954, 33.6711423], [131.6198431, 33.6712072], [131.6195971, 33.6712763], [131.6193628, 33.6713543], [131.6191853, 33.6714367], [131.6191349, 33.6714623], [131.6190416, 33.6715144], [131.6189335, 33.6715873], [131.6187651, 33.6717158], [131.6186748, 33.6717958], [131.6185053, 33.6719727], [131.6183586, 33.6721989], [131.6181102, 33.6727075], [131.6180333, 33.6728548], [131.6179766, 33.6729385], [131.6178895, 33.6730367], [131.6178078, 33.6731106], [131.6177076, 33.6731739], [131.6175784, 33.6732359], [131.617421, 33.6732914], [131.6172295, 33.6733502], [131.6169508, 33.6734384], [131.6167455, 33.6735235], [131.6165351, 33.6736374], [131.6162984, 33.6738024], [131.6160088, 33.6740822], [131.6157209, 33.6744264], [131.6155875, 33.6745682], [131.6154985, 33.6746629], [131.6153626, 33.6747752], [131.6152408, 33.6748563], [131.6151034, 33.6749301], [131.614959, 33.675001], [131.6147833, 33.6750705], [131.614611, 33.6751227], [131.6144273, 33.6751707], [131.6139794, 33.6752354], [131.6135919, 33.6752696], [131.6132197, 33.6752768], [131.6124261, 33.6752742], [131.6121109, 33.6752576], [131.6120225, 33.6752565], [131.6113177, 33.6752346], [131.6110391, 33.675225], [131.6108512, 33.6752219], [131.610679, 33.6752318], [131.6105163, 33.6752533], [131.6103154, 33.6753085], [131.6100633, 33.6753888], [131.6098863, 33.6754547], [131.609669, 33.6755685], [131.6092546, 33.6758364], [131.6079967, 33.676708], [131.6078143, 33.6768564], [131.6076587, 33.6770116], [131.6075903, 33.6770852], [131.6075233, 33.6771712], [131.6074616, 33.6772493], [131.6073959, 33.6773609], [131.6073228, 33.6775032], [131.6072842, 33.6775894], [131.6072506, 33.6776788], [131.6072001, 33.6778553], [131.6071303, 33.6783653], [131.6070807, 33.6787302], [131.6070659, 33.6789311], [131.6070313, 33.6790716], [131.6069931, 33.6791669], [131.6069377, 33.6792527], [131.6068647, 33.6793367], [131.606775, 33.6794114], [131.6066693, 33.6794821], [131.6065282, 33.679565], [131.6061795, 33.6797023], [131.6058978, 33.6797715], [131.6057718, 33.6798295], [131.6055518, 33.6799009], [131.60491, 33.6800903], [131.6046615, 33.6801834], [131.6042563, 33.6803609], [131.6035982, 33.6807355], [131.6013674, 33.6822358], [131.6011362, 33.6824269], [131.6009737, 33.6825199], [131.6007992, 33.6825979], [131.6004682, 33.6827192], [131.5996867, 33.6829734], [131.599519, 33.6830088], [131.599345, 33.6830173], [131.5991165, 33.6830056], [131.5989507, 33.6829789], [131.598832, 33.6829521], [131.5986936, 33.6829069], [131.5985432, 33.6828499], [131.5983804, 33.6827671], [131.5982063, 33.6826372], [131.5974971, 33.681932], [131.5973163, 33.6817601], [131.5954597, 33.6804687], [131.5943259, 33.6797055], [131.5938904, 33.6793728], [131.5937092, 33.6791821], [131.5935502, 33.6789632], [131.5932064, 33.678531], [131.5926931, 33.6779009], [131.5922393, 33.6773503], [131.591561, 33.6765625], [131.5909008, 33.6758141], [131.5905955, 33.6754641], [131.5902183, 33.6750339], [131.5900281, 33.6748172], [131.5897973, 33.6745881], [131.5896584, 33.6744635], [131.5895354, 33.6743673], [131.5894728, 33.6743184], [131.5889316, 33.6740158], [131.5885776, 33.6738849], [131.588174, 33.6737472], [131.5879409, 33.673657], [131.5878532, 33.6736327], [131.5821979, 33.6717539], [131.5817583, 33.6716284], [131.5816287, 33.6716035], [131.5814836, 33.6715817], [131.5812695, 33.6715927], [131.5809818, 33.6716086], [131.580531, 33.67166], [131.5789092, 33.6719006], [131.5786631, 33.6719375], [131.578255, 33.6719778], [131.5777594, 33.6720422], [131.5773244, 33.6720819], [131.5768098, 33.6721239], [131.5763398, 33.6721389], [131.5757907, 33.6721442], [131.5755863, 33.6721401], [131.5750408, 33.6721388], [131.5712776, 33.6721152], [131.5699842, 33.6721071], [131.5692962, 33.6721028], [131.5688903, 33.6721003], [131.5649881, 33.6720758], [131.5643761, 33.6720768], [131.5639227, 33.6720737], [131.5637887, 33.6720697], [131.5636646, 33.6720605], [131.5635223, 33.6720419], [131.5633773, 33.6720172], [131.5632379, 33.6719836], [131.5631268, 33.6719463], [131.5630117, 33.671901], [131.5628915, 33.6718469], [131.5627735, 33.6717903], [131.5626638, 33.6717349], [131.5625555, 33.6716669], [131.5624446, 33.6715841], [131.5623373, 33.6714918], [131.562242, 33.6714037], [131.5621498, 33.6713003], [131.5620751, 33.6712086], [131.5613348, 33.6701511], [131.5611496, 33.6698829], [131.5609522, 33.6696239], [131.5606817, 33.6692801], [131.5599553, 33.6682899], [131.5589806, 33.6669139], [131.5586623, 33.6664621], [131.5580474, 33.6655902], [131.5574483, 33.6647409], [131.5573418, 33.6645888], [131.5565282, 33.6634388], [131.5561962, 33.6629616], [131.5558715, 33.6625021], [131.5557889, 33.6623838], [131.5556943, 33.6622601], [131.5556027, 33.6621607], [131.5554918, 33.6620604], [131.555381, 33.6619696], [131.5552892, 33.6619087], [131.5551937, 33.661852], [131.5550782, 33.6617873], [131.5549404, 33.6617216], [131.5547864, 33.6616628], [131.5546134, 33.6616071], [131.55258, 33.661072], [131.55138, 33.660812], [131.550861, 33.660722], [131.550017, 33.660605], [131.5466848, 33.6600955], [131.5461911, 33.6600586], [131.545588, 33.6600309], [131.5450302, 33.660022], [131.5444221, 33.6600395], [131.5439437, 33.660111], [131.5436859, 33.6601783], [131.5434258, 33.6602504], [131.5432302, 33.6603127], [131.5430035, 33.6603894], [131.5427138, 33.6604987], [131.5397463, 33.6617368], [131.5385638, 33.6622269], [131.5382555, 33.6623526], [131.5377785, 33.6625536], [131.53759, 33.6626597], [131.5373134, 33.662831], [131.5369643, 33.6630609], [131.5367728, 33.6631939], [131.5366176, 33.6633057], [131.5354593, 33.6641714], [131.5351071, 33.6644514], [131.5339037, 33.6653522], [131.5329247, 33.6660798], [131.532523, 33.666375], [131.5318297, 33.6669139], [131.5309679, 33.6675671], [131.5309459, 33.6675838], [131.5308288, 33.667668], [131.5308156, 33.667678], [131.5299783, 33.6683097], [131.5298534, 33.6683908], [131.5297393, 33.6684582], [131.5296077, 33.6685331], [131.5294698, 33.6686008], [131.5293328, 33.6686541], [131.5291827, 33.6687012], [131.5290452, 33.6687413], [131.5289018, 33.6687779], [131.5287603, 33.6688033], [131.5286073, 33.6688251], [131.5284657, 33.6688389], [131.5283079, 33.6688497], [131.5278948, 33.6688498], [131.527311, 33.6688448], [131.5268753, 33.6688334], [131.5267034, 33.6688303], [131.5265508, 33.6688238], [131.5264006, 33.6688109], [131.5263098, 33.6688014], [131.5261603, 33.6687837], [131.5261269, 33.6687788], [131.5259903, 33.6687523], [131.52588, 33.6687267], [131.5257326, 33.6686868], [131.5256047, 33.6686451], [131.5254742, 33.6685985], [131.5253277, 33.6685399], [131.5248394, 33.6683108], [131.5245312, 33.6681566], [131.5242813, 33.6680355], [131.5233334, 33.6675654], [131.5218817, 33.6668356], [131.5209032, 33.6663733], [131.5200546, 33.6659553], [131.519858, 33.6658564], [131.5197951, 33.6658254], [131.5188849, 33.665378], [131.5163692, 33.6641427], [131.5160261, 33.6639691], [131.5152717, 33.6636375], [131.5145574, 33.6633524], [131.5143827, 33.6633094], [131.5141754, 33.6632766], [131.5138827, 33.6632539], [131.5136426, 33.6632575], [131.5134335, 33.6632627], [131.5132663, 33.6632727], [131.5131064, 33.6632918], [131.5129537, 33.6633163], [131.5127924, 33.6633489], [131.5126634, 33.6633821], [131.5124447, 33.6634482], [131.512218, 33.6635268], [131.5105503, 33.6641877], [131.5104103, 33.6642405], [131.5102628, 33.6642885], [131.5100948, 33.6643368], [131.5099284, 33.6643763], [131.5097445, 33.6644104], [131.5095457, 33.6644382], [131.5093235, 33.6644525], [131.5091432, 33.6644547], [131.5089939, 33.6644506], [131.508829, 33.6644371], [131.508668, 33.6644175], [131.5085077, 33.664389], [131.5083393, 33.6643514], [131.5081952, 33.6643101], [131.5080511, 33.6642644], [131.5078974, 33.664209], [131.5077715, 33.6641528], [131.5076463, 33.664088], [131.5074822, 33.6640008], [131.5073517, 33.6639199], [131.507226, 33.6638324], [131.5070874, 33.6637318], [131.5070584, 33.6637068], [131.5068119, 33.6634756], [131.5066968, 33.6633401], [131.5065705, 33.6631666], [131.5064569, 33.6629769], [131.5063535, 33.6627654], [131.5062278, 33.6624532], [131.5060712, 33.662074], [131.5059413, 33.6617525], [131.5057018, 33.6611753], [131.5055395, 33.6607799], [131.505482, 33.6606399], [131.5054411, 33.6605403], [131.5048531, 33.6591146], [131.5048281, 33.6590325], [131.5048122, 33.6589676], [131.5048033, 33.6588963], [131.5048092, 33.6588321], [131.504829, 33.6587714], [131.5048552, 33.658716], [131.5048917, 33.6586619], [131.5049358, 33.6586096], [131.5049826, 33.6585574], [131.5050428, 33.6585032], [131.5051126, 33.6584536], [131.5053125, 33.6583392], [131.5056516, 33.6581425], [131.5059391, 33.657968], [131.5062471, 33.6577537], [131.5078963, 33.6564373], [131.5079758, 33.65637], [131.5080406, 33.6563108], [131.5081007, 33.6562415], [131.5081498, 33.6561628], [131.5081815, 33.6560815], [131.5082032, 33.6560003], [131.5082166, 33.6559213], [131.508218, 33.6558655], [131.508209, 33.6557888], [131.5081881, 33.6557101], [131.5080902, 33.6554757], [131.5080665, 33.6554191], [131.5077966, 33.6548079], [131.507745, 33.6547108], [131.507695, 33.6546259], [131.5076092, 33.6545297], [131.5075212, 33.6544466], [131.5074163, 33.6543525], [131.5069306, 33.6540041], [131.5069095, 33.6539901], [131.5067876, 33.6539262], [131.506708, 33.6539015], [131.5066395, 33.6538867], [131.5065578, 33.6538805], [131.5064598, 33.6538802], [131.5063498, 33.6538945], [131.5062271, 33.6539348], [131.5061301, 33.6539837], [131.5060358, 33.6540392], [131.5054387, 33.6544566], [131.5053491, 33.6545142], [131.5052388, 33.6545742], [131.5051153, 33.6546367], [131.5049825, 33.6546922], [131.504834, 33.6547435], [131.5046674, 33.6547928], [131.5045053, 33.6548354], [131.5043415, 33.6548752], [131.5041841, 33.654908], [131.504043, 33.6549315], [131.5039247, 33.6549445], [131.5038155, 33.6549501], [131.5036686, 33.6549539], [131.5035252, 33.654951], [131.5033984, 33.6549443], [131.5032853, 33.6549348], [131.5030941, 33.6549078], [131.5029318, 33.6548725], [131.5027276, 33.6548174], [131.502544, 33.6547491], [131.5023816, 33.6546789], [131.5022316, 33.6546055], [131.5020784, 33.6545122], [131.5019091, 33.6543917], [131.5017277, 33.6542454], [131.5016005, 33.6541153], [131.5014536, 33.6539445], [131.5013394, 33.6537682], [131.501251, 33.6536065], [131.5011637, 33.6534169], [131.5010214, 33.6530766], [131.5009299, 33.652861], [131.5007231, 33.652339], [131.5000145, 33.6506024], [131.4996739, 33.6497567], [131.4996524, 33.6496871], [131.4996408, 33.6496207], [131.4996333, 33.649553], [131.4996338, 33.6494908], [131.4996524, 33.6494162], [131.4996835, 33.6493406], [131.4997171, 33.6492771], [131.4998683, 33.6490573], [131.4999016, 33.648998], [131.4999398, 33.6489172], [131.4999585, 33.6488506], [131.4999723, 33.6487813], [131.4999778, 33.6487082], [131.4999789, 33.6486362], [131.4999749, 33.6485622], [131.4999691, 33.6484843], [131.4999599, 33.6484199], [131.4999482, 33.6483695], [131.4999348, 33.6483286], [131.4999291, 33.6483135], [131.4999137, 33.6482745], [131.4999034, 33.6482518], [131.4998164, 33.6481043], [131.4994445, 33.6475364], [131.4985226, 33.6460925], [131.4984316, 33.6459836], [131.4983069, 33.6458673], [131.4981127, 33.6457052], [131.4980181, 33.6456365], [131.4979137, 33.6455692], [131.4970505, 33.6450084], [131.4964711, 33.6446371], [131.4961875, 33.6444475], [131.4958272, 33.6442031], [131.4958021, 33.644186], [131.4957355, 33.6441431], [131.4953195, 33.643862], [131.4951544, 33.6437599], [131.4949451, 33.6436578], [131.4947337, 33.6435646], [131.4945913, 33.6435085], [131.4944698, 33.643483], [131.4943577, 33.6434705], [131.4942613, 33.6434746], [131.4941668, 33.6434955], [131.4940595, 33.6435317], [131.4939573, 33.6435777], [131.4933425, 33.6439143], [131.4931776, 33.644028], [131.4930335, 33.644149], [131.4927092, 33.6444508], [131.4925244, 33.6445971], [131.4923516, 33.6447138], [131.4920334, 33.64492], [131.4908991, 33.6455483], [131.4907366, 33.6456219], [131.4906058, 33.6456628], [131.4904879, 33.6456936], [131.4903557, 33.6457205], [131.4902308, 33.645732], [131.4901021, 33.6457407], [131.4899674, 33.6457391], [131.4898672, 33.6457318], [131.4897358, 33.6457127], [131.4896042, 33.6456897], [131.4887454, 33.6454932], [131.4877072, 33.6452498], [131.4867928, 33.6450338], [131.4867212, 33.6450134], [131.4866471, 33.6449855], [131.4865885, 33.644953], [131.4865364, 33.6449182], [131.4864909, 33.6448799], [131.4864368, 33.6448169], [131.4863974, 33.644754], [131.486362, 33.6446826], [131.4863438, 33.6446036], [131.4863378, 33.6445319], [131.4863436, 33.6444533], [131.4863631, 33.6443766], [131.4866759, 33.6434901], [131.4866949, 33.6434344], [131.4867061, 33.6433792], [131.4867083, 33.643311], [131.4867074, 33.643241], [131.4867026, 33.6431811], [131.4866909, 33.6431263], [131.4866694, 33.6430581], [131.4866441, 33.6430026], [131.4865862, 33.6429046], [131.48654, 33.6428488], [131.4864919, 33.642798], [131.4864353, 33.6427424], [131.4863636, 33.6426759], [131.486313, 33.6426324], [131.4862488, 33.6425842], [131.486181, 33.6425445], [131.4861149, 33.642513], [131.4860481, 33.6424861], [131.4859834, 33.6424665], [131.4859054, 33.6424515], [131.4858362, 33.6424429], [131.4857546, 33.6424416], [131.4856748, 33.6424471], [131.4855933, 33.6424595], [131.4855089, 33.6424829], [131.4854249, 33.6425146], [131.4853297, 33.6425634], [131.4846513, 33.6429647], [131.4845519, 33.6430131], [131.4844467, 33.6430531], [131.484336, 33.6430817], [131.4842272, 33.6431015], [131.484091, 33.6431146], [131.48399, 33.6431172], [131.4838827, 33.6431127], [131.4837628, 33.6430948], [131.4836571, 33.6430631], [131.4835388, 33.6430139], [131.4834186, 33.6429508], [131.4812198, 33.6417966], [131.4811183, 33.6417364], [131.4810397, 33.6416801], [131.4809718, 33.6416239], [131.4809033, 33.6415571], [131.4808364, 33.6414781], [131.4807894, 33.6414109], [131.4807431, 33.6413293], [131.4807091, 33.6412473], [131.4806867, 33.6411594], [131.480674, 33.6410736], [131.4806705, 33.6409089], [131.4806823, 33.6408141], [131.4807048, 33.6407166], [131.4808052, 33.6404467], [131.4808949, 33.6402057], [131.4809323, 33.6401126], [131.4809774, 33.6400375], [131.481025, 33.6399751], [131.4810809, 33.6399095], [131.4811474, 33.6398428], [131.4812181, 33.6397861], [131.4813176, 33.6397189], [131.4814521, 33.6396476], [131.4815642, 33.6395958], [131.4817322, 33.6395359], [131.4818743, 33.6394967], [131.4819951, 33.6394701], [131.4821343, 33.6394501], [131.4822351, 33.6394329], [131.4823277, 33.6394067], [131.4824289, 33.6393708], [131.4845203, 33.6383784], [131.4846068, 33.6383291], [131.4847009, 33.6382669], [131.4847794, 33.6382001], [131.4848549, 33.638129], [131.4849055, 33.6380663], [131.4849438, 33.6380071], [131.4849769, 33.6379462], [131.4850053, 33.6378866], [131.4850325, 33.6378257], [131.485057, 33.6377477], [131.4850729, 33.6376625], [131.485079, 33.6375887], [131.4850778, 33.6375177], [131.4850692, 33.6374533], [131.4850513, 33.6373741], [131.4850308, 33.6373063], [131.4850016, 33.6372305], [131.4847744, 33.6367324], [131.4846793, 33.6365268], [131.4846697, 33.6365063], [131.4841766, 33.6354526], [131.4839715, 33.6350168], [131.4838809, 33.6348521], [131.4836466, 33.6344964], [131.4830412, 33.6336934], [131.4830162, 33.6336602], [131.482872, 33.6334615], [131.4825966, 33.6331112], [131.4824838, 33.6329808], [131.4824035, 33.6329016], [131.4823091, 33.6328258], [131.4821909, 33.632745], [131.4820816, 33.6326757], [131.4819603, 33.6326053], [131.4818311, 33.6325407], [131.4816608, 33.6324642], [131.4815004, 33.6323947], [131.4813442, 33.6323353], [131.4811704, 33.632276], [131.4809788, 33.6322222], [131.4808178, 33.6321827], [131.4806823, 33.6321534], [131.480168, 33.6320706], [131.4799339, 33.6320357], [131.4796969, 33.6320094], [131.4794424, 33.6319902], [131.4786721, 33.631969], [131.4785148, 33.631965], [131.4783668, 33.6319526], [131.4782543, 33.6319368], [131.478128, 33.6319144], [131.4780202, 33.6318851], [131.4779248, 33.6318533], [131.477829, 33.6318137], [131.4777452, 33.6317748], [131.4776515, 33.6317256], [131.47755, 33.631664], [131.4774107, 33.6315537], [131.4763261, 33.6307008], [131.4762183, 33.6306186], [131.4761297, 33.6305399], [131.4760591, 33.6304692], [131.4759853, 33.6303847], [131.475911, 33.6302936], [131.4758497, 33.6302004], [131.4757934, 33.6301077], [131.4757445, 33.6300105], [131.4756972, 33.62991], [131.4756614, 33.629803], [131.4756301, 33.6296871], [131.4756006, 33.6295414], [131.4754791, 33.6285914], [131.4753828, 33.627849], [131.4752601, 33.6269335], [131.4751737, 33.6262884], [131.4751133, 33.6260132], [131.4750573, 33.6258353], [131.4750137, 33.6257213], [131.4748304, 33.6253189], [131.4744965, 33.6246471], [131.4737614, 33.6231962], [131.4736371, 33.6229104], [131.4735799, 33.6227394], [131.4735327, 33.6225525], [131.4735128, 33.6224347], [131.4734951, 33.6222616], [131.4734904, 33.6220629], [131.4735026, 33.6218807], [131.4735491, 33.6216046], [131.4735953, 33.6214197], [131.4736369, 33.6213051], [131.4737932, 33.6209398], [131.4739499, 33.6205825], [131.4741947, 33.6202006], [131.4743724, 33.6199509], [131.4745153, 33.6197722], [131.4747078, 33.6195713], [131.4749422, 33.619364], [131.4758205, 33.6186154], [131.4764923, 33.6180143], [131.476862, 33.6176996], [131.4770457, 33.6174877], [131.4771923, 33.6172973], [131.4773336, 33.6170672], [131.4774545, 33.6168022], [131.477533, 33.616539], [131.477588, 33.616271], [131.4776211, 33.6160095], [131.4776075, 33.6157582], [131.4775756, 33.6155352], [131.4775042, 33.6152175], [131.4774113, 33.6148955], [131.4773304, 33.6146155], [131.4763643, 33.6111483], [131.4763281, 33.6110364], [131.4762807, 33.6109275], [131.4762197, 33.6108165], [131.4761412, 33.6107093], [131.4760381, 33.6105891], [131.475746, 33.6103209], [131.475439, 33.6100589], [131.4754173, 33.6100379], [131.4751033, 33.6097462], [131.4750933, 33.6097344], [131.4750177, 33.6096455], [131.4749108, 33.6095092], [131.4746996, 33.6091938], [131.4739786, 33.6081868], [131.4737459, 33.6078094], [131.4733143, 33.6072209], [131.4732099, 33.6070771], [131.4730996, 33.6069351], [131.4729186, 33.6067598], [131.4724973, 33.6063827], [131.4712806, 33.6054119], [131.4694995, 33.6040306], [131.4689916, 33.6036237], [131.4686948, 33.6033899], [131.4676978, 33.6026304], [131.4667088, 33.6018491], [131.4658951, 33.601239], [131.4643072, 33.5999577], [131.4629466, 33.5989087], [131.4623085, 33.5984618], [131.4621491, 33.598356], [131.4619399, 33.5982166], [131.4615511, 33.5979559], [131.4612049, 33.5977196], [131.4610988, 33.5976464], [131.4605166, 33.5972504], [131.4600513, 33.5969103], [131.4595716, 33.5965576], [131.4591989, 33.5962672], [131.4590651, 33.5961661], [131.4590463, 33.5961518], [131.4588567, 33.5960078], [131.4582753, 33.5955854], [131.4570446, 33.5946949], [131.4552664, 33.5933489], [131.4550363, 33.5931723], [131.4543193, 33.5926573], [131.4540791, 33.592468], [131.4537768, 33.5922511], [131.453199, 33.5918232], [131.4523247, 33.5911274], [131.4521321, 33.5909519], [131.4519597, 33.5907747], [131.4518054, 33.5905837], [131.4516241, 33.5903144], [131.4513255, 33.5898333], [131.4512622, 33.5897003], [131.4510706, 33.5891487], [131.4509302, 33.5886171], [131.4506954, 33.5878574], [131.4503373, 33.5866407], [131.4501324, 33.5859701], [131.4497674, 33.5847454], [131.4493548, 33.5834509], [131.4493401, 33.5833757], [131.44922, 33.582943], [131.4487725, 33.5813426], [131.4486971, 33.5810606], [131.4484156, 33.5800229], [131.4480846, 33.5789616], [131.4479396, 33.5784182], [131.4477057, 33.5778077], [131.447393, 33.57723], [131.447339, 33.577102], [131.447279, 33.576978], [131.446873, 33.5759994], [131.4462624, 33.5748251], [131.4461045, 33.574537], [131.4459228, 33.5742546], [131.4457028, 33.5739792], [131.4452555, 33.5734888], [131.4452217, 33.5734518], [131.4451025, 33.5733258], [131.4450804, 33.5733022], [131.442676, 33.570721], [131.442328, 33.570348], [131.441213, 33.569152], [131.44092, 33.568837], [131.440675, 33.568558], [131.440433, 33.568253], [131.440352, 33.568135], [131.440297, 33.568053], [131.440179, 33.567864], [131.440108, 33.567743], [131.44005, 33.567632], [131.439804, 33.567135], [131.439629, 33.566748], [131.439309, 33.566038], [131.438816, 33.564944], [131.43871, 33.564765], [131.438702, 33.564754], [131.4381222, 33.5640791], [131.4378047, 33.5637193], [131.4377351, 33.5636405], [131.437058, 33.5628708], [131.4370462, 33.5628541], [131.4369642, 33.5627389], [131.4369257, 33.5626756], [131.4368818, 33.5625929], [131.4368349, 33.5624642], [131.4368033, 33.5623357], [131.436777, 33.562184], [131.4366471, 33.5613768], [131.4365653, 33.5608271], [131.4364992, 33.5603831], [131.4364163, 33.5598254], [131.4362961, 33.5590176], [131.4362736, 33.5588506], [131.4360799, 33.5574591], [131.4359907, 33.5568187], [131.4359805, 33.5567451], [131.4358734, 33.55598], [131.4358585, 33.5558733], [131.4358447, 33.5557642], [131.4357445, 33.5549734], [131.4356252, 33.5541383], [131.4356199, 33.5540912], [131.4356056, 33.554041], [131.4355871, 33.5539892], [131.4355648, 33.5539434], [131.435538, 33.5538955], [131.4355004, 33.5538359], [131.4353362, 33.553594], [131.4351625, 33.5533416], [131.4350599, 33.5531899], [131.4349242, 33.5529924], [131.4348539, 33.5528917], [131.4348404, 33.5528739], [131.4347912, 33.5528093], [131.4347237, 33.5527301], [131.4346541, 33.5526532], [131.4345857, 33.5525819], [131.4344545, 33.5524709], [131.4343608, 33.5523954], [131.4342705, 33.5523275], [131.434182, 33.5522667], [131.4337895, 33.5520051], [131.433401, 33.5517437], [131.4324061, 33.551105], [131.4323753, 33.5510852], [131.4320558, 33.55088], [131.4320294, 33.550863], [131.4316126, 33.5505938], [131.4313662, 33.5504347], [131.4296462, 33.5493344], [131.4294559, 33.5492063], [131.4292831, 33.5490811], [131.429112, 33.5489399], [131.428879, 33.5487453], [131.427248, 33.547224], [131.427001, 33.54699], [131.4268335, 33.5468257], [131.4254781, 33.5454984], [131.4248605, 33.5449262], [131.4233878, 33.5435617], [131.422767, 33.542855], [131.4224979, 33.54243], [131.421984, 33.541644], [131.421566, 33.540937], [131.420026, 33.5388949], [131.4191796, 33.537812], [131.4188366, 33.5373601], [131.4186001, 33.5370427], [131.4183202, 33.5366892], [131.4179914, 33.5364175], [131.4177606, 33.5363261], [131.4175038, 33.5362732], [131.4160703, 33.5360536], [131.415356, 33.5359332], [131.413061, 33.535522], [131.413019, 33.535514], [131.4128827, 33.5354887], [131.411708, 33.535271], [131.411436, 33.53522], [131.4110601, 33.5351206], [131.4104597, 33.5349687], [131.4097819, 33.5347882], [131.4092388, 33.534657], [131.408965, 33.5345883], [131.4087931, 33.5345627], [131.408515, 33.5344962], [131.408312, 33.5344297], [131.408052, 33.534499], [131.407936, 33.534546], [131.407757, 33.534603], [131.407694, 33.534619], [131.40758, 33.534649], [131.407397, 33.534679], [131.407157, 33.534706], [131.406877, 33.534718], [131.4047, 33.53474], [131.4040164, 33.5347506], [131.4026511, 33.5347411], [131.4020506, 33.5347499], [131.4009703, 33.5347475], [131.3989338, 33.5347585], [131.3988978, 33.5347619], [131.3982933, 33.5347644], [131.3981419, 33.5347524], [131.3979284, 33.5347391], [131.3976746, 33.5347103], [131.3974828, 33.5346802], [131.3971611, 33.5346021], [131.396569, 33.534418], [131.396394, 33.53436], [131.395991, 33.534195], [131.395526, 33.533984], [131.394299, 33.533361], [131.393759, 33.533087], [131.393198, 33.532802], [131.393116, 33.53276], [131.390493, 33.531428], [131.389983, 33.531176], [131.389428, 33.5309], [131.387994, 33.530179], [131.387872, 33.530121], [131.38773, 33.530059], [131.387605, 33.530008], [131.3874273, 33.5299437], [131.3871532, 33.529847], [131.3870039, 33.5297998], [131.3868537, 33.5297557], [131.3864337, 33.5296402], [131.3861257, 33.5295526], [131.3857667, 33.5294573], [131.3850166, 33.5292649], [131.3849426, 33.5292449], [131.3837317, 33.5289008], [131.3833343, 33.5287879], [131.3831377, 33.5287309], [131.3829596, 33.528688], [131.3828207, 33.5286625], [131.3826881, 33.5286421], [131.3825577, 33.5286271], [131.3823254, 33.5286098], [131.3820686, 33.5285966], [131.3814164, 33.528582], [131.3785547, 33.5284816], [131.3783057, 33.5284729], [131.3754515, 33.5283728], [131.3754246, 33.5283719], [131.3726455, 33.5282744], [131.3725182, 33.5282699], [131.3723701, 33.5282648], [131.3713954, 33.5282306], [131.3704671, 33.528198], [131.370406, 33.5281963], [131.3703624, 33.5281951], [131.3703116, 33.5281953], [131.370228, 33.5281924], [131.3702066, 33.528191], [131.3700128, 33.5281685], [131.3698096, 33.5281363], [131.3696012, 33.5280893], [131.3694561, 33.5280491], [131.3693299, 33.5280028], [131.3692328, 33.5279696], [131.3691683, 33.527941], [131.3690517, 33.5278908], [131.3689559, 33.5278444], [131.3681729, 33.5274557], [131.3678997, 33.52732], [131.3668425, 33.5267951], [131.3663739, 33.5265624], [131.3662571, 33.5265063], [131.3661428, 33.5264571], [131.3660082, 33.526409], [131.3658741, 33.5263673], [131.3656974, 33.5263216], [131.3656131, 33.5263066], [131.3654784, 33.5262826], [131.3653029, 33.5262651], [131.3650263, 33.526251], [131.3647427, 33.5262558], [131.3644322, 33.5262966], [131.3641423, 33.5263496], [131.3637724, 33.526482], [131.3635113, 33.5265936], [131.3631554, 33.5268015], [131.3628926, 33.5269849], [131.362163, 33.5274678], [131.3616641, 33.5277719], [131.3615139, 33.5278435], [131.360899, 33.528093], [131.360349, 33.528241], [131.3600919, 33.5282998], [131.3598997, 33.5283437], [131.359772, 33.528362], [131.3597605, 33.5283637], [131.3595172, 33.5283991], [131.3593469, 33.5284157], [131.3591676, 33.528429], [131.3590386, 33.5284372], [131.3589231, 33.5284406], [131.3587837, 33.5284406], [131.358677, 33.5284372], [131.3585692, 33.5284308], [131.358437, 33.5284219], [131.35827, 33.5284047], [131.3580286, 33.5283801], [131.3575442, 33.5283225], [131.3569428, 33.5282595], [131.356391, 33.5281991], [131.356303, 33.5281877], [131.3561995, 33.5281757], [131.3547494, 33.5280227], [131.3545213, 33.5279952], [131.354378, 33.5279729], [131.3542488, 33.5279536], [131.3541819, 33.5279407], [131.3540563, 33.5279126], [131.3538222, 33.527849], [131.353637, 33.5277924], [131.3534448, 33.5277198], [131.3532923, 33.5276479], [131.3532028, 33.5275993], [131.3531269, 33.5275565], [131.3530578, 33.5275132], [131.3529771, 33.5274596], [131.3528855, 33.5273938], [131.3527858, 33.5273147], [131.3526487, 33.5271995], [131.3526113, 33.5271639], [131.3525176, 33.527075], [131.3524475, 33.5270022], [131.3523575, 33.5268961], [131.3522754, 33.5267914], [131.3522007, 33.5266818], [131.3521349, 33.5265796], [131.3520429, 33.5264302], [131.3519038, 33.5261877], [131.3517225, 33.5258441], [131.3514998, 33.5254517], [131.3514703, 33.5253997], [131.351345, 33.5251786], [131.3511508, 33.5248422], [131.3509632, 33.5245419], [131.3509152, 33.524472], [131.350859, 33.5243983], [131.3508045, 33.5243311], [131.350713, 33.5242355], [131.3506163, 33.5241431], [131.3505484, 33.5240862], [131.3504779, 33.5240284], [131.3504018, 33.5239704], [131.3503352, 33.5239263], [131.3502784, 33.5238902], [131.3502062, 33.5238487], [131.350126, 33.5238054], [131.3500456, 33.5237674], [131.3499571, 33.5237295], [131.3498662, 33.5236962], [131.3497869, 33.5236701], [131.3496692, 33.5236377], [131.3495515, 33.5236073], [131.3493659, 33.5235753], [131.349272, 33.5235638], [131.3491902, 33.5235578], [131.3490036, 33.5235488], [131.3488247, 33.5235473], [131.3487402, 33.5235515], [131.3486359, 33.5235613], [131.3485322, 33.5235737], [131.3483988, 33.523595], [131.3482431, 33.5236239], [131.3481556, 33.5236405], [131.3480684, 33.5236591], [131.3479472, 33.5236914], [131.3478327, 33.5237234], [131.3476215, 33.5237981], [131.3459438, 33.5243857], [131.3457896, 33.5244389], [131.3451684, 33.5246531], [131.3451571, 33.524657], [131.345036, 33.5246984], [131.3450012, 33.5247119], [131.344914, 33.5247458]], [[131.2969867, 33.5389969], [131.2971913, 33.5389912], [131.2973714, 33.5389823], [131.2975201, 33.53897], [131.2976603, 33.5389503], [131.2978036, 33.5389251], [131.2979512, 33.5388944], [131.2981058, 33.5388565], [131.2983645, 33.5387707], [131.2985219, 33.5387106], [131.298652, 33.5386504], [131.2987812, 33.5385882], [131.2989438, 33.5385067], [131.2992931, 33.5383252], [131.2995458, 33.5381948], [131.3018933, 33.5369378], [131.3019406, 33.5369125], [131.3019574, 33.5369038], [131.3022704, 33.5367413], [131.3022856, 33.5367334], [131.3026136, 33.536568], [131.302862, 33.5364437], [131.3030176, 33.5363675], [131.3032108, 33.5362833], [131.303376, 33.5362229], [131.3035801, 33.536161], [131.3037763, 33.5361164], [131.3039623, 33.5360862], [131.3041546, 33.5360622], [131.3043762, 33.5360463], [131.3045774, 33.5360467], [131.3047449, 33.5360519], [131.3049207, 33.5360662], [131.3051261, 33.5360943], [131.3053176, 33.5361298], [131.3054499, 33.5361584], [131.3054936, 33.5361679], [131.3060483, 33.5362997], [131.3061956, 33.536337], [131.3063643, 33.5363629], [131.3065142, 33.5363837], [131.3066923, 33.536405], [131.3068412, 33.5364165], [131.307031, 33.5364236], [131.3072153, 33.5364272], [131.3074052, 33.5364237], [131.3076475, 33.5364047], [131.307859, 33.536382], [131.308296, 33.536326], [131.308914, 33.536247], [131.309667, 33.536152], [131.310138, 33.536096], [131.310244, 33.53608], [131.3106602, 33.5360278], [131.3108138, 33.5360083], [131.3109686, 33.5359849], [131.3111352, 33.5359558], [131.3112943, 33.5359204], [131.3114403, 33.5358826], [131.311571, 33.5358455], [131.3117142, 33.535798], [131.311868, 33.5357441], [131.3127559, 33.5354047], [131.3128798, 33.5353588], [131.3130052, 33.5353183], [131.3131546, 33.5352733], [131.3133011, 33.5352373], [131.3134662, 33.5352045], [131.3136527, 33.5351741], [131.3138164, 33.5351514], [131.3139681, 33.5351364], [131.3141668, 33.5351212], [131.3143522, 33.5351092], [131.3146685, 33.535108], [131.315377, 33.535093], [131.3180118, 33.5350618], [131.3190026, 33.5350609], [131.3192006, 33.5350607], [131.3199636, 33.5350547], [131.3214841, 33.5349969], [131.3225491, 33.5349563], [131.3230342, 33.5349379], [131.3238643, 33.5349063], [131.3238936, 33.5349053], [131.3242094, 33.5348944], [131.3248591, 33.53487], [131.3253809, 33.5348504], [131.3254248, 33.5348486], [131.3258513, 33.534831], [131.3259616, 33.5348274], [131.3262417, 33.5348184], [131.3266112, 33.5347975], [131.3270122, 33.5347759], [131.3271183, 33.5347693], [131.327145, 33.5347669], [131.3271719, 33.5347645], [131.3274237, 33.5347368], [131.3276214, 33.5347012], [131.3277669, 33.5346735], [131.3278815, 33.5346484], [131.3278976, 33.5346448], [131.3280037, 33.5346208], [131.3281121, 33.534593], [131.3282321, 33.5345597], [131.3283371, 33.534531], [131.3284441, 33.5344974], [131.3285553, 33.5344612], [131.3286395, 33.5344315], [131.3287193, 33.5344023], [131.3287428, 33.5343926], [131.3288213, 33.5343636], [131.3288424, 33.534354], [131.3289245, 33.5343199], [131.3290088, 33.5342848], [131.3290917, 33.5342464], [131.3291347, 33.5342268], [131.3291577, 33.5342161], [131.3292135, 33.5341893], [131.329268, 33.5341628], [131.3293335, 33.5341308], [131.3293934, 33.5341007], [131.3294032, 33.5340958], [131.3294524, 33.5340703], [131.3297587, 33.5339056], [131.3312679, 33.5330811], [131.3314391, 33.5329876], [131.3314623, 33.5329767], [131.3315575, 33.5329241], [131.3317671, 33.5328082], [131.3326831, 33.5323162], [131.3327171, 33.5322976], [131.332789, 33.5322582], [131.3332869, 33.5319856], [131.3351356, 33.5309753], [131.3356726, 33.5306819], [131.3361359, 33.5304287], [131.3362252, 33.530378], [131.3362862, 33.5303433], [131.336346, 33.5303093], [131.3364039, 33.5302764], [131.3364611, 33.5302422], [131.3367477, 33.5300703], [131.3370665, 33.5298727], [131.3384192, 33.5289474], [131.3385155, 33.5288822], [131.3386525, 33.5287891], [131.3391607, 33.5284455], [131.3395218, 33.5282013], [131.3399039, 33.5279429], [131.3402005, 33.5277422], [131.3409109, 33.5272619], [131.3410361, 33.5271772], [131.341449, 33.526898], [131.3414858, 33.5268731], [131.3415748, 33.5268135], [131.3415843, 33.5268071], [131.3418101, 33.5266541], [131.3421063, 33.5264537], [131.3427643, 33.5260084], [131.3436599, 33.5254057], [131.3438596, 33.5252777], [131.3439971, 33.5251936], [131.3441349, 33.5251144], [131.344248, 33.5250536], [131.3444015, 33.5249758], [131.3445409, 33.5249087], [131.3446716, 33.5248493], [131.3447995, 33.5247947], [131.344914, 33.5247458]], [[131.2969867, 33.5389969], [131.2964287, 33.5389993], [131.2963355, 33.5390023], [131.2962246, 33.538957], [131.2961361, 33.5389094], [131.2960836, 33.538868], [131.2960482, 33.5388328], [131.2959806, 33.5387594]], [[131.2959184, 33.5386784], [131.2946928, 33.5392622], [131.294634, 33.5392889], [131.2940385, 33.5395592], [131.2933157, 33.5398672], [131.2928336, 33.5400726], [131.2923204, 33.5402831], [131.2912253, 33.5407322], [131.2909303, 33.5408599], [131.2907774, 33.540926], [131.2905069, 33.541065], [131.2904688, 33.5410873], [131.2903169, 33.5411763], [131.2901925, 33.5412524], [131.2900901, 33.5413151], [131.2900625, 33.5413327], [131.289891, 33.5414417], [131.2897317, 33.5415485], [131.2895183, 33.5417019], [131.2893206, 33.5418491], [131.2892154, 33.5419275], [131.288775, 33.5422691], [131.2886819, 33.5423433], [131.2881433, 33.5427726], [131.2870336, 33.5436611], [131.2868213, 33.5438234], [131.2866169, 33.5439679], [131.2863708, 33.5441418], [131.2861377, 33.5442875], [131.2858752, 33.5444425], [131.2856256, 33.5445836], [131.2826745, 33.5461642], [131.2822261, 33.5464023], [131.2816682, 33.5466994], [131.2800126, 33.547569], [131.2783568, 33.5484535], [131.2778624, 33.5487365], [131.2775394, 33.548927], [131.2772527, 33.5490948], [131.2767682, 33.5493922], [131.2765036, 33.549555], [131.2759318, 33.5499236], [131.2756705, 33.550078], [131.2753442, 33.5502782], [131.2752947, 33.5503125], [131.275081, 33.5504457], [131.2747926, 33.5506252], [131.2745001, 33.5508118], [131.2740808, 33.5510905], [131.2739591, 33.5511491], [131.2738638, 33.5512121], [131.2734584, 33.5514811], [131.2731177, 33.5517072], [131.273562, 33.5514447], [131.2741217, 33.5511294], [131.2745506, 33.5509018], [131.2747657, 33.5507666], [131.2754252, 33.5503584], [131.2757202, 33.5501637], [131.2760018, 33.5499958], [131.276841, 33.54948], [131.2773504, 33.5491664], [131.2778676, 33.5488611], [131.2784458, 33.5485264], [131.2800633, 33.5476633], [131.2807861, 33.5472825], [131.2817022, 33.5468031], [131.2821803, 33.5465444], [131.2852103, 33.5449205], [131.2856262, 33.5446961], [131.2858552, 33.5445657], [131.2861365, 33.5444011], [131.2864057, 33.5442309], [131.2866328, 33.5440794], [131.2868882, 33.5438944], [131.2871619, 33.5436861], [131.2882219, 33.5428385]], [[131.2959806, 33.5387594], [131.2949814, 33.5392403], [131.2943472, 33.5395253], [131.2933472, 33.5399542], [131.2914563, 33.5407291], [131.2909924, 33.5409312], [131.290626, 33.5411066], [131.2904144, 33.541227], [131.2901945, 33.541357], [131.2901288, 33.5414004], [131.2899544, 33.5415155], [131.2898566, 33.5415833], [131.2895615, 33.5417878], [131.2892528, 33.542015], [131.2889622, 33.5422367], [131.2882219, 33.5428385]], [[131.2731177, 33.5517072], [131.2730107, 33.5517802], [131.2717556, 33.5526218], [131.2713033, 33.5529279], [131.2708694, 33.5532142], [131.2697956, 33.5539366], [131.26899, 33.5544804], [131.2688413, 33.5545902], [131.2687164, 33.5546904], [131.2685774, 33.5548117], [131.2684415, 33.5549391], [131.2671888, 33.5561756], [131.2665087, 33.5568469], [131.2652564, 33.5580829], [131.2639903, 33.5593326], [131.2636147, 33.5597034], [131.2619407, 33.5613557], [131.261578, 33.5617136], [131.2602506, 33.5630239], [131.2589897, 33.5642538], [131.2587112, 33.5645295], [131.258529, 33.56471], [131.2581037, 33.5651421], [131.2573895, 33.5658506], [131.2572692, 33.5659678], [131.2571454, 33.5660745], [131.2569952, 33.5662025], [131.2568338, 33.5663347], [131.25665, 33.5664745], [131.2565085, 33.5665762], [131.2564136, 33.5666398], [131.256307, 33.5667067], [131.2562099, 33.5667668], [131.2560508, 33.5668588], [131.2559434, 33.5669185], [131.2526501, 33.5687502], [131.2509958, 33.5696716], [131.2497456, 33.570368], [131.2493415, 33.570593], [131.248741, 33.5709273], [131.2484153, 33.5711086], [131.2479851, 33.5713481], [131.2466192, 33.5721202], [131.2429252, 33.5741887], [131.2426817, 33.5743336], [131.2424156, 33.5744939], [131.2421757, 33.5746448], [131.2420166, 33.5747451], [131.2418195, 33.5748758], [131.2416318, 33.5750018], [131.2413426, 33.5751991], [131.2411284, 33.575352], [131.2406217, 33.5757157], [131.2380935, 33.5777365], [131.237134, 33.5785034], [131.2369423, 33.5786512], [131.2362188, 33.5792271], [131.2357555, 33.5795958], [131.2356456, 33.5796884], [131.2354981, 33.5798072], [131.2341627, 33.5808526], [131.2337609, 33.5811543], [131.2331435, 33.5816436], [131.2329656, 33.5817846], [131.2315507, 33.5829061], [131.2314688, 33.5829685], [131.2313689, 33.5830389], [131.231253, 33.583114], [131.2311393, 33.5831863], [131.2310479, 33.5832423], [131.2310311, 33.5832525], [131.2309204, 33.5833147], [131.2308215, 33.5833646], [131.2306812, 33.5834302], [131.2304791, 33.583521], [131.2299938, 33.583725], [131.2291466, 33.584081], [131.2280013, 33.5845623], [131.2272895, 33.5848402], [131.2269741, 33.5849687], [131.2264827, 33.5851428], [131.2249262, 33.5855601], [131.2243276, 33.5857173], [131.2235985, 33.5859088], [131.223455, 33.5859465], [131.2212208, 33.5865628], [131.2201149, 33.5868621], [131.218847, 33.5871953], [131.218482, 33.5872912], [131.216806, 33.5877582], [131.2148728, 33.5882881], [131.2138697, 33.588563], [131.2126152, 33.5889068], [131.212483, 33.588943], [131.2111747, 33.5893016], [131.2104257, 33.589507], [131.2091002, 33.5898706], [131.208009, 33.5901699], [131.2071986, 33.5903921], [131.2067848, 33.5905112], [131.2064454, 33.5906101], [131.2060454, 33.5907304], [131.2048032, 33.5911039], [131.2037408, 33.5914077], [131.2025478, 33.591749], [131.201513, 33.5920449], [131.200714, 33.5922739], [131.199985, 33.5924885], [131.1985572, 33.5929046], [131.1981398, 33.5930366], [131.1971414, 33.5933459], [131.1967346, 33.5934315], [131.196612, 33.593469], [131.1958967, 33.5937006], [131.1951978, 33.5939068], [131.1936584, 33.5943573], [131.193623, 33.5943661], [131.1931217, 33.5945041], [131.1924119, 33.5947134], [131.1912645, 33.5950528], [131.1912452, 33.5950586], [131.190048, 33.5954106]], [[131.7308263, 33.4812631], [131.7309188, 33.4809205], [131.7309673, 33.4806678], [131.7309977, 33.4804144], [131.7309939, 33.4801512], [131.7309754, 33.4799314], [131.7309312, 33.4797116], [131.7308671, 33.479325], [131.7308518, 33.4792272], [131.7308308, 33.4791478], [131.730808, 33.4790071], [131.7307825, 33.4787643], [131.7307688, 33.4786327], [131.7307512, 33.4784386], [131.7307402, 33.4782692], [131.7307347, 33.4780949], [131.7307436, 33.4779069], [131.7307624, 33.4777204], [131.73078, 33.4775588], [131.7308187, 33.47734], [131.730863, 33.4771341], [131.7308952, 33.4769786], [131.7312828, 33.4755447], [131.7315269, 33.4746812], [131.7320378, 33.4728146], [131.7320839, 33.4726427], [131.7321051, 33.4724681], [131.732125, 33.4722845], [131.7321247, 33.4720764], [131.7320972, 33.4718913], [131.7320695, 33.4717829], [131.7319962, 33.4715806], [131.7319311, 33.4714465], [131.7318427, 33.4713071], [131.7317475, 33.4711769], [131.7316638, 33.4710748], [131.7315523, 33.470945], [131.7298394, 33.4690884], [131.728974, 33.4681722], [131.7288253, 33.4680911]]]}, "id": "relation/6966370"}]}