{"type": "FeatureCollection", "generator": "kokudo-quiz tools/fetch_raw.py (Overpass API)", "copyright": "The data included in this document is from www.openstreetmap.org. The data is made available under ODbL.", "timestamp": "2026-09-30T16:03:57Z", "features": [{"type": "Feature", "properties": {"@id": "relation/6585224", "bicycle": "yes", "colour": "red", "cycleway": "track", "from": "北海道函館市", "name": "国道228号", "name:en": "National Highway Route 228", "name:ja": "国道228号", "name:ja-Hira": "こくどうにひゃくにじゅうはちごう", "name:ja-Latn": "Kokudou 228 Gou", "network": "JP:national", "official_name": "一般国道228号", "operator": "北海道開発局", "ref": "228", "route": "road", "to": "北海道檜山郡江差町", "type": "route", "wikidata": "Q6156982", "wikipedia": "ja:国道228号"}, "geometry": {"type": "MultiLineString", "coordinates": [[[140.7318898, 41.7894665], [140.7317615, 41.7894804], [140.7317253, 41.7894853], [140.7310272, 41.7895676], [140.7308217, 41.7896168], [140.7306104, 41.7896971], [140.730487, 41.7897668], [140.7304188, 41.7898124], [140.7303484, 41.7898676], [140.7302493, 41.7899576], [140.730144, 41.7901127], [140.7301175, 41.7901541], [140.7300394, 41.7903685], [140.7298623, 41.7909966], [140.7297035, 41.7915516], [140.7293849, 41.7926038], [140.729379, 41.792621], [140.7293553, 41.7927044], [140.7293248, 41.7928118], [140.7292785, 41.7929592], [140.7291823, 41.7932657], [140.7291323, 41.7934248], [140.7290431, 41.7936475], [140.7288236, 41.7940626], [140.7285697, 41.7945379], [140.7285221, 41.794623], [140.7284724, 41.7947142], [140.728101, 41.7954111], [140.7280567, 41.7954931], [140.7280148, 41.7955643], [140.7278218, 41.7958897], [140.727805, 41.7959146], [140.7275015, 41.7963634], [140.7272718, 41.7967031], [140.7272155, 41.7967864], [140.7271594, 41.7968712], [140.7266459, 41.7976247], [140.7265872, 41.7977058], [140.7265173, 41.7978153], [140.7264453, 41.7979213], [140.7261856, 41.7983037], [140.7256895, 41.7990682], [140.7255324, 41.7993078], [140.7254689, 41.7994045], [140.7254213, 41.799467], [140.7252269, 41.7997516], [140.7247311, 41.8004782], [140.7245112, 41.8008005], [140.7243818, 41.8009901], [140.7242779, 41.8011464], [140.7239749, 41.8016023], [140.7237103, 41.8020005], [140.7236847, 41.8020367], [140.7234856, 41.8023182], [140.7234337, 41.8023881], [140.7232864, 41.8026134], [140.7232513, 41.8026659], [140.7231204, 41.8028619], [140.7230561, 41.8029581], [140.722977, 41.8030388], [140.7227489, 41.8032716], [140.7226118, 41.8033954], [140.7188729, 41.8069959], [140.7188226, 41.8070505], [140.7187605, 41.8071113], [140.718169, 41.8076834], [140.7180609, 41.807788], [140.7180057, 41.807846], [140.7177784, 41.8080794], [140.7176802, 41.8081721], [140.7172209, 41.8086137], [140.7168335, 41.8089702], [140.7164658, 41.8092656], [140.7164017, 41.8093171], [140.7159841, 41.8096153], [140.7158738, 41.8096953], [140.7157308, 41.8097921], [140.7152734, 41.8100807], [140.7148851, 41.8103088], [140.7147527, 41.8103848], [140.7146064, 41.8104713], [140.7144037, 41.810582], [140.7136102, 41.8110395], [140.7130894, 41.8113414], [140.7129221, 41.8114389], [140.7128229, 41.8114967], [140.7125818, 41.8116331], [140.7121255, 41.8118957], [140.7114738, 41.8122662], [140.7113578, 41.8123345], [140.7111882, 41.8124315], [140.7105965, 41.8127658], [140.7102735, 41.8129636], [140.7099237, 41.8131584], [140.7094746, 41.8133939], [140.7085253, 41.8139012], [140.7072433, 41.8145233], [140.7071747, 41.8145559], [140.7070674, 41.8146123], [140.7069574, 41.8146674], [140.7065781, 41.8148544], [140.7064707, 41.8149086], [140.7058048, 41.8152331], [140.7054674, 41.8153986], [140.7050727, 41.8156034], [140.7043532, 41.8159562], [140.7042245, 41.8160245], [140.7033286, 41.816485], [140.7031322, 41.816579], [140.7029474, 41.8166769], [140.7028115, 41.8167435], [140.7024129, 41.8169303], [140.7018456, 41.8171993], [140.7016918, 41.8172809], [140.7014232, 41.817409], [140.701023, 41.8176074], [140.700961, 41.817638], [140.7006568, 41.817788], [140.7000278, 41.8180876], [140.6998837, 41.8181563], [140.699562, 41.8183047], [140.6992428, 41.8184415], [140.6988863, 41.818581], [140.6985235, 41.8187145], [140.6982108, 41.818824], [140.6978861, 41.8189406], [140.6973184, 41.8191367], [140.6965798, 41.8193731], [140.696158, 41.8195081], [140.6957289, 41.8196472], [140.6953808, 41.8197612], [140.6951428, 41.8198346], [140.6951104, 41.8198434], [140.6947422, 41.8199437], [140.6943033, 41.8200478], [140.6941425, 41.8200921], [140.6940941, 41.8201058], [140.6939667, 41.8201388], [140.6938701, 41.8201638], [140.6936891, 41.8202057], [140.6930722, 41.8203596], [140.6928695, 41.8204058], [140.6922368, 41.8205499], [140.6917372, 41.8206638], [140.6916506, 41.8206835], [140.6915745, 41.8207002], [140.6909484, 41.820838], [140.6904363, 41.8209545], [140.6896041, 41.8211452], [140.6891489, 41.8212492], [140.6890097, 41.821281], [140.688904, 41.8213051], [140.6887527, 41.8213347], [140.6882066, 41.8214423], [140.6875881, 41.8215635], [140.6871633, 41.8216469], [140.6868282, 41.8217183], [140.6863827, 41.8218008], [140.6859189, 41.8218874], [140.6857936, 41.8219097], [140.6850613, 41.8220549], [140.6848746, 41.8221031], [140.6844653, 41.8222164], [140.6837869, 41.822404], [140.6828822, 41.8226296], [140.682758, 41.8226606], [140.6821866, 41.8227907], [140.6815534, 41.8229152], [140.6814711, 41.8229304], [140.6812176, 41.8229771], [140.6811759, 41.8229848], [140.6808923, 41.8230371], [140.6806041, 41.8230785], [140.6803116, 41.8231205], [140.6802144, 41.8231345], [140.6801172, 41.8231484], [140.6800204, 41.8231623], [140.6799842, 41.8231675], [140.6798554, 41.8231837], [140.6796928, 41.823157], [140.6793458, 41.8231953], [140.6783942, 41.8233004], [140.6766964, 41.8234946], [140.6761389, 41.8235506], [140.6756391, 41.8235887], [140.6752567, 41.8236042], [140.6748836, 41.8236194], [140.6746936, 41.8236271], [140.6740278, 41.8236551], [140.6738567, 41.8236622], [140.6736598, 41.8236704], [140.6727034, 41.8237103], [140.6721034, 41.8237312], [140.6715812, 41.8237513], [140.6702952, 41.8238027], [140.670077, 41.8238092], [140.6690373, 41.8238404], [140.6683646, 41.8238605], [140.667476, 41.823882], [140.6668368, 41.8238974], [140.6666338, 41.8238947], [140.6665224, 41.8238938], [140.6660198, 41.8238898], [140.6657986, 41.823888], [140.6653804, 41.8238712], [140.664967, 41.8238546], [140.6643705, 41.823821], [140.6639319, 41.8237944], [140.6629976, 41.8237408], [140.6621146, 41.8237005], [140.6620155, 41.823696], [140.661831, 41.8236859], [140.6616668, 41.823678], [140.6616143, 41.8236747], [140.6607568, 41.8236207], [140.6603865, 41.8235827], [140.6603052, 41.8235744], [140.6598523, 41.8235263], [140.6582997, 41.8233434], [140.6579481, 41.823297], [140.6554224, 41.8229625], [140.6552796, 41.8229479], [140.655209, 41.8229404], [140.6551768, 41.8229369], [140.6547813, 41.8228779], [140.6545274, 41.8228098], [140.6542775, 41.8227117], [140.6540747, 41.8226156], [140.6538664, 41.8224945], [140.6535198, 41.8222732], [140.6531233, 41.8220212], [140.6529845, 41.821933], [140.6528631, 41.8218562], [140.6527809, 41.8218037], [140.6524814, 41.8216495], [140.6522516, 41.8215325], [140.6516443, 41.821261], [140.6510397, 41.8209899], [140.6498659, 41.8204601], [140.6497513, 41.8204092], [140.649632, 41.82035], [140.6491726, 41.8201411], [140.6490087, 41.8200666], [140.6479487, 41.8195931], [140.6475371, 41.8194091], [140.6472321, 41.8192728], [140.6468318, 41.819123], [140.6463203, 41.8189315], [140.6461293, 41.8188709], [140.6456569, 41.8187327], [140.6440698, 41.818253], [140.6433683, 41.8180389], [140.6425225, 41.8177862], [140.6423851, 41.817745], [140.6422424, 41.8177039], [140.6416142, 41.8175059], [140.6412251, 41.8173709], [140.6407602, 41.8171962], [140.6398799, 41.8168128], [140.6397497, 41.8167523], [140.639578, 41.8166776], [140.6393764, 41.8165888], [140.638985, 41.8164168], [140.6364845, 41.8153174], [140.6359912, 41.815104], [140.6354798, 41.8149219], [140.6348574, 41.8147464], [140.6335309, 41.8144303], [140.6333737, 41.8143953], [140.6330685, 41.8143273], [140.6329152, 41.8142932], [140.6327684, 41.8142624], [140.6324037, 41.814169], [140.6320053, 41.8140327], [140.631693, 41.8139036], [140.6310313, 41.813584], [140.6305825, 41.8133649], [140.6304076, 41.8132812], [140.6300498, 41.8130812], [140.6296879, 41.8128543], [140.6293627, 41.8126449], [140.628718, 41.8121715], [140.6279955, 41.811641], [140.6274657, 41.8112553], [140.6271456, 41.8110257], [140.6270252, 41.8109357], [140.6265932, 41.8106089], [140.6262576, 41.8102911], [140.6265932, 41.8106089], [140.6270252, 41.8109357], [140.6271456, 41.8110257], [140.6274657, 41.8112553], [140.6279955, 41.811641], [140.628718, 41.8121715], [140.6293627, 41.8126449], [140.6296879, 41.8128543], [140.6300498, 41.8130812], [140.6304076, 41.8132812], [140.6305825, 41.8133649], [140.6310313, 41.813584], [140.631693, 41.8139036], [140.6320053, 41.8140327], [140.6324037, 41.814169], [140.6327684, 41.8142624], [140.6329152, 41.8142932], [140.6330685, 41.8143273], [140.6333737, 41.8143953], [140.6335309, 41.8144303], [140.6348574, 41.8147464], [140.6354798, 41.8149219], [140.6359912, 41.815104], [140.6364845, 41.8153174], [140.638985, 41.8164168], [140.6393764, 41.8165888]], [[140.6262576, 41.8102911], [140.6256774, 41.8097496], [140.6246421, 41.8087978], [140.6243643, 41.8085418], [140.6243057, 41.8084878], [140.6242063, 41.8083962], [140.6239698, 41.8081674], [140.6234688, 41.807683], [140.6232945, 41.8075143], [140.6230055, 41.8072348], [140.6228623, 41.8070963], [140.6226827, 41.8069227], [140.6224608, 41.806708], [140.6223758, 41.8066215], [140.6222322, 41.8064753], [140.6220267, 41.8062245], [140.6218833, 41.8060198], [140.6218207, 41.8059346], [140.6217849, 41.8058768], [140.621678, 41.805704], [140.6214591, 41.8052479], [140.6214191, 41.8051524], [140.62141, 41.8051306], [140.6214026, 41.8051022], [140.6213693, 41.8049751], [140.6213087, 41.8046706], [140.6212566, 41.8043517], [140.6212501, 41.8039687], [140.6212591, 41.8037238], [140.6211925, 41.8034071], [140.6211088, 41.8037092], [140.6211088, 41.8039673], [140.6211212, 41.804363], [140.6211797, 41.804683], [140.6212551, 41.8049983], [140.6212876, 41.805123], [140.6212954, 41.8051529], [140.6213044, 41.8051753], [140.6213463, 41.8052787], [140.6215656, 41.8057285], [140.6216691, 41.8059149], [140.6219227, 41.8062589], [140.6221249, 41.806493], [140.6222847, 41.806665], [140.6223734, 41.8067605], [140.6227862, 41.8071352], [140.6232363, 41.8075603], [140.6233898, 41.8077226], [140.6238789, 41.8082204], [140.6240793, 41.8084159], [140.6242053, 41.8085376], [140.6242643, 41.8085981], [140.6243466, 41.8086673], [140.6245541, 41.8088532], [140.6255915, 41.8098052], [140.6261744, 41.81034], [140.6264875, 41.810636], [140.6267295, 41.8108339], [140.6269296, 41.810983], [140.6270727, 41.8110815], [140.6273425, 41.8112734], [140.6273976, 41.8113066], [140.6274661, 41.8113617], [140.627914, 41.8117015], [140.6280396, 41.8117944], [140.6284492, 41.8120959], [140.6286438, 41.8122358], [140.6291523, 41.8126073], [140.6294153, 41.8128032], [140.6296877, 41.8129939], [140.6298759, 41.8131097], [140.6299699, 41.8131663], [140.6303058, 41.8133397], [140.6305075, 41.8134437], [140.6309588, 41.8136677], [140.6312613, 41.8138149], [140.6315886, 41.8139776], [140.6320062, 41.8141297], [140.63233, 41.8142354], [140.6328746, 41.8143808], [140.6330275, 41.8144137], [140.6332457, 41.8144647], [140.6333375, 41.8144861], [140.6334916, 41.8145219], [140.6349923, 41.8148707], [140.6356249, 41.815059], [140.6361845, 41.8152834], [140.6383384, 41.8162356], [140.6389284, 41.8164964], [140.6392805, 41.816652], [140.6389284, 41.8164964], [140.6383384, 41.8162356], [140.6361845, 41.8152834], [140.6356249, 41.815059], [140.6349923, 41.8148707], [140.6334916, 41.8145219], [140.6333375, 41.8144861], [140.6332457, 41.8144647], [140.6330275, 41.8144137], [140.6328746, 41.8143808], [140.63233, 41.8142354], [140.6320062, 41.8141297], [140.6315886, 41.8139776], [140.6312613, 41.8138149], [140.6309588, 41.8136677], [140.6305075, 41.8134437], [140.6303058, 41.8133397], [140.6299699, 41.8131663], [140.6298759, 41.8131097], [140.6296877, 41.8129939], [140.6294153, 41.8128032], [140.6291523, 41.8126073], [140.6286438, 41.8122358], [140.6284492, 41.8120959], [140.6280396, 41.8117944], [140.627914, 41.8117015], [140.6274661, 41.8113617], [140.6273976, 41.8113066], [140.6273425, 41.8112734], [140.6270727, 41.8110815], [140.6269296, 41.810983], [140.6267295, 41.8108339], [140.6264875, 41.810636], [140.6261744, 41.81034]], [[140.6211925, 41.8034071], [140.621198, 41.8032939], [140.6211966, 41.8030938], [140.6212033, 41.8028456], [140.6211951, 41.8025578], [140.6211302, 41.8021816], [140.6209679, 41.8017533], [140.6207245, 41.8011647], [140.6205828, 41.8008528], [140.6204584, 41.8006447], [140.6202453, 41.8003872], [140.6199377, 41.8000876], [140.6197201, 41.7998583], [140.6195264, 41.7996242], [140.6191842, 41.7991252], [140.61878, 41.7984147], [140.6186338, 41.7981257], [140.6184779, 41.7977256], [140.6182292, 41.7970302], [140.6181549, 41.7967679], [140.618099, 41.79643], [140.618074, 41.7962792], [140.6179984, 41.7958263], [140.6179356, 41.7954495], [140.6179076, 41.7951495], [140.617884, 41.7949484], [140.6178991, 41.7947557], [140.6179798, 41.7945604], [140.6180733, 41.794334], [140.6184279, 41.7936188], [140.6184536, 41.7934946], [140.6184794, 41.7933994], [140.6184766, 41.7932177], [140.6184487, 41.7925556], [140.6184487, 41.7924246], [140.6184681, 41.7923077], [140.6185265, 41.7920747], [140.618629, 41.7917277], [140.6186927, 41.7914814], [140.6187327, 41.7909886], [140.6187502, 41.7905193], [140.6187882, 41.790273], [140.618833, 41.7901329], [140.6188602, 41.790079], [140.618962, 41.7898776], [140.619304, 41.7893669], [140.6195244, 41.789013], [140.619603, 41.7888519], [140.6196623, 41.7887075], [140.6196939, 41.7886305], [140.6197298, 41.7884579], [140.6197586, 41.7882958], [140.6197644, 41.7880346], [140.6197364, 41.7878072], [140.6196989, 41.7876421], [140.6195764, 41.7873527], [140.6194566, 41.7871114], [140.6191927, 41.7867305], [140.618925, 41.7863367], [140.6174793, 41.7842421], [140.617092, 41.7836897], [140.6165701, 41.7829341], [140.6160537, 41.7821334], [140.6155543, 41.7812988], [140.6153738, 41.7809747], [140.6151928, 41.7806564], [140.6151231, 41.7804979], [140.6150653, 41.7802899], [140.6150182, 41.780062], [140.6149134, 41.7789259], [140.6148896, 41.7787925], [140.6148586, 41.7786855], [140.6148297, 41.7785812], [140.614752, 41.7784653], [140.61463, 41.7783244], [140.6145149, 41.7782313], [140.6143988, 41.7781703], [140.6141419, 41.7780522], [140.6138196, 41.7779074], [140.6136581, 41.7778047], [140.6135981, 41.7777656], [140.613543, 41.7777147], [140.6134799, 41.7776477], [140.6134211, 41.7775655], [140.6133496, 41.7774597], [140.6133161, 41.7773567], [140.6132878, 41.7772178], [140.6132928, 41.7771061], [140.6133161, 41.7768161], [140.613349, 41.7765445], [140.6133494, 41.776282], [140.6133509, 41.7761019], [140.6133377, 41.7758327], [140.6133165, 41.7755416], [140.6132327, 41.7741161], [140.6132125, 41.7738717], [140.6132141, 41.7736998], [140.6132189, 41.7735394], [140.6132343, 41.7733361], [140.6132908, 41.7730553], [140.6133365, 41.7728932], [140.6134184, 41.7726698], [140.6134778, 41.7724957], [140.6135272, 41.7723469], [140.6135588, 41.7722066], [140.6135724, 41.7720759], [140.6135712, 41.7719454], [140.6135552, 41.7717889], [140.6135375, 41.7716908], [140.6134979, 41.7715447], [140.613354, 41.7712292], [140.6131659, 41.7708676], [140.6129853, 41.7705152], [140.6127522, 41.7701244], [140.6125531, 41.7697978], [140.6124148, 41.769585], [140.6122906, 41.76936], [140.6121407, 41.7690355], [140.6120021, 41.7687047], [140.6118791, 41.7685027], [140.6117859, 41.7683785], [140.6116882, 41.7682551], [140.6114732, 41.7680568], [140.6111507, 41.7678507], [140.6106684, 41.7675424], [140.6097756, 41.7669866], [140.6089533, 41.7664703], [140.6088468, 41.7664034], [140.6071519, 41.7653647], [140.6070658, 41.7653093], [140.6066652, 41.7650389], [140.6062678, 41.7647305], [140.6054286, 41.7639699], [140.6050175, 41.7636376], [140.6047129, 41.7633091], [140.6044774, 41.7629756], [140.6043135, 41.762679], [140.6037873, 41.7619089], [140.6037521, 41.7618092], [140.6037293, 41.7617197], [140.6037108, 41.7616214], [140.6037153, 41.7615089], [140.6037314, 41.7613941], [140.6037808, 41.761286], [140.6040464, 41.7608654], [140.604402, 41.7603342], [140.6045977, 41.7600149], [140.6047306, 41.759743], [140.6047518, 41.7596766], [140.6047857, 41.7595423], [140.6048021, 41.7594307], [140.6048347, 41.7587011], [140.6048162, 41.7583453], [140.604796, 41.7581421], [140.6046312, 41.75748], [140.6045761, 41.7572585], [140.6044597, 41.7568328], [140.6043357, 41.7563258], [140.6041066, 41.7556202], [140.6039331, 41.7552044], [140.6034684, 41.7542618], [140.6027666, 41.7529088], [140.6025572, 41.7524313], [140.6019417, 41.7504944], [140.6018312, 41.7501072], [140.6017681, 41.7496728], [140.6017356, 41.7488028], [140.6016301, 41.7460521], [140.6016405, 41.7456386], [140.6016426, 41.7454538], [140.6016796, 41.7451013], [140.6017253, 41.7447195], [140.6017911, 41.7442924], [140.6018333, 41.7439837], [140.6018808, 41.7436445], [140.6018786, 41.7434049], [140.6018632, 41.7432383], [140.6018113, 41.7429948], [140.6017089, 41.7427559], [140.6016151, 41.7425727], [140.601508, 41.7424201], [140.6012809, 41.7421566], [140.6010959, 41.7419834], [140.6008765, 41.7418298], [140.6006137, 41.7416722], [140.6003828, 41.7415605], [140.6001947, 41.7414841], [140.5999449, 41.7414034], [140.5990735, 41.7411723], [140.5985467, 41.7410331], [140.5971852, 41.7406683], [140.59658, 41.7405153], [140.5954574, 41.7402836], [140.5952091, 41.7402428], [140.5950047, 41.7402241], [140.5947602, 41.7402182], [140.5944256, 41.7402315], [140.5940726, 41.7402703], [140.5937134, 41.7403097], [140.5933503, 41.7403408], [140.5929733, 41.7404333], [140.5927545, 41.740522], [140.5925542, 41.7406053], [140.5923226, 41.7407206], [140.5921148, 41.7408461], [140.5916809, 41.7411276], [140.5914988, 41.7412323], [140.5911483, 41.7413715], [140.5910859, 41.7413873], [140.590819, 41.7414695], [140.5902488, 41.7415397], [140.5897239, 41.741599], [140.5893977, 41.7416215], [140.5892084, 41.7416146], [140.5890668, 41.7415973], [140.5889144, 41.7415685], [140.5888179, 41.7415378], [140.5887178, 41.7414971], [140.5886267, 41.7414519], [140.5884466, 41.7413469], [140.5883244, 41.7412415], [140.5882361, 41.7411532], [140.5881829, 41.7410708], [140.5880974, 41.740906], [140.5880671, 41.7408086], [140.5879332, 41.7404175], [140.5877647, 41.7399561], [140.5876849, 41.7397665], [140.5875761, 41.7395795], [140.5874737, 41.7394396], [140.5872763, 41.7392053], [140.5871059, 41.7390506], [140.586981, 41.7389521], [140.5868274, 41.7388495], [140.5865041, 41.7386561], [140.5861274, 41.7384467], [140.5858887, 41.7383048], [140.5856953, 41.7381945], [140.5855384, 41.7381135], [140.5853893, 41.7380443], [140.5851582, 41.7379501], [140.5849289, 41.7378773], [140.5848214, 41.7378473], [140.5847287, 41.7378236], [140.5845966, 41.7377874], [140.5843615, 41.7377463], [140.5841001, 41.7377091], [140.5838273, 41.737682], [140.5837178, 41.7376817], [140.5837047, 41.7376817], [140.5835477, 41.7376777], [140.583336, 41.73768], [140.5830915, 41.7376981], [140.5826651, 41.7377574], [140.5818892, 41.7378743], [140.581681, 41.7379102], [140.5815447, 41.7379204], [140.5813656, 41.7379242], [140.5812322, 41.7379174], [140.5810346, 41.737893], [140.5808752, 41.7378598], [140.5806734, 41.7378081], [140.5805364, 41.7377547], [140.5803121, 41.7376569], [140.5801739, 41.737571], [140.5799327, 41.7374069], [140.5798236, 41.7372955], [140.5796908, 41.7371535], [140.5796063, 41.7370116], [140.5795023, 41.7368156], [140.5794779, 41.736714], [140.5794268, 41.736518], [140.5794095, 41.7363971], [140.5793187, 41.7359211], [140.5790103, 41.734163], [140.5788264, 41.7334671], [140.5787961, 41.7333813], [140.5786943, 41.7331494], [140.578591, 41.7329409], [140.5782959, 41.7325672], [140.5780068, 41.7322941], [140.577715, 41.7320729], [140.5771679, 41.7317689], [140.5768785, 41.7316522], [140.5764587, 41.7315279], [140.5756064, 41.73136], [140.5734631, 41.7309504], [140.5725837, 41.7307823], [140.5723702, 41.7307418], [140.57228, 41.7307247], [140.5708688, 41.7304568], [140.5679792, 41.7299074], [140.5673924, 41.7297813], [140.5668908, 41.729648], [140.5662892, 41.7294663], [140.5657912, 41.7292799], [140.5653327, 41.7290764], [140.5642357, 41.7286326], [140.5637048, 41.7284941], [140.5628614, 41.7283389], [140.5622724, 41.7282163], [140.5619, 41.7280998], [140.5615812, 41.7279667], [140.5612902, 41.7278064], [140.5609591, 41.7275746], [140.5606737, 41.7272786], [140.560491, 41.7270563], [140.560356, 41.7267975], [140.5600961, 41.7262791], [140.5597417, 41.7255087], [140.5594298, 41.7249637], [140.5592218, 41.7247124], [140.5589013, 41.7243935], [140.5584651, 41.7240486], [140.5578452, 41.7237292], [140.5564254, 41.723192], [140.5553652, 41.7227604], [140.5550383, 41.7225076], [140.5537653, 41.721523], [140.5527436, 41.7209619], [140.5522135, 41.7208612], [140.551828, 41.7208828], [140.550016, 41.7211993], [140.5496498, 41.7211849], [140.5492543, 41.7210908], [140.5490763, 41.7210485], [140.5488629, 41.7209591], [140.5487578, 41.720915], [140.5485892, 41.7208128], [140.5483254, 41.7206529], [140.5478667, 41.7202785], [140.5475049, 41.7196897], [140.5472788, 41.7193217], [140.5469574, 41.7189261], [140.546421, 41.718516], [140.5426814, 41.7160699], [140.54112, 41.7155087], [140.5408247, 41.7154157], [140.5406093, 41.7153034], [140.5404192, 41.7151415], [140.5393097, 41.7137219], [140.5391121, 41.7133992], [140.5385851, 41.7124798], [140.5383016, 41.7120829], [140.538075, 41.7118371], [140.5377373, 41.711582], [140.5365785, 41.7110134], [140.5363032, 41.7108704], [140.5358108, 41.7106091], [140.5352553, 41.7102967], [140.5348907, 41.7100518], [140.5344916, 41.7097757], [140.5333214, 41.7088071], [140.5324173, 41.7080608], [140.530902, 41.7068365], [140.5280501, 41.7044749], [140.5269265, 41.7035617], [140.5262091, 41.702971], [140.5257487, 41.7026395], [140.5254221, 41.7024533], [140.5250638, 41.7022977], [140.5244117, 41.7021194], [140.5239727, 41.7020445], [140.5234411, 41.7020102], [140.5228929, 41.7020451], [140.5216187, 41.7021768], [140.5187838, 41.7025379], [140.5181929, 41.7025819], [140.5175314, 41.7025563], [140.5170584, 41.702499], [140.5166932, 41.7024086], [140.5163189, 41.7022948], [140.5158822, 41.7021209], [140.5155062, 41.7019205], [140.5149514, 41.7015713], [140.5146908, 41.7013939], [140.514284, 41.7011292], [140.5140113, 41.7009707], [140.5137663, 41.7008549], [140.5133821, 41.7007067], [140.5130458, 41.7006155], [140.5126916, 41.7005488], [140.5122344, 41.7004965], [140.5084012, 41.7000597], [140.5073802, 41.6999345], [140.5066555, 41.6998595], [140.5062093, 41.6998196], [140.5052145, 41.6997943], [140.505131, 41.6997922], [140.5048308, 41.6998015], [140.5039983, 41.6998273], [140.5029263, 41.6999506], [140.5001715, 41.7004856], [140.4986252, 41.7007602], [140.4977064, 41.7008231], [140.4973, 41.7008052], [140.4967337, 41.7007246], [140.4963683, 41.7006363], [140.4959196, 41.7005165], [140.4954591, 41.7003514], [140.494967, 41.7001229], [140.4941729, 41.6996538], [140.4936818, 41.6993485], [140.4931768, 41.6990906], [140.4928986, 41.6989745], [140.4926204, 41.698882], [140.4923217, 41.6988145], [140.4919036, 41.6987489], [140.4914078, 41.6987222], [140.4908799, 41.6987176], [140.489304, 41.6987315], [140.4871799, 41.6987542], [140.4868628, 41.6987663], [140.4863703, 41.6988213], [140.4857221, 41.6989431], [140.485136, 41.6991199], [140.4849765, 41.699182], [140.4844089, 41.6994199], [140.4840963, 41.6995713], [140.4827799, 41.7004183], [140.4825897, 41.7005353], [140.4817774, 41.7010643], [140.4814446, 41.701239], [140.4810648, 41.701391], [140.4809803, 41.7014197], [140.480384, 41.7015703], [140.4799737, 41.7016186], [140.4795017, 41.7016505], [140.479189, 41.7016376], [140.4791038, 41.7016324], [140.4790296, 41.7016245], [140.4787401, 41.7015784], [140.478414, 41.7015073], [140.4781283, 41.701413], [140.4778386, 41.7012985], [140.4775283, 41.701157], [140.4772628, 41.7009863], [140.4759301, 41.6997967], [140.4755929, 41.6994698], [140.4752409, 41.6991784], [140.4747537, 41.6988355], [140.4743916, 41.69863], [140.4739007, 41.6984212], [140.4734274, 41.698251], [140.4728689, 41.6981011], [140.4723519, 41.6980051], [140.4723111, 41.6979975], [140.4717261, 41.6979537], [140.4712851, 41.6979225], [140.4708453, 41.6978914], [140.4690096, 41.6977617], [140.4680352, 41.6977162], [140.4672919, 41.6977381], [140.466746, 41.6977492], [140.465693, 41.6977865], [140.4651719, 41.6978047], [140.4642146, 41.6978374], [140.4637167, 41.6978594], [140.4626929, 41.697899], [140.4624325, 41.6979002], [140.462279, 41.6979008], [140.4619819, 41.6978787], [140.461448, 41.6978236], [140.4608387, 41.6977215], [140.460186, 41.6975263], [140.4595475, 41.6972801], [140.4588043, 41.6969677], [140.4582577, 41.6967589], [140.4571147, 41.6962779], [140.4565972, 41.696064], [140.4560993, 41.6958355], [140.4552343, 41.6953547], [140.4549555, 41.6951856], [140.4548465, 41.6951217], [140.454222, 41.6947173], [140.4534977, 41.6941619], [140.4527539, 41.693475], [140.4515748, 41.6923862], [140.4508207, 41.6916898], [140.4499905, 41.6909265], [140.4484223, 41.6894522], [140.4479913, 41.6890028], [140.4476469, 41.6886059], [140.4473908, 41.6883107], [140.4467569, 41.6875404], [140.4463491, 41.6870732], [140.4460106, 41.6867623], [140.4455734, 41.6862944], [140.4446584, 41.6854301], [140.4440174, 41.6848217], [140.4438368, 41.6846304], [140.4435734, 41.684379], [140.4430628, 41.6838799], [140.442189, 41.6828912], [140.4419224, 41.6825776], [140.4417481, 41.6823209], [140.4416701, 41.6822063], [140.4414924, 41.6817888], [140.4412272, 41.6809124], [140.4411211, 41.6805354], [140.440962, 41.68007], [140.4407416, 41.6793923], [140.4405916, 41.6789964], [140.4405448, 41.6788925], [140.4393575, 41.6765928], [140.4390596, 41.6760114], [140.43833, 41.674752], [140.4372762, 41.6730369], [140.4367022, 41.6720778], [140.4364835, 41.6716659], [140.4362357, 41.6711689], [140.4360625, 41.6706838], [140.435944, 41.6700667], [140.4356977, 41.6683324], [140.4353883, 41.6672266], [140.4349734, 41.6663234], [140.4343132, 41.6652117], [140.4331948, 41.6634234], [140.4321386, 41.6616321], [140.4320317, 41.661403], [140.4319443, 41.6610755], [140.4319132, 41.6608335], [140.4319197, 41.6606483], [140.4319269, 41.6604444], [140.4319564, 41.660243], [140.4319918, 41.6600014], [140.432086, 41.6596116], [140.4321868, 41.6590983], [140.4322185, 41.6589687], [140.4322867, 41.6586894], [140.4326911, 41.6570341], [140.4327836, 41.6564724], [140.4327634, 41.6558549], [140.4326181, 41.6543804], [140.4324143, 41.6522687], [140.4322872, 41.6501984], [140.4321132, 41.647722], [140.4318443, 41.6441636], [140.431647, 41.6426595], [140.4314593, 41.6414307], [140.4312511, 41.6400231], [140.4311025, 41.6390783], [140.4309887, 41.6382726], [140.4308712, 41.63761], [140.4308019, 41.637219], [140.4305087, 41.6359383], [140.4304497, 41.6356295], [140.4304207, 41.6355002], [140.4303835, 41.6352981], [140.430353, 41.6351324], [140.4303389, 41.634925], [140.4303454, 41.6347091], [140.4303711, 41.6341995], [140.4303951, 41.633411], [140.4304151, 41.6329737], [140.4304455, 41.6323278], [140.4304495, 41.6321002], [140.4304513, 41.6312543], [140.4303975, 41.6302132], [140.4302604, 41.628939], [140.4301346, 41.6280906], [140.4299002, 41.6266302], [140.4298413, 41.6262256], [140.4298367, 41.6261869], [140.4297816, 41.6258427], [140.4297489, 41.6256059], [140.4297009, 41.6252318], [140.429661, 41.6247787], [140.429649, 41.6245599], [140.4296087, 41.624105], [140.4295104, 41.6226547], [140.4293895, 41.6207859], [140.4293092, 41.6199513], [140.4291845, 41.6189262], [140.4290828, 41.6180508], [140.4289958, 41.6173156], [140.4289058, 41.6165034], [140.4286459, 41.6149627], [140.4284067, 41.6137532], [140.4281888, 41.6127653], [140.4281807, 41.6127254], [140.428007, 41.6118732], [140.4278224, 41.6109707], [140.4277256, 41.6105374], [140.4275565, 41.6098198], [140.4275073, 41.6095569], [140.4274007, 41.608987], [140.427333, 41.6086251], [140.4269899, 41.6070948], [140.4268055, 41.6065713], [140.4265811, 41.606148], [140.4263367, 41.6057562], [140.4259033, 41.605288], [140.425472, 41.6048376], [140.4250707, 41.6043955], [140.4244665, 41.6037876], [140.4244206, 41.6037415], [140.4243748, 41.6036954], [140.4239808, 41.6032737], [140.4232718, 41.6025595], [140.4230517, 41.6023378], [140.4222508, 41.6016826], [140.4215938, 41.6012857], [140.4214579, 41.6012066], [140.4209351, 41.6009014], [140.4201217, 41.6004117], [140.4195474, 41.6000635], [140.4193488, 41.5999217], [140.4191839, 41.5998013], [140.4190908, 41.5996984], [140.4188802, 41.5994655], [140.4186326, 41.5991084], [140.4184883, 41.5988168], [140.418338, 41.5985132], [140.4181591, 41.5981467], [140.4180877, 41.5980258], [140.4173055, 41.5962894], [140.417234, 41.5961278], [140.4171979, 41.596046], [140.4171456, 41.5959412], [140.4169086, 41.5954654], [140.416761, 41.5952225], [140.4165866, 41.5949916], [140.4163898, 41.5947887], [140.4163176, 41.5947178], [140.4159954, 41.5944554], [140.4158147, 41.5943445], [140.4157809, 41.594331], [140.415564, 41.5942029], [140.4152364, 41.594049], [140.4148366, 41.593916], [140.4145316, 41.5938422], [140.4142308, 41.5937865], [140.4141225, 41.5937609], [140.4139103, 41.5937338], [140.413639, 41.5937263], [140.4132501, 41.5937407], [140.4130661, 41.5937438], [140.4128, 41.5937812], [140.4117269, 41.594014], [140.4107279, 41.5942391], [140.4106516, 41.5942509], [140.410383, 41.594312], [140.4095729, 41.5944872], [140.4078693, 41.5948707], [140.407318, 41.594931], [140.4068988, 41.5949489], [140.4066173, 41.5949471], [140.4063633, 41.5949248], [140.4060076, 41.5948872], [140.4037955, 41.5945013], [140.3975372, 41.5932818], [140.3972403, 41.5932512], [140.3969187, 41.5932626], [140.3965842, 41.5932994], [140.3962167, 41.5933687], [140.3958606, 41.593478], [140.3956574, 41.5935453], [140.3916196, 41.5954178], [140.3912819, 41.595577], [140.3910024, 41.5957087], [140.3904845, 41.5959301], [140.389376, 41.5964038], [140.3892859, 41.5964309], [140.3887902, 41.5965776], [140.3883298, 41.5966759], [140.3879223, 41.5967376], [140.3875606, 41.5967925], [140.3854076, 41.5970888], [140.3842312, 41.5972606], [140.3829205, 41.5974495], [140.3796526, 41.5979143], [140.376103, 41.5984234], [140.3759172, 41.5984489], [140.3755028, 41.5985056], [140.3751133, 41.5985611], [140.3740635, 41.5987169], [140.3735735, 41.5988015], [140.3730724, 41.5989089], [140.3724765, 41.5990573], [140.3718418, 41.5992642], [140.3714445, 41.5993937], [140.3712477, 41.5994639], [140.3710986, 41.5995193], [140.370357, 41.5997945], [140.3683948, 41.6004733], [140.3680597, 41.6005624], [140.3677533, 41.6006185], [140.3673704, 41.600687], [140.3655786, 41.6008905], [140.3622565, 41.6012513], [140.3593114, 41.6015772], [140.3579657, 41.6016076], [140.3569132, 41.6014987], [140.3566277, 41.601466], [140.3565496, 41.6014544], [140.3564071, 41.6014425], [140.3551316, 41.6013024], [140.3538833, 41.6011949], [140.3523652, 41.6010441], [140.3515462, 41.6010208], [140.3507093, 41.6010229], [140.3488964, 41.6010991], [140.3470193, 41.6011446], [140.344526, 41.6012135], [140.3441136, 41.6012197], [140.3422787, 41.6012301], [140.3400061, 41.6012254], [140.3389168, 41.6012159], [140.3381866, 41.6011687], [140.3373512, 41.6010739], [140.337185, 41.6010571], [140.3364154, 41.6009217], [140.3359182, 41.6008051], [140.3350023, 41.6005604], [140.3339047, 41.6002302], [140.3330821, 41.600008], [140.3324309, 41.5998092], [140.3320457, 41.5997094], [140.3315448, 41.5995546], [140.3313355, 41.5994924], [140.3304048, 41.5992116], [140.3294473, 41.5989247], [140.3279855, 41.5984855], [140.3275456, 41.5983571], [140.3249277, 41.5975889], [140.3247993, 41.5975503], [140.324166, 41.5973602], [140.3234769, 41.5971619], [140.3229025, 41.596987], [140.3221048, 41.596786], [140.3214974, 41.5966862], [140.3208374, 41.5966201], [140.3204002, 41.59661], [140.3199513, 41.596616], [140.3194855, 41.5966542], [140.3187965, 41.596742], [140.31819, 41.5968768], [140.317619, 41.5970489], [140.3169723, 41.597298], [140.315617, 41.5979153], [140.3151042, 41.5981407], [140.3150578, 41.5981602], [140.3142475, 41.5985172], [140.31384, 41.5986953], [140.3130938, 41.599023], [140.3126486, 41.5991935], [140.3121926, 41.5993139], [140.3116803, 41.5993921], [140.3110956, 41.5994262], [140.3106745, 41.5994121], [140.3101649, 41.599376], [140.3094702, 41.5993199], [140.3085019, 41.5992477], [140.3076329, 41.5991735], [140.3070776, 41.5990832], [140.306619, 41.5989729], [140.3063561, 41.5988886], [140.306112, 41.5987944], [140.3056483, 41.5985874], [140.3053905, 41.5984474], [140.3051116, 41.5982709], [140.3048112, 41.5980442], [140.3042345, 41.5975267], [140.303808, 41.5971536], [140.3030671, 41.5964999], [140.3023619, 41.5958968], [140.3021156, 41.5956891], [140.3018393, 41.5954567], [140.3015764, 41.595224], [140.3012729, 41.5949571], [140.3010805, 41.5947668], [140.3006645, 41.5943856], [140.3000905, 41.593858], [140.2998223, 41.5935692], [140.2995433, 41.5932201], [140.2993207, 41.5929213], [140.2991061, 41.5926083], [140.2988889, 41.5922392], [140.2986367, 41.5917979], [140.2984302, 41.5914388], [140.2982129, 41.5911058], [140.2980037, 41.5907788], [140.2976926, 41.5903495], [140.2973305, 41.5899142], [140.2968933, 41.5894227], [140.2966573, 41.5891539], [140.2959734, 41.5884458], [140.2955952, 41.5880305], [140.2952761, 41.5876614], [140.2950373, 41.5873484], [140.2948603, 41.5870916], [140.2946538, 41.5867305], [140.294466, 41.5863614], [140.2942971, 41.5859662], [140.2941817, 41.5856753], [140.2940449, 41.5853804], [140.2938599, 41.5849791], [140.2937123, 41.5846802], [140.2935621, 41.5843592], [140.2934048, 41.58405], [140.2931383, 41.5835607], [140.2928701, 41.5830692], [140.2925912, 41.5825255], [140.2923524, 41.5820018], [140.2921511, 41.5814604], [140.292044, 41.581099], [140.2919528, 41.5807539], [140.291875, 41.5803366], [140.2913869, 41.5775116], [140.2911803, 41.5763558], [140.2910569, 41.5757659], [140.2909309, 41.5753285], [140.2907458, 41.5748509], [140.2905098, 41.5744015], [140.2901772, 41.5738356], [140.2898339, 41.5733641], [140.2894369, 41.5728323], [140.2889273, 41.5721561], [140.2882004, 41.571207], [140.2879848, 41.5708923], [140.2875218, 41.5702478], [140.286988, 41.5697281], [140.2865964, 41.5694772], [140.2861808, 41.569272], [140.2856578, 41.5690613], [140.2852312, 41.5688511], [140.2848396, 41.5685903], [140.2842469, 41.5681563], [140.2838311, 41.5678759], [140.2832572, 41.56746], [140.2827743, 41.5671273], [140.2821118, 41.5666457], [140.2818301, 41.5664531], [140.2815217, 41.5662403], [140.2810577, 41.5658932], [140.2807412, 41.5656624], [140.2790138, 41.5644723], [140.2787134, 41.5642676], [140.2784345, 41.5640128], [140.2782655, 41.5638181], [140.278059, 41.5635211], [140.2778149, 41.5631277], [140.277552, 41.5627003], [140.2773589, 41.5624313], [140.2770826, 41.5620982], [140.2768144, 41.5618333], [140.2765389, 41.5614195], [140.2758872, 41.5609239], [140.2754045, 41.5605748], [140.2748045, 41.5601629], [140.2741932, 41.559737], [140.2738581, 41.5595436], [140.2733505, 41.5592887], [140.273034, 41.5591525], [140.2727403, 41.5590286], [140.2721729, 41.5587616], [140.2716853, 41.5584769], [140.2714433, 41.5583155], [140.2711118, 41.5580537], [140.270858, 41.5577969], [140.2706423, 41.5575279], [140.2703912, 41.5571135], [140.2701922, 41.5568086], [140.2699531, 41.5564674], [140.2696478, 41.5559832], [140.269348, 41.5555031], [140.268716, 41.5544646], [140.2683993, 41.5540032], [140.2682163, 41.5537212], [140.2679659, 41.5534835], [140.2676915, 41.553282], [140.2674789, 41.5530908], [140.2667323, 41.5527314], [140.2664288, 41.5525284], [140.2660909, 41.5523076], [140.266025, 41.5522602], [140.2649783, 41.5515076], [140.2647283, 41.551296], [140.2645812, 41.5511456], [140.2644767, 41.5510012], [140.2643635, 41.5508142], [140.2642348, 41.5505232], [140.2641762, 41.5501942], [140.264106, 41.5497002], [140.2640072, 41.5490019], [140.2639455, 41.5484559], [140.2638753, 41.5479237], [140.2637761, 41.5473115], [140.2636504, 41.5466894], [140.2635378, 41.5461554], [140.2634412, 41.5459165], [140.2632558, 41.5456473], [140.2629768, 41.5453803], [140.2626174, 41.5451555], [140.2612682, 41.5444027], [140.2604103, 41.5439171], [140.2600321, 41.5436621], [140.2597478, 41.5434413], [140.259329, 41.5430777], [140.2585136, 41.5423329], [140.2581734, 41.542032], [140.2579316, 41.5417989], [140.2576235, 41.5414599], [140.2574143, 41.5411567], [140.2572691, 41.5408995], [140.2571005, 41.5405243], [140.25702, 41.5402714], [140.256966, 41.5399218], [140.2569445, 41.5396669], [140.2569552, 41.5393416], [140.2569928, 41.5390525], [140.2570733, 41.5387012], [140.2574032, 41.5372637], [140.2576151, 41.536302], [140.2578001, 41.5355029], [140.2579069, 41.535062], [140.2579718, 41.5347942], [140.258063, 41.5344308], [140.2581469, 41.534241], [140.2582694, 41.5340141], [140.2586344, 41.5335453], [140.2590059, 41.533041], [140.2592312, 41.5326556], [140.259399, 41.5322798], [140.2594887, 41.53189], [140.2594963, 41.5314952], [140.2594577, 41.5311467], [140.2593961, 41.5307363], [140.259329, 41.5303247], [140.259093, 41.5299472], [140.2588761, 41.5297406], [140.2584604, 41.5295217], [140.2580174, 41.529389], [140.2574814, 41.5292808], [140.2569664, 41.5291924], [140.2565587, 41.529086], [140.2561054, 41.5288993], [140.2557429, 41.5286581], [140.2553754, 41.5284011], [140.254847, 41.5280256], [140.2545198, 41.5277947], [140.2541822, 41.5276102], [140.2538148, 41.5274355], [140.2533078, 41.5272387], [140.2528385, 41.5270218], [140.2525028, 41.5268228], [140.2521809, 41.5265899], [140.2517468, 41.5262487], [140.251264, 41.5258772], [140.2508264, 41.5255176], [140.2505314, 41.5252445], [140.2502769, 41.5249475], [140.2499578, 41.5245921], [140.2496118, 41.5242226], [140.2492658, 41.5238712], [140.2488607, 41.5235017], [140.2485201, 41.5231944], [140.2482358, 41.5228912], [140.2480266, 41.5226161], [140.2478308, 41.5223189], [140.2475894, 41.5219152], [140.2473422, 41.5216038], [140.2470445, 41.5213306], [140.2467284, 41.5210698], [140.2463295, 41.5207741], [140.2460289, 41.5205284], [140.2456727, 41.5202583], [140.2452999, 41.519969], [140.2449096, 41.5196535], [140.244593, 41.5193842], [140.244283, 41.5191358], [140.2439775, 41.5188126], [140.2436634, 41.5183975], [140.2435331, 41.518119], [140.2434298, 41.5178159], [140.2433021, 41.5174243], [140.2428858, 41.5161682], [140.2425978, 41.5153502], [140.2419194, 41.5132045], [140.2418331, 41.5127269], [140.2418421, 41.5121036], [140.2419376, 41.51168], [140.2421156, 41.5112449], [140.2422308, 41.510996], [140.2427596, 41.5098929], [140.2430075, 41.509467], [140.2430824, 41.5093384], [140.2433101, 41.5089666], [140.2436341, 41.5084565], [140.2439268, 41.5079771], [140.2443444, 41.5070983], [140.244596, 41.5066606], [140.2449362, 41.5060897], [140.2451365, 41.5057956], [140.2453604, 41.5055232], [140.2455149, 41.5053765], [140.2459335, 41.5049906], [140.2463071, 41.504623], [140.2466552, 41.504295], [140.2467576, 41.5041973], [140.247027, 41.5039055], [140.2472828, 41.5035614], [140.247463, 41.5032671], [140.2477715, 41.502745], [140.2480037, 41.5023341], [140.2482523, 41.5018901], [140.248431, 41.501486], [140.2485509, 41.5009893], [140.2486815, 41.5003733], [140.2487938, 41.5000135], [140.2489448, 41.4996914], [140.2492287, 41.4992744], [140.250213, 41.4979778], [140.2502927, 41.4978697], [140.2506495, 41.497402], [140.2506878, 41.4973524], [140.2509571, 41.4969964], [140.2512078, 41.4966528], [140.2513928, 41.4963578], [140.2515434, 41.4960414], [140.2516584, 41.4956468], [140.2517174, 41.4952433], [140.2517318, 41.4951001], [140.25187, 41.4937312], [140.2519152, 41.4933968], [140.2519324, 41.4932457], [140.2520013, 41.492647], [140.2521155, 41.491697], [140.2521425, 41.4914798], [140.2521748, 41.4911557], [140.252183, 41.491073], [140.2522354, 41.4906973], [140.2522322, 41.4904603], [140.2522152, 41.4901677], [140.2521246, 41.4893253], [140.252037, 41.4886419], [140.2520288, 41.4883918], [140.2520397, 41.4880654], [140.252103, 41.4877199], [140.2522194, 41.4873733], [140.2523178, 41.4871929], [140.2523975, 41.4870469], [140.2525953, 41.4867404], [140.2529075, 41.4862629], [140.2531381, 41.4859563], [140.2533286, 41.4857716], [140.2534299, 41.4856843], [140.2536942, 41.4853772], [140.2539942, 41.4850778], [140.2542288, 41.4848756], [140.2545397, 41.4845326], [140.2547666, 41.4842336], [140.254856, 41.4840642], [140.2549869, 41.4837685], [140.2550389, 41.4835968], [140.2551011, 41.4833781], [140.2551108, 41.4833206], [140.255413, 41.4822007], [140.2555336, 41.481759], [140.2557109, 41.4810901], [140.2559159, 41.4805026], [140.2560474, 41.4800135], [140.2560818, 41.47985], [140.2561081, 41.4796864], [140.2561159, 41.4795449], [140.25612, 41.4794733], [140.256117, 41.4793158], [140.2560939, 41.4790342], [140.2560609, 41.4786224], [140.2560063, 41.4780363], [140.255941, 41.4774804], [140.2559395, 41.4770015], [140.2559655, 41.4768448], [140.2560157, 41.476688], [140.2560789, 41.476549], [140.2561862, 41.4763667], [140.2563238, 41.4761709], [140.256426, 41.4760118], [140.2565121, 41.4758526], [140.2565874, 41.4756588], [140.2566246, 41.4754991], [140.2566405, 41.4753536], [140.2566347, 41.4751358], [140.2565623, 41.4746916], [140.2563395, 41.4735999], [140.2562985, 41.4734285], [140.2562813, 41.4733042], [140.2562357, 41.4730267], [140.2561997, 41.4726387], [140.2561971, 41.472466], [140.2562038, 41.4723677], [140.256223, 41.4720911], [140.256282, 41.4716912], [140.2563348, 41.4714077], [140.2563651, 41.471245], [140.2564456, 41.4708204], [140.2564992, 41.4704974], [140.2565836, 41.4700589], [140.2566575, 41.4695648], [140.2566769, 41.4693867], [140.2567013, 41.4691629], [140.2566703, 41.4687559], [140.2565759, 41.4683382], [140.2564453, 41.4677893], [140.256416, 41.4676699], [140.2563276, 41.4673882], [140.2561934, 41.4670382], [140.2560695, 41.4668232], [140.2559467, 41.4666433], [140.2557546, 41.4664184], [140.2555492, 41.4662319], [140.2553258, 41.4660688], [140.2549841, 41.4658744], [140.2546448, 41.4657046], [140.2542418, 41.4655504], [140.2538331, 41.4654266], [140.2531306, 41.4652001], [140.2525277, 41.4650338], [140.2522095, 41.4649832], [140.2519619, 41.4649665], [140.2517397, 41.4649678], [140.2509145, 41.4650833], [140.2501922, 41.4652143], [140.249965, 41.4652555], [140.2494468, 41.4653168], [140.2494015, 41.4653184], [140.249036, 41.4653309], [140.2486417, 41.465308], [140.2483999, 41.4652702], [140.2482949, 41.4652507], [140.2479859, 41.4651793], [140.2477569, 41.4650864], [140.2474975, 41.4649667], [140.2472018, 41.464789], [140.246926, 41.4645802], [140.2467711, 41.4644179], [140.2466851, 41.4643385], [140.2460923, 41.4637261], [140.2459286, 41.463499], [140.2458568, 41.4633525], [140.2456693, 41.4629552], [140.2456228, 41.4628258], [140.2455849, 41.4625369], [140.245576, 41.462399], [140.2455755, 41.4622008], [140.2455987, 41.4619432], [140.2456805, 41.461554], [140.2457466, 41.4612985], [140.2458556, 41.4608985], [140.246066, 41.4601682], [140.2461478, 41.4598028], [140.2461513, 41.4595888], [140.2461422, 41.4594495], [140.2460511, 41.4592034], [140.2458626, 41.4589172], [140.2456928, 41.4587681], [140.2455122, 41.4586274], [140.2452622, 41.4584481], [140.2444327, 41.4579448], [140.2441831, 41.4577331], [140.2441291, 41.4576818], [140.2440221, 41.4575413], [140.2439476, 41.4574079], [140.243882, 41.4572653], [140.2438414, 41.4571357], [140.243816, 41.4569839], [140.2438189, 41.4568288], [140.2438369, 41.4567047], [140.2438654, 41.4566054], [140.2439786, 41.4563589], [140.2441196, 41.4560036], [140.2441533, 41.4557781], [140.2441425, 41.455561], [140.2440791, 41.4553297], [140.2439235, 41.4550342], [140.2437197, 41.4546422], [140.2436194, 41.4544261], [140.2435882, 41.4543588], [140.24337, 41.4538322], [140.2433046, 41.4537181], [140.2432074, 41.4535486], [140.2429275, 41.4531869], [140.2428726, 41.4531095], [140.242504, 41.4526287], [140.2424698, 41.4525837], [140.2422087, 41.4523144], [140.2418975, 41.452049], [140.2414657, 41.4517756], [140.2403631, 41.4510801], [140.2394672, 41.4505192], [140.2392258, 41.4503443], [140.2389725, 41.4500909], [140.2387844, 41.4498154], [140.2386718, 41.4495762], [140.2386199, 41.4493953], [140.2385796, 41.449142], [140.2385689, 41.4487459], [140.2385287, 41.4484926], [140.2384536, 41.4483016], [140.2383311, 41.4480844], [140.2381565, 41.4478559], [140.2380593, 41.4477287], [140.2378071, 41.4474914], [140.2374969, 41.4472903], [140.2373652, 41.4472162], [140.2371822, 41.4471134], [140.2369271, 41.446971], [140.2365285, 41.4467233], [140.2362917, 41.4465093], [140.2361482, 41.4462577], [140.2361308, 41.4460137], [140.2361332, 41.4457129], [140.2361343, 41.4456155], [140.2361464, 41.4454345], [140.2361636, 41.4452798], [140.2361678, 41.4452467], [140.2362039, 41.4449178], [140.2362319, 41.4446245], [140.2362511, 41.4444136], [140.2362959, 41.443896], [140.2363446, 41.4432547], [140.23636, 41.4430521], [140.2364183, 41.4425735], [140.2364618, 41.4422166], [140.236474, 41.4420308], [140.2364686, 41.4418619], [140.2364578, 41.441805], [140.2364351, 41.4416848], [140.2363774, 41.4415301], [140.2362742, 41.441343], [140.2361401, 41.4411842], [140.2359995, 41.441051], [140.2356948, 41.4408524], [140.2354105, 41.4407338], [140.2352631, 41.4406868], [140.234874, 41.4405629], [140.2345549, 41.4404302], [140.2341619, 41.4402171], [140.2338092, 41.4399778], [140.2337252, 41.4399006], [140.2334873, 41.4396822], [140.2331843, 41.4393585], [140.2329268, 41.4391192], [140.2327231, 41.4389602], [140.2324834, 41.4387732], [140.2320886, 41.438496], [140.2318217, 41.4383048], [140.2314408, 41.4380434], [140.2311324, 41.4378263], [140.2308749, 41.4376171], [140.230663, 41.437402], [140.2304989, 41.4371998], [140.2304377, 41.4371245], [140.2302794, 41.436839], [140.2301118, 41.4364912], [140.2298718, 41.4360202], [140.2298167, 41.4359121], [140.2296692, 41.4356446], [140.2295338, 41.4354394], [140.2293044, 41.4351319], [140.2290789, 41.4348928], [140.2290349, 41.4348462], [140.2288458, 41.4346533], [140.2286389, 41.4344419], [140.2284837, 41.4342833], [140.2279757, 41.4337773], [140.2279043, 41.4337061], [140.2272995, 41.4331088], [140.2267737, 41.4326312], [140.2265713, 41.4324473], [140.2264365, 41.4323281], [140.2260295, 41.4319828], [140.2255762, 41.4315866], [140.2252503, 41.431315], [140.2251708, 41.4312439], [140.2249579, 41.4310536], [140.2245878, 41.4307399], [140.2243008, 41.4305529], [140.2238509, 41.430328], [140.2237871, 41.4303076], [140.2234438, 41.4301427], [140.2232695, 41.4300261], [140.2232045, 41.4299678], [140.2230629, 41.4298411], [140.2229449, 41.4296822], [140.2228154, 41.4294524], [140.2227599, 41.4292398], [140.2227384, 41.4290145], [140.2227706, 41.4287973], [140.2228162, 41.4285117], [140.2228054, 41.4283086], [140.2227357, 41.4279748], [140.2226123, 41.4276832], [140.2223522, 41.4271905], [140.222092, 41.4267802], [140.2219042, 41.4265248], [140.2215636, 41.4261547], [140.2212793, 41.4258832], [140.2209601, 41.4256037], [140.2207857, 41.4254106], [140.2207577, 41.4253619], [140.220681, 41.4252386], [140.2205873, 41.4249883], [140.2205551, 41.4247912], [140.2205739, 41.4245398], [140.2206114, 41.4241958], [140.2206168, 41.4240209], [140.2205671, 41.4237493], [140.2204371, 41.4232868], [140.2202734, 41.4227136], [140.2201876, 41.4224984], [140.2200562, 41.4222309], [140.2199579, 41.4220017], [140.2199248, 41.4218588], [140.2199167, 41.4216235], [140.2199435, 41.4213781], [140.2200025, 41.4209477], [140.2200079, 41.4207626], [140.2199757, 41.4205937], [140.2198657, 41.4204106], [140.2196901, 41.4202255], [140.2195144, 41.4200868], [140.2190799, 41.419769], [140.2190356, 41.4197428], [140.2184871, 41.4194452], [140.2182296, 41.4193004], [140.2178206, 41.4190911], [140.2176489, 41.4189905], [140.217479, 41.4188484], [140.2173793, 41.418697], [140.2172291, 41.4183007], [140.2170588, 41.4180633], [140.2168429, 41.417822], [140.2166766, 41.4175907], [140.2165371, 41.4173413], [140.2164513, 41.4170778], [140.216403, 41.4168264], [140.2163816, 41.4163316], [140.216395, 41.416064], [140.2164593, 41.4157563], [140.2165425, 41.415541], [140.2166981, 41.4152333], [140.2167544, 41.4150382], [140.2167624, 41.414829], [140.2167624, 41.414658], [140.2167383, 41.4142497], [140.2167034, 41.4138715], [140.2166204, 41.4134381], [140.2164647, 41.4128747], [140.216304, 41.4123506], [140.2161092, 41.4118201], [140.2160455, 41.4116385], [140.2159761, 41.4114853], [140.2158302, 41.4110929], [140.2156371, 41.4106462], [140.2153244, 41.4102033], [140.2149455, 41.4098223], [140.214539, 41.4095715], [140.2142535, 41.4094346], [140.2138147, 41.409271], [140.2136445, 41.4092266], [140.2133909, 41.4091603], [140.2121195, 41.4088988], [140.2116381, 41.4087861], [140.2102903, 41.4082833], [140.2098664, 41.4080902], [140.2095554, 41.4079091], [140.2092683, 41.407734], [140.2088915, 41.4074725], [140.2086649, 41.4072774], [140.2083778, 41.4070782], [140.2080131, 41.4068388], [140.2078146, 41.40669], [140.2076731, 41.4065916], [140.2074954, 41.4064771], [140.207144, 41.406282], [140.2068162, 41.4061473], [140.2066934, 41.4060969], [140.2054906, 41.405491], [140.2051153, 41.4052934], [140.2046654, 41.4050532], [140.2044147, 41.4048693], [140.2036774, 41.4043085], [140.2035179, 41.4041404], [140.2025333, 41.4031979], [140.2023026, 41.4029363], [140.2021149, 41.4026969], [140.2019164, 41.402367], [140.2018051, 41.4020953], [140.2017078, 41.4014803], [140.2015482, 41.4009171], [140.2013937, 41.4005764], [140.2012036, 41.4003299], [140.2010253, 41.4001699], [140.2006536, 41.3998791], [140.200444, 41.399712], [140.2002337, 41.3995109], [140.2000744, 41.3992889], [140.1999475, 41.398979], [140.1998772, 41.3988628], [140.1998504, 41.3988186], [140.1997745, 41.3987085], [140.1996456, 41.3985842], [140.199551, 41.3985156], [140.199389, 41.3984076], [140.1991358, 41.3983028], [140.1988457, 41.3982131], [140.198205, 41.3980246], [140.1980307, 41.3979768], [140.1975542, 41.3978369], [140.1973887, 41.397813], [140.1972459, 41.3978145], [140.1970664, 41.3978393], [140.1969193, 41.3978731], [140.1967826, 41.3979204], [140.1963776, 41.3980308], [140.1959646, 41.3981173], [140.1955609, 41.3981776], [140.194657, 41.3982802], [140.1942708, 41.3983607], [140.1940602, 41.3984574], [140.1937705, 41.3986485], [140.1933816, 41.3989704], [140.1930758, 41.3991897], [140.1925407, 41.3994914], [140.1920164, 41.3997229], [140.1915684, 41.3999], [140.189758, 41.4005961], [140.1881205, 41.4012398], [140.1877128, 41.4013867], [140.1869242, 41.4016442], [140.1861303, 41.4018897], [140.1854865, 41.4020808], [140.1850963, 41.4021674], [140.1848787, 41.4022147], [140.1846068, 41.4022739], [140.1840569, 41.4024228], [140.183954, 41.4024626], [140.1837172, 41.4025666], [140.183318, 41.4027707], [140.1827279, 41.403123], [140.1820251, 41.4035717], [140.1815893, 41.4039096], [140.1813452, 41.4041872], [140.1811025, 41.4045535], [140.1808986, 41.4048432], [140.1806679, 41.4050745], [140.1802468, 41.4053964], [140.1798311, 41.4057042], [140.1795119, 41.4059939], [140.1793054, 41.4062715], [140.1790238, 41.4067604], [140.178789, 41.4071264], [140.1787072, 41.407224], [140.1786254, 41.4073135], [140.1785182, 41.4074131], [140.1784055, 41.4075087], [140.177859, 41.4079352], [140.1775324, 41.4081605], [140.1772374, 41.4083858], [140.1763067, 41.4090839], [140.175781, 41.4095023], [140.1754752, 41.4097498], [140.1753092, 41.4099045], [140.175038, 41.410136], [140.1747792, 41.4103652], [140.1746571, 41.4104699], [140.1743742, 41.4107103], [140.1737909, 41.4112062], [140.1735629, 41.4113872], [140.1731552, 41.4117191], [140.1723613, 41.4123508], [140.172144, 41.4125217], [140.1719974, 41.4126624], [140.171849, 41.4128315], [140.1715803, 41.4131917], [140.1711659, 41.4137385], [140.1708056, 41.4142316], [140.1701226, 41.4152934], [140.1700179, 41.4154302], [140.1698651, 41.4155911], [140.1697354, 41.415704], [140.1695647, 41.4158184], [140.1693786, 41.4159252], [140.1691775, 41.4160117], [140.1690385, 41.4160569], [140.1689048, 41.416098], [140.1687403, 41.4161304], [140.1684734, 41.4161779], [140.1682101, 41.4162066], [140.1678159, 41.4162529], [140.1674045, 41.4162994], [140.1670478, 41.4163456], [140.1668127, 41.4164038], [140.1666079, 41.4164925], [140.1664148, 41.4166272], [140.1661814, 41.4168344], [140.1658676, 41.4170939], [140.1657121, 41.4172206], [140.1654868, 41.4173715], [140.1651471, 41.4175322], [140.1645936, 41.417824], [140.164379, 41.4179709], [140.1641359, 41.4181678], [140.1636038, 41.4186386], [140.1634387, 41.418784], [140.1630844, 41.419093], [140.1628394, 41.4193165], [140.162497, 41.4196703], [140.1620374, 41.4201552], [140.1619589, 41.4202181], [140.1618792, 41.4202819], [140.161738, 41.4203622], [140.1615878, 41.4204245], [140.1612954, 41.420511], [140.1608984, 41.4206196], [140.160657, 41.4207121], [140.1604308, 41.4208491], [140.1602752, 41.421012], [140.1601438, 41.4212514], [140.1599999, 41.4215468], [140.159847, 41.421752], [140.159501, 41.4221039], [140.1591836, 41.4223556], [140.1587464, 41.4226432], [140.1581992, 41.4229087], [140.1575581, 41.4232345], [140.1573033, 41.4233934], [140.1570002, 41.4236226], [140.1565899, 41.4239847], [140.1562734, 41.4242662], [140.1559461, 41.4245438], [140.1555358, 41.4248113], [140.1550235, 41.4250908], [140.1545112, 41.4253322], [140.1541929, 41.4254365], [140.154082, 41.4254589], [140.1539435, 41.4254788], [140.1538191, 41.425491], [140.1535509, 41.4254971], [140.1532237, 41.4254749], [140.1529233, 41.4254287], [140.1520247, 41.4252859], [140.1516707, 41.4252758], [140.151339, 41.4252958], [140.151044, 41.425344], [140.1505147, 41.425477], [140.1499336, 41.4256296], [140.1496332, 41.4257402], [140.1493542, 41.425883], [140.1490833, 41.426058], [140.1482733, 41.4267015], [140.1482018, 41.4267627], [140.1479934, 41.426941], [140.1476367, 41.4272286], [140.1471485, 41.4276227], [140.1466737, 41.4280069], [140.1462982, 41.4283146], [140.1460461, 41.4284895], [140.1458465, 41.4285995], [140.1456384, 41.4286967], [140.1453679, 41.4287919], [140.1450975, 41.4288776], [140.1449223, 41.4289139], [140.1446084, 41.4289581], [140.1443063, 41.4289821], [140.1441714, 41.4289818], [140.1438145, 41.4289661], [140.1433278, 41.4288769], [140.143065, 41.4288085], [140.1427542, 41.4286908], [140.1423784, 41.4285375], [140.1417654, 41.4282521], [140.1411857, 41.4279845], [140.140817, 41.4278359], [140.1404841, 41.4277487], [140.1401706, 41.4276878], [140.1398067, 41.4276525], [140.1396304, 41.4276519], [140.1392995, 41.4276762], [140.1391421, 41.4276851], [140.1383964, 41.4277414], [140.1379138, 41.4277696], [140.1377011, 41.4277847], [140.1373048, 41.4278156], [140.1370092, 41.4278551], [140.1368771, 41.4278712], [140.136552, 41.4279263], [140.1357405, 41.4280988], [140.1352586, 41.4282095], [140.1348398, 41.42836], [140.1345656, 41.4285148], [140.1343625, 41.4286578], [140.1341533, 41.4288551], [140.1336174, 41.4294101], [140.1332947, 41.4297415], [140.1330652, 41.4299743], [140.132881, 41.4301589], [140.1326831, 41.4303243], [140.1324972, 41.4304401], [140.1322341, 41.4305793], [140.132018, 41.4306587], [140.1316248, 41.4307652], [140.1307629, 41.4309591], [140.1304222, 41.4310596], [140.1299743, 41.4312366], [140.1296404, 41.4314016], [140.1293957, 41.4314888], [140.1293839, 41.431493], [140.1291797, 41.4315515], [140.1289941, 41.4315839], [140.1287357, 41.431617], [140.1285333, 41.4316229], [140.1284241, 41.4316218], [140.1282139, 41.4316061], [140.1280356, 41.4315856], [140.1278583, 41.4315507], [140.1277305, 41.4315187], [140.1275061, 41.4314469], [140.1273373, 41.4313809], [140.1271779, 41.4313081], [140.1268681, 41.4311155], [140.1265949, 41.4308875], [140.1261996, 41.4305249], [140.1258546, 41.4302242], [140.1256216, 41.4300616], [140.1253551, 41.4299338], [140.1250099, 41.4297985], [140.1243168, 41.4295476], [140.1240777, 41.4294836], [140.1238369, 41.4294356], [140.123634, 41.4294032], [140.1234489, 41.4293997], [140.1232939, 41.4294103], [140.1231425, 41.4294268], [140.1229727, 41.4294558], [140.1227815, 41.4295114], [140.1225927, 41.4295815], [140.1215496, 41.4299953], [140.1212562, 41.4301106], [140.1209753, 41.430221], [140.1207529, 41.430297], [140.1205703, 41.4303557], [140.1203506, 41.4303815], [140.1201653, 41.4303899], [140.1199536, 41.4303654], [140.11979, 41.4303231], [140.1197264, 41.4302981], [140.1196074, 41.4302511], [140.1194467, 41.4301623], [140.1191275, 41.4299451], [140.1183467, 41.4294246], [140.1177459, 41.4290003], [140.117121, 41.4285478], [140.1169549, 41.4284227], [140.1166921, 41.4282658], [140.1163595, 41.428115], [140.1157906, 41.4279445], [140.1150503, 41.4278137], [140.1142681, 41.4276789], [140.1139562, 41.4276484], [140.113567, 41.4276248], [140.1132159, 41.4276183], [140.1130102, 41.4276379], [140.1128431, 41.4276585], [140.1124083, 41.4277495], [140.112014, 41.427858], [140.1115066, 41.4280003], [140.1112569, 41.4280365], [140.1110599, 41.4280429], [140.1108288, 41.4280205], [140.1105656, 41.4279666], [140.1102423, 41.4278566], [140.1100399, 41.4277877], [140.1094546, 41.4275819], [140.109078, 41.427435], [140.1076599, 41.4269339], [140.1073033, 41.4268045], [140.1067276, 41.4265929], [140.1062825, 41.4264347], [140.1058221, 41.4262918], [140.1057895, 41.426283], [140.1056366, 41.4262415], [140.1054317, 41.4261932], [140.1052077, 41.4261552], [140.1048436, 41.4261147], [140.1046469, 41.4261048], [140.1038934, 41.4261097], [140.1023656, 41.4261418], [140.1018306, 41.4261489], [140.1015867, 41.4261439], [140.1013673, 41.4261378], [140.1011258, 41.4261151], [140.1008321, 41.4260642], [140.1004468, 41.4259795], [140.1000874, 41.4258669], [140.0997199, 41.4257503], [140.0993782, 41.4256407], [140.0993193, 41.4256218], [140.0986396, 41.4253941], [140.0978687, 41.425144], [140.0973599, 41.4249752], [140.0969419, 41.424846], [140.0965584, 41.4247583], [140.0960666, 41.4246667], [140.0959893, 41.4246588], [140.0954088, 41.4246053], [140.0947915, 41.4245905], [140.0916365, 41.4246165], [140.0908475, 41.4246213], [140.0898216, 41.4246504], [140.089275, 41.4246958], [140.0891467, 41.4247065], [140.0884913, 41.4247831], [140.0882834, 41.4248049], [140.0878753, 41.4248694], [140.087526, 41.4249194], [140.0872852, 41.4249539], [140.0847363, 41.425361], [140.0797186, 41.4261301], [140.0794556, 41.426172], [140.0787414, 41.4262734], [140.0779207, 41.426392], [140.0772313, 41.4265469], [140.0766895, 41.426756], [140.0762121, 41.4270295], [140.0758393, 41.427309], [140.0755737, 41.4275885], [140.0753404, 41.4279043], [140.0751455, 41.4282903], [140.0745823, 41.4296538], [140.0742085, 41.4305589], [140.0740002, 41.4309831], [140.0737722, 41.4313069], [140.073495, 41.4315905], [140.0731097, 41.4319041], [140.0726904, 41.4321355], [140.0721254, 41.4323727], [140.0715111, 41.4325718], [140.0710077, 41.4327419], [140.0702227, 41.4330183], [140.0696255, 41.4332092], [140.069064, 41.4333943], [140.0685812, 41.4335693], [140.0682362, 41.4337401], [140.0677685, 41.4340358], [140.0672696, 41.4343676], [140.0664868, 41.4348674], [140.0662285, 41.4350322], [140.0654457, 41.4355319], [140.0648664, 41.4359019], [140.064397, 41.4362116], [140.0641583, 41.4363724], [140.0638051, 41.4365895], [140.0634555, 41.4368128], [140.0631392, 41.4370229], [140.0627993, 41.4372169], [140.0623746, 41.4374342], [140.0619964, 41.4376051], [140.0614368, 41.4378503], [140.0613446, 41.4378946], [140.0612027, 41.4379621], [140.0610952, 41.4380092], [140.0606836, 41.4382013], [140.059747, 41.4386586], [140.0591264, 41.4389442], [140.0583942, 41.4392861], [140.0579007, 41.4395093], [140.0575064, 41.4396721], [140.0571077, 41.4398349], [140.0567232, 41.4399617], [140.0561492, 41.4401426], [140.0557039, 41.4403015], [140.0552909, 41.4405146], [140.0549932, 41.4407519], [140.0547151, 41.4410634], [140.054454, 41.4414234], [140.0541778, 41.4418236], [140.0540007, 41.4420809], [140.0537701, 41.4423242], [140.0534089, 41.4426217], [140.0529198, 41.4430279], [140.052724, 41.4431687], [140.0524343, 41.4433376], [140.0519365, 41.4436123], [140.0515743, 41.443818], [140.0511076, 41.4440774], [140.0508384, 41.4442504], [140.049716, 41.4452067], [140.0494571, 41.4454065], [140.0491084, 41.4456477], [140.0487382, 41.445887], [140.0483627, 41.4461222], [140.0480087, 41.4462851], [140.0470869, 41.4466388], [140.0468258, 41.4467797], [140.046504, 41.4469747], [140.0461821, 41.4471978], [140.0460694, 41.4472722], [140.0456591, 41.4475376], [140.0452738, 41.4477064], [140.0449734, 41.4477969], [140.0445862, 41.4478472], [140.0440785, 41.4479055], [140.0438334, 41.4479336], [140.0433363, 41.4480201], [140.0429268, 41.4481467], [140.0426765, 41.4483016], [140.0425102, 41.4484906], [140.0424092, 41.4487317], [140.0423412, 41.4489831], [140.0422446, 41.4493852], [140.0421802, 41.4496285], [140.0420461, 41.449924], [140.0418852, 41.4502055], [140.0416796, 41.4504627], [140.0414212, 41.4507081], [140.0410993, 41.4509533], [140.0407667, 41.4511604], [140.0405343, 41.4513187], [140.0395034, 41.4519806], [140.038241, 41.4528088], [140.0377063, 41.4531506], [140.0374783, 41.4533376], [140.0372945, 41.4535795], [140.03708, 41.4538672], [140.0368619, 41.4541567], [140.0364752, 41.4546887], [140.036046, 41.4552062], [140.0358351, 41.4554875], [140.0353997, 41.4561104], [140.0349816, 41.4566724], [140.0345476, 41.4572172], [140.0339414, 41.4579731], [140.0334667, 41.4585339], [140.0330929, 41.4589521], [140.0325833, 41.4594968], [140.0321112, 41.4599793], [140.031717, 41.4603793], [140.0313068, 41.4608144], [140.0309429, 41.4611983], [140.0303623, 41.4617882], [140.0298279, 41.4623311], [140.0296272, 41.4625737], [140.0294885, 41.4628024], [140.0293998, 41.462994], [140.0293576, 41.4632167], [140.0293424, 41.4634098], [140.0293494, 41.4635409], [140.0293856, 41.4637412], [140.0294598, 41.463986], [140.0295872, 41.4642436], [140.0297466, 41.4644609], [140.0303375, 41.4651003], [140.0308576, 41.4656639], [140.030982, 41.4658234], [140.0311258, 41.4660486], [140.0312586, 41.4663097], [140.0313827, 41.4666716], [140.0314378, 41.4669776], [140.0314538, 41.4672194], [140.0314418, 41.4674794], [140.0313986, 41.4677579], [140.0313316, 41.4679911], [140.0312565, 41.468204], [140.0311716, 41.4683818], [140.0310115, 41.4687045], [140.0300763, 41.4704819], [140.0299958, 41.4706687], [140.0298796, 41.4709012], [140.0297813, 41.4711564], [140.0297443, 41.4712859], [140.0296946, 41.4714599], [140.0296284, 41.4718296], [140.0295265, 41.4726818], [140.0294827, 41.4728607], [140.0294044, 41.4730632], [140.0293381, 41.4731578], [140.029232, 41.4732766], [140.029027, 41.4734761], [140.0284849, 41.473952], [140.0279896, 41.4744201], [140.0274854, 41.4749045], [140.0272371, 41.4751671], [140.0270927, 41.4753498], [140.0269671, 41.4755537], [140.0267147, 41.4759698], [140.0261375, 41.4768862], [140.0260121, 41.4771732], [140.0259549, 41.4774587], [140.0259341, 41.4777964], [140.0259891, 41.4782867], [140.0259949, 41.4783388], [140.0260557, 41.4788814], [140.0261514, 41.4797134], [140.0261684, 41.480061], [140.0261353, 41.4802922], [140.026048, 41.4805249], [140.0259935, 41.4806471], [140.0259041, 41.4807755], [140.0258057, 41.4808972], [140.0257289, 41.4809765], [140.025628, 41.4810513], [140.0255177, 41.4811373], [140.025375, 41.4812179], [140.0252242, 41.4812951], [140.0250204, 41.4813782], [140.024604, 41.4815616], [140.0239753, 41.4818293], [140.0236416, 41.4819947], [140.0234406, 41.4821267], [140.0232934, 41.4822816], [140.0231292, 41.4825193], [140.0229889, 41.4828224], [140.0226538, 41.4846927], [140.0225957, 41.4848755], [140.0225439, 41.4849931], [140.0225116, 41.4850665], [140.0223614, 41.4852614], [140.022247, 41.4853718], [140.0220476, 41.4855186], [140.0218679, 41.4856251], [140.0217562, 41.4856792], [140.0214745, 41.4857696], [140.0212304, 41.4858359], [140.0208308, 41.4859766], [140.020505, 41.4861378], [140.0200982, 41.486398], [140.0195276, 41.4868164], [140.0192124, 41.4870741], [140.018908, 41.4873934], [140.0186674, 41.4877264], [140.0182392, 41.488583], [140.0181109, 41.488853], [140.0180243, 41.4890483], [140.0179759, 41.4891539], [140.01784, 41.4894522], [140.0177422, 41.4896756], [140.0177075, 41.4897571], [140.0175737, 41.490071], [140.0174637, 41.4903564], [140.0173349, 41.4907827], [140.0172329, 41.491293], [140.0171822, 41.4916704], [140.0171632, 41.4921288], [140.0171821, 41.4925041], [140.0172437, 41.4932418], [140.0172786, 41.4935592], [140.017343, 41.494033], [140.0174073, 41.4944473], [140.0175013, 41.4949892], [140.0176085, 41.4955703], [140.0177372, 41.4960183], [140.0181181, 41.4971232], [140.0181483, 41.4972031], [140.018291, 41.4975792], [140.0183139, 41.4976395], [140.0187566, 41.4987501], [140.0188504, 41.4990233], [140.0189196, 41.4994092], [140.0189261, 41.4998076], [140.0188574, 41.5001577], [140.0187379, 41.5004569], [140.0185968, 41.5007657], [140.0183989, 41.5010719], [140.018111, 41.501336], [140.0177437, 41.5015646], [140.0173439, 41.5017498], [140.0169954, 41.5018799], [140.0162904, 41.5021168], [140.0158815, 41.5023106], [140.0155454, 41.5024873], [140.015132, 41.5027473], [140.0146339, 41.5031217], [140.0143443, 41.5034547], [140.0141994, 41.5036881], [140.0140545, 41.5039734], [140.013934, 41.5042843], [140.013856, 41.5046644], [140.0138104, 41.5050942], [140.0138104, 41.5054317], [140.0138669, 41.5065561], [140.0138615, 41.5068795], [140.0138265, 41.5073178], [140.0137783, 41.5077477], [140.013714, 41.508147], [140.01362, 41.5084768], [140.0134805, 41.5087721], [140.0132955, 41.5090191], [140.0130435, 41.50933], [140.012947, 41.5094473], [140.0124507, 41.5100712], [140.0115817, 41.5111176], [140.0106857, 41.5121765], [140.0103987, 41.5125782], [140.0102221, 41.512863], [140.0100822, 41.5131466], [140.0099241, 41.5134997], [140.0097739, 41.5139777], [140.0095123, 41.5148621], [140.0092945, 41.5155986], [140.0089343, 41.5168256], [140.0088135, 41.5172638], [140.0087466, 41.517657], [140.0087384, 41.5180972], [140.008792, 41.519252], [140.0087519, 41.5196131], [140.0086418, 41.5199971], [140.0085159, 41.5202919], [140.0083468, 41.5205935], [140.0080732, 41.5209731], [140.0072793, 41.5220314], [140.0064471, 41.5232757], [140.0057544, 41.5243932], [140.0056426, 41.5245696], [140.0052173, 41.5252158], [140.0045736, 41.5262251], [140.0044238, 41.5264601], [140.0042309, 41.5267692], [140.0040621, 41.5271158], [140.0039134, 41.5275934], [140.0038719, 41.5278114], [140.0038301, 41.5281195], [140.0037263, 41.5294647], [140.0037015, 41.5297862], [140.0036933, 41.5298925], [140.0036556, 41.5302362], [140.0035966, 41.5306177], [140.0035081, 41.5309872], [140.0033176, 41.531439], [140.0031272, 41.5317823], [140.0029797, 41.5320052], [140.0027784, 41.5322708], [140.0025398, 41.5325453], [140.0006207, 41.5347351], [140.000405, 41.5350023], [140.0002537, 41.5352732], [140.0001124, 41.5356092], [140.0000179, 41.5359987], [139.9999977, 41.5363533], [140.0000505, 41.53669], [140.0001264, 41.536935], [140.0002081, 41.5371665], [140.0003887, 41.5374656], [140.0006596, 41.5378258], [140.0009439, 41.5380888], [140.0013378, 41.5384322], [140.0015688, 41.538663], [140.0017432, 41.5389019], [140.0018942, 41.5392086], [140.0019871, 41.5395254], [140.0020636, 41.5401425], [140.0020823, 41.5403576], [140.0020344, 41.5405767], [140.001969, 41.540721], [140.0018459, 41.5409405], [140.0016806, 41.5411419], [140.0014469, 41.5413047], [140.0012079, 41.5414338], [140.0009224, 41.5415439], [140.0005469, 41.5416182], [140.0002331, 41.5416503], [139.9994177, 41.5416724], [139.9991468, 41.5417005], [139.9987713, 41.5417768], [139.9984172, 41.5419073], [139.9981222, 41.5420538], [139.9978298, 41.5422485], [139.9975482, 41.5424874], [139.9971655, 41.542824], [139.9967138, 41.5432213], [139.9962633, 41.5436208], [139.9959711, 41.5438746], [139.995786, 41.5440493], [139.9955365, 41.5442962], [139.9955069, 41.5443341], [139.9952347, 41.5446923], [139.9951402, 41.5448315], [139.995035, 41.5450154], [139.9948224, 41.5453888], [139.9947981, 41.5454254], [139.9943774, 41.5461592], [139.9942994, 41.5463041], [139.9942731, 41.5463528], [139.9942563, 41.5463839], [139.9940463, 41.5467735], [139.9937821, 41.5472637], [139.9932653, 41.5481997], [139.993062, 41.5485732], [139.9925647, 41.5494733], [139.9918429, 41.5507806], [139.9917992, 41.5508599], [139.990141, 41.5538634], [139.9898928, 41.5543129], [139.9896639, 41.5547266], [139.9891799, 41.5556016], [139.988609, 41.5566724], [139.9871117, 41.5593405], [139.9869562, 41.5596877], [139.9868029, 41.5601013], [139.9866848, 41.5605448], [139.9866128, 41.5609722], [139.9865749, 41.5613978], [139.9865749, 41.5617871], [139.986604, 41.5621299], [139.9866124, 41.5622287], [139.9867144, 41.5627224], [139.9868431, 41.5631538], [139.9870611, 41.5636801], [139.9871878, 41.5639213], [139.9872485, 41.5640368], [139.9875083, 41.5644884], [139.9877259, 41.5648776], [139.9878601, 41.5652248], [139.9879321, 41.565526], [139.9879535, 41.5657688], [139.9879513, 41.5659272], [139.9879374, 41.5661601], [139.9878838, 41.566431], [139.9878051, 41.566638], [139.9876669, 41.5669487], [139.9874734, 41.5672297], [139.9872163, 41.567627], [139.9867997, 41.5683213], [139.9866316, 41.5686745], [139.9864707, 41.5691039], [139.986371, 41.5695094], [139.986312, 41.5699448], [139.9863013, 41.5704144], [139.9863446, 41.5709019], [139.9864274, 41.5713073], [139.9864931, 41.5715107], [139.9865668, 41.5717388], [139.9867604, 41.5721882], [139.9878272, 41.5743682], [139.9887957, 41.5763358], [139.9889379, 41.5766729], [139.9890693, 41.577022], [139.9892169, 41.5774996], [139.9893085, 41.5779429], [139.9893755, 41.5783241], [139.9894238, 41.5788418], [139.9895123, 41.5822184], [139.9894931, 41.5825656], [139.9894184, 41.583025], [139.9893268, 41.5834063], [139.9891958, 41.5838435], [139.989, 41.5842147], [139.9887908, 41.5845236], [139.9885145, 41.5848366], [139.9881631, 41.5851275], [139.9877608, 41.5853743], [139.9873558, 41.5855669], [139.9868542, 41.5857515], [139.9861622, 41.5859822], [139.985835, 41.5861366], [139.985561, 41.5863434], [139.9853683, 41.5866021], [139.9852583, 41.5869271], [139.9852422, 41.587236], [139.9852879, 41.5882531], [139.9852863, 41.5884222], [139.9852981, 41.5884879], [139.9854139, 41.590859], [139.9854648, 41.5914648], [139.9855878, 41.5919384], [139.9857836, 41.5923817], [139.9860679, 41.5927809], [139.9864063, 41.5931418], [139.9868351, 41.5935893], [139.987042, 41.5939502], [139.9870899, 41.5942653], [139.9870765, 41.5945802], [139.9869079, 41.5958137], [139.9866074, 41.5981084], [139.9865806, 41.598313], [139.9865592, 41.5987122], [139.9866048, 41.5990953], [139.9867067, 41.5994443], [139.9873527, 41.6009005], [139.9874466, 41.6012656], [139.9875029, 41.6016407], [139.9875006, 41.6020798], [139.9874788, 41.6026114], [139.9874469, 41.6038729], [139.9874336, 41.6043984], [139.9873908, 41.6060932], [139.9873258, 41.6086662], [139.9872753, 41.6106616], [139.9872937, 41.6110327], [139.9873531, 41.6114437], [139.9874577, 41.6118107], [139.9876102, 41.6121978], [139.9890103, 41.6151135], [139.9891234, 41.615344], [139.9893165, 41.615691], [139.989574, 41.6160679], [139.9898798, 41.6164329], [139.9908369, 41.6176622], [139.9910568, 41.6179931], [139.9913036, 41.6184322], [139.9927171, 41.6212354], [139.9928139, 41.6214599], [139.9929402, 41.6218228], [139.9930233, 41.6221917], [139.9930712, 41.6226329], [139.9931302, 41.623451], [139.9932053, 41.6237277], [139.9933394, 41.6239843], [139.9935758, 41.624317], [139.9939831, 41.6248023], [139.9941119, 41.625059], [139.9941709, 41.6253296], [139.9941534, 41.6261447], [139.9941928, 41.6264944], [139.9942813, 41.626741], [139.9944767, 41.6270659], [139.9950618, 41.6277354], [139.9952388, 41.6280602], [139.9953216, 41.628313], [139.9953595, 41.6285835], [139.9953059, 41.6291749], [139.9953273, 41.6294356], [139.9953944, 41.6297002], [139.9957078, 41.6302817], [139.9958205, 41.6305764], [139.9958768, 41.630833], [139.9958875, 41.6311157], [139.9958986, 41.6315967], [139.9959174, 41.632535], [139.9959228, 41.6330783], [139.9959063, 41.633361], [139.9958768, 41.6335956], [139.9957511, 41.6341387], [139.9957, 41.6343002], [139.9956488, 41.6344616], [139.9952921, 41.6354639], [139.9952656, 41.6356623], [139.9953001, 41.6358308], [139.9953837, 41.6360211], [139.9955526, 41.6362236], [139.9957592, 41.636408], [139.9958687, 41.6364983], [139.9967109, 41.6372521], [139.99706, 41.6375767], [139.9981383, 41.6385229], [139.9985811, 41.6389768], [139.9988813, 41.6393527], [139.9991092, 41.6397216], [139.9993641, 41.6401084], [140.0001978, 41.6415257], [140.000276, 41.641724], [140.0003829, 41.6420469], [140.0004396, 41.6423615], [140.000466, 41.6427805], [140.0004982, 41.6435742], [140.0005546, 41.643941], [140.0006484, 41.6443299], [140.00074, 41.6445843], [140.0009519, 41.6450794], [140.0010757, 41.6452961], [140.0011568, 41.6454226], [140.0017809, 41.646174], [140.0041176, 41.6487009], [140.0047441, 41.6495], [140.0054117, 41.6507541], [140.0056652, 41.6516803], [140.0056337, 41.6525057], [140.0053255, 41.653903], [140.0052465, 41.6542115], [140.0052061, 41.6544366], [140.0052152, 41.6546851], [140.0052551, 41.6548712], [140.0053277, 41.6550529], [140.0053828, 41.655213], [140.0054013, 41.6552668], [140.0057187, 41.6557148], [140.0058551, 41.6560828], [140.0058691, 41.6564465], [140.0057649, 41.6568088], [140.0055336, 41.6571179], [140.0053276, 41.6574036], [140.0051556, 41.6578053], [140.0051504, 41.6579379], [140.0051411, 41.6581755], [140.0051386, 41.6582386], [140.0052958, 41.6586638], [140.005673, 41.6595403], [140.0058171, 41.6599012], [140.0058728, 41.6603081], [140.0058118, 41.6607253], [140.0058084, 41.6607485], [140.0055643, 41.6624584], [140.0055344, 41.6628254], [140.0055559, 41.6629688], [140.0055864, 41.6631717], [140.0057059, 41.6635252], [140.0058589, 41.6638202], [140.0059972, 41.664073], [140.0060948, 41.6642514], [140.0062582, 41.6646535], [140.0063447, 41.6650422], [140.0063446, 41.6651144], [140.0063444, 41.665338], [140.0063572, 41.6656795], [140.0063589, 41.6657241], [140.0063567, 41.6676169], [140.0063562, 41.6676632], [140.0063498, 41.668297], [140.0063329, 41.6683998], [140.00628, 41.6687218], [140.0061829, 41.6691902], [140.0060122, 41.6699306], [140.0059291, 41.6703036], [140.0059182, 41.6706076], [140.0059823, 41.6709448], [140.0061156, 41.6712153], [140.0066757, 41.6723368], [140.0070599, 41.6730363], [140.0072251, 41.673446], [140.0073013, 41.6738858], [140.0072986, 41.6742985], [140.0072707, 41.6747783], [140.0073029, 41.6751389], [140.0073914, 41.6754875], [140.0075211, 41.6758077], [140.0081773, 41.6769798], [140.0091927, 41.6789089], [140.0093177, 41.6791904], [140.0094126, 41.6795059], [140.0094598, 41.6798074], [140.009485, 41.6800989], [140.0095038, 41.6807359], [140.009595, 41.6811406], [140.0097398, 41.6814351], [140.0100791, 41.6819775], [140.010183, 41.6822728], [140.0102179, 41.6825172], [140.010242, 41.6831682], [140.0102227, 41.6837294], [140.0102307, 41.683913], [140.0102629, 41.6847002], [140.0102776, 41.6848354], [140.0102924, 41.6849706], [140.0103024, 41.6850313], [140.0103433, 41.6852791], [140.0104477, 41.6856204], [140.010464, 41.6856737], [140.0107768, 41.6865701], [140.0107966, 41.6866212], [140.0109324, 41.6869707], [140.011096, 41.6872712], [140.0112093, 41.687422], [140.0113052, 41.6875496], [140.0118454, 41.6881395], [140.0119865, 41.6883468], [140.012128, 41.6885594], [140.0122356, 41.6888616], [140.0123677, 41.6894682], [140.012466, 41.6897118], [140.0125873, 41.6900103], [140.0132161, 41.690949], [140.0133628, 41.6912134], [140.013463, 41.6914811], [140.0135363, 41.6918289], [140.0136419, 41.6924372], [140.0137363, 41.6927743], [140.0139455, 41.6930767], [140.014438, 41.6936485], [140.0146832, 41.693964], [140.0148618, 41.6943074], [140.0152856, 41.6952488], [140.0155162, 41.6956353], [140.0158676, 41.6961039], [140.0162898, 41.6965315], [140.0167071, 41.696875], [140.0171132, 41.6971544], [140.0177693, 41.697584], [140.0180133, 41.6977781], [140.0180563, 41.6978123], [140.0182815, 41.6980628], [140.0183192, 41.6981047], [140.0185311, 41.6984451], [140.0189709, 41.6994144], [140.0191426, 41.6997148], [140.0193411, 41.6999952], [140.0196801, 41.7003106], [140.020584, 41.7011377], [140.0208378, 41.7013109], [140.0210899, 41.7014331], [140.0213608, 41.7015292], [140.0216328, 41.7015863], [140.0219294, 41.7016233], [140.0221567, 41.7016399], [140.0223147, 41.7016524], [140.0232115, 41.7017234], [140.0233371, 41.7017401], [140.0234824, 41.7017595], [140.0236971, 41.7017962], [140.0240725, 41.7018796], [140.0244614, 41.7019957], [140.0248342, 41.702146], [140.0251491, 41.7023032], [140.0254709, 41.7025121], [140.02551, 41.7025382], [140.0257135, 41.7026739], [140.0258744, 41.7028164], [140.0261067, 41.7030461], [140.0263454, 41.7033285], [140.0265111, 41.7035895], [140.026524, 41.7036099], [140.026678, 41.7039032], [140.0267987, 41.7042897], [140.0268566, 41.7046291], [140.0268727, 41.7049736], [140.0268856, 41.7051292], [140.0268913, 41.7052531], [140.0268313, 41.7055464], [140.0267304, 41.7057957], [140.0266353, 41.7059702], [140.0264477, 41.7061352], [140.0262707, 41.7062613], [140.026045, 41.7064053], [140.025567, 41.7067113], [140.0253775, 41.706846], [140.0251978, 41.7070122], [140.0250916, 41.7071974], [140.0250406, 41.7074838], [140.0250728, 41.7077261], [140.0251949, 41.7081248], [140.0255518, 41.7092749], [140.025702, 41.7095472], [140.0259327, 41.7098236], [140.0261822, 41.7100298], [140.0268538, 41.7104833], [140.0271327, 41.7107316], [140.0273768, 41.711046], [140.0275581, 41.7113994], [140.0276413, 41.7117177], [140.0276745, 41.7120331], [140.0276493, 41.7127369], [140.0276788, 41.7130292], [140.0277593, 41.7133836], [140.0279, 41.7137599], [140.0280261, 41.7139701], [140.0282272, 41.7142244], [140.028811, 41.7147273], [140.0308517, 41.7162268], [140.0321025, 41.7170511], [140.0328412, 41.7174585], [140.033657, 41.7176971], [140.0354638, 41.7182831], [140.036165, 41.7187092], [140.0369939, 41.7192633], [140.0394396, 41.7210708], [140.0400235, 41.7214905], [140.0405535, 41.7219745], [140.0408283, 41.7223792], [140.0410874, 41.7228564], [140.0414877, 41.7237145], [140.0416564, 41.7240292], [140.0420079, 41.7244774], [140.0425014, 41.7247874], [140.0432467, 41.7250093], [140.0433792, 41.7250902], [140.0436395, 41.7253495], [140.043731, 41.7256076], [140.0437406, 41.7262501], [140.0438204, 41.7268206], [140.0439695, 41.7271583], [140.0442803, 41.7275392], [140.0447464, 41.7280424], [140.0450837, 41.7283095], [140.0454937, 41.7284821], [140.0461257, 41.7286751], [140.0465901, 41.7288505], [140.0467639, 41.7289886], [140.0468576, 41.7291696], [140.0467887, 41.7294601], [140.0463791, 41.7302423], [140.0462104, 41.7308897], [140.0464152, 41.731573], [140.0466757, 41.7320327], [140.0471487, 41.7324083], [140.0476072, 41.7326291], [140.0481276, 41.7328016], [140.0488626, 41.7330818], [140.0490358, 41.7331492], [140.0499066, 41.7335045], [140.0504016, 41.7338607], [140.0507765, 41.7342252], [140.0527885, 41.7378303], [140.0535163, 41.7387209], [140.054427, 41.7396822], [140.0551214, 41.7403265], [140.0552082, 41.7403835], [140.0554179, 41.7405211], [140.0569159, 41.7411722], [140.0572809, 41.7413839], [140.0575551, 41.7417096], [140.0576799, 41.7421364], [140.0576313, 41.7427479], [140.0576214, 41.7429514], [140.057676, 41.743312], [140.0577851, 41.7435476], [140.0579456, 41.7437359], [140.0584204, 41.7442659], [140.0589328, 41.744959], [140.0590291, 41.7451755], [140.0592835, 41.7457473], [140.0593711, 41.7459443], [140.0596693, 41.7463546], [140.0601898, 41.7469177], [140.0609448, 41.7476287], [140.0612942, 41.7479914], [140.0615836, 41.7483793], [140.0620242, 41.7491753], [140.0628363, 41.7506847], [140.0635525, 41.7517813], [140.0644145, 41.7528598], [140.064915, 41.75345], [140.0650872, 41.7536578], [140.0652621, 41.7539011], [140.0654707, 41.7541674], [140.0657111, 41.7545799], [140.0658652, 41.7548609], [140.066074, 41.7554246], [140.06613, 41.7558318], [140.0661455, 41.756954], [140.0662148, 41.7572714], [140.0663091, 41.7575819], [140.0664638, 41.7578606], [140.0667125, 41.7582012], [140.0670699, 41.7585688], [140.0671837, 41.7586622], [140.0684144, 41.759906], [140.0689324, 41.7604301], [140.0692479, 41.7608698], [140.0696449, 41.7614882], [140.0698601, 41.76191], [140.0704945, 41.7629794], [140.0706524, 41.7633097], [140.0708062, 41.7637513], [140.0709892, 41.7643673], [140.0711328, 41.7651228], [140.0711854, 41.7656214], [140.0712894, 41.7663678], [140.0714334, 41.767064], [140.0715227, 41.7674725], [140.0715646, 41.767783], [140.0716448, 41.7692142], [140.0717636, 41.7698035], [140.0719106, 41.7702314], [140.0721082, 41.770675], [140.0722504, 41.7709087], [140.0726574, 41.7715773], [140.0730235, 41.7721788], [140.0732349, 41.7725038], [140.0733802, 41.7727544], [140.0735622, 41.7731536], [140.0736637, 41.7734515], [140.0737706, 41.7740205], [140.0737853, 41.7743072], [140.0737915, 41.7744283], [140.0737691, 41.775192], [140.0737557, 41.7762508], [140.0737515, 41.7765786], [140.0737124, 41.7771293], [140.0741762, 41.7784578], [140.0742165, 41.7786361], [140.0743119, 41.7792215], [140.0743661, 41.7796972], [140.0743728, 41.7798085], [140.074398, 41.7802266], [140.0744207, 41.780506], [140.0744503, 41.782531], [140.0746808, 41.7842234], [140.0747211, 41.7845191], [140.0747729, 41.7849399], [140.074841, 41.7855333], [140.0748567, 41.7857977], [140.0747902, 41.7868205], [140.0747585, 41.7878874], [140.0748004, 41.7895512], [140.0747387, 41.7902313], [140.0747013, 41.7905945], [140.0746929, 41.7909887], [140.0746158, 41.7920054], [140.0746341, 41.7935615], [140.0746061, 41.7942222], [140.0745354, 41.7951901], [140.0743593, 41.7976013], [140.0742768, 41.7981047], [140.0741537, 41.7988611], [140.0739762, 41.7996211], [140.0739571, 41.7999761], [140.0739991, 41.8003635], [140.074113, 41.8008456], [140.0741677, 41.8010582], [140.0741615, 41.8012221], [140.0741004, 41.8013412], [140.0737315, 41.8018341], [140.0736938, 41.8019239], [140.0736862, 41.8020307], [140.0737201, 41.8021999], [140.0737994, 41.8023292], [140.0738921, 41.80243], [140.0739674, 41.8024974], [140.0745137, 41.8029186], [140.0750326, 41.8033183], [140.0756046, 41.8037449], [140.0757245, 41.8038356], [140.075765, 41.8038684], [140.0765981, 41.804497], [140.0768637, 41.8046727], [140.0772083, 41.8048605], [140.0776658, 41.8051069], [140.0781586, 41.8053929], [140.0795189, 41.8061825], [140.0801445, 41.8065383], [140.0806631, 41.8068222], [140.0809821, 41.8069051], [140.0833875, 41.8073633], [140.0838704, 41.8074599], [140.0842009, 41.8075084], [140.0844628, 41.8075153], [140.0847414, 41.80749], [140.0849933, 41.807442], [140.0852465, 41.8073797], [140.0870402, 41.8066029], [140.087991, 41.8061748], [140.0887638, 41.8058268], [140.0893567, 41.8056423], [140.0897816, 41.8056073], [140.0901754, 41.8056303], [140.0905355, 41.8056975], [140.0909425, 41.8058381], [140.0913387, 41.806092], [140.0916041, 41.8063522], [140.0919928, 41.8068954], [140.0922006, 41.807108], [140.0925047, 41.8073068], [140.0929471, 41.8074962], [140.0943945, 41.807743], [140.0948636, 41.8078068], [140.0951669, 41.8078226], [140.095533, 41.8077728], [140.0958781, 41.8076936], [140.0962059, 41.807565], [140.096541, 41.8073995], [140.0968217, 41.8071973], [140.097066, 41.8069551], [140.0971356, 41.8068469], [140.0974086, 41.8064538], [140.0975562, 41.8062409], [140.0977162, 41.8060733], [140.0979156, 41.8059532], [140.0981431, 41.8058475], [140.0989764, 41.80549], [140.0992183, 41.8053869], [140.0995113, 41.8052489], [140.0998149, 41.8050883], [140.1002118, 41.8048497], [140.1008581, 41.8045329], [140.1018617, 41.8041784], [140.1029358, 41.8038863], [140.1040359, 41.8036003], [140.1042259, 41.8035688], [140.1047857, 41.8035895], [140.1057292, 41.8037628], [140.1071298, 41.8039088], [140.1074287, 41.8038862], [140.1075665, 41.8038302], [140.1076796, 41.803773], [140.1080316, 41.8035483], [140.108186, 41.8034225], [140.1082691, 41.803366], [140.1099708, 41.8020428], [140.1101476, 41.8019055], [140.1114782, 41.8008689], [140.1125964, 41.8000357], [140.113005, 41.7998421], [140.113456, 41.7996641], [140.11364, 41.7996082], [140.1139013, 41.7995414], [140.1143678, 41.7994443], [140.1145641, 41.7994278], [140.1149307, 41.7994182], [140.1154686, 41.7994246], [140.1161038, 41.7995159], [140.116706, 41.7997016], [140.1168524, 41.7997601], [140.1174002, 41.8000372], [140.1174742, 41.8000914], [140.1176879, 41.8002477], [140.1185054, 41.8009721], [140.1187597, 41.8012019], [140.1196058, 41.8019664], [140.1198136, 41.8021321], [140.1201594, 41.8024314], [140.1202059, 41.8024716], [140.1203185, 41.8025625], [140.1203688, 41.8026126], [140.1204392, 41.80267], [140.1206491, 41.8028411], [140.1212571, 41.803394], [140.121387, 41.8035082], [140.1216453, 41.8037354], [140.1220266, 41.8040707], [140.1224524, 41.8044594], [140.122771, 41.8047538], [140.1231975, 41.8050737], [140.1232303, 41.8050969], [140.1232609, 41.8051128], [140.1233022, 41.8051343]], [[140.6798554, 41.8231837], [140.6797026, 41.8232435], [140.6786782, 41.8233441], [140.6783954, 41.8233719], [140.676248, 41.8236092], [140.6747764, 41.8236879], [140.6746522, 41.8236953], [140.6740295, 41.8237199], [140.673862, 41.8237265], [140.6736635, 41.8237351], [140.6727068, 41.823788], [140.6715417, 41.8238266], [140.6710115, 41.8238431], [140.670268, 41.823876], [140.6689978, 41.82391], [140.6683883, 41.8239261], [140.6675037, 41.8239613], [140.6668413, 41.8239804], [140.6667009, 41.8239854], [140.6665224, 41.8239842], [140.6661443, 41.8239817], [140.665136, 41.8239427], [140.6649646, 41.8239361], [140.6648646, 41.8239313], [140.6644516, 41.8239117], [140.6643728, 41.823908], [140.6639673, 41.8238889], [140.6639209, 41.8238867], [140.66339, 41.8238585], [140.6630394, 41.8238398], [140.6629993, 41.8238377], [140.662619, 41.8238164], [140.6621124, 41.8237878], [140.662013, 41.8237822], [140.6618217, 41.8237739], [140.6616632, 41.8237653], [140.6612286, 41.8237419], [140.6606884, 41.8236936], [140.6603734, 41.8236654], [140.6602258, 41.8236522], [140.6598371, 41.8236024], [140.6585639, 41.8234537], [140.658064, 41.8233911], [140.6554093, 41.823059], [140.6553781, 41.8230565], [140.655275, 41.8230408], [140.6551579, 41.8230254], [140.6548076, 41.8229567], [140.6544557, 41.8228672], [140.6541553, 41.822755], [140.6538892, 41.8226113], [140.653606, 41.8224386], [140.6534488, 41.8223412], [140.6530462, 41.8220899], [140.6529002, 41.8219988], [140.6527922, 41.8219335], [140.6526876, 41.8218694], [140.6521809, 41.8216201], [140.6519153, 41.8214894], [140.6513439, 41.8212153], [140.6509885, 41.8210542], [140.650477, 41.820839], [140.6497965, 41.8205586], [140.6496639, 41.820504], [140.6494066, 41.8203889], [140.6488569, 41.8201482], [140.6479556, 41.8197204], [140.6475264, 41.8195148], [140.6470151, 41.8192842], [140.6468152, 41.8192137], [140.6462193, 41.8190033], [140.6460722, 41.8189583], [140.6456117, 41.8188075], [140.645304, 41.8187156], [140.6450059, 41.8186265], [140.6447822, 41.8185596], [140.644599, 41.8185049], [140.6443106, 41.8184187], [140.6440187, 41.8183315], [140.6428703, 41.8179794], [140.6424833, 41.8178667], [140.6423433, 41.8178247], [140.6422014, 41.8177882], [140.6415349, 41.8175803], [140.6411718, 41.8174501], [140.6409761, 41.8173799], [140.6404896, 41.8171808], [140.6398257, 41.8168929], [140.6396895, 41.8168361], [140.639473, 41.8167394], [140.6392805, 41.816652]], [[140.122771, 41.8047538], [140.1231329, 41.8051207], [140.1231533, 41.8051546], [140.123169, 41.8051811], [140.1231878, 41.8052125]], [[140.1235719, 41.805231], [140.1235449, 41.8051906], [140.1235095, 41.8051615], [140.1234654, 41.80514], [140.1234154, 41.8051275], [140.1233582, 41.805125], [140.1233022, 41.8051343], [140.1232554, 41.8051528], [140.1232165, 41.8051794], [140.1231878, 41.8052125], [140.1231729, 41.8052442], [140.1231676, 41.8052776], [140.1231721, 41.805311], [140.1231861, 41.8053429], [140.1232091, 41.8053718], [140.123246, 41.8054001], [140.1232912, 41.8054204], [140.1233419, 41.8054316], [140.1233789, 41.8054335], [140.1234158, 41.8054305], [140.1234513, 41.8054227], [140.1235073, 41.8053979], [140.1235502, 41.8053615], [140.1235747, 41.8053202], [140.1235821, 41.8052754], [140.1235719, 41.805231]], [[140.1232091, 41.8053718], [140.1231895, 41.8054073], [140.1231727, 41.8054353], [140.1231526, 41.805465], [140.1227922, 41.805916], [140.1232299, 41.805502], [140.1232634, 41.8054775], [140.1232963, 41.805458], [140.1233419, 41.8054316]], [[140.1227922, 41.805916], [140.122287, 41.806476], [140.1214181, 41.8074376], [140.1209673, 41.8078876], [140.120709, 41.8081502], [140.120515, 41.8084125], [140.120486, 41.8084474], [140.1203752, 41.8085811], [140.1200649, 41.8090953], [140.1199831, 41.8094454], [140.1199757, 41.8095552], [140.1199526, 41.8099958], [140.1199826, 41.8103982], [140.1199821, 41.8104712], [140.1199924, 41.810936], [140.1200058, 41.811295], [140.1201263, 41.8136634], [140.1201351, 41.8137693], [140.1201367, 41.8141004], [140.1202317, 41.8154368], [140.1205931, 41.8169183], [140.1215268, 41.8188375], [140.1240644, 41.8239195], [140.1245915, 41.825457], [140.124631, 41.825675], [140.1247904, 41.8265558], [140.1249013, 41.8271811], [140.1265973, 41.8362948], [140.1266548, 41.8367447], [140.126665, 41.8368865], [140.1266654, 41.8374275], [140.1266398, 41.8378358], [140.1265936, 41.8381418], [140.1265455, 41.8383942], [140.1264787, 41.8386465], [140.1262517, 41.83944], [140.1260686, 41.8402511], [140.1259899, 41.8407765], [140.1259452, 41.8411901], [140.1256141, 41.8442257], [140.1255549, 41.8447737], [140.1254439, 41.8453693], [140.1249782, 41.8469713], [140.1248814, 41.8472766], [140.1248471, 41.8475771], [140.1248693, 41.8477766], [140.1249398, 41.847987], [140.125035, 41.8481929], [140.1254615, 41.8491009], [140.1255692, 41.8493099], [140.1256584, 41.849511], [140.1260723, 41.8506459], [140.1263976, 41.8522074], [140.1264815, 41.8533138], [140.1265493, 41.8543403], [140.1265712, 41.8548521], [140.1265549, 41.8550399], [140.1265013, 41.8552478], [140.1263801, 41.8554828], [140.1261514, 41.8557448], [140.1259898, 41.8559351], [140.1257863, 41.8561385], [140.1255996, 41.8563284], [140.125412, 41.8565735], [140.1252621, 41.8568269], [140.1251909, 41.8570141], [140.1251466, 41.8572664], [140.125158, 41.8578046], [140.1252117, 41.8591264], [140.1251745, 41.8593308], [140.1250541, 41.8596146], [140.1249368, 41.85979], [140.1245492, 41.8602178], [140.1239432, 41.8609193], [140.1238648, 41.8610098], [140.1233279, 41.8616292], [140.1230629, 41.8619909], [140.1226315, 41.8626674], [140.1223213, 41.8631009], [140.122094, 41.8634478], [140.121797, 41.8638914], [140.1209212, 41.865429], [140.1208692, 41.8655476], [140.1208386, 41.8656484], [140.120835, 41.8657463], [140.1208413, 41.8658152], [140.1208631, 41.865893], [140.1209185, 41.8659918], [140.1209787, 41.8660617], [140.1210377, 41.8661156], [140.1210977, 41.866159], [140.121133, 41.8661808], [140.1211876, 41.8662078], [140.1213409, 41.8662685], [140.1214659, 41.8663137], [140.1216394, 41.8663742], [140.122044, 41.8665154], [140.1231219, 41.8668915], [140.1232171, 41.8669248], [140.1233667, 41.8669797], [140.1239209, 41.867183], [140.1245248, 41.8673992], [140.1247802, 41.8674932], [140.1262405, 41.8680442], [140.1263868, 41.8681072], [140.1265694, 41.8681799], [140.1268271, 41.8683163], [140.1272996, 41.8685721], [140.1277472, 41.8688513], [140.1282987, 41.8692786], [140.1283407, 41.8693142], [140.1284081, 41.8693712]]]}, "id": "relation/6585224"}]}