{"type": "FeatureCollection", "generator": "kokudo-quiz tools/fetch_raw.py (Overpass API)", "copyright": "The data included in this document is from www.openstreetmap.org. The data is made available under ODbL.", "timestamp": "2026-09-30T16:03:57Z", "features": [{"type": "Feature", "properties": {"@id": "relation/6596139", "colour": "red", "from": "北海道札幌市北区", "name": "国道231号", "name:en": "National Highway Route 231", "name:ja": "国道231号", "name:ja-Hira": "こくどうにひゃくさんじゅういちごう", "name:ja-Latn": "Kokudo 231 Gou", "network": "JP:national", "operator": "北海道開発局", "ref": "231", "route": "road", "to": "北海道留萌市", "type": "route", "wikidata": "Q6156989", "wikipedia": "ja:国道231号"}, "geometry": {"type": "MultiLineString", "coordinates": [[[141.3484881, 43.1694013], [141.348609, 43.1673721], [141.3487512, 43.1668432], [141.3491383, 43.1660603], [141.3495579, 43.1654948], [141.349646, 43.1654045], [141.3497714, 43.1652759], [141.3499866, 43.1650735], [141.3512359, 43.1639013], [141.3513785, 43.1637646], [141.3522806, 43.162907], [141.3528918, 43.1623217], [141.3530052, 43.1622182], [141.3533886, 43.1618569], [141.3534666, 43.1617754], [141.3535394, 43.1616904], [141.3536267, 43.1614355], [141.3535747, 43.1611235], [141.3534454, 43.1607001], [141.353232, 43.1599811], [141.353117, 43.159599], [141.3530352, 43.159344], [141.3529197, 43.1590059], [141.3528902, 43.1588813], [141.3528649, 43.1587717], [141.3528379, 43.1586629], [141.3527343, 43.1581051], [141.3522343, 43.1561685], [141.3519536, 43.1548742], [141.3519338, 43.1547886], [141.3517212, 43.15387], [141.3516943, 43.1537535], [141.3516703, 43.1536546], [141.3513266, 43.1522343], [141.3508643, 43.150262], [141.3508436, 43.1501737], [141.3503493, 43.148065], [141.3501682, 43.1471005], [141.3501494, 43.1469906], [141.3501359, 43.1469259], [141.34991, 43.146007], [141.3498962, 43.145918], [141.3497917, 43.1454251], [141.349749, 43.1452409], [141.3497331, 43.145159], [141.3485585, 43.1403465], [141.3485082, 43.1401449], [141.3484832, 43.1400139], [141.3480951, 43.1382764], [141.3480786, 43.1382025], [141.3480505, 43.1380817], [141.3478775, 43.1373382], [141.3478547, 43.1372405], [141.3472203, 43.1345173], [141.3471905, 43.134408], [141.347128, 43.1341201], [141.3470913, 43.1339663], [141.3465628, 43.1317562], [141.3465444, 43.1316778], [141.3463346, 43.1308], [141.3459202, 43.1290646], [141.3458991, 43.1289587], [141.3458705, 43.1288509], [141.3453031, 43.1263264], [141.345275, 43.1262015], [141.345248, 43.1260776], [141.3450243, 43.1250525], [141.3446711, 43.1234436], [141.3445193, 43.1227785], [141.3444588, 43.1225132], [141.3444465, 43.1224592], [141.3439316, 43.1202027], [141.3438992, 43.1200926], [141.3437141, 43.1194624], [141.3435471, 43.1186675], [141.3435314, 43.1184824], [141.3435224, 43.1182591], [141.3435118, 43.1180862], [141.3435746, 43.1173917], [141.3435816, 43.1173405], [141.3436892, 43.1165507], [141.3437215, 43.1163134], [141.3437723, 43.1156087], [141.343737, 43.1150347], [141.3437191, 43.1148612], [141.3436042, 43.1136954], [141.34358, 43.1135117], [141.3435046, 43.1129831], [141.3434224, 43.1125596], [141.343367, 43.1121016], [141.3433304, 43.1117333], [141.3433302, 43.1116454], [141.3433294, 43.1111903], [141.3433588, 43.1106207], [141.3434858, 43.1099308], [141.3435098, 43.1098015], [141.3435406, 43.1096622], [141.3435761, 43.1095107], [141.3437245, 43.1088546], [141.344018, 43.1075727], [141.3443503, 43.1061137], [141.344375, 43.1059954], [141.344393, 43.1058763], [141.3444216, 43.1056351], [141.3444538, 43.1053085], [141.34447, 43.105156], [141.344498, 43.1048924], [141.3445472, 43.1044444], [141.3445843, 43.1040151], [141.3446142, 43.1037394], [141.3446504, 43.1033929], [141.3447507, 43.1022606], [141.3447836, 43.1017333], [141.3447904, 43.1016254], [141.3448097, 43.1014261], [141.3448306, 43.1012562], [141.3448461, 43.1011299]], [[141.3484881, 43.1694013], [141.3484822, 43.170871], [141.3484747, 43.1727226], [141.3483816, 43.174624], [141.3483328, 43.1750554], [141.3479817, 43.1776041], [141.3478034, 43.1786724], [141.3476994, 43.178903], [141.347648, 43.1790107], [141.3474852, 43.179293], [141.34732, 43.1794403], [141.3471218, 43.1795738], [141.3467531, 43.1797322], [141.3462991, 43.1798281], [141.345926, 43.1798329], [141.3446088, 43.1797404], [141.3428002, 43.1796133], [141.3412315, 43.1795022], [141.3378805, 43.1792388], [141.3376962, 43.1792232], [141.3351847, 43.1790094], [141.3335216, 43.1788812], [141.3323803, 43.1788278], [141.3318037, 43.1788278], [141.3313847, 43.1788618], [141.3308587, 43.178917], [141.3301809, 43.1790517], [141.3294457, 43.1792765], [141.3286163, 43.1796227], [141.3272342, 43.1804635], [141.3265479, 43.181021], [141.3255961, 43.181756], [141.3246593, 43.1825172], [141.3244744, 43.1826674], [141.323862, 43.1830875], [141.3235404, 43.1832317], [141.3234235, 43.183282], [141.3229884, 43.1834694], [141.3225567, 43.1836084], [141.3223895, 43.1836342], [141.3222182, 43.1836106], [141.3220376, 43.1835498], [141.3219092, 43.183453], [141.3218327, 43.1833386], [141.3218221, 43.1831947], [141.3218771, 43.18305], [141.3219917, 43.1829386], [141.3220791, 43.1828804], [141.322287, 43.182792], [141.3228482, 43.1826659], [141.3232841, 43.183761], [141.3236561, 43.1846867], [141.3237959, 43.1850268], [141.3243403, 43.1863612], [141.3252743, 43.1886471], [141.3253362, 43.1887987], [141.3253932, 43.1889448], [141.3262508, 43.1911431], [141.327177, 43.193517], [141.3272221, 43.1936312], [141.3272605, 43.1937206], [141.3273108, 43.1938492], [141.328215, 43.1961082], [141.3291064, 43.198335], [141.3291657, 43.1984832], [141.3292378, 43.1986621], [141.3306726, 43.2022675], [141.330749, 43.2024625], [141.3310105, 43.2031217]], [[141.3330945, 43.2083773], [141.3331433, 43.2084956], [141.3333386, 43.2089891], [141.334957, 43.2130791], [141.33501, 43.2131978], [141.3350563, 43.2132987], [141.3351011, 43.2134107], [141.3352311, 43.2137016], [141.3354534, 43.2140781], [141.3359338, 43.2149018], [141.3360847, 43.2151311], [141.33653, 43.2158076], [141.3366948, 43.2159295], [141.3366854, 43.2157875], [141.3360537, 43.2148887], [141.3357565, 43.2144339], [141.3352316, 43.2133511], [141.3352003, 43.2132827], [141.3351481, 43.2131631], [141.3350974, 43.2130547], [141.3349355, 43.2126579], [141.3332766, 43.2084659], [141.3332226, 43.2083208]], [[141.3310105, 43.2031217], [141.3311388, 43.203442], [141.3323417, 43.2064837], [141.3330135, 43.2081631], [141.333064, 43.2083041], [141.3330945, 43.2083773]], [[141.3311385, 43.2030923], [141.3308774, 43.2024356], [141.3297941, 43.1997119], [141.3293645, 43.1986317], [141.3292946, 43.1984559], [141.3292364, 43.1983122], [141.3283347, 43.1960851], [141.3274191, 43.1938234], [141.3273408, 43.1936331], [141.3272887, 43.1935018], [141.3263716, 43.1911216], [141.3254919, 43.1889265], [141.3254309, 43.1887798], [141.3253687, 43.1886369], [141.3244546, 43.1863416], [141.3243099, 43.1859176], [141.3240829, 43.1849849], [141.3239865, 43.1845596], [141.3238038, 43.183902], [141.323787, 43.1837467], [141.3238159, 43.1835929], [141.323913, 43.1834561], [141.3242037, 43.1831756], [141.3245976, 43.1828705], [141.324812, 43.1826465], [141.3248332, 43.1826301], [141.3267805, 43.1811205], [141.3274386, 43.1805961], [141.3288176, 43.1797285], [141.3294304, 43.1794763], [141.3300961, 43.1792627], [141.3308199, 43.1791119], [141.3315025, 43.1790161], [141.3325427, 43.178992], [141.3336985, 43.1790553], [141.3376661, 43.179369], [141.3378511, 43.1793832], [141.3406534, 43.1795989]], [[141.3332226, 43.2083208], [141.3331505, 43.2081347], [141.3329791, 43.2076828], [141.3326954, 43.2070272], [141.3324706, 43.2064589], [141.3315388, 43.2041041], [141.3311385, 43.2030923]], [[141.3450698, 43.1014477], [141.3450495, 43.1016378], [141.3450468, 43.1017331], [141.344958, 43.1027524], [141.3448981, 43.1033889], [141.344793, 43.1044405], [141.3447201, 43.1052106], [141.3446694, 43.1057297], [141.3446498, 43.1058448], [141.3446327, 43.1059574], [141.3445934, 43.1061323], [141.3445114, 43.106495], [141.3441233, 43.1082111], [141.344112, 43.1082527], [141.3439066, 43.109169], [141.3438001, 43.1096675], [141.3437743, 43.1098061], [141.3437497, 43.1099346], [141.3436161, 43.1107659], [141.3435966, 43.1111014], [141.3435964, 43.1116421], [141.3435963, 43.1117522], [141.3436599, 43.1123738], [141.3438078, 43.1132398], [141.3438547, 43.1138171], [141.3438912, 43.1143296], [141.3439089, 43.1148905], [141.3439218, 43.1150269], [141.3439332, 43.1152372], [141.343942, 43.1158859], [141.3438963, 43.1163321], [141.3437673, 43.1173508], [141.3436934, 43.1179118], [141.3436941, 43.1181127], [141.3436916, 43.1182654], [141.3436878, 43.1184963], [141.3437272, 43.118685], [141.3438647, 43.119343], [141.3440606, 43.1200756], [141.3440881, 43.1201784], [141.3446231, 43.1225138], [141.3446967, 43.1228347], [141.3451988, 43.1250265], [141.3454385, 43.1260545], [141.3454678, 43.1261804], [141.3454962, 43.1263023], [141.345574, 43.1266357], [141.3460482, 43.1287186], [141.346069, 43.1288255], [141.3460908, 43.1289345], [141.3461024, 43.1290435], [141.3465287, 43.1307617], [141.3467409, 43.1316561], [141.3467605, 43.1317297], [141.3468297, 43.132039], [141.3470888, 43.1331565], [141.3472636, 43.1339107], [141.3472992, 43.134064], [141.3473654, 43.1343254], [141.3473936, 43.1344461], [141.3475152, 43.1349619], [141.347925, 43.1367413], [141.348037, 43.1372162], [141.348063, 43.1373124], [141.3481592, 43.137725], [141.3482369, 43.138058], [141.348261, 43.1381615], [141.3482808, 43.1382464], [141.3483683, 43.1386217], [141.3486742, 43.1399334], [141.3486888, 43.139996], [141.3487205, 43.1401567], [141.3487644, 43.1403203], [141.3490485, 43.1415388], [141.34909, 43.1417165], [141.349314, 43.1426772], [141.3493715, 43.1429241], [141.3494391, 43.1432139], [141.349805, 43.1447832], [141.3498905, 43.1451393], [141.3499112, 43.145226], [141.350066, 43.1458947], [141.3500868, 43.1459845], [141.3502998, 43.146905], [141.3503151, 43.1469708], [141.3503415, 43.1470806], [141.3504127, 43.1473763], [141.3505682, 43.1480338], [141.3508609, 43.1492712], [141.3509611, 43.1497124], [141.3510574, 43.1501469], [141.3510768, 43.1502343], [141.3514443, 43.1518126], [141.3515377, 43.1522134], [141.3516282, 43.1525882], [141.3517087, 43.1529466], [141.3518009, 43.1533426], [141.3518677, 43.1536282], [141.351893, 43.1537368], [141.351918, 43.1538446], [141.3519864, 43.1541733], [141.3521202, 43.1547667], [141.3521383, 43.1548484], [141.3523591, 43.155736], [141.3524543, 43.156144], [141.3526617, 43.1570335], [141.3529127, 43.1580787], [141.3530469, 43.1586324], [141.3530761, 43.158755], [141.3530999, 43.1588527], [141.3531406, 43.1589741], [141.3533241, 43.159636], [141.3534158, 43.1599503], [141.3534522, 43.1601485], [141.3536749, 43.1608773], [141.3537708, 43.16118], [141.3537999, 43.1613402], [141.3537969, 43.1615102], [141.3537052, 43.1617462], [141.3536147, 43.1618832], [141.3534859, 43.1620355], [141.3530641, 43.1624441], [141.3524856, 43.1630186], [141.3513748, 43.1640631], [141.3513515, 43.164085], [141.3501866, 43.1651803], [141.3500408, 43.1653087], [141.3499187, 43.1654323], [141.3497331, 43.165607], [141.3493362, 43.1660829], [141.3490799, 43.1665203], [141.3488604, 43.1671673], [141.3487755, 43.1677189], [141.3486946, 43.1694039], [141.3486733, 43.1708742], [141.3485408, 43.1749615], [141.3485246, 43.1750692], [141.348478, 43.1753795], [141.348286, 43.1766574], [141.3480143, 43.1784973], [141.3479486, 43.1787642], [141.3478508, 43.1790352], [141.3477714, 43.1791849], [141.3476576, 43.1793463], [141.3474802, 43.1795163], [141.3472385, 43.1796868], [141.3469447, 43.1798266], [141.346705, 43.1798984], [141.3464572, 43.1799585], [141.3461419, 43.179991], [141.3457253, 43.1799917], [141.3446221, 43.1799159], [141.3406534, 43.1795989]], [[141.3366948, 43.2159295], [141.3368589, 43.2160986], [141.3370517, 43.2163092], [141.3384836, 43.2177433], [141.3390152, 43.2182179], [141.3435682, 43.2219083], [141.3436217, 43.2219522], [141.3449975, 43.2230408], [141.3468812, 43.2246068], [141.3471202, 43.2247999], [141.3486515, 43.2260227], [141.3488275, 43.2261632], [141.3489397, 43.2262528], [141.3490432, 43.2263352], [141.3492768, 43.226529], [141.3609861, 43.2359654], [141.3611174, 43.2360713], [141.363719, 43.2381697], [141.3637789, 43.2382177], [141.3698883, 43.2432162], [141.3699343, 43.2432538], [141.3702784, 43.2435184], [141.3704326, 43.243637], [141.3704699, 43.2436657], [141.3705745, 43.2437461], [141.3707031, 43.243848], [141.3707366, 43.2438746], [141.3712369, 43.2442712], [141.3716884, 43.2446113], [141.372832, 43.2456242], [141.3735512, 43.246291], [141.3739244, 43.2466789], [141.3754232, 43.2481577], [141.3781097, 43.2510226], [141.3800301, 43.2531393], [141.3811991, 43.2544479], [141.3812975, 43.2545581], [141.3818724, 43.2551444], [141.3825662, 43.255904], [141.3835571, 43.2569805], [141.3836851, 43.2571157], [141.3842053, 43.2577082], [141.3843159, 43.257834], [141.3858109, 43.2594297], [141.3859715, 43.2596352], [141.3867144, 43.2603851], [141.3871295, 43.2607379], [141.3875483, 43.2610623], [141.3880915, 43.2614683], [141.3888001, 43.2618975], [141.3895891, 43.2623144], [141.3904826, 43.2627236], [141.3910319, 43.2629447], [141.3911339, 43.2629794], [141.391573, 43.2631363], [141.3924558, 43.2634107], [141.3942637, 43.2639464], [141.394469, 43.2640087], [141.3951176, 43.2641961], [141.3952348, 43.2642331], [141.3953748, 43.2642824], [141.3957852, 43.2644456], [141.3961722, 43.2646608], [141.3965133, 43.2649075], [141.3969022, 43.2652923], [141.397106, 43.2655989], [141.3973126, 43.2659071], [141.3980733, 43.2672201], [141.3983077, 43.267554], [141.4000281, 43.2696957], [141.4016926, 43.2717686], [141.4019491, 43.27213], [141.4029443, 43.2737064], [141.4031892, 43.2741169], [141.4034731, 43.2745843], [141.403677, 43.2749406], [141.4037326, 43.2750509], [141.4038561, 43.2754065], [141.4040057, 43.2758875], [141.4041308, 43.2761625], [141.4043103, 43.2763644], [141.4045277, 43.2765394], [141.4046994, 43.2766449], [141.4048791, 43.2767328], [141.4050347, 43.2767835], [141.4053653, 43.2768695], [141.4056252, 43.2768934], [141.4060647, 43.2768992], [141.4066455, 43.2769209], [141.4071617, 43.2769964], [141.4074674, 43.277096], [141.407711, 43.2771966], [141.4079948, 43.2773455], [141.408256, 43.2775432], [141.4084947, 43.2777794], [141.4087924, 43.2782208], [141.4089446, 43.2784379], [141.409849, 43.2798408], [141.4099759, 43.2800771], [141.4100396, 43.2802296], [141.4100692, 43.2803004], [141.4101201, 43.280521], [141.4101566, 43.280789], [141.4100558, 43.2819758], [141.4099986, 43.2825755], [141.4095992, 43.2872621], [141.4095917, 43.2874311], [141.4096224, 43.2877117], [141.4097396, 43.2882618], [141.409995, 43.2897769], [141.4100351, 43.289909], [141.4102422, 43.2910356], [141.4106922, 43.29344], [141.4114425, 43.2975588], [141.4115018, 43.2978841], [141.4115526, 43.2981629], [141.4118883, 43.2999787], [141.4121496, 43.3014208], [141.4123034, 43.3023089], [141.412341, 43.3028827], [141.4123415, 43.3054101], [141.4123415, 43.3056662], [141.4123416, 43.3060116], [141.412326, 43.3097081], [141.412323, 43.3111728], [141.4123222, 43.3115097], [141.4123544, 43.3117303], [141.4123998, 43.3119152], [141.4124617, 43.3120835], [141.4125153, 43.3121967], [141.4126226, 43.3123919], [141.4128301, 43.3126367], [141.4130252, 43.3128353], [141.4131345, 43.3129231], [141.4135046, 43.3132515], [141.4135608, 43.3133], [141.4143755, 43.3140194], [141.4146071, 43.3142313], [141.4149527, 43.3145475], [141.4150006, 43.314586], [141.4154795, 43.3149714], [141.4157536, 43.3151628], [141.4160416, 43.3153447], [141.4164544, 43.3155633], [141.4169101, 43.3157604], [141.4173299, 43.3159223], [141.4176893, 43.3160394], [141.4181807, 43.316166], [141.4183583, 43.3162065], [141.4188289, 43.3162826], [141.4192753, 43.3163288], [141.4198063, 43.3163465], [141.4202198, 43.3163534], [141.4208485, 43.3163657], [141.4213639, 43.3163691], [141.4220222, 43.3163517], [141.4232003, 43.316336], [141.4234944, 43.3163423], [141.4238249, 43.3163652], [141.424102, 43.3164116], [141.4244651, 43.3164854], [141.4247032, 43.3165503], [141.4250735, 43.3166758], [141.4253445, 43.3168062], [141.4256603, 43.3169761], [141.4269108, 43.3177651], [141.4269937, 43.317829], [141.4285627, 43.3188859], [141.4290226, 43.3191943], [141.4294263, 43.3194652], [141.4296815, 43.3196328], [141.4299391, 43.3197697], [141.4302645, 43.3199131], [141.4305823, 43.3200262], [141.4311596, 43.3201868], [141.4324329, 43.3205571], [141.4358676, 43.3215374], [141.4371276, 43.3219011], [141.437581, 43.3219982], [141.4377621, 43.3220243], [141.438074, 43.3220689], [141.4385443, 43.3221101], [141.440705, 43.3222813], [141.4410684, 43.3223283], [141.4413241, 43.3223678], [141.441573, 43.3224174], [141.4417577, 43.3224676], [141.4419276, 43.3225385], [141.4421874, 43.3226466], [141.4424564, 43.3227998], [141.4426084, 43.3229066], [141.4427733, 43.323043], [141.4428694, 43.3231353], [141.4430972, 43.3234003], [141.4432092, 43.3235949], [141.4432866, 43.3238017], [141.4433205, 43.3238835], [141.4433547, 43.3239662], [141.4433766, 43.3242396], [141.4433937, 43.3244802], [141.4433527, 43.3247152], [141.4432595, 43.3249716], [141.4427706, 43.3261234], [141.4425614, 43.326645], [141.4423418, 43.3274256], [141.4416037, 43.330207], [141.4415319, 43.3305229], [141.4415331, 43.3307935], [141.4415704, 43.3311243], [141.4419308, 43.3325202], [141.4419828, 43.3328981], [141.4419128, 43.3331803], [141.4418119, 43.3333878], [141.4416025, 43.3336471], [141.4413015, 43.3338586], [141.4408912, 43.334032], [141.4404244, 43.3341323], [141.440155, 43.3341682], [141.4381311, 43.3344163], [141.4353661, 43.3347524], [141.4348459, 43.3347976], [141.4344126, 43.3347987], [141.4339378, 43.3347842], [141.4335405, 43.3347486], [141.4321298, 43.3345055], [141.4311327, 43.3343422], [141.4308388, 43.3343129], [141.4305843, 43.334319], [141.430379, 43.3343494], [141.4301752, 43.3343994], [141.4299227, 43.3344969], [141.4293608, 43.3348047], [141.4287477, 43.3351298], [141.4275863, 43.3357511], [141.4263395, 43.3364333], [141.4240274, 43.337658], [141.4236315, 43.3379287], [141.4233789, 43.3382134], [141.4232334, 43.3384924], [141.423166, 43.3388238], [141.4231427, 43.3391488], [141.4231657, 43.3395929], [141.4233265, 43.3417262], [141.4233282, 43.3417615], [141.4233519, 43.342201], [141.4233531, 43.3422244], [141.4233933, 43.3427303], [141.4234067, 43.3428473], [141.4234784, 43.343338], [141.4242459, 43.3465654], [141.4247173, 43.3485717], [141.4249542, 43.3493303], [141.4251807, 43.3497602], [141.4254179, 43.350137], [141.4275006, 43.3530199], [141.4277101, 43.3532988], [141.4279587, 43.3536088], [141.4282361, 43.3538633], [141.4285933, 43.3541107], [141.4294514, 43.354649], [141.4296279, 43.3547714], [141.4299039, 43.3550007], [141.4300859, 43.3552166], [141.4301957, 43.3554017], [141.4302691, 43.3555932], [141.4303459, 43.3558528], [141.4303707, 43.3560148], [141.4303625, 43.3561723], [141.430365, 43.3562113], [141.4303474, 43.3563099], [141.430293, 43.3565754], [141.4300519, 43.3569952], [141.4299096, 43.3572564], [141.4298807, 43.3573027], [141.4293217, 43.3582354], [141.4291996, 43.358481], [141.429147, 43.3587847], [141.4291535, 43.3592548], [141.4293181, 43.3597882], [141.4295231, 43.360103], [141.4299389, 43.3604941], [141.4302566, 43.3606955], [141.4304794, 43.3608163], [141.4307345, 43.3610167], [141.4309041, 43.3612438], [141.4309679, 43.3614704], [141.4310033, 43.3624361], [141.4309389, 43.3628094], [141.4307714, 43.363166], [141.4305351, 43.3634552], [141.4302543, 43.3637055], [141.4286295, 43.3647288], [141.4284419, 43.3648544], [141.4281163, 43.3651324], [141.4278633, 43.3654204], [141.4276964, 43.3656593], [141.4275121, 43.3660103], [141.4273678, 43.3664723], [141.4265594, 43.3708027], [141.4265335, 43.3711881], [141.4265601, 43.3713923], [141.426668, 43.3718187], [141.4276883, 43.3751687], [141.4278712, 43.3758076], [141.4278981, 43.3758882], [141.4279691, 43.3761375], [141.4281161, 43.3766534], [141.4286103, 43.37824], [141.4287678, 43.3788603], [141.4288732, 43.3791991], [141.4290017, 43.3795824], [141.4291201, 43.3798585], [141.429233, 43.380041], [141.4295554, 43.3804812], [141.4298293, 43.3808507], [141.4299919, 43.3810397], [141.4301317, 43.3812728], [141.4302149, 43.3815298], [141.4303025, 43.3818803], [141.4303458, 43.3821703], [141.4304607, 43.3826261], [141.4306636, 43.3830003], [141.430928, 43.3833373], [141.4311593, 43.3835661], [141.4314773, 43.3838208], [141.4321056, 43.3842446], [141.4324149, 43.3845227], [141.4326332, 43.3848258], [141.4327335, 43.385025], [141.4328431, 43.3853008], [141.4328694, 43.3855462], [141.4328725, 43.3856088], [141.4328689, 43.3856845], [141.4328625, 43.3857538], [141.4328237, 43.3860009], [141.4327595, 43.3862511], [141.4326214, 43.3869151], [141.4325513, 43.3873384], [141.432504, 43.3876248], [141.4324834, 43.387987], [141.4325015, 43.3881197], [141.4325636, 43.3883356], [141.4326669, 43.3885739], [141.432853, 43.3889468], [141.4330597, 43.3893334], [141.4332942, 43.3898019], [141.4334462, 43.3900698], [141.4335177, 43.3902252], [141.4335969, 43.3904269], [141.4336055, 43.3905655], [141.4335667, 43.3907546], [141.4334199, 43.3910298], [141.4331751, 43.391392], [141.4329969, 43.3917744], [141.4328645, 43.3921685], [141.4328202, 43.392328], [141.4327474, 43.3925918], [141.4325783, 43.3931489], [141.4325421, 43.3933337], [141.4325588, 43.3935651], [141.4326305, 43.3937831], [141.4327282, 43.3939218], [141.4328491, 43.3940403], [141.4330532, 43.3942016], [141.4333396, 43.3943309], [141.433629, 43.3944162], [141.4340942, 43.3945267], [141.4342614, 43.3945695], [141.4345007, 43.3946307], [141.4353595, 43.3948334], [141.4358792, 43.3949748], [141.4361274, 43.3950747], [141.4362855, 43.3951504], [141.4364104, 43.3952298], [141.4366191, 43.3953726], [141.4366667, 43.3954181], [141.4367976, 43.3955432], [141.4368366, 43.3955915], [141.4369966, 43.3957753], [141.4371093, 43.3959643], [141.437199, 43.396172], [141.4372418, 43.3963453], [141.4372681, 43.3965207], [141.4372391, 43.3968728], [141.4371646, 43.3970919], [141.4369828, 43.3974771], [141.4369433, 43.3975655], [141.4368931, 43.3976771], [141.4368506, 43.3977513], [141.4365801, 43.3982459], [141.4362277, 43.3988784], [141.436195, 43.3989386], [141.4361396, 43.3990377], [141.4360998, 43.399105], [141.435976, 43.3992364], [141.4357397, 43.399366], [141.4355649, 43.3994317], [141.4354108, 43.3994806], [141.4351359, 43.3995574], [141.4348252, 43.3996498], [141.4338487, 43.399946], [141.4336271, 43.400006], [141.4333631, 43.4000844], [141.4327528, 43.4002917], [141.4323939, 43.4004964], [141.4321163, 43.4007325], [141.4318557, 43.4010744], [141.4316656, 43.4014575], [141.4311422, 43.4034479], [141.4310094, 43.4040062], [141.4310053, 43.4040236], [141.4309764, 43.4041312], [141.4309694, 43.4041571], [141.4307859, 43.4048405], [141.4306142, 43.4054406], [141.430464, 43.4061422], [141.4304211, 43.4065553], [141.4303567, 43.4071165], [141.4303353, 43.4076075], [141.4303138, 43.40827], [141.4302602, 43.4102965], [141.4302924, 43.4106706], [141.4303675, 43.4109356], [141.4305069, 43.4111928], [141.4306571, 43.4114188], [141.430861, 43.411637], [141.4312579, 43.411902], [141.43173, 43.4121982], [141.4323094, 43.4125645], [141.4325025, 43.4127126], [141.4326527, 43.4128762], [141.4327063, 43.4131412], [141.4326956, 43.413375], [141.4325883, 43.4136322], [141.4324274, 43.4137881], [141.4321055, 43.4139907], [141.4313438, 43.4143804], [141.4309897, 43.4146064], [141.4307537, 43.4148324], [141.430464, 43.4151831], [141.4302924, 43.4156741], [141.4298739, 43.4170145], [141.4296379, 43.4177003], [141.4295413, 43.4180822], [141.4295159, 43.4181931], [141.4294851, 43.4183814], [141.4294802, 43.4185653], [141.4294883, 43.41916], [141.4294936, 43.4194298], [141.4295008, 43.4196694], [141.4294126, 43.4201551], [141.4293375, 43.4205759], [141.4293258, 43.4206455], [141.4292087, 43.4209421], [141.4290371, 43.4212928], [141.428801, 43.4216434], [141.4284577, 43.4221032], [141.4281884, 43.4223975], [141.4280286, 43.4225552], [141.4277067, 43.4228279], [141.4272561, 43.4231084], [141.4267063, 43.4234474], [141.4261548, 43.423833], [141.4258104, 43.4241], [141.4253946, 43.4244779], [141.424016, 43.4257656], [141.4232569, 43.4266151], [141.4229753, 43.4269928], [141.4219223, 43.4285886], [141.4213736, 43.4294738], [141.4209905, 43.4302769], [141.4202394, 43.4316716], [141.4186301, 43.4344919], [141.4169725, 43.4370239], [141.4162858, 43.4379705], [141.4161434, 43.4382562], [141.415203, 43.440516], [141.414913, 43.441153], [141.413996, 43.443132], [141.413673, 43.443695], [141.412684, 43.445143], [141.4101315, 43.4487821], [141.4097164, 43.4494685], [141.409462, 43.4500095], [141.4091375, 43.4515648], [141.4090948, 43.4534439], [141.4090367, 43.4548248], [141.4088854, 43.4553687], [141.4086053, 43.4559049], [141.4068351, 43.45813], [141.403755, 43.4619571], [141.4009724, 43.465393], [141.4000541, 43.4665037], [141.398344, 43.4680979], [141.3975409, 43.4687831], [141.3968954, 43.4694749], [141.3961622, 43.4706341], [141.3960442, 43.4709611], [141.3959101, 43.4713582], [141.3957598, 43.4720394], [141.3955104, 43.4736633], [141.3951616, 43.4757702], [141.3950446, 43.4768264], [141.3950401, 43.4772887], [141.3951815, 43.4780654], [141.3955028, 43.4788253], [141.3957652, 43.479241], [141.3964019, 43.4800401], [141.3967989, 43.4804216], [141.3970131, 43.4806305], [141.3980864, 43.4815659], [141.3984404, 43.4817839], [141.3988696, 43.4820097], [141.3991001, 43.4821013], [141.4000819, 43.4825468], [141.4004789, 43.482757], [141.4007257, 43.4829283], [141.4008759, 43.4831229], [141.4009724, 43.4833331], [141.4009724, 43.4835666], [141.4008973, 43.4837379], [141.4007471, 43.4839792], [141.4005325, 43.4841271], [141.4004239, 43.4842018], [141.3999532, 43.4843217], [141.3994704, 43.4842983], [141.39917, 43.4842127], [141.3989876, 43.4841271], [141.3987837, 43.483987], [141.3985155, 43.4837534], [141.3972066, 43.482469], [141.3967667, 43.482072], [141.3964115, 43.4818896], [141.3961225, 43.4817937], [141.3957896, 43.4817307], [141.3952769, 43.4816769], [141.3949625, 43.481638], [141.3946864, 43.4815875], [141.3943738, 43.481508], [141.3932546, 43.4809984], [141.3928786, 43.4808733], [141.3925688, 43.4807985], [141.392252, 43.4807479], [141.3919324, 43.4807088], [141.3916062, 43.4806999], [141.3911368, 43.4807349], [141.390552, 43.4808536], [141.3897598, 43.4811917], [141.3884463, 43.4821866], [141.3879798, 43.4824573], [141.3868318, 43.4831151], [141.3864778, 43.4834265], [141.3862954, 43.4836834], [141.3860379, 43.4842127], [141.385876, 43.4844834], [141.385698, 43.484715], [141.385562, 43.484877], [141.38539, 43.48499], [141.3851796, 43.4851235], [141.3846861, 43.4854037], [141.3841925, 43.4856295], [141.3836883, 43.4859097], [141.3832162, 43.4863534], [141.3810061, 43.488603], [141.3800626, 43.4895037], [141.3787077, 43.4907458], [141.3771337, 43.492218], [141.3768047, 43.4925032], [141.3760647, 43.4932462], [141.3757847, 43.4935352], [141.3756738, 43.4936312], [141.374558, 43.494534], [141.3743005, 43.4948531], [141.3741933, 43.4950711], [141.3741396, 43.4953668], [141.3741182, 43.495647], [141.374086, 43.4964486], [141.3740538, 43.4968689], [141.3739679, 43.497188], [141.3737962, 43.4975927], [141.3736461, 43.4979274], [141.3735603, 43.4982386], [141.3736158, 43.4987391], [141.3737596, 43.4995703], [141.3737963, 43.5000676], [141.374204, 43.5020676], [141.3742362, 43.5023011], [141.3742254, 43.502589], [141.3741396, 43.5029003], [141.3740216, 43.5031727], [141.3737641, 43.5034917], [141.3734744, 43.503803], [141.373292, 43.5041376], [141.3732686, 43.5041999], [141.3732277, 43.5044333], [141.3732277, 43.5046357], [141.3732813, 43.5050014], [141.3735294, 43.5060442], [141.373791, 43.5070285], [141.3740042, 43.5075664], [141.3741771, 43.5078494], [141.3744079, 43.5081705], [141.376339, 43.5101761], [141.3767038, 43.5104873], [141.3770793, 43.5107052], [141.3774655, 43.5109153], [141.3805876, 43.512417], [141.3813618, 43.5127321], [141.3818429, 43.5129305], [141.3821648, 43.5130239], [141.3824866, 43.5130628], [141.3830553, 43.5131017], [141.3836239, 43.5131562], [141.3840101, 43.5132106], [141.3843958, 43.5132501], [141.3847826, 43.5134184], [141.3850649, 43.5135818], [141.3853617, 43.5138051], [141.3857441, 43.5141407], [141.3861086, 43.5144373], [141.3869493, 43.5152045], [141.3882077, 43.5163964], [141.3888869, 43.5170184], [141.3896815, 43.5178574], [141.3909712, 43.5194268], [141.392075, 43.521195], [141.392867, 43.5229768], [141.3934303, 43.5248828], [141.3936299, 43.5260582], [141.3937237, 43.5271832], [141.3936637, 43.5291628], [141.3928295, 43.5378687], [141.3927257, 43.5393981], [141.3928461, 43.5402704], [141.3931591, 43.5409968], [141.3932712, 43.5411753], [141.3934693, 43.5414906], [141.3942818, 43.542472], [141.3947316, 43.5428249], [141.3950644, 43.5432358], [141.3952754, 43.5436489], [141.395372, 43.5439678], [141.3955222, 43.5447454], [141.3956724, 43.5451731], [141.395844, 43.5455231], [141.3964556, 43.5464018], [141.3972924, 43.5476616], [141.3974534, 43.5480038], [141.397507, 43.548377], [141.3975392, 43.5486259], [141.3975499, 43.5488825], [141.3974963, 43.5494035], [141.3973461, 43.5500644], [141.39711, 43.5508887], [141.3970135, 43.5514563], [141.3969813, 43.5517984], [141.3970349, 43.552055], [141.3971637, 43.5523272], [141.3973354, 43.5525138], [141.3976679, 43.5527315], [141.3979684, 43.5528715], [141.3984297, 43.5529881], [141.3991593, 43.5530892], [141.4000068, 43.5532136], [141.4006828, 43.5533302], [141.4011977, 43.5534624], [141.40182, 43.5536413], [141.4031075, 43.5540378], [141.4037297, 43.5542167], [141.4042662, 43.55431], [141.404588, 43.5543566], [141.4050601, 43.5543877], [141.4059613, 43.5544421], [141.4065836, 43.5545199], [141.407002, 43.5546287], [141.4072176, 43.5547046], [141.4074566, 43.5549256], [141.4077002, 43.555246], [141.4077666, 43.5555946], [141.4077906, 43.5557386], [141.4078282, 43.5559039], [141.4077209, 43.5562071], [141.4074205, 43.556487], [141.4071522, 43.5566892], [141.4068411, 43.5568291], [141.4063583, 43.5569224], [141.405897, 43.5569224], [141.4054356, 43.5568447], [141.4044915, 43.556557], [141.4038156, 43.5563393], [141.4028929, 43.556075], [141.4027793, 43.556054], [141.4023994, 43.5559816], [141.4020453, 43.5559428], [141.4016483, 43.5559194], [141.4011119, 43.555935], [141.3998566, 43.5560283], [141.3981722, 43.5560361], [141.3968955, 43.5560905], [141.3957904, 43.5561916], [141.3953036, 43.5562464], [141.3950437, 43.5562751], [141.3943206, 43.5563549], [141.39332, 43.5564522], [141.3926559, 43.5564842], [141.391425, 43.5564931], [141.3888593, 43.556497], [141.3878738, 43.5565441], [141.3875037, 43.5565704], [141.3869546, 43.5566333], [141.3865366, 43.5566991], [141.3859385, 43.5568097], [141.3854708, 43.5569027], [141.3846217, 43.5571013], [141.3841203, 43.5572731], [141.3826905, 43.5578088], [141.3812206, 43.5584463], [141.3800297, 43.5589595], [141.3794933, 43.5592938], [141.3792465, 43.5595193], [141.3790427, 43.5597758], [141.3789247, 43.5600013], [141.3788365, 43.5603174], [141.3788281, 43.5605922], [141.3788818, 43.5609731], [141.3788957, 43.561054], [141.3789569, 43.5614085], [141.3799976, 43.5647203], [141.3807046, 43.5673557], [141.3811067, 43.5688525], [141.3812676, 43.5692878], [141.3814929, 43.5697231], [141.381686, 43.5700652], [141.3819542, 43.5704538], [141.3824172, 43.5708976], [141.3835797, 43.5721523], [141.3847659, 43.5734387], [141.3852247, 43.5739331], [141.3853706, 43.574101], [141.3856494, 43.5744261], [141.3858653, 43.5747425], [141.3860206, 43.5750304], [141.3861791, 43.5753563], [141.386697, 43.5766075], [141.3868288, 43.5769697], [141.3870194, 43.5775505], [141.3870811, 43.5777308], [141.3872066, 43.5781274], [141.3872732, 43.578575], [141.3872932, 43.5787304], [141.3873417, 43.5791305], [141.3873512, 43.5792251], [141.3873605, 43.5792991], [141.3874862, 43.5802177], [141.387558, 43.580712], [141.3875727, 43.5808306], [141.3876165, 43.5811375], [141.3877016, 43.5817543], [141.387716, 43.5818653], [141.3877217, 43.582616], [141.3877133, 43.5830447], [141.3876983, 43.583751], [141.3876863, 43.5841851], [141.3876643, 43.5847176], [141.3876088, 43.5851289], [141.3875727, 43.5852928], [141.387401, 43.5860403], [141.3873601, 43.5862155], [141.3872794, 43.5865379], [141.3869462, 43.5878488], [141.3869135, 43.5880911], [141.3868482, 43.5883978], [141.3867422, 43.5887918], [141.3865626, 43.5895113], [141.3864474, 43.5900584], [141.3863953, 43.5902637], [141.3863475, 43.5904221], [141.386263, 43.5906249], [141.3862247, 43.5907029], [141.3861334, 43.5908748], [141.3860078, 43.5910581], [141.3858542, 43.5912438], [141.3856764, 43.5914317], [141.3855444, 43.5915427], [141.3852761, 43.5917914], [141.3850088, 43.5920941], [141.3848833, 43.5923608], [141.384856, 43.592659], [141.3847891, 43.5930429], [141.38435, 43.5938172], [141.3840056, 43.5944704], [141.3839395, 43.594821], [141.3839307, 43.5953291], [141.3839983, 43.5957076], [141.3841386, 43.5960839], [141.3842828, 43.5968539], [141.3843714, 43.5973237], [141.384349, 43.5977412], [141.3842362, 43.5981322], [141.3840914, 43.5988679], [141.3840527, 43.5994578], [141.3840481, 43.600376], [141.3840475, 43.6009301], [141.3840396, 43.6015277], [141.3840389, 43.6015738], [141.3840414, 43.6017293], [141.3840376, 43.6018491], [141.3840144, 43.6025911], [141.3839628, 43.6034625], [141.3839295, 43.6039133], [141.3838965, 43.6040702], [141.3838426, 43.6042248], [141.3837488, 43.604412], [141.3835826, 43.6046467], [141.383331, 43.6049158], [141.3830553, 43.6051732], [141.3824884, 43.6057165], [141.3821363, 43.6060099], [141.3818507, 43.6062115], [141.3816321, 43.6063587], [141.3810952, 43.6067014], [141.3790856, 43.6083922], [141.3787986, 43.6086306], [141.3783442, 43.6090422], [141.3770743, 43.6101354], [141.3766858, 43.6104854], [141.3763914, 43.610791], [141.3761073, 43.6111852], [141.3759484, 43.6114958], [141.3758142, 43.6118748], [141.3756668, 43.6123534], [141.3756121, 43.6125957], [141.3755799, 43.6127167], [141.3755569, 43.6130527], [141.3755683, 43.6132655], [141.3756095, 43.6134829], [141.3756765, 43.6136748], [141.3757787, 43.6138864], [141.3759267, 43.6141242], [141.376103, 43.6143218], [141.3763622, 43.6145648], [141.3767065, 43.6148096], [141.3768791, 43.6149159], [141.3777555, 43.6154946], [141.3780919, 43.615784], [141.3783708, 43.6161106], [141.3786354, 43.6165261], [141.3788397, 43.6170232], [141.3788834, 43.617226], [141.3789358, 43.6177841], [141.3789806, 43.6198021], [141.3789998, 43.6206754], [141.3790013, 43.6211099], [141.3789783, 43.6213589], [141.3789504, 43.6214804], [141.3788891, 43.6216956], [141.3787763, 43.6219501], [141.3786461, 43.6221782], [141.3783748, 43.6225398], [141.3782077, 43.6227054], [141.3779299, 43.6229428], [141.3776156, 43.6231353], [141.3773003, 43.62331], [141.3770613, 43.6234166], [141.3767987, 43.6235041], [141.3751434, 43.6239841], [141.3737165, 43.6243946], [141.3722206, 43.6248095], [141.3720529, 43.6248647], [141.3716325, 43.6250375], [141.3712228, 43.625275], [141.3705919, 43.6257529], [141.369699, 43.6264652], [141.3692537, 43.6267427], [141.3688467, 43.6269613], [141.3683695, 43.6271791], [141.3666594, 43.6279004], [141.3644019, 43.628839], [141.3640568, 43.6290196], [141.3637219, 43.6292184], [141.3633142, 43.6295756], [141.3631282, 43.6297927], [141.3629825, 43.6300138], [141.3628118, 43.6303438], [141.3627184, 43.6306962], [141.3626743, 43.6309183], [141.3626743, 43.6312011], [141.3626489, 43.6316925], [141.3626444, 43.6321672], [141.3626022, 43.6330725], [141.3625669, 43.633524], [141.3625264, 43.6338669], [141.3624305, 43.6343007], [141.3622299, 43.6347766], [141.3619557, 43.635294], [141.3618014, 43.635485], [141.3614903, 43.6358034], [141.3610612, 43.6361916], [141.3589173, 43.637877], [141.3559462, 43.6400739], [141.3551523, 43.6407028], [141.3548786, 43.6410018], [141.3546185, 43.6413958], [141.3545018, 43.6417277], [141.3544361, 43.6419703], [141.3544039, 43.64218], [141.3544147, 43.6424478], [141.3544522, 43.6427021], [141.3545098, 43.6428916], [141.3545488, 43.6430476], [141.3549097, 43.6436841], [141.355448, 43.6446125], [141.3560858, 43.6457715], [141.356512, 43.6465128], [141.3568693, 43.6473079], [141.3569359, 43.6475234], [141.3569976, 43.6477776], [141.3570553, 43.6481095], [141.3570647, 43.6484064], [141.3570582, 43.6486606], [141.3570378, 43.648878], [141.3569413, 43.6493904], [141.3568125, 43.6497009], [141.3566348, 43.6500438], [141.3565095, 43.6502676], [141.356437, 43.6504035], [141.3562698, 43.6506211], [141.3560723, 43.6508731], [141.355686, 43.6512535], [141.3552676, 43.6515796], [141.3546534, 43.6519716], [141.3545248, 43.6520407], [141.3540367, 43.6522888], [141.3536791, 43.6524416], [141.3519785, 43.653168], [141.3511423, 43.6535397], [141.350571, 43.6538347], [141.3503564, 43.6539976], [141.3502304, 43.6541878], [141.3501593, 43.6543276], [141.3501607, 43.6544673], [141.3501955, 43.6547855], [141.3503323, 43.6564156], [141.3503538, 43.6573005], [141.350268, 43.6588141], [141.3504289, 43.660902], [141.3504182, 43.6615928], [141.3501607, 43.662369], [141.3500748, 43.6626639], [141.3495491, 43.6639057], [141.3494096, 43.664255], [141.3493882, 43.6645421], [141.3493882, 43.6648448], [141.3494311, 43.6651087], [141.3495491, 43.6654347], [141.349722, 43.665724], [141.3498569, 43.6659787], [141.3499704, 43.6664144], [141.3499581, 43.666589], [141.3498851, 43.6669174], [141.3496871, 43.6673676], [141.3476716, 43.6714182], [141.3471633, 43.6725087], [141.3467292, 43.673471], [141.346362, 43.674419], [141.3462304, 43.6748082], [141.3461186, 43.6752331], [141.3460225, 43.675758], [141.3459842, 43.676317], [141.3459915, 43.6768689], [141.3459636, 43.6777908], [141.3458522, 43.6786725], [141.3452536, 43.6799279], [141.3443696, 43.6814842], [141.340326, 43.688725], [141.3402114, 43.6890196], [141.3401605, 43.689159], [141.340056, 43.6894586], [141.3400041, 43.6896474], [141.3399354, 43.689933], [141.3396891, 43.6911197], [141.3394824, 43.6920644], [141.3392873, 43.6929521], [141.3391101, 43.6935427], [141.3386182, 43.694286], [141.33846, 43.6946318], [141.338353, 43.694884], [141.33826, 43.695171], [141.3382358, 43.695488], [141.3382153, 43.6956881], [141.3381862, 43.6959686], [141.33815, 43.6962635], [141.338083, 43.6966246], [141.3380415, 43.697019], [141.3380216, 43.6972944], [141.3379902, 43.6975731], [141.3379474, 43.6979116], [141.3378942, 43.698332], [141.3378524, 43.6987059], [141.3377996, 43.6990936], [141.3376986, 43.6995715], [141.337645, 43.699806], [141.337593, 43.700212], [141.3374813, 43.7004697], [141.33735, 43.700853], [141.3372032, 43.7012103], [141.3370992, 43.7014736], [141.3369292, 43.7018222], [141.3366741, 43.7022808], [141.3363042, 43.7029855], [141.3359853, 43.7035666], [141.3355529, 43.7043402], [141.335369, 43.7046986], [141.3349653, 43.7054183], [141.3341833, 43.706847], [141.3321598, 43.7105381], [141.3319932, 43.7109831], [141.3308943, 43.7229358], [141.3309513, 43.7233855], [141.3310747, 43.7237577], [141.3332312, 43.7274909], [141.3343388, 43.7294669], [141.335317, 43.7310666], [141.3357698, 43.7316972], [141.3358898, 43.7318629], [141.3367599, 43.7330822], [141.3369057, 43.7332534], [141.3370907, 43.7334503], [141.3376964, 43.7339385], [141.3378996, 43.7341107], [141.3380495, 43.7342624], [141.338131, 43.7343688], [141.3382858, 43.7346421], [141.3383506, 43.7348275], [141.3383927, 43.7349765], [141.3384112, 43.7351826], [141.338403, 43.735415], [141.3383606, 43.7359226], [141.3383398, 43.7361456], [141.3382942, 43.7367812], [141.3382969, 43.7368649], [141.3383462, 43.7371542], [141.3383897, 43.7372876], [141.3385133, 43.7375997], [141.3385341, 43.7376603], [141.338587, 43.7377747], [141.3387118, 43.7380816], [141.3389814, 43.7387332], [141.3391086, 43.7390424], [141.3392192, 43.7392583], [141.339378, 43.7394772], [141.3394582, 43.7395679], [141.339907, 43.739956], [141.3399586, 43.7399937], [141.3403157, 43.7402276], [141.3406454, 43.7404296], [141.3407578, 43.7405004], [141.341092, 43.740711], [141.3413066, 43.740864], [141.341573, 43.741054], [141.34179, 43.741263], [141.341868, 43.741336], [141.342317, 43.741803], [141.3426264, 43.7421332], [141.3428836, 43.7423381], [141.34327, 43.742703], [141.3436657, 43.7430987], [141.3436987, 43.7431198], [141.3437455, 43.7431633], [141.3441959, 43.7435643], [141.344526, 43.743908], [141.344828, 43.744239], [141.3451, 43.744667], [141.345247, 43.744938], [141.345347, 43.745202], [141.345486, 43.745596], [141.345843, 43.746333], [141.345936, 43.746541], [141.346168, 43.74693], [141.346262, 43.747105], [141.346455, 43.747413], [141.346635, 43.747651], [141.346921, 43.74798], [141.347177, 43.748283], [141.347609, 43.748822], [141.347766, 43.749064], [141.3480121, 43.7494009], [141.3480762, 43.7495244], [141.3482537, 43.7499079], [141.348629, 43.750543], [141.3488898, 43.751005], [141.349386, 43.751618], [141.349454, 43.751732], [141.3495935, 43.751931], [141.3496864, 43.7521569], [141.349742, 43.752371], [141.3498006, 43.7526916], [141.3499183, 43.7530924], [141.3501304, 43.7534137], [141.350301, 43.753649], [141.3505555, 43.7539713], [141.3506411, 43.7540727], [141.350817, 43.754276], [141.351047, 43.754496], [141.351295, 43.754707], [141.351644, 43.754971], [141.352475, 43.755543], [141.353531, 43.756271], [141.354034, 43.756601], [141.354504, 43.756883], [141.354578, 43.756917], [141.355983, 43.757571], [141.356254, 43.757697], [141.35725, 43.758162], [141.357459, 43.758304], [141.357604, 43.758425], [141.35769, 43.758507], [141.357878, 43.758727], [141.358009, 43.758863], [141.358262, 43.75905], [141.358491, 43.759177], [141.358728, 43.759281], [141.358977, 43.759355], [141.359292, 43.759414], [141.359488, 43.759467], [141.359632, 43.759553], [141.360042, 43.759814], [141.3604721, 43.7601411], [141.361092, 43.760593], [141.361317, 43.760782], [141.361529, 43.761001], [141.361765, 43.761321], [141.362069, 43.761794], [141.362175, 43.762016], [141.3628945, 43.7633761], [141.363056, 43.763767], [141.363203, 43.764176], [141.36335, 43.764839], [141.3635177, 43.7656277], [141.36355, 43.7657896], [141.3635616, 43.766027], [141.3635299, 43.7662582], [141.3634801, 43.7665313], [141.3634479, 43.7668803], [141.3634263, 43.7670545], [141.3634016, 43.7676292], [141.3634388, 43.767927], [141.3635171, 43.7683609], [141.3635771, 43.7685794], [141.3636628, 43.7687066], [141.363757, 43.768814], [141.36388, 43.768936], [141.364931, 43.769671], [141.365455, 43.770132], [141.365847, 43.770564], [141.366088, 43.77083], [141.366872, 43.771755], [141.367186, 43.772127], [141.3674553, 43.772474], [141.3676861, 43.7728227], [141.3680941, 43.7736458], [141.3682421, 43.7739894], [141.36828, 43.774234], [141.3682937, 43.7743696], [141.3682977, 43.7744197], [141.3683055, 43.7745157], [141.368325, 43.7747576], [141.3684155, 43.7749101], [141.3687305, 43.7752332], [141.3694901, 43.776048], [141.3697346, 43.7764202], [141.3698504, 43.7766442], [141.3700455, 43.7769913], [141.3704074, 43.7776428], [141.3704632, 43.7778033], [141.3706522, 43.7784001], [141.3707726, 43.7788293], [141.3707774, 43.7789725], [141.3707512, 43.7791109], [141.3704618, 43.7800419], [141.3705022, 43.7804075], [141.3705491, 43.7806315], [141.3706536, 43.7809133], [141.3709479, 43.7814323], [141.3710705, 43.7817368], [141.371269, 43.78253], [141.371308, 43.782745], [141.3713196, 43.7828642], [141.3712957, 43.7832062], [141.3712543, 43.7833989], [141.371217, 43.7835321], [141.371158, 43.7836698], [141.3711192, 43.7837827], [141.3710599, 43.7839433], [141.3703199, 43.7858698], [141.3702545, 43.7860527], [141.3702038, 43.7863124], [141.3702125, 43.7865843], [141.3702697, 43.7867462], [141.3703519, 43.7869108], [141.3704575, 43.7871082], [141.3708399, 43.7876867], [141.371267, 43.788369], [141.3719789, 43.7894526], [141.374983, 43.794122], [141.376091, 43.795794], [141.376113, 43.795829], [141.376631, 43.796565], [141.376851, 43.796906], [141.377045, 43.797156], [141.377206, 43.797344], [141.377971, 43.79809], [141.378958, 43.798978], [141.379392, 43.799311], [141.379894, 43.799726], [141.380561, 43.800252], [141.380633, 43.800313], [141.381132, 43.800633], [141.382657, 43.801437], [141.387087, 43.803635], [141.38833, 43.80426], [141.389882, 43.805056], [141.390872, 43.805361], [141.39194, 43.805568], [141.392836, 43.805678], [141.393732, 43.805831], [141.394837, 43.806093], [141.395865, 43.806426], [141.398185, 43.807405], [141.401039, 43.808605], [141.405928, 43.810618], [141.410037, 43.812246], [141.410588, 43.81256], [141.4116785, 43.813512], [141.411946, 43.8137023], [141.4122623, 43.8138776], [141.4128628, 43.8141337], [141.4133742, 43.8142898], [141.4135609, 43.8143441], [141.4139269, 43.8144489], [141.4143455, 43.8146373], [141.4149998, 43.8149954], [141.4153803, 43.8151807], [141.4156613, 43.8153198], [141.4158682, 43.8153999], [141.4160992, 43.8154712], [141.4163785, 43.8155451], [141.417994, 43.8159635], [141.418148, 43.816024], [141.4183279, 43.8161125], [141.4187959, 43.8163397], [141.419126, 43.8164831], [141.4195033, 43.8166107], [141.4198517, 43.816695], [141.4207797, 43.8168728], [141.4217426, 43.8170129], [141.4220765, 43.8170983], [141.4222771, 43.817183], [141.4225628, 43.8173403], [141.4227077, 43.8174284], [141.422904, 43.817562], [141.4231803, 43.8177714], [141.4235251, 43.8179693], [141.4238416, 43.8180905], [141.4240809, 43.8181601], [141.4245462, 43.8183018], [141.425824, 43.818745], [141.4321092, 43.8208575], [141.4321752, 43.82088], [141.4335053, 43.8213143], [141.433568, 43.8213349], [141.436016, 43.82226], [141.436613, 43.822415], [141.437026, 43.822493], [141.437563, 43.822542], [141.4380099, 43.8225255], [141.4393157, 43.8224902], [141.43941, 43.8224784], [141.44626, 43.821828], [141.44905, 43.821508], [141.451934, 43.821188], [141.456403, 43.820699], [141.460624, 43.820226], [141.460952, 43.820202], [141.461219, 43.820182], [141.461628, 43.820205], [141.462133, 43.820287], [141.463033, 43.820471], [141.4636894, 43.8206057], [141.4641724, 43.8208162], [141.4642678, 43.8208579], [141.4646427, 43.8210623], [141.464973, 43.8212552], [141.465327, 43.8215043], [141.465662, 43.821771], [141.465793, 43.821884], [141.466112, 43.822227], [141.4668471, 43.8233072], [141.4670563, 43.8235869], [141.4673228, 43.8238802], [141.4675649, 43.8241149], [141.467781, 43.824309], [141.4685255, 43.8249536], [141.4690647, 43.8254298], [141.4695152, 43.8258233], [141.4699242, 43.8261788], [141.4703152, 43.8264761], [141.4709995, 43.8269418], [141.4717215, 43.8272934], [141.472237, 43.8275183], [141.473044, 43.827809], [141.473634, 43.828045], [141.474146, 43.828254], [141.474519, 43.828422], [141.474822, 43.828575], [141.4752388, 43.8288541], [141.475559, 43.8290863], [141.4758184, 43.8292975], [141.47625, 43.829655], [141.476677, 43.830094], [141.476848, 43.830291], [141.477228, 43.830758], [141.4776424, 43.8314123], [141.4784077, 43.8324829], [141.4785603, 43.832653], [141.4787169, 43.8327913], [141.4789378, 43.8329331], [141.4790957, 43.8330184], [141.4791673, 43.8330559], [141.4792921, 43.8331212], [141.4797658, 43.8333564], [141.4803981, 43.8336973], [141.4821031, 43.8345169], [141.4824052, 43.8346264], [141.4826683, 43.8347112], [141.4829885, 43.8347911], [141.4835986, 43.8349248], [141.4840167, 43.8350062], [141.4866265, 43.835357], [141.4868119, 43.8353822], [141.4876191, 43.8354901], [141.4878102, 43.8355039], [141.4879156, 43.8355177], [141.4885221, 43.8355525], [141.4887258, 43.8355548], [141.4889253, 43.835549], [141.4896767, 43.8355003], [141.4903769, 43.8354506], [141.4905518, 43.8354345], [141.491052, 43.8354306], [141.4915015, 43.8354488], [141.4916886, 43.835483], [141.4924702, 43.8356239], [141.4929603, 43.8357193], [141.4932358, 43.8357807], [141.4933528, 43.8358067], [141.4938683, 43.8359923], [141.4941989, 43.8361422], [141.4944938, 43.8363037], [141.4954806, 43.8369846], [141.4959511, 43.837309], [141.4962314, 43.8375079], [141.4965052, 43.8376976], [141.496923, 43.838014], [141.4972073, 43.8382328], [141.4977148, 43.8387231], [141.4980697, 43.8392007], [141.498239, 43.83945], [141.4983762, 43.8396989], [141.4985519, 43.8400825], [141.499059, 43.8411294], [141.4992591, 43.8415005], [141.499395, 43.841721], [141.4995618, 43.8419539], [141.499644, 43.842059], [141.5006585, 43.843228], [141.5011759, 43.8438467], [141.5017253, 43.8444877], [141.5021912, 43.8450227], [141.5024595, 43.8452821], [141.5026878, 43.8454992], [141.5031754, 43.8459208], [141.5034241, 43.8461272], [141.5035922, 43.8462667], [141.5039774, 43.8466696], [141.504229, 43.8469631], [141.5045618, 43.8474546], [141.5049585, 43.8481074], [141.5051371, 43.8484017], [141.5053679, 43.8487821], [141.5057777, 43.8494575], [141.506496, 43.8506354], [141.5067891, 43.8511093], [141.5070277, 43.8514419], [141.5072052, 43.8516525], [141.5076823, 43.8521704], [141.5087107, 43.8531526], [141.509137, 43.853583], [141.509494, 43.853881], [141.509689, 43.854011], [141.5098915, 43.8541248], [141.510206, 43.8542655], [141.5106524, 43.8544016], [141.5108327, 43.8544504], [141.5123033, 43.8548156], [141.5125826, 43.8548886], [141.5127043, 43.8549187], [141.5128227, 43.854948], [141.513891, 43.8552208], [141.5157271, 43.8556737], [141.5158552, 43.855706], [141.5175204, 43.8561264], [141.5176609, 43.8561613], [141.517714, 43.8560448], [141.5179244, 43.8555831], [141.5181499, 43.8551242], [141.5182024, 43.8550197], [141.5182511, 43.8549168], [141.5184839, 43.8544304], [141.5187603, 43.8538524], [141.5190281, 43.8532808], [141.5192563, 43.8527937], [141.5193083, 43.8526806], [141.5195768, 43.852128], [141.5195877, 43.8521014], [141.5198086, 43.8516335], [141.5198587, 43.8515301], [141.5201391, 43.8509519], [141.5203529, 43.8504783], [141.5203984, 43.8503725], [141.5204688, 43.850242], [141.520627, 43.849919], [141.5206972, 43.8498005], [141.5207712, 43.8496675], [141.5209003, 43.8495019], [141.521142, 43.849271], [141.5213189, 43.8491305], [141.5215912, 43.8489733], [141.5217443, 43.8488777], [141.5219736, 43.8487985], [141.5221518, 43.8487316], [141.5223213, 43.8487026], [141.5225379, 43.8486636], [141.5227834, 43.8486268], [141.5231365, 43.8486226], [141.5234123, 43.8486288], [141.5236078, 43.8486496], [141.5238916, 43.8486819], [141.524404, 43.8487317], [141.5251315, 43.8488249], [141.5254582, 43.8488574], [141.5257844, 43.8488955], [141.5263392, 43.8489558], [141.5298804, 43.8493407], [141.5325621, 43.8496315], [141.5329713, 43.8496866], [141.5338928, 43.849889], [141.5340588, 43.8499294], [141.5343003, 43.8499776], [141.5348209, 43.8500996], [141.5396974, 43.8512421], [141.54131, 43.851659], [141.541481, 43.851724], [141.543055, 43.852509], [141.543498, 43.85274], [141.544092, 43.85306], [141.5444673, 43.8532611], [141.544794, 43.8534833], [141.5450003, 43.8536497], [141.5452642, 43.8539268], [141.5454939, 43.854212], [141.5457041, 43.8545306], [141.5460303, 43.8549992], [141.5461966, 43.8552293], [141.5463146, 43.8554687], [141.5464112, 43.8557013], [141.546477, 43.8559471], [141.546497, 43.856099], [141.54651, 43.856514], [141.5464537, 43.8568575], [141.5463988, 43.8571566], [141.5463762, 43.8572481], [141.5463088, 43.8575674], [141.5462317, 43.8578487], [141.5462007, 43.8580028], [141.5461443, 43.8582525], [141.5460424, 43.8587667], [141.546025, 43.8589814], [141.5460585, 43.8591767], [141.5461282, 43.8594166], [141.5462569, 43.8596893], [141.5464179, 43.8598942], [141.5466432, 43.8601031], [141.546949, 43.8603274], [141.5472199, 43.860459], [141.5474854, 43.8605557], [141.5480004, 43.8607026], [141.5485053, 43.8608205], [141.5486879, 43.8608631], [141.548935, 43.8608979], [141.5492315, 43.8609173], [141.5495024, 43.8609115], [141.5498267, 43.8608769], [141.5501247, 43.8608032], [141.5504895, 43.8606794], [141.5510903, 43.86037], [141.5511908, 43.8603155], [141.5513942, 43.8602052], [141.5520902, 43.8598263], [141.5523721, 43.8596739], [141.5524812, 43.8596146], [141.5544377, 43.8585521], [141.5556179, 43.8580183], [141.5561329, 43.8578403], [141.5565513, 43.8577398], [141.5569161, 43.8576933], [141.5573881, 43.8576933], [141.55771, 43.8577243], [141.5580533, 43.8577939], [141.5587078, 43.8580028], [141.5595098, 43.8583238], [141.5600342, 43.8585366], [141.5610145, 43.858993], [141.5618084, 43.8593914], [141.5621155, 43.8595964], [141.5623502, 43.8597821], [141.5625836, 43.8600102], [141.5633313, 43.860975], [141.5636538, 43.8613911], [141.5637537, 43.8615107], [141.5639279, 43.8617479], [141.5640496, 43.8619645], [141.5641425, 43.8622543], [141.564171, 43.8623657], [141.5642224, 43.8625669], [141.5646178, 43.8641978], [141.5647588, 43.8647793], [141.564909, 43.8653052], [141.5651129, 43.8657384], [141.5653275, 43.8660324], [141.5656493, 43.8663572], [141.5659927, 43.866597], [141.5663038, 43.8667749], [141.5665022, 43.8668687], [141.5666337, 43.8669325], [141.5669815, 43.8670593], [141.567182, 43.8671177], [141.5672545, 43.8671338], [141.5674678, 43.8671825], [141.5680696, 43.8673199], [141.5689632, 43.8675172], [141.5701662, 43.8677805], [141.5710781, 43.8679816], [141.5716897, 43.8681053], [141.5720866, 43.8681595], [141.5725265, 43.8681672], [141.5728913, 43.8681517], [141.5733507, 43.8680962], [141.573937, 43.8680398], [141.5745302, 43.8679664], [141.5746766, 43.8679568], [141.5749651, 43.8679532], [141.5753144, 43.8679706], [141.5756179, 43.8680083], [141.5759168, 43.8680744], [141.5762096, 43.868154], [141.5765808, 43.8682923], [141.5773898, 43.8687486], [141.5781553, 43.8692039], [141.5793103, 43.8698926], [141.5804597, 43.8705681], [141.5809701, 43.8708434], [141.5813993, 43.8711064], [141.5817319, 43.8713539], [141.5820469, 43.8716207], [141.582161, 43.8717174], [141.5822955, 43.8718758], [141.5825687, 43.8721505], [141.5828826, 43.8726309], [141.5834675, 43.8735178], [141.5837274, 43.8738829], [141.5840829, 43.8744613], [141.584349, 43.8749648], [141.5845234, 43.8753312], [141.5849192, 43.8764161], [141.5851007, 43.8769533], [141.5853689, 43.8776648], [141.5855406, 43.8779973], [141.5856348, 43.8781581], [141.5858088, 43.8784691], [141.5861307, 43.8789331], [141.5864204, 43.8792811], [141.5870266, 43.8799171], [141.5883944, 43.8813555], [141.58866, 43.8816242], [141.5888116, 43.8817422], [141.5889524, 43.881833], [141.5891991, 43.8819877], [141.5894674, 43.8821037], [141.5897678, 43.8821965], [141.5900789, 43.8822429], [141.5903164, 43.8822686], [141.5910445, 43.8823357], [141.5918599, 43.8824285], [141.5922182, 43.882511], [141.5923717, 43.8825489], [141.5928684, 43.8827069], [141.5934799, 43.8830084], [141.5939665, 43.8832814], [141.5943526, 43.8834392], [141.5946727, 43.8835224], [141.5950059, 43.8835775], [141.596087, 43.8836812], [141.5966221, 43.8837275], [141.5969623, 43.8838003], [141.5972653, 43.8839018], [141.5975088, 43.8840364], [141.5977304, 43.8841998], [141.5979106, 43.884395], [141.5980276, 43.88459], [141.5981963, 43.8848486], [141.5983124, 43.8850944], [141.5984435, 43.8855172], [141.5985384, 43.8860121], [141.5986424, 43.8863048], [141.5987522, 43.8865222], [141.5988969, 43.8867475], [141.5990804, 43.8869735], [141.5992905, 43.8872035], [141.5993866, 43.8872995], [141.5996674, 43.8875796], [141.60029, 43.8883052], [141.6005166, 43.888556], [141.6008866, 43.8891016], [141.6011053, 43.8894701], [141.6013461, 43.889871], [141.6017626, 43.8904625], [141.6019022, 43.890621], [141.6021166, 43.8908645], [141.6028999, 43.8915604], [141.6030541, 43.8917243], [141.603211, 43.8919006], [141.6033719, 43.8921867], [141.6034578, 43.8924495], [141.6035796, 43.8932496], [141.6035916, 43.8933543], [141.6036016, 43.8934628], [141.6036401, 43.8938789], [141.6036831, 43.894068], [141.6036954, 43.8941492], [141.6038163, 43.8944984], [141.6039757, 43.8947783], [141.6043751, 43.8953643], [141.604699, 43.8958544], [141.6050034, 43.8963747], [141.6052044, 43.8970129], [141.6052817, 43.8972584], [141.6053672, 43.8976074], [141.6054376, 43.897838], [141.6056196, 43.8983272], [141.6060112, 43.8991912], [141.606226, 43.8997089], [141.6066013, 43.9006136], [141.6068695, 43.9010697], [141.6071163, 43.9013789], [141.6077386, 43.9020515], [141.6081667, 43.9025213], [141.6091168, 43.9034567], [141.6101231, 43.9042987], [141.6104169, 43.9046185], [141.6107065, 43.904989], [141.6110431, 43.9054458], [141.6115071, 43.9060776], [141.6123063, 43.907356], [141.6126343, 43.9078307], [141.613112, 43.9084145], [141.6138289, 43.9092034], [141.6143123, 43.9097567], [141.6159823, 43.9120979], [141.6160263, 43.9121572], [141.616034, 43.9121676], [141.6165704, 43.9130237], [141.6169135, 43.9136769], [141.6171474, 43.9140868], [141.6176549, 43.9147555], [141.6180098, 43.9151351], [141.6184357, 43.9155276], [141.6190547, 43.9160165], [141.6193478, 43.916251], [141.6207299, 43.9173359], [141.6210948, 43.9175605], [141.6215357, 43.9177858], [141.6222257, 43.9180418], [141.6227414, 43.9181768], [141.6236573, 43.9183382], [141.6240364, 43.918413], [141.6244262, 43.9185164], [141.624971, 43.9186805], [141.6254487, 43.918848], [141.625857, 43.9190495], [141.6260178, 43.9191419], [141.6262446, 43.9192823], [141.6264814, 43.9194593], [141.6265947, 43.9195439], [141.6269168, 43.919856], [141.6271624, 43.9201814], [141.6272155, 43.9202465], [141.6276682, 43.9208348], [141.627748, 43.9209484], [141.6278181, 43.9210344], [141.6281583, 43.9215372], [141.6283937, 43.9219273], [141.6293839, 43.9236057], [141.6294353, 43.9236938], [141.6303065, 43.9251819], [141.6304604, 43.9255107], [141.6305156, 43.9256254], [141.6305999, 43.9257877], [141.6307583, 43.9262661], [141.6307946, 43.9263661], [141.6308355, 43.9264943], [141.6309996, 43.9269099], [141.6311728, 43.9272882], [141.631343, 43.9276034], [141.6315431, 43.9278601], [141.6317998, 43.9281206], [141.6322951, 43.9285496], [141.6335198, 43.9295646], [141.6340187, 43.929993], [141.6346199, 43.9305096], [141.6348871, 43.9307787], [141.6351206, 43.931124], [141.6353445, 43.9316167], [141.6353909, 43.9318277], [141.6355774, 43.9326785], [141.6356559, 43.9330911], [141.6357882, 43.9337559], [141.6359015, 43.9342782], [141.6359889, 43.9346669], [141.6360153, 43.9347929], [141.6360424, 43.9349186], [141.6361128, 43.9352252], [141.6361798, 43.9355638], [141.6362451, 43.9358823], [141.636269, 43.9359773], [141.6364813, 43.9369656], [141.6365753, 43.9373922], [141.6367169, 43.937848], [141.6368628, 43.9381457], [141.6369714, 43.9383366], [141.6371675, 43.9385905], [141.6373197, 43.9387602], [141.6374129, 43.9388526], [141.6377891, 43.9391838], [141.6379874, 43.9393483], [141.6382838, 43.9395951], [141.6383709, 43.9396643], [141.6392696, 43.9403782], [141.6393795, 43.9404629], [141.6402741, 43.9411907], [141.6404047, 43.9412907], [141.6402897, 43.941363]], [[141.6404047, 43.9412907], [141.6405068, 43.9412284], [141.6412378, 43.9407481], [141.6413322, 43.940686], [141.641426, 43.9406259], [141.6418063, 43.9403757], [141.6422378, 43.940108], [141.6424806, 43.9399537], [141.6425317, 43.9399146], [141.6429529, 43.9396564], [141.6432736, 43.9394456], [141.6433864, 43.9393715], [141.643467, 43.939318], [141.6439375, 43.9390032], [141.644321, 43.9387529], [141.6444229, 43.9386858], [141.6445134, 43.9386273], [141.6453554, 43.9380835], [141.6455215, 43.9379781], [141.6456231, 43.9379097], [141.6461417, 43.9375506], [141.6465864, 43.9372427], [141.6466914, 43.9371692], [141.6471582, 43.9368428], [141.6475042, 43.9365977], [141.6476247, 43.9365124], [141.6478453, 43.9364863], [141.6479681, 43.9364806], [141.6491287, 43.9364238], [141.6492885, 43.9364159], [141.6494381, 43.9364075], [141.6495257, 43.9363966], [141.6501832, 43.9363149], [141.650371, 43.9362892], [141.6504843, 43.9362737], [141.6506548, 43.9362505], [141.6511166, 43.9361873], [141.6513124, 43.9361605], [141.6515351, 43.9361301], [141.6515994, 43.9361213], [141.6518357, 43.936089], [141.6520576, 43.9360587], [141.6528413, 43.9359528], [141.6531652, 43.9359055], [141.6532724, 43.9358898], [141.6535433, 43.9358502], [141.6536972, 43.935828], [141.6538839, 43.9358036], [141.6548449, 43.9356778], [141.6551672, 43.9356337], [141.655804, 43.9355467], [141.6561085, 43.9355011], [141.6566088, 43.9354352], [141.6573233, 43.9353411], [141.6574038, 43.9353305], [141.6578041, 43.9352745], [141.658383, 43.9351935], [141.6586614, 43.9351546], [141.6592664, 43.9350732], [141.6593358, 43.9350646], [141.6598982, 43.9349889], [141.6601171, 43.9349645], [141.6604584, 43.9349268], [141.6615514, 43.934806], [141.6621842, 43.9347303], [141.6632309, 43.9346197], [141.6634062, 43.9346361], [141.6639562, 43.9345848], [141.6641102, 43.934571], [141.6643691, 43.9345369]], [[141.6632309, 43.9346197], [141.6633867, 43.9345566], [141.6639396, 43.9344925], [141.6640871, 43.934475], [141.6643339, 43.9344514]], [[141.6262446, 43.9192823], [141.6267296, 43.9198492], [141.6270383, 43.9202485], [141.6275495, 43.9208717], [141.62763, 43.9209861], [141.627695, 43.9210783], [141.6280405, 43.9215921], [141.6282722, 43.9219631], [141.6292643, 43.9236402], [141.6293119, 43.9237315], [141.6301842, 43.9252264], [141.6303388, 43.9255332], [141.630394, 43.9256479], [141.6304707, 43.925808], [141.6306291, 43.9262864], [141.6306676, 43.9263913], [141.6307125, 43.9265146], [141.6308704, 43.9269302], [141.6310267, 43.927314], [141.6312076, 43.9276336], [141.6314077, 43.9278882], [141.6316583, 43.9281576], [141.6321871, 43.9286132], [141.6333978, 43.9296182], [141.6338967, 43.9300466], [141.634498, 43.9305632], [141.6347651, 43.9308323], [141.6349986, 43.9311776], [141.6352092, 43.9316365], [141.6352544, 43.9318417], [141.6353777, 43.9324042], [141.6354391, 43.9326958], [141.6356557, 43.933768], [141.6357065, 43.9340116], [141.6357868, 43.9343585], [141.6358148, 43.9345015], [141.6358524, 43.9346809], [141.6358831, 43.9348319], [141.6359059, 43.934932], [141.636115, 43.9358987], [141.6361378, 43.9359926], [141.6363382, 43.936979], [141.6364476, 43.9374629], [141.6365806, 43.9378736], [141.6367302, 43.9381654], [141.6368431, 43.938369], [141.6370494, 43.9386654], [141.6371975, 43.9388131], [141.6372942, 43.9389285], [141.6376852, 43.9392558], [141.6378815, 43.9394188], [141.6381799, 43.9396626], [141.6382644, 43.9397357], [141.6391677, 43.9404546], [141.6392706, 43.9405334], [141.6401743, 43.9412612], [141.6402897, 43.941363]]]}, "id": "relation/6596139"}, {"type": "Feature", "properties": {"@id": "relation/10187415", "description": "留萌拡幅の一部区間", "name": "国道231号支線", "network": "JP:national", "ref": "231", "route": "road", "type": "route"}, "geometry": {"type": "MultiLineString", "coordinates": [[[141.6404047, 43.9412907], [141.6405184, 43.9413902], [141.6412979, 43.9420309], [141.6414099, 43.9421231], [141.6415727, 43.9422383], [141.6418356, 43.9423789], [141.642053, 43.942468], [141.642257, 43.9425272], [141.6424143, 43.9425556], [141.6426269, 43.9425812], [141.642964, 43.9425928], [141.6433194, 43.9425626], [141.6435426, 43.9425315], [141.6438057, 43.942506], [141.6446959, 43.9424112]], [[141.6483316, 43.945504], [141.6482612, 43.9453323], [141.6478635, 43.9444014], [141.6475659, 43.943744], [141.6473119, 43.943235], [141.6471227, 43.9429605], [141.6470055, 43.9427445], [141.6469235, 43.9425799], [141.6468666, 43.942413], [141.6467692, 43.9422612]], [[141.6509793, 43.9475886], [141.6508501, 43.94752], [141.6507986, 43.9474904], [141.6497175, 43.9468492], [141.6492875, 43.9465822], [141.6490163, 43.9463906], [141.648855, 43.94627], [141.6487262, 43.946138], [141.6485918, 43.9459916], [141.6484819, 43.9458172], [141.6483316, 43.945504]], [[141.6467692, 43.9422612], [141.6467487, 43.9424306], [141.6468138, 43.9426238], [141.646952, 43.9428814], [141.6471187, 43.9431566], [141.6471745, 43.9432582], [141.6472732, 43.9434376], [141.6474225, 43.9437643], [141.6478036, 43.9446255], [141.6481194, 43.9453698], [141.6482667, 43.9456824], [141.6483663, 43.9458676], [141.6484805, 43.9460357], [141.6486126, 43.9462168], [141.6487454, 43.9463291], [141.6488847, 43.946453], [141.6491948, 43.9466701], [141.6496157, 43.9469353]], [[141.6402897, 43.941363], [141.6404087, 43.9414651], [141.6411934, 43.9420982], [141.6413107, 43.9421874], [141.6414293, 43.9422711], [141.6416781, 43.9424131], [141.6419292, 43.9425187], [141.6420553, 43.942565], [141.6421667, 43.942597], [141.6423878, 43.9426572], [141.6425829, 43.9426846], [141.6428719, 43.9426907], [141.6431372, 43.9426801], [141.643399, 43.9426542], [141.6437636, 43.9426073], [141.644723, 43.9425329], [141.6455229, 43.9424348], [141.646037, 43.9423667], [141.6465712, 43.9423173], [141.6467692, 43.9422612], [141.6465507, 43.9422262], [141.6459721, 43.942274], [141.6455075, 43.9423036], [141.6446959, 43.9424112]], [[141.6496157, 43.9469353], [141.6507025, 43.9475716], [141.6507624, 43.9476012], [141.6508754, 43.9476693]]]}, "id": "relation/10187415"}]}