{"type": "FeatureCollection", "generator": "kokudo-quiz tools/fetch_raw.py (Overpass API)", "copyright": "The data included in this document is from www.openstreetmap.org. The data is made available under ODbL.", "timestamp": "2026-09-30T16:04:45Z", "features": [{"type": "Feature", "properties": {"@id": "relation/6596367", "colour": "red", "from": "北海道旭川市", "name": "国道233号", "name:en": "National Highway Route 233", "name:ja": "国道233号", "name:ja-Hira": "こくどうにひゃくさんじゅうさんごう", "name:ja-Latn": "Kokudo 233 Gou", "network": "JP:national", "operator": "北海道開発局", "ref": "233", "route": "road", "to": "北海道留萌市", "type": "route", "wikidata": "Q11421426", "wikipedia": "ja:国道233号"}, "geometry": {"type": "MultiLineString", "coordinates": [[[142.3595013, 43.7693221], [142.3593032, 43.7693794], [142.3579504, 43.769771], [142.356601, 43.7701616], [142.3564663, 43.7702006], [142.3563191, 43.7702432], [142.3557527, 43.7704071], [142.3556413, 43.7704394], [142.3551173, 43.770591], [142.3549324, 43.7706446], [142.3547574, 43.7706952], [142.3535464, 43.7710457], [142.3534063, 43.7710863], [142.3532371, 43.7711353], [142.3520429, 43.7714809], [142.351874, 43.7715298], [142.3516132, 43.7716052], [142.3511517, 43.7717387], [142.3509801, 43.7717884], [142.3506082, 43.7718959], [142.3503622, 43.7719671], [142.3501159, 43.7720368], [142.3492168, 43.7722913], [142.3489609, 43.7723637], [142.3488075, 43.7723592], [142.3476311, 43.7727003], [142.3474756, 43.7727454], [142.347171, 43.7728337], [142.3460863, 43.7731482], [142.3457867, 43.7732351], [142.3456082, 43.7732869], [142.3450126, 43.7734595], [142.344604, 43.773578], [142.3443511, 43.7736514], [142.3442365, 43.7736852], [142.343922, 43.7737862], [142.3431329, 43.7740287], [142.3430655, 43.7740496], [142.3427089, 43.7741364], [142.3425798, 43.7741722], [142.3424156, 43.7741785], [142.3422416, 43.7741635], [142.3421401, 43.7741406], [142.3420877, 43.774123], [142.3418707, 43.774043], [142.341387, 43.7738602], [142.3409103, 43.7736869], [142.3398419, 43.7733146], [142.339705, 43.7732641], [142.3395481, 43.7732074], [142.3381353, 43.7726971], [142.3379739, 43.7726371], [142.3369368, 43.7722323], [142.3366513, 43.7721457], [142.336573, 43.7721219], [142.335824, 43.7718803], [142.3321296, 43.7707323], [142.3319992, 43.7706919], [142.3294708, 43.7699186], [142.3292663, 43.7698514], [142.3289704, 43.7697501], [142.3284725, 43.7695988], [142.3275011, 43.7692987], [142.3271327, 43.7691978], [142.3267416, 43.7690738], [142.3264349, 43.7689856], [142.3260572, 43.768879], [142.3259985, 43.7688624], [142.3255003, 43.7687399], [142.3248113, 43.7686035], [142.3243776, 43.7685321], [142.3238639, 43.7684426], [142.3234918, 43.768399], [142.3232541, 43.7683702], [142.3230145, 43.7683442], [142.3227818, 43.7683232], [142.3224984, 43.7683002], [142.3219515, 43.7682799], [142.3213625, 43.7682574], [142.3208109, 43.7682508], [142.3199142, 43.7682863], [142.3196493, 43.7683012], [142.3191526, 43.7683299], [142.3185998, 43.7684013], [142.3185011, 43.7684141], [142.3177356, 43.7685093], [142.3174484, 43.7685578], [142.3168507, 43.7686743], [142.3159137, 43.7688901], [142.3154187, 43.7690275], [142.3152407, 43.7690769], [142.315121, 43.7691204], [142.3147012, 43.7692727], [142.3143686, 43.7693776], [142.3139946, 43.7694956], [142.3138872, 43.7695295], [142.313814, 43.7695526], [142.3133506, 43.7697014], [142.3130827, 43.7697874], [142.3125363, 43.7699699], [142.3122576, 43.7700454], [142.3119835, 43.7701067], [142.3115927, 43.7701709], [142.3111584, 43.7702363], [142.3110358, 43.7702548], [142.3105469, 43.7702862], [142.3100575, 43.7703003], [142.309681, 43.7703122], [142.308731, 43.7703355], [142.308093, 43.7703441], [142.3071262, 43.7703377], [142.3063594, 43.770296], [142.3062489, 43.7702861], [142.3058163, 43.7702253], [142.3054043, 43.7701708], [142.3049853, 43.7701019], [142.3046445, 43.7700353], [142.3042064, 43.7699451], [142.3038435, 43.7698566], [142.3032967, 43.7697056], [142.3028248, 43.7695715], [142.3024145, 43.7694456], [142.3022423, 43.7693856], [142.3021023, 43.7693395], [142.3009652, 43.7689651], [142.3005861, 43.768862], [142.3001674, 43.768759], [142.2998414, 43.7686966], [142.2995355, 43.7686515], [142.2991778, 43.768608], [142.298515, 43.7685435], [142.2983316, 43.7685256], [142.2979195, 43.768511], [142.2976432, 43.7685194], [142.2974254, 43.7685261], [142.2969931, 43.7685573], [142.2968604, 43.7685669], [142.2966999, 43.768581], [142.2953567, 43.7686986], [142.2949136, 43.7687374], [142.2948192, 43.7687457], [142.2943179, 43.7687791], [142.2942093, 43.7688273]], [[142.3489609, 43.7723637], [142.34886, 43.7724502], [142.3482393, 43.7726309], [142.3476832, 43.7727929], [142.347533, 43.7728366], [142.3461391, 43.7732424], [142.345838, 43.7733301], [142.3456683, 43.7733795], [142.3452063, 43.773514], [142.3446552, 43.7736745], [142.344412, 43.7737453], [142.3442895, 43.7737817], [142.3427589, 43.7742297], [142.3426302, 43.7742719], [142.3424017, 43.7742802], [142.3422165, 43.7742651], [142.3420259, 43.7742099], [142.3413017, 43.7739482], [142.3408278, 43.773773], [142.3400793, 43.7734983], [142.3397895, 43.7733884], [142.3396793, 43.7733465], [142.3394972, 43.7732809], [142.3380781, 43.7727693], [142.3379183, 43.7727053], [142.3368752, 43.7723114], [142.3364905, 43.7721808], [142.335781, 43.7719554], [142.3320923, 43.7708111], [142.3319444, 43.7707659], [142.3294289, 43.7699922], [142.3291688, 43.7699108], [142.3289162, 43.769827], [142.3284742, 43.7696992], [142.3284215, 43.769684], [142.3274545, 43.7693826], [142.3270913, 43.7692651], [142.3267002, 43.7691458], [142.3264555, 43.7690828], [142.3259503, 43.7689411], [142.3254598, 43.7688196], [142.3247523, 43.7686765], [142.3243272, 43.768605], [142.3238442, 43.7685351], [142.3234675, 43.7684898], [142.3232324, 43.7684616], [142.3229293, 43.7684252], [142.3227736, 43.7684126], [142.3223887, 43.7683801], [142.3220132, 43.768363], [142.3218058, 43.7683535], [142.3212844, 43.7683387], [142.3211063, 43.7683389], [142.3208074, 43.7683392], [142.3202213, 43.7683569], [142.3196207, 43.7683765], [142.3191551, 43.768411], [142.3186145, 43.7684793], [142.3183637, 43.7685116], [142.3177569, 43.7685869], [142.3174793, 43.7686362], [142.3168834, 43.7687494], [142.3161705, 43.7689134], [142.3158096, 43.7690156], [142.3154686, 43.7691053], [142.3153009, 43.7691495], [142.3151658, 43.7691945], [142.3138405, 43.7696366], [142.3127517, 43.7699935], [142.3121139, 43.7701672], [142.3116122, 43.7702566], [142.3111738, 43.7703214], [142.3110456, 43.7703326], [142.3105542, 43.7703652], [142.3100094, 43.7703768], [142.3087358, 43.7704114], [142.3081323, 43.7704271], [142.3071013, 43.7704151], [142.3068621, 43.7704065], [142.3063504, 43.7703658], [142.3062448, 43.7703589], [142.3053852, 43.7702502], [142.304864, 43.7701631], [142.3043424, 43.7700577], [142.3037897, 43.7699336], [142.3032092, 43.7697689], [142.302373, 43.7695093], [142.3021938, 43.769451], [142.3020603, 43.7694015], [142.3007608, 43.7689931], [142.3003428, 43.7688864], [142.2999031, 43.7687866], [142.2991684, 43.7686719], [142.2985028, 43.7686051], [142.298338, 43.7685895], [142.2979047, 43.7685801], [142.2975003, 43.7685849], [142.2970032, 43.7686232], [142.2968585, 43.7686336], [142.2967217, 43.7686477], [142.2962924, 43.7686889], [142.295674, 43.768755], [142.2950568, 43.7687955], [142.2944471, 43.7688431], [142.2943474, 43.768846], [142.2942093, 43.7688273], [142.2939095, 43.7688553], [142.293294, 43.7689029], [142.293159, 43.7689111], [142.2918724, 43.769019], [142.2910639, 43.7690816], [142.2902845, 43.7690958], [142.2897217, 43.7690986], [142.2895116, 43.7690939], [142.2893341, 43.7690841], [142.2890221, 43.7690658], [142.2881836, 43.7689802], [142.2880709, 43.768968], [142.2874505, 43.7689142], [142.2865825, 43.7688277], [142.2865466, 43.7688239], [142.2863507, 43.7688035], [142.2857934, 43.768751], [142.2852977, 43.7686923], [142.2846785, 43.7685684], [142.2841926, 43.7684157], [142.2837029, 43.7682255], [142.2834307, 43.7681088], [142.282869, 43.7677772], [142.2825012, 43.7674706], [142.2824369, 43.7674068], [142.2823291, 43.7673006], [142.2822121, 43.7671772], [142.28175, 43.7665343], [142.2816608, 43.7663737], [142.2815292, 43.7661244], [142.2812122, 43.7654128], [142.2811204, 43.7652067], [142.2810334, 43.7648169], [142.280941, 43.764591], [142.2807983, 43.7642549], [142.280191, 43.7628381], [142.2798917, 43.7623555], [142.2788783, 43.7610357], [142.2778948, 43.7598497], [142.2773189, 43.7591546], [142.2744885, 43.7557573], [142.2739716, 43.7552208], [142.2736298, 43.754972]], [[142.2811204, 43.7652067], [142.2809068, 43.7648254], [142.2807835, 43.7645618], [142.2806485, 43.7642342], [142.2802053, 43.7631728], [142.2798696, 43.7625424], [142.2787393, 43.7610617], [142.2777846, 43.7598869], [142.2773059, 43.7592592], [142.2743793, 43.7557608], [142.2739088, 43.7552736], [142.2736298, 43.754972], [142.2732036, 43.7546448], [142.2729942, 43.7545098], [142.2727584, 43.7543792], [142.2723948, 43.7541778], [142.2719834, 43.7540014], [142.2712413, 43.7537104], [142.2704939, 43.7534172], [142.2697917, 43.7531843], [142.2696497, 43.7531494], [142.269197, 43.7530383], [142.2683844, 43.7528627], [142.2673814, 43.75278], [142.2668999, 43.7527587], [142.2666033, 43.7527455], [142.2635843, 43.7529519], [142.2612934, 43.7530944], [142.2587694, 43.753281], [142.2575633, 43.7533163], [142.2570568, 43.7533165], [142.2564487, 43.753304], [142.2554841, 43.7532276], [142.2549417, 43.7531544], [142.2548067, 43.7531337], [142.2538504, 43.7529061], [142.253429, 43.7528336], [142.2519281, 43.7524281], [142.250671, 43.751918], [142.2494499, 43.7515088], [142.2483141, 43.7509874], [142.2471507, 43.7502702], [142.2462729, 43.7493404], [142.2457339, 43.7485063], [142.2429301, 43.7391181], [142.2429079, 43.7390683], [142.2426142, 43.7385897], [142.2425191, 43.7383785], [142.2424757, 43.7382973], [142.2422583, 43.7379307], [142.2420296, 43.7376343], [142.241794, 43.7373649], [142.2415444, 43.7371502], [142.2412638, 43.7369282], [142.2408778, 43.7366947], [142.2407092, 43.7366104], [142.2404338, 43.7365259], [142.2406794, 43.7366595], [142.2408574, 43.7367449], [142.2412221, 43.7369678], [142.241502, 43.7371907], [142.2417448, 43.7374143], [142.2419701, 43.7376655], [142.2421952, 43.7379702], [142.242429, 43.7383372], [142.2426142, 43.7385897]], [[142.2404338, 43.7365259], [142.2400286, 43.7363714], [142.2391799, 43.7360949], [142.2389016, 43.73601], [142.2386694, 43.7359502], [142.2383059, 43.7358547], [142.2378468, 43.7357376], [142.2376015, 43.7356644], [142.2373563, 43.735567], [142.235784, 43.7349286], [142.2347026, 43.7344728], [142.2339163, 43.7341392], [142.2323275, 43.7334825], [142.2313861, 43.7330279], [142.2308756, 43.7328344], [142.2300186, 43.7324891], [142.2296599, 43.7323376], [142.2292938, 43.7321871], [142.2282348, 43.7317184], [142.2273525, 43.7312916], [142.2267137, 43.7309427], [142.2260363, 43.7305991], [142.2253736, 43.7302668], [142.2248651, 43.7300176], [142.2242996, 43.7297402], [142.2235624, 43.7293725], [142.2227755, 43.728974], [142.2219996, 43.7285722], [142.2213073, 43.7281891], [142.2205818, 43.7277724], [142.2196274, 43.7271852], [142.2191419, 43.7268919], [142.2187212, 43.7266832], [142.2183451, 43.7265062], [142.2179457, 43.726371], [142.2174329, 43.7262259], [142.2169107, 43.7261183], [142.2164051, 43.7260573], [142.215948, 43.7260323], [142.2154848, 43.7260368], [142.214963, 43.7260726], [142.2146481, 43.7261069], [142.2142582, 43.7261748], [142.2133485, 43.7263377], [142.2116819, 43.7266849], [142.2101548, 43.727043], [142.2091771, 43.7273337], [142.2074408, 43.7279061], [142.2067727, 43.728119], [142.2066538, 43.7281553], [142.2057468, 43.728451], [142.2047542, 43.7288234]], [[142.2323275, 43.7334825], [142.2313291, 43.7330964], [142.2308081, 43.7328971], [142.2299699, 43.7325693], [142.2295574, 43.7324053], [142.229208, 43.7322522], [142.2291005, 43.7322076], [142.2281745, 43.7318102], [142.2273025, 43.7313833], [142.2265491, 43.731009], [142.2259411, 43.7307001], [142.2252686, 43.7303654], [142.2242368, 43.7298651], [142.2234654, 43.7294775], [142.2227008, 43.7290935], [142.2219318, 43.7286977], [142.2211971, 43.7283035], [142.2204772, 43.727875], [142.2199747, 43.7275653], [142.2195152, 43.7272818], [142.2190611, 43.7270141], [142.2186546, 43.7268053], [142.2182847, 43.7266382], [142.2178779, 43.7264945], [142.2173727, 43.726351], [142.2168658, 43.7262494], [142.2163829, 43.7261886], [142.2159269, 43.7261612], [142.2154772, 43.7261619], [142.2149831, 43.7261992], [142.2143116, 43.7262857], [142.2134929, 43.726427], [142.2117136, 43.7267676], [142.2109455, 43.7269455], [142.2101751, 43.7271361], [142.2084981, 43.7276355], [142.2073577, 43.7279976], [142.2069213, 43.7281362], [142.2068058, 43.7281729], [142.2066829, 43.7282126], [142.2059474, 43.7284572], [142.2047542, 43.7288234], [142.2040406, 43.7290567], [142.2029301, 43.729396], [142.2019513, 43.7295739], [142.200947, 43.7297534], [142.1990267, 43.7300287], [142.1988227, 43.7300435], [142.1986162, 43.7300586], [142.1984299, 43.7300715], [142.197923, 43.7300855], [142.1973422, 43.7300846], [142.1967457, 43.7300624], [142.1962207, 43.7300243], [142.1953125, 43.7299334], [142.1945879, 43.7298386], [142.192626, 43.729508], [142.1923024, 43.7294367], [142.1906887, 43.72916], [142.1901125, 43.7290438], [142.1898324, 43.7289608], [142.1893553, 43.7287754], [142.1889274, 43.7285727], [142.1885814, 43.7283873], [142.188249, 43.7281638], [142.1879803, 43.7279377], [142.1875893, 43.7274758], [142.1874377, 43.7272595], [142.1870543, 43.7267126], [142.1854083, 43.7241919], [142.1844425, 43.7227129], [142.1843157, 43.7225187], [142.1842266, 43.7223824], [142.1823934, 43.7195682], [142.181931, 43.7189206], [142.181645, 43.7185792], [142.1813077, 43.7182563], [142.1811089, 43.7180676], [142.1807076, 43.7177591], [142.180152, 43.7174313], [142.1796525, 43.7171759], [142.1789737, 43.7169434]], [[142.192626, 43.729508], [142.1921416, 43.7294665], [142.1906126, 43.7293], [142.1901933, 43.7292206], [142.189817, 43.7291379], [142.1894123, 43.729024], [142.1892511, 43.728961], [142.188992, 43.7288601], [142.1886825, 43.7287091], [142.1884073, 43.7285447], [142.1881861, 43.7283895], [142.1879137, 43.7281374], [142.1876987, 43.7278871], [142.1874303, 43.7275193], [142.1872946, 43.7273099], [142.1843355, 43.722745], [142.1842029, 43.7225399], [142.1841249, 43.7224192], [142.1822458, 43.719608], [142.181887, 43.719074], [142.1816161, 43.7187325], [142.181285, 43.7183887], [142.1810276, 43.7181233], [142.1806217, 43.7177918], [142.1800661, 43.717464], [142.179897, 43.7173744], [142.179578, 43.7172053], [142.1792554, 43.717052], [142.1789737, 43.7169434], [142.1774982, 43.7165612], [142.1770199, 43.7164099], [142.1765279, 43.7162653], [142.176003, 43.7160622], [142.1752995, 43.7156958], [142.1750725, 43.7155582], [142.1746448, 43.7152166], [142.1739828, 43.7146656], [142.1734382, 43.7142615], [142.172934, 43.7139583], [142.172311, 43.7136539], [142.1716864, 43.7134468], [142.1710837, 43.713317], [142.170537, 43.7132348], [142.1702935, 43.7132241], [142.1689443, 43.713165], [142.1678379, 43.7131597], [142.1660762, 43.7131501], [142.1638323, 43.7130418], [142.1612988, 43.7129569], [142.1602087, 43.7129073], [142.1594623, 43.7128734], [142.1590446, 43.7128621], [142.1585226, 43.7128047], [142.1576705, 43.7126891], [142.1570043, 43.7125996], [142.1561982, 43.7124572], [142.1553923, 43.7123231], [142.1551435, 43.7122721], [142.1540236, 43.7120491], [142.1537034, 43.7119839], [142.1462743, 43.7104973], [142.1455293, 43.7103811], [142.1437714, 43.7101069], [142.1420253, 43.709962], [142.1416331, 43.7099294], [142.1410484, 43.7099032], [142.1385743, 43.7097924], [142.1375743, 43.7097475], [142.1335594, 43.7095677], [142.1297607, 43.7093975], [142.1276265, 43.7093018], [142.1270432, 43.7092757], [142.1248996, 43.7091155], [142.1158863, 43.7079591], [142.115575, 43.7078975], [142.112809, 43.7073501], [142.1116871, 43.7071281], [142.1083347, 43.7064646], [142.1077743, 43.7063223], [142.1043639, 43.7060198], [142.102741, 43.7057596], [142.0982513, 43.7050397], [142.0963738, 43.7047387], [142.0902107, 43.704205], [142.088067, 43.7038314], [142.0853958, 43.7032486], [142.0845204, 43.7031209], [142.0836591, 43.7030557], [142.0828726, 43.7030646], [142.0820721, 43.7031241], [142.081069, 43.7032126], [142.0800775, 43.7033163], [142.0795326, 43.703328], [142.078976, 43.7032755], [142.0785479, 43.7031746], [142.0781384, 43.7030399], [142.0773972, 43.7027283], [142.0771759, 43.7026246], [142.0757237, 43.70192], [142.0745872, 43.7013983], [142.0743473, 43.7012895], [142.0742136, 43.7012045], [142.073729, 43.7009197], [142.0735084, 43.7007546], [142.0732663, 43.7005429], [142.0730047, 43.700314], [142.0726874, 43.7000507], [142.0723344, 43.6996796], [142.0719936, 43.6993389], [142.0713696, 43.6988485], [142.0711185, 43.6986986], [142.0709848, 43.6986098]], [[142.0708958, 43.6986806], [142.0710432, 43.6987773], [142.0712559, 43.6989168], [142.0716536, 43.6992118], [142.0720216, 43.6995319], [142.0726625, 43.7001913], [142.0729351, 43.7004538], [142.0734139, 43.7008029], [142.0737496, 43.7010048], [142.074143, 43.7012165], [142.0743473, 43.7012895]], [[142.0709848, 43.6986098], [142.0708958, 43.6986806], [142.0707821, 43.6987783], [142.0704952, 43.6990198], [142.0698223, 43.6996099], [142.069218, 43.7001621], [142.0686747, 43.7006367], [142.0667024, 43.7023598], [142.0664658, 43.7025593], [142.0663536, 43.7026381], [142.0660429, 43.7028561], [142.0656152, 43.7031006], [142.0653372, 43.7032596], [142.0652044, 43.7033312], [142.0629409, 43.7045502], [142.061545, 43.7052683], [142.0613523, 43.7053405], [142.0612902, 43.7053615], [142.0600479, 43.7057824], [142.0593066, 43.7060374], [142.0590072, 43.7061354], [142.0584204, 43.7063304], [142.057312, 43.7066969], [142.0571672, 43.7067469], [142.0563108, 43.7070424], [142.0556322, 43.7072716], [142.0555199, 43.7073097], [142.0545042, 43.7076533], [142.0543996, 43.7076905], [142.0543038, 43.7077246], [142.0538383, 43.7078879], [142.0533317, 43.7080931], [142.0532417, 43.7081427], [142.0529455, 43.708306], [142.0528628, 43.7083516], [142.0519558, 43.7089538], [142.0519088, 43.708985], [142.0506349, 43.7098155], [142.050513, 43.7098949], [142.0504328, 43.7099474], [142.0503182, 43.7100243], [142.0501659, 43.7101265], [142.0500096, 43.7102314], [142.0499509, 43.7102708], [142.0495748, 43.7105233], [142.0495307, 43.7105529], [142.0492018, 43.7107935], [142.0491241, 43.7108503], [142.0489604, 43.7109953], [142.0486301, 43.7113249], [142.0483724, 43.7116428], [142.0483077, 43.7117151], [142.0452108, 43.7154161], [142.0451691, 43.7154684], [142.0450177, 43.7156409], [142.0446294, 43.7161107], [142.0445714, 43.7161889], [142.044502, 43.716294], [142.044124, 43.7168744], [142.0437576, 43.7174912], [142.0437145, 43.7175637], [142.0436572, 43.7176585], [142.0433656, 43.7181694], [142.0433157, 43.7182578], [142.0432588, 43.7183505], [142.0431752, 43.7184873], [142.0429304, 43.7188877], [142.0428699, 43.7189867], [142.0430628, 43.7190473], [142.0438535, 43.7193011], [142.0440456, 43.7193603], [142.0444262, 43.7194774], [142.0447729, 43.719588], [142.0450125, 43.7196645], [142.0455222, 43.7198271], [142.0456855, 43.7198791], [142.0467999, 43.72023], [142.0470022, 43.7202989], [142.0469149, 43.7204229], [142.0467262, 43.7207466], [142.0466195, 43.7209303], [142.0465518, 43.721033], [142.0463591, 43.7213325], [142.045597, 43.7226288], [142.0451419, 43.723373], [142.0449506, 43.7236812], [142.0449149, 43.723739], [142.0448451, 43.7238576], [142.0448115, 43.7239073], [142.0447834, 43.723947], [142.0446451, 43.7241469], [142.0445923, 43.7242399], [142.0443789, 43.7246022], [142.0441378, 43.7250117], [142.0440271, 43.7251973], [142.0439859, 43.7252716], [142.0439292, 43.7253548], [142.043765, 43.725633], [142.0435976, 43.7259072], [142.0435309, 43.7260095], [142.0433963, 43.7262281], [142.0432023, 43.7265478], [142.0431181, 43.7266905], [142.0430603, 43.7267944], [142.0430268, 43.7268505], [142.042866, 43.72712], [142.0426028, 43.7275519], [142.0425846, 43.7275827], [142.0423018, 43.7280617], [142.0420683, 43.7284348], [142.0420401, 43.7284825], [142.0420088, 43.7285357], [142.0419677, 43.7286052], [142.0417872, 43.728915], [142.0415202, 43.7293578], [142.0415001, 43.7293911], [142.0412012, 43.7298867], [142.0411543, 43.7299706], [142.0410195, 43.7301742], [142.0407386, 43.7306414], [142.0405531, 43.7309559], [142.040527, 43.731], [142.040362, 43.7312744], [142.0402608, 43.7314397], [142.0402179, 43.7315115], [142.0401971, 43.7315463], [142.0401003, 43.7317087], [142.040028, 43.73183], [142.0398959, 43.7320465], [142.039847, 43.7321266], [142.0397227, 43.7323302], [142.0395634, 43.7325892], [142.0393472, 43.7329408], [142.0393306, 43.7329686], [142.0390312, 43.7334709], [142.0389006, 43.7336901], [142.0388612, 43.7337562], [142.0388121, 43.7338387], [142.0386537, 43.7341044], [142.0384702, 43.7344046], [142.038404, 43.7345129], [142.0383414, 43.7346152], [142.0375574, 43.7359141], [142.0364818, 43.7377027], [142.0359924, 43.7385265], [142.0358714, 43.7387276], [142.0356499, 43.7390999], [142.0348551, 43.7403787], [142.0347906, 43.7404825], [142.0347347, 43.7405838], [142.0344217, 43.7410991], [142.0334203, 43.7427533], [142.032999, 43.7434515], [142.0329081, 43.74359], [142.0325599, 43.7440561], [142.0324425, 43.7441843], [142.0322293, 43.7444127], [142.0319398, 43.744683], [142.0316735, 43.7449055], [142.0315969, 43.7449695], [142.0314815, 43.7450503], [142.031187, 43.7452553], [142.0307988, 43.7454872], [142.0304473, 43.74568], [142.0300441, 43.7458697], [142.029532, 43.7460728], [142.0292041, 43.7461769], [142.0283344, 43.7464152], [142.0279181, 43.7464993], [142.027666, 43.7465394], [142.0248375, 43.7468278], [142.0232806, 43.7470023], [142.0187881, 43.747506], [142.0181375, 43.7475789], [142.0156785, 43.7479438], [142.0150874, 43.7480316], [142.0147644, 43.7480795], [142.0118812, 43.7487918], [142.0069564, 43.7501063], [142.0062419, 43.7503065], [142.0060861, 43.7503487], [142.0011139, 43.7516726], [141.9949673, 43.7533002], [141.994468, 43.7534367], [141.9941621, 43.7535226], [141.99384, 43.753619], [141.9935275, 43.7537308], [141.9931952, 43.7538652], [141.9859487, 43.7569603], [141.9853028, 43.7572771], [141.9850474, 43.7574295], [141.9848225, 43.7575765], [141.9843079, 43.7579892], [141.9832157, 43.7588572], [141.9828387, 43.7591433], [141.9811331, 43.7605016], [141.9809835, 43.7606206], [141.980951, 43.7606465], [141.9784915, 43.7625874], [141.9769731, 43.7637922], [141.9758099, 43.7647153], [141.9737846, 43.7663002], [141.9731474, 43.7667077], [141.9726561, 43.7668918], [141.972408, 43.766976], [141.9719231, 43.7670998], [141.9715694, 43.7671425], [141.9713027, 43.7671633], [141.9709304, 43.7671641], [141.9680814, 43.766964], [141.9678462, 43.7669471], [141.964494, 43.7667329], [141.9644044, 43.7667259], [141.9642768, 43.7667172], [141.9614546, 43.7665351], [141.9612208, 43.7665195], [141.960995, 43.7665058], [141.9599201, 43.7664308], [141.9591356, 43.7663764], [141.9589311, 43.7663631], [141.9575664, 43.7662786], [141.9574246, 43.7662659]], [[141.8989882, 43.7626639], [141.8991273, 43.7626478], [141.8997788, 43.7625829], [141.9008152, 43.762634], [141.9012145, 43.7626575], [141.9044733, 43.7628713], [141.9077036, 43.76307], [141.9108612, 43.7632794], [141.9124845, 43.763372], [141.9141285, 43.7634881], [141.9157238, 43.7635941], [141.9172829, 43.7636977], [141.9189179, 43.7637972], [141.9205711, 43.7639161], [141.922227, 43.7640314], [141.9245718, 43.7641766], [141.9253806, 43.7642225], [141.928622, 43.7644277], [141.9304045, 43.7645281], [141.9306729, 43.7645553], [141.9345947, 43.7648138], [141.9348745, 43.7648287], [141.9366871, 43.764948], [141.9435836, 43.7653901], [141.9490192, 43.7657438], [141.9504139, 43.7658174], [141.9505342, 43.7658237], [141.9506784, 43.7658356], [141.9526488, 43.7659603], [141.9540731, 43.7660487], [141.9545351, 43.7660808], [141.9545732, 43.7660838], [141.9548398, 43.7661028], [141.9561988, 43.7661892], [141.9573468, 43.766262], [141.9574246, 43.7662659]], [[141.8989882, 43.7626639], [141.8965781, 43.7629623], [141.8952845, 43.7631277], [141.8939135, 43.7634358], [141.8907528, 43.7642996], [141.8863694, 43.7654793], [141.885206, 43.7657924], [141.8842981, 43.7661633], [141.8840747, 43.7662545], [141.8837247, 43.766508], [141.8832641, 43.7669164], [141.8826642, 43.767518], [141.8825544, 43.7676357], [141.8820733, 43.7680984], [141.8819423, 43.7682244], [141.8818345, 43.7683346], [141.8814638, 43.7687136], [141.8810959, 43.7689504], [141.8806799, 43.7691465], [141.8801862, 43.7692666], [141.8796745, 43.7693302], [141.8791543, 43.769339], [141.8764025, 43.7693822], [141.8755324, 43.7694061], [141.8748576, 43.769444], [141.8723206, 43.7698836], [141.8718132, 43.7700176], [141.8710986, 43.7702909], [141.8708009, 43.7704494], [141.870398, 43.7706639], [141.8697657, 43.7710046], [141.8671652, 43.7724206], [141.8670753, 43.7724695], [141.8643384, 43.7739578], [141.8615731, 43.7754516], [141.8602707, 43.7761769], [141.8589214, 43.7769104], [141.8587322, 43.7770113], [141.856137, 43.7784313], [141.8556322, 43.7787704], [141.855314, 43.7790019], [141.8550008, 43.779257], [141.8533798, 43.7809596], [141.8532011, 43.7811357], [141.851608, 43.782711], [141.8493485, 43.7850323], [141.846435, 43.787903], [141.8452427, 43.7891164], [141.8424789, 43.7919291], [141.8402839, 43.7941121], [141.8388703, 43.795533], [141.8384762, 43.7959639], [141.8382465, 43.7962877], [141.8380185, 43.7969116], [141.8374875, 43.800859], [141.836698, 43.805785], [141.835976, 43.810772], [141.83547, 43.814075], [141.835235, 43.815704], [141.8345091, 43.820624], [141.8341146, 43.8235089], [141.8340063, 43.8241676], [141.8337165, 43.824734], [141.8336722, 43.8247944], [141.8333426, 43.8252422], [141.8322005, 43.8266251], [141.8313872, 43.8275668], [141.831217, 43.8285629], [141.8312548, 43.8287266], [141.831652, 43.8298319], [141.8315574, 43.8307188], [141.8312548, 43.8312236], [141.8308765, 43.8315648], [141.8300954, 43.8323979], [141.8296829, 43.832996], [141.8292895, 43.8341749], [141.8288507, 43.8358775], [141.8271559, 43.8381696], [141.8270046, 43.8391302], [141.8268845, 43.8406421], [141.8265683, 43.8411812], [141.8257379, 43.8419802], [141.8245783, 43.8428935], [141.8242854, 43.8432002], [141.8240717, 43.8436297], [141.8232974, 43.8458966], [141.8230099, 43.846213], [141.8223905, 43.8465132], [141.8213962, 43.8469496], [141.8184725, 43.8477658], [141.8167929, 43.8484618], [141.8155274, 43.8489419], [141.815162, 43.8490288], [141.8146888, 43.849127], [141.8141979, 43.8491744], [141.8136543, 43.8491736], [141.8125573, 43.8491604], [141.810879, 43.8491402], [141.8102587, 43.8491292], [141.809322, 43.8491648], [141.8088514, 43.8492441], [141.8082768, 43.8493599], [141.8069747, 43.8497634], [141.8066124, 43.8498896], [141.8062723, 43.8499936], [141.8061685, 43.8500294], [141.803172, 43.8510371], [141.8028189, 43.8511355], [141.8023082, 43.8512382], [141.80187, 43.8512862], [141.8014321, 43.8512965], [141.8009827, 43.851286], [141.800548, 43.8512401], [141.8001063, 43.851168], [141.7996957, 43.8510623], [141.799284, 43.8509282], [141.7979193, 43.8504168], [141.797333, 43.850197], [141.7969123, 43.8500785], [141.7964627, 43.8499723], [141.7960967, 43.8499266], [141.7958445, 43.8499176], [141.7953949, 43.8499127], [141.7948913, 43.8499197], [141.7945538, 43.8499421], [141.7941589, 43.8499782], [141.7937368, 43.8500472], [141.7932213, 43.8501835], [141.7926776, 43.850358], [141.7922811, 43.8505394], [141.7918764, 43.8507481], [141.7909028, 43.8513842], [141.7904753, 43.8516559], [141.7900029, 43.8518921], [141.7898965, 43.8519394], [141.7895429, 43.8520966], [141.788754, 43.8523626], [141.7878487, 43.8526105], [141.7861111, 43.8530426], [141.7856028, 43.8531339], [141.7850745, 43.8531926], [141.7847604, 43.8532217], [141.7843688, 43.853243], [141.7839062, 43.8532384], [141.7834273, 43.8532178], [141.7826409, 43.8531328], [141.7824658, 43.8531139], [141.782079, 43.8530754], [141.7819423, 43.8530616], [141.7811236, 43.852979], [141.7803112, 43.8528208], [141.779796, 43.8526859], [141.7792779, 43.8525196], [141.7788969, 43.8523724], [141.7780521, 43.8519548], [141.7777816, 43.8517886], [141.7763479, 43.8507995], [141.7755949, 43.8502738], [141.7743083, 43.8493756], [141.7738431, 43.849044], [141.7727377, 43.8482707], [141.7720958, 43.8478216], [141.7699059, 43.846302], [141.7695388, 43.8460628], [141.7691799, 43.8458717], [141.7687663, 43.8456934], [141.7683671, 43.8455572], [141.7678168, 43.8454109], [141.7672965, 43.8453316], [141.7668787, 43.8452867], [141.7664471, 43.8452575], [141.7660841, 43.8452581], [141.7657958, 43.84529], [141.765252, 43.8453361], [141.7650397, 43.845373], [141.7642457, 43.8456024], [141.76351, 43.8459503], [141.7628088, 43.8463979], [141.7617589, 43.8471464], [141.7612388, 43.8475119], [141.7608431, 43.8478115], [141.7605014, 43.8481123], [141.7603135, 43.8483356], [141.7601979, 43.8484996], [141.7601252, 43.8486182], [141.7600783, 43.8486948], [141.7599891, 43.8488692], [141.7599339, 43.8490978], [141.7598604, 43.8494087], [141.7598653, 43.8496304], [141.7598924, 43.8500347], [141.7599128, 43.8502748], [141.7599303, 43.8507309], [141.7599091, 43.8510589], [141.7598236, 43.8514692], [141.7596643, 43.8518984], [141.7595577, 43.8521157], [141.7594601, 43.8522781], [141.7593892, 43.8524424], [141.7587327, 43.8535968], [141.7583495, 43.8542707], [141.7579123, 43.8550528], [141.7575375, 43.8557882], [141.7574192, 43.8560388], [141.7573063, 43.8563288], [141.7571973, 43.8567459], [141.7570911, 43.8570713], [141.7569412, 43.8573791], [141.7567841, 43.8576337], [141.7565809, 43.8579001], [141.7562793, 43.8582037], [141.755937, 43.8584744], [141.7557274, 43.8586112], [141.7554613, 43.8587656], [141.7542257, 43.8593597], [141.7535195, 43.8597045], [141.7530331, 43.8599357], [141.7525582, 43.8602577], [141.7521482, 43.8605836], [141.7518274, 43.8609305], [141.7514947, 43.8613253], [141.7510094, 43.8619245], [141.7507507, 43.8622324], [141.7504662, 43.86251], [141.7499036, 43.8629114], [141.7495331, 43.8631281], [141.749135, 43.8633021], [141.748764, 43.8634516], [141.7483648, 43.8635657], [141.7479465, 43.8636555], [141.747487, 43.8637393], [141.7468797, 43.863846], [141.7465087, 43.863914], [141.7462444, 43.8639855], [141.7460071, 43.8640686], [141.7455939, 43.8642432], [141.7452242, 43.864441], [141.7449395, 43.8646473], [141.7446938, 43.8648608], [141.7444383, 43.8651636], [141.7442227, 43.8654576], [141.7441109, 43.8656989], [141.7440031, 43.8660386], [141.7439655, 43.8662852], [141.7439585, 43.8664281], [141.7439545, 43.8665387], [141.7439804, 43.8667848], [141.7441221, 43.8675762], [141.7441752, 43.8680028], [141.7441663, 43.8683619], [141.7441047, 43.8686649], [141.7440117, 43.8689399], [141.743885, 43.8692132], [141.7436619, 43.8695122], [141.743305, 43.869897], [141.7431263, 43.8700694], [141.7428958, 43.8702885], [141.7422774, 43.8708943], [141.7401265, 43.8729859], [141.739783, 43.8733274], [141.7394351, 43.8736697], [141.7386537, 43.8744384], [141.7385131, 43.8745712], [141.7378535, 43.8752214], [141.736372, 43.8766758], [141.7357766, 43.8772358], [141.7354425, 43.8775972], [141.7352602, 43.8778697], [141.7350738, 43.8782237], [141.734993, 43.8785069], [141.7349515, 43.8789075], [141.7349914, 43.8795364], [141.7350201, 43.8799732], [141.7350751, 43.8808123], [141.7351376, 43.8818365], [141.7351824, 43.8822023], [141.7352387, 43.8829795], [141.7352391, 43.8830893], [141.7352074, 43.883614], [141.7351738, 43.8837407], [141.7350392, 43.8841777], [141.7347834, 43.8846506], [141.7344987, 43.8850224], [141.734051, 43.8854518], [141.7337475, 43.885679], [141.7336581, 43.8857451], [141.7332716, 43.885967], [141.7328744, 43.8861508], [141.7323555, 43.8863292], [141.7319003, 43.8864591], [141.7317844, 43.8864788], [141.731565, 43.886531], [141.7309103, 43.8866053], [141.7305204, 43.8866177], [141.730149, 43.8866095], [141.7295959, 43.8865383], [141.7291314, 43.8864575], [141.727523, 43.8861036], [141.7269919, 43.8860011], [141.7265325, 43.8859453], [141.7260246, 43.8859478], [141.725592, 43.8859761], [141.724843, 43.8861285], [141.7244972, 43.886237], [141.7240489, 43.8864036], [141.7228959, 43.8868167], [141.7210535, 43.8874751], [141.7209766, 43.8875056], [141.719878, 43.8879033], [141.7195738, 43.8880131], [141.7190799, 43.8881913], [141.718588, 43.8883593], [141.7184007, 43.8884318], [141.7175793, 43.8887212], [141.717122, 43.8889468], [141.7167251, 43.8891813], [141.7158979, 43.889734], [141.714853, 43.8904323], [141.7130325, 43.891631], [141.7127404, 43.8918542], [141.7123099, 43.8921878], [141.7119177, 43.8925442], [141.7115941, 43.8928948], [141.7114722, 43.8930343], [141.7112564, 43.893294], [141.7106178, 43.8941794], [141.7101755, 43.8947927], [141.7094441, 43.8957931], [141.7089316, 43.8965201], [141.7086706, 43.8969995], [141.7084864, 43.8974923], [141.7081111, 43.8990391], [141.7079661, 43.8996049], [141.7078546, 43.8998444], [141.7077005, 43.9000648], [141.7075412, 43.9002523], [141.7072962, 43.900454], [141.7069811, 43.9006539], [141.7064254, 43.9008989], [141.7063062, 43.9009553], [141.7053573, 43.9014043], [141.7051409, 43.9015068], [141.7050776, 43.9015365], [141.704926, 43.9016078], [141.7040303, 43.9020291], [141.7030453, 43.9024259], [141.7025939, 43.9025916], [141.7016666, 43.903043], [141.701415, 43.9032584], [141.7010267, 43.9036381], [141.7005459, 43.9042], [141.7003715, 43.9045132], [141.6996688, 43.9054789], [141.6993972, 43.9058145], [141.6991076, 43.906089], [141.6988393, 43.9062818], [141.6985034, 43.9064691], [141.6979419, 43.9066953], [141.6974797, 43.9068363], [141.6947368, 43.9072887], [141.6940181, 43.9074567], [141.6934912, 43.9076441], [141.6930153, 43.9078776], [141.6926216, 43.9081243], [141.6923609, 43.908363], [141.6921255, 43.908596], [141.6919667, 43.9087746], [141.6918296, 43.9089645], [141.6916587, 43.9092929], [141.6915323, 43.909596], [141.6914542, 43.9100072], [141.6914435, 43.9101773], [141.6914542, 43.9103804], [141.6914806, 43.910577], [141.6915378, 43.9108037], [141.6915924, 43.9109697], [141.6916621, 43.9111643], [141.6918034, 43.9114156], [141.6918982, 43.9115713], [141.6920558, 43.9118174], [141.6924237, 43.912139], [141.6927294, 43.9123709], [141.6933954, 43.9127185], [141.6940357, 43.9129569], [141.6952769, 43.9133415], [141.6962175, 43.9136599], [141.6966784, 43.9138553], [141.6970819, 43.914083], [141.6974275, 43.9143636], [141.6976286, 43.914563], [141.6978181, 43.9147716], [141.6980421, 43.9150931], [141.6981868, 43.9154336], [141.6982412, 43.9156628], [141.6982705, 43.9158974], [141.6982812, 43.9159632], [141.6982592, 43.9163006], [141.698249, 43.916458], [141.69819, 43.916667], [141.6981128, 43.9168804], [141.6979985, 43.9171185], [141.6977831, 43.9174269], [141.6973493, 43.918037], [141.6966351, 43.9189875], [141.6962983, 43.9193379], [141.6960651, 43.9195311], [141.6957987, 43.9196981], [141.6954551, 43.9198666], [141.6950913, 43.9200323], [141.694664, 43.9201616], [141.6942204, 43.9202573], [141.6937633, 43.9203174], [141.6927258, 43.9204123], [141.6915721, 43.9204946], [141.6903205, 43.9205839], [141.689473, 43.9206265], [141.6891406, 43.9206166], [141.6887771, 43.9205756], [141.6884201, 43.920509], [141.6880382, 43.9203973], [141.6874796, 43.9201705], [141.6862017, 43.9195028], [141.6856463, 43.9192629], [141.6852209, 43.9191343], [141.684707, 43.9190251], [141.6841943, 43.9189687], [141.6837341, 43.9189487], [141.683629, 43.9189503], [141.6833147, 43.9189549], [141.6831631, 43.9189669], [141.6823215, 43.9189789], [141.6822278, 43.9189768], [141.6820791, 43.9189457], [141.6796305, 43.9189972], [141.6788958, 43.9190243], [141.6782253, 43.9190848], [141.6775892, 43.9191852], [141.6771576, 43.9193003], [141.6765636, 43.9195438], [141.676159, 43.9197602], [141.6759317, 43.9199104], [141.6758938, 43.9199354], [141.6755826, 43.9202062], [141.675297, 43.9205823], [141.6752132, 43.9206925], [141.6749984, 43.9210238], [141.6748611, 43.9214494], [141.6747737, 43.9217265], [141.6747348, 43.9218498], [141.6747301, 43.9218648], [141.6746953, 43.9219759], [141.6746335, 43.9222037], [141.674483, 43.9227584], [141.6742667, 43.9235559], [141.6741898, 43.9238397], [141.6739737, 43.9245252], [141.6738455, 43.9249434], [141.6738076, 43.9250669], [141.673754, 43.9252893], [141.6736429, 43.9257502], [141.6736065, 43.9259044], [141.6735726, 43.9260268], [141.6734553, 43.92645], [141.6733181, 43.9269285], [141.6732197, 43.9272258], [141.673112, 43.9275731], [141.6721879, 43.9300139], [141.6719335, 43.9304686], [141.6714426, 43.9310848], [141.6713126, 43.9311909], [141.6711658, 43.9313252], [141.6707675, 43.9316166], [141.6696476, 43.9324147], [141.6686526, 43.9331229], [141.6681289, 43.933433], [141.6673821, 43.9337894], [141.6671782, 43.9338734], [141.6669879, 43.9339415], [141.6662833, 43.9341612], [141.6659613, 43.9342251], [141.6655257, 43.9343115], [141.6652856, 43.9343413], [141.6649461, 43.9343835], [141.6645814, 43.9344245], [141.6644981, 43.9344326], [141.6643339, 43.9344514]], [[141.6822278, 43.9189768], [141.6820935, 43.9190353], [141.6796333, 43.9190888], [141.6789028, 43.9191165], [141.678258, 43.9191705], [141.6776409, 43.9192693], [141.6772376, 43.9193796], [141.6766173, 43.9196177], [141.6762464, 43.9198167], [141.6760035, 43.9199976], [141.6757488, 43.9202296], [141.6754139, 43.9206204], [141.6753213, 43.9207404], [141.6751105, 43.9210709], [141.6749592, 43.9215546], [141.674896, 43.9217448], [141.674857, 43.9218621], [141.6748134, 43.9220006], [141.6743076, 43.9238701], [141.6741609, 43.9243542], [141.6741021, 43.9245483], [141.6740378, 43.9247867], [141.6737722, 43.9257718], [141.6737308, 43.9259155], [141.673693, 43.9260479], [141.6735849, 43.9264459], [141.6734461, 43.9269433], [141.6732238, 43.9276419], [141.6723058, 43.930041], [141.6720565, 43.9305134], [141.6717087, 43.930945], [141.6715545, 43.9311364], [141.671412, 43.9312623], [141.6712665, 43.9313824], [141.6697658, 43.9324594], [141.6686683, 43.9332323], [141.6682177, 43.9335029], [141.667464, 43.9338581], [141.6672543, 43.9339371], [141.667042, 43.9340158], [141.6665117, 43.9341995], [141.6655557, 43.9344139], [141.6649434, 43.9344907], [141.6646042, 43.9345231], [141.6645575, 43.9345276], [141.6643691, 43.9345369]]]}, "id": "relation/6596367"}]}