{"type": "FeatureCollection", "generator": "kokudo-quiz tools/fetch_raw.py (Overpass API)", "copyright": "The data included in this document is from www.openstreetmap.org. The data is made available under ODbL.", "timestamp": "2026-09-30T16:04:45Z", "features": [{"type": "Feature", "properties": {"@id": "relation/6626645", "colour": "red", "from": "北海道帯広市", "name": "国道236号", "name:en": "National Highway Route 236", "name:ja": "国道236号", "network": "JP:national", "operator": "北海道開発局", "ref": "236", "route": "road", "to": "北海道浦河郡浦河町", "type": "route", "wikidata": "Q11421427", "wikipedia": "ja:国道236号"}, "geometry": {"type": "MultiLineString", "coordinates": [[[143.2040775, 42.9320848], [143.2040878, 42.9319957], [143.2041026, 42.9318741], [143.2042261, 42.9308618], [143.204282, 42.9304033], [143.2042897, 42.9303186], [143.2043239, 42.930021], [143.2043532, 42.929818], [143.2043762, 42.9297008], [143.2045075, 42.928659], [143.2044847, 42.9285504]], [[143.2039562, 42.9320965], [143.2039667, 42.9320214], [143.2039853, 42.931889], [143.2041297, 42.9308605], [143.2041991, 42.9303874], [143.2042024, 42.9303123], [143.2042465, 42.9300155], [143.2042743, 42.9298112], [143.2042831, 42.9296918], [143.2043239, 42.9293922], [143.2043563, 42.929154], [143.2044239, 42.9286579], [143.2044847, 42.9285504], [143.2045011, 42.9284214], [143.2046183, 42.9275019], [143.204632, 42.9273976], [143.2046473, 42.927276], [143.204766, 42.9263519], [143.2047802, 42.926241], [143.2047972, 42.9261083], [143.2049305, 42.9251919], [143.2049469, 42.9250793], [143.2049607, 42.9249573], [143.2050826, 42.9240315], [143.2050975, 42.9239183], [143.205111, 42.9237977], [143.2051279, 42.9236769], [143.2051579, 42.923462], [143.2052389, 42.9228656], [143.2052524, 42.9227672], [143.2052707, 42.9226451], [143.20538, 42.9217173], [143.2053917, 42.9216026], [143.2054049, 42.9214865], [143.2055389, 42.9205536], [143.2055558, 42.9204357], [143.2055674, 42.9203227], [143.2056915, 42.9193947], [143.2057063, 42.9192839], [143.2057218, 42.9191614], [143.2058395, 42.9182291], [143.2058554, 42.9181273], [143.2058725, 42.9180088], [143.2059341, 42.9175806], [143.2059692, 42.9173662], [143.2060003, 42.9170921], [143.2060164, 42.9169498], [143.2060338, 42.9168195], [143.2061535, 42.9159232], [143.2061714, 42.9157953], [143.2061883, 42.915665], [143.2063076, 42.9147877], [143.2063356, 42.914636], [143.2063608, 42.9144273], [143.2064365, 42.9138017], [143.2064626, 42.9135858], [143.2064752, 42.913482], [143.2064893, 42.9133817], [143.2066221, 42.9124369], [143.2066371, 42.9123302], [143.2066532, 42.9122131], [143.2067815, 42.9112801], [143.2067965, 42.9111705], [143.2068092, 42.9110664], [143.2069246, 42.910121], [143.2069405, 42.9100301], [143.2069687, 42.9098489], [143.206978, 42.9097497], [143.207103, 42.9088246], [143.2071183, 42.9087112], [143.2071357, 42.9085465], [143.2072077, 42.9080107], [143.2072484, 42.9077078], [143.2072689, 42.9075546], [143.2072858, 42.9074276], [143.2074054, 42.9065233], [143.2074232, 42.906394], [143.2074401, 42.9062697], [143.2075593, 42.9053892], [143.20758, 42.905236], [143.2076, 42.9050752], [143.2076126, 42.9049735], [143.2077069, 42.9042129], [143.2077227, 42.9040855], [143.2077406, 42.9039495], [143.2077648, 42.903774], [143.2077689, 42.9037442], [143.2077907, 42.9035863], [143.2078476, 42.9031737], [143.2078654, 42.9030445], [143.2078825, 42.9029208], [143.2078976, 42.902804], [143.2080152, 42.9018949], [143.2080314, 42.9017699], [143.2080492, 42.9016323], [143.2081056, 42.9012076], [143.2081687, 42.9007319], [143.2081855, 42.9006052], [143.2081999, 42.9004921], [143.2083106, 42.8996214], [143.2083282, 42.89952], [143.2083956, 42.8994235], [143.2084074, 42.8993315], [143.2085576, 42.898251], [143.2085641, 42.8982015], [143.2085984, 42.8979423], [143.2086043, 42.8978833], [143.2086424, 42.8973758], [143.2086434, 42.8972408], [143.2086386, 42.8970818], [143.2085769, 42.8967818], [143.2085293, 42.8966075], [143.2084916, 42.8965086], [143.2084483, 42.8963952], [143.2084015, 42.8962723], [143.208369, 42.8961872], [143.2082865, 42.8960292], [143.2080817, 42.895637], [143.20804, 42.8955571], [143.2075259, 42.8945749], [143.2074468, 42.8944237], [143.2072564, 42.8940646], [143.2070732, 42.8937198], [143.2069491, 42.8934839], [143.2067638, 42.8931585], [143.2066965, 42.8930071], [143.2062767, 42.8921958], [143.2062124, 42.8920715], [143.2060887, 42.891822], [143.2059733, 42.8915963], [143.2054692, 42.89061], [143.2052397, 42.8901903], [143.2049087, 42.8895493], [143.2048479, 42.8894302], [143.2047612, 42.8892638]], [[143.1967346, 42.8740436], [143.1968727, 42.8742129], [143.1971364, 42.874716], [143.1976088, 42.8755991], [143.1978741, 42.8761143], [143.1979878, 42.8763374], [143.1980877, 42.8765391], [143.1989443, 42.8781596], [143.1996054, 42.8794271], [143.2002932, 42.8807375], [143.2006314, 42.881385], [143.2007229, 42.8815915], [143.2008163, 42.8817659], [143.2014054, 42.882866], [143.2020691, 42.8841355], [143.2022984, 42.8845805], [143.2025543, 42.8850773], [143.2026352, 42.8852316], [143.2029658, 42.8858618], [143.2031697, 42.8862499], [143.2031709, 42.8862522], [143.2034723, 42.8868381], [143.2035345, 42.8869548], [143.2037338, 42.8873292], [143.2039162, 42.8876718], [143.2042474, 42.8882938], [143.2043891, 42.8885592], [143.2047612, 42.8892638]], [[143.2083282, 42.89952], [143.2082896, 42.8994106], [143.2083043, 42.8993108], [143.2084276, 42.8983109], [143.2084393, 42.8982401], [143.2084474, 42.8981948], [143.2084757, 42.897939], [143.2084949, 42.8977825], [143.2085294, 42.8973719], [143.2085246, 42.8972342], [143.2085183, 42.8970923], [143.2084716, 42.8968231], [143.2084155, 42.8966325], [143.2083349, 42.8964154], [143.2082597, 42.89623], [143.2079239, 42.8955841], [143.207783, 42.8953128], [143.2075571, 42.8948802], [143.2074144, 42.8946069], [143.2068437, 42.893514], [143.2066647, 42.8931833], [143.2065943, 42.8930318], [143.2061551, 42.8922306], [143.2060604, 42.8920579], [143.2059647, 42.8918505], [143.2058857, 42.8916989], [143.2053353, 42.8906434], [143.2051261, 42.890228], [143.2047836, 42.8895779], [143.2047119, 42.889456], [143.20464, 42.8892843], [143.2044341, 42.8889162], [143.20425, 42.888587], [143.2041256, 42.8883245], [143.2038012, 42.8877072], [143.2036241, 42.8873714], [143.2034083, 42.8869624], [143.2033407, 42.8868249], [143.2030642, 42.8862892], [143.2028633, 42.8858946], [143.2025327, 42.8852624], [143.2024502, 42.8851089], [143.2021758, 42.8846177], [143.2019616, 42.8841742], [143.2012889, 42.882906], [143.2006902, 42.8817645], [143.2006135, 42.8816182], [143.2005666, 42.881528], [143.2004946, 42.8813889], [143.2003115, 42.8810323], [143.2001766, 42.8807696], [143.198688, 42.8778949], [143.1979732, 42.8765711], [143.1978602, 42.8763321], [143.1977608, 42.8761455], [143.1974846, 42.8756333], [143.1972586, 42.875187], [143.1970291, 42.8747483], [143.196795, 42.8742506], [143.1967346, 42.8740436], [143.1964862, 42.8735709], [143.1951895, 42.8711035], [143.1951327, 42.8709947], [143.1942806, 42.8693648], [143.1930222, 42.8669478], [143.1927528, 42.8664303], [143.1925134, 42.8659703], [143.1924849, 42.8659158], [143.1921888, 42.8653584], [143.1921415, 42.8652639], [143.1915056, 42.8640493], [143.1910669, 42.8632114], [143.1908189, 42.8627377], [143.1906535, 42.8624218], [143.1897123, 42.860624], [143.1896563, 42.8605251], [143.1895741, 42.8603641], [143.1894438, 42.8600778], [143.1893759, 42.8598843], [143.1892937, 42.8595915], [143.1892249, 42.8592609], [143.1892001, 42.8589665], [143.1892041, 42.8585805], [143.1892218, 42.8582959], [143.1892362, 42.858065], [143.1892706, 42.8575138], [143.1892534, 42.8571786], [143.1892203, 42.8569639], [143.1891512, 42.8566438], [143.1890805, 42.8564033], [143.1889846, 42.8561556], [143.1888421, 42.8558589], [143.1886956, 42.8556001], [143.1885239, 42.8553573], [143.1884231, 42.8552307], [143.1881801, 42.8549259], [143.1880314, 42.8547368], [143.187714, 42.8543502], [143.1874085, 42.8539766], [143.1864507, 42.8528059], [143.1863426, 42.8526667], [143.1860031, 42.852229], [143.1859102, 42.8521128], [143.1854602, 42.8515408], [143.1848997, 42.8508462], [143.1841123, 42.8498617], [143.1834543, 42.8490548], [143.1825949, 42.8479853], [143.1820726, 42.8473262], [143.1815447, 42.8466725], [143.181225, 42.8462705], [143.1808186, 42.8457616], [143.1806607, 42.8455302], [143.1805775, 42.8453069], [143.1805641, 42.8452502], [143.1805411, 42.8451779], [143.1804701, 42.844955], [143.1804175, 42.8445826], [143.1804156, 42.8444308], [143.1804344, 42.8442174], [143.1804784, 42.8439963], [143.1806309, 42.8436224], [143.180775, 42.84336], [143.1809527, 42.8431049], [143.1812533, 42.8428035], [143.1813925, 42.8426765], [143.1815643, 42.8425604], [143.1818344, 42.8423922], [143.182182, 42.8422163], [143.1833954, 42.8416827], [143.1834642, 42.8416436], [143.1876254, 42.8397736], [143.1877078, 42.8397353], [143.1885593, 42.8393783], [143.1892434, 42.8390035], [143.1896263, 42.8387284], [143.1896961, 42.8386689], [143.1898896, 42.838486], [143.1900492, 42.8383227], [143.1902476, 42.8380913], [143.1903774, 42.8379161], [143.1905088, 42.8377135], [143.190659, 42.8374362], [143.1907714, 42.8371542], [143.1909031, 42.8366423], [143.1909204, 42.8360155], [143.1908581, 42.8356229], [143.1908416, 42.8355333], [143.1907141, 42.8352201], [143.190565, 42.83487], [143.189594, 42.8334708], [143.189371, 42.8331333], [143.1879637, 42.8310986], [143.184838, 42.8265989], [143.1818117, 42.8221614], [143.1787601, 42.8177115], [143.1757351, 42.8132531], [143.1746949, 42.8117181], [143.1734805, 42.8099258], [143.1731173, 42.8093835], [143.1728341, 42.808768], [143.172813, 42.8087068], [143.1726648, 42.8082779], [143.172598, 42.8075469], [143.1725676, 42.8072988], [143.1721917, 42.8046722], [143.1721348, 42.8042895], [143.1720368, 42.8039046], [143.1718933, 42.8034922], [143.1718113, 42.8033146], [143.171735, 42.8031631], [143.1716416, 42.8029899], [143.1714343, 42.8026585], [143.1687451, 42.799082], [143.1655851, 42.7948986], [143.1654831, 42.7947654], [143.1653899, 42.7946407], [143.164729, 42.7937697], [143.1640425, 42.7928686], [143.1639867, 42.7927877], [143.1632483, 42.7918175], [143.1628952, 42.7913505], [143.1625649, 42.7909222], [143.1622059, 42.7904473], [143.1621343, 42.7903527], [143.162077, 42.7902774], [143.1615876, 42.7896317], [143.1610477, 42.7889199], [143.1605627, 42.7882911], [143.1603658, 42.7880359], [143.1601732, 42.7877825], [143.1592662, 42.7865988], [143.15891, 42.7860949], [143.1586911, 42.7857128], [143.1584663, 42.7852694], [143.1582531, 42.7847289], [143.1569621, 42.7813177], [143.1551279, 42.7765211], [143.1542118, 42.7740638], [143.1533072, 42.7717054], [143.1524609, 42.7694535], [143.1518126, 42.7677834], [143.1517903, 42.766813], [143.1518341, 42.7663499], [143.1527599, 42.763142], [143.1532956, 42.7612636], [143.1543293, 42.7576389], [143.1557018, 42.7528257], [143.1572298, 42.7479336], [143.1580499, 42.7450006], [143.1580997, 42.7444813], [143.1580139, 42.7436934], [143.1577926, 42.7429402], [143.1576082, 42.7421066], [143.1568475, 42.7386688], [143.1566253, 42.7376755], [143.1553628, 42.7323872], [143.1552166, 42.7318946], [143.1545286, 42.7301937], [143.1544804, 42.7300939], [143.1543932, 42.7298874]], [[143.1276985, 42.6896769], [143.1279288, 42.6893117], [143.1281245, 42.6890966], [143.1285642, 42.6887485], [143.1290287, 42.6884946], [143.1293117, 42.6883765], [143.1304652, 42.6879579], [143.1323694, 42.6872961], [143.1379192, 42.6853485], [143.1384893, 42.6851428], [143.1445896, 42.6829983], [143.1507045, 42.6808571], [143.1568236, 42.6787102], [143.1629307, 42.6765558], [143.1645307, 42.6759861], [143.1649079, 42.6758261], [143.1652323, 42.6756617], [143.1656527, 42.6754139], [143.1660216, 42.6751504], [143.1662066, 42.6750003], [143.1681975, 42.6731519], [143.1709452, 42.6706031], [143.1723964, 42.6692753], [143.1744889, 42.667337], [143.1766295, 42.6653692], [143.1809059, 42.6614657], [143.182304, 42.6601818], [143.1826057, 42.6599063], [143.1851533, 42.6575576], [143.1872597, 42.6556427], [143.188345, 42.6546849], [143.1887117, 42.6543366], [143.1894549, 42.6536542], [143.1914314, 42.6517955], [143.1914881, 42.6517439], [143.1936765, 42.6497508], [143.1945058, 42.6489992], [143.1947501, 42.6487829], [143.1947872, 42.6487513], [143.1963616, 42.6472964], [143.1979199, 42.6458638], [143.1990056, 42.6448361], [143.2019579, 42.6421512], [143.2021021, 42.6420185], [143.2021717, 42.6419484], [143.2038634, 42.6403606], [143.2042198, 42.6400217], [143.2044477, 42.639819], [143.2053032, 42.6390299], [143.2063931, 42.6380432], [143.2106593, 42.6341178], [143.2138183, 42.6312394], [143.2146481, 42.6304725], [143.2149344, 42.6302522], [143.2156551, 42.6297459], [143.215873, 42.6295902], [143.217537, 42.628519], [143.2184086, 42.6279474]], [[143.2476028, 42.6101496], [143.2471687, 42.6104299], [143.2467118, 42.61074], [143.2459928, 42.6111968], [143.2449002, 42.6118975], [143.2443353, 42.6121852], [143.2438323, 42.6123996], [143.2420303, 42.6130676], [143.2407235, 42.6135654], [143.2399735, 42.6139132], [143.2365791, 42.6160805], [143.2314804, 42.6194059], [143.228487, 42.6213784], [143.2252628, 42.6234815], [143.223778, 42.624449], [143.2192118, 42.6274241], [143.2186817, 42.6277686], [143.2184086, 42.6279474]], [[143.1276985, 42.6896769], [143.1275299, 42.6899939], [143.1274353, 42.6902597], [143.1273966, 42.6904441], [143.127374, 42.6906582], [143.1273773, 42.6908461], [143.1273879, 42.6909245], [143.1273985, 42.6910034], [143.1274464, 42.6912426], [143.1275364, 42.691498], [143.1276783, 42.6917707], [143.1277266, 42.6918588], [143.1280386, 42.6924058], [143.1283248, 42.6927876], [143.1288207, 42.6934492], [143.1291773, 42.693925]], [[143.1543932, 42.7298874], [143.1538166, 42.7284719], [143.1519447, 42.7236716], [143.151321, 42.7223184], [143.1509595, 42.7217234], [143.1505378, 42.7212159], [143.1484753, 42.7192036], [143.1440972, 42.7149128], [143.140908, 42.7104133], [143.1402265, 42.7094581], [143.1391918, 42.7080079], [143.1388175, 42.7074778], [143.1383868, 42.7068769], [143.1377227, 42.7059308], [143.136089, 42.7036667], [143.1356007, 42.7029848], [143.1355329, 42.7028811], [143.1350417, 42.7021898], [143.1344205, 42.7013136], [143.1343651, 42.7012354], [143.1343168, 42.7011673], [143.1338086, 42.7004445], [143.1329879, 42.6992851], [143.1329285, 42.699205], [143.1328623, 42.6991055], [143.1322454, 42.6982201], [143.1315475, 42.6972829], [143.1312157, 42.6968004], [143.1309185, 42.6964004], [143.1308793, 42.6963476], [143.1301869, 42.6953705], [143.129737, 42.6947454], [143.1291773, 42.693925]], [[143.2476028, 42.6101496], [143.2479943, 42.6098908], [143.2480279, 42.6098686], [143.2484965, 42.6095726], [143.2520186, 42.6072647], [143.2543098, 42.6057657], [143.2571786, 42.6039033], [143.2581071, 42.6033028], [143.2636326, 42.599729], [143.2645582, 42.5991357], [143.264892, 42.5989375], [143.2654826, 42.5986356], [143.2700758, 42.5967532], [143.2713522, 42.5962556], [143.2754115, 42.5946667], [143.2823471, 42.5918864], [143.283105, 42.5916317], [143.2833861, 42.5915487], [143.284485, 42.5912716], [143.2948608, 42.5894699], [143.2960537, 42.5890343], [143.2972467, 42.5883445], [143.298365, 42.5870012], [143.2999804, 42.5848231], [143.3009746, 42.5839699], [143.3036587, 42.582663], [143.3055972, 42.5817736], [143.3066162, 42.5810475], [143.307486, 42.5797225], [143.3086421, 42.5772026], [143.3089565, 42.5764862], [143.3091844, 42.5759216], [143.3093142, 42.5753591], [143.3092506, 42.5746802], [143.3091524, 42.5743328], [143.3091264, 42.5742406], [143.308833, 42.5735985], [143.3084141, 42.5729638], [143.3083, 42.5727856], [143.3079549, 42.5723288], [143.3076679, 42.5719576], [143.3075462, 42.5717877]], [[143.2770927, 42.5197397], [143.2770591, 42.5199894], [143.2770479, 42.5200722], [143.2764503, 42.5259152], [143.2762865, 42.527578], [143.2764049, 42.528115], [143.2765561, 42.5286446], [143.276899, 42.5292863], [143.2779056, 42.5307199], [143.2780031, 42.5308587], [143.2780867, 42.5309779], [143.2813164, 42.5354253], [143.2845111, 42.5398375], [143.2877142, 42.5442768], [143.290991, 42.5487153], [143.2941054, 42.5531337], [143.2949383, 42.5542879], [143.2972371, 42.5574732], [143.2973156, 42.557582], [143.2977921, 42.558245], [143.29864, 42.5593966], [143.298712, 42.5594943], [143.2988488, 42.5596883], [143.2994076, 42.5604805], [143.3004341, 42.5619027], [143.3004816, 42.5619733], [143.3005634, 42.5620819], [143.3011538, 42.5629054], [143.3020252, 42.5641073], [143.3021009, 42.564212], [143.3022755, 42.564454], [143.3024023, 42.5646297], [143.3031976, 42.5657315], [143.303642, 42.5663473], [143.3036965, 42.5664228], [143.3048799, 42.5680626], [143.3055686, 42.5690169], [143.3058909, 42.5694628], [143.3062475, 42.5699555], [143.3067147, 42.5706012], [143.3069247, 42.5708914], [143.3075462, 42.5717877]], [[143.2720861, 42.4852347], [143.2719426, 42.4860421], [143.2718553, 42.4864268], [143.2717066, 42.4872485], [143.2716667, 42.4874308], [143.2716135, 42.4876573], [143.2715798, 42.487917], [143.2715776, 42.4879613], [143.2715671, 42.4881546], [143.2715733, 42.4883055], [143.2716412, 42.4884582], [143.2719544, 42.4889309], [143.27275, 42.4900297], [143.2728559, 42.490176], [143.2729137, 42.4902581], [143.2730792, 42.490493], [143.2731913, 42.4906522], [143.2732389, 42.4907201], [143.2738182, 42.4915454], [143.2738854, 42.4916394], [143.273964, 42.4917577], [143.274486, 42.4925399], [143.2745536, 42.4926413], [143.2746113, 42.4927217], [143.2750734, 42.4933649], [143.2753162, 42.4937139], [143.2760037, 42.4947059], [143.2765402, 42.4954807], [143.2765691, 42.4955189], [143.2768858, 42.4959596], [143.2769667, 42.4960729], [143.2770469, 42.4961871], [143.277554, 42.4969], [143.2776629, 42.4970531], [143.2777397, 42.4971622], [143.2787405, 42.4985832], [143.2791572, 42.4992242], [143.279277, 42.4995671], [143.2793063, 42.4997048], [143.2793194, 42.4998657], [143.2793092, 42.5000376], [143.2792819, 42.5003808], [143.2792429, 42.5007514], [143.2792142, 42.5009761], [143.2790885, 42.5021174], [143.2790807, 42.50219], [143.278954, 42.5033498], [143.2785418, 42.5064279], [143.2784842, 42.5069509], [143.2784161, 42.5075548], [143.2783397, 42.508136], [143.2781519, 42.5097386], [143.2776661, 42.5141628], [143.277193, 42.5189948], [143.2770927, 42.5197397]], [[143.2720861, 42.4852347], [143.2721341, 42.4850111], [143.2721784, 42.4848216], [143.2725307, 42.4832235], [143.2727931, 42.4819368], [143.2729194, 42.4812457], [143.2729576, 42.481079], [143.2729923, 42.4808938], [143.2730138, 42.4807917], [143.273025, 42.480738], [143.2730377, 42.4806776], [143.2730954, 42.4804032], [143.2731927, 42.4799197], [143.2734509, 42.4787131], [143.2734684, 42.4786393], [143.2740197, 42.4759378], [143.274072, 42.4757419], [143.2741646, 42.475343], [143.2752985, 42.4696131], [143.2754479, 42.4688438], [143.2754855, 42.4686711], [143.276033, 42.4660571], [143.2762148, 42.4653956], [143.2763841, 42.4650657], [143.2765591, 42.4647846], [143.2768836, 42.4643476], [143.281356, 42.4607187], [143.2815396, 42.4605566], [143.2860768, 42.456934], [143.2861923, 42.4568366], [143.2910688, 42.4529474], [143.2921849, 42.4520437], [143.2926743, 42.4516321], [143.2932503, 42.4511949], [143.2939531, 42.450607], [143.2941383, 42.4504178], [143.2943027, 42.4501875], [143.2944233, 42.4499598], [143.2945057, 42.4496858], [143.2945253, 42.449331], [143.2945003, 42.4491115], [143.2944021, 42.4487974], [143.2942814, 42.4484991], [143.294063, 42.4481179], [143.2930407, 42.446351], [143.2929427, 42.4461068], [143.2928486, 42.4455964], [143.2928353, 42.4454036], [143.2928465, 42.4451526], [143.2929022, 42.4448472], [143.2929765, 42.4445788], [143.2936553, 42.4426153], [143.2942743, 42.4403152], [143.2967485, 42.4329], [143.296983, 42.4321624], [143.2976399, 42.430096], [143.2989104, 42.4260997], [143.3009155, 42.4197918], [143.3011036, 42.4192], [143.3031953, 42.4130824], [143.3036029, 42.411832], [143.3036421, 42.4117148], [143.30533, 42.406504], [143.3066562, 42.4023629], [143.3069086, 42.4016134], [143.3069341, 42.4010801], [143.3069071, 42.4006755], [143.3068108, 42.4002401], [143.3066815, 42.3999284], [143.3065523, 42.3996166], [143.3061654, 42.3988522], [143.3050577, 42.3966596], [143.3047029, 42.3959914], [143.3044424, 42.3954814], [143.303621, 42.3958207], [143.3033751, 42.39592], [143.3026028, 42.3962211], [143.3017898, 42.3965445], [143.3012981, 42.3967396], [143.299671, 42.3973814], [143.2916723, 42.4005305], [143.2805237, 42.4049706], [143.2801906, 42.4050766], [143.2798037, 42.4051315], [143.2794043, 42.4051527], [143.2790687, 42.405124], [143.2727248, 42.4037202], [143.272103, 42.4035916], [143.2711859, 42.4035572], [143.2700486, 42.4036388], [143.2689916, 42.4037994], [143.264567, 42.405544], [143.2586364, 42.4079564], [143.2526903, 42.4102875], [143.2468926, 42.4125602], [143.2447384, 42.4134047], [143.24074, 42.414972], [143.2386585, 42.4157909], [143.2383875, 42.4158798], [143.23384, 42.416085], [143.2313261, 42.4162382], [143.2301741, 42.4160824], [143.226818, 42.414747], [143.2197604, 42.4119169], [143.213962, 42.409571], [143.2123283, 42.4090442], [143.2116775, 42.408861], [143.2107906, 42.4086293], [143.209532, 42.408295], [143.208252, 42.408066], [143.2071835, 42.4081091], [143.2063271, 42.4082951], [143.2030186, 42.4092054], [143.192186, 42.412148], [143.1857682, 42.4139167], [143.183199, 42.4145996], [143.1826173, 42.4146782], [143.179158, 42.4147793], [143.1723691, 42.4149515], [143.1656178, 42.4151056], [143.1646535, 42.4151316], [143.1559199, 42.4153666], [143.154626, 42.415162], [143.15226, 42.413602], [143.1471723, 42.410255], [143.1448812, 42.4086242], [143.1438764, 42.4075362], [143.1404792, 42.4031164], [143.1391366, 42.401905], [143.1334239, 42.3983672], [143.1321602, 42.3971751], [143.1303869, 42.3949788], [143.1285274, 42.3929451], [143.1266582, 42.3905801], [143.123774, 42.3865629], [143.1227, 42.3856638], [143.1190851, 42.3837506], [143.1170944, 42.3829854], [143.1086861, 42.3806705], [143.1060405, 42.3803261], [143.0923778, 42.3792918], [143.0916511, 42.379221], [143.0903103, 42.379074], [143.0885689, 42.3787], [143.0879452, 42.3786011], [143.0873009, 42.3787084], [143.0844921, 42.3798599], [143.0834067, 42.3801895], [143.0833307, 42.3802126], [143.0820989, 42.380307], [143.0790291, 42.3803504], [143.0782173, 42.3803819], [143.0779418, 42.3803795], [143.0776583, 42.3804071], [143.0772133, 42.3804985], [143.0768693, 42.3806753], [143.0762138, 42.381089], [143.075946, 42.3811934], [143.0756782, 42.3812617], [143.0753176, 42.3812983], [143.07392, 42.3811732], [143.0733451, 42.3811865], [143.0729032, 42.3812955], [143.071784, 42.3817527], [143.0714185, 42.3818205], [143.0703867, 42.3818957], [143.0697604, 42.3819302], [143.0691749, 42.3820368], [143.0681016, 42.3824187], [143.0671487, 42.3826618], [143.0664736, 42.38283], [143.0656794, 42.3828912], [143.0649969, 42.3827434], [143.0644059, 42.3825504], [143.0637164, 42.3822441], [143.0635016, 42.3821488], [143.0627598, 42.3820299], [143.0617314, 42.3820558], [143.0605966, 42.3816144], [143.0597814, 42.3808811], [143.0594794, 42.3800282], [143.0595857, 42.3790889], [143.0610649, 42.3771695], [143.061384, 42.3766287], [143.0614877, 42.3759101], [143.0614007, 42.3755095], [143.0610431, 42.3750359], [143.0608029, 42.3748869], [143.0602269, 42.3746464], [143.0595004, 42.3743763], [143.0584741, 42.373936], [143.0578208, 42.3736312], [143.0567757, 42.3727602], [143.05606, 42.3720614], [143.0553657, 42.3715649], [143.0549128, 42.371251], [143.0546344, 42.3705309], [143.054792, 42.3695348], [143.0545775, 42.3690753], [143.0541838, 42.3685353], [143.0539938, 42.3682747], [143.0537126, 42.3678424], [143.053423, 42.3673943], [143.0531333, 42.3669462], [143.0517526, 42.3619809], [143.0515421, 42.3617447], [143.0504219, 42.3608302], [143.0495261, 42.3600298], [143.048198, 42.3587727], [143.0471462, 42.3583255], [143.046413, 42.3581548], [143.0456795, 42.3580156], [143.044435, 42.3574924], [143.0441024, 42.3572625], [143.0438557, 42.3569453], [143.0436518, 42.3565331], [143.0434909, 42.3562477], [143.0433621, 42.355661], [143.0425264, 42.3520424], [143.0424502, 42.3517125], [143.0419245, 42.3507451], [143.0417206, 42.3505073], [143.0415919, 42.3503249], [143.0410257, 42.3496697], [143.0409106, 42.3495594], [143.0404419, 42.3492395], [143.0391612, 42.3481066], [143.039025, 42.3474782], [143.0370635, 42.3133627], [143.0370415, 42.3124366], [143.0369993, 42.311287], [143.0368545, 42.3106235], [143.0365192, 42.3100181], [143.0363775, 42.3097009], [143.0362871, 42.3094802], [143.0360699, 42.3091787], [143.035737, 42.3088159], [143.0354932, 42.3085896], [143.0352089, 42.3083892], [143.034938, 42.3081512], [143.0346761, 42.3078983], [143.0344498, 42.3076613], [143.0342862, 42.3074193], [143.0341249, 42.3071555], [143.0340072, 42.3068996], [143.0339402, 42.3066893], [143.0338839, 42.3064235], [143.0338821, 42.3060773], [143.0339026, 42.30588], [143.0339777, 42.3055999], [143.0340871, 42.305314], [143.0343036, 42.304943], [143.0348392, 42.3041819], [143.0350378, 42.3038443], [143.0351686, 42.3035134], [143.0352428, 42.3032059], [143.0352899, 42.3028275], [143.0352631, 42.3023624], [143.0352234, 42.3018112], [143.035157, 42.3013713], [143.034892, 42.299615], [143.0348042, 42.2993855], [143.0346739, 42.2991978], [143.0344922, 42.2989795], [143.0342854, 42.298793], [143.034024, 42.2986346], [143.0322058, 42.2978431], [143.0315021, 42.2975599], [143.0312172, 42.2974128], [143.0307993, 42.2971513], [143.0305526, 42.2969152], [143.0303354, 42.296664], [143.0300999, 42.2963257], [143.0296071, 42.2952764], [143.0293751, 42.2948022], [143.0291319, 42.2945462], [143.0287743, 42.2942726], [143.0286135, 42.2941745], [143.0282724, 42.2940796], [143.0278525, 42.2939881], [143.0275914, 42.2939273], [143.0273361, 42.2938153], [143.0270469, 42.2936317], [143.0267938, 42.2933603], [143.0265084, 42.2930663], [143.026312, 42.2928936], [143.0260384, 42.2927388], [143.0256951, 42.2924849], [143.0252542, 42.292035], [143.0250567, 42.2917746], [143.0248797, 42.2913936], [143.0247778, 42.2911972], [143.0247419, 42.2909775], [143.0247835, 42.2896817], [143.0247644, 42.2895087], [143.0247027, 42.2892964], [143.0245889, 42.2889969], [143.0239361, 42.2878228], [143.0237614, 42.2875099], [143.0235391, 42.287036], [143.023409, 42.2867198], [143.0231954, 42.286047], [143.0229661, 42.2852988], [143.0228239, 42.284927], [143.0226382, 42.2845764], [143.0223411, 42.2841288], [143.0221948, 42.2839607], [143.0220419, 42.2837265], [143.0219534, 42.2834666], [143.0219026, 42.2831979], [143.0220071, 42.2819788], [143.0219802, 42.2817917], [143.0218529, 42.2816161], [143.0216913, 42.2814558], [143.0214684, 42.2812831], [143.0207703, 42.280834], [143.0204708, 42.2806318], [143.0199577, 42.2802957], [143.0194482, 42.2798748], [143.0192697, 42.2796425], [143.019121, 42.2793905], [143.0189962, 42.2790877], [143.018902, 42.2785958], [143.018685, 42.2773035], [143.0186489, 42.2770686], [143.0186436, 42.2767531], [143.0186769, 42.2764061], [143.0187267, 42.2762093], [143.0188233, 42.2759354], [143.0199015, 42.2736928], [143.0200316, 42.2733585], [143.0200866, 42.2731768], [143.0201402, 42.272895], [143.0201402, 42.2726239], [143.0201134, 42.2723194], [143.0200249, 42.2719721], [143.0195931, 42.2707217], [143.0189695, 42.268851], [143.0186972, 42.2680561], [143.0185363, 42.2676154], [143.0184381, 42.2671811], [143.0184102, 42.2668671], [143.0184209, 42.2664801], [143.0185282, 42.2659283], [143.0187643, 42.2650748], [143.0188124, 42.2646807], [143.0188018, 42.2644316], [143.0187643, 42.2640942], [143.0186662, 42.2636258], [143.0185443, 42.26332], [143.0168019, 42.2603956], [143.0166078, 42.2599924], [143.0165119, 42.2596335], [143.0164961, 42.2594342], [143.0165068, 42.259307], [143.0165734, 42.2586824], [143.0166779, 42.2579227], [143.0166614, 42.2577519], [143.0166448, 42.2575145], [143.016584, 42.257263], [143.0165033, 42.257016], [143.0158319, 42.255541], [143.0153364, 42.2544365], [143.0152556, 42.2541955], [143.0152077, 42.2538648], [143.0152451, 42.2534686], [143.015615, 42.2519498], [143.0156717, 42.2517147], [143.0156878, 42.2514903], [143.0156353, 42.2512645], [143.0155385, 42.2510361], [143.0152776, 42.2507435], [143.0150609, 42.2506137], [143.0143366, 42.2502047], [143.0140632, 42.2500343], [143.0138266, 42.2498893], [143.0131316, 42.2494831], [143.0126952, 42.2491198], [143.0122322, 42.2485965], [143.0117943, 42.2481076], [143.0112122, 42.2473953], [143.0109778, 42.2471978], [143.0106447, 42.246946], [143.0100462, 42.2466102], [143.0090627, 42.2460462], [143.0080453, 42.2454324], [143.0076626, 42.2451765], [143.006646, 42.2442691], [143.0049924, 42.2426725], [143.0046071, 42.2423021], [143.0040547, 42.2417638], [143.0035347, 42.2412946], [143.002966, 42.2409034], [143.0023625, 42.2405122], [143.0018281, 42.240108], [143.0005453, 42.2392119], [143.0002597, 42.2390765], [142.9998374, 42.2388929], [142.9987963, 42.23848], [142.9983821, 42.2383061], [142.9980336, 42.2381386], [142.9977572, 42.2379844], [142.9974845, 42.2377983], [142.9968855, 42.2373509], [142.9963009, 42.2369591], [142.995906, 42.2367271], [142.99559, 42.2365844], [142.9951984, 42.2364354], [142.9946879, 42.2362746], [142.9938933, 42.2360369], [142.9932864, 42.2358496], [142.9925034, 42.2356078], [142.9892523, 42.2346041], [142.9889495, 42.23449], [142.9886384, 42.234341], [142.9884227, 42.2341929], [142.9881801, 42.233959], [142.9878762, 42.2335791], [142.987683, 42.2333904], [142.9874531, 42.2332108], [142.9872867, 42.2331097], [142.9871246, 42.2330256], [142.9869625, 42.2329702], [142.9867622, 42.2329081], [142.9865521, 42.2328746], [142.985226, 42.2327056], [142.9840128, 42.2325961], [142.9824703, 42.2325349], [142.9817267, 42.2325081], [142.981131, 42.2324698], [142.9748822, 42.2320205], [142.9735867, 42.2319648], [142.973107, 42.2319653], [142.9726712, 42.2320156], [142.9723979, 42.2320979], [142.972106, 42.2322337], [142.97154, 42.2325384], [142.9710732, 42.2327448], [142.9707771, 42.2328426], [142.9704116, 42.2329489], [142.9699181, 42.2330424], [142.969526, 42.2330867], [142.9691258, 42.233102], [142.9685995, 42.2330792], [142.9682387, 42.2330233], [142.9642588, 42.232318], [142.963744, 42.2322776], [142.9620619, 42.2321978], [142.9550263, 42.2319498], [142.9546506, 42.2319049], [142.9543897, 42.2318304], [142.9541475, 42.2317381], [142.9539772, 42.2316386], [142.9538204, 42.2315311], [142.9536904, 42.2314118], [142.9535792, 42.2312924], [142.9517671, 42.2291508], [142.9516144, 42.2290084], [142.9514482, 42.2288699], [142.9512331, 42.2287182], [142.9509912, 42.2285705], [142.9507089, 42.2284324], [142.9504269, 42.2283103], [142.9496168, 42.2279628], [142.9482846, 42.227395], [142.9479954, 42.2272787], [142.9477707, 42.2272121], [142.9475833, 42.2271714], [142.947422, 42.2271486], [142.9472356, 42.2271354], [142.9469593, 42.2271386], [142.9466297, 42.2271888], [142.9463567, 42.2272588], [142.9447914, 42.2278188], [142.9441006, 42.2280752], [142.9437162, 42.2281763], [142.9432609, 42.2282265], [142.9417778, 42.2282202], [142.9409428, 42.2281771], [142.9405546, 42.2281272], [142.9402467, 42.2280718], [142.9376381, 42.2273853], [142.9371587, 42.2272918], [142.9369853, 42.2272718], [142.9367315, 42.2272563], [142.9364928, 42.2272701], [142.9361762, 42.2273263], [142.9343823, 42.2277151], [142.9336025, 42.2278358], [142.9331251, 42.2278571], [142.9311945, 42.227875], [142.9306337, 42.2279113], [142.9302944, 42.2279853], [142.9301729, 42.2280111]], [[142.8873338, 42.2012383], [142.8876679, 42.2038019], [142.8877133, 42.2039442], [142.8877811, 42.2040814], [142.8884932, 42.2052905], [142.8890264, 42.2058306], [142.8896654, 42.2063514], [142.8906135, 42.2071431], [142.8907931, 42.2072715], [142.8911179, 42.2074315], [142.8926315, 42.2081435], [142.8951615, 42.2094056], [142.8953736, 42.2095713], [142.8957227, 42.2098672], [142.8959602, 42.2102067], [142.8960939, 42.2105189], [142.8960379, 42.2125814], [142.8959981, 42.2128003], [142.8959233, 42.2129478], [142.8957263, 42.213242], [142.8955227, 42.2134291], [142.8951641, 42.213848], [142.8950306, 42.2141419], [142.8949503, 42.2143834], [142.8945441, 42.2160999], [142.8940485, 42.2184304], [142.8940534, 42.2184847], [142.8940766, 42.2187421], [142.8941716, 42.2189977], [142.8944751, 42.2193809], [142.8949906, 42.2198816], [142.8955977, 42.2204532], [142.8968251, 42.2216442], [142.8990286, 42.2237341], [142.8993794, 42.2240277], [142.9026346, 42.2262168], [142.9032905, 42.2266545], [142.9036516, 42.2268517], [142.9040048, 42.2269998], [142.9042168, 42.2270716], [142.9045888, 42.2271829], [142.9048482, 42.2272467], [142.9049903, 42.2272859], [142.9051258, 42.2273229], [142.9052845, 42.227383], [142.9054729, 42.227462], [142.9056368, 42.2275373], [142.9056963, 42.2275726], [142.9058074, 42.2276273], [142.9061776, 42.2279334], [142.9064455, 42.2282464], [142.9091827, 42.2316992], [142.9094205, 42.231857], [142.9096904, 42.2319686], [142.9099874, 42.2320165], [142.9102344, 42.2320215], [142.9105447, 42.2319328], [142.9108114, 42.2317998], [142.9125039, 42.2307328], [142.9128025, 42.2305941], [142.9130741, 42.2305089], [142.9134462, 42.2304665], [142.913862, 42.230465], [142.9142086, 42.2305051], [142.9148409, 42.230601], [142.9170654, 42.230922], [142.9184981, 42.2311361], [142.9192878, 42.2311987], [142.9198116, 42.2311982], [142.9204265, 42.2311702], [142.9212989, 42.2310556], [142.9271682, 42.2296101], [142.9273719, 42.2295364], [142.9279753, 42.2291949], [142.9297281, 42.2281701], [142.9300579, 42.2280522], [142.9301729, 42.2280111]], [[142.8873338, 42.2012383], [142.8873308, 42.2011713], [142.8873291, 42.2011335], [142.8872915, 42.200994], [142.8872661, 42.2009203], [142.8871172, 42.2005817], [142.8857243, 42.1993399], [142.8848763, 42.1984888], [142.8839827, 42.1976039], [142.8834082, 42.197043], [142.8823941, 42.196217], [142.8802403, 42.1944245], [142.8796252, 42.1939187], [142.8791156, 42.193482], [142.8790415, 42.1934117], [142.878318, 42.1925399], [142.8780108, 42.1921428], [142.8762325, 42.1904848], [142.8758703, 42.1899541], [142.8757566, 42.1898448], [142.8755692, 42.1897286], [142.8753569, 42.1896714], [142.8751016, 42.1896683], [142.8720202, 42.1901318], [142.8715714, 42.1902129], [142.8703786, 42.1904969], [142.867805, 42.1910976], [142.8673594, 42.1912016], [142.8662554, 42.1913926], [142.8655124, 42.191501], [142.8654237, 42.1915133], [142.8614026, 42.1921156], [142.8612388, 42.1921274], [142.8610336, 42.192113], [142.8608485, 42.1920597], [142.8607018, 42.1919932], [142.8605889, 42.1919163], [142.8604677, 42.1917781], [142.8595687, 42.1902164], [142.8590586, 42.1893496], [142.858405, 42.1883932], [142.8579367, 42.1877296], [142.8577653, 42.1875401], [142.8576046, 42.1873868], [142.85739, 42.1872217], [142.8564297, 42.1866971], [142.8561639, 42.1865456], [142.8559717, 42.1864058], [142.8558156, 42.1862605], [142.8548946, 42.1851342], [142.8547769, 42.1849786], [142.8546816, 42.1847874], [142.8545976, 42.1846009], [142.8543232, 42.1837162], [142.8542587, 42.1835599], [142.8541648, 42.1834226], [142.8540828, 42.1833176], [142.8539721, 42.1832094], [142.8537837, 42.1830721], [142.8532619, 42.1827657], [142.8531489, 42.1827026], [142.8530965, 42.1826722], [142.8528844, 42.1825503], [142.8513555, 42.1817042], [142.8511539, 42.1815521], [142.8509219, 42.1813194], [142.8507977, 42.181167], [142.8506808, 42.1809768], [142.850384, 42.1804583], [142.8499438, 42.1796392], [142.8498798, 42.1794678], [142.8498138, 42.1793125], [142.8497699, 42.1790221], [142.8496296, 42.1764173], [142.8495877, 42.1757119], [142.8495477, 42.1752351], [142.8495225, 42.1749647], [142.8494579, 42.174814], [142.8494178, 42.1746605], [142.849373, 42.1744642], [142.8492477, 42.174196], [142.8490442, 42.1738659], [142.8482609, 42.1727132], [142.8463367, 42.1699331], [142.8460006, 42.1694287], [142.844814, 42.1674803], [142.8433243, 42.1654639], [142.8415418, 42.1630677], [142.8412188, 42.1625926], [142.8410803, 42.1623971], [142.840142, 42.1602138], [142.8379968, 42.1553362], [142.8372964, 42.1537618], [142.8371498, 42.1534235], [142.8365273, 42.1520398], [142.8363665, 42.1516705], [142.8361941, 42.1513046], [142.8360208, 42.1509179], [142.8355792, 42.1499171], [142.8341358, 42.1467563], [142.8340036, 42.146489], [142.8334746, 42.145367], [142.8327785, 42.1438743], [142.8327708, 42.1438574], [142.8327435, 42.1437972], [142.8327177, 42.1437402], [142.8324637, 42.1432149], [142.8322366, 42.1427519], [142.8322078, 42.1426933], [142.8322051, 42.1425557], [142.8320514, 42.1425472], [142.8319985, 42.1425443], [142.8305507, 42.1424501], [142.830056, 42.1424287], [142.8291921, 42.1423808], [142.8289303, 42.1423688], [142.8286192, 42.1423276], [142.828307, 42.142262], [142.8280188, 42.1421807], [142.8276756, 42.1420467], [142.8265285, 42.1415729], [142.826373, 42.1415034], [142.8260643, 42.141374], [142.8258446, 42.1412962], [142.8256098, 42.1412323], [142.8253656, 42.141186], [142.825076, 42.14116], [142.8247702, 42.1411672], [142.8245213, 42.1411841], [142.8240644, 42.1412484], [142.8229029, 42.1414117], [142.8216252, 42.1415876], [142.821302, 42.1416313], [142.8194368, 42.1418401], [142.819363, 42.1418483], [142.8192896, 42.1418568], [142.8173815, 42.1420772], [142.8170365, 42.1421164], [142.8166136, 42.1421644], [142.816242, 42.1422126], [142.8160122, 42.1422481], [142.8157834, 42.1422987], [142.8154818, 42.1423892], [142.8152522, 42.1424688], [142.8150246, 42.1425668], [142.8146765, 42.1427501], [142.8143778, 42.142908], [142.8141575, 42.1430301], [142.8136039, 42.1433334], [142.8131576, 42.1435925], [142.8128769, 42.1437659], [142.8125835, 42.1439464], [142.8120127, 42.1442993], [142.8116849, 42.1445027], [142.8111111, 42.1448529], [142.8103617, 42.1453185], [142.8100002, 42.1455467], [142.8098425, 42.1456556], [142.8096713, 42.145802], [142.8095547, 42.145921], [142.8094239, 42.1460709], [142.8089086, 42.1467163], [142.808775, 42.1468686], [142.8086498, 42.1469845], [142.8084805, 42.1471151], [142.8081261, 42.1473382], [142.8057547, 42.1487768], [142.80526, 42.149079], [142.8047518, 42.1493868], [142.8038858, 42.1499088], [142.8035987, 42.1500823], [142.8032107, 42.1503165], [142.8029647, 42.150462], [142.8027351, 42.1505994], [142.8024452, 42.1507795], [142.8022949, 42.1508635], [142.8021465, 42.1509435], [142.8020093, 42.1510122], [142.801836, 42.1510892], [142.8016869, 42.1511513], [142.8014715, 42.1512326], [142.8012366, 42.1513107], [142.8007417, 42.1514735], [142.800234, 42.1516413], [142.7991357, 42.1519883], [142.7987427, 42.152128], [142.7984875, 42.1522264], [142.7978891, 42.1524597], [142.7972812, 42.152695], [142.7969954, 42.1528028], [142.7967056, 42.1529032], [142.7963258, 42.1530289], [142.7959473, 42.1531512], [142.795389, 42.1533327], [142.7945929, 42.1535916], [142.7940494, 42.1537655], [142.7934392, 42.1539767], [142.7929274, 42.1541492], [142.7926148, 42.1542631], [142.7924479, 42.1543324], [142.7922608, 42.1544182], [142.7920871, 42.1545189], [142.7919808, 42.1545971], [142.7918832, 42.1546789], [142.7917689, 42.1547983], [142.791691, 42.1548958], [142.7916072, 42.155038], [142.7915408, 42.1551823], [142.7914824, 42.1553578], [142.791392, 42.155707], [142.7912709, 42.1561884], [142.7911839, 42.1563996], [142.7911081, 42.1565171], [142.7910481, 42.1566067], [142.7909791, 42.1566912], [142.7909052, 42.156764], [142.7908335, 42.1568378], [142.790691, 42.1569513], [142.7905797, 42.157025], [142.7904365, 42.1571085], [142.7903449, 42.157158], [142.7902005, 42.1572254], [142.7900432, 42.1572928], [142.7892625, 42.1575912], [142.7887313, 42.157792], [142.7884177, 42.1579105], [142.7878012, 42.1581322], [142.787758, 42.1581477], [142.7876003, 42.1582044], [142.7874584, 42.1582587], [142.7874178, 42.1582742], [142.7870607, 42.1584109], [142.7868461, 42.1584832], [142.7866957, 42.1585214], [142.7864943, 42.1585627], [142.7863351, 42.1585816], [142.7860694, 42.1585905], [142.7858285, 42.1585748], [142.7855787, 42.15853], [142.7852937, 42.1584641], [142.7849193, 42.1583682], [142.7845701, 42.158283], [142.7843895, 42.1582537], [142.7841769, 42.1582389], [142.7839653, 42.15824], [142.7837702, 42.1582624], [142.7835433, 42.1583107], [142.7833046, 42.1583774], [142.7830593, 42.1584533], [142.7827264, 42.1585677], [142.7824653, 42.1586753], [142.782227, 42.1588068], [142.7820964, 42.1588964], [142.7819773, 42.1589911], [142.7818696, 42.1590877], [142.7817753, 42.1591914], [142.7815659, 42.159455], [142.7813358, 42.1597754], [142.7813148, 42.1598046], [142.7812503, 42.1598806], [142.7811866, 42.1599529], [142.7811607, 42.1599779], [142.7810428, 42.160089], [142.7808356, 42.1602386], [142.7806121, 42.1603592], [142.7803811, 42.1604455], [142.7801256, 42.1605247], [142.7797747, 42.1606223], [142.779727, 42.1606361], [142.7796042, 42.1606717], [142.7794866, 42.1607031], [142.7794379, 42.1607162], [142.7792448, 42.1607615], [142.7790296, 42.1607913], [142.7789804, 42.1607962], [142.7788305, 42.1608052], [142.7786891, 42.160811], [142.778632, 42.1608089], [142.7784686, 42.1607958], [142.778263, 42.1607697], [142.7777036, 42.1606944], [142.7775249, 42.1606756], [142.7773287, 42.1606646], [142.7771778, 42.1606622], [142.777027, 42.1606737], [142.7768141, 42.1607092], [142.7765892, 42.1607595], [142.7764724, 42.1608015], [142.7763556, 42.1608495], [142.7762794, 42.1608857], [142.7762384, 42.1609052], [142.7761436, 42.1609582], [142.776028, 42.1610231], [142.7759901, 42.1610547], [142.7758201, 42.1611968], [142.7757033, 42.1613168], [142.7754114, 42.1616391], [142.7753703, 42.1616845], [142.7753208, 42.1617393], [142.7752635, 42.1618115], [142.7750683, 42.1620575], [142.7748553, 42.1623505], [142.7747966, 42.1624313]]]}, "id": "relation/6626645"}]}