{"type": "FeatureCollection", "generator": "kokudo-quiz tools/fetch_raw.py (Overpass API)", "copyright": "The data included in this document is from www.openstreetmap.org. The data is made available under ODbL.", "timestamp": "2026-09-30T16:05:43Z", "features": [{"type": "Feature", "properties": {"@id": "relation/8421608", "colour": "red", "name": "国道259号", "name:en": "National Highway Route 259", "name:ja": "国道259号", "name:ja-Hira": "こくどう259ごう", "name:ja-Latn": "Kokudo 259 Gou", "network": "JP:national", "ref": "259", "route": "road", "type": "route", "wikidata": "Q11421431", "wikipedia": "ja:国道259号"}, "geometry": {"type": "MultiLineString", "coordinates": [[[137.3618133, 34.71389], [137.3625865, 34.7144571], [137.3631965, 34.7149036], [137.3640688, 34.7155486], [137.3654896, 34.7165991], [137.3664424, 34.7172983], [137.3673042, 34.7179148], [137.3673042, 34.7179142], [137.3677891, 34.7182525], [137.3687409, 34.7189502], [137.3689647, 34.7191081], [137.3696639, 34.7196183], [137.3706469, 34.7202716], [137.3714633, 34.720828], [137.371585, 34.720909], [137.3730256, 34.7218403], [137.3733932, 34.7221139], [137.3735588, 34.7222131], [137.3736002, 34.7222421], [137.3743975, 34.7227999], [137.3747249, 34.7230199], [137.374796, 34.7230689], [137.3749738, 34.7231876], [137.3756483, 34.7236379], [137.3765092, 34.7242315], [137.3776635, 34.7249828], [137.3787013, 34.7256583], [137.3796437, 34.7262171], [137.3807026, 34.7269069], [137.3808271, 34.7269849], [137.3810851, 34.7271537], [137.3816226, 34.7275184], [137.3818735, 34.7277996], [137.3820333, 34.7279994], [137.3829324, 34.7292787], [137.3834887, 34.730212], [137.38463, 34.732518], [137.3846659, 34.7325942], [137.3847626, 34.7328844], [137.3848039, 34.7330864], [137.3848241, 34.7332277], [137.3848807, 34.7333494], [137.3848677, 34.733485], [137.3849417, 34.7340248], [137.3850461, 34.7347709], [137.3852196, 34.7360114], [137.3852346, 34.7361186], [137.385247, 34.7362319], [137.38525, 34.7362589], [137.385318, 34.7368778], [137.3853344, 34.7371535], [137.3853701, 34.7380955], [137.3853734, 34.7382041], [137.3853849, 34.7384462], [137.3854294, 34.7393852], [137.3854351, 34.7395593], [137.3854386, 34.739614], [137.3854398, 34.739633], [137.3854529, 34.7398855], [137.3855162, 34.7411337], [137.3855293, 34.7414327], [137.3855528, 34.7419565], [137.3855667, 34.742191], [137.3855887, 34.7425607], [137.385595, 34.7426478], [137.3855981, 34.7427027], [137.3856441, 34.7435087], [137.3856641, 34.7439375], [137.3856699, 34.7440333], [137.385617, 34.7441416], [137.3856208, 34.7442425], [137.3856372, 34.7443389], [137.3856621, 34.7444163], [137.3857322, 34.7446053], [137.3857624, 34.7446589], [137.3857995, 34.7447226], [137.3858625, 34.7448195], [137.3860277, 34.7449839], [137.3863371, 34.7452919], [137.3864988, 34.7454485], [137.3869678, 34.7459089], [137.387143, 34.7460752], [137.3872996, 34.7462239], [137.3878477, 34.7467693], [137.3882123, 34.7471646], [137.3884827, 34.7475854], [137.3885476, 34.7477219], [137.3885641, 34.7477565], [137.3886854, 34.7481399], [137.3887731, 34.7484552], [137.3888919, 34.748893], [137.389054, 34.7494906], [137.3892012, 34.7500332], [137.3892415, 34.7501848], [137.3892623, 34.750263], [137.3895327, 34.7512768], [137.3897766, 34.7521659], [137.3898052, 34.7523782], [137.3898082, 34.7526738], [137.3897754, 34.7529955], [137.3897367, 34.7532685], [137.3897182, 34.7533915], [137.3896706, 34.7537085], [137.3895837, 34.7541609], [137.3895539, 34.7545472], [137.3895512, 34.7545851], [137.3895399, 34.7547894], [137.3895331, 34.7549393], [137.3895268, 34.7551033], [137.3895251, 34.7552004], [137.3895237, 34.7552826], [137.3895192, 34.7555442], [137.3895178, 34.7557291], [137.389515, 34.7558319], [137.3895214, 34.7559874], [137.3895362, 34.7563453], [137.3895508, 34.7566173], [137.3896238, 34.7575413], [137.3896441, 34.7577978], [137.3896563, 34.7579768], [137.3896775, 34.7582893], [137.3897059, 34.7586992], [137.3897364, 34.7592676], [137.3897478, 34.7593627], [137.3897565, 34.7594698], [137.3897954, 34.7599479], [137.3898426, 34.7606708], [137.3898487, 34.7607656], [137.3898549, 34.7608562], [137.3899087, 34.7616412], [137.3899125, 34.7617163], [137.3899264, 34.761891], [137.3899318, 34.7619517], [137.3899646, 34.7622933], [137.3899823, 34.762584], [137.3899844, 34.7626237], [137.389994, 34.7628035], [137.3900022, 34.7629235], [137.3900029, 34.7629344], [137.3900057, 34.762973], [137.3900146, 34.7630753], [137.3900164, 34.7631027], [137.3900401, 34.7634571], [137.390063, 34.7637973], [137.3900688, 34.7638836], [137.3900764, 34.7639653], [137.3901087, 34.7643151], [137.3901307, 34.7646867], [137.3901383, 34.7647976], [137.3901891, 34.7655478], [137.3901936, 34.765642], [137.3902017, 34.7657542], [137.3902382, 34.7662588], [137.3902515, 34.7664422], [137.3902543, 34.766575], [137.3902601, 34.7668536], [137.3902867, 34.7672368], [137.3903255, 34.7677489]], [[137.3856699, 34.7440333], [137.3857082, 34.7441339], [137.3857273, 34.7442326], [137.3857755, 34.7444023], [137.3858795, 34.7446144], [137.3859192, 34.7446906], [137.3859847, 34.7447985], [137.3865023, 34.7453064], [137.3870032, 34.7458122], [137.3872231, 34.7460191], [137.3874373, 34.7462207], [137.3879303, 34.7467174], [137.38825, 34.7470402], [137.3883972, 34.7472359], [137.3884449, 34.7473123], [137.3885093, 34.7474022], [137.3886111, 34.7475911], [137.3886525, 34.7476906], [137.3887865, 34.7481138], [137.3888988, 34.7485442], [137.3889513, 34.7487454], [137.3890366, 34.7490643], [137.389141, 34.7494545], [137.3893155, 34.750107], [137.3893308, 34.7501642], [137.3893504, 34.7502374], [137.3896245, 34.7512629], [137.3898593, 34.7521298], [137.3898914, 34.7523635], [137.3898953, 34.7525016], [137.3898923, 34.7526949], [137.3898608, 34.7529977], [137.3898258, 34.7532769], [137.3897979, 34.7535], [137.3897807, 34.7536364], [137.3897707, 34.7537192], [137.389699, 34.7542658], [137.3896841, 34.754578], [137.3896829, 34.7546029], [137.3896691, 34.7548096], [137.3896658, 34.7549426], [137.3896659, 34.7550952], [137.3896641, 34.7552026], [137.3896556, 34.7557292], [137.389657, 34.7558242], [137.3896592, 34.7558834], [137.3896659, 34.755983], [137.3897005, 34.7564989], [137.3897046, 34.7565516], [137.3897578, 34.7573707], [137.3897701, 34.7575369], [137.3897882, 34.7577789], [137.3898017, 34.757968], [137.3898534, 34.7586906], [137.3898939, 34.7592591], [137.3899065, 34.7593538], [137.3899147, 34.7594635], [137.389978, 34.7603075], [137.3900054, 34.7606625], [137.3900128, 34.7607582], [137.3900191, 34.760847], [137.3900283, 34.7609776], [137.3900709, 34.7616308], [137.3900739, 34.7617027], [137.3900868, 34.7618842], [137.3900914, 34.7619451], [137.3901386, 34.7625773], [137.3901418, 34.7626153], [137.390162, 34.7628479], [137.3901806, 34.7630665], [137.3901829, 34.7630949], [137.3902298, 34.7636651], [137.3902395, 34.7637858], [137.3902459, 34.7638649], [137.39025, 34.7639591], [137.3902654, 34.7643003], [137.3902819, 34.7646512], [137.3902921, 34.764789], [137.3903428, 34.7654725], [137.3903528, 34.7655824], [137.3903607, 34.7656948], [137.3903994, 34.7662422], [137.3904095, 34.766386], [137.3904256, 34.7665661], [137.3904803, 34.7671759], [137.3905015, 34.7676081], [137.3905036, 34.7676463], [137.3905059, 34.7676906], [137.3905125, 34.76786]], [[137.0227915, 34.5823663], [137.0225458, 34.5823826], [137.022274, 34.5824261], [137.0212806, 34.5826348], [137.0199212, 34.5829996], [137.0197729, 34.5830364], [137.0196608, 34.5830888], [137.0196008, 34.5831301], [137.0195458, 34.583186], [137.0195021, 34.5832605], [137.0194789, 34.5833285], [137.0194719, 34.5833908], [137.0194874, 34.5834736], [137.0195158, 34.5835394], [137.0196908, 34.5839104], [137.0198108, 34.584123], [137.0198047, 34.5839676], [137.0197744, 34.5838807], [137.0195938, 34.5835164], [137.0195649, 34.5834336], [137.0195626, 34.5833503], [137.0195816, 34.5832892], [137.0196231, 34.5832164], [137.0196719, 34.5831752], [137.0197266, 34.5831408], [137.0198251, 34.583097], [137.019944, 34.5830662], [137.0212268, 34.5827231], [137.021373, 34.5826841], [137.0225697, 34.5824393], [137.0227915, 34.5823663], [137.0228191, 34.5824048], [137.0228975, 34.5825143], [137.0231395, 34.5826903], [137.0237216, 34.5830749], [137.0245327, 34.5836703], [137.0249387, 34.5839848], [137.0251352, 34.5841348], [137.0253365, 34.5843239], [137.0255173, 34.5845583], [137.0256289, 34.5847058], [137.0257785, 34.5849473], [137.0260537, 34.5854177], [137.0263141, 34.5858621], [137.0265073, 34.586183], [137.0266419, 34.5863846], [137.0267429, 34.5865359], [137.0268814, 34.5867017], [137.0269946, 34.5868286], [137.0271518, 34.5869739], [137.0275348, 34.5873651], [137.0277135, 34.5875416], [137.0279799, 34.5878047], [137.028075, 34.5878986], [137.0282929, 34.5881143], [137.0284387, 34.588235], [137.0285618, 34.5883346], [137.0287107, 34.5884492], [137.0288886, 34.5885536], [137.0290588, 34.5886416], [137.0293002, 34.5887444], [137.029541, 34.5888195], [137.0297789, 34.5888773], [137.030103, 34.5889421], [137.0309378, 34.5890904], [137.0315197, 34.5891938], [137.0324146, 34.5893507], [137.0336371, 34.5895714], [137.0345845, 34.589736], [137.0359067, 34.5899693], [137.0361431, 34.5900095], [137.0363135, 34.5900325], [137.0365889, 34.5900486], [137.0368288, 34.5900618], [137.0369731, 34.5900408], [137.0372856, 34.5900066], [137.0382921, 34.5898656], [137.0401781, 34.5896079], [137.0403257, 34.5895872], [137.0415841, 34.5894191], [137.0417808, 34.589393], [137.0419861, 34.589382], [137.0421379, 34.5893878], [137.0423141, 34.5894098], [137.0424588, 34.5894422], [137.0425846, 34.5894837], [137.0427075, 34.5895396], [137.0428118, 34.5895998], [137.0432893, 34.5898502], [137.0433604, 34.5898941], [137.0436748, 34.5900754], [137.0439928, 34.5902923], [137.0443289, 34.5905543], [137.0448853, 34.5910276], [137.0449406, 34.5910821], [137.0455332, 34.5918893], [137.046098, 34.5927829], [137.0462692, 34.5930433], [137.0464576, 34.5932339], [137.0465511, 34.5933078], [137.0469087, 34.593595], [137.0472347, 34.5938568], [137.0477362, 34.594281], [137.0479049, 34.5944421], [137.0479819, 34.5945123], [137.0480558, 34.5946143], [137.0481047, 34.5947124], [137.0481549, 34.594837], [137.0481825, 34.5949271], [137.0482037, 34.5949963], [137.0482813, 34.5953381], [137.0484366, 34.5959597], [137.0485151, 34.5961799], [137.0488145, 34.5969347], [137.0490371, 34.5973928], [137.0491828, 34.59765], [137.0494542, 34.598014], [137.049834, 34.598488], [137.0501116, 34.5988122], [137.0502722, 34.5989566], [137.0504309, 34.5990662], [137.0511522, 34.5994638], [137.0547903, 34.6013155], [137.0564921, 34.6022302], [137.0592035, 34.6037012], [137.0592737, 34.6037278], [137.0595803, 34.6038426], [137.0598522, 34.6039192], [137.0602455, 34.6039876], [137.0605504, 34.6040391], [137.0608592, 34.6040822], [137.0612901, 34.6041518], [137.0616746, 34.604261], [137.0620238, 34.6043895], [137.0637779, 34.6050622], [137.0639218, 34.6051122], [137.0648519, 34.6054311], [137.0652896, 34.6055995], [137.0657492, 34.6058072], [137.0659583, 34.6059208], [137.0669752, 34.6065053], [137.0674865, 34.6068126], [137.0689158, 34.6076582], [137.070028, 34.6082957], [137.0707504, 34.6087097], [137.0708783, 34.6087832], [137.07101, 34.6088737], [137.0713212, 34.6090868], [137.071924, 34.6095995], [137.0723872, 34.6101147], [137.0726637, 34.6105101], [137.0727469, 34.6106169], [137.0730194, 34.6110846], [137.073486, 34.6120778], [137.0737854, 34.6127418], [137.0739504, 34.6130296], [137.0740885, 34.6132488], [137.0742729, 34.6134739], [137.0745005, 34.6136756], [137.0745414, 34.613713], [137.0746245, 34.6137727], [137.0746665, 34.6138029], [137.0753447, 34.614246], [137.0768712, 34.6151378], [137.0775596, 34.6155389], [137.0777705, 34.6156638], [137.0787458, 34.616221], [137.079694, 34.6167547], [137.0801074, 34.616986], [137.0803876, 34.6171451], [137.0806685, 34.6173026], [137.0813891, 34.6177204], [137.0816372, 34.6178577], [137.082571, 34.6183879], [137.0835467, 34.6189595], [137.0841322, 34.6192874], [137.0842517, 34.6193387], [137.0844987, 34.6194148], [137.084809, 34.6194915], [137.0851691, 34.6195679], [137.0865238, 34.6197636], [137.087045, 34.6198447], [137.0882169, 34.6200154], [137.0893945, 34.6201998], [137.0897949, 34.6202774], [137.0900957, 34.6203939], [137.0906422, 34.6206533], [137.0907114, 34.6206868], [137.0913676, 34.621028], [137.0916582, 34.6212026], [137.0921553, 34.6215208], [137.0930388, 34.6220604], [137.0930756, 34.6220904], [137.093113, 34.6221123], [137.0933451, 34.6222317], [137.0935525, 34.6223136], [137.0944033, 34.6225266], [137.0945371, 34.6225597], [137.09537, 34.6227974], [137.0956013, 34.6228974], [137.0958578, 34.6230512], [137.0962525, 34.6233082], [137.0963526, 34.6233623], [137.0967776, 34.6235982], [137.0974845, 34.6239236], [137.0976812, 34.624013], [137.0977231, 34.6240295], [137.098521, 34.6243997], [137.0988419, 34.6245563], [137.0989212, 34.624595], [137.0989953, 34.6246311], [137.1006081, 34.6254231], [137.101189, 34.6256399], [137.1015581, 34.6257574], [137.1016046, 34.6257695], [137.1017117, 34.6258022], [137.1019032, 34.6258631], [137.1026311, 34.6261239], [137.1029836, 34.6262085], [137.1031301, 34.626224], [137.1032296, 34.6262564], [137.1037484, 34.6263158], [137.1044255, 34.6264116], [137.1048883, 34.6264727], [137.1050177, 34.6264919], [137.1051399, 34.6265048], [137.1053003, 34.6265353], [137.1060037, 34.6266397], [137.1062935, 34.6266743], [137.1069234, 34.6267782], [137.1073155, 34.6268938], [137.1077828, 34.627025], [137.1078942, 34.6270585], [137.1079851, 34.6270877], [137.1089949, 34.6274519], [137.1100314, 34.6277867], [137.1101317, 34.6278191], [137.110219, 34.6278489], [137.1113894, 34.6282481], [137.1124633, 34.6286144], [137.1135393, 34.628987], [137.1145564, 34.6293448], [137.1146269, 34.6293696], [137.1146794, 34.62939], [137.115728, 34.6297967], [137.1167832, 34.6302316], [137.1179158, 34.6307468], [137.1188567, 34.6311962], [137.119932, 34.6317179], [137.1204028, 34.6319463], [137.121656, 34.6325626], [137.1217223, 34.6325953], [137.1217714, 34.6326191], [137.1228378, 34.6331357], [137.1244711, 34.6339289], [137.1248727, 34.6341262], [137.1258658, 34.6346142], [137.1268508, 34.6350981], [137.1274313, 34.6353833], [137.1277632, 34.6355464], [137.127832, 34.6356182], [137.1278783, 34.6357079], [137.1278834, 34.6357776], [137.1277957, 34.6361897], [137.1277961, 34.6362482], [137.1278488, 34.6363223], [137.1279488, 34.6363652], [137.1284539, 34.63658], [137.1289173, 34.6367586], [137.1298878, 34.6371326], [137.1299759, 34.6371648], [137.1306085, 34.6374034], [137.1319226, 34.6379949], [137.1322808, 34.6381537], [137.1333252, 34.6386166], [137.1354183, 34.6395668], [137.1367958, 34.6402035], [137.1369378, 34.6402691], [137.1372042, 34.6403922], [137.1378103, 34.6407559], [137.1388619, 34.641334], [137.1389992, 34.6414095], [137.1391125, 34.6414785], [137.14075, 34.6424755], [137.1417138, 34.6430314], [137.1428499, 34.6436867], [137.1428728, 34.6437047], [137.142942, 34.6437458], [137.1429779, 34.6437637], [137.1434252, 34.64403], [137.1434761, 34.6440604], [137.1436592, 34.6441699], [137.1442295, 34.6445108], [137.144732, 34.6448019], [137.1449767, 34.6449148], [137.1450123, 34.6449312], [137.1457766, 34.6452838], [137.1468803, 34.6457829], [137.1469379, 34.6458089], [137.1479921, 34.6463127], [137.1487124, 34.6466348], [137.1487932, 34.646671], [137.1492945, 34.6469073], [137.1496407, 34.6471049], [137.1499434, 34.6473323], [137.1501918, 34.6475702], [137.1514625, 34.648928], [137.1515015, 34.6489705], [137.1516567, 34.6491319], [137.1517081, 34.649195], [137.1521891, 34.6497023], [137.1524591, 34.6499697], [137.1527217, 34.6501631], [137.1537138, 34.6507301], [137.1538419, 34.6507989], [137.154024, 34.6509021], [137.1544953, 34.6511699], [137.1545805, 34.6512133], [137.154945, 34.6513984], [137.1553258, 34.6515417], [137.1555464, 34.6516247], [137.1560381, 34.6518057], [137.1566148, 34.6520181], [137.1568289, 34.6520969], [137.1573275, 34.6522814], [137.1575208, 34.6523529], [137.1583394, 34.652661], [137.1595325, 34.6530862], [137.1596504, 34.6531249], [137.1603495, 34.6534588], [137.1611146, 34.6538241], [137.1611326, 34.6538307], [137.1612991, 34.6539118], [137.1613208, 34.6539203], [137.1615063, 34.6539929], [137.1631955, 34.6547551], [137.1636546, 34.6549021], [137.1643088, 34.6550253], [137.1701142, 34.6561009], [137.1706298, 34.6562281], [137.1710993, 34.6564001], [137.1715452, 34.6565972], [137.1719019, 34.6568173], [137.1723353, 34.6571451], [137.1731597, 34.6579005], [137.1733664, 34.6581067], [137.1736534, 34.6583004], [137.1740366, 34.6585205], [137.1744811, 34.6586993], [137.174814, 34.658784], [137.1764924, 34.65908], [137.1768318, 34.6591497], [137.177254, 34.6592712], [137.1775809, 34.6594226], [137.1779117, 34.6596059], [137.1782238, 34.6598431], [137.1783144, 34.6599165], [137.1784579, 34.6600609], [137.1792138, 34.6609395], [137.1802003, 34.6621315], [137.1808705, 34.6628719], [137.1820133, 34.6638986], [137.183246, 34.6649883], [137.1833269, 34.6650599], [137.1848484, 34.6664049], [137.1853096, 34.6667418], [137.1857778, 34.6669905], [137.1862752, 34.6671681], [137.1865358, 34.6672231], [137.1870541, 34.6672816], [137.1874666, 34.6672804], [137.18755, 34.6672686], [137.1880992, 34.667191], [137.1882651, 34.6671432], [137.1886923, 34.66702], [137.1894929, 34.6667731], [137.1907624, 34.6663477], [137.1925649, 34.6657905], [137.1935055, 34.6654868], [137.1937077, 34.6654101], [137.1940085, 34.6652496], [137.1942746, 34.6650536], [137.1945617, 34.6648141], [137.1948822, 34.6644313], [137.1951658, 34.6639004], [137.1954823, 34.6632824], [137.1958924, 34.6624334], [137.1960614, 34.6620977], [137.1963909, 34.6614435], [137.1965741, 34.6610798], [137.1967922, 34.6607298], [137.1968771, 34.6605959], [137.1970727, 34.660326], [137.1973709, 34.6599765], [137.1974529, 34.6598734], [137.1979177, 34.6592914], [137.1982641, 34.6588762], [137.198791, 34.6582151], [137.199056, 34.6579205], [137.1995298, 34.6575187], [137.1999915, 34.6572484], [137.2005954, 34.6569951], [137.2023065, 34.6564192], [137.2031507, 34.6561383], [137.204242, 34.6557856], [137.2045645, 34.6556794], [137.205005, 34.6555349], [137.205039, 34.65552], [137.2052555, 34.6554557], [137.2054984, 34.6553722], [137.2063252, 34.6550938], [137.2065655, 34.6550032], [137.2069482, 34.6548075], [137.2078075, 34.6543326], [137.2080151, 34.6542394], [137.2083238, 34.6541453], [137.2086214, 34.654086], [137.2090214, 34.6540413], [137.2099079, 34.6539693], [137.2104475, 34.6539178], [137.2107258, 34.6538965], [137.2120057, 34.6537886], [137.2128655, 34.653718], [137.2135649, 34.6536588], [137.2138348, 34.6536159], [137.2140643, 34.6535657], [137.2144003, 34.653482], [137.214842, 34.6533183], [137.2152142, 34.6531615], [137.2162598, 34.6526344], [137.2171489, 34.6521978], [137.217997, 34.6517654], [137.219083, 34.6512178], [137.220197, 34.6506744], [137.2205683, 34.6504993], [137.2214324, 34.6500726], [137.2216455, 34.6499877], [137.2219419, 34.6499084], [137.2222532, 34.6498571], [137.2223712, 34.6498481], [137.2225928, 34.6498312], [137.2230041, 34.64984], [137.2230947, 34.649845], [137.2233915, 34.6498614], [137.224121, 34.6499511], [137.2248095, 34.6500783], [137.2260707, 34.6503114], [137.2262212, 34.6503392], [137.2263715, 34.6503674], [137.226994, 34.6504843], [137.228228, 34.6507023], [137.2292764, 34.6508966], [137.2301306, 34.6510518], [137.230333, 34.6510886], [137.2305568, 34.6511301], [137.2311674, 34.6512434], [137.2323636, 34.6514598], [137.2335011, 34.6516633], [137.2348348, 34.6519018], [137.2362963, 34.6521696], [137.2376205, 34.652411], [137.2377803, 34.6524455], [137.2394685, 34.6527561], [137.2406703, 34.6529743], [137.2408464, 34.6530055], [137.2417088, 34.6531581], [137.2420872, 34.6532567], [137.2430054, 34.653496], [137.2432153, 34.6535507], [137.2434359, 34.653628], [137.2439049, 34.6537923], [137.2448788, 34.6541961], [137.2449559, 34.6542203], [137.2460414, 34.6546706], [137.248133, 34.6555273], [137.2497605, 34.6561867], [137.2504178, 34.6564479], [137.2510544, 34.6566668], [137.2512131, 34.6567235], [137.2523643, 34.657073], [137.2537392, 34.6574094], [137.2545101, 34.6576024], [137.258532, 34.6585732], [137.2586851, 34.6586124], [137.2603267, 34.6590134], [137.2623891, 34.659504], [137.2648187, 34.6600949], [137.2649462, 34.6601259], [137.2651146, 34.6601685], [137.2668158, 34.6605994], [137.2674592, 34.6607661], [137.2683855, 34.6610062], [137.2684559, 34.6610246], [137.2689581, 34.6611445], [137.2690188, 34.6611579], [137.2698112, 34.6613334], [137.2703409, 34.6614456], [137.2704806, 34.6614714], [137.2706082, 34.6615018], [137.2711568, 34.661613], [137.2717459, 34.6617355], [137.2721969, 34.6618392], [137.2723825, 34.6618818], [137.2725577, 34.6619203], [137.2731808, 34.6620528], [137.273369, 34.6620966], [137.2744282, 34.6623377], [137.2748331, 34.6624239], [137.2749729, 34.6624518], [137.2751003, 34.6624826], [137.2754489, 34.6625567], [137.2756549, 34.6626024], [137.2765732, 34.662811], [137.2769816, 34.6628975], [137.2771296, 34.6629329], [137.2772814, 34.6629674], [137.2775854, 34.6630378], [137.279642, 34.6634867], [137.2806195, 34.6637323], [137.2807524, 34.6637739], [137.280928, 34.6638201], [137.2817104, 34.6640974], [137.2821235, 34.6642755], [137.2826027, 34.6645203], [137.283229, 34.6648767], [137.2837268, 34.665186], [137.2843816, 34.6656467], [137.2847317, 34.6659253], [137.2852808, 34.6664062], [137.2856675, 34.6668148], [137.2860491, 34.6672551], [137.2862625, 34.667535], [137.2866425, 34.6680472], [137.2868953, 34.6683971], [137.287385, 34.6690288], [137.2876085, 34.6693309], [137.2884464, 34.6704314], [137.2886405, 34.6706305], [137.2888424, 34.6707914], [137.2891793, 34.6710262], [137.2895686, 34.6712306], [137.2899994, 34.6713877], [137.2903336, 34.6714657], [137.2906834, 34.6715256], [137.2915964, 34.6716271], [137.2917369, 34.6716374], [137.2919148, 34.6716658], [137.2920586, 34.6716821], [137.292274, 34.6717104], [137.2954109, 34.6720547], [137.2956282, 34.6720767], [137.2957503, 34.6720879], [137.2959301, 34.6721061], [137.2962091, 34.6721317], [137.2962608, 34.6721366], [137.2966842, 34.6721873], [137.2971201, 34.6722276], [137.297967, 34.67227], [137.2984143, 34.672323], [137.298895, 34.6724188], [137.2993421, 34.6725525], [137.2996147, 34.6726558], [137.3000839, 34.6728673], [137.3007131, 34.6731762], [137.3015581, 34.6735806], [137.3017078, 34.6736543], [137.3018542, 34.6737212], [137.3029633, 34.674269], [137.3034676, 34.6744919], [137.3041102, 34.6747006], [137.3053088, 34.6750372], [137.3065002, 34.6753846], [137.3076775, 34.6757171], [137.3080319, 34.6758737], [137.3083367, 34.6760582], [137.3087474, 34.6763727], [137.3093534, 34.676846], [137.3098885, 34.6772881], [137.3108059, 34.678065], [137.3116626, 34.6787798], [137.3120714, 34.6791622], [137.3124975, 34.6795793], [137.3131931, 34.6802449], [137.3132801, 34.6803291], [137.313366, 34.6804115], [137.313644, 34.6806061], [137.3143437, 34.6810364], [137.3145755, 34.6811544], [137.3151606, 34.6814489], [137.3154202, 34.6815579], [137.3154935, 34.6815887], [137.3166217, 34.682043], [137.3168729, 34.6821598], [137.3172927, 34.6824216], [137.3175864, 34.6826656], [137.3178139, 34.682872], [137.3181354, 34.6832788], [137.3183679, 34.6836381], [137.3184719, 34.6838152], [137.3189562, 34.684562], [137.3190826, 34.6847891], [137.3195149, 34.6854589], [137.3197614, 34.6857836], [137.3200782, 34.6861219], [137.320809, 34.6866569], [137.3217839, 34.6873276], [137.3227529, 34.6879791], [137.323223, 34.6883076], [137.3237251, 34.6886578], [137.3243448, 34.6890556], [137.3247056, 34.6893102], [137.3251746, 34.6896182], [137.3258516, 34.6900678], [137.325894, 34.6900908], [137.3260117, 34.6901719], [137.3266268, 34.6904654], [137.3266991, 34.6905021], [137.3271327, 34.6907504], [137.327166, 34.6907672], [137.3274983, 34.6910111], [137.3275387, 34.6910352], [137.3278383, 34.6912528], [137.3280821, 34.6914246], [137.3284849, 34.6917399], [137.3285667, 34.6918883], [137.3287361, 34.6920319], [137.329204, 34.692397], [137.3302136, 34.6933228], [137.3302927, 34.6933949], [137.3315606, 34.6945506], [137.3329952, 34.6958365], [137.333586, 34.6963905], [137.3347988, 34.6974678], [137.3352488, 34.6977691], [137.3372436, 34.6988753], [137.3386038, 34.699596], [137.3397664, 34.7001465], [137.3409554, 34.7007831], [137.3413646, 34.7009916], [137.3427431, 34.7017076], [137.344265, 34.702498], [137.3456723, 34.7032389], [137.346729, 34.7037881], [137.3483683, 34.7046388], [137.3488616, 34.7048887], [137.3500953, 34.7055472], [137.3511989, 34.7061464], [137.3519711, 34.7066784], [137.3527533, 34.7072453], [137.353265, 34.7076138], [137.3535597, 34.7078579], [137.354793, 34.7087538], [137.3555373, 34.7092987], [137.356774, 34.7101981], [137.3578564, 34.7109863], [137.359251, 34.7120292], [137.3600348, 34.712596], [137.3613601, 34.7135777], [137.3618133, 34.71389], [137.3613858, 34.7135076], [137.3608622, 34.7130616], [137.3601545, 34.7125331], [137.3579613, 34.710941], [137.356883, 34.7101373], [137.3558062, 34.7093167], [137.3543044, 34.7082085], [137.3536336, 34.7077518], [137.3533286, 34.7075299], [137.352881, 34.7071862], [137.351912, 34.7064972], [137.3512866, 34.7060828], [137.3504873, 34.7056044], [137.349079, 34.7048943], [137.3484853, 34.7045807], [137.3468265, 34.7037028], [137.3456941, 34.703102], [137.3443516, 34.7024014], [137.3428625, 34.7016321], [137.3410936, 34.7007022], [137.339866, 34.7000726], [137.3393766, 34.6998346], [137.3386118, 34.6994637], [137.3373965, 34.6987957], [137.3366474, 34.6983834], [137.3358927, 34.6979956], [137.3353431, 34.6977131], [137.3348953, 34.6973929], [137.3336975, 34.6963061], [137.3330901, 34.6957548], [137.3319366, 34.6946808], [137.3316911, 34.6944502], [137.3303398, 34.693263], [137.3297337, 34.6926951], [137.3292762, 34.6923066], [137.3286526, 34.6918383], [137.3284849, 34.6917399]], [[136.8457476, 34.4789194], [136.8457493, 34.4790694], [136.8457546, 34.4795238], [136.8457776, 34.480018], [136.8457856, 34.4801888], [136.8458806, 34.4801826], [136.8460287, 34.4801583], [136.8462432, 34.480123], [136.8466906, 34.4800339], [136.84711, 34.4799517], [136.8472534, 34.4799447], [136.8474197, 34.4799823], [136.8475458, 34.4800287], [136.8476799, 34.4801327], [136.847865, 34.480272], [136.8479401, 34.4804267], [136.8484282, 34.4865023], [136.8486428, 34.487988], [136.8491363, 34.4893499], [136.850059, 34.4907647], [136.8506598, 34.491313], [136.8534922, 34.4935767], [136.8551444, 34.4946025], [136.8811511, 34.5047177], [136.8942832, 34.5105882], [136.9061278, 34.5169533], [136.9323062, 34.5337832], [136.9619178, 34.5535787], [136.9794273, 34.5653831], [137.0072364, 34.5834045], [137.0163344, 34.5891281], [137.0195317, 34.5900113], [137.0202613, 34.589923], [137.0207548, 34.589605], [137.0209801, 34.5888454], [137.0208004, 34.5867852], [137.0204651, 34.5856833], [137.0198108, 34.584123]], [[136.8458806, 34.4801826], [136.8458807, 34.4800176], [136.8458808, 34.4798038], [136.8458591, 34.4790674], [136.845855, 34.4789285]]]}, "id": "relation/8421608"}, {"type": "Feature", "properties": {"@id": "relation/10279677", "description": "植田バイパスの旧道区間", "name": "国道259号旧道", "network": "JP:national", "ref": "259", "route": "road", "type": "route"}, "geometry": {"type": "MultiLineString", "coordinates": [[[137.3284849, 34.6917399], [137.3286214, 34.6916784], [137.3287254, 34.6916386], [137.3288182, 34.6916135], [137.3289159, 34.6916027], [137.3290767, 34.6916338], [137.3292907, 34.6917056], [137.3296095, 34.6917988], [137.3311431, 34.6921202], [137.3314281, 34.6921821], [137.3315268, 34.6922007], [137.3331795, 34.6925112], [137.3338855, 34.6926285], [137.3341511, 34.6926726], [137.3349973, 34.692789], [137.3358917, 34.6930482], [137.33617, 34.6931602], [137.3364933, 34.693367], [137.3367075, 34.6935776], [137.336984, 34.6938496], [137.33775, 34.694609], [137.3382657, 34.6951138], [137.3386699, 34.6955095], [137.3389647, 34.695798], [137.3393126, 34.6961385], [137.3397669, 34.6965262], [137.3405717, 34.6970606], [137.3406579, 34.6971189], [137.3423502, 34.6982272], [137.3434301, 34.6989464], [137.3440171, 34.699456], [137.3444084, 34.6998862], [137.3446885, 34.7002633], [137.3449053, 34.7005875], [137.3452313, 34.7010427], [137.3453548, 34.7011917], [137.3458475, 34.7016014], [137.3466481, 34.7020997], [137.3472873, 34.7025112], [137.3476718, 34.7027506], [137.3483395, 34.7031798], [137.3495714, 34.7039616], [137.3500104, 34.7042496], [137.3506838, 34.7045703], [137.3510255, 34.7047293], [137.3515858, 34.7049939], [137.3518218, 34.7051129], [137.351993, 34.7051969], [137.3534968, 34.7059085], [137.3543761, 34.7062305], [137.3546694, 34.7063192], [137.3564529, 34.7069039], [137.3577348, 34.707334], [137.3589667, 34.7078838], [137.3602375, 34.7084844], [137.3606399, 34.7086918], [137.3609607, 34.7090115], [137.3612417, 34.7093304], [137.3615442, 34.7096511], [137.3616512, 34.7098587], [137.36184, 34.7103459], [137.3619526, 34.7104833], [137.3622829, 34.7107519], [137.3625168, 34.7109368], [137.3627512, 34.7112576], [137.3632678, 34.7119493], [137.3633155, 34.7120568], [137.363361, 34.7121984], [137.3635041, 34.7125764], [137.3635243, 34.712634], [137.3636066, 34.7128693], [137.3637506, 34.7132804], [137.3638087, 34.7134195], [137.3638995, 34.7135404], [137.3642733, 34.7139526], [137.3647223, 34.7144374], [137.3651416, 34.7148939], [137.3651797, 34.7149348], [137.3654884, 34.7152658], [137.3658228, 34.7156419], [137.3658657, 34.7156901], [137.3659834, 34.7158224], [137.3662087, 34.7161519], [137.3662553, 34.7162815], [137.3662473, 34.7163819], [137.3661657, 34.7164512], [137.3660561, 34.7164612], [137.3659118, 34.7164291], [137.3657013, 34.716407], [137.3655509, 34.7164829], [137.3654896, 34.7165991]]]}, "id": "relation/10279677"}]}