{"type": "FeatureCollection", "generator": "kokudo-quiz tools/fetch_raw.py (Overpass API)", "copyright": "The data included in this document is from www.openstreetmap.org. The data is made available under ODbL.", "timestamp": "2026-09-30T16:05:43Z", "features": [{"type": "Feature", "properties": {"@id": "relation/8171702", "colour": "red", "from": "広島県広島市中区", "name": "国道261号", "name:en": "National Highway Route 261", "name:ja": "国道261号", "name:ja-Hira": "こくどうにひゃくろくじゅういちごう", "name:ja-Latn": "Kokudo 261 Gou", "network": "JP:national", "official_name": "一般国道261号", "ref": "261", "route": "road", "to": "島根県江津市", "type": "route", "wikidata": "Q6157062", "wikipedia": "ja:国道261号"}, "geometry": {"type": "MultiLineString", "coordinates": [[[132.4538901, 34.384626], [132.4539366, 34.3847611], [132.4539945, 34.3849285], [132.4541397, 34.3853361], [132.4542231, 34.3855669], [132.4543802, 34.3860148], [132.4544068, 34.3861105], [132.4544326, 34.3862002], [132.4545478, 34.3865288], [132.4546487, 34.3867805], [132.4548131, 34.3872525], [132.4548526, 34.3873662], [132.4548898, 34.3874731], [132.4551761, 34.388306], [132.4552182, 34.3884299], [132.4555482, 34.3893765], [132.4555615, 34.3894168], [132.4556515, 34.3896663], [132.4557011, 34.3898294], [132.4557543, 34.3899817], [132.4558501, 34.3902559], [132.4558625, 34.390294], [132.4560622, 34.3909004], [132.4562011, 34.3913122], [132.4562339, 34.3914097], [132.4562655, 34.3915037], [132.4566109, 34.392529], [132.4566595, 34.3926732], [132.4566982, 34.392792], [132.4567558, 34.3929892], [132.4568306, 34.3932396], [132.4569362, 34.393563], [132.456971, 34.3936456], [132.456996, 34.3937147], [132.4571425, 34.3940869], [132.4573853, 34.3947766], [132.4575286, 34.3951825], [132.4575417, 34.3952193], [132.4575024, 34.3952286], [132.4564937, 34.3954671], [132.4564097, 34.3954869], [132.4563257, 34.3955068], [132.4555626, 34.3956872], [132.4554742, 34.3957081], [132.4553653, 34.3957338], [132.4550293, 34.3958133], [132.4544671, 34.3959462], [132.4543488, 34.3959741], [132.453765, 34.3961122], [132.4531629, 34.3962545], [132.4525499, 34.3963971], [132.4518482, 34.3965591], [132.4518108, 34.3965678], [132.4517847, 34.3965736], [132.4517068, 34.3965905], [132.4516823, 34.3965955], [132.4516021, 34.3966108], [132.4515672, 34.3966167], [132.4514968, 34.3966286], [132.4510444, 34.3966994], [132.4509716, 34.3967106], [132.4508986, 34.3967212], [132.4507454, 34.3967424], [132.4506759, 34.3967525], [132.4506066, 34.3967632], [132.4502916, 34.3968129], [132.4501491, 34.3968359], [132.4493589, 34.3969634], [132.4492291, 34.396982], [132.4481078, 34.3971596], [132.4479509, 34.3971839], [132.4473331, 34.3972796], [132.4471365, 34.3973178], [132.447119, 34.3973215], [132.4470687, 34.3973327], [132.4470336, 34.3973406], [132.4469989, 34.3973484], [132.4469296, 34.397364], [132.4470458, 34.3976878], [132.447145, 34.3979827], [132.4474131, 34.3987855], [132.4474385, 34.3988626], [132.4474755, 34.3989765], [132.4475036, 34.3990645], [132.4477104, 34.3996837], [132.4477332, 34.399771], [132.4480392, 34.4009648], [132.4480914, 34.4011602], [132.4481392, 34.401339], [132.448462, 34.4024163], [132.448487, 34.4024974], [132.4485361, 34.4026627], [132.4486001, 34.4028795], [132.4486921, 34.4031912], [132.4488421, 34.403618], [132.4490563, 34.4040775], [132.4491125, 34.4042094], [132.4491793, 34.4043503], [132.449291, 34.4046021], [132.4493587, 34.4047454], [132.449399, 34.4048608], [132.449474, 34.4051297], [132.4495202, 34.4052858], [132.4495289, 34.4053172], [132.4496653, 34.4058849], [132.4497011, 34.405999], [132.4497236, 34.4061126], [132.4497369, 34.4062237], [132.4498096, 34.4067163], [132.449835, 34.4069477], [132.4499163, 34.4076004], [132.4499275, 34.407689], [132.4499443, 34.4078081], [132.450055, 34.4085915], [132.450114, 34.409026], [132.4501248, 34.4090938], [132.450151, 34.4091488], [132.4501943, 34.4092035]], [[132.4540803, 34.3845857], [132.4541323, 34.3847163], [132.4541971, 34.3848791], [132.4545625, 34.3859718], [132.4545883, 34.3860666], [132.454613, 34.3861573], [132.4547397, 34.3865117], [132.4549794, 34.387215], [132.4550168, 34.3873248], [132.4550542, 34.3874348], [132.4552019, 34.3878582], [132.4553427, 34.3882655], [132.4553879, 34.3883899], [132.4555677, 34.3889146], [132.4557115, 34.3893295], [132.4558139, 34.3896255], [132.4558641, 34.38979], [132.4559146, 34.3899424], [132.4560739, 34.3903446], [132.4563685, 34.3912738], [132.4563966, 34.3913596], [132.4564313, 34.3914653], [132.4566452, 34.3921079], [132.4567747, 34.3924916], [132.4568233, 34.3926357], [132.4568648, 34.392754], [132.4569824, 34.3931099], [132.4571375, 34.3935143], [132.4571605, 34.3935807], [132.4571906, 34.3936694], [132.457291, 34.3939523], [132.4573858, 34.3942655], [132.4573993, 34.3943101], [132.4575458, 34.3947303], [132.4575761, 34.3948194], [132.4576829, 34.3951335], [132.4576988, 34.3951754], [132.4577089, 34.3952006], [132.4577298, 34.3952526], [132.4577407, 34.3952798], [132.4577695, 34.3953517], [132.457605, 34.395391], [132.4565487, 34.3956344], [132.4564671, 34.3956532], [132.4563871, 34.3956717], [132.4556332, 34.3958454], [132.4555403, 34.3958665], [132.4554208, 34.3958943], [132.455087, 34.3959713], [132.4545232, 34.3961012], [132.454402, 34.3961292], [132.453822, 34.396263], [132.4532459, 34.3963958], [132.4531651, 34.3964145], [132.4518978, 34.3967064], [132.4518361, 34.3967212], [132.4517796, 34.3967336], [132.4517347, 34.3967436], [132.4517118, 34.3967484], [132.4516436, 34.3967616], [132.4516194, 34.3967657], [132.4515749, 34.3967733], [132.4510583, 34.3968549], [132.4510016, 34.3968642], [132.450945, 34.3968739], [132.4508886, 34.3968843], [132.4508377, 34.3968917], [132.4508151, 34.3968958], [132.4507454, 34.3969076], [132.4506755, 34.3969187], [132.4503303, 34.3969735], [132.4501855, 34.3969959], [132.4494045, 34.3971169], [132.4492657, 34.3971378], [132.4481477, 34.3973109], [132.447994, 34.3973334], [132.4473735, 34.3974311], [132.4472323, 34.3974528], [132.4471683, 34.3974501], [132.4471854, 34.3975072], [132.4472254, 34.3976477], [132.4473991, 34.3981798], [132.4475905, 34.3987454], [132.4476175, 34.3988263], [132.4476556, 34.3989421], [132.4476824, 34.3990254], [132.4478915, 34.3996538], [132.4479095, 34.3997354], [132.4482132, 34.4009326], [132.4482647, 34.4011273], [132.4483119, 34.4013055], [132.4486404, 34.4023769], [132.4486633, 34.40246], [132.4487185, 34.4026252], [132.4488821, 34.4031409], [132.449039, 34.4035793], [132.449242, 34.4040363], [132.4493002, 34.4041542], [132.4493607, 34.4042943], [132.449444, 34.404458], [132.449497, 34.4045968], [132.4495581, 34.4048312], [132.4496358, 34.4051977], [132.4496479, 34.4052648], [132.4496578, 34.4052952], [132.4497958, 34.4058641], [132.4498277, 34.4059773], [132.4498504, 34.4060599], [132.4498874, 34.4061904], [132.4500132, 34.4067573], [132.4500368, 34.4069323], [132.4500816, 34.4072862], [132.450117, 34.4075818], [132.4501267, 34.4076631], [132.450144, 34.4077897], [132.4501924, 34.4081447], [132.4502509, 34.4085896], [132.4502995, 34.4090056], [132.4503029, 34.4090347], [132.4502632, 34.4090977], [132.4502265, 34.4091554], [132.4501943, 34.4092035], [132.4502509, 34.4092077], [132.450349, 34.4092153], [132.4510653, 34.4092658], [132.4511984, 34.4092765], [132.4513578, 34.4092894], [132.4524999, 34.409382], [132.4527638, 34.4094129], [132.4527884, 34.4096188], [132.4527969, 34.4096504], [132.4528245, 34.4097527], [132.4531452, 34.4109025], [132.4531687, 34.4109871], [132.4531948, 34.4110886], [132.4534874, 34.4120759], [132.4535131, 34.4121545], [132.4535329, 34.4122285], [132.4536459, 34.4127214], [132.4537968, 34.4132617], [132.453829, 34.4133703], [132.4539925, 34.4139714], [132.4540324, 34.4141093], [132.4540614, 34.4142237], [132.4541019, 34.414358], [132.4541749, 34.4146003], [132.4542957, 34.414932], [132.4544927, 34.4154004], [132.4545945, 34.4156271], [132.4547053, 34.4158456], [132.4547921, 34.4159704], [132.4553632, 34.4167918], [132.4554065, 34.4168492], [132.456104, 34.4178011], [132.4561494, 34.4178631], [132.4568679, 34.4188212], [132.4569012, 34.4188656], [132.4572214, 34.4192809], [132.4572961, 34.4193837], [132.4575666, 34.4197383], [132.4576514, 34.4198561], [132.4577145, 34.4199405], [132.4579862, 34.4203002], [132.4581314, 34.4204923], [132.4583408, 34.420786], [132.4584073, 34.420878], [132.4584845, 34.4209753], [132.4587842, 34.4213773], [132.4591489, 34.4218639], [132.4591712, 34.4218958], [132.4594355, 34.4222479], [132.4595059, 34.4223409], [132.4595578, 34.4224174], [132.4597381, 34.422763], [132.4597911, 34.4228774], [132.459892, 34.4232268], [132.4599345, 34.4235394], [132.4599232, 34.4239005], [132.4598907, 34.4241962], [132.4598836, 34.4242462], [132.4594904, 34.4266376], [132.4594791, 34.4267005], [132.4594592, 34.4268616], [132.4594542, 34.4270672], [132.459478, 34.4273465], [132.4595453, 34.4276162], [132.4595938, 34.4277657], [132.4596454, 34.4278967], [132.4597365, 34.4280801], [132.4597992, 34.4281969], [132.4599498, 34.4284249], [132.460084, 34.4286073], [132.4601353, 34.4286771], [132.4602364, 34.4287737], [132.4603268, 34.428872], [132.4609602, 34.4295496], [132.4615619, 34.4301932], [132.4617507, 34.4303865], [132.4618438, 34.4304819], [132.4623369, 34.4310213], [132.462445, 34.4311345], [132.462535, 34.4312286], [132.4627881, 34.4315002], [132.4632845, 34.432033], [132.4633898, 34.432146], [132.4635001, 34.4322617], [132.4642342, 34.4330539], [132.4643586, 34.4331997], [132.464477, 34.4333507], [132.4645883, 34.4335036], [132.4646948, 34.4336592], [132.4648337, 34.4338904], [132.4648892, 34.4340128], [132.464944, 34.4341162], [132.4650348, 34.4342874], [132.4652827, 34.4347417], [132.4653632, 34.4349028], [132.4654202, 34.4350169], [132.4654859, 34.4351455], [132.4659852, 34.4361214], [132.4660169, 34.4361833], [132.4660641, 34.4362774], [132.4663213, 34.4367909], [132.4667161, 34.4375692], [132.466742, 34.4376204], [132.4667875, 34.4377102], [132.4671055, 34.438337], [132.4671435, 34.4384107], [132.467396, 34.4389011], [132.467575, 34.4392341], [132.4676272, 34.4393284], [132.4676793, 34.43943], [132.4681558, 34.4403621], [132.4681894, 34.440428], [132.4683432, 34.4407443], [132.4684828, 34.4410226], [132.4684955, 34.4410552], [132.4686849, 34.4415419], [132.4687515, 34.4417936], [132.4688158, 34.4420505], [132.46885, 34.4421834], [132.4689006, 34.4425982], [132.4689111, 34.4426795], [132.469074, 34.4439447], [132.4691472, 34.4444995], [132.4691767, 34.4447236], [132.4691932, 34.4448427], [132.4692083, 34.4449533], [132.46922, 34.4450377], [132.4692488, 34.4452469], [132.4692507, 34.4452607], [132.4692852, 34.4455109], [132.4693236, 34.44579], [132.4694292, 34.4463759], [132.4694993, 34.4468634], [132.4695156, 34.4469814], [132.469528, 34.4470749], [132.4696601, 34.4480478], [132.4696674, 34.4480948], [132.4697555, 34.4486608], [132.4698243, 34.449236], [132.4698676, 34.4494743], [132.4698849, 34.4496], [132.4699024, 34.4497434], [132.4699377, 34.4500335], [132.4700073, 34.4506044], [132.4700122, 34.450647], [132.4701167, 34.4515557], [132.4701368, 34.4517682], [132.4701534, 34.4519435], [132.4701709, 34.4521044], [132.4701858, 34.4522405], [132.4702743, 34.4529652], [132.4703119, 34.4531876], [132.4703743, 34.4534506], [132.4704517, 34.4536521], [132.4705601, 34.4539077], [132.4706892, 34.4541559], [132.4708912, 34.4544537], [132.4711184, 34.454742], [132.4716142, 34.4553288], [132.4716791, 34.4554178], [132.4717423, 34.4555031], [132.4724692, 34.4563619], [132.47248, 34.4563756], [132.4731043, 34.4571143], [132.4734737, 34.4575597], [132.47356, 34.4576626], [132.4736361, 34.457749], [132.4736719, 34.4577855], [132.4737932, 34.4579016], [132.4740713, 34.4581571], [132.4743077, 34.4583374], [132.4744068, 34.458413], [132.4745066, 34.4584767], [132.4746056, 34.4585463], [132.4749492, 34.4587881], [132.4750201, 34.458838], [132.4750441, 34.4588522], [132.4754173, 34.4590737], [132.4754531, 34.459095], [132.4755218, 34.459136], [132.4759845, 34.4594119], [132.4762906, 34.4596103], [132.4765719, 34.459836], [132.4767426, 34.4600078], [132.4768694, 34.4601467], [132.4769601, 34.460246], [132.4770618, 34.4603721], [132.4770971, 34.4604158], [132.4773907, 34.4610019], [132.4774377, 34.4611467], [132.4775292, 34.4614393], [132.4775577, 34.4615372], [132.4776241, 34.4620047], [132.4776023, 34.4625091], [132.4775647, 34.463028], [132.4775901, 34.4634512], [132.477611, 34.4642249], [132.4776276, 34.4645054], [132.4776992, 34.464842], [132.4778477, 34.4652817], [132.4778705, 34.4653511], [132.4780573, 34.4657989], [132.4783054, 34.4662242], [132.4785582, 34.4665696], [132.4788249, 34.4668617], [132.4789239, 34.4669632], [132.4790014, 34.4670426], [132.4792879, 34.4672846], [132.4800912, 34.4678733], [132.480972, 34.4684357], [132.4812426, 34.4686085], [132.4819544, 34.4690541], [132.4824262, 34.4693698], [132.4826963, 34.4696052], [132.4828311, 34.4697227], [132.4829366, 34.4698457], [132.4832036, 34.4701569], [132.4837597, 34.4708568], [132.4838703, 34.4709757], [132.4841977, 34.471302], [132.4844668, 34.4715549], [132.4847785, 34.4718479], [132.4849596, 34.4720182], [132.4850736, 34.4721253], [132.4851625, 34.472217], [132.4859441, 34.4730236], [132.4867961, 34.4739765], [132.4876266, 34.4749236], [132.488334, 34.4757334], [132.4885041, 34.4759277], [132.4886655, 34.476084], [132.4890576, 34.4764459], [132.489239, 34.4765957], [132.4896305, 34.4769363], [132.4900646, 34.4773123], [132.4909566, 34.4779306], [132.4911042, 34.4780329], [132.49191, 34.4785788], [132.4928524, 34.4791257], [132.4929492, 34.4791818], [132.493119, 34.4792803], [132.4949246, 34.4803279], [132.4951186, 34.4804405], [132.4952418, 34.4805135], [132.4962562, 34.481114], [132.4969714, 34.4815221], [132.4970724, 34.4815797], [132.497819, 34.4820206], [132.4979486, 34.4820971], [132.4994269, 34.4829535], [132.4994958, 34.4829931], [132.5003328, 34.4834749], [132.5006754, 34.4836966], [132.5009907, 34.4839372], [132.5012765, 34.4842074], [132.5014225, 34.4843806], [132.5014723, 34.4844396], [132.5016246, 34.4846735], [132.5017457, 34.4849083], [132.5018591, 34.4852352], [132.5019221, 34.4855568], [132.5019427, 34.4858556], [132.5019253, 34.48657], [132.5019244, 34.4869902], [132.5019584, 34.4872523], [132.5020279, 34.4876625], [132.5020591, 34.4877421], [132.5021448, 34.4879604], [132.5023562, 34.4883358], [132.5027089, 34.4887884], [132.5041858, 34.4904653], [132.504334, 34.4906641], [132.5043912, 34.4907457], [132.5047395, 34.4912961], [132.5049854, 34.4918178], [132.5053261, 34.4927472], [132.5059566, 34.4946227], [132.5061044, 34.4950159], [132.5062176, 34.4952473], [132.506348, 34.4954219], [132.5064734, 34.4955534], [132.506758, 34.4957896], [132.5071002, 34.4959821], [132.5073162, 34.4960681], [132.5075365, 34.4961374], [132.5081684, 34.4963019], [132.5083718, 34.4963548], [132.5085171, 34.4963966], [132.5111342, 34.4970421], [132.5113885, 34.4971275], [132.5116308, 34.4972326], [132.5118248, 34.4973421], [132.5119983, 34.4974685], [132.5121441, 34.4976101], [132.5122665, 34.4977603], [132.5123934, 34.4980625], [132.5124599, 34.4983836], [132.51246, 34.4987495], [132.5124595, 34.4987663], [132.5124403, 34.4994084], [132.5124371, 34.4995343], [132.5124272, 34.499922], [132.5123982, 34.5001558], [132.5123731, 34.5004215], [132.5123541, 34.5005606], [132.5123441, 34.5006747], [132.5124695, 34.5006749]], [[132.4770971, 34.4604158], [132.4775172, 34.4609882], [132.4776945, 34.4613938], [132.477803, 34.4617385], [132.47788, 34.462105], [132.4779265, 34.4628073], [132.4779182, 34.4642186], [132.4779336, 34.4645093], [132.4779538, 34.4647952], [132.4780798, 34.4652548], [132.4782177, 34.4658071], [132.4784285, 34.4661446], [132.4784767, 34.4662232], [132.4786501, 34.4664633], [132.4788532, 34.4666951], [132.4790339, 34.4668708], [132.4791013, 34.4669363], [132.4793965, 34.4671927], [132.4795072, 34.4672753], [132.4800481, 34.4676789], [132.4810353, 34.468307], [132.4813289, 34.4684912], [132.4821918, 34.4690382], [132.4825235, 34.4692771], [132.482825, 34.469537], [132.4829589, 34.4696524], [132.4830679, 34.4697783], [132.4833414, 34.4700943], [132.4839906, 34.4708945], [132.4843183, 34.4712234], [132.4845244, 34.4714223], [132.4848351, 34.471714], [132.4850665, 34.4719428], [132.4851749, 34.4720499], [132.4852666, 34.4721418], [132.4860749, 34.4729522], [132.4869155, 34.47389], [132.4877545, 34.4748425], [132.488427, 34.4755961], [132.4885678, 34.4757447], [132.4886245, 34.4758096], [132.4887507, 34.4759315], [132.4892377, 34.4764017], [132.4894204, 34.4765633], [132.4898119, 34.4768955], [132.4902189, 34.4772277], [132.4917681, 34.4783249], [132.4921208, 34.4785623], [132.4925558, 34.4788485], [132.4929107, 34.4790603], [132.4930037, 34.4791158], [132.4934197, 34.4793641], [132.4940455, 34.4797279], [132.4949748, 34.4802681], [132.4951308, 34.4803588], [132.4952922, 34.4804512], [132.4962362, 34.4809917], [132.4966048, 34.4812031], [132.4970353, 34.4814501], [132.4971342, 34.4815068], [132.4975355, 34.4817499], [132.4978735, 34.4819546], [132.4980165, 34.4820413], [132.499004, 34.4826103], [132.4994452, 34.4828646], [132.4995528, 34.4829268], [132.5003795, 34.4834045], [132.5006332, 34.4835639], [132.5008769, 34.4837277], [132.5011184, 34.4839098], [132.5013109, 34.4840981], [132.501509, 34.4843312], [132.5015658, 34.484398], [132.5017265, 34.4846548], [132.5018568, 34.4849222], [132.5019636, 34.4852435], [132.5020235, 34.4855725], [132.5020355, 34.4858572], [132.5020224, 34.486577], [132.5020273, 34.4869938], [132.5020444, 34.4872385], [132.5021255, 34.4876475], [132.5021548, 34.4877256], [132.5022363, 34.487943], [132.5024362, 34.4882893], [132.502787, 34.4887475], [132.5033018, 34.4893262], [132.5042249, 34.4903777], [132.504413, 34.4906234], [132.5044753, 34.4907049], [132.504823, 34.4912411], [132.5050663, 34.491736], [132.5054233, 34.4927282], [132.5060591, 34.4946063], [132.506202, 34.4949901], [132.5063349, 34.4952092], [132.506442, 34.4953399], [132.5065649, 34.4954599], [132.5068656, 34.4957153], [132.5071383, 34.4958657], [132.5073452, 34.4959546], [132.507564, 34.4960227], [132.5078659, 34.4960829], [132.5081724, 34.4961158], [132.5083467, 34.4961345], [132.5085493, 34.4961562], [132.5121089, 34.4964902], [132.5121731, 34.49651], [132.5122246, 34.4965377], [132.5123049, 34.4966076], [132.5123867, 34.4967633], [132.512439, 34.4969802], [132.5125506, 34.4978419], [132.5125636, 34.4982437], [132.512556, 34.4987512], [132.5125558, 34.4987672], [132.5125422, 34.4996401], [132.5125256, 34.4998972], [132.51252, 34.4999629], [132.5125001, 34.5002077], [132.5124818, 34.5005489], [132.5124695, 34.5006749], [132.5125765, 34.5006799], [132.5126551, 34.5006953], [132.5126709, 34.5007033], [132.5127787, 34.5008405], [132.5128364, 34.5009681], [132.5129819, 34.5013501], [132.5132451, 34.5021718], [132.5132899, 34.5023007], [132.5135975, 34.5032947], [132.5136474, 34.5034561], [132.5138133, 34.5040471], [132.5138627, 34.5042316], [132.5138681, 34.5044168], [132.5138143, 34.504716], [132.5137989, 34.5048015], [132.5137767, 34.5049095], [132.5136818, 34.5053721], [132.5136712, 34.505424], [132.5135794, 34.5056884], [132.5135256, 34.5058367], [132.5134436, 34.5060006], [132.5132882, 34.5063168], [132.5131204, 34.5066627], [132.5128531, 34.5072142], [132.5126224, 34.5076753], [132.5124831, 34.5078724], [132.5122611, 34.5081198], [132.5114826, 34.5091141], [132.5113494, 34.5092813], [132.5111872, 34.5095313], [132.5110314, 34.5098465], [132.5108745, 34.5102492], [132.5106733, 34.5107514], [132.5105293, 34.5111164], [132.5102884, 34.5117242], [132.5102136, 34.511934], [132.5099671, 34.5125855], [132.5099259, 34.5126906], [132.5099071, 34.5127425], [132.5097375, 34.5131543], [132.5095674, 34.5135767], [132.5094915, 34.5137896], [132.5094509, 34.5139166], [132.5094312, 34.5140265], [132.5094241, 34.5141409], [132.5094298, 34.5142897], [132.5094486, 34.5144134], [132.5095142, 34.514611], [132.5095465, 34.5147109], [132.5096722, 34.5151056], [132.5098076, 34.5155011], [132.5098571, 34.5156523], [132.5098714, 34.5156992], [132.5099781, 34.5160441], [132.5100624, 34.5163045], [132.5101021, 34.5164091], [132.5101504, 34.5165146], [132.5103012, 34.5168538], [132.5104975, 34.5172738], [132.5105282, 34.5173408], [132.5109643, 34.5183051], [132.5110175, 34.518422], [132.5113875, 34.5192352], [132.5114608, 34.5193963], [132.5115438, 34.5195825], [132.5116605, 34.519844], [132.5117777, 34.5201062], [132.5119037, 34.5203879], [132.5121792, 34.5210042], [132.5122488, 34.5211585], [132.5120975, 34.521213], [132.5114597, 34.5213807], [132.5103671, 34.521702], [132.5103084, 34.5217188], [132.5091073, 34.5220625], [132.5090904, 34.5220674], [132.507903, 34.5224125], [132.5077425, 34.5224604], [132.5076092, 34.5225099], [132.5074454, 34.522556], [132.506738, 34.5227553], [132.5062699, 34.5228871], [132.5052724, 34.5231675], [132.5034646, 34.523673], [132.5028517, 34.5238521], [132.5022819, 34.5240254], [132.5022439, 34.5240372], [132.5002458, 34.5246359], [132.4992571, 34.5248927], [132.499021, 34.5249417], [132.4987791, 34.5250222], [132.498361, 34.5251358], [132.4983353, 34.5251427], [132.4976151, 34.5253543], [132.4965421, 34.525665], [132.4956841, 34.5259138], [132.4949555, 34.5261253], [132.4946335, 34.5262339], [132.4943981, 34.5263335], [132.4942467, 34.5264273], [132.4934236, 34.5268567], [132.4928299, 34.5271626], [132.4924892, 34.5273399], [132.4923281, 34.5274307], [132.4915386, 34.5278366], [132.4910082, 34.5281198], [132.4906018, 34.5283363], [132.4897594, 34.5287725], [132.4886169, 34.529375], [132.4884219, 34.5294696], [132.4880759, 34.5296151], [132.4872046, 34.529867], [132.4868036, 34.5300429], [132.4861877, 34.5304505], [132.4849788, 34.5312669], [132.4847927, 34.5313382], [132.4844912, 34.5314107], [132.4838782, 34.531482], [132.4834573, 34.5315286], [132.4833949, 34.5315355], [132.483066, 34.5316127], [132.4824284, 34.5318968], [132.4818543, 34.5321844], [132.481586, 34.5323495], [132.4815052, 34.5324125], [132.4812888, 34.5326252], [132.4804853, 34.5335213], [132.4803774, 34.5336022], [132.4801968, 34.5337375], [132.4800056, 34.5338717], [132.4794568, 34.5342568], [132.4786697, 34.5348374], [132.4784462, 34.5350022], [132.4777735, 34.5354984], [132.4776841, 34.5355644], [132.4775599, 34.5356329], [132.4774439, 34.5357029], [132.4772055, 34.5358171], [132.4770384, 34.5358811], [132.4768775, 34.5359281], [132.4766139, 34.5359578], [132.4764302, 34.535959], [132.4761724, 34.5359382], [132.4759233, 34.5358811], [132.4754869, 34.5357019], [132.4747568, 34.5354112], [132.4745715, 34.5353541], [132.4744635, 34.5353287], [132.4743483, 34.5353157], [132.4741799, 34.535316], [132.4740078, 34.5353465], [132.4722548, 34.5356824], [132.4716063, 34.535911], [132.4714849, 34.5359833], [132.4713301, 34.5361155], [132.4704236, 34.5372227], [132.4699662, 34.5376376], [132.4695824, 34.537905], [132.4691579, 34.5381807], [132.4688086, 34.5384355], [132.4684463, 34.5386761], [132.4678947, 34.5390797], [132.4674747, 34.5394491], [132.4670538, 34.5398237], [132.4665388, 34.5402655], [132.4662344, 34.5405047], [132.4651242, 34.5413265], [132.4648777, 34.5415072], [132.4647229, 34.541602], [132.4645363, 34.5416792], [132.4644402, 34.5417208], [132.4642112, 34.5417909], [132.4639178, 34.5418279], [132.4633274, 34.5418894], [132.4627838, 34.5419548], [132.4621321, 34.5420474], [132.4615123, 34.5420544], [132.4611043, 34.54205], [132.4606801, 34.5420185], [132.46031, 34.5419692], [132.4595382, 34.5418551], [132.4593055, 34.5418223], [132.4590844, 34.5418011], [132.4587279, 34.5417953], [132.4584742, 34.5418656], [132.4571009, 34.5422403], [132.4547023, 34.5435082], [132.4545513, 34.5435754], [132.4544084, 34.5436272], [132.454144, 34.5437056], [132.4539505, 34.5437411], [132.4537857, 34.5437562], [132.4535133, 34.5437688], [132.453148, 34.5437741], [132.4527062, 34.5437909], [132.4524592, 34.5438107], [132.4522346, 34.5438354], [132.4514995, 34.543959], [132.4509188, 34.5440011], [132.4506956, 34.5440306], [132.4505265, 34.5440641], [132.4500929, 34.5441857]], [[132.4642112, 34.5417909], [132.4640182, 34.5418466], [132.4630158, 34.5420175], [132.4625651, 34.5420755], [132.4621462, 34.5421248], [132.4614305, 34.5421446], [132.4610997, 34.5421407], [132.4606636, 34.5421024], [132.4601309, 34.5420337], [132.4599144, 34.5420123], [132.4595541, 34.5420064], [132.4592186, 34.542009], [132.4583261, 34.5422074], [132.4569544, 34.5427704], [132.4558993, 34.5434634], [132.4550753, 34.5437532], [132.4544236, 34.5438143], [132.4540363, 34.5438395], [132.4534992, 34.5438543], [132.4531667, 34.5438768], [132.4527261, 34.5439378], [132.4520898, 34.5440371], [132.4517336, 34.5440946], [132.4514847, 34.5441144], [132.4507339, 34.5441075], [132.4505064, 34.5441177], [132.4500929, 34.5441857], [132.449883, 34.5442755], [132.449482, 34.5444682], [132.449434, 34.5445003], [132.4492318, 34.5446356], [132.4489067, 34.5448484], [132.4486249, 34.5450784], [132.4484969, 34.5452114], [132.4483855, 34.5453638], [132.448135, 34.545693], [132.4480263, 34.5458571], [132.4479725, 34.5459648], [132.4479265, 34.5460845], [132.4478901, 34.546191], [132.4478536, 34.5463522], [132.4478435, 34.5464492], [132.4478423, 34.5466548], [132.4478624, 34.5468349], [132.4479712, 34.5474984], [132.4480089, 34.547784], [132.4480406, 34.5481016], [132.4480425, 34.5482994], [132.4480161, 34.5484899], [132.4479778, 34.5486414], [132.4479356, 34.5487572], [132.4478924, 34.5488644], [132.4478019, 34.5490188], [132.4477133, 34.5491514], [132.4474569, 34.5494531], [132.4471741, 34.5497682], [132.4467673, 34.550244], [132.4466207, 34.5504537], [132.4465159, 34.5506603], [132.4464131, 34.5509285], [132.4463355, 34.5512131], [132.4462952, 34.5515315], [132.4462579, 34.552214], [132.4462604, 34.5524537], [132.4462717, 34.5526873], [132.446304, 34.5529702], [132.446357, 34.5533091], [132.4463864, 34.5535232], [132.4463882, 34.55354], [132.4464846, 34.5542044], [132.4467686, 34.556363], [132.4469378, 34.5571362], [132.4470445, 34.5575236], [132.4471833, 34.5579153], [132.4471973, 34.5579552], [132.4473161, 34.5582222], [132.4474736, 34.5585531], [132.4476643, 34.5589002], [132.4480491, 34.5595044], [132.4483058, 34.5599813], [132.4485521, 34.5605056], [132.4487381, 34.5610112], [132.4488463, 34.5613653], [132.4490468, 34.5621962], [132.4492708, 34.563362], [132.4493155, 34.5635867], [132.4494185, 34.5643531], [132.4494379, 34.5645566], [132.4494895, 34.5650985], [132.4495191, 34.5656988], [132.4495199, 34.5657324], [132.4495306, 34.5660574], [132.4495344, 34.5661726], [132.4494524, 34.5665177], [132.4493302, 34.566793], [132.4492347, 34.5669797], [132.4491791, 34.5671689], [132.4491549, 34.5674158], [132.4491723, 34.5678528], [132.4491607, 34.5680279], [132.4491138, 34.5682362], [132.4489808, 34.5687181], [132.4489639, 34.5689611], [132.4489313, 34.5694288], [132.4489256, 34.5695106], [132.4488865, 34.5697038], [132.4487259, 34.5703649], [132.4487135, 34.5704113], [132.4486921, 34.5705241], [132.448666, 34.570657], [132.4486607, 34.5707062], [132.448664, 34.5708169], [132.4486979, 34.5711594], [132.4486954, 34.5714071], [132.4486334, 34.5718705], [132.4485897, 34.5721678], [132.4485848, 34.572351], [132.4486356, 34.5727014], [132.4487695, 34.573417], [132.4489158, 34.5741731], [132.4490008, 34.5744397], [132.4491018, 34.5746617], [132.4492474, 34.5748698], [132.4494119, 34.5750331], [132.4497413, 34.5752958], [132.4499052, 34.5753795], [132.4502199, 34.5754934], [132.4508469, 34.5757213], [132.4511554, 34.5758714], [132.4515043, 34.5760951], [132.4517479, 34.5762258], [132.4523758, 34.5764675], [132.452782, 34.5766045], [132.4529155, 34.5766532], [132.453214, 34.5768217], [132.4533785, 34.5769589], [132.4535518, 34.577128], [132.4538635, 34.5775126], [132.4546603, 34.578522], [132.4547865, 34.5786574], [132.4549206, 34.578789], [132.4555263, 34.5792021], [132.4558552, 34.5794732], [132.4560043, 34.5796378], [132.4562018, 34.5799155], [132.4563161, 34.5800828], [132.4564003, 34.580431], [132.4564133, 34.5807863], [132.4563575, 34.5813131], [132.4562962, 34.5821654], [132.4562901, 34.5823632], [132.4562819, 34.5826266], [132.4563203, 34.5828013], [132.4563675, 34.5829414], [132.456468, 34.583071], [132.4566029, 34.5832088], [132.4567808, 34.5833212], [132.4570368, 34.5834132], [132.4572354, 34.5834472], [132.4572413, 34.5834482], [132.4577472, 34.5834291], [132.4581886, 34.5833917], [132.4585414, 34.5834004], [132.4600596, 34.5835169], [132.4607943, 34.5835733], [132.4614007, 34.5836337], [132.4615413, 34.5836477], [132.462005, 34.5837552], [132.4630074, 34.5840369], [132.4634675, 34.5841671], [132.4637261, 34.5842626], [132.4639828, 34.5843741], [132.4642264, 34.5844969], [132.4645443, 34.584679], [132.4647412, 34.5848222], [132.4650677, 34.5849965], [132.4653803, 34.5850957], [132.4655293, 34.5851341], [132.4665014, 34.5852837], [132.4668377, 34.5853584], [132.466992, 34.5854353], [132.4671554, 34.5856192], [132.4675779, 34.5861284], [132.4677529, 34.5863039], [132.4680168, 34.5864513], [132.4685285, 34.5866869], [132.4691343, 34.5869266], [132.4696087, 34.5870808], [132.4702595, 34.5872933], [132.4719275, 34.5879147], [132.4722078, 34.5880393], [132.4724804, 34.5882366], [132.473131, 34.5886794], [132.4733919, 34.5888011], [132.473655, 34.5888647], [132.4740317, 34.588876], [132.4745099, 34.5888352], [132.4747169, 34.5888392], [132.474918, 34.5888752], [132.4750942, 34.5889389], [132.4752847, 34.5890309], [132.4753641, 34.5890938], [132.4756426, 34.589289], [132.4758597, 34.5894209], [132.4760148, 34.5894997], [132.4761787, 34.5895499], [132.4773019, 34.5897046], [132.4778252, 34.5897641], [132.4786043, 34.5898584], [132.4800561, 34.5900402], [132.4802892, 34.5900761], [132.480542, 34.5901455], [132.4807841, 34.5902399], [132.4810038, 34.5903519], [132.481115, 34.5904279], [132.4813494, 34.5906214], [132.4824587, 34.5915864], [132.483458, 34.5924622], [132.4838298, 34.5927902], [132.4843214, 34.59324], [132.4843911, 34.5933499], [132.4844174, 34.5934568], [132.4844073, 34.5935729], [132.4843213, 34.593747], [132.4841733, 34.5938798], [132.4839773, 34.5939412], [132.483818, 34.5939502], [132.4837429, 34.5939326], [132.4834239, 34.5938188], [132.4826532, 34.5935195], [132.4819256, 34.5932422], [132.4817559, 34.5932101], [132.4816089, 34.5932085], [132.4814872, 34.5932393], [132.4813412, 34.5933358], [132.4812656, 34.5934388], [132.4812225, 34.5935499], [132.481226, 34.5936478], [132.4812658, 34.5937516], [132.4813507, 34.5938614], [132.4814694, 34.5939285], [132.4815911, 34.5939674], [132.4817333, 34.5939859], [132.4818873, 34.5939696], [132.4822812, 34.5938718], [132.4824665, 34.5938685], [132.4826197, 34.5939047], [132.4827498, 34.5939815], [132.4830479, 34.5942663], [132.483151, 34.594381], [132.4835021, 34.5947715], [132.483598, 34.5948781], [132.4841608, 34.5954774], [132.4843772, 34.5956611], [132.4847583, 34.5959104], [132.485941, 34.5965612], [132.4861939, 34.5967168], [132.4864319, 34.5969207], [132.4866146, 34.5971268], [132.486669, 34.5972252], [132.4867341, 34.597343], [132.4868696, 34.5975425], [132.4870755, 34.5978632], [132.4872313, 34.5979828], [132.4874876, 34.5981148], [132.4876932, 34.5981825], [132.4880046, 34.5982334], [132.4883741, 34.5982792], [132.4884246, 34.5982855], [132.4892927, 34.5983932], [132.4895022, 34.5984289], [132.4897138, 34.5984969], [132.4899469, 34.5986236], [132.4901941, 34.5988176], [132.4902449, 34.5988638], [132.4903458, 34.5989555], [132.4908415, 34.599451], [132.4909681, 34.5995613], [132.4919982, 34.6005432], [132.492204, 34.6007039], [132.4925658, 34.600944], [132.4936414, 34.6015472], [132.4939244, 34.6017407], [132.4940889, 34.6019044], [132.4942365, 34.6021367], [132.494294, 34.6022973], [132.4946287, 34.6029967], [132.4948862, 34.6034064], [132.4951437, 34.6037314], [132.49649, 34.6051981], [132.4966781, 34.605456], [132.4968539, 34.6057557], [132.4969722, 34.6060689], [132.4972552, 34.6071365], [132.4975642, 34.6079065], [132.497718, 34.60828], [132.4980191, 34.6088178], [132.4984641, 34.6096133], [132.498912, 34.610185], [132.5001433, 34.611625], [132.5002296, 34.6117259], [132.5014253, 34.6135692], [132.5020189, 34.6144039], [132.5021605, 34.6146004], [132.5023473, 34.6148806], [132.5024687, 34.615107], [132.5024942, 34.6153578], [132.5024794, 34.6156688], [132.5024085, 34.6163397], [132.5023935, 34.6167554], [132.5024073, 34.6171365], [132.5025132, 34.6176088], [132.5025598, 34.6177394], [132.502616, 34.6178862], [132.5027677, 34.6182768], [132.5032146, 34.6192842], [132.5033056, 34.6196358], [132.5033838, 34.6200421], [132.5037086, 34.6219415], [132.5037367, 34.622046], [132.5037753, 34.6224303], [132.5037721, 34.6225757], [132.5037392, 34.6227022], [132.5036731, 34.6232204], [132.5036742, 34.6234026], [132.5036982, 34.6235689], [132.5037397, 34.6237094], [132.5038493, 34.6239357], [132.5038732, 34.6239878], [132.5039727, 34.6241236], [132.5040643, 34.6242189], [132.504626, 34.6247002], [132.5052354, 34.6252169], [132.5055493, 34.6254978], [132.5057441, 34.6257097], [132.5058751, 34.625877], [132.5059293, 34.6259462], [132.5060314, 34.6260848], [132.5060784, 34.6261487], [132.5063475, 34.6265926], [132.5065369, 34.6270117], [132.506989, 34.628017], [132.5072879, 34.6286795], [132.5073359, 34.6288087], [132.5074339, 34.6290413], [132.5075348, 34.6292634], [132.5082812, 34.6310734], [132.5085676, 34.6318301], [132.5085982, 34.631897], [132.5089183, 34.6326336], [132.5091255, 34.633179], [132.509194, 34.6333508], [132.5092539, 34.6335339], [132.5093264, 34.6338295], [132.5093643, 34.6340846], [132.5093973, 34.6343582], [132.5094008, 34.6345155], [132.5094147, 34.6348643], [132.5094017, 34.6350558], [132.5093971, 34.635123], [132.5093869, 34.6358468], [132.5093747, 34.6373072], [132.5093738, 34.6374554], [132.5094063, 34.637939], [132.5094529, 34.638186], [132.5095051, 34.638395], [132.5095822, 34.6386599], [132.5096917, 34.6389132], [132.5098379, 34.639224], [132.5101317, 34.6397308], [132.5103647, 34.6400924], [132.5106749, 34.640579], [132.510955, 34.6410488], [132.5115359, 34.6419814], [132.5120486, 34.6427903], [132.5125818, 34.6436391], [132.5127614, 34.6438839], [132.5129879, 34.6441176], [132.5132639, 34.6443287], [132.5135401, 34.6444882], [132.5138421, 34.6446262], [132.5147209, 34.6449983], [132.5147621, 34.6450157], [132.5148173, 34.645039], [132.5150585, 34.6451395], [132.5151519, 34.6451785], [132.5154535, 34.6453111], [132.5156033, 34.6453868], [132.5157597, 34.6454813], [132.51599, 34.6456415], [132.5161593, 34.6457728], [132.5163068, 34.6459093], [132.5166818, 34.6462723], [132.5170257, 34.6465704], [132.5185437, 34.6479894], [132.5185753, 34.6480193], [132.5203201, 34.6496686], [132.5204267, 34.6497694], [132.5205282, 34.6498653], [132.5212618, 34.6505554], [132.5213661, 34.6506535], [132.5217835, 34.6510461], [132.5218573, 34.6511056], [132.5227994, 34.6520018], [132.5233694, 34.6525415], [132.5234856, 34.6526503], [132.5253258, 34.654374], [132.5253682, 34.6544139], [132.5267357, 34.6556999], [132.5268282, 34.6557915], [132.5268928, 34.6558555], [132.5269383, 34.6558936], [132.5271628, 34.6561046], [132.5274577, 34.6563739], [132.5276726, 34.6565687], [132.5279161, 34.6567613], [132.5281136, 34.6568964], [132.5283741, 34.6570541], [132.528694, 34.6572035], [132.5288616, 34.6572818], [132.5295678, 34.6576031], [132.5297842, 34.6577124], [132.5299395, 34.6578083], [132.530157, 34.657951], [132.5303972, 34.6581617], [132.5305697, 34.6583291], [132.5307166, 34.6585022], [132.5308644, 34.6587366], [132.5309273, 34.6588473], [132.5309935, 34.6589637], [132.5310527, 34.6591051], [132.5311222, 34.6593196], [132.531171, 34.6595371], [132.5311924, 34.6597134], [132.53127, 34.6612895], [132.531288, 34.6614761], [132.5313057, 34.6615863], [132.5313595, 34.661753], [132.531516, 34.6621891], [132.5318201, 34.6629529], [132.5318836, 34.6631189], [132.5320251, 34.6634638], [132.5323739, 34.6643465], [132.5324718, 34.664608], [132.5327973, 34.6654327], [132.5328481, 34.6655614], [132.5337519, 34.6678339], [132.5338652, 34.6681235], [132.5339247, 34.6682823], [132.5339563, 34.6683665], [132.5343233, 34.6692866], [132.5345981, 34.6699993], [132.5347311, 34.6703468], [132.5348516, 34.6707188], [132.5349669, 34.671034], [132.5350611, 34.6712769], [132.535134, 34.6714648], [132.5352211, 34.6716605], [132.5353432, 34.6720144], [132.5353843, 34.6722538], [132.535407, 34.6725442], [132.5353653, 34.6728266], [132.5352031, 34.6735644], [132.5351883, 34.6736315], [132.5348037, 34.6753085], [132.5347576, 34.6754998], [132.5347102, 34.6757081], [132.5345579, 34.6763431], [132.5343979, 34.6770639], [132.5340245, 34.6786812], [132.5338236, 34.6795357], [132.5336688, 34.680229], [132.533494, 34.6809537], [132.5334357, 34.6811418], [132.5333437, 34.68137], [132.5332379, 34.6815893], [132.5331354, 34.6817785], [132.5330375, 34.6819439], [132.5329205, 34.6821082], [132.5327883, 34.6822824], [132.5325787, 34.6825181], [132.5320763, 34.6830091], [132.5318372, 34.6832371], [132.5310983, 34.6839418], [132.5310647, 34.6839739], [132.5308286, 34.6841999], [132.5304013, 34.6846085], [132.5298296, 34.685155], [132.5285298, 34.6863595], [132.5273231, 34.6875397], [132.525959, 34.6888597], [132.525944, 34.6888756], [132.5258722, 34.6889389], [132.525866, 34.6889448], [132.5250971, 34.6896753], [132.5250495, 34.6897194], [132.5245393, 34.6901926], [132.5244009, 34.6903378], [132.5238176, 34.6908769], [132.5235523, 34.6910834], [132.5226516, 34.6917843], [132.5225885, 34.6918291], [132.5221683, 34.6921274], [132.5215615, 34.6925408], [132.5201126, 34.6933924], [132.5179823, 34.694535], [132.5174121, 34.6948387], [132.5164197, 34.6953945], [132.5160419, 34.6956646], [132.5157589, 34.6959442], [132.515495, 34.6962754], [132.5153653, 34.6964381], [132.514691, 34.6972844], [132.5146816, 34.6972961], [132.5143916, 34.6976519], [132.5137192, 34.6984907], [132.5135509, 34.6986967], [132.5126752, 34.6997865], [132.5124166, 34.7001013], [132.5120967, 34.7005099], [132.511762, 34.7008841], [132.5113432, 34.7013324], [132.5110065, 34.7016884], [132.5106498, 34.7020354], [132.5105836, 34.7020906], [132.5102967, 34.7022854], [132.509915, 34.7024751], [132.509371, 34.7026803], [132.5083545, 34.703051], [132.5077441, 34.7032829], [132.5070378, 34.7034841], [132.5052055, 34.7039], [132.5051101, 34.7039216], [132.5045265, 34.7040595], [132.5039637, 34.7042097], [132.5037794, 34.7042825], [132.5036371, 34.7043388], [132.5033066, 34.7045365], [132.503058, 34.7047458], [132.5028288, 34.705025], [132.5026834, 34.7052904], [132.5024771, 34.7058561], [132.5024193, 34.7060299], [132.5020414, 34.7071664], [132.5018803, 34.7076777], [132.5017663, 34.7080265], [132.5017199, 34.7082311], [132.5016918, 34.7084406], [132.5016928, 34.708646], [132.501724, 34.708832], [132.5017751, 34.7090006], [132.5018654, 34.7092064], [132.502019, 34.7094504], [132.502416, 34.7099563], [132.5029014, 34.7105187], [132.5036834, 34.711458], [132.5042185, 34.7121157], [132.5046601, 34.7126619], [132.5051492, 34.7132362], [132.5052062, 34.7133275], [132.5052901, 34.7134786], [132.5053569, 34.7136377], [132.5054185, 34.7138164], [132.5054898, 34.7141391], [132.5055755, 34.7146297], [132.505717, 34.7153837], [132.5059329, 34.7165843], [132.5060106, 34.7169773], [132.5060208, 34.7170428], [132.5060998, 34.7173797], [132.5062828, 34.7179631], [132.5063959, 34.7182476], [132.5067025, 34.7189841], [132.5069661, 34.7195865], [132.5070332, 34.7198198], [132.5070487, 34.719965], [132.5070292, 34.7202043], [132.5069661, 34.7204279], [132.5069364, 34.7205683], [132.5068901, 34.7207914], [132.506876, 34.7209284], [132.5068759, 34.7210703], [132.5068826, 34.7211918], [132.5069123, 34.7213366], [132.5069616, 34.7214748], [132.5070187, 34.7215832], [132.5071381, 34.721775], [132.5072574, 34.7219426], [132.5076657, 34.7224974], [132.508174, 34.7232074], [132.5086883, 34.7239138], [132.5088346, 34.7241363], [132.5089234, 34.7243035], [132.5090247, 34.724544], [132.5091025, 34.724776], [132.5091657, 34.7250099], [132.5092126, 34.7252708], [132.5093033, 34.7259281], [132.5093371, 34.7262105], [132.5093588, 34.7264232], [132.5093581, 34.7266697], [132.5093453, 34.726808], [132.5093217, 34.7269692], [132.5092484, 34.7273102], [132.5091803, 34.7275438], [132.5090423, 34.7279653], [132.5088323, 34.7285722], [132.5086793, 34.7290234], [132.5085183, 34.7295081], [132.5083856, 34.7298568], [132.5082053, 34.7302318], [132.5079844, 34.7305983], [132.5076801, 34.7310131], [132.5071977, 34.7316518], [132.5066401, 34.7323767], [132.5062306, 34.7329266], [132.5057703, 34.7335012], [132.5055154, 34.733773], [132.5052872, 34.7339724], [132.505046, 34.7341617], [132.5047767, 34.734338], [132.5045945, 34.7344431], [132.5039269, 34.7348267], [132.5033665, 34.7351493], [132.5030266, 34.7353698], [132.5026453, 34.7356752], [132.5022994, 34.7360233], [132.5022618, 34.7360703], [132.5020411, 34.7363528], [132.501865, 34.7366637], [132.5017568, 34.7368859], [132.5016571, 34.7371495], [132.5015949, 34.73739], [132.5015361, 34.7376505], [132.5014793, 34.7380939], [132.5013363, 34.739246], [132.5010612, 34.7414081], [132.5010133, 34.7417073], [132.5009426, 34.7419772], [132.5008817, 34.742165], [132.5007869, 34.7423485], [132.5007003, 34.7424851], [132.5005226, 34.7427517], [132.5003052, 34.7430126], [132.5001242, 34.7432154], [132.4994804, 34.7439154], [132.4988471, 34.7446221], [132.4986219, 34.7448924], [132.4984791, 34.7450891], [132.498338, 34.7453213], [132.4982128, 34.745584], [132.4981066, 34.745847], [132.4980198, 34.7461851], [132.4979133, 34.7467314], [132.4977875, 34.747342], [132.4977563, 34.747578], [132.4977507, 34.7477845], [132.4977624, 34.7480248], [132.4978027, 34.7482781], [132.4978585, 34.7484865], [132.4979063, 34.7486187], [132.4979566, 34.7487387], [132.4980086, 34.748863], [132.4980922, 34.749013], [132.4982021, 34.7491953], [132.4983425, 34.7493796], [132.4984744, 34.7495355], [132.4986529, 34.7497043], [132.4987309, 34.7497808], [132.4989658, 34.7499736], [132.4991627, 34.7501271], [132.4993474, 34.7502806], [132.4995332, 34.7504797], [132.4997167, 34.7507043], [132.4998642, 34.7509326], [132.4999916, 34.7511927], [132.5000952, 34.7514916], [132.5001701, 34.7517829], [132.5002913, 34.7524241], [132.50034, 34.752703], [132.5003562, 34.7529689], [132.5003404, 34.7531485], [132.5003244, 34.7532624], [132.5002924, 34.7533883], [132.5002584, 34.7534771], [132.5001855, 34.7536405], [132.5001143, 34.7537789], [132.4999388, 34.7541247], [132.4995933, 34.754589], [132.4991209, 34.755297], [132.4988449, 34.7557386], [132.4986294, 34.7560663], [132.4981017, 34.7568401], [132.4976104, 34.7575318], [132.4974331, 34.7577323], [132.4971159, 34.7580183], [132.4966045, 34.7584585], [132.4963666, 34.7586328], [132.4959537, 34.7588608], [132.4943581, 34.7596188], [132.4934722, 34.760036], [132.4926002, 34.7604531], [132.492337, 34.7605738], [132.4906191, 34.7614024], [132.4905681, 34.7614277], [132.4904923, 34.7614617], [132.4904426, 34.7614897], [132.490416, 34.7615051], [132.4902996, 34.7615548], [132.4899731, 34.7617013], [132.4901839, 34.7619902], [132.4902207, 34.7620502], [132.4903726, 34.7622987], [132.4905693, 34.7626868], [132.4905786, 34.7627067], [132.4907591, 34.7630965], [132.4911879, 34.7639354], [132.4915658, 34.764599], [132.491758, 34.7649856], [132.491921, 34.7653129], [132.4919975, 34.7654935], [132.4920197, 34.7655469], [132.4920598, 34.7656725], [132.4920926, 34.7658195], [132.492111, 34.765931], [132.4921179, 34.7660066], [132.492118, 34.7660807], [132.4921135, 34.7661343], [132.4921058, 34.766245], [132.492088, 34.7663636], [132.4920466, 34.7665168], [132.4919866, 34.7666909], [132.4919152, 34.7668393], [132.4918696, 34.7669281], [132.4918322, 34.7670028], [132.4916648, 34.7673228], [132.4913878, 34.7679001], [132.4912567, 34.7682099], [132.491182, 34.768439], [132.491121, 34.7686593], [132.4910577, 34.7689331], [132.4910129, 34.7692774], [132.4909659, 34.7698602], [132.4909513, 34.7701649], [132.4909532, 34.7703043], [132.4909751, 34.7704297], [132.4910307, 34.7705738], [132.4911205, 34.7707149], [132.4912299, 34.7708285], [132.4913997, 34.7709636], [132.4917508, 34.7711987], [132.4920233, 34.7713659], [132.4921741, 34.7714687], [132.4922561, 34.7715509], [132.4923409, 34.7716437], [132.4924381, 34.7717768], [132.4925212, 34.7719166], [132.4925809, 34.7720349], [132.492618, 34.7722235], [132.4926258, 34.7724101], [132.4925954, 34.7725625], [132.4925486, 34.7727194], [132.4924479, 34.7729154], [132.4920343, 34.7736354], [132.4916305, 34.7744228], [132.4915136, 34.7745764], [132.4913652, 34.7746902], [132.4911903, 34.7747869], [132.4909708, 34.7748512], [132.4907016, 34.7748972], [132.4903869, 34.77495], [132.4902128, 34.7749999], [132.4900657, 34.7750588], [132.4898994, 34.7751783], [132.4898, 34.7752792], [132.4897202, 34.7754354], [132.4896846, 34.7755773], [132.489688, 34.775699], [132.4897047, 34.7758185], [132.4897485, 34.7759667], [132.48985, 34.7762405], [132.4901832, 34.7771876], [132.4902647, 34.7775083], [132.4904222, 34.7782537], [132.4904733, 34.778498], [132.4905814, 34.7790038], [132.4906239, 34.7792369], [132.4906346, 34.779393], [132.4906232, 34.7796189], [132.4905816, 34.779701], [132.4904888, 34.7798345], [132.4903717, 34.779956], [132.4902609, 34.7800388], [132.4900644, 34.7801421], [132.4894291, 34.7804639], [132.4880568, 34.7811914], [132.487897, 34.7813005], [132.4877358, 34.781446], [132.4875858, 34.7816082], [132.4873951, 34.7818622], [132.4869438, 34.7826004], [132.4868112, 34.7828395], [132.486753, 34.7830278], [132.486732, 34.783168], [132.486746, 34.783343], [132.4868277, 34.7835341], [132.4870656, 34.783977], [132.4870973, 34.7840827], [132.4871289, 34.7842923], [132.4871006, 34.784465], [132.4870421, 34.7846447], [132.4865693, 34.785686], [132.4865263, 34.7858193], [132.4864983, 34.7859608], [132.4864803, 34.7861305], [132.4864899, 34.7863118], [132.4865333, 34.7865003], [132.486656, 34.786738], [132.48695, 34.787199], [132.4871258, 34.7875207], [132.4871634, 34.7877476], [132.4871806, 34.7881568], [132.4871926, 34.788397], [132.4872376, 34.7886733], [132.4876515, 34.7902586], [132.4876649, 34.7904122], [132.4876673, 34.7905723], [132.4876613, 34.7907353], [132.4876354, 34.7909149], [132.4875753, 34.7910991], [132.4874942, 34.7912811], [132.4869116, 34.7924447], [132.486562, 34.793176], [132.486364, 34.793609], [132.486323, 34.793768], [132.486276, 34.794049], [132.4862352, 34.7945356], [132.486167, 34.795498], [132.486032, 34.797213], [132.485826, 34.799913], [132.485672, 34.8027805], [132.4856629, 34.8029483], [132.4856577, 34.8032283], [132.4856765, 34.8034594], [132.4856979, 34.8036135], [132.4857304, 34.8037601], [132.4857687, 34.8038906], [132.4858292, 34.8040531], [132.485899, 34.804206], [132.4859523, 34.8043075], [132.4860402, 34.8044547], [132.4860947, 34.8045363], [132.4861484, 34.8046082], [132.4862435, 34.8047235], [132.4863569, 34.8048507], [132.4864836, 34.8049788], [132.4867853, 34.8052571], [132.4873793, 34.8057936], [132.4876413, 34.8060352], [132.4877626, 34.8061586], [132.4878767, 34.8063064], [132.4879558, 34.8064429], [132.4880039, 34.8065454], [132.4880466, 34.8066659], [132.4880758, 34.8067895], [132.4880925, 34.8069043], [132.4880964, 34.8070258], [132.4880873, 34.8071496], [132.488075, 34.8072371], [132.4880529, 34.8073562], [132.4877444, 34.8082701], [132.4876647, 34.808465], [132.4876079, 34.8085806], [132.487535, 34.8086963], [132.4874475, 34.808819], [132.4873014, 34.808985], [132.4871216, 34.8091445], [132.4869181, 34.8092896], [132.4862903, 34.8096851], [132.4860511, 34.8098751], [132.4859602, 34.8099645], [132.4858759, 34.8100561], [132.4857886, 34.8101674], [132.4857097, 34.8102739], [132.4855534, 34.8105432], [132.4852097, 34.8111046], [132.4851121, 34.8112682], [132.4849979, 34.8114433], [132.4848849, 34.8115987], [132.4845055, 34.812069], [132.4840908, 34.8125964], [132.4840186, 34.8127161], [132.4839701, 34.8128102], [132.4839265, 34.8129172], [132.4838955, 34.813021], [132.4838713, 34.8131403], [132.4838597, 34.8132553], [132.4838588, 34.8133546], [132.4838651, 34.8134489], [132.4838851, 34.8135582], [132.4839138, 34.8136477], [132.4839518, 34.8137652], [132.484161, 34.814348], [132.4843074, 34.8147337], [132.4844293, 34.8150607], [132.4844847, 34.8152517], [132.484519, 34.8154065], [132.484529, 34.8155275], [132.484527, 34.816111], [132.484526, 34.8167179], [132.4845229, 34.8175623], [132.4845323, 34.8177608], [132.4845543, 34.8179308], [132.4846437, 34.8182576], [132.4847457, 34.818578], [132.4848132, 34.8187331], [132.4848959, 34.8188754], [132.4852502, 34.8192842], [132.4854905, 34.8195725], [132.4855775, 34.8196719], [132.4857097, 34.8197899], [132.485869, 34.819901], [132.4860951, 34.8200261], [132.4864767, 34.8202365], [132.4866647, 34.820353], [132.4867979, 34.8204508], [132.4869593, 34.8205967], [132.4870913, 34.8207553], [132.4871954, 34.8208986], [132.4872554, 34.8210226], [132.4873034, 34.8211522], [132.4873409, 34.8212612], [132.4873665, 34.8213841], [132.487384, 34.8215421], [132.4873831, 34.8216585], [132.4873771, 34.8217803], [132.4872829, 34.8229779], [132.487283, 34.8230862], [132.487297, 34.8231768], [132.487342, 34.8233483], [132.4875559, 34.8240801], [132.4876459, 34.8243916], [132.4877449, 34.8246807], [132.4879294, 34.8250316], [132.4879846, 34.8251213], [132.4891479, 34.8270524], [132.4893276, 34.8273222], [132.4895185, 34.8275247], [132.4896508, 34.8276491], [132.4897365, 34.8277176], [132.4899204, 34.8278275], [132.4900706, 34.8278935], [132.4903361, 34.8279849], [132.4912318, 34.8282676], [132.4916907, 34.8284043], [132.4933174, 34.8289294], [132.4936393, 34.8290054], [132.4939746, 34.8290637], [132.4943005, 34.8290946], [132.4948838, 34.8290946], [132.4953867, 34.8290395], [132.4963009, 34.8289053], [132.4967229, 34.828852], [132.4967741, 34.8288456], [132.4969711, 34.8288239], [132.4976163, 34.8287346], [132.4979912, 34.82869], [132.4981146, 34.8286845], [132.4982708, 34.8286856], [132.498427, 34.8286977], [132.4986416, 34.8287379], [132.4989367, 34.8288248], [132.4991566, 34.8289305], [132.4993363, 34.8290461], [132.4994825, 34.8291672], [132.499638, 34.8293511], [132.4997735, 34.8295624], [132.5003301, 34.8304541], [132.5009255, 34.8314823], [132.5010154, 34.8318081], [132.5010328, 34.8322804], [132.5010288, 34.8326304], [132.5010368, 34.8327526], [132.501073, 34.832921], [132.5011414, 34.8330961], [132.5012138, 34.8332227], [132.5013292, 34.8333757], [132.5014901, 34.8335342], [132.5016765, 34.8336762], [132.5019957, 34.833827], [132.5022143, 34.8338909], [132.5024356, 34.8339283], [132.503479, 34.8340516], [132.5036587, 34.8340923], [132.503821, 34.8341495], [132.5039484, 34.8342189], [132.5040945, 34.8343257], [132.5041965, 34.8344302], [132.5042756, 34.8345348], [132.5047825, 34.8353329], [132.5049944, 34.8357886], [132.5050709, 34.8360561], [132.5050945, 34.8361726], [132.505395, 34.8376505], [132.505511, 34.8382217], [132.5056402, 34.838857], [132.5057495, 34.8393946], [132.5059513, 34.8404145], [132.5060441, 34.8408912], [132.506115, 34.8410834], [132.5061994, 34.841241], [132.5062825, 34.8413744], [132.5063494, 34.8414568], [132.506434, 34.8415622], [132.5065196, 34.8416529], [132.5066946, 34.8417943], [132.5070008, 34.8419842], [132.5072313, 34.8421088], [132.5072891, 34.8421391], [132.5075179, 34.8422591], [132.5078451, 34.8424329], [132.508091, 34.8425618], [132.50964, 34.8433874], [132.5097237, 34.8434314], [132.5106517, 34.8439105], [132.5111171, 34.8441643], [132.5119695, 34.8446373], [132.5125039, 34.8449224], [132.5128393, 34.8450983], [132.5130788, 34.8452215], [132.5134349, 34.8454226], [132.5139067, 34.8456686], [132.5141319, 34.8457847], [132.514626, 34.846052], [132.514709, 34.846102], [132.514846, 34.84621], [132.514983, 34.846339], [132.5151079, 34.8465158], [132.5151759, 34.8466328], [132.5152916, 34.8468441], [132.515357, 34.8470463], [132.5156589, 34.847946], [132.5157862, 34.8483277], [132.5161703, 34.849479], [132.5162511, 34.8497162], [132.516424, 34.8502277], [132.5165403, 34.850566], [132.5165922, 34.8507164], [132.5167525, 34.8511865], [132.5168633, 34.851522], [132.5169573, 34.8517324], [132.517052, 34.85191], [132.5171752, 34.852107], [132.517307, 34.8522815], [132.5173652, 34.8523522], [132.5174345, 34.8524363], [132.5179038, 34.8528611], [132.5183489, 34.8532772], [132.5189016, 34.8537551], [132.5191697, 34.8540007], [132.519404, 34.8542137], [132.5195484, 34.8543454], [132.5201071, 34.854852], [132.5202011, 34.8549774], [132.5202695, 34.8550856], [132.520339, 34.855253], [132.5203661, 34.8553971], [132.5203619, 34.8555584], [132.5203482, 34.8556739], [132.5203052, 34.8558467], [132.5201106, 34.8564562], [132.5200861, 34.8566084], [132.5200861, 34.8567428], [132.5201184, 34.8568683], [132.5201704, 34.856982], [132.5202628, 34.8571207], [132.5203737, 34.8572218], [132.5205212, 34.8573351], [132.520719, 34.8574452], [132.5215275, 34.8578517], [132.5218145, 34.8580201], [132.5219495, 34.8581279], [132.5220232, 34.8582165], [132.5220748, 34.8582919], [132.5221432, 34.8584191], [132.5221933, 34.8585516], [132.5222024, 34.8586974], [132.5221933, 34.858834], [132.5221705, 34.8590254], [132.5220647, 34.8597492], [132.5220224, 34.8598933], [132.5219656, 34.8600314], [132.5218721, 34.8601644], [132.5217563, 34.8602859], [132.5216168, 34.8603729], [132.521442, 34.8604555], [132.5213956, 34.8604724], [132.5212776, 34.8605179], [132.521134, 34.8605608], [132.5203299, 34.8607225], [132.5193301, 34.8609236], [132.5191237, 34.8609446], [132.5189334, 34.8609617], [132.5187706, 34.8609651], [132.5185771, 34.8609537], [132.5180622, 34.8608734], [132.5173666, 34.8607415], [132.5162852, 34.8605352], [132.515939, 34.860486], [132.5156782, 34.8604674], [132.5153854, 34.8604785], [132.5151725, 34.8604902], [132.5150062, 34.8605038], [132.5148216, 34.8605312], [132.5145118, 34.8605949], [132.5137288, 34.8608247], [132.5129305, 34.8610615], [132.512588, 34.8611546], [132.512309, 34.8611986], [132.5120903, 34.8612111], [132.5118412, 34.8612059], [132.510824, 34.8611274], [132.5101609, 34.8610779], [132.5098078, 34.8610391], [132.5093262, 34.8609396], [132.5086095, 34.8607328], [132.5081978, 34.8606135], [132.5079352, 34.8605859], [132.5077294, 34.860624], [132.5075572, 34.8606987], [132.5074136, 34.8608], [132.507295, 34.8609599], [132.50723, 34.8611218], [132.507195, 34.8613101], [132.5071972, 34.861431], [132.5072232, 34.8615476], [132.5072851, 34.8616502], [132.5073737, 34.8617499], [132.507474, 34.8618216], [132.5078231, 34.8619972], [132.5079307, 34.8620608], [132.5080292, 34.8621306], [132.508105, 34.8621952], [132.508163, 34.8622533], [132.5086304, 34.8628666], [132.5086824, 34.8629846], [132.5087143, 34.8631258], [132.5087189, 34.8633285], [132.5087508, 34.8634447], [132.5088051, 34.8635423], [132.5088729, 34.8636538], [132.5092432, 34.8641236], [132.5093028, 34.8642405], [132.5093248, 34.8643764], [132.5093134, 34.8645222], [132.5092828, 34.8646523], [132.5092178, 34.8647831], [132.5091699, 34.864889], [132.5091608, 34.864971], [132.5091768, 34.8650712], [132.5092181, 34.8651858], [132.5093089, 34.8653263], [132.5093795, 34.8654744], [132.5094055, 34.865616], [132.5094257, 34.8663153], [132.5094681, 34.8674953], [132.509457, 34.8676613], [132.5094296, 34.8678025], [132.5093325, 34.8680678], [132.5088179, 34.8694652], [132.5087214, 34.8696985], [132.5086449, 34.8698294], [132.5085135, 34.8700143], [132.5079069, 34.8705987], [132.5073118, 34.871174], [132.5072046, 34.8713181], [132.5070611, 34.871591], [132.5068894, 34.8722655], [132.5068076, 34.8724635], [132.5065206, 34.8730115], [132.506302, 34.8734043], [132.5056422, 34.8741447], [132.5054719, 34.8742801], [132.5053874, 34.8743384], [132.5052291, 34.8744176], [132.5039631, 34.8748269], [132.5023578, 34.8749215], [132.5013439, 34.875091], [132.5003944, 34.8752516], [132.5002322, 34.8752736], [132.4994999, 34.8754001], [132.4992599, 34.8754661], [132.4990936, 34.8755465], [132.4989648, 34.875629], [132.4988414, 34.8757368], [132.4987529, 34.87586], [132.4986161, 34.8760999], [132.498301, 34.8767056], [132.4981005, 34.8769366], [132.4978883, 34.8770647], [132.4977761, 34.877117], [132.4975915, 34.877221], [132.4974601, 34.8773145], [132.4973528, 34.8774234], [132.497275, 34.8775357], [132.496984, 34.8781276], [132.4969344, 34.8782464], [132.4969102, 34.8783575], [132.496933, 34.8788394], [132.4969304, 34.8789978], [132.4968941, 34.879197], [132.4968338, 34.8793796], [132.496638, 34.8797009], [132.4965428, 34.8798494], [132.4965066, 34.8799231], [132.4964797, 34.8800254], [132.4964677, 34.8801244], [132.4965066, 34.88023], [132.4965937, 34.8803577], [132.4968298, 34.8805964], [132.4972241, 34.8812301], [132.4973126, 34.8813841], [132.4974011, 34.8815447], [132.4974319, 34.8816812], [132.4974547, 34.8818803], [132.4974735, 34.8824854], [132.497499, 34.8828495], [132.4976572, 34.8837571], [132.4976618, 34.8837974], [132.4977069, 34.8841983], [132.497727, 34.8845459], [132.4976733, 34.885041], [132.4975499, 34.8861268], [132.4975003, 34.8863765], [132.4974118, 34.886591], [132.4969143, 34.8875151], [132.4966876, 34.8879342], [132.4964087, 34.8882609], [132.4962263, 34.8884468], [132.4960157, 34.8886151], [132.4959353, 34.8886822], [132.4941625, 34.8900632], [132.4940613, 34.8901578], [132.4939599, 34.8903318], [132.4939142, 34.8904709], [132.4938823, 34.8906327], [132.4938731, 34.8907853], [132.4938754, 34.890963], [132.4939005, 34.8911475], [132.4939284, 34.891334], [132.4939802, 34.8915211], [132.4941476, 34.8919455], [132.4942695, 34.8922819], [132.4942934, 34.8923981], [132.4942991, 34.8925018], [132.4942957, 34.892613], [132.4942729, 34.8927182], [132.4942147, 34.8928616], [132.494126, 34.8929904], [132.4937501, 34.8933868], [132.4936449, 34.8935124], [132.4935565, 34.8936408], [132.4934711, 34.8938071], [132.4934016, 34.8939904], [132.4933131, 34.8943311], [132.4931465, 34.8949358], [132.4930124, 34.8953541], [132.4929221, 34.8955873], [132.4928959, 34.8956465], [132.492807, 34.895847], [132.492149, 34.897148], [132.4920533, 34.8973398], [132.4918623, 34.8975633], [132.4917929, 34.8976077], [132.4917008, 34.8976608], [132.4916031, 34.8977002], [132.4914949, 34.8977332], [132.4913776, 34.8977514], [132.4912671, 34.8977548], [132.4911384, 34.8977514], [132.490955, 34.8977218], [132.490258, 34.8975532], [132.4900552, 34.8975099], [132.489873, 34.8974872], [132.4896702, 34.8974758], [132.4892612, 34.89748], [132.4888151, 34.8974869], [132.4884051, 34.8975049], [132.4881861, 34.8975191], [132.4879469, 34.8975464], [132.4866113, 34.8977383], [132.4860118, 34.8978084], [132.485419, 34.8978984], [132.4851142, 34.8979633], [132.4848819, 34.8980305], [132.4846586, 34.8981159], [132.484213, 34.8983225], [132.4838708, 34.8984915], [132.4830081, 34.8989258], [132.4817963, 34.8995374], [132.4811573, 34.8998974], [132.4807428, 34.9001353], [132.480364, 34.9003659], [132.4801888, 34.9004631], [132.4799124, 34.9006616], [132.47977, 34.90078], [132.4796437, 34.9008916], [132.4795081, 34.9010386], [132.4793824, 34.9011897], [132.4792723, 34.9013484], [132.4791413, 34.9015739], [132.4789023, 34.9020661], [132.4787336, 34.9024316], [132.4786641, 34.9026013], [132.4785957, 34.9027915], [132.4785449, 34.9029728], [132.4785171, 34.9030865], [132.4784898, 34.9032277], [132.4783508, 34.9042187], [132.4783248, 34.9043776], [132.4782787, 34.90461], [132.4782324, 34.9047995], [132.4781846, 34.9049932], [132.4779257, 34.9057386], [132.4778173, 34.9060746], [132.4777669, 34.9062389], [132.477123, 34.9080685], [132.4770246, 34.9083787], [132.4769829, 34.9085491], [132.4769499, 34.9087747], [132.4769385, 34.9089592], [132.4769431, 34.9091426], [132.4769588, 34.9092951], [132.4769761, 34.9094398], [132.4770285, 34.9096232], [132.4772073, 34.9101059], [132.4772335, 34.910195], [132.4772437, 34.9102656], [132.477253, 34.9103253], [132.4772532, 34.9104095], [132.4772437, 34.9105344], [132.4771385, 34.9114975], [132.4771002, 34.9116928], [132.4770478, 34.9118613], [132.4769613, 34.912088], [132.4766741, 34.9126485], [132.4764544, 34.9130003], [132.4763238, 34.9131604], [132.4761325, 34.9133611], [132.4759931, 34.9134753], [132.4757599, 34.9136248], [132.4752966, 34.9138868], [132.4750728, 34.9140596], [132.4749111, 34.9141895], [132.4746939, 34.9144548], [132.4745796, 34.9146872], [132.4745238, 34.9148171], [132.4744763, 34.914977], [132.4744577, 34.9150733], [132.4744482, 34.9151798], [132.4744475, 34.9154125], [132.4744707, 34.9155753], [132.4745033, 34.91571], [132.4745671, 34.9159219], [132.4747183, 34.9163636], [132.4747712, 34.916509], [132.475151, 34.9176351], [132.4754656, 34.9186654], [132.4757825, 34.9197031], [132.4762174, 34.9211554], [132.4762437, 34.9212718], [132.4762596, 34.9213754], [132.4762653, 34.9214654], [132.4762633, 34.9215796], [132.4762469, 34.9216853], [132.4762194, 34.9217983], [132.4761398, 34.9220153], [132.4759066, 34.9225087], [132.4757039, 34.9228541], [132.4752701, 34.9235241], [132.4751184, 34.9237981], [132.4749792, 34.9241231], [132.4746251, 34.9251455], [132.4745728, 34.9252879], [132.4745352, 34.9253847], [132.4744514, 34.9255883], [132.4743051, 34.925895], [132.4741787, 34.9261399], [132.4740815, 34.9263433], [132.4739059, 34.9268019], [132.4736625, 34.9272742], [132.4735283, 34.9276547], [132.473455, 34.9280404], [132.4734053, 34.9283564], [132.4734153, 34.9287491], [132.4734326, 34.9290808], [132.4735251, 34.9294556], [132.4739926, 34.9306156], [132.4740887, 34.9309032], [132.4741525, 34.9312995], [132.4741778, 34.931649], [132.474116, 34.9324112], [132.4740709, 34.9330141], [132.4738626, 34.9340286], [132.473673, 34.9345479], [132.4732327, 34.9353436], [132.472786, 34.9359309], [132.4722754, 34.9365062], [132.472098, 34.9366899], [132.471551, 34.9371586], [132.4712199, 34.9374141], [132.4711091, 34.9375601], [132.471059, 34.9376552], [132.4710362, 34.9377622], [132.4710336, 34.937865], [132.4710499, 34.9379672], [132.471097, 34.9380595], [132.471182, 34.9381973], [132.4714741, 34.9385745], [132.4715784, 34.9386939], [132.4717059, 34.938801], [132.4718441, 34.9388986], [132.4723164, 34.9391313], [132.4727537, 34.9393172], [132.4732379, 34.9395425], [132.4733647, 34.939618], [132.4734896, 34.9397224], [132.4735887, 34.9398238], [132.4736832, 34.9399537], [132.4738061, 34.9401687], [132.4740393, 34.9406555], [132.4740773, 34.940776], [132.4741001, 34.9409059], [132.4741024, 34.9410186], [132.4740887, 34.9411211], [132.4740537, 34.9412428], [132.4739315, 34.9415484], [132.4736363, 34.9422937], [132.4734919, 34.9428148], [132.473403, 34.9432499], [132.4733108, 34.9436507], [132.4732732, 34.943767], [132.4732231, 34.9438741], [132.4731535, 34.943982], [132.4727094, 34.944638], [132.4714756, 34.9462385], [132.4709736, 34.9467953], [132.4706195, 34.9472417], [132.470488, 34.947419], [132.470355, 34.947597], [132.470245, 34.947785], [132.470156, 34.94798], [132.470117, 34.9481533], [132.4701094, 34.9482629], [132.4701072, 34.9484643], [132.4701085, 34.9485211], [132.4701083, 34.9485778], [132.470131, 34.949003], [132.470156, 34.949193], [132.470273, 34.951153], [132.470291, 34.95139], [132.470343, 34.952058], [132.4703446, 34.9521411], [132.4703482, 34.952338], [132.470338, 34.9524853], [132.4703121, 34.9526115], [132.4702457, 34.9527936], [132.4701683, 34.952928], [132.4700801, 34.9530539], [132.4699803, 34.9532082], [132.4698972, 34.953354], [132.4698371, 34.9534948], [132.4698049, 34.9536137], [132.4697821, 34.9537356], [132.4697662, 34.9538973], [132.469699, 34.9545283], [132.4696512, 34.9549623], [132.469609, 34.9552584], [132.4695468, 34.9555696], [132.4692836, 34.956545], [132.4692656, 34.9566463], [132.4692553, 34.9567651], [132.4692491, 34.9569008], [132.4692593, 34.9570261], [132.4692787, 34.9571423], [132.4693103, 34.957263], [132.4693879, 34.9574798], [132.4694427, 34.9575877], [132.4694918, 34.9576709], [132.4695885, 34.9578018], [132.469677, 34.9579021], [132.4697924, 34.9580228], [132.469898, 34.95812], [132.4700327, 34.9582335], [132.4701754, 34.9583294], [132.470438, 34.958508], [132.4707115, 34.9586889], [132.4713323, 34.9591151], [132.4714781, 34.9592301], [132.4716048, 34.9593389], [132.4717002, 34.9594317], [132.4718301, 34.9595741], [132.4719261, 34.9596885], [132.4720182, 34.9598174], [132.472103, 34.959941], [132.4722236, 34.9601855], [132.4722977, 34.9604467], [132.4723438, 34.9606994], [132.47239, 34.961015], [132.4724212, 34.9613919], [132.4724311, 34.961704], [132.4724049, 34.9623086], [132.4723112, 34.9640297], [132.4722568, 34.9649782], [132.4722116, 34.9658378], [132.4722082, 34.9659103], [132.4722042, 34.9659876], [132.4721802, 34.9664558], [132.4721675, 34.9667027], [132.4721603, 34.9668517], [132.4721317, 34.9671448], [132.4721057, 34.9672783], [132.4720653, 34.9673973], [132.4720237, 34.9675015], [132.4719736, 34.9675938], [132.4718977, 34.9677081], [132.471805, 34.9678318], [132.4716839, 34.9679505], [132.4715531, 34.9680566], [132.4714176, 34.9681473], [132.4712754, 34.9682236], [132.4711141, 34.9682933], [132.4710296, 34.9683249], [132.4688156, 34.9689694], [132.4686199, 34.9690074], [132.4685102, 34.9688781], [132.4684593, 34.9688031], [132.4684181, 34.9687161], [132.468396, 34.9686348], [132.468386, 34.9685201], [132.4683846, 34.968415], [132.4683903, 34.9683284], [132.4684062, 34.9682396], [132.4684228, 34.9681543], [132.4684974, 34.9679332], [132.4685361, 34.9678034], [132.4685672, 34.9676728], [132.4685796, 34.9675526], [132.4685737, 34.9674503], [132.4685544, 34.9673547], [132.4685133, 34.9672396], [132.4684333, 34.9670623], [132.4682399, 34.9667236], [132.4680337, 34.9663804], [132.4677544, 34.9659202], [132.467594, 34.9656984], [132.4673891, 34.9654946], [132.4671687, 34.965287], [132.4668191, 34.9650122], [132.4666066, 34.964859], [132.4663091, 34.9646337], [132.4660313, 34.9644306], [132.4656477, 34.9641949], [132.464758, 34.9637217], [132.464725, 34.9637041], [132.4632943, 34.9629451], [132.4631535, 34.9628723], [132.462754, 34.9626658], [132.4621147, 34.962325], [132.4619139, 34.9622245], [132.4616861, 34.9621209], [132.4614403, 34.9620317], [132.4610531, 34.9619389], [132.460747, 34.961897], [132.4604434, 34.961875], [132.4601994, 34.9618839], [132.4600107, 34.9618954], [132.4598009, 34.9619217], [132.4593032, 34.9620139], [132.458875, 34.9621084], [132.4585719, 34.9622016], [132.4583874, 34.9622797], [132.4581448, 34.9624147], [132.4578933, 34.9625902], [132.4576479, 34.9627794], [132.4570914, 34.963187], [132.4568141, 34.9633694], [132.4566654, 34.9634421], [132.4560365, 34.9637481], [132.4551801, 34.9641364], [132.4545099, 34.9644457], [132.4538798, 34.9647107], [132.4536175, 34.9647936], [132.4533783, 34.9648522], [132.4519693, 34.9651859], [132.4514192, 34.9653226], [132.4510467, 34.9654274], [132.4495805, 34.9659096], [132.4491926, 34.9660153], [132.4489147, 34.9660698], [132.448681, 34.9661006], [132.4483832, 34.9661215], [132.4455752, 34.9660446], [132.44469, 34.9660093], [132.4443776, 34.9659892], [132.4441078, 34.9659604], [132.4437788, 34.9658952], [132.4435194, 34.965826], [132.4432579, 34.9657329], [132.4429882, 34.9656151], [132.4427396, 34.965484], [132.4424824, 34.9653221], [132.4422377, 34.9651358], [132.4420361, 34.964949], [132.4418964, 34.964793], [132.441719, 34.964588], [132.4414436, 34.9642852], [132.4412294, 34.9640394], [132.4410748, 34.9638408], [132.44092, 34.963611], [132.440804, 34.963425], [132.440454, 34.96283], [132.4402612, 34.9625032], [132.4401533, 34.9622952], [132.440085, 34.9621266], [132.4400212, 34.9619102], [132.4399494, 34.961589], [132.4399068, 34.9614028], [132.4398561, 34.9612518], [132.4397993, 34.9611173], [132.4397232, 34.9609703], [132.4396329, 34.9608399], [132.4394409, 34.9605987], [132.4389544, 34.9600412], [132.4388233, 34.9598974], [132.4386681, 34.9597483], [132.4385033, 34.9596072], [132.4382944, 34.9594664], [132.4379801, 34.9592973], [132.437693, 34.959184], [132.4374285, 34.9591066], [132.4370506, 34.959021], [132.4366966, 34.9589454], [132.4363548, 34.9588873], [132.4361054, 34.9588591], [132.4358065, 34.9588507], [132.4355593, 34.9588576], [132.4352788, 34.9588882], [132.4350672, 34.9589317], [132.4348376, 34.9589966], [132.434513, 34.9591048], [132.4335534, 34.959463], [132.4317862, 34.9601527], [132.4313565, 34.960303], [132.4307977, 34.9604877], [132.4303089, 34.9606771], [132.429544, 34.9610025], [132.4290264, 34.9612427], [132.428497, 34.961505], [132.4283055, 34.9615922], [132.4281454, 34.961651], [132.4279978, 34.9616903], [132.4278602, 34.9617234], [132.4276805, 34.9617547], [132.4275125, 34.9617713], [132.4274566, 34.9617729], [132.4272955, 34.9617777], [132.4270861, 34.9617701], [132.4268425, 34.9617429], [132.4261472, 34.9616498], [132.4260672, 34.9616394], [132.4245628, 34.9614385], [132.4243385, 34.9613991], [132.424082, 34.9613327], [132.4238497, 34.9612644], [132.4235619, 34.9611589], [132.4231941, 34.9610076], [132.4229072, 34.9608817], [132.4226811, 34.9607621], [132.4222862, 34.9605077], [132.4218143, 34.9601732], [132.4214247, 34.9599067], [132.4210523, 34.9596789], [132.4201545, 34.959185], [132.419887, 34.9590308], [132.4196747, 34.9588929], [132.4194372, 34.9587141], [132.4190595, 34.9583939], [132.4180646, 34.9574724], [132.4174846, 34.9569334], [132.4166878, 34.9562057], [132.4163733, 34.9559241], [132.4160736, 34.9556675], [132.415687, 34.9553533], [132.415364, 34.9551111], [132.414972, 34.9548257], [132.414763, 34.9546707], [132.414389, 34.9543917], [132.4140587, 34.9541488], [132.4133637, 34.9536687], [132.4125791, 34.9531886], [132.4120758, 34.952879], [132.4115477, 34.9525686], [132.4113235, 34.9524504], [132.4111157, 34.9523597], [132.4108782, 34.9522745], [132.4106951, 34.9522309], [132.4104988, 34.9521868], [132.4099425, 34.9520863], [132.4094086, 34.9520053], [132.4080135, 34.951767], [132.4075562, 34.9516865], [132.406854, 34.9515647], [132.4060953, 34.9514515], [132.4056963, 34.9514097], [132.4053441, 34.9513974], [132.404514, 34.9514029], [132.4038603, 34.9514179], [132.4034804, 34.9514461], [132.4030481, 34.9515122], [132.4027645, 34.9515749], [132.4026233, 34.9516102], [132.4024689, 34.9516581], [132.4021711, 34.9517617], [132.4018451, 34.9518958], [132.4005069, 34.9525082], [132.4003325, 34.9525808], [132.3985779, 34.9532458], [132.3976267, 34.953588], [132.3965858, 34.9539606], [132.3935864, 34.9550363], [132.392076, 34.9555967], [132.390306, 34.9562217], [132.3896974, 34.9564309], [132.3892013, 34.9565752], [132.3888039, 34.9566607], [132.3885012, 34.9567116], [132.3882307, 34.9567412], [132.3874444, 34.9568141], [132.3869898, 34.9568366], [132.386588, 34.9568331], [132.3862098, 34.956803], [132.385533, 34.9567457], [132.3851566, 34.9567029], [132.3847512, 34.9566509], [132.3844195, 34.9566097], [132.3841719, 34.9565881], [132.3839344, 34.9565699], [132.3835148, 34.956551], [132.3831784, 34.9565411], [132.3827672, 34.9565353], [132.3823706, 34.9565303], [132.3822219, 34.9565274], [132.381274, 34.9565579], [132.3809481, 34.9565762], [132.379003, 34.9567333], [132.3774192, 34.9568514], [132.376665, 34.9569147], [132.3745747, 34.9570842], [132.3741334, 34.9571047], [132.3737948, 34.9570946], [132.3735187, 34.9570655], [132.3732055, 34.9570095], [132.3729025, 34.9569291], [132.3726263, 34.9568262], [132.3723953, 34.9567266], [132.3721854, 34.9566163], [132.3720067, 34.9565135], [132.3715784, 34.9562222], [132.3714142, 34.9561183], [132.3713028, 34.9560495], [132.3710854, 34.9559306], [132.3709369, 34.9558656], [132.3706709, 34.9557687], [132.370411, 34.9556975], [132.3702039, 34.9556571], [132.3699727, 34.9556297], [132.3696245, 34.955603], [132.3692671, 34.9555854], [132.3689809, 34.9555797], [132.3686662, 34.955591], [132.3683932, 34.95563], [132.3681102, 34.9556781], [132.3678625, 34.9557375], [132.3676488, 34.9558127], [132.3673509, 34.9559371], [132.367014, 34.9561221], [132.366778, 34.9562892], [132.3666241, 34.9564406], [132.3665133, 34.9565857], [132.3664338, 34.9567448], [132.3663917, 34.9568507], [132.3663518, 34.9569885], [132.3662984, 34.9572303], [132.3657085, 34.9606616], [132.3656604, 34.960876], [132.36561, 34.9610472], [132.3655516, 34.9611733], [132.3654816, 34.9612917], [132.3654137, 34.9613915], [132.365333, 34.9614993], [132.3652309, 34.961615], [132.3651114, 34.9617291], [132.3649779, 34.9618355], [132.3648255, 34.9619409], [132.3646492, 34.9620414], [132.3643413, 34.962201], [132.3639309, 34.9624088], [132.363667, 34.9625224], [132.3635726, 34.9625548], [132.3634519, 34.9625867], [132.3633445, 34.9626099], [132.3632275, 34.9626323], [132.3630999, 34.9626425], [132.3626557, 34.9626733], [132.3623833, 34.9626792], [132.3623015, 34.9626801], [132.3622138, 34.9626767], [132.3621147, 34.9626693], [132.3619256, 34.9626437], [132.361748, 34.9626015], [132.3615726, 34.9625371], [132.3612714, 34.9624133], [132.3611446, 34.9623548], [132.3610224, 34.9622952], [132.3609047, 34.9622283], [132.3607582, 34.9621289], [132.3606238, 34.9620263], [132.3605167, 34.9619409], [132.3604324, 34.9618657], [132.3602627, 34.961701], [132.360121, 34.9615531], [132.3599084, 34.9613482], [132.3598139, 34.9612666], [132.3597059, 34.9611966], [132.3595759, 34.9611265], [132.3594556, 34.9610825], [132.3592829, 34.9610294], [132.3588116, 34.9608942], [132.3582686, 34.9607301], [132.3578719, 34.9606072], [132.3576419, 34.96054], [132.3572008, 34.9604167], [132.3567443, 34.9603167], [132.356299, 34.9602541], [132.3556854, 34.9602006], [132.3545576, 34.9600951], [132.3541884, 34.9600479], [132.3539082, 34.9599796], [132.3536269, 34.9598848], [132.3534089, 34.9597975], [132.3529845, 34.9596265], [132.3528008, 34.9595601], [132.3526427, 34.9595137], [132.3524321, 34.9594693], [132.3522034, 34.9594282], [132.3519304, 34.9593901], [132.3504878, 34.9592574], [132.3494208, 34.9591726], [132.3481141, 34.9590513], [132.347116, 34.9589609], [132.3462341, 34.9588824], [132.3460229, 34.9588565], [132.3458271, 34.9588135], [132.3455969, 34.9587415], [132.3454227, 34.9586674], [132.3452725, 34.9585858], [132.3450741, 34.9584567], [132.3449352, 34.958332], [132.3448134, 34.9582177], [132.3447212, 34.9581096], [132.3444158, 34.9577152], [132.3443024, 34.9575862], [132.3441766, 34.9574749], [132.3440334, 34.9573737], [132.3438442, 34.9572618], [132.3436524, 34.9571712], [132.3434613, 34.9571002], [132.343321, 34.9570619], [132.3431424, 34.9570307], [132.3429966, 34.9570147], [132.34282, 34.9570073], [132.3425917, 34.9570132], [132.3423679, 34.9570421], [132.3421396, 34.9570937], [132.3419248, 34.9571651], [132.3417724, 34.9572241], [132.3412157, 34.9574711], [132.3408563, 34.9576361], [132.3406707, 34.957725], [132.3404822, 34.9578408], [132.3403689, 34.9579408], [132.3402954, 34.9580216], [132.3402288, 34.9581241], [132.3401849, 34.9582168], [132.3401468, 34.9583246], [132.3400603, 34.9587075], [132.3400113, 34.9588998], [132.3399509, 34.9590798], [132.3398757, 34.9592408], [132.3397812, 34.9594066], [132.3396718, 34.9595524], [132.3395373, 34.9596978], [132.3393541, 34.9598554], [132.3391285, 34.9600001], [132.3388524, 34.9601667], [132.3385877, 34.9603094], [132.3382859, 34.9604844], [132.3381571, 34.9605537], [132.3379622, 34.9606482], [132.3377678, 34.9607567], [132.3375795, 34.9608835], [132.3374326, 34.9609905], [132.3373365, 34.9610805], [132.3372319, 34.9611797], [132.3371296, 34.9612883], [132.3370435, 34.961394], [132.336881, 34.9616113], [132.3367653, 34.9617564], [132.3366205, 34.9619124], [132.3364568, 34.962066], [132.3362935, 34.9621887], [132.3359137, 34.9624604], [132.3356557, 34.9626585], [132.3354609, 34.9628524], [132.3351643, 34.9631688], [132.3343682, 34.9640234], [132.3340797, 34.9643257], [132.3337813, 34.9646441], [132.3333492, 34.9650874], [132.3330233, 34.9654365], [132.3327723, 34.9656942], [132.3324827, 34.9659958], [132.3320769, 34.9663897], [132.3316663, 34.9667778], [132.3313537, 34.9670578], [132.331059, 34.9673244], [132.3304286, 34.9678602], [132.3299692, 34.9682492], [132.3293357, 34.968772], [132.3290364, 34.9690224], [132.3288094, 34.9691597], [132.3285813, 34.9692508], [132.3281622, 34.9693604], [132.3280245, 34.9693746], [132.3277623, 34.9694045], [132.3275659, 34.9694245], [132.3243238, 34.9699482], [132.3219107, 34.9703484], [132.321523, 34.9704438], [132.3211383, 34.9705767], [132.3208526, 34.9707055], [132.3205608, 34.9708702], [132.3203748, 34.9710041], [132.3201163, 34.9712124], [132.3198509, 34.971452], [132.3194434, 34.9718604], [132.3191499, 34.972142], [132.3188831, 34.9723759], [132.3187057, 34.9725108], [132.3185649, 34.9725871], [132.3180768, 34.972811], [132.3178839, 34.9729118], [132.3177632, 34.9730085], [132.317342, 34.973433], [132.3172109, 34.9735666], [132.3170329, 34.9737052], [132.3168634, 34.973823], [132.316518, 34.9740177], [132.316338, 34.9740814], [132.3160273, 34.9741533], [132.315862, 34.9741992], [132.3156797, 34.9742889], [132.3154921, 34.9744091], [132.3153599, 34.9745337], [132.3152847, 34.9745998], [132.3151003, 34.9747386], [132.3148475, 34.9748964], [132.3144943, 34.975096], [132.3142462, 34.9752362], [132.3134074, 34.9757327], [132.3133028, 34.9757912], [132.3132521, 34.9758227], [132.3124252, 34.9763093], [132.3121574, 34.9764615], [132.3114668, 34.9767867], [132.3101086, 34.9773251], [132.3094367, 34.9775758], [132.3091318, 34.9777138], [132.3089447, 34.9778144], [132.3084298, 34.9781293], [132.3079132, 34.9784649], [132.3077536, 34.9785635], [132.3075828, 34.978658], [132.3071642, 34.9788572], [132.3067925, 34.9789931], [132.306664, 34.9790375], [132.3060276, 34.9792496], [132.3057645, 34.9793501], [132.3054715, 34.9794717], [132.3051679, 34.9796093], [132.3043167, 34.9800498], [132.3034273, 34.9805186], [132.3030741, 34.9806874], [132.3027566, 34.9807931], [132.3024516, 34.9808652], [132.30178, 34.98098], [132.3013594, 34.9810548], [132.3011429, 34.9810936], [132.3009463, 34.9811457], [132.300743, 34.9812165], [132.3005292, 34.9813092], [132.2999415, 34.981644], [132.2997799, 34.9817437], [132.2993457, 34.9820031], [132.2990188, 34.9822213], [132.2989014, 34.9823283], [132.2987777, 34.9824836], [132.2986883, 34.9826536], [132.2985803, 34.9829099], [132.2983347, 34.9835761], [132.2981319, 34.9839507], [132.2979813, 34.9842514], [132.2977349, 34.9846755], [132.2976531, 34.9848336], [132.2976072, 34.9850024], [132.2975796, 34.9851492], [132.2975797, 34.9853277], [132.2976077, 34.986293], [132.2975869, 34.9866334], [132.2975164, 34.9869591], [132.2974185, 34.9872992], [132.2968967, 34.9886294], [132.2967236, 34.9890623], [132.296662, 34.989179], [132.2965557, 34.9893421], [132.2964708, 34.9894552], [132.2961244, 34.9898977], [132.2960287, 34.9900313], [132.2959263, 34.9902075], [132.2955915, 34.9908865], [132.2954734, 34.9910809], [132.2953779, 34.9912034], [132.2946581, 34.9919787], [132.2945733, 34.9920575], [132.2944718, 34.9921916], [132.2942083, 34.9926253], [132.2941074, 34.9927658], [132.2940092, 34.9928716], [132.2938673, 34.9929878], [132.2935606, 34.9931968], [132.2934662, 34.9932696], [132.2933455, 34.9934214], [132.2928996, 34.9941739], [132.2925821, 34.9947225], [132.2924489, 34.9950027], [132.2923607, 34.995215], [132.2923115, 34.9953321], [132.2921243, 34.9959344], [132.2920199, 34.996212], [132.2919056, 34.9964731], [132.2917912, 34.996697], [132.2914572, 34.997207], [132.2902791, 34.9984653], [132.2900513, 34.9986612], [132.2898939, 34.9987834], [132.2897324, 34.9988878], [132.2896165, 34.9989347], [132.2895023, 34.9989641], [132.2893893, 34.9989754], [132.2892502, 34.9989837], [132.2891139, 34.9989721], [132.2889943, 34.9989527], [132.2884385, 34.9988275], [132.2882811, 34.9988003], [132.2881127, 34.9987876], [132.288, 34.998783], [132.2878801, 34.9987898], [132.2877403, 34.9988058], [132.2875589, 34.9988214], [132.2874215, 34.9988207], [132.2872323, 34.9987978], [132.2870391, 34.9987676], [132.2869099, 34.9987523], [132.2867826, 34.9987409], [132.2866464, 34.9987388], [132.2863917, 34.9987489], [132.2861944, 34.9987629], [132.2858302, 34.9988024], [132.2854213, 34.9988354], [132.2852937, 34.9988457], [132.2851572, 34.998871], [132.2842902, 34.9991065], [132.2839971, 34.9991766], [132.2836273, 34.9992477], [132.283511, 34.9992672], [132.2833221, 34.9993093], [132.2831563, 34.9993516], [132.2829792, 34.9994163], [132.2827744, 34.999526], [132.2824823, 34.9997373], [132.2819976, 35.0001486], [132.2818083, 35.0003116], [132.2816158, 35.0004878], [132.2814318, 35.0006988], [132.281314, 35.0008742], [132.2812033, 35.0010657], [132.2811238, 35.0012695], [132.2810078, 35.0015847], [132.2808559, 35.0020378], [132.2806025, 35.0027903], [132.2805408, 35.0030928], [132.2805236, 35.0032684], [132.2805286, 35.0034069], [132.2805406, 35.0035646], [132.2805693, 35.0037364], [132.2806366, 35.0039983], [132.2809627, 35.0049955], [132.2810259, 35.0052423], [132.2810673, 35.0054681], [132.2810819, 35.0056443], [132.2810794, 35.0057947], [132.2810557, 35.0059622], [132.2810247, 35.0061102], [132.2809768, 35.0062517], [132.2809006, 35.0064052], [132.2807752, 35.006625], [132.2805643, 35.0069137], [132.2804214, 35.007133], [132.280373, 35.007204], [132.280021, 35.007606], [132.279972, 35.007662], [132.2798726, 35.0077387], [132.2797991, 35.0077789], [132.279707, 35.0078239], [132.2795805, 35.0078734], [132.279479, 35.0079009], [132.2790039, 35.0080196], [132.2787688, 35.0080801], [132.2786351, 35.0081137], [132.278571, 35.0081198], [132.2785041, 35.0081194], [132.2784346, 35.0081126], [132.2783528, 35.0080923], [132.2781249, 35.0080328], [132.2780352, 35.0080205], [132.277954, 35.008018], [132.2778799, 35.008018], [132.2778142, 35.0080244], [132.2777227, 35.0080408], [132.2774963, 35.0080988], [132.2774346, 35.008108], [132.277349, 35.0081054], [132.2772743, 35.0080879], [132.2771241, 35.0080416], [132.2764666, 35.007812], [132.2755112, 35.0074643], [132.275186, 35.0073425], [132.2750014, 35.0072707], [132.274947, 35.0072487], [132.2748809, 35.0072139], [132.2748149, 35.0071638], [132.2747784, 35.0071348], [132.2747323, 35.0070852], [132.2746926, 35.0070226], [132.2746669, 35.0069576], [132.2746441, 35.0068895], [132.2746315, 35.0068403], [132.2745973, 35.0066712], [132.2745817, 35.006606], [132.2745615, 35.0065482], [132.2745301, 35.0064895], [132.2744959, 35.006431], [132.2743971, 35.006306], [132.2742347, 35.0061409], [132.2741199, 35.0060491], [132.2740005, 35.0059895], [132.2738533, 35.0059322], [132.2737511, 35.0058972], [132.2736375, 35.0058464], [132.2735597, 35.0058038], [132.2734223, 35.0057089], [132.2732601, 35.0055993], [132.2731288, 35.0055051], [132.272971, 35.0053891], [132.2728234, 35.0052735], [132.2727943, 35.0052423], [132.2727634, 35.0051977], [132.2726334, 35.0049856], [132.2725945, 35.004926], [132.2725607, 35.0048914], [132.2725096, 35.0048583], [132.2724455, 35.0048213], [132.2723571, 35.0047827], [132.2715712, 35.0044773], [132.271301, 35.0043847], [132.2711201, 35.0043478], [132.2710118, 35.0043402], [132.2709411, 35.0043391], [132.2708501, 35.0043414], [132.2706858, 35.0043651], [132.269157, 35.0046998], [132.2689786, 35.0047363], [132.2687591, 35.0047727], [132.2682715, 35.0048217], [132.2671647, 35.0049335], [132.2660885, 35.0050514], [132.2658884, 35.0050648], [132.2656334, 35.0050669], [132.2653051, 35.005049], [132.2648738, 35.0050268], [132.2645627, 35.005], [132.2643441, 35.0049621], [132.2639996, 35.0048713], [132.2634304, 35.0047301], [132.2632495, 35.0046989], [132.263082, 35.004691], [132.2629761, 35.0046967], [132.2628786, 35.0047041], [132.2622343, 35.0048048], [132.2616018, 35.004901], [132.2614478, 35.0049075], [132.2613228, 35.0049094], [132.2611003, 35.0048834], [132.2605261, 35.0047468], [132.2603001, 35.0046685], [132.2594927, 35.0042995], [132.2593898, 35.0042515], [132.2592813, 35.0042219], [132.259177, 35.004208], [132.258649, 35.0041865], [132.2584787, 35.0041929], [132.2583711, 35.0042081], [132.2582631, 35.0042376], [132.2581606, 35.0042834], [132.2579685, 35.0044195], [132.2574182, 35.004822], [132.2571835, 35.004991], [132.2570305, 35.0051284], [132.256721, 35.005434], [132.256387, 35.005904], [132.2562872, 35.0060665], [132.256193, 35.0062311], [132.2561262, 35.0063813], [132.255807, 35.0074022], [132.2554322, 35.0085675], [132.2550965, 35.0096525], [132.2550023, 35.0099125], [132.2549509, 35.0100097], [132.2548586, 35.0101502], [132.2547222, 35.0103187], [132.2546244, 35.0104325], [132.2545507, 35.01051], [132.2544633, 35.0105729], [132.2543755, 35.0106195], [132.2542685, 35.0106514], [132.2541534, 35.0106776], [132.2537478, 35.0107355], [132.2536132, 35.0107639], [132.2534917, 35.0107961], [132.2533604, 35.0108512], [132.252769, 35.011143], [132.2524882, 35.0112642], [132.2522953, 35.0113375], [132.2521704, 35.0113724], [132.252132, 35.0113804], [132.2519821, 35.0114028], [132.2518137, 35.011411], [132.2516688, 35.0114115], [132.2515269, 35.0114032], [132.2514016, 35.0113861], [132.2512481, 35.0113509], [132.2511054, 35.0113098], [132.2509226, 35.0112352], [132.2507899, 35.0111617], [132.2506593, 35.0110813], [132.2503033, 35.0108715], [132.2497056, 35.0105147], [132.2490641, 35.0101009], [132.2487224, 35.0098862], [132.248406, 35.0096638], [132.2472838, 35.0088179], [132.2471203, 35.0087026], [132.2469082, 35.0085807], [132.2466502, 35.0084478], [132.2460285, 35.0081407], [132.2457841, 35.0080199], [132.2456708, 35.0079479], [132.245546, 35.0078643], [132.2454365, 35.0077677], [132.2453423, 35.0076795], [132.2449429, 35.0072333], [132.2447132, 35.0069611], [132.24453, 35.0067128], [132.2443046, 35.0063708], [132.2441312, 35.006048], [132.2439915, 35.0057275], [132.243883, 35.0054371], [132.2437564, 35.0049673], [132.2435886, 35.0042257], [132.2435027, 35.0038427], [132.24344, 35.0036365], [132.2433614, 35.0034643], [132.2432703, 35.0033299], [132.2431492, 35.0031763], [132.2429798, 35.0030242], [132.2427818, 35.002893], [132.2425449, 35.0027764], [132.2423139, 35.0027041], [132.2420242, 35.0026511], [132.241763, 35.002635], [132.241514, 35.0026507], [132.2408691, 35.0027155], [132.2408121, 35.0027237], [132.2406847, 35.0027419], [132.2405155, 35.0027736], [132.2403415, 35.002825], [132.2398561, 35.0029737], [132.2394783, 35.0030802], [132.2391581, 35.0031658], [132.2389997, 35.0032082], [132.2388328, 35.003269], [132.2387154, 35.0033117], [132.2384052, 35.0034438], [132.2378682, 35.0036945], [132.2376241, 35.003829], [132.2374586, 35.0039463], [132.2372245, 35.0041573], [132.2370137, 35.0043801], [132.2368129, 35.0046169], [132.2364129, 35.0051897], [132.2361903, 35.0055235], [132.235971, 35.0058448], [132.2358292, 35.0060886], [132.2356666, 35.0063892], [132.235583, 35.0065796], [132.2355059, 35.0067695], [132.2354214, 35.0070271], [132.2351897, 35.0079138], [132.2348484, 35.0092527], [132.2347323, 35.0097152], [132.2346959, 35.009943], [132.2346899, 35.01012], [132.2347073, 35.0103576], [132.234731, 35.010532], [132.2347688, 35.0108337], [132.2347893, 35.011], [132.2348311, 35.0111521], [132.2348719, 35.0112604], [132.2349382, 35.0113918], [132.2350114, 35.0115091], [132.2353667, 35.0119715], [132.2355194, 35.0122027], [132.2356658, 35.0124365], [132.2358132, 35.0126769], [132.2358892, 35.0128323], [132.235934, 35.0129568], [132.2359559, 35.013078], [132.2359567, 35.013213], [132.2359383, 35.0133271], [132.2358932, 35.0134594], [132.2358592, 35.0135196], [132.2358062, 35.0136066], [132.2357426, 35.0136937], [132.235656, 35.0137711], [132.2355553, 35.0138475], [132.2354476, 35.0139158], [132.2352774, 35.0140246], [132.2349675, 35.0141987], [132.2347299, 35.0143357], [132.2345436, 35.0144451]]]}, "id": "relation/8171702"}, {"type": "Feature", "properties": {"@id": "relation/10290603", "description": "桜江トンエルの旧道区間", "name": "国道261号旧道", "network": "JP:national", "ref": "261", "route": "road", "type": "route"}, "geometry": {"type": "MultiLineString", "coordinates": [[[132.3198509, 34.971452], [132.319767, 34.9713731], [132.31974, 34.9713188], [132.3197137, 34.971246], [132.3197198, 34.9711862], [132.3197532, 34.9711369], [132.3198342, 34.9710601], [132.3199579, 34.9709963], [132.3200782, 34.9709326], [132.3202233, 34.9708081], [132.3204805, 34.9705475], [132.3207189, 34.9701987], [132.3208136, 34.9700414], [132.3208884, 34.9699235], [132.3209392, 34.9698078], [132.3212143, 34.9691508], [132.3212553, 34.9690517], [132.3212807, 34.9689443], [132.3212904, 34.9688168], [132.3212837, 34.9687044], [132.3212476, 34.968596], [132.3210648, 34.9681916], [132.320973, 34.968001], [132.3209467, 34.9679173], [132.3209421, 34.9678337], [132.3209533, 34.9677588], [132.3209806, 34.9676722], [132.3210285, 34.9675857], [132.3210916, 34.9675218], [132.3211592, 34.9674699], [132.3212427, 34.9674406], [132.3213431, 34.9674161], [132.3214372, 34.9674061], [132.3215643, 34.9674203], [132.3216662, 34.9674446], [132.3218253, 34.9675239], [132.3225837, 34.9679241], [132.3228486, 34.9680237], [132.3231123, 34.9680866], [132.3233545, 34.9681708], [132.3235574, 34.9682853], [132.3236878, 34.9683572], [132.3242748, 34.9685968], [132.3245753, 34.968708], [132.3249098, 34.9688175], [132.3250601, 34.9688255], [132.3251793, 34.9687839], [132.3253165, 34.9686995], [132.325534, 34.9686051], [132.325726, 34.9685311], [132.3259019, 34.968513], [132.3260232, 34.9685198], [132.326128, 34.968554], [132.3262263, 34.9686179], [132.3263579, 34.9687195], [132.32654, 34.9689485], [132.326621, 34.969019], [132.3268592, 34.9691736], [132.32694, 34.9692071], [132.3275776, 34.969338], [132.3277623, 34.9694045]]]}, "id": "relation/10290603"}]}