{"type": "FeatureCollection", "generator": "kokudo-quiz tools/fetch_raw.py (Overpass API)", "copyright": "The data included in this document is from www.openstreetmap.org. The data is made available under ODbL.", "timestamp": "2026-09-30T16:10:20Z", "features": [{"type": "Feature", "properties": {"@id": "relation/6594518", "colour": "red", "cycleway": "track", "from": "青森県青森市", "name": "国道280号", "name:en": "National Highway Route 280", "name:ja": "国道280号", "name:zh": "国道280号", "network": "JP:national", "operator": "北海道開発局;青森県", "ref": "280", "route": "road", "to": "北海道函館市", "type": "route", "wikidata": "Q6157115", "wikipedia": "ja:国道280号"}, "geometry": {"type": "MultiLineString", "coordinates": [[[140.7284285, 40.8253457], [140.728456, 40.825467], [140.7284672, 40.8258734], [140.7284676, 40.8259758], [140.7284649, 40.8262366], [140.7284644, 40.8269511], [140.7284641, 40.8273469], [140.728464, 40.827455], [140.7284619, 40.8275348], [140.7284573, 40.8277132], [140.7284469, 40.8279946], [140.7284467, 40.8288843], [140.7284427, 40.8291883], [140.7284483, 40.8296028], [140.7284422, 40.8297712], [140.7283149, 40.8298367], [140.7281916, 40.8298914], [140.7280684, 40.8299481], [140.727628, 40.8301403], [140.7273212, 40.8302741], [140.7272447, 40.8303075], [140.7267908, 40.8305085], [140.7262699, 40.8307392], [140.726199, 40.8307744], [140.7258063, 40.8309702], [140.7255826, 40.8310908], [140.725331, 40.8312211], [140.7251447, 40.8313334], [140.7249764, 40.831453], [140.724757, 40.8316268], [140.7247352, 40.8316422], [140.7246335, 40.8317546], [140.7245261, 40.8318801], [140.7242864, 40.8321295], [140.7239967, 40.832441], [140.7239273, 40.8325155], [140.7238429, 40.8326074], [140.7232314, 40.8332733], [140.7231674, 40.8333947], [140.7231608, 40.8334851], [140.7231673, 40.8335321], [140.723201, 40.8336424], [140.7232749, 40.8337403], [140.7234161, 40.833894], [140.7238577, 40.834338], [140.7239503, 40.834431], [140.7239906, 40.8344715], [140.7242533, 40.834714], [140.7243105, 40.8347657], [140.72436, 40.8348105], [140.7243356, 40.8349148], [140.7242967, 40.8349959], [140.7240867, 40.8351543], [140.7240496, 40.8351846], [140.7236683, 40.8354969], [140.7236351, 40.8355233], [140.7234292, 40.835687], [140.7233629, 40.8357397], [140.7230094, 40.8360208], [140.7226948, 40.8362709], [140.7224686, 40.8364262], [140.7222367, 40.8365855], [140.7219774, 40.8367635], [140.7219467, 40.8367846], [140.7217167, 40.8369425], [140.721563, 40.837048], [140.7214027, 40.8371581], [140.7212753, 40.8372456], [140.7211008, 40.8373594], [140.7209623, 40.8374497], [140.7205664, 40.8377078], [140.7202296, 40.8379402], [140.7201242, 40.8380081], [140.7196087, 40.8383401], [140.7193801, 40.8384926], [140.7192561, 40.8385627], [140.7192061, 40.8385909], [140.7190227, 40.8386946], [140.718915, 40.8387555], [140.7187802, 40.838847], [140.7187235, 40.8388895], [140.7186332, 40.8389571], [140.7184533, 40.839092], [140.7183665, 40.839157], [140.7183102, 40.8391992], [140.7182316, 40.8392559], [140.7178857, 40.8395117], [140.7174975, 40.8397987], [140.7167736, 40.8403143], [140.7161169, 40.8407821], [140.7156528, 40.8410471], [140.7152436, 40.8412625], [140.7149962, 40.8413749], [140.7147239, 40.8414816], [140.7141244, 40.841799], [140.7139968, 40.8418715], [140.7138934, 40.8419318], [140.7134818, 40.8421718], [140.7128784, 40.8424933], [140.7126151, 40.8426376], [140.7121667, 40.8428569], [140.7119103, 40.842983], [140.7116855, 40.8431077], [140.7114275, 40.8432721], [140.7112076, 40.8433849], [140.7103459, 40.8437954], [140.709778, 40.8441231], [140.7097297, 40.8441515], [140.7096413, 40.8442035], [140.7093404, 40.8443456], [140.709216, 40.8444044], [140.7089644, 40.8445118], [140.7088921, 40.8445475], [140.708414, 40.8447838], [140.7083095, 40.8448397], [140.7081761, 40.8449112], [140.7078959, 40.8450816], [140.7078351, 40.8451184], [140.7076312, 40.8452627], [140.7072193, 40.8455176], [140.707011, 40.8456409], [140.7067554, 40.8457921], [140.7065221, 40.8459301], [140.7061827, 40.846131], [140.7055709, 40.8464943], [140.704982, 40.8468786], [140.7043954, 40.8473286], [140.703977, 40.8476376], [140.7035145, 40.8479464], [140.7031363, 40.8482185], [140.7027925, 40.8484658], [140.7026907, 40.8485391], [140.7024273, 40.8487536], [140.7023525, 40.8488145], [140.7022606, 40.848888], [140.7022372, 40.8489069], [140.7021512, 40.8489768], [140.7018404, 40.8492532], [140.7015494, 40.8495183], [140.7010069, 40.8499914], [140.7007491, 40.8502162], [140.7006085, 40.8503389], [140.7004437, 40.8504826], [140.7002647, 40.8506387], [140.700074, 40.8508076], [140.6997272, 40.8511144], [140.6996607, 40.8511733], [140.6989797, 40.851775], [140.6989478, 40.8518032], [140.6982591, 40.8523884], [140.6981493, 40.8524823], [140.697711, 40.8528577], [140.6975805, 40.8529726], [140.6975527, 40.8529992], [140.6973471, 40.853192], [140.6969658, 40.8535496], [140.6968433, 40.8536645], [140.6967866, 40.8537167], [140.6962748, 40.8541875], [140.6960989, 40.8543497], [140.6960248, 40.8544276], [140.6955779, 40.8548861], [140.6955017, 40.8549875], [140.6954416, 40.8551108], [140.6954163, 40.8551804], [140.6951813, 40.8556793], [140.6949199, 40.8559642], [140.6948891, 40.8560007], [140.6947282, 40.8561638], [140.6944575, 40.8564162], [140.6943777, 40.8564907], [140.6943603, 40.8565048], [140.6943038, 40.856557], [140.6940243, 40.856815], [140.6936175, 40.8572032], [140.6933588, 40.8574244], [140.6932438, 40.8575238], [140.6927989, 40.8579833], [140.692779, 40.858006], [140.6926822, 40.8581168], [140.6926134, 40.858197], [140.6925112, 40.8583159], [140.6923031, 40.8585824], [140.6921837, 40.8587631], [140.6919769, 40.8590188], [140.6918014, 40.8592358], [140.6910614, 40.8602168], [140.690817, 40.8605469], [140.690669, 40.8607614], [140.690528, 40.8609747], [140.6901178, 40.8615951], [140.6900544, 40.8616823], [140.6899038, 40.8618843], [140.6898693, 40.8619306], [140.6894551, 40.8624504], [140.6893666, 40.8625615], [140.6892275, 40.8627412], [140.6890569, 40.8629532], [140.6886985, 40.8634121], [140.6885868, 40.863544], [140.6884756, 40.8636865], [140.6883818, 40.8638066], [140.6883301, 40.8638728], [140.6879087, 40.864374], [140.6877369, 40.8646064], [140.6876034, 40.8648184], [140.6875179, 40.8649648], [140.6873078, 40.8654465], [140.6872541, 40.8656022], [140.6872457, 40.8656217], [140.6872073, 40.8657097], [140.6871938, 40.8657602], [140.6871237, 40.8659749], [140.687046, 40.8661492], [140.6866625, 40.8666419], [140.6864008, 40.8670551], [140.6863462, 40.8671413], [140.6862245, 40.8673421], [140.6862007, 40.8673812], [140.6861455, 40.8674723], [140.6858757, 40.8678196], [140.6854371, 40.8684094], [140.6853368, 40.8685444], [140.6848975, 40.8691339], [140.6847883, 40.8692725], [140.6845722, 40.8695469], [140.6844321, 40.8697195], [140.6839315, 40.8701902], [140.683906, 40.8702158], [140.6838357, 40.8703084], [140.68364, 40.8705961], [140.6836065, 40.8706454], [140.6834961, 40.8708185], [140.6834082, 40.8709574], [140.6833764, 40.8710075], [140.6831177, 40.8713582], [140.6829177, 40.871598], [140.6827816, 40.8717649], [140.6827433, 40.8718118], [140.6826941, 40.8718722], [140.6825318, 40.8720697], [140.6821265, 40.8725628], [140.6815844, 40.8733056], [140.6811942, 40.8738943], [140.6811091, 40.8740707], [140.6810065, 40.8743396], [140.6808628, 40.8747491], [140.6806675, 40.8751638], [140.6804723, 40.8756099], [140.6803873, 40.8757923], [140.6803031, 40.8759731], [140.6802307, 40.8761613], [140.6802079, 40.8763318], [140.6802062, 40.8765234], [140.6802335, 40.8766985], [140.6802396, 40.8767212], [140.6802478, 40.8767701], [140.6802518, 40.8767999], [140.6802634, 40.8768509], [140.6802863, 40.877017], [140.6802806, 40.8770736], [140.6802659, 40.8772088], [140.6802348, 40.8773526], [140.6801788, 40.8774901], [140.6800577, 40.8777067], [140.6800207, 40.8777756], [140.6799466, 40.8779135], [140.679884, 40.87803], [140.6798638, 40.8780674], [140.6797842, 40.8782179], [140.6796746, 40.8784288], [140.679583, 40.8786258], [140.6795149, 40.8788134], [140.6794769, 40.87895], [140.6793327, 40.8793811], [140.6792855, 40.8795142], [140.6791197, 40.8798833], [140.6788938, 40.8802973], [140.6786665, 40.8806394], [140.6786038, 40.8807264], [140.678593, 40.8807531], [140.6783518, 40.8813493], [140.6782971, 40.8814845], [140.6782774, 40.8815312], [140.6782, 40.8817397], [140.6780646, 40.8821044], [140.6779782, 40.882315], [140.6778757, 40.8825648], [140.6776993, 40.8829947], [140.6776297, 40.883199], [140.6776022, 40.8832737], [140.6775746, 40.8833639], [140.6775654, 40.8833939], [140.677259, 40.884394], [140.6772203, 40.8845067], [140.6772071, 40.8845452], [140.6771421, 40.8847286], [140.6770303, 40.8850397], [140.6768731, 40.8854827], [140.6766714, 40.8859899], [140.6766487, 40.8860471], [140.6766066, 40.8861528], [140.6765478, 40.8862836], [140.676319, 40.8866375], [140.676291, 40.8866784], [140.67603, 40.8870386], [140.6758327, 40.8873858], [140.6756612, 40.8877758], [140.6755676, 40.8879887], [140.6755149, 40.8881084], [140.6753865, 40.888413], [140.675364, 40.8884679], [140.6752195, 40.8888204], [140.6751907, 40.8888905], [140.6750644, 40.8891986], [140.6750169, 40.8893524], [140.6749651, 40.8895215], [140.6749587, 40.8895771], [140.6749389, 40.8896528], [140.6749017, 40.8898772], [140.6748512, 40.8901038], [140.6747904, 40.8904414], [140.6747017, 40.8908197], [140.6746921, 40.8908607], [140.6746344, 40.8910685], [140.6745736, 40.891286], [140.6745472, 40.8913827], [140.6744931, 40.8916063], [140.674434, 40.8918507], [140.6743952, 40.8920113], [140.6743857, 40.8920545], [140.6743554, 40.8921924], [140.6742266, 40.8929021], [140.6741984, 40.8930618], [140.6741623, 40.8932664], [140.674157, 40.8932965], [140.6741526, 40.8933216], [140.674113, 40.8936498], [140.6740724, 40.8939857], [140.6740709, 40.8941442], [140.6740677, 40.8944852], [140.6740425, 40.8948346], [140.6740139, 40.8952324], [140.6739474, 40.8955463], [140.6739032, 40.8957686], [140.6738937, 40.8958161], [140.6738774, 40.8958981], [140.6738537, 40.8960453], [140.6738716, 40.8962072], [140.673901, 40.8963038], [140.6739355, 40.8963994], [140.6739492, 40.8964375], [140.6740524, 40.8967522], [140.6740593, 40.896831], [140.6740668, 40.8970345], [140.6740667, 40.8970818], [140.6740663, 40.8972388], [140.6740512, 40.8973893], [140.6740432, 40.8975468], [140.6740221, 40.8977982], [140.6739954, 40.8980737], [140.6739912, 40.8981327], [140.6739538, 40.8984652], [140.6739399, 40.898575], [140.6739371, 40.898597], [140.6739347, 40.8986256], [140.6739211, 40.8987863], [140.6739112, 40.8989146], [140.6738752, 40.8990982], [140.6738058, 40.899468], [140.6737392, 40.8998002], [140.6736907, 40.9003142], [140.6736358, 40.9008972], [140.6736098, 40.9014098], [140.6736023, 40.9015287], [140.6735841, 40.9018126], [140.6735946, 40.9025274], [140.6735968, 40.9026761], [140.67358, 40.902839], [140.6735601, 40.9030005], [140.6734912, 40.9032163], [140.6734773, 40.9032599], [140.6734729, 40.9032737], [140.6734035, 40.9034952], [140.6733016, 40.9038675], [140.673274, 40.9039682], [140.6731105, 40.9044801], [140.6730921, 40.9045378], [140.6728796, 40.9051422], [140.6728494, 40.9053056], [140.672833, 40.9054516], [140.6728312, 40.9054907], [140.6728144, 40.9056984], [140.6727943, 40.9060307], [140.6727754, 40.9062562], [140.6727732, 40.906286], [140.6727589, 40.9066968], [140.6727561, 40.9070693], [140.6727357, 40.9073013], [140.6726904, 40.9075065], [140.672665, 40.9076258], [140.6726199, 40.9077357], [140.6724729, 40.9080672], [140.6724495, 40.9081245], [140.6722635, 40.9085093], [140.6720586, 40.9089083], [140.6720101, 40.9089915], [140.6718466, 40.9094744], [140.6717799, 40.909627], [140.6715899, 40.9100622], [140.6714847, 40.9102864], [140.6714006, 40.9105533], [140.6713473, 40.9108318], [140.6713365, 40.910888], [140.6712907, 40.911021], [140.6712363, 40.9111791], [140.6711592, 40.9115729], [140.6710607, 40.912059], [140.671029, 40.9122123], [140.6710228, 40.9122424], [140.6710212, 40.91225], [140.6709742, 40.9124325], [140.6708293, 40.9128936], [140.6708196, 40.9129183], [140.6706828, 40.913406], [140.6705756, 40.9140005], [140.6705587, 40.9140517], [140.6704766, 40.9143013], [140.6703897, 40.9145699], [140.670309, 40.9147764], [140.6702727, 40.9148693], [140.6701082, 40.9153112], [140.6699248, 40.9158531], [140.6698649, 40.9160435], [140.6698477, 40.9160981], [140.6697471, 40.9165128], [140.6696483, 40.9170204], [140.6694831, 40.9173712], [140.6693941, 40.9175183], [140.6693066, 40.9177314], [140.6692494, 40.9179319], [140.6692504, 40.9179651], [140.6692711, 40.9186291], [140.6692461, 40.9187892], [140.6690874, 40.9191871], [140.6689532, 40.9195235], [140.6687649, 40.9199669], [140.6686936, 40.9200815], [140.6685853, 40.9202557], [140.6684619, 40.9204542], [140.6681376, 40.9208971], [140.668123, 40.9209469], [140.6680995, 40.9210272], [140.6679661, 40.9214835], [140.667879, 40.9219562], [140.6677919, 40.9221904], [140.6677015, 40.9223827], [140.6674487, 40.9229753], [140.6674172, 40.9230506], [140.6673368, 40.9232428], [140.6672771, 40.9235098], [140.6672645, 40.9236334], [140.6672622, 40.9236562], [140.6672363, 40.9239075], [140.6672145, 40.9241184], [140.6671935, 40.9244139], [140.6671899, 40.9244621], [140.6671716, 40.9247104], [140.6671133, 40.924967], [140.6670923, 40.9250254], [140.6670585, 40.9251573], [140.667001, 40.9253264], [140.66689, 40.9256393], [140.6667588, 40.9260153], [140.6666806, 40.9262061], [140.6665714, 40.9263918], [140.6665049, 40.926505], [140.6663985, 40.9266861], [140.6661962, 40.9269789], [140.6661648, 40.9270312], [140.6661416, 40.9270698], [140.6661083, 40.9271326], [140.6659099, 40.9275064], [140.6658207, 40.9278136], [140.6657076, 40.9281392], [140.6656547, 40.9282804], [140.6655896, 40.9284398], [140.6653892, 40.9289475], [140.6651616, 40.9297735], [140.6650524, 40.9301134], [140.6649575, 40.9303637], [140.6649095, 40.9305177], [140.6648946, 40.9305906], [140.6648305, 40.9309034], [140.6647654, 40.9311191], [140.6646469, 40.9314591], [140.6645323, 40.9317881], [140.6644001, 40.9321329], [140.6643548, 40.932269], [140.6642972, 40.932442], [140.6641757, 40.9328069], [140.6641588, 40.9328497], [140.6639849, 40.9332896], [140.6637508, 40.9338818], [140.6636906, 40.9340415], [140.6635467, 40.9344232], [140.663411, 40.9347833], [140.6633441, 40.9349608], [140.6633241, 40.9350138], [140.6630889, 40.9358085], [140.6630029, 40.936152], [140.6628548, 40.9367191], [140.6627853, 40.9369851], [140.6627161, 40.9372501], [140.6626785, 40.9373789], [140.6625415, 40.9378478], [140.6624929, 40.938046], [140.6624765, 40.9380998], [140.662241, 40.9388728], [140.6622331, 40.9388975], [140.6621961, 40.9390143], [140.6620203, 40.9400131], [140.6619642, 40.9403138], [140.661871, 40.9408044], [140.6618334, 40.9409146], [140.6617126, 40.9412684], [140.661494, 40.9417499], [140.6612959, 40.9421941], [140.6611893, 40.9424332], [140.6610945, 40.9426932], [140.6609027, 40.9432193], [140.660861, 40.9433657], [140.6607832, 40.9436385], [140.6607703, 40.9436837], [140.6607668, 40.9436961], [140.6606388, 40.9441783], [140.6605595, 40.9444617], [140.6605254, 40.944584], [140.6605094, 40.944641], [140.6602424, 40.9453202], [140.6600977, 40.9457873], [140.6603356, 40.9464092], [140.6603965, 40.9465479], [140.6604038, 40.9466186], [140.6602908, 40.9470219], [140.6601628, 40.9474783], [140.6600532, 40.9477926], [140.6598856, 40.9483206], [140.6598756, 40.94848], [140.659885, 40.94885], [140.6598832, 40.9490539], [140.6598646, 40.9493394], [140.6598271, 40.949577], [140.6597766, 40.9498365], [140.6596542, 40.9502816], [140.6595339, 40.9507246], [140.6594995, 40.9508515], [140.659342, 40.9513211], [140.6590628, 40.9517678], [140.6589371, 40.9519478], [140.6586234, 40.9523752], [140.6584742, 40.9526402], [140.6584398, 40.9527983], [140.6583857, 40.9529617], [140.6581858, 40.9536751], [140.6581238, 40.9538964], [140.658006, 40.954317], [140.6579696, 40.9545162], [140.6579053, 40.9548689], [140.6578448, 40.9552253], [140.6578432, 40.9552618], [140.6578207, 40.9554471], [140.6578037, 40.9556512], [140.6578085, 40.9557578], [140.6578161, 40.9559276], [140.6578534, 40.95609], [140.6578882, 40.956242], [140.6578998, 40.956305], [140.6579152, 40.9563886], [140.6579104, 40.9564595], [140.6579084, 40.9567537], [140.6579076, 40.9568647], [140.6578846, 40.9570055], [140.657857, 40.9571737], [140.6578275, 40.957353], [140.6578192, 40.9577099], [140.6578081, 40.9580376], [140.6578061, 40.9581789], [140.6578026, 40.9584321], [140.6577667, 40.9590373], [140.6577557, 40.9591185], [140.6577376, 40.9592524], [140.6576589, 40.9598345], [140.6576469, 40.9599044], [140.6575594, 40.9604089], [140.6574966, 40.9607542], [140.6573689, 40.9614561], [140.6573651, 40.9614769], [140.6572935, 40.9619212], [140.6572842, 40.9620435], [140.6572572, 40.9623037], [140.6572084, 40.9628168], [140.6571802, 40.9630247], [140.6571332, 40.9633708], [140.6571089, 40.9635493], [140.6570922, 40.963695], [140.6570216, 40.9643121], [140.6570012, 40.9644905], [140.657026, 40.9650405], [140.6570128, 40.9651609], [140.6569875, 40.9652764], [140.6568906, 40.965488], [140.6567082, 40.9657301], [140.6565811, 40.9659492], [140.6564844, 40.9661307], [140.6563964, 40.9663014], [140.656302, 40.9665398], [140.6562329, 40.9668284], [140.6561691, 40.9671296], [140.6561543, 40.9672102], [140.656114, 40.9674287], [140.6560753, 40.9677188], [140.656059, 40.9680668], [140.6560598, 40.9683454], [140.6560477, 40.9686244], [140.6560524, 40.9690772], [140.6560396, 40.9694704], [140.6560411, 40.969518], [140.656056, 40.9696803], [140.656081, 40.9698396], [140.6561305, 40.9699292], [140.6562268, 40.9700307], [140.656544, 40.970235], [140.6566454, 40.9703186], [140.6567299, 40.9704049], [140.6567822, 40.9704992], [140.6568275, 40.9706953], [140.6568728, 40.9709519], [140.6568624, 40.9710355], [140.656815, 40.9711769], [140.6567969, 40.9712084], [140.6566868, 40.9714956], [140.6565739, 40.9719233], [140.6565517, 40.9720074], [140.6563844, 40.9725629], [140.6562854, 40.9729042], [140.6562547, 40.9730418], [140.6562465, 40.9730689], [140.6561942, 40.9733048], [140.6561899, 40.97337], [140.6561795, 40.9735283], [140.6562476, 40.9736909], [140.6563213, 40.9738056], [140.6563945, 40.9739148], [140.6564317, 40.9741391], [140.6564236, 40.9743189], [140.6563628, 40.9746527], [140.6562604, 40.9749605], [140.6562191, 40.9750846], [140.6561196, 40.9754352], [140.656103, 40.9757314], [140.6561251, 40.9760987], [140.6561243, 40.9761389], [140.6561025, 40.9763899], [140.6560829, 40.9765134], [140.6559951, 40.9767685], [140.6558902, 40.977144], [140.6557935, 40.9774757], [140.6557016, 40.9778015], [140.6556444, 40.9780038], [140.6555169, 40.9784887], [140.6554193, 40.9788325], [140.6551157, 40.9796722], [140.6549475, 40.9800549], [140.6548873, 40.980213], [140.654842, 40.9803322], [140.6546583, 40.98058], [140.6543926, 40.980816], [140.6541855, 40.9810166], [140.6541222, 40.9811624], [140.654093, 40.981286], [140.6540886, 40.9815816], [140.6540836, 40.9816828], [140.6540868, 40.9817315], [140.6541279, 40.9822549], [140.6541352, 40.9823053], [140.6541643, 40.9825076], [140.6541845, 40.9826625], [140.6542727, 40.9833609], [140.654283, 40.9834421], [140.6542812, 40.9836862], [140.6542736, 40.9838261], [140.6541517, 40.9846453], [140.6541095, 40.9849466], [140.6540434, 40.9854681], [140.6538674, 40.9864851], [140.6538538, 40.9865608], [140.6537358, 40.9872161], [140.6537111, 40.987417], [140.6537027, 40.9875211], [140.6536735, 40.9878869], [140.6536562, 40.9885709], [140.6536252, 40.988751], [140.6535602, 40.9890704], [140.6535159, 40.9893129], [140.6534838, 40.9894712], [140.6533993, 40.9897991], [140.6533743, 40.9898919], [140.6533152, 40.9901115], [140.6531387, 40.9907952], [140.6531294, 40.9908578], [140.6531092, 40.9911556], [140.6530811, 40.991397], [140.6529849, 40.9919303], [140.6529505, 40.9920889], [140.652825, 40.992384], [140.652675, 40.99275], [140.6526244, 40.9929899], [140.6525139, 40.9934838], [140.6524908, 40.9935895], [140.6524171, 40.9939264], [140.6523366, 40.9943611], [140.65229, 40.9946126], [140.6522685, 40.9947366], [140.6521405, 40.9952641], [140.6520841, 40.9955294], [140.6519892, 40.9959401], [140.6519659, 40.9960414], [140.6517974, 40.9967718], [140.651783, 40.9968303], [140.6516982, 40.9971352], [140.6516319, 40.9973734], [140.651375, 40.9983403], [140.6512188, 40.9990409], [140.6511895, 40.9993308], [140.6511615, 40.9994978], [140.6511127, 40.9999351], [140.6511018, 41.0001171], [140.6510599, 41.0003039], [140.651052, 41.0005128], [140.6510186, 41.000751], [140.6508641, 41.0015743], [140.6507674, 41.0021332], [140.6507497, 41.0023965], [140.650737, 41.0025858], [140.650726, 41.0028986], [140.6507121, 41.0032427], [140.6506928, 41.0035638], [140.6506374, 41.0038467], [140.6502065, 41.0049548], [140.6501769, 41.005062], [140.6499419, 41.0059119], [140.6499043, 41.0061609], [140.6499109, 41.0062551], [140.6499163, 41.0063165], [140.6499518, 41.0065438], [140.6500613, 41.0069145], [140.6501871, 41.0074071], [140.6502098, 41.0075363], [140.650201, 41.0077736], [140.6502028, 41.007821], [140.6501859, 41.0081026], [140.6501884, 41.0082675], [140.6501591, 41.0084744], [140.6501203, 41.0086593], [140.6499965, 41.0091532], [140.6497173, 41.0103698], [140.6496097, 41.0107886], [140.6495146, 41.0113754], [140.649431, 41.0116386], [140.6492449, 41.0124209], [140.6490889, 41.0130164], [140.6490383, 41.0132333], [140.6490136, 41.0133391], [140.6489997, 41.013616], [140.6489815, 41.0137358], [140.6489518, 41.0140062], [140.6489307, 41.0141808], [140.6488055, 41.0145927], [140.6487932, 41.014633], [140.6487166, 41.014971], [140.6486695, 41.0151758], [140.648558, 41.015582], [140.648491, 41.015817], [140.648431, 41.0160579], [140.6484026, 41.0161721], [140.64835, 41.0165333], [140.648318, 41.0166941], [140.6482315, 41.0171079], [140.6481967, 41.0172612], [140.6481635, 41.0174076], [140.6480865, 41.0179538], [140.6480876, 41.0179982], [140.6481092, 41.0181471], [140.6481208, 41.0183339], [140.6481249, 41.0185713], [140.6480998, 41.0187754], [140.6479573, 41.0192168], [140.6478438, 41.0195928], [140.6477737, 41.0197986], [140.6477417, 41.0199464], [140.6476604, 41.0203094], [140.6475216, 41.021146], [140.6472448, 41.0230541], [140.6471599, 41.0233735], [140.6471218, 41.0235827], [140.6470627, 41.0239075], [140.6470057, 41.0242902], [140.6470034, 41.0243224], [140.6469987, 41.0243891], [140.6469811, 41.0246379], [140.6469211, 41.0255507], [140.6468688, 41.0266862], [140.6468368, 41.0276845], [140.6467258, 41.0285077], [140.6466764, 41.0288866], [140.6465906, 41.0294125], [140.646546, 41.0298217], [140.6464798, 41.0303713], [140.6463535, 41.0313478], [140.6462164, 41.0321044], [140.6462089, 41.0321437], [140.6461977, 41.0322028], [140.6460571, 41.0329433], [140.6460392, 41.0333761], [140.6460353, 41.0336718], [140.6460054, 41.0339641], [140.6459823, 41.0341901], [140.6458393, 41.0348644], [140.6456676, 41.0356671], [140.6455477, 41.0361909], [140.6455314, 41.0362623], [140.6455084, 41.0363624], [140.6453924, 41.0368673], [140.6452913, 41.0372197], [140.6451745, 41.0376169], [140.64502, 41.0381569], [140.6448859, 41.0386057], [140.6448522, 41.0387184], [140.6448247, 41.0387974], [140.6445307, 41.039642], [140.644389, 41.0400486], [140.644365, 41.0401175], [140.6443534, 41.0401539], [140.6443472, 41.0401708], [140.6442252, 41.0405039], [140.6441367, 41.0407482], [140.64408, 41.0408924], [140.6440288, 41.0410766], [140.6438983, 41.0416375], [140.6438091, 41.0420689], [140.6437942, 41.0421412], [140.6436221, 41.0429101], [140.6435636, 41.0431766], [140.6435529, 41.0432223], [140.6434568, 41.0436344], [140.6433896, 41.0439433], [140.6433485, 41.0441002], [140.6433381, 41.0441616], [140.6433183, 41.0442399], [140.6432014, 41.0447703], [140.6431475, 41.045052], [140.643121, 41.045264], [140.6431368, 41.0453843], [140.6431566, 41.0454141], [140.6432944, 41.0456495], [140.6434589, 41.0459539], [140.6435284, 41.0461062], [140.6435338, 41.0461284], [140.6435634, 41.0462514], [140.6436022, 41.0464663], [140.6436157, 41.0465954], [140.6436299, 41.0467313], [140.6436389, 41.0468089], [140.6437047, 41.0473777], [140.6437799, 41.0480404], [140.6438428, 41.0485026], [140.6438291, 41.0487029], [140.6437808, 41.0489638], [140.6435673, 41.0499901], [140.6435565, 41.0500519], [140.643547, 41.0501065], [140.643401, 41.0508112], [140.6433896, 41.0508664], [140.6432636, 41.0513346], [140.6430434, 41.0520242], [140.6428728, 41.052593], [140.6427223, 41.0532332], [140.6425223, 41.0540999], [140.6424703, 41.0543619], [140.6424392, 41.0545961], [140.6424264, 41.054976], [140.6424289, 41.055182], [140.6423352, 41.0557368], [140.6422912, 41.0559683], [140.642217, 41.0562494], [140.6421242, 41.0565001], [140.6419543, 41.0569217], [140.6416683, 41.0574107], [140.6414149, 41.0577545], [140.6412765, 41.0579228], [140.6405941, 41.0587483], [140.640239, 41.0592098], [140.6398409, 41.05983], [140.6397129, 41.0600359], [140.6393893, 41.0605565], [140.6387842, 41.0615647], [140.638517, 41.0621166], [140.6383972, 41.0624067], [140.6383138, 41.0627215], [140.638258, 41.0629769], [140.638225, 41.0633925], [140.6382203, 41.0638404], [140.6382195, 41.0639216], [140.6382192, 41.063949], [140.6382282, 41.0645586], [140.6382261, 41.0647286], [140.6381827, 41.0654297], [140.6381306, 41.0659094], [140.6380474, 41.0663705], [140.6378194, 41.0676561], [140.637614, 41.0688355], [140.6376039, 41.0688934], [140.6375563, 41.0691669], [140.637352, 41.070417], [140.6372946, 41.0707681], [140.6370223, 41.0723061], [140.6369712, 41.0725946], [140.63669, 41.0742009], [140.6365933, 41.0745761], [140.6364352, 41.0748884], [140.6362796, 41.0751149], [140.6361375, 41.0752813], [140.6357911, 41.0756669], [140.6355963, 41.0758838], [140.6353238, 41.0762096], [140.6351275, 41.0765205], [140.6350551, 41.0766743], [140.635033, 41.0767214], [140.6345841, 41.0778759], [140.6344599, 41.0782116], [140.6344157, 41.078361], [140.6343623, 41.0785411], [140.6343496, 41.0787674], [140.6343883, 41.0790153], [140.6345547, 41.0796834], [140.6345758, 41.0800198], [140.6345216, 41.0802963], [140.6344549, 41.0804903], [140.6343205, 41.0807935], [140.6341456, 41.081253], [140.6340663, 41.0815164], [140.6340172, 41.0818179], [140.6339567, 41.0820135], [140.6338042, 41.0822753], [140.6336467, 41.0824974], [140.6335618, 41.0827076], [140.633542, 41.0828638], [140.6335141, 41.0833947], [140.6334939, 41.0838903], [140.6334268, 41.084432], [140.6333899, 41.0846159], [140.6333743, 41.0846934], [140.6333431, 41.0848488], [140.6333166, 41.0849712], [140.6333099, 41.0849959], [140.6332899, 41.0851184], [140.6332783, 41.0853969], [140.6332978, 41.0855195], [140.6334128, 41.0859227], [140.6334213, 41.0859582], [140.6334558, 41.0861018], [140.6334597, 41.0863221], [140.6334242, 41.0865649], [140.6333963, 41.0868164], [140.6333345, 41.0870803], [140.6331968, 41.0873819], [140.6331214, 41.0875859], [140.6330647, 41.0877786], [140.6330626, 41.087818], [140.6330508, 41.0880436], [140.6330246, 41.0884148], [140.6329977, 41.0887972], [140.6329113, 41.0894258], [140.6328008, 41.090003], [140.6326831, 41.0906724], [140.6324923, 41.0914], [140.63243, 41.0916181], [140.6323737, 41.0918148], [140.6323314, 41.092074], [140.6321837, 41.0924491], [140.6320056, 41.092741], [140.6319424, 41.0929031], [140.6319416, 41.0930555], [140.6321031, 41.0938817], [140.6320882, 41.0942794], [140.6318475, 41.0948525], [140.6317433, 41.0951745], [140.6315872, 41.0959786], [140.6314754, 41.0966172], [140.6313634, 41.0969734], [140.6313092, 41.0971891], [140.6312977, 41.0973392], [140.631291, 41.0975957], [140.6313095, 41.0977858], [140.6314137, 41.0982455], [140.6314346, 41.0984851], [140.6314472, 41.09863], [140.631452, 41.0991439], [140.6314549, 41.100003], [140.6314555, 41.1004288], [140.6314556, 41.100489], [140.631456, 41.1005595], [140.6314587, 41.1011076], [140.6315186, 41.1016759], [140.6317776, 41.1031987], [140.631923, 41.1040689], [140.6320234, 41.1047005], [140.6321144, 41.1052683], [140.6321378, 41.1054934], [140.6321476, 41.1055691], [140.6323051, 41.1073054], [140.6323246, 41.1075199], [140.632429, 41.1082619], [140.6324443, 41.1083413], [140.6327387, 41.1099538], [140.6328568, 41.1105936], [140.6328956, 41.1108964], [140.6328896, 41.1111474], [140.6328305, 41.1115574], [140.6326701, 41.1120156], [140.6324054, 41.1123987], [140.6323275, 41.1125157], [140.6323027, 41.1125523], [140.6322141, 41.1126733], [140.6321697, 41.1127389], [140.6318218, 41.1132417], [140.6314343, 41.1138002], [140.6313944, 41.1138577], [140.6308124, 41.1147054], [140.6304101, 41.115321], [140.6301833, 41.1157609], [140.6300156, 41.116234], [140.6299346, 41.1167181], [140.6299047, 41.117029], [140.6299687, 41.1175448], [140.6300313, 41.1178476], [140.6300736, 41.1181268], [140.6303933, 41.1194328], [140.630878, 41.121355], [140.6311746, 41.1224827], [140.6313585, 41.1233168], [140.6316013, 41.1242747], [140.6317128, 41.1247051], [140.6317796, 41.1249631], [140.6318172, 41.1251081], [140.632078, 41.1261538], [140.6322039, 41.126645], [140.6322024, 41.1268881], [140.6322024, 41.1270931], [140.6321478, 41.1273346], [140.6320434, 41.12762], [140.6319427, 41.1278813], [140.6317937, 41.1282394], [140.6316284, 41.1286649], [140.6315054, 41.1290249], [140.631437, 41.1293848], [140.6314188, 41.1296376], [140.6314359, 41.1298449], [140.631454, 41.1300464], [140.6316489, 41.1311922], [140.6316863, 41.1313912], [140.6319121, 41.1325923], [140.6319383, 41.132732], [140.6320018, 41.1330697], [140.6322736, 41.1346588], [140.6324718, 41.1356867], [140.632536, 41.1359233], [140.6326329, 41.1362326], [140.6329472, 41.1370099], [140.6335026, 41.1382406], [140.6337597, 41.138803], [140.6338368, 41.1389719], [140.6341588, 41.1396764], [140.6344846, 41.1404491], [140.6344942, 41.140472], [140.6353911, 41.142785], [140.6360788, 41.1445892], [140.6363573, 41.1453456], [140.6365383, 41.1458374], [140.6367406, 41.146387], [140.6369617, 41.1469277], [140.6370162, 41.1472489], [140.6370067, 41.1477154], [140.6369555, 41.1479574], [140.6369092, 41.1481757], [140.6366398, 41.148951], [140.6366092, 41.149039], [140.6363261, 41.1498703], [140.6361521, 41.1503668], [140.6361089, 41.1505003], [140.6360576, 41.1506488], [140.6360523, 41.1506802], [140.6360288, 41.1509026], [140.6360132, 41.1510876], [140.6360604, 41.151764], [140.6362249, 41.1530631], [140.6365589, 41.1556475], [140.6365731, 41.1557812], [140.6366274, 41.1562913], [140.636718, 41.157017], [140.6369296, 41.1588203], [140.6371328, 41.1605514], [140.6373896, 41.1618601], [140.6375086, 41.162184], [140.6376868, 41.1625132], [140.6379994, 41.1628967], [140.63864, 41.1636124], [140.6392087, 41.1642], [140.6395486, 41.1646718], [140.6397999, 41.1651194], [140.6398808, 41.1652964], [140.640028, 41.1656148], [140.6402201, 41.1663418], [140.6407161, 41.1684988], [140.6409092, 41.1695205], [140.6412225, 41.1708556], [140.6413037, 41.1712569], [140.6413537, 41.171666], [140.6413541, 41.1720033], [140.6413131, 41.1724142], [140.6413102, 41.1724434], [140.6410332, 41.1733795], [140.6407559, 41.1741842], [140.6407052, 41.1743197], [140.6402466, 41.1755896], [140.6397161, 41.1771096], [140.6391368, 41.1786221], [140.6385973, 41.1801169], [140.6384778, 41.1804628], [140.6382753, 41.1810594], [140.638178, 41.1813509], [140.6381118, 41.1816404], [140.6380832, 41.181882], [140.638045, 41.1824333], [140.6380436, 41.18327], [140.6380153, 41.1835838], [140.6379219, 41.1838898], [140.6376282, 41.1843235], [140.6368884, 41.1851644], [140.636588, 41.1855278], [140.6362232, 41.1859961], [140.636073, 41.1862827], [140.6358477, 41.186529], [140.6355725, 41.186872], [140.6353656, 41.187059], [140.635191, 41.1872124], [140.6350991, 41.1872833], [140.6345871, 41.1876957], [140.633987, 41.1881489], [140.6336843, 41.1886301], [140.6333668, 41.1893717], [140.6331814, 41.1897224], [140.6330248, 41.1898936], [140.6328374, 41.1900348], [140.63122, 41.1910857], [140.6308127, 41.191358], [140.6305062, 41.1914734], [140.6296261, 41.1916939], [140.6282503, 41.1920079], [140.6270431, 41.1923048], [140.6264299, 41.1924909], [140.6259993, 41.1927282], [140.6254796, 41.1931522], [140.6250409, 41.1934296], [140.6246671, 41.1935304], [140.6243722, 41.1936298], [140.624087, 41.193769], [140.6223032, 41.1948445], [140.6217044, 41.1951437], [140.6216388, 41.195166], [140.6215054, 41.195219], [140.621462, 41.195234], [140.6209284, 41.1953475], [140.6198702, 41.1957064], [140.6189471, 41.1960987], [140.6183574, 41.1963707], [140.6179821, 41.196565], [140.6177031, 41.1968083], [140.6174088, 41.1971004], [140.6170391, 41.1975128], [140.6166199, 41.197939], [140.6155242, 41.1990037], [140.6149294, 41.1996774], [140.6146701, 41.1999067], [140.6141425, 41.2002855], [140.6137514, 41.2006403], [140.6133105, 41.2012587], [140.6122301, 41.2024772], [140.6119715, 41.2027777], [140.6117493, 41.203105], [140.6113459, 41.2039612], [140.6110783, 41.2046652], [140.610646, 41.205493], [140.6096312, 41.2076361], [140.6089819, 41.2083813], [140.6083697, 41.2092173], [140.6078497, 41.2098168], [140.6077993, 41.2098748], [140.6076875, 41.2100037], [140.6073686, 41.2103606], [140.6068862, 41.2110721], [140.605258, 41.2124964], [140.6044105, 41.2132345], [140.6035877, 41.2138054], [140.6032167, 41.2139654], [140.6027416, 41.2141079], [140.6013886, 41.2143862], [140.5995298, 41.2147901], [140.5981242, 41.2150667], [140.5968847, 41.2153229], [140.5965455, 41.2153516], [140.5961202, 41.2153332], [140.5958143, 41.2153099], [140.5955847, 41.2153447], [140.5953092, 41.2154746], [140.5950365, 41.2156076], [140.5947305, 41.2157541], [140.5944989, 41.2158484], [140.594299, 41.2159189], [140.5941285, 41.215958], [140.5940097, 41.2159716], [140.5938854, 41.2159748], [140.5936479, 41.2159657], [140.5933096, 41.2159441], [140.5929187, 41.2159255], [140.592724, 41.21593], [140.5924879, 41.2159511], [140.5922229, 41.215987], [140.5916052, 41.2160883], [140.5909289, 41.2162029], [140.590749, 41.2162334], [140.5906735, 41.2162462], [140.5906027, 41.2162597], [140.5898145, 41.2163835], [140.5893524, 41.216467], [140.589081, 41.2165243], [140.5888376, 41.2165866], [140.5886379, 41.2166504], [140.5884295, 41.2167321], [140.5878624, 41.2170152], [140.5868975, 41.2175407], [140.5867665, 41.2176127], [140.5862251, 41.217916], [140.5857796, 41.2181971], [140.5853887, 41.2184795], [140.5850082, 41.2187636], [140.5846519, 41.2190216], [140.5844148, 41.2191974], [140.5842377, 41.2193153], [140.5840712, 41.2193961], [140.583879, 41.2194623], [140.5835088, 41.2195657], [140.5832644, 41.2196386], [140.5831326, 41.2196885], [140.5829705, 41.2197893], [140.5828135, 41.2199317], [140.5825444, 41.2202057], [140.5823309, 41.2204252], [140.5821505, 41.2205936], [140.5820058, 41.2206961], [140.5818286, 41.2207929], [140.5816613, 41.2208669], [140.5813916, 41.2209622], [140.5811086, 41.2210464], [140.5810121, 41.2210735], [140.5805612, 41.2211856], [140.5801579, 41.221288], [140.5797021, 41.221406], [140.5790943, 41.2215553], [140.5787762, 41.2216163], [140.5783642, 41.2216794], [140.5780928, 41.2217392], [140.5778182, 41.2218455], [140.5775837, 41.2219632], [140.5770588, 41.2222806], [140.5765602, 41.2225626], [140.576318, 41.222656], [140.5761504, 41.22271], [140.5759921, 41.2227451], [140.5758688, 41.2227593], [140.5757051, 41.2227669], [140.5755462, 41.2227862], [140.5751655, 41.2228547], [140.5745431, 41.2229596], [140.5742748, 41.2229912], [140.5741006, 41.2230008], [140.5738546, 41.2229958], [140.5736626, 41.2229796], [140.5734183, 41.2229588], [140.5730899, 41.2229495], [140.5727138, 41.2229296], [140.5723456, 41.222906], [140.5719764, 41.222902], [140.5716362, 41.2229054], [140.5712894, 41.2229153], [140.571011, 41.2229343], [140.5706871, 41.2229846], [140.5704275, 41.2230234], [140.5703316, 41.2230451], [140.570144, 41.2230966], [140.5699294, 41.223168], [140.5697952, 41.2232159], [140.5696967, 41.2232644], [140.5696069, 41.2233242], [140.5693318, 41.2235376], [140.5692204, 41.223635], [140.5691425, 41.2236957], [140.5690624, 41.2237303], [140.5689684, 41.2237453], [140.5688136, 41.2237539], [140.5686307, 41.2237511], [140.5685181, 41.223734], [140.5684436, 41.2237067], [140.5683658, 41.2236648], [140.5683121, 41.2236144], [140.5682213, 41.2235322], [140.5681424, 41.2234752], [140.5680583, 41.2234331], [140.5679405, 41.2233905], [140.5678702, 41.2233776], [140.5677978, 41.2233695], [140.5676286, 41.2233705], [140.5673145, 41.2233782], [140.5671432, 41.2233907], [140.5669295, 41.2234241], [140.5667056, 41.2234808], [140.5665043, 41.2235684], [140.566337, 41.2236809], [140.5662064, 41.2238095], [140.5658994, 41.2241773], [140.5657564, 41.224313], [140.5655925, 41.22443], [140.5654417, 41.2245177], [140.565242, 41.2246011], [140.5650344, 41.2246649], [140.5648064, 41.2247011], [140.5645824, 41.2247157], [140.5643583, 41.2247063], [140.564137, 41.2246723], [140.5639108, 41.2246156], [140.5637101, 41.2245332], [140.5635072, 41.2244195], [140.5631754, 41.2241811], [140.5629789, 41.2240551], [140.5628062, 41.223971], [140.5626484, 41.2239138], [140.5623661, 41.2238522], [140.5621913, 41.223807], [140.5620414, 41.2237818], [140.5617842, 41.223798], [140.5615509, 41.2238038], [140.5613208, 41.2238497], [140.5611308, 41.2239429], [140.5610167, 41.2240367], [140.560896, 41.2241441], [140.5607871, 41.2242053], [140.5605991, 41.2242367], [140.560389, 41.2242314], [140.5600287, 41.2241907], [140.5597278, 41.2242085], [140.5591906, 41.2243427], [140.5585696, 41.2244979], [140.5584408, 41.2245122], [140.558316, 41.2245109], [140.5581855, 41.2244904], [140.5579435, 41.2244354], [140.5576779, 41.2243746], [140.557612, 41.2243579], [140.5573362, 41.2242892], [140.5572532, 41.2242724], [140.5571236, 41.224258], [140.5569955, 41.2242388], [140.5569028, 41.2242191], [140.556813, 41.2241705], [140.556713, 41.2241055], [140.5566308, 41.224059], [140.5565422, 41.2240286], [140.5564612, 41.2240108], [140.5563727, 41.2239945], [140.556279, 41.2239795], [140.555885, 41.2239238], [140.5555167, 41.2238673], [140.5552554, 41.2238366], [140.5549817, 41.2238152], [140.5548379, 41.2238099], [140.5547091, 41.2238205], [140.5545699, 41.2238464], [140.5544433, 41.2238779], [140.5543328, 41.2239176], [140.5542148, 41.2239684], [140.5540967, 41.2240418], [140.5539545, 41.2241621], [140.5538304, 41.2242969], [140.5537592, 41.2243636], [140.5536651, 41.2244142], [140.5535335, 41.2244864], [140.5534007, 41.2245839], [140.5532832, 41.2247249], [140.5531871, 41.2248881], [140.5530973, 41.2250672], [140.553025, 41.2252189], [140.5529867, 41.2252868], [140.5529203, 41.225361], [140.5527766, 41.2255241], [140.5527071, 41.2255883], [140.5526299, 41.2256321], [140.5525114, 41.2256824], [140.5523269, 41.2257421], [140.5521518, 41.2257875], [140.5520331, 41.225813], [140.5519082, 41.2258291], [140.5517769, 41.2258419], [140.5516355, 41.2258481], [140.5515206, 41.2258402], [140.5513228, 41.2258047], [140.5510019, 41.2257364], [140.5508236, 41.2256865], [140.5507341, 41.2256505], [140.55069, 41.2256293], [140.5503794, 41.2254671], [140.5503424, 41.2254411], [140.5499555, 41.225219], [140.5495038, 41.2249744], [140.5491498, 41.224785], [140.5489531, 41.2246797], [140.5483609, 41.2243753], [140.5482151, 41.2242947], [140.5481263, 41.2242189], [140.548022, 41.2240861], [140.5475287, 41.2234755], [140.5474735, 41.223399], [140.5474369, 41.2233058], [140.5474062, 41.2231969], [140.5473884, 41.223075], [140.5473794, 41.2229794], [140.5473675, 41.2229133], [140.5473282, 41.2228398], [140.5472219, 41.2227648], [140.5470759, 41.2226889], [140.546911, 41.222597], [140.5466554, 41.2224686], [140.5465469, 41.2224148], [140.5464163, 41.2223501], [140.5462667, 41.2222953], [140.545999, 41.2222015], [140.5458421, 41.2221316], [140.5457424, 41.2220638], [140.5456489, 41.2219744], [140.5452946, 41.221677], [140.5451153, 41.2215331], [140.5449988, 41.2214396], [140.5446936, 41.2211881], [140.5445261, 41.2210549], [140.5444121, 41.2209422], [140.5443243, 41.220862], [140.544203, 41.2208155], [140.5440797, 41.2207747], [140.5439576, 41.2207237], [140.5438707, 41.2206546], [140.5438112, 41.2205724], [140.5436636, 41.2203417], [140.5435674, 41.22017], [140.5435023, 41.2200919], [140.543441, 41.2200343], [140.5433624, 41.2199851], [140.5432384, 41.2199401], [140.5431057, 41.2199166], [140.5429914, 41.2199174], [140.542875, 41.2199242], [140.5426353, 41.2199388], [140.5425367, 41.219943], [140.5423804, 41.2199396], [140.5422321, 41.2199151], [140.5420808, 41.219873], [140.541843, 41.2197782], [140.5414819, 41.2196244], [140.5411299, 41.219463], [140.5408126, 41.2192603], [140.5405204, 41.2190159], [140.5402207, 41.2187207], [140.5399493, 41.2184683], [140.5397355, 41.2183166], [140.5394509, 41.2181679], [140.5390798, 41.2180037], [140.5387727, 41.2178693], [140.5386251, 41.21779], [140.538516, 41.2177311], [140.5384101, 41.2176884], [140.5382827, 41.2176689], [140.538037, 41.2176679], [140.5375396, 41.2176656], [140.537227, 41.2177036], [140.5369872, 41.2177551], [140.5368016, 41.2178169], [140.536083, 41.2183832], [140.5359486, 41.2185825], [140.5357633, 41.2188963], [140.5357087, 41.2190702], [140.5357093, 41.2192388], [140.5357492, 41.219386], [140.535833, 41.2195509], [140.5358862, 41.219685], [140.5358547, 41.2197935], [140.5357351, 41.2199061], [140.5355597, 41.2200036], [140.5354421, 41.2200349], [140.5353356, 41.2200372], [140.5352251, 41.2200274], [140.5348332, 41.219975], [140.5343895, 41.2199562], [140.5340536, 41.2199496], [140.5329352, 41.2199501], [140.5322019, 41.2199413], [140.5319411, 41.2199542], [140.5312461, 41.2200403], [140.53019, 41.2202101], [140.5297347, 41.2202695], [140.529477, 41.22027], [140.52924, 41.220219], [140.528662, 41.2200945], [140.5283778, 41.2200277], [140.5281441, 41.2199416], [140.5279911, 41.2198632], [140.5278424, 41.2197574], [140.5276421, 41.2195451], [140.5275923, 41.2194879], [140.5270444, 41.2188845], [140.5264966, 41.2182737], [140.5262546, 41.2180292], [140.5260456, 41.2177281], [140.5257031, 41.2170853], [140.5256984, 41.2170766], [140.5256041, 41.2169033], [140.5255323, 41.2164888], [140.5254532, 41.2162797], [140.5253514, 41.2161559], [140.5251909, 41.2159901], [140.5250246, 41.2157996], [140.5248143, 41.215412], [140.5244436, 41.2146868], [140.5242627, 41.2143212], [140.5241048, 41.2139994], [140.5240103, 41.2138542], [140.5235909, 41.2133872], [140.523214, 41.2129935], [140.5226471, 41.212413], [140.522258, 41.2119866], [140.5221496, 41.2118346], [140.522006, 41.2115993], [140.5217886, 41.2112208], [140.52171, 41.2110661], [140.5215938, 41.2108374], [140.5214784, 41.2105806], [140.5214232, 41.2104095], [140.5214345, 41.2102663], [140.5214659, 41.2101352], [140.5215561, 41.2099939], [140.5222058, 41.2094097], [140.5222507, 41.2093097], [140.52227, 41.2092227], [140.5222878, 41.2088341], [140.5223015, 41.2087143], [140.522344, 41.2086148], [140.522589, 41.2083532], [140.5226257, 41.2082709], [140.5226431, 41.2081567], [140.5226337, 41.2080567], [140.5226165, 41.2080218], [140.5224576, 41.2079294], [140.5220698, 41.2077341], [140.5218022, 41.2076006], [140.5216828, 41.2075186], [140.5215202, 41.2073607], [140.5213248, 41.2070674], [140.5212094, 41.2068791], [140.5210785, 41.206703], [140.5206023, 41.2061596], [140.520091, 41.2055287], [140.5197615, 41.2050814], [140.5196134, 41.2049302], [140.5194188, 41.2047477], [140.5187861, 41.2042302], [140.5181533, 41.2037045], [140.517601, 41.2032652], [140.5166526, 41.2024907], [140.5159946, 41.2019697], [140.5150658, 41.2012362], [140.5146154, 41.2008628], [140.5143762, 41.2006522], [140.5142958, 41.2005333], [140.5142259, 41.2003781], [140.5141131, 41.2001639], [140.5140408, 41.2000304], [140.5139231, 41.1998881], [140.5131164, 41.19911], [140.5126723, 41.1987248], [140.5121988, 41.1983506], [140.5120382, 41.1981803], [140.5118385, 41.197879], [140.5117451, 41.197657], [140.5116839, 41.1975116], [140.5116244, 41.1973703], [140.5115382, 41.1968118], [140.5115178, 41.1966792], [140.5114334, 41.1960944], [140.5113002, 41.1956163], [140.5111688, 41.195328], [140.511007, 41.1950717], [140.5109635, 41.1950227], [140.5108395, 41.194883], [140.5105989, 41.1946532], [140.5102442, 41.1943866], [140.5091752, 41.19378], [140.5079161, 41.1930616], [140.5063763, 41.1921854], [140.5053436, 41.1916054], [140.5038318, 41.1907712], [140.5017616, 41.1896243], [140.5002022, 41.1887834], [140.4982652, 41.1876496], [140.4978874, 41.1873726], [140.4975668, 41.1870761], [140.4973108, 41.1867549], [140.4971231, 41.1864185], [140.4969969, 41.1860948], [140.4969193, 41.18575], [140.4968709, 41.1853439], [140.4967224, 41.1837453], [140.4966909, 41.1832579], [140.4966348, 41.1828065], [140.4965655, 41.1825322], [140.4964765, 41.1822702], [140.4963676, 41.1820373], [140.4961626, 41.1816814], [140.496149, 41.1816639], [140.4948858, 41.1800404], [140.4948211, 41.1799581], [140.4947758, 41.1799005], [140.4943607, 41.1793721], [140.4943185, 41.1793184], [140.494064, 41.1789946], [140.494003, 41.178917], [140.4938274, 41.1786934], [140.4936501, 41.1784378], [140.4930756, 41.1777365], [140.4929683, 41.1776164], [140.492837, 41.1774707], [140.4925327, 41.1772065], [140.4924839, 41.1771698], [140.4921841, 41.1769613], [140.4918111, 41.1767525], [140.4916933, 41.1766967], [140.4915196, 41.1766291], [140.4913536, 41.1765665], [140.4912794, 41.1765413], [140.4911612, 41.1765012], [140.4910423, 41.1764715], [140.4909486, 41.1764514], [140.4905597, 41.176397], [140.4904614, 41.1763885], [140.4901846, 41.1763645], [140.4897812, 41.176364], [140.4888161, 41.1764704], [140.487383, 41.176717], [140.4846424, 41.1771566], [140.4839186, 41.177241], [140.4811291, 41.1775367], [140.4798774, 41.1776602], [140.4794536, 41.1777021], [140.4787882, 41.1777677], [140.478683, 41.1777781], [140.4784317, 41.1778011], [140.4773103, 41.1779218], [140.4760412, 41.1780596], [140.473854, 41.1782878], [140.4712272, 41.178553], [140.4703048, 41.1786464], [140.4701027, 41.1786669], [140.4697375, 41.1787039], [140.4685444, 41.1788373], [140.4671687, 41.1789792], [140.4668299, 41.1790142], [140.4657547, 41.1791704], [140.4648159, 41.1793455], [140.4642806, 41.1794671], [140.4636897, 41.179627], [140.4629797, 41.1798192], [140.4618389, 41.1802065], [140.460489, 41.1807077], [140.4604282, 41.180731], [140.4598256, 41.1809445], [140.4596774, 41.180997], [140.4592844, 41.1811363], [140.4583018, 41.1815039], [140.4582397, 41.1815258], [140.4576849, 41.1817217], [140.4555878, 41.1824677], [140.4539905, 41.1830557], [140.4531988, 41.1833905], [140.4526341, 41.1837], [140.4520702, 41.1840315], [140.4509879, 41.1848542], [140.4505967, 41.1851942], [140.4500959, 41.1856294], [140.449005, 41.1865578], [140.448289, 41.1871552], [140.4480883, 41.1873338], [140.4474697, 41.1878844], [140.4470216, 41.1882459], [140.4465067, 41.188692], [140.4458735, 41.1892263], [140.4454629, 41.189534], [140.4450539, 41.1899263], [140.4437971, 41.1909798], [140.4433122, 41.191393], [140.4430202, 41.191579], [140.4427509, 41.1917401], [140.4423789, 41.1919251], [140.442012, 41.1920656], [140.4412722, 41.1922975], [140.4395129, 41.1928466], [140.4383544, 41.1932236], [140.437457, 41.1935141], [140.4374041, 41.1935312], [140.4362512, 41.1939098], [140.43524, 41.19426], [140.4351657, 41.1942857], [140.4341166, 41.1947019], [140.4333035, 41.1950354], [140.4326903, 41.1953074], [140.4324612, 41.1954148], [140.4317681, 41.195737], [140.4305705, 41.1963017], [140.4304628, 41.196376], [140.4326176, 41.1993058], [140.4328728, 41.19998], [140.432891, 41.200545], [140.2594896, 41.4727205], [140.2590704, 41.4730668], [140.2588517, 41.4731579], [140.2562985, 41.4734285], [140.2563395, 41.4735999], [140.2565623, 41.4746916], [140.2566347, 41.4751358], [140.2566405, 41.4753536], [140.2566246, 41.4754991], [140.2565874, 41.4756588], [140.2565121, 41.4758526], [140.256426, 41.4760118], [140.2563238, 41.4761709], [140.2561862, 41.4763667], [140.2560789, 41.476549], [140.2560157, 41.476688], [140.2559655, 41.4768448], [140.2559395, 41.4770015], [140.255941, 41.4774804], [140.2560063, 41.4780363], [140.2560609, 41.4786224], [140.2560939, 41.4790342], [140.256117, 41.4793158], [140.25612, 41.4794733], [140.2561159, 41.4795449], [140.2561081, 41.4796864], [140.2560818, 41.47985], [140.2560474, 41.4800135], [140.2559159, 41.4805026], [140.2557109, 41.4810901], [140.2555336, 41.481759], [140.255413, 41.4822007], [140.2551108, 41.4833206], [140.2551011, 41.4833781], [140.2550389, 41.4835968], [140.2549869, 41.4837685], [140.254856, 41.4840642], [140.2547666, 41.4842336], [140.2545397, 41.4845326], [140.2542288, 41.4848756], [140.2539942, 41.4850778], [140.2536942, 41.4853772], [140.2534299, 41.4856843], [140.2533286, 41.4857716], [140.2531381, 41.4859563], [140.2529075, 41.4862629], [140.2525953, 41.4867404], [140.2523975, 41.4870469], [140.2523178, 41.4871929], [140.2522194, 41.4873733], [140.252103, 41.4877199], [140.2520397, 41.4880654], [140.2520288, 41.4883918], [140.252037, 41.4886419], [140.2521246, 41.4893253], [140.2522152, 41.4901677], [140.2522322, 41.4904603], [140.2522354, 41.4906973], [140.252183, 41.491073], [140.2521748, 41.4911557], [140.2521425, 41.4914798], [140.2521155, 41.491697], [140.2520013, 41.492647], [140.2519324, 41.4932457], [140.2519152, 41.4933968], [140.25187, 41.4937312], [140.2517318, 41.4951001], [140.2517174, 41.4952433], [140.2516584, 41.4956468], [140.2515434, 41.4960414], [140.2513928, 41.4963578], [140.2512078, 41.4966528], [140.2509571, 41.4969964], [140.2506878, 41.4973524], [140.2506495, 41.497402], [140.2502927, 41.4978697], [140.250213, 41.4979778], [140.2492287, 41.4992744], [140.2489448, 41.4996914], [140.2487938, 41.5000135], [140.2486815, 41.5003733], [140.2485509, 41.5009893], [140.248431, 41.501486], [140.2482523, 41.5018901], [140.2480037, 41.5023341], [140.2477715, 41.502745], [140.247463, 41.5032671], [140.2472828, 41.5035614], [140.247027, 41.5039055], [140.2467576, 41.5041973], [140.2466552, 41.504295], [140.2463071, 41.504623], [140.2459335, 41.5049906], [140.2455149, 41.5053765], [140.2453604, 41.5055232], [140.2451365, 41.5057956], [140.2449362, 41.5060897], [140.244596, 41.5066606], [140.2443444, 41.5070983], [140.2439268, 41.5079771], [140.2436341, 41.5084565], [140.2433101, 41.5089666], [140.2430824, 41.5093384], [140.2430075, 41.509467], [140.2427596, 41.5098929], [140.2422308, 41.510996], [140.2421156, 41.5112449], [140.2419376, 41.51168], [140.2418421, 41.5121036], [140.2418331, 41.5127269], [140.2419194, 41.5132045], [140.2425978, 41.5153502], [140.2428858, 41.5161682], [140.2433021, 41.5174243], [140.2434298, 41.5178159], [140.2435331, 41.518119], [140.2436634, 41.5183975], [140.2439775, 41.5188126], [140.244283, 41.5191358], [140.244593, 41.5193842], [140.2449096, 41.5196535], [140.2452999, 41.519969], [140.2456727, 41.5202583], [140.2460289, 41.5205284], [140.2463295, 41.5207741], [140.2467284, 41.5210698], [140.2470445, 41.5213306], [140.2473422, 41.5216038], [140.2475894, 41.5219152], [140.2478308, 41.5223189], [140.2480266, 41.5226161], [140.2482358, 41.5228912], [140.2485201, 41.5231944], [140.2488607, 41.5235017], [140.2492658, 41.5238712], [140.2496118, 41.5242226], [140.2499578, 41.5245921], [140.2502769, 41.5249475], [140.2505314, 41.5252445], [140.2508264, 41.5255176], [140.251264, 41.5258772], [140.2517468, 41.5262487], [140.2521809, 41.5265899], [140.2525028, 41.5268228], [140.2528385, 41.5270218], [140.2533078, 41.5272387], [140.2538148, 41.5274355], [140.2541822, 41.5276102], [140.2545198, 41.5277947], [140.254847, 41.5280256], [140.2553754, 41.5284011], [140.2557429, 41.5286581], [140.2561054, 41.5288993], [140.2565587, 41.529086], [140.2569664, 41.5291924], [140.2574814, 41.5292808], [140.2580174, 41.529389], [140.2584604, 41.5295217], [140.2588761, 41.5297406], [140.259093, 41.5299472], [140.259329, 41.5303247], [140.2593961, 41.5307363], [140.2594577, 41.5311467], [140.2594963, 41.5314952], [140.2594887, 41.53189], [140.259399, 41.5322798], [140.2592312, 41.5326556], [140.2590059, 41.533041], [140.2586344, 41.5335453], [140.2582694, 41.5340141], [140.2581469, 41.534241], [140.258063, 41.5344308], [140.2579718, 41.5347942], [140.2579069, 41.535062], [140.2578001, 41.5355029], [140.2576151, 41.536302], [140.2574032, 41.5372637], [140.2570733, 41.5387012], [140.2569928, 41.5390525], [140.2569552, 41.5393416], [140.2569445, 41.5396669], [140.256966, 41.5399218], [140.25702, 41.5402714], [140.2571005, 41.5405243], [140.2572691, 41.5408995], [140.2574143, 41.5411567], [140.2576235, 41.5414599], [140.2579316, 41.5417989], [140.2581734, 41.542032], [140.2585136, 41.5423329], [140.259329, 41.5430777], [140.2597478, 41.5434413], [140.2600321, 41.5436621], [140.2604103, 41.5439171], [140.2612682, 41.5444027], [140.2626174, 41.5451555], [140.2629768, 41.5453803], [140.2632558, 41.5456473], [140.2634412, 41.5459165], [140.2635378, 41.5461554], [140.2636504, 41.5466894], [140.2637761, 41.5473115], [140.2638753, 41.5479237], [140.2639455, 41.5484559], [140.2640072, 41.5490019], [140.264106, 41.5497002], [140.2641762, 41.5501942], [140.2642348, 41.5505232], [140.2643635, 41.5508142], [140.2644767, 41.5510012], [140.2645812, 41.5511456], [140.2647283, 41.551296], [140.2649783, 41.5515076], [140.266025, 41.5522602], [140.2660909, 41.5523076], [140.2664288, 41.5525284], [140.2667323, 41.5527314], [140.2674789, 41.5530908], [140.2676915, 41.553282], [140.2679659, 41.5534835], [140.2682163, 41.5537212], [140.2683993, 41.5540032], [140.268716, 41.5544646], [140.269348, 41.5555031], [140.2696478, 41.5559832], [140.2699531, 41.5564674], [140.2701922, 41.5568086], [140.2703912, 41.5571135], [140.2706423, 41.5575279], [140.270858, 41.5577969], [140.2711118, 41.5580537], [140.2714433, 41.5583155], [140.2716853, 41.5584769], [140.2721729, 41.5587616], [140.2727403, 41.5590286], [140.273034, 41.5591525], [140.2733505, 41.5592887], [140.2738581, 41.5595436], [140.2741932, 41.559737], [140.2748045, 41.5601629], [140.2754045, 41.5605748], [140.2758872, 41.5609239], [140.2765389, 41.5614195], [140.2768144, 41.5618333], [140.2770826, 41.5620982], [140.2773589, 41.5624313], [140.277552, 41.5627003], [140.2778149, 41.5631277], [140.278059, 41.5635211], [140.2782655, 41.5638181], [140.2784345, 41.5640128], [140.2787134, 41.5642676], [140.2790138, 41.5644723], [140.2807412, 41.5656624], [140.2810577, 41.5658932], [140.2815217, 41.5662403], [140.2818301, 41.5664531], [140.2821118, 41.5666457], [140.2827743, 41.5671273], [140.2832572, 41.56746], [140.2838311, 41.5678759], [140.2842469, 41.5681563], [140.2848396, 41.5685903], [140.2852312, 41.5688511], [140.2856578, 41.5690613], [140.2861808, 41.569272], [140.2865964, 41.5694772], [140.286988, 41.5697281], [140.2875218, 41.5702478], [140.2879848, 41.5708923], [140.2882004, 41.571207], [140.2889273, 41.5721561], [140.2894369, 41.5728323], [140.2898339, 41.5733641], [140.2901772, 41.5738356], [140.2905098, 41.5744015], [140.2907458, 41.5748509], [140.2909309, 41.5753285], [140.2910569, 41.5757659], [140.2911803, 41.5763558], [140.2913869, 41.5775116], [140.291875, 41.5803366], [140.2919528, 41.5807539], [140.292044, 41.581099], [140.2921511, 41.5814604], [140.2923524, 41.5820018], [140.2925912, 41.5825255], [140.2928701, 41.5830692], [140.2931383, 41.5835607], [140.2934048, 41.58405], [140.2935621, 41.5843592], [140.2937123, 41.5846802], [140.2938599, 41.5849791], [140.2940449, 41.5853804], [140.2941817, 41.5856753], [140.2942971, 41.5859662], [140.294466, 41.5863614], [140.2946538, 41.5867305], [140.2948603, 41.5870916], [140.2950373, 41.5873484], [140.2952761, 41.5876614], [140.2955952, 41.5880305], [140.2959734, 41.5884458], [140.2966573, 41.5891539], [140.2968933, 41.5894227], [140.2973305, 41.5899142], [140.2976926, 41.5903495], [140.2980037, 41.5907788], [140.2982129, 41.5911058], [140.2984302, 41.5914388], [140.2986367, 41.5917979], [140.2988889, 41.5922392], [140.2991061, 41.5926083], [140.2993207, 41.5929213], [140.2995433, 41.5932201], [140.2998223, 41.5935692], [140.3000905, 41.593858], [140.3006645, 41.5943856], [140.3010805, 41.5947668], [140.3012729, 41.5949571], [140.3015764, 41.595224], [140.3018393, 41.5954567], [140.3021156, 41.5956891], [140.3023619, 41.5958968], [140.3030671, 41.5964999], [140.303808, 41.5971536], [140.3042345, 41.5975267], [140.3048112, 41.5980442], [140.3051116, 41.5982709], [140.3053905, 41.5984474], [140.3056483, 41.5985874], [140.306112, 41.5987944], [140.3063561, 41.5988886], [140.306619, 41.5989729], [140.3070776, 41.5990832], [140.3076329, 41.5991735], [140.3085019, 41.5992477], [140.3094702, 41.5993199], [140.3101649, 41.599376], [140.3106745, 41.5994121], [140.3110956, 41.5994262], [140.3116803, 41.5993921], [140.3121926, 41.5993139], [140.3126486, 41.5991935], [140.3130938, 41.599023], [140.31384, 41.5986953], [140.3142475, 41.5985172], [140.3150578, 41.5981602], [140.3151042, 41.5981407], [140.315617, 41.5979153], [140.3169723, 41.597298], [140.317619, 41.5970489], [140.31819, 41.5968768], [140.3187965, 41.596742], [140.3194855, 41.5966542], [140.3199513, 41.596616], [140.3204002, 41.59661], [140.3208374, 41.5966201], [140.3214974, 41.5966862], [140.3221048, 41.596786], [140.3229025, 41.596987], [140.3234769, 41.5971619], [140.324166, 41.5973602], [140.3247993, 41.5975503], [140.3249277, 41.5975889], [140.3275456, 41.5983571], [140.3279855, 41.5984855], [140.3294473, 41.5989247], [140.3304048, 41.5992116], [140.3313355, 41.5994924], [140.3315448, 41.5995546], [140.3320457, 41.5997094], [140.3324309, 41.5998092], [140.3330821, 41.600008], [140.3339047, 41.6002302], [140.3350023, 41.6005604], [140.3359182, 41.6008051], [140.3364154, 41.6009217], [140.337185, 41.6010571], [140.3373512, 41.6010739], [140.3381866, 41.6011687], [140.3389168, 41.6012159], [140.3400061, 41.6012254], [140.3422787, 41.6012301], [140.3441136, 41.6012197], [140.344526, 41.6012135], [140.3470193, 41.6011446], [140.3488964, 41.6010991], [140.3507093, 41.6010229], [140.3515462, 41.6010208], [140.3523652, 41.6010441], [140.3538833, 41.6011949], [140.3551316, 41.6013024], [140.3564071, 41.6014425], [140.3565496, 41.6014544], [140.3566277, 41.601466], [140.3569132, 41.6014987], [140.3579657, 41.6016076], [140.3593114, 41.6015772], [140.3622565, 41.6012513], [140.3655786, 41.6008905], [140.3673704, 41.600687], [140.3677533, 41.6006185], [140.3680597, 41.6005624], [140.3683948, 41.6004733], [140.370357, 41.5997945], [140.3710986, 41.5995193], [140.3712477, 41.5994639], [140.3714445, 41.5993937], [140.3718418, 41.5992642], [140.3724765, 41.5990573], [140.3730724, 41.5989089], [140.3735735, 41.5988015], [140.3740635, 41.5987169], [140.3751133, 41.5985611], [140.3755028, 41.5985056], [140.3759172, 41.5984489], [140.376103, 41.5984234], [140.3796526, 41.5979143], [140.3829205, 41.5974495], [140.3842312, 41.5972606], [140.3854076, 41.5970888], [140.3875606, 41.5967925], [140.3879223, 41.5967376], [140.3883298, 41.5966759], [140.3887902, 41.5965776], [140.3892859, 41.5964309], [140.389376, 41.5964038], [140.3904845, 41.5959301], [140.3910024, 41.5957087], [140.3912819, 41.595577], [140.3916196, 41.5954178], [140.3956574, 41.5935453], [140.3958606, 41.593478], [140.3962167, 41.5933687], [140.3965842, 41.5932994], [140.3969187, 41.5932626], [140.3972403, 41.5932512], [140.3975372, 41.5932818], [140.4037955, 41.5945013], [140.4060076, 41.5948872], [140.4063633, 41.5949248], [140.4066173, 41.5949471], [140.4068988, 41.5949489], [140.407318, 41.594931], [140.4078693, 41.5948707], [140.4095729, 41.5944872], [140.410383, 41.594312], [140.4106516, 41.5942509], [140.4107279, 41.5942391], [140.4117269, 41.594014], [140.4128, 41.5937812], [140.4130661, 41.5937438], [140.4132501, 41.5937407], [140.413639, 41.5937263], [140.4139103, 41.5937338], [140.4141225, 41.5937609], [140.4142308, 41.5937865], [140.4145316, 41.5938422], [140.4148366, 41.593916], [140.4152364, 41.594049], [140.415564, 41.5942029], [140.4157809, 41.594331], [140.4158147, 41.5943445], [140.4159954, 41.5944554], [140.4163176, 41.5947178], [140.4163898, 41.5947887], [140.4165866, 41.5949916], [140.416761, 41.5952225], [140.4169086, 41.5954654], [140.4171456, 41.5959412], [140.4171979, 41.596046], [140.417234, 41.5961278], [140.4173055, 41.5962894], [140.4180877, 41.5980258], [140.4181591, 41.5981467], [140.418338, 41.5985132], [140.4184883, 41.5988168], [140.4186326, 41.5991084], [140.4188802, 41.5994655], [140.4190908, 41.5996984], [140.4191839, 41.5998013], [140.4193488, 41.5999217], [140.4195474, 41.6000635], [140.4201217, 41.6004117], [140.4209351, 41.6009014], [140.4214579, 41.6012066], [140.4215938, 41.6012857], [140.4222508, 41.6016826], [140.4230517, 41.6023378], [140.4232718, 41.6025595], [140.4239808, 41.6032737], [140.4243748, 41.6036954], [140.4244206, 41.6037415], [140.4244665, 41.6037876], [140.4250707, 41.6043955], [140.425472, 41.6048376], [140.4259033, 41.605288], [140.4263367, 41.6057562], [140.4265811, 41.606148], [140.4268055, 41.6065713], [140.4269899, 41.6070948], [140.427333, 41.6086251], [140.4274007, 41.608987], [140.4275073, 41.6095569], [140.4275565, 41.6098198], [140.4277256, 41.6105374], [140.4278224, 41.6109707], [140.428007, 41.6118732], [140.4281807, 41.6127254], [140.4281888, 41.6127653], [140.4284067, 41.6137532], [140.4286459, 41.6149627], [140.4289058, 41.6165034], [140.4289958, 41.6173156], [140.4290828, 41.6180508], [140.4291845, 41.6189262], [140.4293092, 41.6199513], [140.4293895, 41.6207859], [140.4295104, 41.6226547], [140.4296087, 41.624105], [140.429649, 41.6245599], [140.429661, 41.6247787], [140.4297009, 41.6252318], [140.4297489, 41.6256059], [140.4297816, 41.6258427], [140.4298367, 41.6261869], [140.4298413, 41.6262256], [140.4299002, 41.6266302], [140.4301346, 41.6280906], [140.4302604, 41.628939], [140.4303975, 41.6302132], [140.4304513, 41.6312543], [140.4304495, 41.6321002], [140.4304455, 41.6323278], [140.4304151, 41.6329737], [140.4303951, 41.633411], [140.4303711, 41.6341995], [140.4303454, 41.6347091], [140.4303389, 41.634925], [140.430353, 41.6351324], [140.4303835, 41.6352981], [140.4304207, 41.6355002], [140.4304497, 41.6356295], [140.4305087, 41.6359383], [140.4308019, 41.637219], [140.4308712, 41.63761], [140.4309887, 41.6382726], [140.4311025, 41.6390783], [140.4312511, 41.6400231], [140.4314593, 41.6414307], [140.431647, 41.6426595], [140.4318443, 41.6441636], [140.4321132, 41.647722], [140.4322872, 41.6501984], [140.4324143, 41.6522687], [140.4326181, 41.6543804], [140.4327634, 41.6558549], [140.4327836, 41.6564724], [140.4326911, 41.6570341], [140.4322867, 41.6586894], [140.4322185, 41.6589687], [140.4321868, 41.6590983], [140.432086, 41.6596116], [140.4319918, 41.6600014], [140.4319564, 41.660243], [140.4319269, 41.6604444], [140.4319197, 41.6606483], [140.4319132, 41.6608335], [140.4319443, 41.6610755], [140.4320317, 41.661403], [140.4321386, 41.6616321], [140.4331948, 41.6634234], [140.4343132, 41.6652117], [140.4349734, 41.6663234], [140.4353883, 41.6672266], [140.4356977, 41.6683324], [140.435944, 41.6700667], [140.4360625, 41.6706838], [140.4362357, 41.6711689], [140.4364835, 41.6716659], [140.4367022, 41.6720778], [140.4372762, 41.6730369], [140.43833, 41.674752], [140.4390596, 41.6760114], [140.4393575, 41.6765928], [140.4405448, 41.6788925], [140.4405916, 41.6789964], [140.4407416, 41.6793923], [140.440962, 41.68007], [140.4411211, 41.6805354], [140.4412272, 41.6809124], [140.4414924, 41.6817888], [140.4416701, 41.6822063], [140.4417481, 41.6823209], [140.4419224, 41.6825776], [140.442189, 41.6828912], [140.4430628, 41.6838799], [140.4435734, 41.684379], [140.4438368, 41.6846304], [140.4440174, 41.6848217], [140.4446584, 41.6854301], [140.4455734, 41.6862944], [140.4460106, 41.6867623], [140.4463491, 41.6870732], [140.4467569, 41.6875404], [140.4473908, 41.6883107], [140.4476469, 41.6886059], [140.4479913, 41.6890028], [140.4484223, 41.6894522], [140.4499905, 41.6909265], [140.4508207, 41.6916898], [140.4515748, 41.6923862], [140.4527539, 41.693475], [140.4534977, 41.6941619], [140.454222, 41.6947173], [140.4548465, 41.6951217], [140.4549555, 41.6951856], [140.4552343, 41.6953547], [140.4560993, 41.6958355], [140.4565972, 41.696064], [140.4571147, 41.6962779], [140.4582577, 41.6967589], [140.4588043, 41.6969677], [140.4595475, 41.6972801], [140.460186, 41.6975263], [140.4608387, 41.6977215], [140.461448, 41.6978236], [140.4619819, 41.6978787], [140.462279, 41.6979008], [140.4624325, 41.6979002], [140.4626929, 41.697899], [140.4637167, 41.6978594], [140.4642146, 41.6978374], [140.4651719, 41.6978047], [140.465693, 41.6977865], [140.466746, 41.6977492], [140.4672919, 41.6977381], [140.4680352, 41.6977162], [140.4690096, 41.6977617], [140.4708453, 41.6978914], [140.4712851, 41.6979225], [140.4717261, 41.6979537], [140.4723111, 41.6979975], [140.4723519, 41.6980051], [140.4728689, 41.6981011], [140.4734274, 41.698251], [140.4739007, 41.6984212], [140.4743916, 41.69863], [140.4747537, 41.6988355], [140.4752409, 41.6991784], [140.4755929, 41.6994698], [140.4759301, 41.6997967], [140.4772628, 41.7009863], [140.4775283, 41.701157], [140.4778386, 41.7012985], [140.4781283, 41.701413], [140.478414, 41.7015073], [140.4787401, 41.7015784], [140.4790296, 41.7016245], [140.4791038, 41.7016324], [140.479189, 41.7016376], [140.4795017, 41.7016505], [140.4799737, 41.7016186], [140.480384, 41.7015703], [140.4809803, 41.7014197], [140.4810648, 41.701391], [140.4814446, 41.701239], [140.4817774, 41.7010643], [140.4825897, 41.7005353], [140.4827799, 41.7004183], [140.4840963, 41.6995713], [140.4844089, 41.6994199], [140.4849765, 41.699182], [140.485136, 41.6991199], [140.4857221, 41.6989431], [140.4863703, 41.6988213], [140.4868628, 41.6987663], [140.4871799, 41.6987542], [140.489304, 41.6987315], [140.4908799, 41.6987176], [140.4914078, 41.6987222], [140.4919036, 41.6987489], [140.4923217, 41.6988145], [140.4926204, 41.698882], [140.4928986, 41.6989745], [140.4931768, 41.6990906], [140.4936818, 41.6993485], [140.4941729, 41.6996538], [140.494967, 41.7001229], [140.4954591, 41.7003514], [140.4959196, 41.7005165], [140.4963683, 41.7006363], [140.4967337, 41.7007246], [140.4973, 41.7008052], [140.4977064, 41.7008231], [140.4986252, 41.7007602], [140.5001715, 41.7004856], [140.5029263, 41.6999506], [140.5039983, 41.6998273], [140.5048308, 41.6998015], [140.505131, 41.6997922], [140.5052145, 41.6997943], [140.5062093, 41.6998196], [140.5066555, 41.6998595], [140.5073802, 41.6999345], [140.5084012, 41.7000597], [140.5122344, 41.7004965], [140.5126916, 41.7005488], [140.5130458, 41.7006155], [140.5133821, 41.7007067], [140.5137663, 41.7008549], [140.5140113, 41.7009707], [140.514284, 41.7011292], [140.5146908, 41.7013939], [140.5149514, 41.7015713], [140.5155062, 41.7019205], [140.5158822, 41.7021209], [140.5163189, 41.7022948], [140.5166932, 41.7024086], [140.5170584, 41.702499], [140.5175314, 41.7025563], [140.5181929, 41.7025819], [140.5187838, 41.7025379], [140.5216187, 41.7021768], [140.5228929, 41.7020451], [140.5234411, 41.7020102], [140.5239727, 41.7020445], [140.5244117, 41.7021194], [140.5250638, 41.7022977], [140.5254221, 41.7024533], [140.5257487, 41.7026395], [140.5262091, 41.702971], [140.5269265, 41.7035617], [140.5280501, 41.7044749], [140.530902, 41.7068365], [140.5324173, 41.7080608], [140.5333214, 41.7088071], [140.5344916, 41.7097757], [140.5348907, 41.7100518], [140.5352553, 41.7102967], [140.5358108, 41.7106091], [140.5363032, 41.7108704], [140.5365785, 41.7110134], [140.5377373, 41.711582], [140.538075, 41.7118371], [140.5383016, 41.7120829], [140.5385851, 41.7124798], [140.5391121, 41.7133992], [140.5393097, 41.7137219], [140.5404192, 41.7151415], [140.5406093, 41.7153034], [140.5408247, 41.7154157], [140.54112, 41.7155087], [140.5426814, 41.7160699], [140.546421, 41.718516], [140.5469574, 41.7189261], [140.5472788, 41.7193217], [140.5475049, 41.7196897], [140.5478667, 41.7202785], [140.5483254, 41.7206529], [140.5485892, 41.7208128], [140.5487578, 41.720915], [140.5488629, 41.7209591], [140.5490763, 41.7210485], [140.5492543, 41.7210908], [140.5496498, 41.7211849], [140.550016, 41.7211993], [140.551828, 41.7208828], [140.5522135, 41.7208612], [140.5527436, 41.7209619], [140.5537653, 41.721523], [140.5550383, 41.7225076], [140.5553652, 41.7227604], [140.5564254, 41.723192], [140.5578452, 41.7237292], [140.5584651, 41.7240486], [140.5589013, 41.7243935], [140.5592218, 41.7247124], [140.5594298, 41.7249637], [140.5597417, 41.7255087], [140.5600961, 41.7262791], [140.560356, 41.7267975], [140.560491, 41.7270563], [140.5606737, 41.7272786], [140.5609591, 41.7275746], [140.5612902, 41.7278064], [140.5615812, 41.7279667], [140.5619, 41.7280998], [140.5622724, 41.7282163], [140.5628614, 41.7283389], [140.5637048, 41.7284941], [140.5642357, 41.7286326], [140.5653327, 41.7290764], [140.5657912, 41.7292799], [140.5662892, 41.7294663], [140.5668908, 41.729648], [140.5673924, 41.7297813], [140.5679792, 41.7299074], [140.5708688, 41.7304568], [140.57228, 41.7307247], [140.5723702, 41.7307418], [140.5725837, 41.7307823], [140.5734631, 41.7309504], [140.5756064, 41.73136], [140.5764587, 41.7315279], [140.5768785, 41.7316522], [140.5771679, 41.7317689], [140.577715, 41.7320729], [140.5780068, 41.7322941], [140.5782959, 41.7325672], [140.578591, 41.7329409], [140.5786943, 41.7331494], [140.5787961, 41.7333813], [140.5788264, 41.7334671], [140.5790103, 41.734163], [140.5793187, 41.7359211], [140.5794095, 41.7363971], [140.5794268, 41.736518], [140.5794779, 41.736714], [140.5795023, 41.7368156], [140.5796063, 41.7370116], [140.5796908, 41.7371535], [140.5798236, 41.7372955], [140.5799327, 41.7374069], [140.5801739, 41.737571], [140.5803121, 41.7376569], [140.5805364, 41.7377547], [140.5806734, 41.7378081], [140.5808752, 41.7378598], [140.5810346, 41.737893], [140.5812322, 41.7379174]], [[140.6071519, 41.7653647], [140.6070658, 41.7653093], [140.6066652, 41.7650389], [140.6062678, 41.7647305], [140.6054286, 41.7639699], [140.6050175, 41.7636376], [140.6047129, 41.7633091], [140.6044774, 41.7629756], [140.6043135, 41.762679], [140.6037873, 41.7619089], [140.6037521, 41.7618092], [140.6037293, 41.7617197], [140.6037108, 41.7616214], [140.6037153, 41.7615089], [140.6037314, 41.7613941], [140.6037808, 41.761286], [140.6040464, 41.7608654], [140.604402, 41.7603342], [140.6045977, 41.7600149], [140.6047306, 41.759743], [140.6047518, 41.7596766], [140.6047857, 41.7595423], [140.6048021, 41.7594307], [140.6048347, 41.7587011], [140.6048162, 41.7583453], [140.604796, 41.7581421], [140.6046312, 41.75748], [140.6045761, 41.7572585], [140.6044597, 41.7568328], [140.6043357, 41.7563258], [140.6041066, 41.7556202], [140.6039331, 41.7552044], [140.6034684, 41.7542618], [140.6027666, 41.7529088], [140.6025572, 41.7524313], [140.6019417, 41.7504944], [140.6018312, 41.7501072], [140.6017681, 41.7496728], [140.6017356, 41.7488028], [140.6016301, 41.7460521], [140.6016405, 41.7456386], [140.6016426, 41.7454538], [140.6016796, 41.7451013], [140.6017253, 41.7447195], [140.6017911, 41.7442924], [140.6018333, 41.7439837], [140.6018808, 41.7436445], [140.6018786, 41.7434049], [140.6018632, 41.7432383], [140.6018113, 41.7429948], [140.6017089, 41.7427559], [140.6016151, 41.7425727], [140.601508, 41.7424201], [140.6012809, 41.7421566], [140.6010959, 41.7419834], [140.6008765, 41.7418298], [140.6006137, 41.7416722], [140.6003828, 41.7415605], [140.6001947, 41.7414841], [140.5999449, 41.7414034], [140.5990735, 41.7411723], [140.5985467, 41.7410331], [140.5971852, 41.7406683], [140.59658, 41.7405153], [140.5954574, 41.7402836], [140.5952091, 41.7402428], [140.5950047, 41.7402241], [140.5947602, 41.7402182], [140.5944256, 41.7402315], [140.5940726, 41.7402703], [140.5937134, 41.7403097], [140.5933503, 41.7403408], [140.5929733, 41.7404333], [140.5927545, 41.740522], [140.5925542, 41.7406053], [140.5923226, 41.7407206], [140.5921148, 41.7408461], [140.5916809, 41.7411276], [140.5914988, 41.7412323], [140.5911483, 41.7413715], [140.5910859, 41.7413873], [140.590819, 41.7414695], [140.5902488, 41.7415397], [140.5897239, 41.741599], [140.5893977, 41.7416215], [140.5892084, 41.7416146], [140.5890668, 41.7415973], [140.5889144, 41.7415685], [140.5888179, 41.7415378], [140.5887178, 41.7414971], [140.5886267, 41.7414519], [140.5884466, 41.7413469], [140.5883244, 41.7412415], [140.5882361, 41.7411532], [140.5881829, 41.7410708], [140.5880974, 41.740906], [140.5880671, 41.7408086], [140.5879332, 41.7404175], [140.5877647, 41.7399561], [140.5876849, 41.7397665], [140.5875761, 41.7395795], [140.5874737, 41.7394396], [140.5872763, 41.7392053], [140.5871059, 41.7390506], [140.586981, 41.7389521], [140.5868274, 41.7388495], [140.5865041, 41.7386561], [140.5861274, 41.7384467], [140.5858887, 41.7383048], [140.5856953, 41.7381945], [140.5855384, 41.7381135], [140.5853893, 41.7380443], [140.5851582, 41.7379501], [140.5849289, 41.7378773], [140.5848214, 41.7378473], [140.5847287, 41.7378236], [140.5845966, 41.7377874], [140.5843615, 41.7377463], [140.5841001, 41.7377091], [140.5838273, 41.737682], [140.5837178, 41.7376817], [140.5837047, 41.7376817], [140.5835477, 41.7376777], [140.583336, 41.73768], [140.5830915, 41.7376981], [140.5826651, 41.7377574], [140.5818892, 41.7378743], [140.581681, 41.7379102], [140.5815447, 41.7379204], [140.5813656, 41.7379242], [140.5812322, 41.7379174]], [[140.6071519, 41.7653647], [140.6088468, 41.7664034], [140.6089533, 41.7664703], [140.6097756, 41.7669866], [140.6106684, 41.7675424], [140.6111507, 41.7678507], [140.6114732, 41.7680568], [140.6116882, 41.7682551], [140.6117859, 41.7683785], [140.6118791, 41.7685027], [140.6120021, 41.7687047], [140.6121407, 41.7690355], [140.6122906, 41.76936], [140.6124148, 41.769585], [140.6125531, 41.7697978], [140.6127522, 41.7701244], [140.6129853, 41.7705152], [140.6131659, 41.7708676], [140.613354, 41.7712292], [140.6134979, 41.7715447], [140.6135375, 41.7716908], [140.6135552, 41.7717889], [140.6135712, 41.7719454], [140.6135724, 41.7720759], [140.6135588, 41.7722066], [140.6135272, 41.7723469], [140.6134778, 41.7724957], [140.6134184, 41.7726698], [140.6133365, 41.7728932], [140.6132908, 41.7730553], [140.6132343, 41.7733361], [140.6132189, 41.7735394], [140.6132141, 41.7736998], [140.6132125, 41.7738717], [140.6132327, 41.7741161], [140.6133165, 41.7755416], [140.6133377, 41.7758327], [140.6133509, 41.7761019], [140.6133494, 41.776282], [140.613349, 41.7765445], [140.6133161, 41.7768161], [140.6132928, 41.7771061], [140.6132878, 41.7772178], [140.6133161, 41.7773567], [140.6133496, 41.7774597], [140.6134211, 41.7775655], [140.6134799, 41.7776477], [140.613543, 41.7777147], [140.6135981, 41.7777656], [140.6136581, 41.7778047], [140.6138196, 41.7779074], [140.6141419, 41.7780522], [140.6143988, 41.7781703], [140.6145149, 41.7782313], [140.61463, 41.7783244], [140.614752, 41.7784653], [140.6148297, 41.7785812], [140.6148586, 41.7786855], [140.6148896, 41.7787925], [140.6149134, 41.7789259], [140.6150182, 41.780062], [140.6150653, 41.7802899], [140.6151231, 41.7804979], [140.6151928, 41.7806564], [140.6153738, 41.7809747], [140.6155543, 41.7812988], [140.6160537, 41.7821334], [140.6165701, 41.7829341], [140.617092, 41.7836897], [140.6174793, 41.7842421], [140.618925, 41.7863367], [140.6191927, 41.7867305], [140.6194566, 41.7871114], [140.6195764, 41.7873527], [140.6196989, 41.7876421], [140.6197364, 41.7878072], [140.6197644, 41.7880346], [140.6197586, 41.7882958], [140.6197298, 41.7884579], [140.6196939, 41.7886305], [140.6196623, 41.7887075], [140.619603, 41.7888519], [140.6195244, 41.789013], [140.619304, 41.7893669], [140.618962, 41.7898776], [140.6188602, 41.790079], [140.618833, 41.7901329], [140.6187882, 41.790273], [140.6187502, 41.7905193], [140.6187327, 41.7909886], [140.6186927, 41.7914814], [140.618629, 41.7917277], [140.6185265, 41.7920747], [140.6184681, 41.7923077], [140.6184487, 41.7924246], [140.6184487, 41.7925556], [140.6184766, 41.7932177], [140.6184794, 41.7933994], [140.6184536, 41.7934946], [140.6184279, 41.7936188], [140.6180733, 41.794334], [140.6179798, 41.7945604], [140.6178991, 41.7947557], [140.617884, 41.7949484], [140.6179076, 41.7951495], [140.6179356, 41.7954495], [140.6179984, 41.7958263], [140.618074, 41.7962792], [140.618099, 41.79643], [140.6181549, 41.7967679], [140.6182292, 41.7970302], [140.6184779, 41.7977256], [140.6186338, 41.7981257], [140.61878, 41.7984147], [140.6191842, 41.7991252], [140.6195264, 41.7996242], [140.6197201, 41.7998583], [140.6199377, 41.8000876], [140.6202453, 41.8003872], [140.6204584, 41.8006447], [140.6205828, 41.8008528], [140.6207245, 41.8011647], [140.6209679, 41.8017533], [140.6211302, 41.8021816], [140.6211951, 41.8025578], [140.6212033, 41.8028456], [140.6211966, 41.8030938], [140.621198, 41.8032939], [140.6211925, 41.8034071], [140.6211088, 41.8037092], [140.6211088, 41.8039673], [140.6211212, 41.804363], [140.6211797, 41.804683], [140.6212551, 41.8049983], [140.6212876, 41.805123], [140.6212954, 41.8051529], [140.6213044, 41.8051753], [140.6213463, 41.8052787], [140.6215656, 41.8057285], [140.6216691, 41.8059149], [140.6219227, 41.8062589], [140.6221249, 41.806493], [140.6222847, 41.806665], [140.6223734, 41.8067605], [140.6227862, 41.8071352], [140.6232363, 41.8075603], [140.6233898, 41.8077226], [140.6238789, 41.8082204], [140.6240793, 41.8084159], [140.6242053, 41.8085376], [140.6242643, 41.8085981], [140.6243466, 41.8086673], [140.6245541, 41.8088532], [140.6255915, 41.8098052], [140.6261744, 41.81034], [140.6264875, 41.810636], [140.6267295, 41.8108339], [140.6269296, 41.810983], [140.6270727, 41.8110815], [140.6273425, 41.8112734], [140.6273976, 41.8113066], [140.6274661, 41.8113617], [140.627914, 41.8117015], [140.6280396, 41.8117944], [140.6284492, 41.8120959], [140.6286438, 41.8122358], [140.6291523, 41.8126073], [140.6294153, 41.8128032], [140.6296877, 41.8129939], [140.6298759, 41.8131097], [140.6299699, 41.8131663], [140.6303058, 41.8133397], [140.6305075, 41.8134437], [140.6309588, 41.8136677], [140.6312613, 41.8138149], [140.6315886, 41.8139776], [140.6320062, 41.8141297], [140.63233, 41.8142354], [140.6328746, 41.8143808], [140.6330275, 41.8144137], [140.6332457, 41.8144647], [140.6333375, 41.8144861], [140.6334916, 41.8145219], [140.6349923, 41.8148707], [140.6356249, 41.815059], [140.6361845, 41.8152834], [140.6383384, 41.8162356], [140.6389284, 41.8164964], [140.6392805, 41.816652], [140.6389284, 41.8164964], [140.6383384, 41.8162356], [140.6361845, 41.8152834], [140.6356249, 41.815059], [140.6349923, 41.8148707], [140.6334916, 41.8145219], [140.6333375, 41.8144861], [140.6332457, 41.8144647], [140.6330275, 41.8144137], [140.6328746, 41.8143808], [140.63233, 41.8142354], [140.6320062, 41.8141297], [140.6315886, 41.8139776], [140.6312613, 41.8138149], [140.6309588, 41.8136677], [140.6305075, 41.8134437], [140.6303058, 41.8133397], [140.6299699, 41.8131663], [140.6298759, 41.8131097], [140.6296877, 41.8129939], [140.6294153, 41.8128032], [140.6291523, 41.8126073], [140.6286438, 41.8122358], [140.6284492, 41.8120959], [140.6280396, 41.8117944], [140.627914, 41.8117015], [140.6274661, 41.8113617], [140.6273976, 41.8113066], [140.6273425, 41.8112734], [140.6270727, 41.8110815], [140.6269296, 41.810983], [140.6267295, 41.8108339], [140.6264875, 41.810636], [140.6261744, 41.81034]], [[140.6393764, 41.8165888], [140.638985, 41.8164168], [140.6364845, 41.8153174], [140.6359912, 41.815104], [140.6354798, 41.8149219], [140.6348574, 41.8147464], [140.6335309, 41.8144303], [140.6333737, 41.8143953], [140.6330685, 41.8143273], [140.6329152, 41.8142932], [140.6327684, 41.8142624], [140.6324037, 41.814169], [140.6320053, 41.8140327], [140.631693, 41.8139036], [140.6310313, 41.813584], [140.6305825, 41.8133649], [140.6304076, 41.8132812], [140.6300498, 41.8130812], [140.6296879, 41.8128543], [140.6293627, 41.8126449], [140.628718, 41.8121715], [140.6279955, 41.811641], [140.6274657, 41.8112553], [140.6271456, 41.8110257], [140.6270252, 41.8109357], [140.6265932, 41.8106089], [140.6262576, 41.8102911], [140.6265932, 41.8106089], [140.6270252, 41.8109357], [140.6271456, 41.8110257], [140.6274657, 41.8112553], [140.6279955, 41.811641], [140.628718, 41.8121715], [140.6293627, 41.8126449], [140.6296879, 41.8128543], [140.6300498, 41.8130812], [140.6304076, 41.8132812], [140.6305825, 41.8133649], [140.6310313, 41.813584], [140.631693, 41.8139036], [140.6320053, 41.8140327], [140.6324037, 41.814169], [140.6327684, 41.8142624], [140.6329152, 41.8142932], [140.6330685, 41.8143273], [140.6333737, 41.8143953], [140.6335309, 41.8144303], [140.6348574, 41.8147464], [140.6354798, 41.8149219], [140.6359912, 41.815104], [140.6364845, 41.8153174], [140.638985, 41.8164168], [140.6393764, 41.8165888]], [[140.6262576, 41.8102911], [140.6256774, 41.8097496], [140.6246421, 41.8087978], [140.6243643, 41.8085418], [140.6243057, 41.8084878], [140.6242063, 41.8083962], [140.6239698, 41.8081674], [140.6234688, 41.807683], [140.6232945, 41.8075143], [140.6230055, 41.8072348], [140.6228623, 41.8070963], [140.6226827, 41.8069227], [140.6224608, 41.806708], [140.6223758, 41.8066215], [140.6222322, 41.8064753], [140.6220267, 41.8062245], [140.6218833, 41.8060198], [140.6218207, 41.8059346], [140.6217849, 41.8058768], [140.621678, 41.805704], [140.6214591, 41.8052479], [140.6214191, 41.8051524], [140.62141, 41.8051306], [140.6214026, 41.8051022], [140.6213693, 41.8049751], [140.6213087, 41.8046706], [140.6212566, 41.8043517], [140.6212501, 41.8039687], [140.6212591, 41.8037238], [140.6211925, 41.8034071]], [[140.6393764, 41.8165888], [140.639578, 41.8166776], [140.6397497, 41.8167523], [140.6398799, 41.8168128], [140.6407602, 41.8171962], [140.6412251, 41.8173709], [140.6416142, 41.8175059], [140.6422424, 41.8177039], [140.6423851, 41.817745], [140.6425225, 41.8177862], [140.6433683, 41.8180389], [140.6440698, 41.818253], [140.6456569, 41.8187327], [140.6461293, 41.8188709], [140.6463203, 41.8189315], [140.6468318, 41.819123], [140.6472321, 41.8192728], [140.6475371, 41.8194091], [140.6479487, 41.8195931], [140.6490087, 41.8200666], [140.6491726, 41.8201411], [140.649632, 41.82035], [140.6497513, 41.8204092], [140.6498659, 41.8204601], [140.6510397, 41.8209899], [140.6516443, 41.821261], [140.6522516, 41.8215325], [140.6524814, 41.8216495], [140.6527809, 41.8218037], [140.6528631, 41.8218562], [140.6529845, 41.821933], [140.6531233, 41.8220212], [140.6535198, 41.8222732], [140.6538664, 41.8224945], [140.6540747, 41.8226156], [140.6542775, 41.8227117], [140.6545274, 41.8228098], [140.6547813, 41.8228779], [140.6551768, 41.8229369], [140.655209, 41.8229404], [140.6552796, 41.8229479], [140.6554224, 41.8229625], [140.6579481, 41.823297]], [[140.6392805, 41.816652], [140.639473, 41.8167394], [140.6396895, 41.8168361], [140.6398257, 41.8168929], [140.6404896, 41.8171808], [140.6409761, 41.8173799], [140.6411718, 41.8174501], [140.6415349, 41.8175803], [140.6422014, 41.8177882], [140.6423433, 41.8178247], [140.6424833, 41.8178667], [140.6428703, 41.8179794], [140.6440187, 41.8183315], [140.6443106, 41.8184187], [140.644599, 41.8185049], [140.6447822, 41.8185596], [140.6450059, 41.8186265], [140.645304, 41.8187156], [140.6456117, 41.8188075], [140.6460722, 41.8189583], [140.6462193, 41.8190033], [140.6468152, 41.8192137], [140.6470151, 41.8192842], [140.6475264, 41.8195148], [140.6479556, 41.8197204], [140.6488569, 41.8201482], [140.6494066, 41.8203889], [140.6496639, 41.820504], [140.6497965, 41.8205586], [140.650477, 41.820839], [140.6509885, 41.8210542], [140.6513439, 41.8212153], [140.6519153, 41.8214894], [140.6521809, 41.8216201], [140.6526876, 41.8218694], [140.6527922, 41.8219335], [140.6529002, 41.8219988], [140.6530462, 41.8220899], [140.6534488, 41.8223412], [140.653606, 41.8224386], [140.6538892, 41.8226113], [140.6541553, 41.822755], [140.6544557, 41.8228672], [140.6548076, 41.8229567], [140.6551579, 41.8230254], [140.655275, 41.8230408], [140.6553781, 41.8230565], [140.6554093, 41.823059], [140.658064, 41.8233911], [140.6585639, 41.8234537], [140.6598371, 41.8236024], [140.6602258, 41.8236522], [140.6603734, 41.8236654], [140.6606884, 41.8236936], [140.6612286, 41.8237419], [140.6616632, 41.8237653], [140.6618217, 41.8237739], [140.662013, 41.8237822], [140.6621124, 41.8237878], [140.662619, 41.8238164], [140.6629993, 41.8238377], [140.6630394, 41.8238398], [140.66339, 41.8238585], [140.6639209, 41.8238867], [140.6639673, 41.8238889], [140.6643728, 41.823908], [140.6644516, 41.8239117], [140.6648646, 41.8239313], [140.6649646, 41.8239361], [140.665136, 41.8239427], [140.6661443, 41.8239817], [140.6665224, 41.8239842], [140.6667009, 41.8239854], [140.6668413, 41.8239804], [140.6675037, 41.8239613], [140.6683883, 41.8239261], [140.6689978, 41.82391], [140.670268, 41.823876], [140.6710115, 41.8238431], [140.6715417, 41.8238266], [140.6727068, 41.823788], [140.6736635, 41.8237351], [140.673862, 41.8237265], [140.6740295, 41.8237199], [140.6746522, 41.8236953], [140.6747764, 41.8236879], [140.676248, 41.8236092], [140.6783954, 41.8233719], [140.6786782, 41.8233441], [140.6797026, 41.8232435], [140.6798554, 41.8231837], [140.6796928, 41.823157], [140.6793458, 41.8231953], [140.6783942, 41.8233004], [140.6766964, 41.8234946], [140.6761389, 41.8235506], [140.6756391, 41.8235887], [140.6752567, 41.8236042], [140.6748836, 41.8236194], [140.6746936, 41.8236271], [140.6740278, 41.8236551], [140.6738567, 41.8236622], [140.6736598, 41.8236704], [140.6727034, 41.8237103], [140.6721034, 41.8237312], [140.6715812, 41.8237513], [140.6702952, 41.8238027], [140.670077, 41.8238092], [140.6690373, 41.8238404], [140.6683646, 41.8238605], [140.667476, 41.823882], [140.6668368, 41.8238974], [140.6666338, 41.8238947], [140.6665224, 41.8238938], [140.6660198, 41.8238898], [140.6657986, 41.823888], [140.6653804, 41.8238712], [140.664967, 41.8238546], [140.6643705, 41.823821], [140.6639319, 41.8237944], [140.6629976, 41.8237408], [140.6621146, 41.8237005], [140.6620155, 41.823696], [140.661831, 41.8236859], [140.6616668, 41.823678], [140.6616143, 41.8236747], [140.6607568, 41.8236207], [140.6603865, 41.8235827], [140.6603052, 41.8235744], [140.6598523, 41.8235263], [140.6582997, 41.8233434], [140.6579481, 41.823297]], [[140.6798554, 41.8231837], [140.6799842, 41.8231675], [140.6800204, 41.8231623], [140.6801172, 41.8231484], [140.6802144, 41.8231345], [140.6803116, 41.8231205], [140.6806041, 41.8230785], [140.6808923, 41.8230371], [140.6811759, 41.8229848], [140.6812176, 41.8229771], [140.6814711, 41.8229304], [140.6815534, 41.8229152], [140.6821866, 41.8227907], [140.682758, 41.8226606], [140.6828822, 41.8226296], [140.6837869, 41.822404], [140.6844653, 41.8222164], [140.6848746, 41.8221031], [140.6850613, 41.8220549], [140.6857936, 41.8219097], [140.6859189, 41.8218874], [140.6863827, 41.8218008], [140.6868282, 41.8217183], [140.6871633, 41.8216469], [140.6875881, 41.8215635], [140.6882066, 41.8214423], [140.6887527, 41.8213347], [140.688904, 41.8213051], [140.6890097, 41.821281], [140.6891489, 41.8212492], [140.6896041, 41.8211452], [140.6904363, 41.8209545], [140.6909484, 41.820838], [140.6915745, 41.8207002], [140.6916506, 41.8206835], [140.6917372, 41.8206638], [140.6922368, 41.8205499], [140.6928695, 41.8204058], [140.6930722, 41.8203596], [140.6936891, 41.8202057], [140.6938701, 41.8201638], [140.6939667, 41.8201388], [140.6940941, 41.8201058], [140.6941425, 41.8200921], [140.6943033, 41.8200478], [140.6947422, 41.8199437], [140.6951104, 41.8198434], [140.6951428, 41.8198346], [140.6953808, 41.8197612], [140.6957289, 41.8196472], [140.696158, 41.8195081], [140.6965798, 41.8193731], [140.6973184, 41.8191367], [140.6978861, 41.8189406], [140.6982108, 41.818824], [140.6985235, 41.8187145], [140.6988863, 41.818581], [140.6992428, 41.8184415], [140.699562, 41.8183047], [140.6998837, 41.8181563], [140.7000278, 41.8180876], [140.7006568, 41.817788], [140.700961, 41.817638], [140.701023, 41.8176074], [140.7014232, 41.817409], [140.7016918, 41.8172809], [140.7018456, 41.8171993], [140.7024129, 41.8169303], [140.7028115, 41.8167435], [140.7029474, 41.8166769], [140.7031322, 41.816579], [140.7033286, 41.816485], [140.7042245, 41.8160245], [140.7043532, 41.8159562], [140.7050727, 41.8156034], [140.7054674, 41.8153986], [140.7058048, 41.8152331], [140.7064707, 41.8149086], [140.7065781, 41.8148544], [140.7069574, 41.8146674], [140.7070674, 41.8146123], [140.7071747, 41.8145559], [140.7072433, 41.8145233], [140.7085253, 41.8139012], [140.7094746, 41.8133939], [140.7099237, 41.8131584], [140.7102735, 41.8129636], [140.7105965, 41.8127658], [140.7111882, 41.8124315], [140.7113578, 41.8123345], [140.7114738, 41.8122662], [140.7121255, 41.8118957], [140.7125818, 41.8116331], [140.7128229, 41.8114967], [140.7129221, 41.8114389], [140.7130894, 41.8113414], [140.7136102, 41.8110395], [140.7144037, 41.810582], [140.7146064, 41.8104713], [140.7147527, 41.8103848], [140.7148851, 41.8103088], [140.7152734, 41.8100807], [140.7157308, 41.8097921], [140.7158738, 41.8096953], [140.7159841, 41.8096153], [140.7164017, 41.8093171], [140.7164658, 41.8092656], [140.7168335, 41.8089702], [140.7172209, 41.8086137], [140.7176802, 41.8081721], [140.7177784, 41.8080794], [140.7180057, 41.807846], [140.7180609, 41.807788], [140.718169, 41.8076834], [140.7187605, 41.8071113], [140.7188226, 41.8070505], [140.7188729, 41.8069959], [140.7226118, 41.8033954], [140.7227489, 41.8032716], [140.722977, 41.8030388], [140.7230561, 41.8029581], [140.7231204, 41.8028619], [140.7232513, 41.8026659], [140.7232864, 41.8026134], [140.7234337, 41.8023881], [140.7234856, 41.8023182], [140.7236847, 41.8020367], [140.7237103, 41.8020005], [140.7239749, 41.8016023], [140.7242779, 41.8011464], [140.7243818, 41.8009901], [140.7245112, 41.8008005], [140.7247311, 41.8004782], [140.7252269, 41.7997516], [140.7254213, 41.799467], [140.7254689, 41.7994045], [140.7255324, 41.7993078], [140.7256895, 41.7990682], [140.7261856, 41.7983037], [140.7264453, 41.7979213], [140.7265173, 41.7978153], [140.7265872, 41.7977058], [140.7266459, 41.7976247], [140.7271594, 41.7968712], [140.7272155, 41.7967864], [140.7272718, 41.7967031], [140.7275015, 41.7963634], [140.727805, 41.7959146], [140.7278218, 41.7958897], [140.7280148, 41.7955643], [140.7280567, 41.7954931], [140.728101, 41.7954111], [140.7284724, 41.7947142], [140.7285221, 41.794623], [140.7285697, 41.7945379], [140.7288236, 41.7940626], [140.7290431, 41.7936475], [140.7291323, 41.7934248], [140.7291823, 41.7932657], [140.7292785, 41.7929592], [140.7293248, 41.7928118], [140.7293553, 41.7927044], [140.729379, 41.792621], [140.7293849, 41.7926038], [140.7297035, 41.7915516], [140.7298623, 41.7909966], [140.7300394, 41.7903685], [140.7301175, 41.7901541], [140.730144, 41.7901127], [140.7302493, 41.7899576], [140.7303484, 41.7898676], [140.7304188, 41.7898124], [140.730487, 41.7897668], [140.7306104, 41.7896971], [140.7308217, 41.7896168], [140.7310272, 41.7895676], [140.7317253, 41.7894853], [140.7317615, 41.7894804], [140.7318898, 41.7894665]]]}, "id": "relation/6594518"}, {"type": "Feature", "properties": {"@id": "relation/10408624", "description": "今別バイパスの旧道区間", "name": "国道280号旧道", "network": "JP:national", "ref": "280", "route": "road", "type": "route"}, "geometry": {"type": "MultiLineString", "coordinates": [[[140.5118385, 41.197879], [140.511739, 41.197913], [140.5116171, 41.1979353], [140.5115271, 41.1979326], [140.5114491, 41.1978926], [140.5113615, 41.1978183], [140.5108806, 41.1972944], [140.5107131, 41.1971401], [140.5106111, 41.1970452], [140.5102366, 41.1968119], [140.5101503, 41.1967179], [140.5099699, 41.1964413], [140.5097387, 41.1961022], [140.509414, 41.195655], [140.5092175, 41.1954649], [140.5091224, 41.1953574], [140.509039, 41.195292], [140.5090234, 41.1952368], [140.5086523, 41.1950935], [140.5076847, 41.1947598], [140.5073486, 41.19463], [140.5071487, 41.1945826], [140.506989, 41.194543], [140.506814, 41.19445], [140.5061155, 41.1940786], [140.5054016, 41.1937411], [140.504772, 41.193454], [140.5041956, 41.1931302], [140.5039571, 41.192983], [140.5033762, 41.1926202], [140.5028234, 41.1922632], [140.5025222, 41.1919358], [140.5024281, 41.1918765], [140.5020634, 41.1917477], [140.5019092, 41.191671], [140.5017251, 41.1915512], [140.5015795, 41.1914386], [140.5013941, 41.1913252], [140.5013106, 41.1912742], [140.5012427, 41.1912326], [140.5010791, 41.1911695], [140.5008479, 41.1910662], [140.5002418, 41.190778], [140.4997798, 41.1905291], [140.4994716, 41.1903335], [140.4992492, 41.1901846], [140.4991415, 41.1900983], [140.4986703, 41.1898999], [140.498209, 41.189648], [140.4966207, 41.1887794], [140.4961883, 41.188558], [140.4958036, 41.1883404], [140.4951059, 41.187971], [140.4948318, 41.187795], [140.4945904, 41.187682], [140.4941682, 41.187488], [140.4939386, 41.1873881], [140.492763, 41.1868074], [140.4920925, 41.1864893], [140.4916514, 41.1862916], [140.4912158, 41.1860971], [140.4903041, 41.1857208], [140.4894339, 41.1854046], [140.4891333, 41.1852857], [140.4886243, 41.1850238], [140.4882892, 41.1848407], [140.4878533, 41.1846255], [140.4876392, 41.1845447], [140.4872618, 41.1843815], [140.4871331, 41.1843003], [140.4870132, 41.1841946], [140.486399, 41.1836804], [140.4862017, 41.1835138], [140.4861193, 41.1834383], [140.4859775, 41.1833189], [140.4858415, 41.1832998], [140.4857232, 41.1832808], [140.4852583, 41.1832345], [140.4849074, 41.1831913], [140.4843815, 41.1831397], [140.4838747, 41.1830989], [140.4833181, 41.1830378], [140.4831675, 41.1830235], [140.4830599, 41.1829937], [140.4829602, 41.1829519], [140.4826632, 41.182754], [140.4825545, 41.182696], [140.4824541, 41.1826424], [140.4823434, 41.1826112], [140.4822746, 41.1825956], [140.4818175, 41.1825617], [140.4815089, 41.1825216], [140.4813181, 41.1824643], [140.4810203, 41.1823341], [140.480693, 41.182245], [140.4805371, 41.1822111], [140.4803484, 41.18217], [140.480035, 41.1821261], [140.4798335, 41.1821131], [140.4796556, 41.1821107], [140.4794875, 41.1821171], [140.4791374, 41.1821497], [140.478864, 41.1822042], [140.4784791, 41.1822821], [140.4784272, 41.1822926], [140.4783593, 41.182312], [140.478007, 41.1824126], [140.4778527, 41.1824694], [140.4777068, 41.1825456], [140.4775026, 41.1826561], [140.4771157, 41.1827836], [140.4769508, 41.1828277], [140.4767984, 41.182862], [140.4767058, 41.1828923], [140.4766095, 41.1828996], [140.4764646, 41.1828862], [140.4763733, 41.1828593], [140.4762864, 41.1828337], [140.4760571, 41.1827477], [140.4757837, 41.1826818], [140.4754498, 41.182616], [140.4752614, 41.1825617], [140.4750776, 41.1825017], [140.4749671, 41.182436], [140.4748687, 41.1823483], [140.4748449, 41.1823203], [140.4746774, 41.182123], [140.4746152, 41.1820586], [140.4745616, 41.1820243], [140.4744364, 41.1819791], [140.4742895, 41.1819327], [140.4741572, 41.1818836], [140.473917, 41.1818011], [140.4736334, 41.1816966], [140.4735034, 41.1816492], [140.4734432, 41.1816251], [140.4733716, 41.1815966], [140.4732819, 41.1815646], [140.4730104, 41.1814676], [140.4725883, 41.1813243], [140.472507, 41.1813106], [140.4723985, 41.1812924], [140.4722381, 41.1812858], [140.4720535, 41.1812983], [140.4717619, 41.1813206], [140.4704496, 41.1814588], [140.4702907, 41.1814681], [140.4688421, 41.1815961], [140.4669746, 41.1817645], [140.4664707, 41.1818173], [140.4662776, 41.1818466], [140.465827, 41.1819516], [140.4654916, 41.1820096], [140.465135, 41.1820697], [140.4648786, 41.1821058], [140.4647112, 41.182104], [140.4645208, 41.1820874], [140.4643491, 41.1820576], [140.4641727, 41.1820568], [140.4638926, 41.1820932], [140.463712, 41.182137], [140.463223, 41.1823017], [140.4629806, 41.1824213], [140.4627244, 41.1825619], [140.4625422, 41.1826618], [140.4620504, 41.182865], [140.4616308, 41.1830405], [140.4613514, 41.1831743], [140.4611806, 41.1832603], [140.4611657, 41.183271], [140.4610907, 41.1833249], [140.4610225, 41.1834027], [140.4607306, 41.1837357], [140.4605493, 41.1839461], [140.4603986, 41.1841573], [140.4603231, 41.1842569], [140.460246, 41.1843701], [140.4601597, 41.184596], [140.4601012, 41.1847876], [140.4600725, 41.1849884], [140.4600518, 41.1851353], [140.4600859, 41.1854006], [140.4601175, 41.1856141], [140.4601449, 41.185814], [140.4601277, 41.1859432], [140.4600238, 41.1862459], [140.4598355, 41.1865689], [140.4596476, 41.186851], [140.4595114, 41.1870368], [140.4594034, 41.1871852], [140.4592615, 41.1872992], [140.4590595, 41.1874147], [140.4588194, 41.1875027], [140.4584921, 41.1875883], [140.4580674, 41.1876854], [140.4574324, 41.1878612], [140.4568612, 41.1879681], [140.4561231, 41.1881548], [140.4556077, 41.1882531], [140.4550728, 41.1883711], [140.4548016, 41.1884212], [140.45431, 41.1884475], [140.4540655, 41.1884403], [140.453454, 41.1884686], [140.4530306, 41.1885147], [140.4521665, 41.1885191], [140.4515025, 41.1885419], [140.4503616, 41.1886025], [140.4494043, 41.1886507], [140.448763, 41.1886986], [140.4480955, 41.1887816], [140.4474177, 41.1888694], [140.4471773, 41.1889184], [140.4468974, 41.1890024], [140.4461907, 41.1892311], [140.4461289, 41.1892426], [140.446043, 41.1892397], [140.4458735, 41.1892263]]]}, "id": "relation/10408624"}]}