{"type": "FeatureCollection", "generator": "kokudo-quiz tools/fetch_raw.py (Overpass API)", "copyright": "The data included in this document is from www.openstreetmap.org. The data is made available under ODbL.", "timestamp": "2026-09-30T16:10:20Z", "features": [{"type": "Feature", "properties": {"@id": "relation/947961", "colour": "red", "from": "岩手県陸前高田市", "name": "国道284号", "name:en": "National Highway Route 284", "name:ja": "国道284号", "name:ja-Hira": "こくどうにひゃくはちじゅうよんごう", "name:ja-Latn": "kokudou 284 gou", "network": "JP:national", "ref": "284", "route": "road", "to": "岩手県一関市", "type": "route", "wikidata": "Q6157126", "wikipedia": "ja:国道284号"}, "geometry": {"type": "MultiLineString", "coordinates": [[[141.6262357, 39.0080254], [141.6259597, 39.0078688], [141.6256025, 39.0076624], [141.6251156, 39.0073604], [141.625027, 39.007306], [141.6249111, 39.0072268], [141.6246486, 39.0070736], [141.6243508, 39.0068839], [141.6236759, 39.006454], [141.622839, 39.005941], [141.6222723, 39.0056008], [141.6219056, 39.0053657], [141.6200854, 39.0042419], [141.6193861, 39.0037987], [141.6191063, 39.0035409], [141.6190082, 39.0034135], [141.6188567, 39.0031958], [141.6187499, 39.0029633], [141.6187132, 39.002767], [141.6186962, 39.0025296], [141.6187049, 39.0022696], [141.6187579, 39.00206], [141.6188367, 39.0018738], [141.6190095, 39.001576], [141.6195888, 39.0009157], [141.6205282, 38.9998373], [141.6211898, 38.999085], [141.6214914, 38.9987457], [141.6216695, 38.9985124], [141.6217839, 38.9983201], [141.6218703, 38.9981251], [141.6219214, 38.9979349], [141.62194, 38.9978005], [141.6219471, 38.9975315], [141.6219081, 38.9972525], [141.6218571, 38.9970616], [141.6217735, 38.9969085], [141.6216448, 38.9967148], [141.6215427, 38.9965868], [141.6212618, 38.9963178], [141.6210205, 38.996137], [141.6208001, 38.9960047], [141.6205566, 38.9958839], [141.6203492, 38.9958096], [141.6201878, 38.9957382], [141.6197892, 38.9956147], [141.6194002, 38.9954692], [141.6192336, 38.9953897], [141.6190663, 38.9952896], [141.6188642, 38.9951319], [141.6186981, 38.9949588], [141.6185573, 38.9948004], [141.6184536, 38.9946227], [141.6182704, 38.9943226], [141.6181295, 38.9940647], [141.6180123, 38.9938906], [141.6178805, 38.9937167], [141.6177002, 38.9935196], [141.6175008, 38.9933395], [141.6173009, 38.9931851], [141.6171677, 38.9930958], [141.6170845, 38.9930461], [141.6168509, 38.9929192], [141.6165953, 38.9927985], [141.61624, 38.992677], [141.6159565, 38.99258], [141.6159004, 38.9925608], [141.6155061, 38.9924259], [141.6152642, 38.9923329], [141.6150794, 38.9922452], [141.6148714, 38.9921398], [141.6146898, 38.9920149], [141.6145553, 38.9919104], [141.6144325, 38.9917839], [141.6143071, 38.9916144], [141.6142029, 38.9914251], [141.6141521, 38.9912521], [141.6141392, 38.9910238], [141.6141625, 38.9907957], [141.6142224, 38.990575], [141.6143661, 38.9903539], [141.6144435, 38.9902672], [141.6146015, 38.9900902], [141.6147081, 38.9899976], [141.6151569, 38.9896243], [141.6152646, 38.9895012], [141.6153662, 38.98938], [141.615462, 38.989233], [141.6155443, 38.9890816], [141.6155992, 38.988941], [141.6156428, 38.9887896], [141.6156801, 38.988623], [141.6156987, 38.9884049], [141.6157055, 38.988229], [141.6157135, 38.9876516], [141.615733, 38.9874505], [141.6158026, 38.9872409], [141.6159164, 38.9870097], [141.6161076, 38.9867903], [141.6162091, 38.986699], [141.6163915, 38.9865732], [141.6165454, 38.9864929], [141.6166827, 38.9864323], [141.616807, 38.986388], [141.6170673, 38.9863209], [141.6173992, 38.9862736], [141.6178376, 38.9862277], [141.6178742, 38.9862239], [141.6187455, 38.9861128], [141.6187816, 38.9861068], [141.6189536, 38.9860779], [141.6191646, 38.9860275], [141.6194075, 38.9859555], [141.619607, 38.9858741], [141.6198458, 38.9857726], [141.6201111, 38.985632], [141.6202932, 38.9854935], [141.6204672, 38.985348], [141.6208298, 38.9849265], [141.6209376, 38.9847798], [141.621028, 38.9846037], [141.6211185, 38.9844087], [141.6212205, 38.9841024], [141.621286, 38.983844], [141.6213337, 38.9835861], [141.6213712, 38.9832785], [141.6213803, 38.9829812], [141.6213784, 38.982615], [141.6213322, 38.9821209], [141.6212771, 38.9816181], [141.6212619, 38.9814196], [141.6212674, 38.9812636], [141.6212838, 38.9811112], [141.6213442, 38.9808864], [141.6214782, 38.9805666], [141.6215479, 38.9804478], [141.6216263, 38.9803182], [141.621728, 38.9801909], [141.62187, 38.9800399], [141.6219944, 38.9799138], [141.6221902, 38.9797623], [141.6225144, 38.9795616], [141.6229544, 38.9792583], [141.6232208, 38.979047], [141.6234381, 38.9788195], [141.6236556, 38.9785688], [141.6243122, 38.9777374], [141.6245401, 38.9774935], [141.6247256, 38.9773193], [141.6249997, 38.9771139], [141.6252307, 38.9769797], [141.6254243, 38.9768809], [141.6256062, 38.9768047], [141.6258574, 38.9767227], [141.625903, 38.9767067], [141.6262632, 38.9766187], [141.6267079, 38.9765175], [141.6272831, 38.9764132], [141.6276573, 38.9763322], [141.6279551, 38.9762406], [141.6282128, 38.9761422], [141.6284431, 38.9760263], [141.6286376, 38.9758913], [141.6288461, 38.975707], [141.6289988, 38.9755257], [141.629512, 38.9747901], [141.6296935, 38.9746088], [141.6299039, 38.9744368], [141.6304327, 38.9740647], [141.6305471, 38.9739656], [141.6306731, 38.9738478], [141.6307627, 38.9737318], [141.6308339, 38.9736249], [141.6309052, 38.9734852], [141.6309522, 38.9733551], [141.6309868, 38.9732228], [141.6309989, 38.9731021], [141.6309894, 38.9727025], [141.6309471, 38.9718603], [141.6309246, 38.9716543], [141.6308432, 38.9712655], [141.6308237, 38.9710605], [141.6308418, 38.9708884], [141.6308865, 38.9706961], [141.6309759, 38.9705184], [141.6311858, 38.9701291], [141.6312433, 38.9699738], [141.6312755, 38.9698175], [141.6313174, 38.9692424], [141.6313528, 38.9690878], [141.6314185, 38.9689558], [141.6314924, 38.9688571], [141.6316325, 38.9687248], [141.6317739, 38.9686232], [141.632044, 38.9684637], [141.632206, 38.9683491], [141.6323589, 38.9682146], [141.6324818, 38.9680619], [141.632598, 38.9679027], [141.6327464, 38.96771], [141.6328786, 38.9675734], [141.6330378, 38.9674471], [141.6332928, 38.9673258], [141.6335346, 38.9672292], [141.6336445, 38.9671796], [141.6337652, 38.9671068], [141.6339131, 38.966991], [141.6340481, 38.9668447], [141.6341173, 38.9667251], [141.6341589, 38.9666098], [141.6341728, 38.9664938], [141.6341712, 38.96636], [141.6341617, 38.9662043], [141.6340797, 38.9660559], [141.6339072, 38.9658372], [141.6337441, 38.965714], [141.633597, 38.9656345], [141.6334515, 38.9655783], [141.6328459, 38.9653918], [141.6327449, 38.9653571], [141.6325227, 38.965274], [141.6323452, 38.9651804], [141.632212, 38.965091], [141.6320701, 38.9649741], [141.6319465, 38.9648493], [141.6318464, 38.9647163], [141.6317414, 38.9645213], [141.6316636, 38.9642899], [141.6316444, 38.9641035], [141.6315841, 38.963333], [141.63157, 38.9630816], [141.6315751, 38.9625384], [141.6315762, 38.9624276], [141.6315948, 38.9620208], [141.6316259, 38.9614509], [141.6316447, 38.9612263], [141.6316562, 38.9609299], [141.6316503, 38.9606971], [141.6316285, 38.9604796], [141.6315824, 38.9601672], [141.6315206, 38.9599176], [141.6314559, 38.9597253], [141.6314392, 38.9596719], [141.631383, 38.9595005], [141.6309887, 38.9586529], [141.6309195, 38.958443], [141.6308898, 38.9582689], [141.6308741, 38.9581319], [141.6308848, 38.9580099], [141.6309066, 38.9579003], [141.630956, 38.9577745], [141.6311321, 38.9574101], [141.6311859, 38.9572971], [141.6312485, 38.9571334], [141.6312927, 38.9570009], [141.6313088, 38.9568519], [141.6313093, 38.9567404], [141.6312927, 38.9565332], [141.6312372, 38.9563429], [141.6310654, 38.9557804], [141.6309654, 38.9555434], [141.6308338, 38.9553277], [141.6306447, 38.9550952], [141.6304016, 38.9548661], [141.6301146, 38.9545896], [141.629972, 38.954436], [141.6298635, 38.9542924], [141.6297464, 38.9540892], [141.6296605, 38.9538798], [141.629591, 38.9534787], [141.6295934, 38.9531921], [141.6296498, 38.9529431], [141.629731, 38.9527477], [141.6297749, 38.9526422], [141.6298383, 38.9524537], [141.6298379, 38.9522599], [141.6297944, 38.9521537], [141.6295803, 38.9518603], [141.6293064, 38.9515259], [141.629205, 38.9513247], [141.629132, 38.951135], [141.6291178, 38.9510001], [141.6291552, 38.9508145], [141.629243, 38.9505773], [141.6293279, 38.9504545], [141.6294748, 38.9502789], [141.629664, 38.9501404], [141.6297394, 38.9500991], [141.6300543, 38.9499302], [141.6301935, 38.9498488], [141.6303434, 38.9497417], [141.6305286, 38.9495521], [141.6307217, 38.949304], [141.6308542, 38.949141], [141.630999, 38.9490068], [141.6311048, 38.9489367], [141.6312125, 38.9488829], [141.6313731, 38.948816], [141.6315877, 38.9487621], [141.631767, 38.9487421], [141.6319154, 38.9487408], [141.6321904, 38.9487383], [141.6325613, 38.9487009], [141.6328614, 38.9486337], [141.6331074, 38.9485519], [141.633346, 38.9484263], [141.6335199, 38.9483031], [141.6336302, 38.9482033], [141.6337102, 38.9481199], [141.6337372, 38.9480824], [141.6338519, 38.9479232], [141.634066, 38.9475557], [141.6342787, 38.9471792], [141.6344067, 38.9469583], [141.6345778, 38.9467403], [141.6350012, 38.9462693], [141.6350721, 38.9461878], [141.6352088, 38.9460493], [141.6353366, 38.9458289], [141.6354511, 38.9454542], [141.6354817, 38.9450597], [141.6355343, 38.9448172], [141.6355847, 38.9447142], [141.6356327, 38.9446353], [141.6357325, 38.9444756], [141.6359398, 38.9442032], [141.6364138, 38.9436823], [141.6366589, 38.9434075], [141.6369076, 38.9430406], [141.6374885, 38.9422232], [141.6377055, 38.9419372], [141.637833, 38.9418047], [141.6379828, 38.9416942], [141.6382333, 38.9415107], [141.6385009, 38.9413445], [141.6391199, 38.9410435], [141.6394876, 38.9407987], [141.6395439, 38.9407612], [141.6397615, 38.9405965], [141.6398625, 38.9404812], [141.6399817, 38.9403162], [141.6400357, 38.9401637], [141.640071, 38.9400487], [141.6400695, 38.9398777], [141.6400277, 38.9397031], [141.6399549, 38.9395426], [141.6398448, 38.9393896], [141.6397138, 38.9392423], [141.6394366, 38.9390658], [141.6390592, 38.9388983], [141.6388224, 38.9388046], [141.6385703, 38.9386785], [141.6383212, 38.9385237], [141.6381514, 38.9382965], [141.6380864, 38.9380451], [141.6381034, 38.9377963], [141.6382302, 38.9375047], [141.6384962, 38.9372462], [141.6389789, 38.9368492], [141.6391365, 38.9366897], [141.6392543, 38.9365877], [141.6393274, 38.9364861], [141.6393765, 38.9363676], [141.6394132, 38.9362396], [141.639428, 38.936068], [141.6394131, 38.9359222], [141.6393675, 38.9357725], [141.6392874, 38.9356124], [141.6391315, 38.9354371], [141.6390081, 38.9353312], [141.6388785, 38.9352297], [141.6383348, 38.93488], [141.6381159, 38.9347394], [141.6379046, 38.934569], [141.6377382, 38.9344108], [141.6375665, 38.9341904], [141.6374337, 38.9339971], [141.6372495, 38.9337206], [141.6371008, 38.9335624], [141.6369798, 38.9334506], [141.6368207, 38.9333445], [141.6366183, 38.9332401], [141.6363525, 38.9331529], [141.6361028, 38.9331051], [141.6358556, 38.9330945], [141.6356714, 38.9330985], [141.6355088, 38.9331037], [141.635428, 38.9331169], [141.6349033, 38.9332029], [141.6343859, 38.93332], [141.6340475, 38.933357], [141.6338077, 38.9333498], [141.6335761, 38.9333017], [141.6333708, 38.9332297], [141.6332074, 38.9331373], [141.6330094, 38.9329732], [141.6329118, 38.9328088], [141.6328142, 38.9326444], [141.6326677, 38.9323925], [141.6325314, 38.932158], [141.6323441, 38.9319271], [141.632279, 38.9318468], [141.6319099, 38.9315493], [141.6317392, 38.9314194], [141.6310459, 38.9310198], [141.6296161, 38.9302158], [141.6294209, 38.9300904], [141.6291437, 38.9299414], [141.6288744, 38.9298269], [141.6285912, 38.9297261], [141.6283489, 38.929651], [141.6279053, 38.9295591], [141.6276709, 38.9295225], [141.6275173, 38.9295174], [141.6273569, 38.9295233], [141.6272919, 38.9295175], [141.6272403, 38.9294873], [141.6272195, 38.9294471], [141.6272114, 38.9293188], [141.626915, 38.9292865], [141.6266227, 38.9292291], [141.6263196, 38.9291279], [141.6253522, 38.9286254], [141.624956, 38.9284655], [141.6245896, 38.9283632], [141.6241418, 38.9282708], [141.6237532, 38.9282027], [141.6234228, 38.9281816], [141.6230986, 38.9281898], [141.6227844, 38.9282286], [141.6224272, 38.9283133], [141.6216175, 38.9286711], [141.620774, 38.9291035], [141.6202685, 38.9294294], [141.6196019, 38.9298708], [141.6190998, 38.930427], [141.6182775, 38.931323], [141.6173653, 38.9322049], [141.6171146, 38.9324726], [141.616387, 38.9335529], [141.6162674, 38.9336746], [141.6161644, 38.9337274], [141.616053, 38.9337617], [141.6159461, 38.9337679], [141.6158494, 38.9337655], [141.6157472, 38.933737], [141.6156447, 38.933678], [141.6155874, 38.9336059], [141.6155504, 38.9334986], [141.615544, 38.9334049], [141.6155728, 38.9333121], [141.615604, 38.9332668], [141.6156382, 38.9332172], [141.6157325, 38.9331186], [141.6159266, 38.932956], [141.6161423, 38.9327688], [141.6162521, 38.932644], [141.6163464, 38.9324845], [141.6164071, 38.9323403], [141.6164517, 38.9321906], [141.6164737, 38.932037], [141.6164705, 38.9319001], [141.6164564, 38.9318059], [141.6164267, 38.9317175], [141.6163798, 38.9316266], [141.6163077, 38.9315311], [141.616181, 38.931406], [141.6159143, 38.9312269], [141.6152262, 38.9308762], [141.6147573, 38.9306725], [141.6147362, 38.9306645], [141.6128345, 38.92998], [141.6107574, 38.9291969], [141.6082603, 38.9281089], [141.6076544, 38.9278663], [141.6071914, 38.9276161], [141.6063308, 38.9272008], [141.6059482, 38.927082], [141.6055893, 38.9269841], [141.6051614, 38.9268663], [141.6042884, 38.9265809], [141.6037184, 38.9262971], [141.6032058, 38.9260778], [141.6028613, 38.9259666], [141.6024066, 38.9258878], [141.6020822, 38.9258819], [141.6015618, 38.925945], [141.6010605, 38.9260904], [141.600918, 38.9261317], [141.6007642, 38.9261902], [141.6000582, 38.9264249], [141.5995413, 38.9265868], [141.5991935, 38.926644], [141.5988381, 38.9266599], [141.5983117, 38.9266243], [141.5979043, 38.9265316], [141.5975996, 38.9264132], [141.5966206, 38.9258748], [141.5958589, 38.9255347], [141.5948834, 38.9251887], [141.5943077, 38.924874], [141.5938533, 38.9245312], [141.5935599, 38.9242025], [141.5930799, 38.9235237], [141.5927143, 38.9231567], [141.5922711, 38.9227585], [141.5918009, 38.9223825], [141.591489, 38.9220434], [141.5912855, 38.9217236], [141.5912365, 38.9216466], [141.5911023, 38.9214725], [141.5908688, 38.9211696], [141.5907993, 38.9211091], [141.5905637, 38.9209038], [141.5901523, 38.9206932], [141.5899418, 38.9205998], [141.5894338, 38.9205141], [141.5892232, 38.9204897], [141.5889697, 38.9204939], [141.588547, 38.9205479], [141.5881738, 38.9206249], [141.5880246, 38.9206689], [141.5875996, 38.9207904], [141.5871015, 38.920923], [141.5867976, 38.9209655], [141.5867343, 38.9209743], [141.5862485, 38.9209919], [141.5859768, 38.9209903], [141.5858446, 38.9209779], [141.5845937, 38.9208606], [141.5845065, 38.9208566], [141.5839964, 38.9208023], [141.5839008, 38.9207926], [141.5836184, 38.9207546], [141.5826317, 38.9206503], [141.5813723, 38.9205119], [141.5801874, 38.9203944], [141.5792774, 38.9203367], [141.5782254, 38.9203034], [141.57741, 38.9202822], [141.5768471, 38.9202645], [141.5761044, 38.9202269], [141.5756458, 38.9201912], [141.5751359, 38.920141], [141.574329, 38.9200351], [141.5738821, 38.9199721], [141.5710744, 38.9195345], [141.5675212, 38.9188815], [141.561965, 38.9178969], [141.5572452, 38.9170804], [141.5533068, 38.9163477], [141.5527291, 38.9162045], [141.5522403, 38.9160586], [141.5517097, 38.9158639], [141.5507465, 38.9153518], [141.5506803, 38.9153143], [141.5504191, 38.9151177], [141.5502014, 38.9149125], [141.5499978, 38.9147421], [141.5498696, 38.9146321], [141.5498048, 38.9145469], [141.5497601, 38.9144478], [141.5497467, 38.9143487], [141.5497713, 38.9142548], [141.5498201, 38.9141731], [141.5499611, 38.9140655], [141.5501333, 38.9139614], [141.5503413, 38.9138581], [141.5509709, 38.9135849], [141.5511934, 38.9134765]], [[141.5506803, 38.9153143], [141.5503724, 38.915153], [141.5501106, 38.9149672], [141.549891, 38.9148005], [141.5497577, 38.914698], [141.5496676, 38.9146262], [141.5492242, 38.9142088], [141.549124, 38.914104], [141.5488627, 38.9138259], [141.548713, 38.9137208], [141.5486451, 38.9136984], [141.5485864, 38.9136871], [141.5485124, 38.9136906], [141.5484395, 38.9137145], [141.5483928, 38.9137635], [141.5483643, 38.9138033], [141.5483518, 38.9138535], [141.5483518, 38.9139047], [141.548362, 38.9139685], [141.5484045, 38.9140315], [141.5484839, 38.9141165], [141.548591, 38.9141644], [141.5487049, 38.9141929], [141.5488279, 38.9142088], [141.5489611, 38.9142031], [141.5490898, 38.9141837], [141.5493256, 38.9141188], [141.5497657, 38.9139689], [141.5511934, 38.9134765], [141.5513331, 38.9134358], [141.5516134, 38.9132895], [141.5517124, 38.9132171], [141.5517579, 38.9131338], [141.551766, 38.9129996], [141.5516597, 38.9129895], [141.5514381, 38.9129688], [141.5511763, 38.9129442], [141.5491707, 38.9128658], [141.5485796, 38.9128189], [141.5482939, 38.9127962], [141.5478095, 38.91277], [141.5465851, 38.9126976], [141.5454993, 38.9126138], [141.5443726, 38.9125268], [141.5441294, 38.9125105], [141.5419796, 38.9123844], [141.5408871, 38.9123594], [141.5404262, 38.9123361], [141.539808, 38.9123527], [141.5395914, 38.9123635], [141.5394107, 38.9123965], [141.5391127, 38.9124416], [141.5387191, 38.9125419], [141.537302, 38.9130349], [141.5364767, 38.9132486], [141.5362221, 38.9132652], [141.5361805, 38.9132679], [141.5360354, 38.9132773], [141.5357065, 38.913277], [141.5353182, 38.9132177], [141.5350531, 38.9131752], [141.5348649, 38.9131178], [141.5346513, 38.913048], [141.5344433, 38.9129692], [141.5341814, 38.9128484], [141.5335336, 38.9125048], [141.5333149, 38.9124146], [141.5330696, 38.9123174], [141.5328299, 38.9122483], [141.5326141, 38.9122298], [141.5323508, 38.9122332], [141.5321051, 38.9122388], [141.5318554, 38.9122748], [141.5315979, 38.9123483], [141.531457, 38.9123849], [141.5309734, 38.9124998], [141.5295028, 38.9129111], [141.5279835, 38.9133293], [141.5273273, 38.9135161], [141.5269218, 38.9136427], [141.5255043, 38.9142901], [141.5247395, 38.9146415], [141.5228824, 38.9155121], [141.5222807, 38.9157708], [141.5219267, 38.9158892], [141.5214428, 38.9159902], [141.5209944, 38.91604], [141.5205628, 38.9160227], [141.5203764, 38.9160008], [141.5199637, 38.9159488], [141.5187228, 38.9156657], [141.5164048, 38.9151012], [141.5135943, 38.9144599], [141.5124622, 38.9141888], [141.5120766, 38.9141087], [141.5118714, 38.9140757], [141.5115178, 38.9140284], [141.5111098, 38.9140101], [141.5107109, 38.9140231], [141.510287, 38.9140868], [141.5099047, 38.914186], [141.5095471, 38.914314], [141.5090576, 38.9145341], [141.5085852, 38.914811], [141.5082804, 38.9149863], [141.5079465, 38.9151783], [141.5076958, 38.9153225], [141.5076383, 38.915353], [141.506661, 38.9159042], [141.5059711, 38.9163037], [141.5057768, 38.9164012], [141.5055821, 38.9164851], [141.505351, 38.9165553], [141.5051001, 38.9166125], [141.5048787, 38.9166442], [141.5045917, 38.9166473], [141.5040286, 38.9166153], [141.5038184, 38.9166034], [141.5025444, 38.9165298], [141.5021389, 38.9165081], [141.5019294, 38.9164962], [141.5010655, 38.9164472], [141.5004206, 38.9164555], [141.499987, 38.916524], [141.4989422, 38.9169122], [141.4978837, 38.9173483], [141.4974746, 38.917477], [141.4970334, 38.9175142], [141.4958175, 38.9175086], [141.4946834, 38.9175235], [141.4941107, 38.9175067], [141.4916104, 38.9173148], [141.4913967, 38.9173145], [141.490883, 38.917358], [141.4894254, 38.9175254], [141.4893091, 38.9175319], [141.4889214, 38.9175646], [141.487277, 38.9176155], [141.4868153, 38.9176144], [141.485857, 38.9175038], [141.4844261, 38.917142], [141.4837474, 38.916983], [141.4824663, 38.9166917], [141.4820672, 38.9166307], [141.4816983, 38.9165899], [141.4812792, 38.9165821], [141.4799209, 38.9165848], [141.4778471, 38.9166007], [141.4768666, 38.916646], [141.47441, 38.916646], [141.4727272, 38.9166382], [141.4709001, 38.9166364], [141.4676407, 38.9167101], [141.4658395, 38.9166613], [141.4654183, 38.9166569], [141.4644511, 38.9166636], [141.463955, 38.9166665], [141.462255, 38.9166897], [141.4614835, 38.916741], [141.460868, 38.9168412], [141.4602687, 38.9169952], [141.4596139, 38.9172211], [141.4590041, 38.917512], [141.4583495, 38.9178764], [141.4578471, 38.918263], [141.4575371, 38.9185354], [141.4572897, 38.9188172], [141.4569525, 38.9192378], [141.4566892, 38.9196776], [141.456594, 38.9198283], [141.4563943, 38.9203055], [141.4562434, 38.9207827], [141.4561611, 38.9214118], [141.4560298, 38.9224911], [141.4559235, 38.9230624], [141.4557847, 38.9236274], [141.4556818, 38.923919], [141.4555085, 38.9243454], [141.4553241, 38.9246953], [141.4543845, 38.9263956], [141.4539943, 38.9271002], [141.4530563, 38.9288517], [141.4521624, 38.9304249], [141.4519707, 38.9306704], [141.4517687, 38.930893], [141.451428, 38.9311338], [141.4510431, 38.9313161], [141.4505417, 38.9315001], [141.4498635, 38.9316541], [141.4492462, 38.9316829], [141.4487938, 38.9316952], [141.4487482, 38.9316958], [141.4474462, 38.9317235], [141.4465547, 38.9317372], [141.4456354, 38.9318218], [141.4450184, 38.9319191], [141.4443447, 38.9320935], [141.4435132, 38.9323333], [141.4427252, 38.932635], [141.441757, 38.9331902], [141.4413073, 38.9335004], [141.4395503, 38.9347123], [141.4375122, 38.9360147], [141.4372144, 38.9362057], [141.4366158, 38.9365178], [141.4359282, 38.9367875], [141.4351974, 38.9370113], [141.434863, 38.9370786], [141.4342834, 38.9371718], [141.4333283, 38.9372774], [141.4328406, 38.93729], [141.4326209, 38.9372857], [141.4319345, 38.9372434], [141.4311505, 38.9371438], [141.4307889, 38.9370804], [141.4302777, 38.9369493], [141.4300637, 38.9368904], [141.4290004, 38.9365472], [141.4279216, 38.9361862], [141.4273075, 38.9359745], [141.4269157, 38.9359052], [141.4267938, 38.9358825], [141.4266672, 38.9358621], [141.424859, 38.9355526], [141.4242828, 38.9354416], [141.4233003, 38.9352784], [141.4228362, 38.9352], [141.4223895, 38.9351286], [141.4219947, 38.9351162], [141.4217899, 38.9351393], [141.4214891, 38.9351733], [141.4205418, 38.9353175], [141.4196492, 38.9354366], [141.419577, 38.935449], [141.419099, 38.9355165], [141.418605, 38.935614], [141.418135, 38.9357392], [141.4176629, 38.935879], [141.4172194, 38.93603], [141.4159187, 38.9364855], [141.4149393, 38.9367967], [141.4141816, 38.9371139], [141.41402, 38.9372019], [141.4139016, 38.9372707], [141.4131968, 38.9377252], [141.4128317, 38.9379633], [141.4124427, 38.9381877], [141.4120688, 38.9383561], [141.4115707, 38.9384766], [141.41079, 38.9385288], [141.4082033, 38.9384203], [141.40751, 38.938424], [141.406633, 38.938343], [141.4038181, 38.9378835], [141.403122, 38.93784], [141.3975796, 38.9379107], [141.3972173, 38.9379323], [141.3966529, 38.9380211], [141.3950422, 38.9382948], [141.3942174, 38.9384222], [141.3938687, 38.9384681], [141.393611, 38.938457], [141.3935728, 38.9384554], [141.3930184, 38.9383492], [141.392204, 38.9380843], [141.3915576, 38.937873], [141.3914214, 38.937826], [141.3907733, 38.9376027], [141.3901465, 38.9373031], [141.3879794, 38.9359536], [141.3875522, 38.9357036], [141.385119, 38.9337777], [141.3848423, 38.9335612], [141.3842087, 38.9330606], [141.383919, 38.9328654], [141.3836246, 38.9327286], [141.3832347, 38.9326331], [141.3823597, 38.9324531], [141.382314, 38.9324452], [141.3821776, 38.9324217], [141.3814056, 38.9322866], [141.3809532, 38.9322074], [141.3794921, 38.9319499], [141.3771227, 38.9315397], [141.3764385, 38.9314117], [141.3761019, 38.9313143], [141.3759722, 38.9312688], [141.3757875, 38.9311845], [141.3756116, 38.9310594], [141.3754256, 38.9308831], [141.3751742, 38.9305846], [141.3750193, 38.930399], [141.3748925, 38.9302543], [141.3747391, 38.9301354], [141.3744829, 38.9299657], [141.3742408, 38.9298783], [141.3741561, 38.9298546], [141.3739842, 38.9298151], [141.3738244, 38.9297877], [141.3736445, 38.9297676], [141.3734226, 38.9297588], [141.3731926, 38.9297717], [141.3730627, 38.9297919], [141.3725019, 38.9299278], [141.3722935, 38.9299885], [141.3717185, 38.9301205], [141.3713666, 38.9301746], [141.3700721, 38.9302741], [141.3699181, 38.9302837], [141.369663, 38.9303059], [141.3691377, 38.9303464], [141.3686589, 38.9303463], [141.3679643, 38.9302817], [141.3674842, 38.9302247], [141.3668288, 38.9301444], [141.3650489, 38.9299255], [141.364861, 38.9298991], [141.3639168, 38.9297659], [141.3637583, 38.9297419]], [[141.32763, 38.910652], [141.3277591, 38.910982], [141.3278871, 38.9114411], [141.3279922, 38.911885], [141.3281322, 38.9124872], [141.3282435, 38.9129113], [141.3283484, 38.913122], [141.3284054, 38.9132205], [141.3284937, 38.9133335], [141.3285634, 38.9134094], [141.3286194, 38.9134624], [141.3286745, 38.9135145], [141.3287373, 38.9135697], [141.3288209, 38.9136349], [141.328935, 38.9137074], [141.3290438, 38.9137684], [141.3293647, 38.9139341], [141.3296204, 38.9140495], [141.3299395, 38.9142153], [141.3303866, 38.9144485], [141.3309705, 38.9147447], [141.3314816, 38.9150107], [141.3316747, 38.9151112], [141.3318548, 38.9152023], [141.3320251, 38.9152885], [141.3331713, 38.9158825], [141.3335969, 38.916101], [141.3343926, 38.9165007], [141.3347078, 38.9166648], [141.3351746, 38.9169078], [141.3352235, 38.9169333], [141.3357079, 38.9171874], [141.3357397, 38.9172041], [141.3362853, 38.9175178], [141.3372001, 38.9181693], [141.3372323, 38.9181915], [141.3375339, 38.9184], [141.3378403, 38.9186118], [141.3381769, 38.9188495], [141.3382612, 38.918909], [141.3385994, 38.9191478], [141.3387177, 38.9192322], [141.3388395, 38.9193285], [141.3397359, 38.9200361], [141.3397695, 38.9200626], [141.3399031, 38.9201654], [141.3401032, 38.9203247], [141.3402917, 38.9204747], [141.3403447, 38.9205169], [141.3404544, 38.9206029], [141.3405646, 38.9206879], [141.3406987, 38.9207785], [141.3409997, 38.9209318], [141.3411108, 38.9209834], [141.341213, 38.9210245], [141.3412704, 38.9210465], [141.3413229, 38.9210604], [141.3414493, 38.9210939], [141.3415696, 38.9211177], [141.3419545, 38.9211593], [141.3421967, 38.921169], [141.3426204, 38.921186], [141.3431552, 38.9212075], [141.3436779, 38.9212344], [141.3437789, 38.9212462], [141.3438982, 38.9212602], [141.3440844, 38.9213026], [141.3442561, 38.9213685], [141.3442659, 38.9213723], [141.3444213, 38.9214582], [141.3445396, 38.9215605], [141.3450039, 38.9219617], [141.3459006, 38.9227138], [141.3468582, 38.92354], [141.3469902, 38.923654], [141.3470941, 38.923748], [141.3471757, 38.923835], [141.3472478, 38.9239322], [141.3474412, 38.9242705], [141.3474936, 38.9243847], [141.3476476, 38.924698], [141.3477728, 38.9249545], [141.3478318, 38.9250757], [141.3479649, 38.9252662], [141.3480473, 38.925356], [141.3482569, 38.9254886], [141.3485168, 38.9256581], [141.3487802, 38.9258075], [141.3489874, 38.925904], [141.3492075, 38.92599], [141.3494682, 38.9260716], [141.3497903, 38.9261535], [141.3502094, 38.9262087], [141.3506107, 38.9262404], [141.3510229, 38.9262559], [141.3510874, 38.9262583], [141.3516541, 38.926237], [141.3519967, 38.9261985], [141.3523203, 38.9261333], [141.353315, 38.9259062], [141.3537031, 38.9258365], [141.3540558, 38.9257901], [141.3542938, 38.9257799], [141.3547379, 38.9257839], [141.3550972, 38.925824], [141.3555943, 38.9259221], [141.3558166, 38.9259675], [141.3564436, 38.926107], [141.3568566, 38.9262293], [141.3570802, 38.9262534], [141.357305, 38.9262814], [141.3579147, 38.9262896], [141.3595668, 38.9263199], [141.3597988, 38.9263355], [141.3599, 38.9263724], [141.3599726, 38.9263989], [141.3600838, 38.926471], [141.3601842, 38.9265585], [141.3602527, 38.9266546], [141.36029, 38.9267795], [141.3603349, 38.9270276], [141.3604668, 38.9278749], [141.3605296, 38.9282001], [141.3605809, 38.9284046], [141.3606708, 38.9286355], [141.3607897, 38.9288332], [141.3608928, 38.9289627], [141.3610971, 38.9291346], [141.3612303, 38.9292322], [141.3613916, 38.9293059], [141.3615828, 38.9293943], [141.3617622, 38.9294597], [141.3619123, 38.9294995], [141.362309, 38.9295495], [141.3630174, 38.9296464], [141.363088, 38.929657], [141.3636457, 38.9297226], [141.3637583, 38.9297419]], [[141.32763, 38.910652], [141.3274204, 38.91022], [141.3272948, 38.9099716], [141.3272877, 38.9099574], [141.3272566, 38.9099049], [141.3272132, 38.9098213], [141.3271685, 38.9097218], [141.3269437, 38.9092218], [141.3269188, 38.9091669], [141.3268816, 38.9090927], [141.3267053, 38.9087031], [141.3264092, 38.9080102], [141.3260739, 38.9072257], [141.3258261, 38.9067006], [141.325764, 38.9065689], [141.325621, 38.9062078], [141.3254027, 38.9056651], [141.3249005, 38.9044737], [141.3244241, 38.9033581], [141.324318, 38.903111], [141.3242416, 38.9029845], [141.3241296, 38.9027968], [141.3238438, 38.9024354], [141.3235651, 38.9021223], [141.3233043, 38.9018908], [141.3230412, 38.9016986], [141.3228233, 38.901559], [141.3224567, 38.9013445], [141.3220518, 38.901098], [141.3216907, 38.9008708], [141.3213251, 38.9006186], [141.32096, 38.9002621], [141.3203619, 38.8995123], [141.3201368, 38.8993255], [141.3198751, 38.8991653], [141.3194622, 38.8989896], [141.3189636, 38.898784], [141.318785, 38.8986978], [141.3186106, 38.8985801], [141.3183859, 38.8984083], [141.3179819, 38.897911], [141.3177881, 38.8976236], [141.317511, 38.8973602], [141.3172941, 38.8972252], [141.3171768, 38.8971685], [141.3170182, 38.8970994], [141.3167975, 38.8970075], [141.3165383, 38.896962], [141.3162628, 38.896936], [141.3160348, 38.8969315], [141.3158022, 38.8969515], [141.3155764, 38.8969858], [141.3153505, 38.8970516], [141.314864, 38.8972449], [141.3144024, 38.8974626], [141.3135932, 38.8978372], [141.3133219, 38.8979082], [141.3131923, 38.8979271], [141.3130575, 38.8979502], [141.3128486, 38.8979649], [141.3125759, 38.8979828], [141.3125446, 38.8979848], [141.3118944, 38.8980109], [141.311656, 38.898034], [141.3112815, 38.8980763], [141.3108748, 38.8981433], [141.3104525, 38.8982224], [141.3092144, 38.8984402], [141.3085775, 38.8984317], [141.3084269, 38.898422], [141.3079858, 38.898405], [141.3073881, 38.8983384], [141.307129, 38.8982951], [141.3068699, 38.8982378], [141.3063368, 38.8980506], [141.3057322, 38.8978345], [141.3062813, 38.8981268], [141.3068101, 38.8983677], [141.3070282, 38.8984237], [141.3072552, 38.8984671], [141.3074916, 38.8984983], [141.3077043, 38.8985085], [141.3082867, 38.8985142], [141.3085953, 38.8985026], [141.3092144, 38.8984402]], [[141.3057322, 38.8978345], [141.3050841, 38.8975642], [141.3047405, 38.8974657], [141.3045382, 38.8974227], [141.3043291, 38.8973832], [141.3039522, 38.8973458], [141.3033061, 38.8973007], [141.3020976, 38.8972343], [141.3008841, 38.8971429], [141.300407, 38.8971249], [141.30011, 38.8971482], [141.2999472, 38.8971659], [141.2996456, 38.8972587], [141.2991465, 38.8974899], [141.2986426, 38.8977217], [141.297208, 38.8983334], [141.2955833, 38.8990404], [141.2943464, 38.8995436], [141.2939713, 38.8996204], [141.2930418, 38.8996743], [141.2912932, 38.8998225], [141.2903933, 38.8999149], [141.2892932, 38.8999954], [141.2891788, 38.9000046], [141.2878563, 38.9001104], [141.2865902, 38.9002198], [141.285603, 38.9002921], [141.2846414, 38.900361], [141.2833796, 38.9004588], [141.2821896, 38.9004697], [141.2816631, 38.9004278], [141.2812034, 38.9003771], [141.2807533, 38.9002826], [141.2791732, 38.8998234], [141.2778049, 38.8994266], [141.2776794, 38.8993956], [141.2767716, 38.8991828], [141.2764606, 38.8990657], [141.2756865, 38.8988723], [141.2750781, 38.8988162], [141.2744411, 38.8988057], [141.273775, 38.8988926], [141.2730692, 38.8990214], [141.2715643, 38.8993411], [141.2714862, 38.8993607], [141.2699252, 38.899662], [141.2683398, 38.8999897], [141.2680541, 38.9000587], [141.2677049, 38.9000837], [141.2671759, 38.9000254], [141.2668136, 38.8999343], [141.2663274, 38.8997645], [141.265623, 38.8994486], [141.2650275, 38.8991786], [141.2638345, 38.8986668], [141.261481, 38.8976453], [141.2612302, 38.8975133], [141.2604481, 38.8972055], [141.2599027, 38.897022], [141.2594946, 38.8969318], [141.2580384, 38.8967731], [141.2565847, 38.89661], [141.2562173, 38.8965844], [141.254906, 38.8964199], [141.2543977, 38.8963585], [141.2536281, 38.8962863], [141.2530005, 38.8962471], [141.2527257, 38.8962889], [141.2524655, 38.8963452], [141.2522375, 38.8964621], [141.2514862, 38.8971098], [141.2506149, 38.8977173], [141.2502417, 38.89794], [141.2498473, 38.8981307], [141.2494299, 38.8981484], [141.2491118, 38.8980923], [141.2489116, 38.8979867], [141.2487595, 38.89788], [141.248601, 38.89774], [141.248458, 38.897566], [141.2480805, 38.8973249], [141.247677, 38.897122], [141.245568, 38.8962746], [141.2450817, 38.8960966], [141.2448226, 38.8960563], [141.244527, 38.8960629], [141.2442121, 38.8961413], [141.2439524, 38.8962536], [141.2433725, 38.8966114], [141.2430812, 38.8967231], [141.2427623, 38.8968077], [141.2415733, 38.8969065], [141.240396, 38.896938], [141.2398983, 38.8969115], [141.239414, 38.896812], [141.2387823, 38.8966247], [141.2374585, 38.8960927], [141.2351561, 38.8952633], [141.2347341, 38.8951444], [141.234273, 38.895043], [141.231485, 38.894666], [141.2310906, 38.8946659], [141.2307008, 38.8946959], [141.230091, 38.894832], [141.2288866, 38.8953328], [141.228387, 38.895625], [141.22751, 38.896339], [141.2263887, 38.8973667], [141.2249836, 38.8986542], [141.2243708, 38.8992904], [141.2242129, 38.8995103], [141.224102, 38.899744], [141.223501, 38.901792], [141.223314, 38.902186], [141.2230746, 38.902572], [141.2228737, 38.9028123], [141.2226007, 38.9030853], [141.2222885, 38.9033384], [141.2217867, 38.9036978], [141.2211056, 38.9041479], [141.220345, 38.9046103], [141.220041, 38.9047501], [141.2198203, 38.9048189], [141.2195969, 38.904869], [141.2193338, 38.9049051], [141.2190789, 38.9049163], [141.2188456, 38.904909], [141.2178505, 38.9047733], [141.2168714, 38.904574], [141.2164048, 38.9045228], [141.2161513, 38.9045197], [141.215863, 38.9045218], [141.2153574, 38.9045562], [141.2144834, 38.9047132], [141.2140483, 38.9047763], [141.2136762, 38.9048089], [141.2132987, 38.9048027], [141.2129879, 38.9047661], [141.2126573, 38.904695], [141.2122945, 38.9045948], [141.2119087, 38.9044541], [141.2108714, 38.903929], [141.2102735, 38.903616], [141.2099004, 38.9033726], [141.2095044, 38.9031156], [141.2090505, 38.902766], [141.2087879, 38.9025389], [141.2080068, 38.9018441], [141.2068808, 38.9011235], [141.206484, 38.9008702], [141.2057229, 38.9004736], [141.204574, 38.8999246], [141.2041424, 38.8997308], [141.2038734, 38.899645], [141.2035467, 38.8995655], [141.2031499, 38.8995107], [141.2030447, 38.8994962], [141.202885, 38.8994742], [141.2023418, 38.8993994], [141.2015516, 38.8992906], [141.2008275, 38.8991779], [141.2000281, 38.8990535], [141.1994255, 38.8989789], [141.1991065, 38.8989498], [141.1989854, 38.8989447], [141.1983805, 38.8989191], [141.1973392, 38.8988751], [141.1965677, 38.898854], [141.1959051, 38.8988358], [141.195648, 38.898856], [141.1953421, 38.8988982], [141.1939053, 38.8991614], [141.1925303, 38.8993982], [141.1920271, 38.8994866], [141.19118, 38.8996355], [141.1909617, 38.8996692], [141.190764, 38.8996998], [141.1904928, 38.8997316], [141.1902617, 38.8997285], [141.1893985, 38.8996388], [141.1892349, 38.8996218], [141.1883417, 38.8995183], [141.187902, 38.8994688], [141.1872705, 38.8993998], [141.1870582, 38.8993822], [141.1867998, 38.8993898], [141.1865486, 38.8994279], [141.1863243, 38.8994963], [141.1860258, 38.8996595], [141.1857444, 38.8998251], [141.1852562, 38.9001458], [141.1849259, 38.9003631], [141.1847246, 38.9004723], [141.1843456, 38.9006266], [141.1831234, 38.90103], [141.1819424, 38.9014722], [141.1811028, 38.9019081], [141.1806153, 38.9021557], [141.1802693, 38.9023077], [141.1795772, 38.9026075], [141.1790983, 38.9027946], [141.1781674, 38.9030994], [141.1778845, 38.9031884], [141.1763317, 38.9036691], [141.175361, 38.9039883], [141.1744947, 38.9043055], [141.1738547, 38.9045582], [141.1732261, 38.9048331], [141.1725193, 38.9051685], [141.171825, 38.9055346], [141.1700725, 38.9065369], [141.1690475, 38.9071287], [141.1687346, 38.9073092], [141.1684835, 38.9074532], [141.1680893, 38.9076472], [141.1677269, 38.9078211], [141.1674166, 38.9079483], [141.1670892, 38.9080755], [141.1665963, 38.9082232], [141.1661966, 38.9083098], [141.1658605, 38.9083698], [141.1651035, 38.9085051], [141.1646965, 38.9085634], [141.1637053, 38.9087058], [141.1631454, 38.9088042], [141.1628948, 38.9088668], [141.1626098, 38.9089591], [141.1624108, 38.908996], [141.162223, 38.9090519], [141.1620048, 38.9091374], [141.1618408, 38.9092246], [141.1614728, 38.9094201], [141.1611139, 38.9096288], [141.1608956, 38.9097796], [141.1606383, 38.910018], [141.1603375, 38.9103613], [141.1601192, 38.9106597], [141.1598809, 38.9109919], [141.1595835, 38.9113259], [141.1592995, 38.9115518], [141.1591348, 38.911648], [141.1588671, 38.9117519], [141.1585271, 38.911853], [141.15834, 38.9118826], [141.1582069, 38.9119021], [141.1580456, 38.9119072], [141.1577506, 38.9118956], [141.1575684, 38.9118656], [141.157194, 38.9118152], [141.156676, 38.9117386], [141.1563403, 38.9116792], [141.1557461, 38.9115867], [141.1554109, 38.9115378], [141.1550715, 38.9114799], [141.1547281, 38.9114015], [141.1544152, 38.9113124], [141.1539708, 38.9111905], [141.153443, 38.9109984], [141.1529859, 38.910773], [141.1525648, 38.910519], [141.1522788, 38.9103212], [141.1520955, 38.9101749], [141.1516869, 38.9098499], [141.1511736, 38.909463], [141.1508278, 38.9092278], [141.1503888, 38.9090094], [141.1502286, 38.9089395], [141.150074, 38.9088909], [141.1497657, 38.9087859], [141.149388, 38.9086905], [141.1491151, 38.9086493], [141.1488729, 38.9086276], [141.1485479, 38.9086129], [141.1483713, 38.9086222], [141.1481166, 38.9086412], [141.1478202, 38.9086821], [141.1475215, 38.9087317], [141.1472895, 38.9087819], [141.147101, 38.9088405], [141.146827, 38.9089344], [141.1466408, 38.9090032], [141.1465232, 38.9090687], [141.1461962, 38.9092707], [141.1460002, 38.9093903], [141.1458495, 38.9095207], [141.1456859, 38.9096522], [141.1455608, 38.909784], [141.1453418, 38.9100425], [141.1452624, 38.9101453], [141.1451098, 38.9103823], [141.1449016, 38.910756], [141.1447131, 38.9110761], [141.1444062, 38.9115426], [141.1441884, 38.9118267], [141.1440669, 38.9119634], [141.1438109, 38.9122313], [141.1432244, 38.9127732], [141.1427128, 38.9133052], [141.1425262, 38.9135557], [141.1424174, 38.9137248], [141.1423325, 38.9138999], [141.142226, 38.9141871], [141.1419917, 38.9149523], [141.1417549, 38.9157848], [141.1414678, 38.9166962], [141.1414331, 38.9168902], [141.1413665, 38.9171126], [141.1412354, 38.9175247], [141.141175, 38.9176706], [141.1410714, 38.9179293], [141.1410147, 38.918041], [141.1409451, 38.9181493], [141.1406752, 38.9185409], [141.1405501, 38.9187021], [141.1403451, 38.9189485], [141.1401494, 38.9191875], [141.140031, 38.9193399], [141.1398131, 38.9196337], [141.1394365, 38.9201297], [141.1392268, 38.9203409], [141.1389472, 38.9205666], [141.138716, 38.9207168], [141.1385757, 38.9208065], [141.1382139, 38.9210575], [141.1380605, 38.9211666], [141.1377929, 38.9213299], [141.1376928, 38.9213995], [141.1376521, 38.9214327], [141.1372264, 38.921895], [141.1370133, 38.9220399], [141.1368826, 38.9221058], [141.1366996, 38.9221812], [141.1365459, 38.9222301], [141.1364295, 38.9222629], [141.1362088, 38.9223058], [141.1359717, 38.9223508], [141.1353723, 38.9224616], [141.1345799, 38.9226109], [141.1344149, 38.9226474], [141.1341445, 38.9227172], [141.1337157, 38.922836], [141.13366, 38.9228515], [141.1336244, 38.9229064]], [[141.1626098, 38.9089591], [141.1623786, 38.9090368], [141.1620255, 38.9091812], [141.1617559, 38.9093221], [141.1611599, 38.909684], [141.1609518, 38.9098393], [141.1607183, 38.910057], [141.1603864, 38.9104334], [141.1600217, 38.910963], [141.159801, 38.911211], [141.1596473, 38.9113846], [141.1594424, 38.9115293], [141.1591819, 38.9117114], [141.1587964, 38.9118644], [141.1584743, 38.9119373], [141.1581904, 38.9119734], [141.1579123, 38.9119681], [141.1576005, 38.9119364], [141.1569775, 38.9118556], [141.1565584, 38.9117899], [141.1562882, 38.9117501], [141.1554637, 38.9116144], [141.1548835, 38.9115197], [141.1544891, 38.9114275], [141.1539475, 38.9112613], [141.1533941, 38.9110443], [141.1529089, 38.9108123], [141.152522, 38.9105649], [141.1522254, 38.9103569], [141.1519087, 38.9101182], [141.1515987, 38.9098655], [141.151095, 38.9094871], [141.15077, 38.9092749], [141.1504506, 38.9091111], [141.1501948, 38.9089995], [141.1499354, 38.9089065], [141.1496974, 38.9088318], [141.1493436, 38.9087565], [141.149027, 38.9087075], [141.1486463, 38.9086876], [141.1485482, 38.9086887], [141.148422, 38.9086925], [141.1479648, 38.9087295], [141.1477293, 38.9087685], [141.147531, 38.9088075], [141.1473305, 38.9088516], [141.1470197, 38.9089357], [141.1466987, 38.9090601], [141.1462006, 38.9093517], [141.1460182, 38.9094714], [141.1458051, 38.9096391], [141.1456291, 38.9098211], [141.1453366, 38.9101525], [141.1451855, 38.9103938], [141.1449591, 38.9108066], [141.1446755, 38.9112856], [141.144275, 38.9118185], [141.1438699, 38.9122483], [141.143424, 38.9126608], [141.1430114, 38.9130747], [141.1428126, 38.9132923], [141.1427749, 38.913344], [141.1426457, 38.9135209], [141.1424878, 38.9137528], [141.1423933, 38.9139275], [141.1423562, 38.9140165], [141.1422971, 38.9142011], [141.1421844, 38.9145524], [141.1420285, 38.9151055], [141.1418764, 38.915642], [141.1418305, 38.9157993], [141.1415262, 38.9167045], [141.1415034, 38.9168965], [141.1412915, 38.9175336], [141.1411058, 38.917983], [141.1410593, 38.9180634], [141.1409979, 38.9181698], [141.140667, 38.9186437], [141.1402034, 38.9192216], [141.1400656, 38.9193897], [141.139491, 38.9201536], [141.1392759, 38.9203852], [141.1389886, 38.9206117], [141.1387712, 38.9207624], [141.1382595, 38.9210954], [141.1381092, 38.9212003], [141.1378708, 38.921353], [141.1377814, 38.9214269], [141.1377022, 38.9214841], [141.137331, 38.921891], [141.1372199, 38.9219845], [141.1370194, 38.9221118], [141.1367235, 38.9222378], [141.1364553, 38.9223253], [141.1362372, 38.9223693], [141.1357284, 38.9224647], [141.1347798, 38.9226364], [141.1344466, 38.9227042], [141.1337417, 38.9228989], [141.1336866, 38.9229135], [141.1336244, 38.9229064], [141.1336712, 38.9229881], [141.1337145, 38.9230638], [141.1339841, 38.9236071], [141.1340611, 38.9237664], [141.1341, 38.9238454], [141.1343366, 38.9243074], [141.1346749, 38.9250027], [141.1347167, 38.9250874], [141.1347704, 38.9251959], [141.1355436, 38.9267622], [141.1355834, 38.9268424], [141.1354869, 38.9268662], [141.1349356, 38.9270269], [141.1348406, 38.9270546], [141.1342869, 38.9272235], [141.1342111, 38.9272466], [141.1341214, 38.927271], [141.1328992, 38.9276027], [141.1328114, 38.9276265], [141.1327743, 38.9276377], [141.1326723, 38.9276676], [141.1314685, 38.9280199], [141.1313989, 38.9280403], [141.1312762, 38.9280726], [141.1312084, 38.9280916], [141.1311869, 38.9280977], [141.1298782, 38.9284648], [141.129864, 38.9284687], [141.1297491, 38.9285001], [141.1296476, 38.9285425], [141.1281773, 38.9291462], [141.1281371, 38.9291629], [141.1276883, 38.9293242], [141.1273256, 38.9294631], [141.1271459, 38.9295319], [141.127036, 38.929568], [141.126355, 38.9297918], [141.1262275, 38.9298337], [141.1260025, 38.9298968], [141.1259629, 38.9299093], [141.1256467, 38.9300106], [141.1254104, 38.9300809], [141.1250184, 38.9302072], [141.1248946, 38.930247], [141.124766, 38.930286], [141.1239971, 38.9305192], [141.1239069, 38.930546], [141.1228118, 38.9308756], [141.1223954, 38.9310243], [141.1216482, 38.930331], [141.1215466, 38.9302366], [141.1209217, 38.9296815], [141.1200957, 38.9289802], [141.12001, 38.9289051], [141.11995, 38.9288525], [141.1195327, 38.9284747], [141.1194445, 38.9283675], [141.1193424, 38.928232], [141.1189797, 38.9274477], [141.1189683, 38.9274291], [141.1189225, 38.9273486], [141.118872, 38.9272583], [141.1188399, 38.927202], [141.1183288, 38.9262171], [141.1182752, 38.9261199], [141.116922, 38.9241941], [141.1168139, 38.9240673], [141.1166949, 38.9239598], [141.1165503, 38.9238784], [141.1163902, 38.9237946], [141.1158169, 38.9235743], [141.1145096, 38.9230813], [141.1139972, 38.9228921], [141.1136028, 38.9227422], [141.1134258, 38.922675], [141.1129295, 38.9225443], [141.1125437, 38.9224427], [141.1117984, 38.922267], [141.1115245, 38.9222002], [141.1113213, 38.9221531], [141.111065, 38.9220944]]]}, "id": "relation/947961"}, {"type": "Feature", "properties": {"@id": "relation/10427579", "description": "室根バイパスの旧道区間", "name": "国道284号旧道", "network": "JP:national", "route": "road", "type": "route"}, "geometry": {"type": "MultiLineString", "coordinates": [[[141.4676407, 38.9167101], [141.467227, 38.9168993], [141.4671139, 38.9169662], [141.4669829, 38.9170431], [141.4668473, 38.9171119], [141.4662028, 38.9178628], [141.4659325, 38.9182135], [141.465703, 38.918505]], [[141.4326209, 38.9372857], [141.4326112, 38.9374011], [141.4326363, 38.9375045], [141.4327054, 38.9375944], [141.4328302, 38.937661], [141.4329712, 38.9376656], [141.4331497, 38.9376597], [141.4333268, 38.9376278], [141.4335801, 38.9375805], [141.4338505, 38.937572], [141.4345891, 38.9376979], [141.4353913, 38.9378146], [141.4356068, 38.9378588], [141.4359998, 38.9378826], [141.4361762, 38.937877], [141.4363545, 38.9378427], [141.4364872, 38.9378198], [141.4366541, 38.9377652], [141.4367737, 38.9377263], [141.4369543, 38.9377069], [141.4371685, 38.9377257], [141.4377476, 38.9378666], [141.4385628, 38.9380774], [141.4392059, 38.9382268], [141.4396991, 38.9383007], [141.4400365, 38.9383098], [141.4403772, 38.9382936], [141.4406461, 38.938252], [141.4422639, 38.9380352], [141.4431298, 38.9378613], [141.443556, 38.9377609], [141.4440763, 38.9375739], [141.444483, 38.937447], [141.4448021, 38.9373427], [141.4450971, 38.9373137], [141.4453661, 38.9372963], [141.4458696, 38.9373916], [141.4461071, 38.9374498], [141.4467886, 38.9376276], [141.4482323, 38.9379681], [141.4490169, 38.938094], [141.4502474, 38.9382784], [141.4516183, 38.9384885], [141.4522874, 38.9385467], [141.4529008, 38.9385887], [141.4539361, 38.9386529], [141.453977, 38.9386555], [141.455732, 38.938738], [141.4560374, 38.9387593], [141.4563845, 38.9387827], [141.4565429, 38.9387862], [141.4566884, 38.9387779], [141.4568197, 38.9387632], [141.4570347, 38.9387335], [141.4571394, 38.9387244], [141.4572354, 38.9387266], [141.4573289, 38.9387446], [141.4575833, 38.9388376], [141.4576893, 38.9388626], [141.4578046, 38.9388742], [141.4579328, 38.9388758], [141.4580718, 38.9388673], [141.4582044, 38.9388554], [141.4583481, 38.9388344], [141.4585539, 38.9387833], [141.458722, 38.9387245], [141.4588644, 38.9386623], [141.4591021, 38.9385477], [141.4593078, 38.9384427], [141.4597755, 38.9382156], [141.4616395, 38.9372921], [141.461922, 38.93711], [141.4621177, 38.9369604], [141.4622912, 38.9368131], [141.4623212, 38.93678], [141.4627054, 38.9363173], [141.4628479, 38.9361639], [141.4630642, 38.9360195], [141.4633087, 38.9359025], [141.4637912, 38.9357727], [141.4647254, 38.9355873], [141.4653375, 38.9354276], [141.465795, 38.935134], [141.466206, 38.9347951], [141.466498, 38.934375], [141.4666217, 38.934081], [141.4666568, 38.9337555], [141.4666445, 38.9334833], [141.4663229, 38.9310582], [141.4661682, 38.9298459], [141.4660536, 38.9287038], [141.4659733, 38.9283834], [141.4657732, 38.9279237], [141.4653303, 38.9272718], [141.464966, 38.926607], [141.4646365, 38.9258021], [141.4643403, 38.9250271], [141.4643458, 38.9249274], [141.463744, 38.923671], [141.4636865, 38.9234396], [141.4637025, 38.9232403], [141.4637505, 38.9230285], [141.4638337, 38.9228245], [141.464745, 38.9206265], [141.4652769, 38.9193995], [141.4655416, 38.9187795], [141.465703, 38.918505]]]}, "id": "relation/10427579"}]}