{"type": "FeatureCollection", "generator": "kokudo-quiz tools/fetch_raw.py (Overpass API)", "copyright": "The data included in this document is from www.openstreetmap.org. The data is made available under ODbL.", "timestamp": "2026-09-30T16:10:20Z", "features": [{"type": "Feature", "properties": {"@id": "relation/9095602", "colour": "red", "from": "福島県郡山市", "name": "国道288号", "name:en": "National Highway Route 288", "name:ja": "国道288号", "name:ja-Hira": "こくどうにひゃくはちじゅうはちごう", "name:ja-Latn": "kokudou 288 gou", "network": "JP:national", "ref": "288", "route": "road", "to": "福島県双葉郡双葉町", "type": "route", "wikidata": "Q11421435", "wikipedia": "ja:国道288号"}, "geometry": {"type": "MultiLineString", "coordinates": [[[140.3792541, 37.4474533], [140.3793441, 37.4471386], [140.3793878, 37.4468003], [140.3794644, 37.4466076], [140.379519, 37.4462231], [140.3795779, 37.4458934], [140.3795988, 37.4456943], [140.3796005, 37.4452949], [140.3795662, 37.4447157], [140.3795233, 37.4443613], [140.3795233, 37.4440819], [140.3795604, 37.4436354], [140.3795779, 37.4434102], [140.3796349, 37.4429853], [140.3796876, 37.4426342], [140.3797167, 37.4422623], [140.37972, 37.4421239], [140.3797657, 37.4413823], [140.3797766, 37.441279], [140.3797894, 37.4411585], [140.379903, 37.4399638], [140.3799339, 37.4395135], [140.3799433, 37.4394145], [140.3799896, 37.4390241], [140.3800024, 37.4388926], [140.380089, 37.4384638], [140.3801756, 37.4380986], [140.3802877, 37.4376404], [140.3802839, 37.437602], [140.3804177, 37.4370517], [140.3805782, 37.4364074], [140.3806712, 37.4360634], [140.3808559, 37.4353536], [140.3809285, 37.4349781], [140.3811667, 37.4340828], [140.3813196, 37.4334152], [140.3814445, 37.4329853], [140.3815027, 37.4327747], [140.3815298, 37.4326768], [140.3815833, 37.4324562], [140.3817171, 37.431911], [140.3818991, 37.4311918], [140.3820979, 37.4303483], [140.3821396, 37.430161], [140.3823288, 37.42931], [140.3825073, 37.4286261], [140.3827271, 37.4277534], [140.3828802, 37.4271339], [140.3831652, 37.4260127], [140.3832495, 37.4256366], [140.3833142, 37.4254293], [140.3833517, 37.4253118], [140.3834444, 37.4250215], [140.3835622, 37.4247276], [140.3836957, 37.4243869], [140.3841783, 37.4233752], [140.384471, 37.4227287], [140.3847647, 37.4221063], [140.3848926, 37.4218273], [140.3852457, 37.4210661], [140.3857105, 37.4200774], [140.3857844, 37.4199128], [140.3858229, 37.4198287], [140.3859411, 37.4195709], [140.3860205, 37.4193823], [140.3861231, 37.4191431], [140.3862221, 37.4188383], [140.3862324, 37.4188055], [140.3863609, 37.418286], [140.3864239, 37.4179454], [140.3864762, 37.4173688], [140.3864924, 37.4168852], [140.3864996, 37.4167327], [140.3865288, 37.4161123], [140.3865444, 37.4157346], [140.3865769, 37.415279], [140.3866203, 37.4141893], [140.3866491, 37.4137443], [140.3865689, 37.4137592], [140.3865676, 37.4138998], [140.3865489, 37.4141955], [140.3865349, 37.4144237], [140.3865055, 37.415284], [140.3864725, 37.4161161], [140.3864372, 37.4168159], [140.3864327, 37.4169049], [140.3864147, 37.4173612], [140.3864147, 37.4174371], [140.3863905, 37.4176931], [140.3863536, 37.4179976], [140.3862873, 37.4183386], [140.3861867, 37.4187291], [140.3861408, 37.418888], [140.3860372, 37.4191786], [140.3860045, 37.4192704], [140.3858529, 37.4196316], [140.385763, 37.4198126], [140.3857246, 37.419896], [140.385607, 37.4201506], [140.385165, 37.4210956], [140.3849866, 37.4214851], [140.3847828, 37.4218817], [140.3843287, 37.4227787], [140.3840725, 37.4233789], [140.3839521, 37.4236114], [140.3835948, 37.424429], [140.3834569, 37.4247803], [140.3833558, 37.4250694], [140.3833256, 37.4251708], [140.3832626, 37.4253829], [140.3830909, 37.4260364], [140.3828171, 37.4271224], [140.3826604, 37.4277691], [140.3824694, 37.4283857], [140.3824046, 37.4286304], [140.382237, 37.4293285], [140.3820715, 37.4301601], [140.3820324, 37.4303467], [140.381845, 37.4311174], [140.3816546, 37.431911], [140.3815247, 37.4324138], [140.381489, 37.4325706], [140.3813265, 37.4332208], [140.3813234, 37.4332331], [140.381112, 37.4340889], [140.3810886, 37.4341872], [140.3809807, 37.4345441], [140.3809298, 37.4347869], [140.3808725, 37.4349892], [140.3807897, 37.4352927], [140.3806584, 37.4358318], [140.3805336, 37.4364124], [140.3804444, 37.4368089], [140.3803795, 37.4370517], [140.3802304, 37.4376434], [140.3801565, 37.4379297], [140.3800304, 37.438483], [140.379954, 37.4389159], [140.3798891, 37.4393789], [140.3798826, 37.4395228], [140.379796, 37.4404169], [140.3797671, 37.4406407], [140.3796992, 37.4411654], [140.3796721, 37.4412773], [140.3796618, 37.4413749], [140.3796376, 37.4421388], [140.3796339, 37.4422527], [140.3796235, 37.4425903], [140.3796027, 37.4427669], [140.3795819, 37.4429438], [140.3795122, 37.4434305], [140.3795055, 37.4434772], [140.3794894, 37.4437402], [140.3794679, 37.443901], [140.3794371, 37.4441076], [140.3794062, 37.4442449], [140.3793122, 37.4446398], [140.3792784, 37.4449121], [140.3792008, 37.4452281], [140.3791505, 37.4455031], [140.379123, 37.4456891], [140.3791113, 37.4461113], [140.3791294, 37.446393], [140.3791387, 37.4466418], [140.3791279, 37.4468285], [140.3791012, 37.4471634], [140.3791341, 37.4475064]], [[140.3866491, 37.4137443], [140.3867744, 37.4137249], [140.3872151, 37.41363], [140.3875687, 37.4135339], [140.3879739, 37.4134326], [140.3881596, 37.4133851], [140.3884001, 37.4133287], [140.3887795, 37.4132517], [140.3888845, 37.4132274], [140.3889636, 37.4132158], [140.3894189, 37.4131453], [140.3900937, 37.4130658], [140.3903004, 37.4130543], [140.3905185, 37.4130392], [140.3907126, 37.4130392], [140.3911842, 37.4130187], [140.3914694, 37.4130019], [140.3919357, 37.4130005], [140.3921485, 37.4129814], [140.3926533, 37.4128946], [140.393072, 37.4128102], [140.393321, 37.4127589], [140.3936814, 37.4126816], [140.393977, 37.4126233], [140.3944132, 37.412578], [140.3946291, 37.4125786], [140.3948101, 37.4125855], [140.3950422, 37.4125988], [140.3952078, 37.4126238], [140.3953372, 37.412643], [140.395478, 37.4126696], [140.3956577, 37.4127021], [140.3958636, 37.4127543], [140.3960594, 37.4128129], [140.3961593, 37.4128443], [140.3963222, 37.412904], [140.3964584, 37.4129572], [140.3965683, 37.4130004], [140.3968741, 37.4131484], [140.3970116, 37.4132289], [140.397107, 37.4132911], [140.397292, 37.4134205], [140.3972994, 37.4134257], [140.3979, 37.413876], [140.3980026, 37.4139529], [140.3980625, 37.4139954], [140.3983835, 37.4142352], [140.398591, 37.414396], [140.398936, 37.414649], [140.3989975, 37.4147006], [140.3991679, 37.4148321], [140.3991746, 37.4148372], [140.3994854, 37.4150679], [140.3997188, 37.4152413], [140.4001107, 37.4155325], [140.4001377, 37.4155525], [140.400637, 37.4159279], [140.401395, 37.4164935], [140.4014772, 37.4165547], [140.4015148, 37.4165826], [140.401716, 37.4167353], [140.4017479, 37.4167586], [140.40186, 37.4168466], [140.4018944, 37.416874], [140.4019606, 37.4169225], [140.4020944, 37.4170186], [140.4021804, 37.4170831], [140.4028931, 37.4176176], [140.4029632, 37.4176753], [140.4031632, 37.4178291], [140.4034154, 37.4180223], [140.4035047, 37.4180859], [140.4036995, 37.4182247], [140.4046435, 37.418938], [140.4047066, 37.4189873], [140.404737, 37.4190111], [140.4047675, 37.419033], [140.4049747, 37.4191818], [140.4051365, 37.4192901], [140.4053501, 37.41941], [140.4054684, 37.4194607], [140.4068978, 37.4199657], [140.4071375, 37.4200504], [140.4087348, 37.4206395], [140.4088601, 37.4206877], [140.4104668, 37.4213053], [140.4106209, 37.4213483], [140.4110817, 37.4214771], [140.4118972, 37.4216973], [140.4120785, 37.4217463], [140.4133417, 37.4220888], [140.4133812, 37.4220995], [140.4137693, 37.4221957], [140.415866, 37.422765], [140.415994, 37.422799], [140.4169203, 37.4230425], [140.4174826, 37.4229863], [140.4177479, 37.4229517], [140.4180202, 37.4229062], [140.4202454, 37.4225957], [140.4214607, 37.4225088], [140.4217203, 37.4224706], [140.421962, 37.4224188], [140.4224802, 37.422232], [140.4227607, 37.4221388], [140.4229147, 37.4221145], [140.4232268, 37.4220826], [140.4233448, 37.4220648], [140.423469, 37.4220369], [140.4235694, 37.4220131], [140.4236546, 37.4219838], [140.4236991, 37.4219598], [140.4239133, 37.4218367], [140.4243957, 37.4215454], [140.4248321, 37.4212819], [140.4252664, 37.421065], [140.4252944, 37.4210501], [140.4262472, 37.4205112], [140.4270923, 37.4199556], [140.4271647, 37.4199025], [140.427393, 37.4197364], [140.4274051, 37.4197282], [140.4276467, 37.4195403], [140.4277232, 37.4194853], [140.4278732, 37.4193719], [140.427956, 37.4193144], [140.4281288, 37.4191796], [140.4289061, 37.4185733], [140.4291527, 37.4184278], [140.4292993, 37.4183635], [140.429443, 37.4183196], [140.4296118, 37.4182947], [140.4307886, 37.4181941], [140.4309035, 37.4181677], [140.4309559, 37.4181557], [140.4310624, 37.4181124], [140.4311391, 37.4180813], [140.4312863, 37.4179968], [140.4313606, 37.4179492], [140.4314468, 37.4178768], [140.4315041, 37.4178139], [140.4315685, 37.4177298], [140.4316035, 37.4176852], [140.4316957, 37.4175678], [140.4317965, 37.4174635], [140.4318942, 37.4173755], [140.4319339, 37.4173505], [140.4319963, 37.4173208], [140.4321378, 37.4172608], [140.4322216, 37.4172339], [140.432304, 37.417215], [140.4323705, 37.4172094], [140.4324265, 37.4172105], [140.4326874, 37.4172276], [140.4334661, 37.4173644], [140.4338537, 37.4174336], [140.4341632, 37.4175011], [140.4342587, 37.4175242], [140.4343424, 37.417549], [140.4344485, 37.4175956], [140.4345352, 37.4176446], [140.4346202, 37.417701], [140.4346973, 37.4177702], [140.4348146, 37.4178931], [140.4349869, 37.4181015], [140.43516, 37.4183316], [140.4353437, 37.4185723], [140.4355032, 37.4187581], [140.4355663, 37.4188045], [140.4356299, 37.4188387], [140.4357054, 37.4188702], [140.4357956, 37.4188982], [140.4359319, 37.4189271], [140.4360156, 37.4189366], [140.4361337, 37.4189408], [140.4362167, 37.4189344], [140.4362945, 37.4189259], [140.4364312, 37.4188935], [140.4370016, 37.4186662], [140.4371636, 37.4186085], [140.4374016, 37.4185489], [140.4375458, 37.4185275], [140.4376845, 37.4185216], [140.4378726, 37.4185321], [140.4379041, 37.4185339], [140.4380634, 37.4185627], [140.4381904, 37.4185991], [140.4384773, 37.4187032], [140.4385985, 37.4187651], [140.4386797, 37.4188164], [140.4396227, 37.4195437], [140.4403926, 37.4201086], [140.4405244, 37.4201982], [140.4406571, 37.4202786], [140.4408547, 37.4203859], [140.4409408, 37.4204232], [140.4410391, 37.4204539], [140.4411168, 37.4204674], [140.4411955, 37.4204791], [140.4412706, 37.420482], [140.4413391, 37.4204788], [140.4415054, 37.4204645], [140.4417898, 37.4204415], [140.4420867, 37.4204374], [140.4422303, 37.4204405], [140.4423556, 37.4204535], [140.4425052, 37.4204874], [140.4426069, 37.4205265], [140.4426943, 37.4205811], [140.442764, 37.4206335], [140.4427989, 37.4206636], [140.4428351, 37.4207046], [140.4428816, 37.4207844], [140.4429243, 37.4208889], [140.4429698, 37.4210168], [140.4431933, 37.4219272], [140.4432267, 37.4220339], [140.4432908, 37.4221548], [140.4433461, 37.4222426], [140.4434067, 37.4223074], [140.4434255, 37.4223238], [140.4434641, 37.4223577], [140.4435211, 37.4223928], [140.4435783, 37.4224253], [140.4436713, 37.4224626], [140.4437698, 37.4224776], [140.4438262, 37.4224817], [140.4439016, 37.4224804], [140.4439911, 37.4224706], [140.4440533, 37.4224559], [140.4441017, 37.4224387], [140.4442044, 37.4224013], [140.4443, 37.4223506], [140.444431, 37.422273], [140.4445383, 37.4222011], [140.4450636, 37.4218472], [140.4454925, 37.421595], [140.4458486, 37.4214342], [140.4461866, 37.4212913], [140.446326, 37.4212542], [140.4464199, 37.4212351], [140.4465039, 37.4212232], [140.4465815, 37.4212188], [140.4466546, 37.4212201], [140.4467909, 37.4212345], [140.4468825, 37.4212542], [140.4469576, 37.4212757], [140.4470529, 37.4213224], [140.4471267, 37.421365], [140.4472782, 37.4214854], [140.4474364, 37.4216504], [140.4475893, 37.4218166], [140.447743, 37.4219661], [140.4477932, 37.4220147], [140.4478602, 37.4220552], [140.4479541, 37.4221095], [140.4480429, 37.4221489], [140.4480757, 37.4221623], [140.4483383, 37.4222692], [140.4484195, 37.4223023], [140.4487137, 37.4224393], [140.4487872, 37.4224735], [140.449109, 37.4226126], [140.449371, 37.4227311], [140.4494161, 37.4227515], [140.4497489, 37.4229121], [140.4500093, 37.4230709], [140.4502569, 37.4232692], [140.4505652, 37.4234668], [140.4507248, 37.4235441], [140.4508214, 37.4235878], [140.4508737, 37.4236059], [140.450927, 37.4236176], [140.4510789, 37.4236357], [140.4511234, 37.4236385], [140.4513042, 37.4236469], [140.4514838, 37.4236456], [140.4517289, 37.4236438], [140.4521088, 37.423624], [140.4524615, 37.4236194], [140.4526667, 37.4236251], [140.4528252, 37.4236329], [140.4528585, 37.4236345], [140.4529545, 37.4236478], [140.4530677, 37.4236634], [140.4532701, 37.4237063], [140.4536433, 37.4238104], [140.4539352, 37.4239025], [140.4541499, 37.4239706], [140.4542546, 37.4240074], [140.4543731, 37.4240515], [140.4544906, 37.4241076], [140.4545899, 37.4241629], [140.4547465, 37.4242517], [140.4548764, 37.4243622], [140.4550258, 37.4244892], [140.4552795, 37.424724], [140.4555375, 37.4249211], [140.4557731, 37.4251749], [140.4559859, 37.4254392], [140.456173, 37.4257115], [140.4563379, 37.4259445], [140.4564845, 37.4261766], [140.4566186, 37.4263964], [140.4566302, 37.4264154], [140.4567739, 37.4266749], [140.4569017, 37.4269052], [140.4570055, 37.4271034], [140.4571055, 37.4273444], [140.4571339, 37.4274072], [140.4572154, 37.4275749], [140.4573025, 37.4277216], [140.4573273, 37.4277628], [140.4573914, 37.4278405], [140.4574243, 37.4278803], [140.4575166, 37.4279813], [140.4575622, 37.4280213], [140.4576125, 37.4280665], [140.4576396, 37.4280908], [140.4577337, 37.4281671], [140.4577528, 37.4281826], [140.4579643, 37.4283341], [140.4582366, 37.4285176], [140.4583029, 37.428562], [140.4585481, 37.4287261], [140.4587057, 37.4288266], [140.4588608, 37.4289117], [140.4589325, 37.4289378], [140.4590222, 37.4289704], [140.4591982, 37.4290237], [140.4593595, 37.4290902], [140.4595342, 37.4291496], [140.4598332, 37.4292484], [140.4601135, 37.4293506], [140.4602815, 37.4294225], [140.4604196, 37.4295008], [140.4604934, 37.4295583], [140.4605618, 37.429619], [140.4606662, 37.4297254], [140.460874, 37.4299562], [140.4610827, 37.4301852], [140.4611681, 37.4302789], [140.461282, 37.4304037], [140.4614814, 37.4306018], [140.4616532, 37.4307716], [140.4616723, 37.4307905], [140.4618755, 37.4309592], [140.4620779, 37.4310954], [140.4622752, 37.4312218], [140.4625075, 37.431341], [140.4627222, 37.43146], [140.4629579, 37.4315634], [140.4632088, 37.4316797], [140.4636144, 37.4318556], [140.4638875, 37.4319931], [140.464186, 37.4321488], [140.4642981, 37.4322196], [140.4644519, 37.4323211], [140.4645697, 37.4324171], [140.4646894, 37.4325223], [140.4647391, 37.4325776], [140.4648901, 37.4327457], [140.465064, 37.4329709], [140.4652263, 37.4331945], [140.4653848, 37.4334113], [140.4655439, 37.4336272], [140.4656305, 37.4337542], [140.4657144, 37.433881], [140.4658761, 37.4341121], [140.4660158, 37.4343119], [140.466099, 37.434431], [140.4663079, 37.4347248], [140.4664291, 37.4349096], [140.4665539, 37.4351439], [140.4666249, 37.4353047], [140.4667121, 37.4355709], [140.4667788, 37.4358385], [140.4667926, 37.435951], [140.466806, 37.436148], [140.466806, 37.4363834], [140.4667899, 37.4365325], [140.4667792, 37.4366666], [140.466755, 37.4368242], [140.4667135, 37.4369669], [140.4666604, 37.4371178], [140.466582, 37.4373013], [140.4665097, 37.4375039], [140.4664975, 37.4375824], [140.4664965, 37.4376541], [140.4665163, 37.4377294], [140.4665447, 37.4378008], [140.4666007, 37.4378652], [140.4666801, 37.4379272], [140.466756, 37.4379665], [140.4668164, 37.4379942], [140.4669213, 37.4380265], [140.4670287, 37.4380451], [140.4672848, 37.4380456], [140.4675591, 37.4380328], [140.4682426, 37.4380246], [140.468519, 37.4380378], [140.4691196, 37.4381108], [140.4694989, 37.4381692], [140.4697128, 37.4382021], [140.4702447, 37.4382931], [140.4703232, 37.4383125], [140.4705617, 37.438397], [140.4707423, 37.4385384], [140.4708644, 37.4387003], [140.4709245, 37.4387942], [140.4709768, 37.4389188], [140.4710592, 37.4391553], [140.4710989, 37.4392329], [140.4711304, 37.4392718], [140.4711649, 37.4393014], [140.471235, 37.4393602], [140.471325, 37.4394103], [140.4713899, 37.439439], [140.4714656, 37.4394624], [140.4715298, 37.4394753], [140.4715535, 37.43948], [140.471647, 37.4394908], [140.4722777, 37.4395183], [140.472448, 37.4395199], [140.4726213, 37.4395202], [140.4729838, 37.4394922], [140.4733534, 37.4394576], [140.4734518, 37.4394544], [140.4735363, 37.4394565], [140.473609, 37.4394654], [140.4736993, 37.4394954], [140.4737717, 37.4395287], [140.4738575, 37.439586], [140.4739165, 37.4396335], [140.473936, 37.4396524], [140.4739675, 37.4396887], [140.4739991, 37.4397559], [140.4740466, 37.4398863], [140.474052, 37.43994], [140.4740358, 37.4400136], [140.4738151, 37.4405557], [140.473805, 37.4405806], [140.4737811, 37.4406662], [140.4737757, 37.4407375], [140.4737822, 37.4408246], [140.4737905, 37.440861], [140.4738084, 37.4409051], [140.4738233, 37.4409303], [140.4738508, 37.4409558], [140.4739024, 37.4409891], [140.4739702, 37.4410293], [140.4740151, 37.4410485], [140.4740541, 37.4410609], [140.4741029, 37.4410751], [140.4741512, 37.4410815], [140.4742347, 37.4410879], [140.4747252, 37.4410983], [140.4748395, 37.4411007], [140.4751309, 37.441121], [140.4752979, 37.4411515], [140.4758806, 37.441301], [140.4760194, 37.4413328], [140.4761114, 37.4413409], [140.4762045, 37.4413381], [140.4762869, 37.4413206], [140.4771509, 37.4410972], [140.4773574, 37.4410526], [140.477571, 37.4410229], [140.4777724, 37.4410005], [140.4790533, 37.4408685], [140.4801548, 37.4407465], [140.4810807, 37.4406497], [140.4814161, 37.4406122], [140.4815327, 37.4405853], [140.4816306, 37.4405576], [140.4818339, 37.4404952], [140.482268, 37.4403646], [140.4823735, 37.4403329], [140.4824245, 37.4403157], [140.4828354, 37.4401934], [140.4831702, 37.4400869], [140.4833056, 37.4400433], [140.483425, 37.4400166], [140.4835135, 37.4400103], [140.4836181, 37.4400081], [140.4838203, 37.4400183], [140.4840297, 37.4400315], [140.4842113, 37.4400557], [140.4847398, 37.4401349], [140.4852214, 37.4402328], [140.485711, 37.4403648], [140.4858824, 37.4404289], [140.4864289, 37.4406367], [140.4867807, 37.4408218], [140.4869395, 37.4409062], [140.4876097, 37.4412555], [140.4876372, 37.4412697], [140.4879343, 37.4414317], [140.4889416, 37.441966], [140.4889778, 37.4419988], [140.4890019, 37.4420254], [140.4890127, 37.4420451], [140.4890251, 37.442062], [140.4890449, 37.4421031], [140.4890759, 37.4421879], [140.4891397, 37.4423576], [140.4891771, 37.4424573], [140.4893362, 37.4424271], [140.4906321, 37.4421637], [140.490893, 37.4426635], [140.4910245, 37.4428402], [140.49143, 37.4432165], [140.491619, 37.4433644], [140.4917771, 37.4434882], [140.4919776, 37.4436212], [140.4923436, 37.4438334], [140.4931364, 37.4442876], [140.4935594, 37.444431], [140.4939604, 37.444567], [140.4945836, 37.4448389], [140.4946639, 37.4448739], [140.4951509, 37.4451739], [140.495228, 37.4452197], [140.4952897, 37.4452435], [140.4953742, 37.4452724], [140.49569, 37.4453523], [140.4957569, 37.445372], [140.4958436, 37.4454066], [140.4959308, 37.4454476], [140.4959967, 37.4454819], [140.4960716, 37.4455285], [140.4962759, 37.4456662], [140.4965269, 37.4458309], [140.4965846, 37.4458755], [140.4966268, 37.445915], [140.4966798, 37.4459645], [140.4967131, 37.4460053], [140.4967388, 37.446046], [140.496771, 37.4461173], [140.4967865, 37.446163], [140.4968092, 37.4462376], [140.4968416, 37.4464425], [140.4968655, 37.4465102], [140.4968876, 37.4465672], [140.4969225, 37.446631], [140.4969694, 37.4466971], [140.4970151, 37.4467525], [140.4970754, 37.4467987], [140.4971331, 37.446834], [140.497235, 37.446886], [140.4973483, 37.4469334], [140.4974455, 37.4469558], [140.4975575, 37.4469739], [140.4976427, 37.4469792], [140.4977077, 37.4469808], [140.4978541, 37.4469727], [140.4979491, 37.4469563], [140.4980222, 37.4469377], [140.4980724, 37.4469193], [140.4985231, 37.4467357], [140.4994683, 37.4463294], [140.4997154, 37.4462318], [140.4999202, 37.4461617], [140.5000225, 37.4461359], [140.5001673, 37.4461136], [140.5002813, 37.4461072], [140.5003544, 37.4461074], [140.500465, 37.4461136], [140.5005526, 37.4461252], [140.5007359, 37.4461636], [140.5015299, 37.4463912], [140.5016868, 37.4464362], [140.501782, 37.4464511], [140.5019014, 37.4464596], [140.5020033, 37.4464596], [140.5020972, 37.4464383], [140.5022098, 37.4464043], [140.502286, 37.4463729], [140.5027087, 37.4461317], [140.5028468, 37.4460774], [140.5029286, 37.4460454], [140.5030574, 37.4460109], [140.5031861, 37.4459965], [140.5032814, 37.4459901], [140.5033655, 37.4459926], [140.5034932, 37.4459986], [140.5036285, 37.4460156], [140.503799, 37.4460497], [140.5039034, 37.4460831], [140.5046808, 37.4464671], [140.5049595, 37.4465496], [140.5052656, 37.4466062], [140.5056147, 37.4466626], [140.5058011, 37.4467131], [140.5061799, 37.4469146], [140.5063498, 37.4469754], [140.5065787, 37.4470026], [140.5069103, 37.4469539], [140.5083628, 37.446685], [140.508561, 37.4466794], [140.5088371, 37.4467178], [140.5092338, 37.4467551], [140.5094502, 37.4467597], [140.5095792, 37.4467535], [140.5097356, 37.4467305], [140.5103905, 37.4466385], [140.510471, 37.4466364], [140.5105756, 37.4466417], [140.5106588, 37.4466545], [140.5107298, 37.4466768], [140.5108197, 37.4467152], [140.5109444, 37.4468057], [140.5119154, 37.4476361], [140.5122969, 37.44793], [140.5126837, 37.4482052], [140.513164, 37.4485081], [140.5132605, 37.4485539], [140.5133128, 37.4485752], [140.5133537, 37.4485869], [140.5134275, 37.4486009], [140.5134885, 37.4486008], [140.5135811, 37.4485864], [140.514155, 37.4484474], [140.5143103, 37.4484177], [140.5144313, 37.4484112], [140.5146378, 37.4484017], [140.5147717, 37.4484074], [140.5148444, 37.4484176], [140.515036, 37.4484561], [140.5150904, 37.448465], [140.5151414, 37.4484687], [140.5152118, 37.4484693], [140.5154766, 37.4484639], [140.5156584, 37.4484602], [140.5156913, 37.4484608], [140.5157469, 37.4484661], [140.5158019, 37.448481], [140.5162586, 37.4485928], [140.5163008, 37.4486013], [140.5163672, 37.4486109], [140.516681, 37.4486418], [140.516903, 37.4486551], [140.5170371, 37.4486519], [140.5171001, 37.4486439], [140.5171591, 37.4486332], [140.5171987, 37.4486215], [140.5172697, 37.4485965], [140.5173455, 37.4485582], [140.5177204, 37.4483074], [140.5177814, 37.4482617], [140.5178498, 37.4482042], [140.5178772, 37.4481738], [140.5179277, 37.4481179], [140.5181706, 37.4478488], [140.5182957, 37.4477415], [140.5183658, 37.4476838], [140.518466, 37.4476138], [140.5189978, 37.447289], [140.5190856, 37.4472284], [140.5191694, 37.4471629], [140.5193581, 37.4470124], [140.5196663, 37.4467072], [140.5197454, 37.4466364], [140.5198076, 37.446588], [140.5198567, 37.4465576], [140.5199184, 37.4465262], [140.5199875, 37.4464995], [140.5200445, 37.4464862], [140.5201323, 37.4464724], [140.520223, 37.4464625], [140.5205065, 37.4464586], [140.5205782, 37.4464543], [140.5206339, 37.4464458], [140.5207117, 37.446425], [140.52076, 37.4464058], [140.5208143, 37.4463776], [140.5208559, 37.4463452], [140.5209055, 37.4463063], [140.5209368, 37.4462761], [140.5209631, 37.4462515], [140.5209833, 37.4462222], [140.5210081, 37.4461711], [140.5210201, 37.4461296], [140.5210309, 37.4460486], [140.5210376, 37.4459549], [140.5210396, 37.4458149], [140.5212039, 37.445824], [140.5213353, 37.445824], [140.5214936, 37.4458272], [140.5215967, 37.4458317], [140.5216156, 37.4458325], [140.5217832, 37.4458389], [140.521999, 37.4458466], [140.5222282, 37.4458653], [140.522485, 37.4458834], [140.5227687, 37.4459029], [140.523087, 37.4459262], [140.5231744, 37.445934], [140.5234471, 37.4459584], [140.5238237, 37.4459922], [140.52422, 37.4460293], [140.5246353, 37.446077], [140.5250532, 37.4461321], [140.5253443, 37.4461709], [140.5274313, 37.4464284], [140.5279768, 37.4464861], [140.5284091, 37.4465136], [140.5288355, 37.446515], [140.5292579, 37.4465], [140.529665, 37.4464502], [140.5300573, 37.4463792], [140.5304309, 37.4462823], [140.5308061, 37.4461555], [140.5311882, 37.4460045], [140.5315637, 37.4458362], [140.5316737, 37.4457838], [140.5319356, 37.4456617], [140.532306, 37.445482], [140.5326732, 37.4452981], [140.5330352, 37.4451122], [140.5333929, 37.4449272], [140.5337461, 37.4447433], [140.5340955, 37.4445599], [140.5344428, 37.4443782], [140.5347893, 37.4441977], [140.5351337, 37.4440196], [140.5354727, 37.443844], [140.5357986, 37.4436849], [140.5361162, 37.4435078], [140.536408, 37.4433306], [140.5366655, 37.4431466], [140.5369144, 37.4429558], [140.5371648, 37.4427481], [140.5373716, 37.4425472], [140.537508, 37.4424066], [140.5376025, 37.442315], [140.5377378, 37.4421735], [140.5378632, 37.4420521], [140.5380348, 37.441874], [140.538235, 37.4416591], [140.5384318, 37.4414574], [140.5385913, 37.4412985], [140.5387992, 37.4410863], [140.5389994, 37.4408688], [140.5391841, 37.4406793], [140.5393718, 37.4405026], [140.5395709, 37.4403295], [140.5398311, 37.4401194], [140.540039, 37.4399739], [140.540213, 37.439878], [140.5403871, 37.4397777], [140.5405987, 37.4396757], [140.5408126, 37.4395896], [140.5410649, 37.4394877]], [[140.5786971, 37.4372904], [140.5790839, 37.4373837], [140.5791421, 37.437386], [140.5792558, 37.4373845], [140.5794688, 37.4373457], [140.5796951, 37.437275], [140.579886, 37.4372102], [140.5800794, 37.4371417], [140.5804907, 37.4369973], [140.5806693, 37.4369331], [140.5809699, 37.4368396], [140.5811516, 37.4367883], [140.5812993, 37.4367469], [140.5814796, 37.4366974], [140.5817924, 37.4366101], [140.5820685, 37.4365295], [140.582223, 37.4364836], [140.5824763, 37.4364129], [140.5828274, 37.4363168], [140.5832753, 37.4361949], [140.5835644, 37.4361229], [140.5838652, 37.4360609], [140.5841953, 37.4360039], [140.5852085, 37.4358271], [140.5854948, 37.4357686], [140.5858071, 37.4356988], [140.5860101, 37.4356323], [140.586282, 37.4355294], [140.5865085, 37.4353885], [140.5867557, 37.4351816], [140.5869618, 37.4349914], [140.5871146, 37.4348765], [140.5872192, 37.4347989], [140.5874326, 37.4347006], [140.587707, 37.4346383], [140.587977, 37.4345835], [140.5882292, 37.4345328], [140.588473, 37.4344888], [140.5887054, 37.4344523], [140.5889482, 37.4344125], [140.5891703, 37.434383], [140.5893963, 37.4343628], [140.589607, 37.4344], [140.5897236, 37.4344349], [140.5897668, 37.4344635], [140.5898052, 37.4345007], [140.5899006, 37.4346126], [140.5900129, 37.4347667], [140.5904574, 37.4353202], [140.5906178, 37.4355093], [140.590763, 37.4357163], [140.5909171, 37.4358942], [140.5911493, 37.4361639], [140.59132, 37.4363609], [140.5914513, 37.4365227], [140.5915755, 37.4366602], [140.5916816, 37.4368225], [140.5918371, 37.4370318], [140.5920054, 37.4372522], [140.5922014, 37.4374402], [140.5924165, 37.4376014], [140.59264, 37.4377563], [140.592778, 37.4378462], [140.592865, 37.4379082], [140.5930903, 37.4380628], [140.5933163, 37.4382213], [140.5935494, 37.4383806], [140.5937936, 37.4385359], [140.5940516, 37.4386889], [140.5943249, 37.4388416], [140.5947187, 37.4390506], [140.594884, 37.4391517], [140.5951557, 37.4393087], [140.5954134, 37.4394664], [140.5956622, 37.4396194], [140.5958852, 37.4397405], [140.5959269, 37.4397552], [140.5962593, 37.4399055], [140.5967591, 37.440111], [140.5985281, 37.4407753], [140.5988216, 37.4408886], [140.5992776, 37.4410382], [140.5994765, 37.4411399], [140.5995653, 37.441221], [140.599727, 37.4413675], [140.6000226, 37.4417059], [140.5997601, 37.4419492], [140.5995988, 37.4421763], [140.5994393, 37.4425093], [140.5993848, 37.4427554], [140.5993848, 37.4429952], [140.5994183, 37.4432686], [140.5995622, 37.4439577], [140.5996008, 37.4441981], [140.5995962, 37.4444111], [140.5995754, 37.4446764], [140.599523, 37.4449505], [140.5994349, 37.445205], [140.5992968, 37.4454989], [140.5991258, 37.4457622], [140.5989364, 37.4459886], [140.5987498, 37.4461867], [140.5985498, 37.4463465], [140.598314, 37.446515], [140.5980944, 37.4466397], [140.5978638, 37.4467556], [140.5976169, 37.4468519], [140.5973562, 37.4469372], [140.5970943, 37.4470035], [140.5968159, 37.4470568], [140.5965857, 37.4470921], [140.5962841, 37.4471188], [140.595852, 37.4471286], [140.5954529, 37.4471211], [140.5930196, 37.4469607], [140.5925646, 37.4469456], [140.5921178, 37.446953], [140.5917718, 37.4469913], [140.5914532, 37.4470397], [140.5910871, 37.4471213], [140.5906698, 37.4472513], [140.5902913, 37.4474063], [140.5898113, 37.4476384], [140.5878047, 37.4487286], [140.5868673, 37.4492379], [140.5852817, 37.4500963], [140.5844558, 37.4505516], [140.583177, 37.4512628], [140.5829266, 37.4513927], [140.5819141, 37.4519287], [140.5816611, 37.4520411], [140.581397, 37.4521184], [140.5811253, 37.4521737], [140.580848, 37.4521998], [140.5805556, 37.4521935], [140.5802209, 37.4521513], [140.5798289, 37.4520536], [140.5794762, 37.4519042], [140.5793157, 37.4518055], [140.5790253, 37.4516127], [140.5780764, 37.4509805], [140.5775477, 37.4506518], [140.5770312, 37.4503698], [140.5764068, 37.4500709], [140.5757038, 37.4498137], [140.5751894, 37.4496522], [140.5747511, 37.4495373], [140.5744137, 37.4494673], [140.5741848, 37.4494181], [140.5729638, 37.4491528], [140.5725227, 37.449037], [140.5720848, 37.4489088], [140.5713627, 37.4486366], [140.5707436, 37.4483787], [140.5701608, 37.4480649], [140.5696679, 37.447714], [140.5693098, 37.4474276], [140.5690635, 37.4472153], [140.5686967, 37.4468632], [140.5682564, 37.4463677], [140.5681884, 37.4462912], [140.5674648, 37.4454789], [140.5671305, 37.4451255], [140.566791, 37.4448293], [140.5661492, 37.4443911], [140.565717, 37.444169], [140.5653484, 37.444011], [140.5650111, 37.4438853], [140.5645916, 37.4437573], [140.5643485, 37.4436958], [140.5641026, 37.4436446], [140.5636499, 37.4435664], [140.5634188, 37.4435374], [140.5631019, 37.4435255], [140.5592208, 37.4435626], [140.5588492, 37.4435341], [140.5584885, 37.4435131], [140.5582621, 37.4434961], [140.5577802, 37.4434414], [140.5574848, 37.4434088], [140.5572845, 37.4433867], [140.5567061, 37.4432883], [140.5560727, 37.4431572], [140.5552603, 37.4429494], [140.5542047, 37.4426276], [140.5532913, 37.4422498], [140.5529195, 37.4420858], [140.5525477, 37.4418878], [140.5517077, 37.4414407], [140.5503569, 37.4405966], [140.5498439, 37.4402726], [140.5494125, 37.4400504], [140.549086, 37.4399208], [140.5487595, 37.439819], [140.5482698, 37.4396709], [140.5478734, 37.4395968], [140.544836, 37.4393364], [140.5434402, 37.4392167], [140.543021, 37.439208], [140.5427011, 37.439208], [140.5422984, 37.4392328], [140.5419486, 37.4392791], [140.5415172, 37.4393717], [140.5410649, 37.4394877], [140.5410574, 37.4391707], [140.5411459, 37.4389234], [140.5412601, 37.4386956], [140.5414384, 37.4385047], [140.541664, 37.4383163], [140.5419527, 37.4381377], [140.5422188, 37.4379469], [140.5424677, 37.4377901], [140.5427767, 37.4376607], [140.5431153, 37.437558], [140.5434753, 37.4374959], [140.5438753, 37.4374285], [140.5440258, 37.4374031], [140.5442777, 37.4373606], [140.5446725, 37.4372964], [140.5450538, 37.4372342], [140.5454188, 37.4371715], [140.5457608, 37.4371131], [140.5460829, 37.4370634], [140.5463957, 37.437034], [140.546416, 37.4370348], [140.5467041, 37.4370461], [140.5470144, 37.437106], [140.5473335, 37.4371724], [140.5476583, 37.4372046], [140.5479919, 37.4372203], [140.5483315, 37.4372361], [140.5486684, 37.4372545], [140.5489999, 37.4372674], [140.5493232, 37.4372496], [140.5496368, 37.4371827], [140.5499374, 37.4370782], [140.5502155, 37.4369471], [140.5504802, 37.4368043], [140.5507383, 37.4366547], [140.5509866, 37.4365157], [140.5512311, 37.4364148], [140.5514712, 37.4363613], [140.5516936, 37.4363459], [140.5519002, 37.43636], [140.5520979, 37.436393], [140.5522684, 37.4364622], [140.5524044, 37.4365323], [140.5525695, 37.4366704], [140.5527569, 37.4368633], [140.5529464, 37.4370843], [140.5531286, 37.4373089], [140.5533128, 37.4375322], [140.5534905, 37.4377563], [140.553676, 37.4379895], [140.5538713, 37.4382437], [140.5540722, 37.4385047], [140.5542789, 37.4387664], [140.5544779, 37.4390463], [140.5547178, 37.4392814], [140.5549853, 37.4394901], [140.5552567, 37.4396876], [140.5555368, 37.4398818], [140.5558484, 37.4400479], [140.5561506, 37.4402154], [140.5564472, 37.4403675], [140.5567494, 37.4405305], [140.5570482, 37.4406854], [140.5573253, 37.440833], [140.557631, 37.4409915], [140.5579081, 37.4411309], [140.5580507, 37.4411997], [140.5582252, 37.4412577], [140.5584704, 37.4413229], [140.558581, 37.441341], [140.5589346, 37.4413863], [140.5592904, 37.4414053], [140.5595694, 37.4414352], [140.5600351, 37.4414741], [140.5603704, 37.4415212], [140.5607012, 37.4415583], [140.5609754, 37.4415963], [140.5610342, 37.4416045], [140.5613524, 37.4416362], [140.5616763, 37.4416308], [140.5620333, 37.4415823], [140.5620644, 37.4415715], [140.5623016, 37.4414963], [140.5625229, 37.4414093], [140.5627327, 37.4413007], [140.5629173, 37.4411738], [140.5629655, 37.441138], [140.5631863, 37.4409851], [140.5632928, 37.4409173], [140.5634566, 37.4408094], [140.563728, 37.4406781], [140.5639835, 37.4405722], [140.5642732, 37.4404644], [140.5645697, 37.4403666], [140.5648876, 37.4402525], [140.5653109, 37.4401046], [140.5654464, 37.440059], [140.5656632, 37.4399834], [140.5659767, 37.439886], [140.5662689, 37.4398088], [140.5665699, 37.439747], [140.5668603, 37.4397127], [140.567054, 37.4396925], [140.5671494, 37.4396845], [140.5674333, 37.4396584], [140.5677182, 37.4396309], [140.5679856, 37.4396056], [140.5684544, 37.439558], [140.5688633, 37.439515], [140.5691277, 37.4394907], [140.5692028, 37.4394817], [140.569573, 37.4394462], [140.5699761, 37.4393979], [140.5700773, 37.4393858], [140.5705306, 37.4393397], [140.5707867, 37.4393162], [140.5710443, 37.4392907], [140.5713005, 37.4392646], [140.5715437, 37.4392402], [140.571759, 37.4392208], [140.571953, 37.4392068], [140.5721308, 37.439194], [140.572231, 37.439183], [140.5722998, 37.4391756], [140.5724655, 37.4391531], [140.5726543, 37.4391191], [140.5727901, 37.4390869], [140.5729382, 37.4390455], [140.5730406, 37.4390168], [140.5733066, 37.4389419], [140.5734824, 37.4388873], [140.573856, 37.4387783], [140.5741649, 37.4386761], [140.5744568, 37.4385739], [140.5747336, 37.4384695], [140.5750576, 37.438349], [140.5752785, 37.4382708], [140.5756069, 37.4381582], [140.5758987, 37.4380696], [140.5761401, 37.4379929], [140.5765027, 37.4378762], [140.5768327, 37.437779], [140.577265, 37.4376488], [140.5775255, 37.4375593], [140.5777574, 37.4374833], [140.5780976, 37.4373785], [140.5783888, 37.4372966], [140.5785053, 37.4372797], [140.578611, 37.4372769], [140.5786971, 37.4372904]], [[140.6250375, 37.4415415], [140.6250939, 37.4415787], [140.6252776, 37.4416501], [140.6254949, 37.441714], [140.6256679, 37.4417342], [140.6258288, 37.4417246], [140.6260018, 37.4416969], [140.6262177, 37.4416341], [140.6264077, 37.4415735], [140.6265154, 37.4415276], [140.6272571, 37.4412774], [140.6276545, 37.4411555], [140.6279102, 37.4410942], [140.6280711, 37.4410687], [140.6282052, 37.4410559], [140.6283273, 37.4410516], [140.6284681, 37.4410527], [140.6287913, 37.4410548], [140.6289214, 37.4410623], [140.6290166, 37.4410751], [140.6292272, 37.4411123], [140.6296121, 37.441189], [140.6296483, 37.4411975], [140.6297663, 37.4412241], [140.6298816, 37.4412412], [140.6300305, 37.4412582], [140.6302062, 37.4412657], [140.6303979, 37.4412614], [140.6305508, 37.4412497], [140.6310283, 37.4411816], [140.6317149, 37.4410719], [140.6321092, 37.4410069], [140.6326979, 37.4409228], [140.6329072, 37.440893], [140.6331445, 37.4408515], [140.6333725, 37.4407993], [140.6336461, 37.4407162], [140.6339787, 37.4406012], [140.6343086, 37.4404745], [140.6345513, 37.4403702], [140.6349108, 37.4401721], [140.6352259, 37.4399698], [140.6355907, 37.4397515], [140.6356859, 37.4396951], [140.6359227, 37.4395872], [140.6366569, 37.4392691], [140.6367494, 37.4392276], [140.6368299, 37.4391893], [140.6372201, 37.4390178], [140.6379175, 37.438708], [140.6380248, 37.438659], [140.6381375, 37.4386228], [140.6382555, 37.4386025], [140.638403, 37.438594], [140.6385934, 37.4385951], [140.6390172, 37.4386089], [140.6393565, 37.4386185], [140.6399158, 37.43863], [140.6401733, 37.4386345], [140.6402913, 37.4386334], [140.640589, 37.4386388], [140.6408552, 37.4386398], [140.6411456, 37.438643], [140.6416552, 37.4386462], [140.6421214, 37.4386519], [140.6424572, 37.438659], [140.6426999, 37.4386654], [140.6429118, 37.4386792], [140.6432994, 37.4387218], [140.643408, 37.4387346], [140.6438291, 37.4387825], [140.6438653, 37.4387878], [140.6445935, 37.4388666], [140.6449784, 37.4388805], [140.6452611, 37.4388676], [140.6453397, 37.4388622], [140.6457514, 37.4388341], [140.6459369, 37.4388196], [140.6462688, 37.4387937], [140.6469432, 37.438741], [140.6474823, 37.4386963], [140.6478625, 37.4386484], [140.6480323, 37.438627], [140.6482185, 37.4386036], [140.6483956, 37.4385791], [140.6485042, 37.4385461], [140.6485827, 37.4385172], [140.6486964, 37.4384499], [140.648818, 37.4383779], [140.6491104, 37.4381606], [140.6492753, 37.4380488], [140.6495556, 37.4378454], [140.649848, 37.4375973], [140.6499003, 37.437543], [140.6499241, 37.437523], [140.6500696, 37.437383], [140.6505655, 37.436985], [140.6507532, 37.4368903], [140.6509249, 37.4368274], [140.6515921, 37.4366693], [140.6517041, 37.4366326], [140.6518194, 37.4365836], [140.6519428, 37.4364984], [140.6520554, 37.4364036], [140.6522405, 37.4361853], [140.6524041, 37.4360437], [140.6524765, 37.436], [140.6525503, 37.4359628], [140.6526455, 37.4359292], [140.6527407, 37.4359116], [140.6527971, 37.4359058], [140.6528561, 37.4359052], [140.6529875, 37.4359138], [140.6531806, 37.4359521], [140.6534229, 37.4360171], [140.654106, 37.4362002], [140.6546575, 37.4363473], [140.65514, 37.436476], [140.6559772, 37.4366904], [140.6560896, 37.4367192], [140.6565964, 37.4368359], [140.6567323, 37.4368652], [140.6570564, 37.436935], [140.6573984, 37.4370031], [140.657782, 37.4370574], [140.6579346, 37.437074], [140.6582728, 37.4371106], [140.6585585, 37.4371416], [140.6587811, 37.4371543], [140.6589527, 37.4371405], [140.6590339, 37.4371288], [140.659109, 37.4371139], [140.6592169, 37.437083], [140.6593215, 37.4370415], [140.6594717, 37.4369637], [140.6596099, 37.4368604], [140.6596735, 37.4367905], [140.6597534, 37.4367028], [140.6598204, 37.4365836], [140.6598915, 37.4364132], [140.6601089, 37.4357764], [140.6603099, 37.4351875], [140.6603971, 37.4349639], [140.6604977, 37.4347775], [140.6606224, 37.4346284], [140.6606868, 37.4345667], [140.6608517, 37.4344378], [140.6610395, 37.4343218], [140.6612179, 37.4342419], [140.6614003, 37.4341737], [140.6616068, 37.4341226], [140.6617556, 37.4340981], [140.6619287, 37.4340917], [140.6622103, 37.4340992], [140.6626864, 37.4341237], [140.6637391, 37.4341791], [140.6639269, 37.4341886], [140.664175, 37.4342035], [140.6644137, 37.4342334], [140.6645572, 37.4342557], [140.6647034, 37.434293], [140.664871, 37.4343494], [140.6650199, 37.4344165], [140.6651527, 37.4344921], [140.6652814, 37.434588], [140.6653874, 37.4346753], [140.665506, 37.4348132], [140.665614, 37.4349607], [140.6662644, 37.4361406], [140.6664723, 37.4365389], [140.6665729, 37.4367667], [140.666593, 37.4368359], [140.6668249, 37.4375172], [140.6670503, 37.4381617], [140.6671563, 37.4384279], [140.6672703, 37.438676], [140.6674084, 37.4389156], [140.6675479, 37.4391275], [140.6679768, 37.4396826], [140.6680726, 37.4398116], [140.6685108, 37.4403712], [140.6687213, 37.440564], [140.6689104, 37.4407194], [140.6694388, 37.4411592], [140.6696051, 37.4413274], [140.6697352, 37.4414882], [140.6700678, 37.4420802], [140.6701724, 37.4422943], [140.6702381, 37.4424929], [140.6702784, 37.4426371], [140.6703206, 37.4428687], [140.6703335, 37.4429419], [140.6703553, 37.4431394], [140.6703809, 37.4432731], [140.6704527, 37.4438031], [140.6705895, 37.4448614], [140.6706177, 37.4452107], [140.670615, 37.4453768], [140.6705989, 37.4455695], [140.6705611, 37.4458873], [140.6704705, 37.4466491], [140.6704664, 37.4466832], [140.6704366, 37.4469334], [140.6704259, 37.4471166], [140.670442, 37.4473093], [140.6704648, 37.4474551], [140.6704855, 37.4475842], [140.6707464, 37.4484581], [140.6710629, 37.4496836], [140.6711246, 37.4498379], [140.6711994, 37.4499531], [140.6712346, 37.4500072], [140.671358, 37.450151], [140.6715149, 37.4502957], [140.6717013, 37.4504118], [140.6718877, 37.4505034], [140.6720848, 37.4505726], [140.6722227, 37.4506067], [140.6723718, 37.4506343], [140.6726052, 37.4506535], [140.6729901, 37.4506343], [140.6740214, 37.4505598], [140.6742628, 37.4505257], [140.6745444, 37.450464], [140.6757209, 37.4501474], [140.6758265, 37.450119], [140.6761417, 37.4500487], [140.6763589, 37.4500211], [140.676548, 37.4500115], [140.6767505, 37.4500232], [140.6769276, 37.4500551], [140.6771864, 37.4501169], [140.6773809, 37.4501946], [140.6775646, 37.4502894], [140.6777497, 37.4504288], [140.6779267, 37.4506024], [140.6780487, 37.4507653], [140.6782405, 37.4510751], [140.6782646, 37.4511251], [140.6787287, 37.4518885], [140.678954, 37.4522739], [140.6790036, 37.4523431], [140.6790975, 37.4524985], [140.6792369, 37.4526923], [140.6793362, 37.4527913], [140.6795011, 37.4529361], [140.6797291, 37.453082], [140.6799424, 37.4531661], [140.6801207, 37.4532246], [140.6803796, 37.4532747], [140.6804976, 37.4532832], [140.6806464, 37.4532906], [140.6807537, 37.4532874], [140.680908, 37.4532747], [140.681266, 37.4532012], [140.681486, 37.4531618], [140.6816483, 37.4531544], [140.6818172, 37.4531607], [140.6820318, 37.4531863], [140.6823108, 37.4532523], [140.6838879, 37.4539049], [140.6841293, 37.4539858], [140.6844136, 37.4540646], [140.6849273, 37.4541732], [140.6853068, 37.4542318], [140.6855911, 37.4542499], [140.68598, 37.4542318], [140.6866372, 37.4541807], [140.6869349, 37.4541764], [140.687238, 37.4541998], [140.6876028, 37.4542445], [140.6880078, 37.4542892], [140.688213, 37.4543233], [140.6883953, 37.4543819], [140.6885737, 37.4544468], [140.6894884, 37.4549663], [140.6897646, 37.4550941], [140.6900382, 37.4551963], [140.6903762, 37.45529], [140.6922135, 37.4557297], [140.6923865, 37.4557584], [140.6924985, 37.4557707], [140.6926601, 37.4557637], [140.692884, 37.4557382], [140.6937236, 37.4555934], [140.693851, 37.4555859], [140.6939743, 37.4555902], [140.6940588, 37.4555977], [140.6941259, 37.4556189], [140.6942707, 37.4556679], [140.6945349, 37.4558042], [140.6956467, 37.4564163], [140.6958412, 37.4565239], [140.6959914, 37.4565888], [140.6962877, 37.4566356], [140.6965973, 37.4566285], [140.6969257, 37.456613], [140.69725, 37.4565962], [140.6975875, 37.4565777], [140.6979302, 37.4565643], [140.6982682, 37.4565694], [140.6986001, 37.4566005], [140.6989302, 37.4566441], [140.6992662, 37.4566874], [140.6996213, 37.4567305], [140.6999873, 37.4567682], [140.7003759, 37.4568], [140.700774, 37.4568269], [140.7011674, 37.4568543], [140.7015548, 37.4568818], [140.7019416, 37.4569067], [140.7023272, 37.4569329], [140.702708, 37.456964], [140.703085, 37.4570143], [140.70343, 37.4571216], [140.7037155, 37.4573149], [140.7039833, 37.4575494], [140.7042801, 37.4577613], [140.7046244, 37.4578873], [140.7049903, 37.4579137], [140.7053486, 37.4578676], [140.7057158, 37.4577959], [140.7060941, 37.4577259], [140.7064683, 37.4576593], [140.7068353, 37.4575928], [140.7072098, 37.4575275], [140.707597, 37.4574613], [140.7079861, 37.4573982], [140.708375, 37.4573449], [140.7087677, 37.4573328], [140.7091661, 37.4573578], [140.7095704, 37.4573833], [140.7099757, 37.4574029], [140.7103745, 37.4573758], [140.7107635, 37.4572867], [140.711139, 37.4571692], [140.7115101, 37.4570745], [140.7119093, 37.4570621], [140.7123355, 37.4571097], [140.7127691, 37.4571636], [140.7131213, 37.4572307], [140.7135994, 37.4572568], [140.713988, 37.4572666], [140.7143526, 37.457215], [140.7147047, 37.4571484], [140.7150563, 37.4571309], [140.715406, 37.4571936], [140.715478, 37.457212], [140.7157649, 37.4573198], [140.7161478, 37.4574657], [140.7165342, 37.4576189], [140.7169319, 37.4577579], [140.7173366, 37.4578664], [140.7177452, 37.4579344], [140.7181467, 37.4579871], [140.7185435, 37.4580389], [140.7189251, 37.4580902], [140.719296, 37.4581036], [140.7196489, 37.4580437], [140.7199748, 37.4579276], [140.7202741, 37.457795], [140.7205876, 37.4577125], [140.7209228, 37.4577387], [140.7212849, 37.457834], [140.7216837, 37.4579505], [140.7220938, 37.4580716], [140.7225251, 37.458159], [140.7239681, 37.4585636], [140.7242055, 37.4586211], [140.7243182, 37.4586328], [140.724679, 37.4586365], [140.7248721, 37.4586386], [140.7251134, 37.4586411], [140.7252341, 37.4586424], [140.7261917, 37.4586232], [140.7264197, 37.4586019], [140.726513, 37.4585849], [140.7274438, 37.4584157], [140.7280827, 37.4582996], [140.729004, 37.4581963], [140.7294372, 37.4581207], [140.7297215, 37.4580089], [140.7299159, 37.4578791], [140.7302432, 37.4576491], [140.7303277, 37.4575927], [140.730439, 37.4575352], [140.7305523, 37.4575049], [140.7306737, 37.4574916], [140.7308467, 37.4575022], [140.7309875, 37.4575395], [140.7310666, 37.4575713], [140.7312769, 37.4576559], [140.7315498, 37.4577656], [140.7319088, 37.4579099], [140.7321502, 37.457994], [140.7324037, 37.4580515], [140.7326075, 37.4580771], [140.7328127, 37.4580877], [140.7330608, 37.4580888], [140.7335546, 37.4580604], [140.7340613, 37.4580313], [140.734477, 37.4580228], [140.7346575, 37.4580281], [140.7350188, 37.458059], [140.7353514, 37.4581101], [140.7355915, 37.4581599], [140.7358615, 37.458216], [140.736023, 37.4582554], [140.7362738, 37.4583181], [140.7366682, 37.4584023], [140.737725, 37.4586601], [140.7381717, 37.4587838], [140.7389161, 37.4590284], [140.7402314, 37.4593895], [140.740307, 37.4594107], [140.740674, 37.459394], [140.7408556, 37.4593828], [140.7412099, 37.4593759], [140.7415665, 37.4594123], [140.7419192, 37.4594911], [140.7422622, 37.459579], [140.7426173, 37.4596589], [140.7430054, 37.4597283], [140.7433987, 37.4597966], [140.7437813, 37.4598661], [140.7441559, 37.4599314], [140.7445238, 37.4599966], [140.7447451, 37.4600471], [140.7448796, 37.4600697], [140.745226, 37.4601708], [140.7455573, 37.4603033], [140.7458733, 37.4604577], [140.7461847, 37.4606225], [140.7465026, 37.4607809], [140.7468486, 37.460887], [140.7472157, 37.4609108], [140.7475768, 37.4608751], [140.7476607, 37.4608636], [140.7479417, 37.4608219], [140.7483078, 37.4607538], [140.7486534, 37.4606393], [140.7489708, 37.4604777], [140.7492717, 37.4602929], [140.7495719, 37.4601053], [140.7498708, 37.4599147], [140.7499621, 37.4598574], [140.7501696, 37.4597271], [140.750457, 37.4595531], [140.7507579, 37.4594119], [140.7510833, 37.4593201], [140.7514145, 37.4593019], [140.7517387, 37.4593393], [140.7520638, 37.459407], [140.7524885, 37.4595067], [140.7527227, 37.4595644], [140.7530642, 37.4596501], [140.753414, 37.4597422], [140.7537755, 37.4598246], [140.7541521, 37.4598679], [140.7545219, 37.4598821], [140.7548756, 37.4598515], [140.7552144, 37.4597532], [140.7555289, 37.4595991], [140.7558158, 37.4593971], [140.7560993, 37.4591807], [140.756392, 37.4589778], [140.7567003, 37.4588078], [140.7570104, 37.4586762], [140.7573223, 37.4585705], [140.7576391, 37.4584725], [140.7579578, 37.4583768], [140.7582749, 37.4582782], [140.7585926, 37.4581762], [140.7589188, 37.4580753], [140.7591909, 37.4579834], [140.7608566, 37.4573819], [140.7617028, 37.45707], [140.7624257, 37.4568049], [140.7626885, 37.4566974], [140.7628494, 37.4565899], [140.7629755, 37.4564759], [140.7630707, 37.4563578], [140.7631297, 37.4562417], [140.7633135, 37.455653], [140.7634301, 37.4554497], [140.7635482, 37.4553081], [140.7636769, 37.4551814], [140.7638941, 37.4550336], [140.7644105, 37.4547438], [140.7645755, 37.4546374], [140.7647619, 37.4544873], [140.7649161, 37.4543361], [140.7656685, 37.4533045], [140.7659876, 37.4527966], [140.7662317, 37.452391], [140.7663779, 37.4521461], [140.7664423, 37.4520365], [140.7666314, 37.4517778], [140.7667078, 37.4517011], [140.7668634, 37.451584], [140.7670216, 37.4514967], [140.7671906, 37.4514318], [140.7674132, 37.451386], [140.7685089, 37.451222], [140.7687423, 37.4511613], [140.7689153, 37.4510964], [140.7691044, 37.4510027], [140.7692116, 37.4509346], [140.7694074, 37.4507802], [140.7699643, 37.4502603], [140.7701987, 37.4500498], [140.7703731, 37.4498811], [140.7708822, 37.4494179], [140.7714496, 37.4488904], [140.7720964, 37.4483026], [140.7724558, 37.4480492], [140.7733557, 37.4475403], [140.7747987, 37.4468142], [140.7749483, 37.4467188], [140.7755241, 37.4463517], [140.7758193, 37.4461636], [140.7761076, 37.4460305], [140.7762256, 37.4459869], [140.776455, 37.4459368], [140.7766655, 37.4459049], [140.7769069, 37.4458974], [140.7771295, 37.4459219], [140.7774836, 37.4459826], [140.7775805, 37.4460034], [140.7792364, 37.4463042], [140.7795073, 37.4463404], [140.7797272, 37.4463542], [140.7800169, 37.4463425], [140.7802784, 37.4463127], [140.7805802, 37.4462413], [140.7808618, 37.4461349], [140.7823652, 37.4453736], [140.7826602, 37.4452373], [140.7829821, 37.4451031], [140.7837841, 37.4448295], [140.7840735, 37.444726], [140.7847068, 37.4444994], [140.7868941, 37.4437509], [140.7873501, 37.4435646], [140.7877417, 37.4433612], [140.7896876, 37.4421963], [140.7917328, 37.4409878], [140.7917742, 37.4409673], [140.7925306, 37.440593], [140.7926684, 37.4405248], [140.7948319, 37.4394465], [140.7950118, 37.4393618], [140.7968947, 37.438429], [140.7973561, 37.4381936], [140.7976095, 37.4380499], [140.7978751, 37.4378614], [140.7981339, 37.4376335], [140.7983311, 37.4374206], [140.7985215, 37.437148], [140.7988143, 37.4366321], [140.7989638, 37.4363537], [140.7990865, 37.436126], [140.7992591, 37.4358201], [140.7994683, 37.4355645], [140.7996078, 37.4354548], [140.7997768, 37.4353441], [140.8003937, 37.434999], [140.8006566, 37.4348334], [140.8007182, 37.4347946], [140.8009958, 37.4345401], [140.8015658, 37.4339394], [140.8018836, 37.4336306], [140.8021317, 37.4334208], [140.8023329, 37.4332664], [140.8026735, 37.43303], [140.8031081, 37.4327712], [140.8034809, 37.4325934], [140.8039033, 37.4324081], [140.8047925, 37.4320705], [140.8053289, 37.4318714], [140.8056454, 37.4317798], [140.8059512, 37.4317201], [140.8063763, 37.4316978], [140.806603, 37.4317191], [140.8069141, 37.4317745], [140.8071434, 37.4318288], [140.8075833, 37.4319406], [140.8078851, 37.4320439], [140.8080433, 37.4321046], [140.8082525, 37.432209], [140.8083853, 37.4322824], [140.8084658, 37.4323389], [140.8086468, 37.4324773], [140.8090277, 37.4328138], [140.809202, 37.432948], [140.8093536, 37.4330407], [140.8094971, 37.4331035], [140.8096419, 37.4331461], [140.809823, 37.4331748], [140.8099169, 37.4331727], [140.8100952, 37.433145], [140.8103017, 37.4330811], [140.8104385, 37.4330045], [140.8105981, 37.4328777], [140.810747, 37.4326669], [140.8109227, 37.4323442], [140.8110589, 37.432013], [140.8112027, 37.4316452], [140.8113235, 37.4313432], [140.8115278, 37.4307941], [140.8117165, 37.4303037], [140.8118291, 37.4299483], [140.8118946, 37.4296606], [140.811955, 37.4293262], [140.8120272, 37.4288923], [140.812091, 37.4286406], [140.8121564, 37.4284604], [140.8122748, 37.4282824], [140.8124828, 37.4280571], [140.8128151, 37.4277461], [140.8133026, 37.4272308], [140.8135862, 37.426952], [140.8138673, 37.4266796], [140.8141573, 37.4264213], [140.8144765, 37.4261855], [140.8148074, 37.425955], [140.8151436, 37.4257246], [140.8154931, 37.4255038], [140.8158771, 37.4253246], [140.8162789, 37.4251697], [140.8166857, 37.425018], [140.81682, 37.424958], [140.817069, 37.4248355], [140.8174128, 37.4245997], [140.8177415, 37.4243449], [140.8180689, 37.4240928], [140.8183934, 37.4238487], [140.8187377, 37.4236378], [140.8191286, 37.4234905], [140.8195542, 37.4234184], [140.8200052, 37.4233836], [140.820437, 37.4232882], [140.8208038, 37.423113], [140.8211079, 37.422877], [140.821208, 37.422803], [140.8214158, 37.4226118], [140.8217292, 37.4223298], [140.8220451, 37.4220467], [140.8223543, 37.4217601], [140.8226292, 37.4214577], [140.8228573, 37.4211361], [140.8230287, 37.4207935], [140.8231754, 37.4204413], [140.8233306, 37.4200855], [140.823512, 37.4197352], [140.8237249, 37.4193949], [140.8239612, 37.4190687], [140.8241964, 37.4187506], [140.8243828, 37.4184318], [140.8244713, 37.4181056], [140.8244979, 37.4177891], [140.824591, 37.417475], [140.8247132, 37.4172402], [140.8249117, 37.4170271], [140.8251431, 37.4168498], [140.8253971, 37.4166695], [140.8256768, 37.4164426], [140.8259291, 37.4161715], [140.8261176, 37.4158729], [140.8262433, 37.4155529], [140.8263492, 37.4152285], [140.8264641, 37.4149067], [140.8266179, 37.4145976], [140.826848, 37.4143336], [140.8271142, 37.4140885], [140.8273977, 37.4138451], [140.8276971, 37.4136238], [140.8280367, 37.4134672], [140.8284211, 37.4133716], [140.8288455, 37.4132867], [140.829307, 37.4132126], [140.8297498, 37.4131342], [140.8301848, 37.4130601], [140.8305255, 37.412902], [140.8308066, 37.4125157], [140.8308316, 37.4122003], [140.8307674, 37.411889], [140.8307891, 37.4114172], [140.8310077, 37.4112099], [140.8313064, 37.4111046], [140.8316223, 37.4111353], [140.8319343, 37.4112643], [140.8322755, 37.4114394], [140.8326264, 37.4116269], [140.833003, 37.4117694], [140.8333457, 37.4117776], [140.8336361, 37.4116693], [140.8339475, 37.4115273], [140.8342918, 37.4113767], [140.8346323, 37.411212], [140.8349715, 37.4110524], [140.835308, 37.410887], [140.8356438, 37.4107298], [140.8359754, 37.4105768], [140.836311, 37.4104578], [140.8366514, 37.4103811], [140.8370135, 37.4103488], [140.8374124, 37.4103464], [140.8378403, 37.4103441], [140.8383043, 37.4103282], [140.8387817, 37.4102802], [140.8392542, 37.4102175], [140.8397227, 37.4101517], [140.8401884, 37.4100897], [140.8406538, 37.4100396], [140.8407524, 37.4100309], [140.8411192, 37.4099983], [140.8415813, 37.4099584], [140.8420188, 37.4099193], [140.8424286, 37.4098842], [140.8428119, 37.4098779], [140.8431649, 37.4099345], [140.8434899, 37.4100459], [140.8438108, 37.4102008], [140.8441775, 37.4103199], [140.8445676, 37.4103614], [140.8449913, 37.410346], [140.8454731, 37.4103149], [140.8459669, 37.41027], [140.8464469, 37.4101796], [140.8469114, 37.4100547], [140.8473838, 37.4099426], [140.8478439, 37.4098497], [140.8482821, 37.4097782], [140.8487045, 37.4097222], [140.8491221, 37.4097303], [140.8495631, 37.4098079], [140.8500181, 37.4099247], [140.8504553, 37.4100504], [140.8508899, 37.4101179], [140.8513131, 37.4100939], [140.8517237, 37.4100113], [140.8521833, 37.4099087], [140.8526489, 37.4098003], [140.8531, 37.4096667], [140.8535363, 37.4094915], [140.8539791, 37.4092921], [140.8544303, 37.4090861], [140.8549027, 37.4089009], [140.8553974, 37.4087171], [140.8558669, 37.4085016], [140.8563244, 37.4082583], [140.8567751, 37.4080148], [140.8571946, 37.4077811], [140.8575679, 37.4075507], [140.8578937, 37.4072989], [140.8581646, 37.4070231], [140.8584098, 37.4067477], [140.8585022, 37.4067043], [140.8585877, 37.4066641], [140.858715, 37.406608], [140.8590509, 37.4065771], [140.8594302, 37.4065821], [140.8598499, 37.4065634], [140.8602421, 37.4064483], [140.8605881, 37.4062593], [140.8609481, 37.4060646], [140.8612869, 37.4058599], [140.8616265, 37.4056696], [140.8619883, 37.4055237], [140.8623639, 37.4053974], [140.8627358, 37.4052607], [140.8631143, 37.4051206], [140.8634558, 37.4049658], [140.8637898, 37.4047881], [140.8641354, 37.4045966], [140.864489, 37.4044013], [140.8648725, 37.4042415], [140.8650714, 37.4041402], [140.8653038, 37.4040477], [140.8655816, 37.4039734], [140.8657798, 37.4039383], [140.8659726, 37.4039108], [140.8661732, 37.4039067], [140.8663658, 37.4039187], [140.8665593, 37.4039315], [140.8672549, 37.4039949], [140.8674504, 37.4040038]], [[140.8721728, 37.402902], [140.8716087, 37.4029456], [140.8708575, 37.4029989], [140.8699509, 37.4030605], [140.869762, 37.4030875], [140.8696065, 37.4031261], [140.8694658, 37.4031695], [140.869309, 37.4032256], [140.8691612, 37.4032981], [140.8690107, 37.4033924]], [[140.8796595, 37.4092448], [140.8797876, 37.4094085], [140.8799967, 37.4096353], [140.8800984, 37.4097358], [140.8802352, 37.4098512], [140.8805139, 37.4099722], [140.8806885, 37.4100327], [140.8811068, 37.4102012], [140.8813508, 37.4103362], [140.8817357, 37.4106129], [140.8819972, 37.4107268], [140.8822498, 37.4108022], [140.8824477, 37.4108171], [140.8831229, 37.4107734], [140.8833826, 37.4107969], [140.8836297, 37.4108793], [140.8838401, 37.4109934], [140.8842003, 37.4112405], [140.8844549, 37.4114352], [140.884711, 37.4116699], [140.8851521, 37.4121389], [140.8852707, 37.4123009], [140.8853435, 37.4124727], [140.8854466, 37.4129156], [140.8855618, 37.4135386], [140.8856768, 37.4140237], [140.8858247, 37.4145751], [140.8859454, 37.4148613], [140.8861402, 37.415186], [140.8863251, 37.4154319], [140.8865578, 37.4156351], [140.8867859, 37.4157784], [140.8878494, 37.4162923], [140.888136, 37.4164283], [140.8884787, 37.4165984], [140.8886434, 37.4167118], [140.8887914, 37.4168773], [140.8888985, 37.4170792], [140.8889667, 37.4172675], [140.8890442, 37.4175398], [140.889142, 37.4178089], [140.8892824, 37.4180204], [140.8894273, 37.4181721], [140.8896603, 37.4183542], [140.8901836, 37.4186886], [140.8904793, 37.4188487], [140.8906005, 37.4188963], [140.8907248, 37.4189391], [140.8909025, 37.4189866], [140.8910592, 37.4190236], [140.8918804, 37.4191652], [140.8920374, 37.4191804], [140.8923209, 37.419188], [140.8926058, 37.4191496], [140.8929303, 37.4190688], [140.8931454, 37.4189937], [140.8938345, 37.4187417], [140.8939907, 37.4187018], [140.8945782, 37.4185477], [140.894829, 37.4185178], [140.8950986, 37.4185765], [140.8957638, 37.4188233], [140.8959217, 37.4188778], [140.8960684, 37.4189339], [140.8963994, 37.4190917], [140.8970181, 37.4193666], [140.8973489, 37.4194881], [140.8976974, 37.4195655], [140.8980764, 37.4196153], [140.8983683, 37.4196163], [140.8986355, 37.4195707], [140.8989012, 37.4194696], [140.8990598, 37.4193382], [140.8991784, 37.4191604], [140.8992371, 37.4189904], [140.8992237, 37.4187853], [140.8991308, 37.4182553], [140.8991012, 37.4180308], [140.8991116, 37.4178528], [140.8991965, 37.4176289], [140.8993554, 37.417429], [140.8994841, 37.4172997], [140.899619, 37.4172047], [140.8998828, 37.4171007], [140.9001579, 37.4170732], [140.9004386, 37.4170734], [140.9016517, 37.4170791], [140.9018934, 37.4170557], [140.9020908, 37.4169758], [140.9022248, 37.4168813], [140.9025976, 37.4165906], [140.9027935, 37.4164884], [140.9030773, 37.4164221], [140.9033541, 37.4164213], [140.9048895, 37.4166242], [140.9051611, 37.4166426], [140.9054257, 37.416622], [140.9056947, 37.4165684], [140.9061992, 37.4164284], [140.906382, 37.4164036], [140.9065872, 37.4164024], [140.9068036, 37.4164062], [140.9071929, 37.4164534], [140.9074362, 37.4164475], [140.9076477, 37.4164181], [140.9078547, 37.4163479], [140.9080434, 37.4162387], [140.9083928, 37.4159722], [140.9086909, 37.4157451], [140.9090456, 37.4155076], [140.9094194, 37.4152899], [140.9098845, 37.4150721], [140.9102301, 37.4149067], [140.9104057, 37.4148291], [140.9106303, 37.4147107], [140.9108071, 37.4145969], [140.9108822, 37.4145335], [140.9109479, 37.4144701], [140.911181, 37.4142054], [140.9113142, 37.4140377], [140.9114586, 37.413878], [140.9116649, 37.4136916], [140.9118768, 37.4135519], [140.9121103, 37.4134234], [140.9123685, 37.4133291], [140.9126364, 37.4132551], [140.9129226, 37.4132044], [140.9132807, 37.41319], [140.9136356, 37.4132246], [140.9138471, 37.4132629], [140.9140634, 37.4133305], [140.9144137, 37.413461], [140.9145402, 37.413521], [140.9150948, 37.4137559], [140.915315, 37.4138791], [140.9156005, 37.4140686], [140.9162273, 37.414496], [140.9164862, 37.4146688], [140.9167341, 37.4148065], [140.9170722, 37.4149442], [140.9175233, 37.4151176], [140.9176465, 37.4151462], [140.9177875, 37.4151533], [140.9179835, 37.4151006], [140.9208977, 37.413948], [140.9211287, 37.4138573], [140.9214666, 37.4137624], [140.9218236, 37.4137363], [140.9241096, 37.4136661], [140.9244141, 37.4136773], [140.9246834, 37.41373], [140.9256656, 37.4139876], [140.9259223, 37.4140104], [140.926162, 37.4140069], [140.9266982, 37.4138963], [140.9269543, 37.4138679], [140.9272193, 37.4138778], [140.9274635, 37.4138989], [140.9275334, 37.4139049], [140.9278527, 37.4139225], [140.9281816, 37.4139449], [140.9285039, 37.414005], [140.9288047, 37.4141096], [140.929097, 37.4142321], [140.929382, 37.4143532], [140.9296671, 37.4144583], [140.9299632, 37.4145277], [140.9302676, 37.4145701], [140.9305832, 37.4145889], [140.9309126, 37.4146081], [140.9312631, 37.4146039], [140.9316062, 37.4145722], [140.9319311, 37.4145251], [140.9322599, 37.4144765], [140.9325863, 37.414426], [140.9328997, 37.4143774], [140.9332069, 37.4143289], [140.9335104, 37.4142822], [140.9338197, 37.4142354], [140.9341243, 37.4141882], [140.9344163, 37.4141422], [140.9347013, 37.4140971], [140.9349816, 37.4140538], [140.9352704, 37.4140096], [140.9355639, 37.4139641], [140.9358663, 37.4139169], [140.936186, 37.4138655], [140.9365107, 37.4138135], [140.9366939, 37.4137862], [140.9368386, 37.4137647], [140.9371615, 37.4137404], [140.9374889, 37.4137583], [140.9378244, 37.4137958], [140.9381653, 37.4138382], [140.9385135, 37.4138822], [140.9388568, 37.4139275], [140.9391951, 37.4139694], [140.9395279, 37.4140073], [140.9396858, 37.4140209], [140.9398603, 37.4140359], [140.9402082, 37.4140651], [140.9405612, 37.4140984], [140.94092, 37.41413], [140.941275, 37.4141616], [140.9414152, 37.414174], [140.9416256, 37.4141926], [140.9419671, 37.4142242], [140.9423055, 37.4142546], [140.9426481, 37.4142834], [140.9427392, 37.414291], [140.9429909, 37.4143121], [140.9433362, 37.4143409], [140.9436809, 37.4143802], [140.944017, 37.4144371], [140.9443425, 37.414505], [140.9446543, 37.414581], [140.9448973, 37.4146444], [140.9449619, 37.4146613], [140.9452611, 37.4147343], [140.9455578, 37.4147988], [140.9456645, 37.414819], [140.9458176, 37.4148512], [140.9458535, 37.4148585], [140.9461411, 37.4149204], [140.9463993, 37.4149715], [140.946664, 37.4150295], [140.946881, 37.4150819], [140.9470005, 37.4151299], [140.9471941, 37.4152075], [140.9477721, 37.4155344], [140.948096, 37.4157024], [140.9489236, 37.416036], [140.948993, 37.4160672], [140.9496903, 37.4163459], [140.9498862, 37.4164548], [140.9500075, 37.4165455], [140.9501352, 37.4166559], [140.9501878, 37.416717], [140.9502248, 37.4167799], [140.950397, 37.4170323], [140.9505386, 37.4172507], [140.950681, 37.4174542], [140.9508634, 37.4176397], [140.9511591, 37.4178716], [140.9514104, 37.4180872], [140.9515341, 37.4181988], [140.9516785, 37.4183198], [140.951937, 37.4185411], [140.9520343, 37.4186462], [140.9521142, 37.418782], [140.9521875, 37.4189638], [140.9522202, 37.4191295], [140.952223, 37.4196901], [140.952217, 37.4199895], [140.9521873, 37.4201992], [140.9521162, 37.420467], [140.9520658, 37.4206989], [140.9520125, 37.4211103], [140.9519031, 37.4215808], [140.9518759, 37.4217511], [140.9518737, 37.4219333], [140.9518941, 37.4221048], [140.9519926, 37.4225187], [140.9520228, 37.4226597], [140.952039, 37.4228248], [140.952036, 37.4229899], [140.9519922, 37.4233779], [140.9519654, 37.4235623], [140.9519538, 37.4237081], [140.9519577, 37.4238225], [140.9519818, 37.4239602], [140.9520172, 37.4240722], [140.9520651, 37.4241997], [140.9521136, 37.4242926], [140.9521933, 37.4244046], [140.9523023, 37.4245314], [140.9524403, 37.424644], [140.9526197, 37.4247693], [140.95275, 37.4248251], [140.9529263, 37.4248957], [140.9530955, 37.424946], [140.9542947, 37.4252826], [140.9546577, 37.4253697], [140.9551813, 37.4254515], [140.9558336, 37.4255333], [140.95635, 37.4255989], [140.9565653, 37.4256125], [140.9567463, 37.4256207], [140.9569285, 37.4256238], [140.9588339, 37.4256386], [140.9589949, 37.4256566], [140.9591375, 37.4256879], [140.9592637, 37.4257267], [140.9600664, 37.4260337], [140.9602227, 37.4260794], [140.9603687, 37.4261039], [140.960521, 37.4261158], [140.9606903, 37.4261071], [140.9608586, 37.4260823], [140.9610439, 37.4260319], [140.9616508, 37.4258191], [140.9622784, 37.4255922], [140.9627116, 37.4254346], [140.9630361, 37.4253217], [140.9632337, 37.425266], [140.9632628, 37.4252578], [140.9633881, 37.4252351], [140.9635397, 37.4252077], [140.9637784, 37.4251822], [140.9642129, 37.4251816], [140.9643759, 37.4251971], [140.9645026, 37.42522], [140.9646066, 37.4252408], [140.9648801, 37.4253137], [140.965021, 37.4253616], [140.9652791, 37.4254697], [140.9657304, 37.4256732], [140.9662373, 37.4259112], [140.9667751, 37.4261812], [140.967217, 37.426408], [140.9676636, 37.4266189], [140.9678239, 37.4266871], [140.9679566, 37.4267222], [140.9680981, 37.4267435], [140.9683509, 37.4267515], [140.96854, 37.4267339], [140.968937, 37.4266588], [140.9693259, 37.4265518], [140.9695485, 37.426424], [140.9696612, 37.4263308], [140.9699488, 37.4260182], [140.9701326, 37.4258356], [140.9702345, 37.4257637], [140.970323, 37.4257211], [140.9704035, 37.4256966], [140.9705403, 37.4256806], [140.9706737, 37.4256859], [140.9709627, 37.4257222], [140.9714616, 37.4257898], [140.9720866, 37.4258686], [140.9725083, 37.4259357], [140.9728879, 37.426022], [140.9732144, 37.4261104], [140.973537, 37.4262089], [140.9739158, 37.4263319], [140.9741224, 37.426407], [140.9743041, 37.4264874], [140.9745871, 37.4266461], [140.9748311, 37.4268202], [140.9751295, 37.4270859], [140.9753602, 37.4272946], [140.9756063, 37.4275023], [140.9757344, 37.4275849], [140.9758437, 37.427644], [140.9760401, 37.4277249], [140.9760785, 37.4277364], [140.9762587, 37.4277904], [140.9763701, 37.427817], [140.9768267, 37.4279262], [140.9772914, 37.4280423], [140.9779405, 37.4281972], [140.9786285, 37.4283591], [140.9791538, 37.4284983], [140.9794298, 37.4285886], [140.9796886, 37.428685], [140.9802143, 37.4289108], [140.9805898, 37.4291057], [140.9809385, 37.4293176], [140.9812604, 37.4295338], [140.9816225, 37.4298139], [140.9819175, 37.430062], [140.9821254, 37.4302324], [140.9824379, 37.4304901], [140.9826887, 37.4306957], [140.9828737, 37.4308181], [140.9830843, 37.4309246], [140.983433, 37.4310535], [140.9836717, 37.431111], [140.9838849, 37.4311376], [140.9844911, 37.4311887], [140.9866355, 37.4313708], [140.9867978, 37.4313868], [140.9888631, 37.4315593], [140.9899023, 37.4316461], [140.9902377, 37.4316935], [140.9906951, 37.431792], [140.9911074, 37.4319172], [140.9915822, 37.4321067], [140.9919798, 37.4323059], [140.992293, 37.4325002], [140.9925082, 37.4326498], [140.9927731, 37.432866], [140.9930217, 37.433103], [140.993219, 37.4333093], [140.9933384, 37.4334688], [140.9934674, 37.4336631], [140.9936862, 37.4340341], [140.9938626, 37.4343433], [140.9939742, 37.4345361], [140.9941014, 37.4347325], [140.9941969, 37.4348525], [140.9943383, 37.4349932], [140.9945577, 37.4351705], [140.9950418, 37.4355426], [140.9954731, 37.4358857], [140.9959006, 37.4362214], [140.9964436, 37.436658], [140.9965608, 37.436747], [140.9970196, 37.4371111], [140.9976945, 37.4376538], [140.9980337, 37.4379064], [140.9986054, 37.4383523], [140.9989643, 37.4386355], [140.9991639, 37.4387939], [140.9993872, 37.4389687], [140.9995409, 37.4390926], [140.9997131, 37.439222], [140.9999746, 37.4394258], [141.0001976, 37.439621], [141.0003703, 37.4397411], [141.0006067, 37.4398749], [141.0008147, 37.4399915], [141.0012686, 37.4402419], [141.001501, 37.4403782], [141.0017364, 37.4405109], [141.0021054, 37.4407107], [141.0022296, 37.4407889], [141.0024569, 37.4409431], [141.0025942, 37.4410862], [141.0027058, 37.4412294], [141.0028152, 37.4413652], [141.0029157, 37.4415525], [141.0029773, 37.4417135], [141.0030305, 37.4418359], [141.0030515, 37.441939], [141.0031804, 37.4425225], [141.0033326, 37.4431206], [141.0034547, 37.4437885], [141.0034747, 37.4440475], [141.0035258, 37.4447071], [141.0035337, 37.4448129], [141.0035465, 37.4449251], [141.0035546, 37.4449572], [141.0035755, 37.4450404], [141.0036221, 37.4451464], [141.0036984, 37.4452591], [141.0037872, 37.4453511], [141.0039784, 37.4455115], [141.0042588, 37.4457432], [141.0044242, 37.4458996], [141.004516, 37.4460057], [141.0045892, 37.4461311], [141.0046172, 37.4461778], [141.0046405, 37.4463398], [141.0046281, 37.4465003], [141.0045769, 37.4467764], [141.0045572, 37.4469946], [141.0051434, 37.4470217], [141.0053767, 37.4470369], [141.0055996, 37.4470592], [141.0060492, 37.4471154], [141.0061781, 37.4471314], [141.0065767, 37.4471852], [141.0070917, 37.447267], [141.0072679, 37.4472869], [141.0075295, 37.4473283], [141.0078414, 37.4473707], [141.0079586, 37.4473828], [141.0082333, 37.4474169], [141.0083878, 37.4474321], [141.0086371, 37.4474503]], [[140.8674504, 37.4040038], [140.8676718, 37.4039976], [140.8678415, 37.4039702], [140.8680269, 37.4039283], [140.8682157, 37.4038677], [140.8684034, 37.403789], [140.8685553, 37.4037037], [140.8687153, 37.4036019], [140.8687959, 37.4035457], [140.8690107, 37.4033924]], [[140.8796595, 37.4092448], [140.8795446, 37.4090472], [140.8794952, 37.4089188], [140.8794612, 37.4087832], [140.8794474, 37.4086765], [140.8794395, 37.4085577], [140.8794466, 37.4084495], [140.8794619, 37.4083286], [140.8794906, 37.408205], [140.8795296, 37.4081001], [140.8796375, 37.4078542], [140.8801011, 37.4068068], [140.8801583, 37.4066225], [140.880212, 37.4064334], [140.8802495, 37.4062525], [140.8802769, 37.4060743], [140.8802914, 37.405882], [140.88029, 37.4057048], [140.880282, 37.4055107], [140.8802595, 37.4053163], [140.8802108, 37.4050754], [140.8801559, 37.4048888], [140.8800969, 37.4047106], [140.8800041, 37.40449], [140.8798886, 37.4042749], [140.879757, 37.4040631], [140.879621, 37.4038639], [140.87946, 37.40367], [140.8791766, 37.403381], [140.8788575, 37.4031211], [140.8785447, 37.4029101], [140.8782075, 37.4027145], [140.8778832, 37.4025672], [140.877485, 37.40242], [140.8771963, 37.4023336], [140.8769338, 37.402274], [140.8766773, 37.4022245], [140.8764037, 37.402189], [140.8760937, 37.4021602], [140.8757647, 37.4021579], [140.8754855, 37.4021631], [140.8751729, 37.4021902], [140.8749064, 37.4022236], [140.874601, 37.4022802], [140.8742945, 37.4023549], [140.8739924, 37.4024431], [140.8730099, 37.4027778], [140.8728469, 37.4028177], [140.8726856, 37.4028478], [140.8725483, 37.4028684], [140.872407, 37.4028862], [140.8721728, 37.402902]], [[140.6000226, 37.4417059], [140.6002076, 37.4415696], [140.6004762, 37.4414434], [140.600703, 37.4413685], [140.6009804, 37.4412967], [140.6015667, 37.4412842], [140.6033926, 37.4414815], [140.6080504, 37.4420033], [140.608245, 37.4420168], [140.6084192, 37.4420206], [140.6087853, 37.442029], [140.60917, 37.4420149], [140.6095498, 37.4420021], [140.6097853, 37.4419905], [140.6099513, 37.44199], [140.6101748, 37.4419886], [140.6103571, 37.441995], [140.6130917, 37.4421327], [140.6135458, 37.4421602], [140.6142147, 37.4422091], [140.6154972, 37.4423003], [140.6159963, 37.4423599], [140.6162191, 37.4423779], [140.6163667, 37.4423984], [140.616524, 37.4424253], [140.6166659, 37.4424669], [140.6167788, 37.442497], [140.6169248, 37.4425277], [140.6171336, 37.4425739], [140.6172828, 37.4426001], [140.6174232, 37.4426244], [140.6175594, 37.4426436], [140.6176998, 37.4426481], [140.6178586, 37.442636], [140.6180054, 37.4426142], [140.6181304, 37.4425892], [140.6182619, 37.4425585], [140.6183957, 37.4425207], [140.6185102, 37.4424752], [140.6186675, 37.4423965], [140.6188005, 37.4423196], [140.6188272, 37.4423081], [140.6189973, 37.4421807], [140.6192231, 37.4420123], [140.619336, 37.4419387], [140.6194667, 37.4418561], [140.6197167, 37.4417031], [140.6198844, 37.4416038], [140.6199941, 37.4415391], [140.6201304, 37.4414553], [140.6202336, 37.4413874], [140.620428, 37.4412683], [140.6206086, 37.4411646], [140.6207102, 37.441105], [140.620882, 37.4410154], [140.6210457, 37.4409513], [140.6212344, 37.440886], [140.6214715, 37.4408105], [140.6216876, 37.4407439], [140.6218352, 37.4406991], [140.6220933, 37.440619], [140.6223344, 37.440546], [140.6225175, 37.4404814], [140.6226159, 37.4404596], [140.6227538, 37.4404602], [140.6228675, 37.4404596], [140.6230094, 37.4404692], [140.623111, 37.4404846], [140.6233167, 37.440555], [140.6235126, 37.4406677], [140.6237022, 37.4407778], [140.6239272, 37.4409084], [140.6241513, 37.4410378], [140.6243747, 37.4411722], [140.624611, 37.4413093], [140.6248626, 37.4414578], [140.6250375, 37.4415415]], [[140.5584885, 37.4435131], [140.5585375, 37.4431982], [140.5585714, 37.4430839], [140.5586162, 37.4429823], [140.5586797, 37.4428807], [140.558763, 37.4427719], [140.5588672, 37.4426612], [140.5590607, 37.4424684], [140.5592228, 37.4423031], [140.5593648, 37.4421401], [140.5594164, 37.4420364], [140.5594633, 37.4419251], [140.5595112, 37.4417629], [140.5595694, 37.4414352]]]}, "id": "relation/9095602"}]}