{"type": "FeatureCollection", "generator": "kokudo-quiz tools/fetch_raw.py (Overpass API)", "copyright": "The data included in this document is from www.openstreetmap.org. The data is made available under ODbL.", "timestamp": "2026-09-30T16:19:35Z", "features": [{"type": "Feature", "properties": {"@id": "relation/3518585", "colour": "red", "from": "静岡県浜松市中央区", "name": "国道301号", "name:en": "National Highway Route 301", "name:fr": "Route nationale 301", "name:ja": "国道301号", "name:ja-Hira": "こくどうさんびゃくいちごう", "name:ja-Latn": "Kokudō 301-gō", "network": "JP:national", "ref": "301", "route": "road", "to": "愛知県豊田市", "type": "route", "wikidata": "Q6157176", "wikimedia_commons": "Category:Route 301 (Japan)", "wikipedia": "ja:国道301号"}, "geometry": {"type": "MultiLineString", "coordinates": [[[137.6632496, 34.6806451], [137.6628153, 34.6806951], [137.6626725, 34.6807096], [137.6625295, 34.6807223], [137.6623863, 34.6807333], [137.6623423, 34.6807361], [137.6622429, 34.6807424], [137.6620993, 34.6807498], [137.6619557, 34.6807554], [137.6613769, 34.6807709], [137.6608231, 34.6808018], [137.6607313, 34.6808011], [137.6606221, 34.6808002], [137.6601975, 34.6807969], [137.6567697, 34.6807699], [137.6566743, 34.6807692], [137.6565583, 34.6807683], [137.656438, 34.6807673], [137.6552542, 34.680758], [137.6550634, 34.6807565], [137.6547797, 34.6807542], [137.6544781, 34.6807519], [137.6542559, 34.6807501], [137.6527468, 34.6807382], [137.651684, 34.6807299], [137.6510122, 34.6807246], [137.6495989, 34.6807134], [137.6495279, 34.6807129], [137.6494569, 34.6807123], [137.6487386, 34.6807067], [137.6486818, 34.6807062], [137.6481489, 34.680702], [137.6480195, 34.680701], [137.6479047, 34.6807], [137.6477684, 34.6806989], [137.6476318, 34.6806977], [137.6475013, 34.6806966], [137.6473722, 34.6806955], [137.6465403, 34.6806886], [137.6464419, 34.6806878], [137.6450757, 34.6806765], [137.6449434, 34.6806754], [137.6442706, 34.6806698], [137.6441361, 34.6806687], [137.6439316, 34.680667], [137.6424916, 34.680655], [137.6424347, 34.6806545], [137.641487, 34.6806467], [137.6404023, 34.6806376], [137.6402659, 34.6806365], [137.6394476, 34.6806297], [137.6384304, 34.6806212], [137.6375204, 34.6806137], [137.6370848, 34.68061], [137.6366737, 34.6806066], [137.6365754, 34.6806058], [137.6354844, 34.6805967], [137.634382, 34.6805875], [137.6328137, 34.6805745], [137.6324324, 34.6805755], [137.6323088, 34.6805758], [137.6315927, 34.6805776], [137.6307875, 34.6806267], [137.6306427, 34.6806355], [137.6304862, 34.6806497], [137.629757, 34.6807157], [137.6296081, 34.6807302], [137.6294598, 34.6807479], [137.629312, 34.6807689], [137.6291552, 34.6807947], [137.6287433, 34.6808625], [137.6284999, 34.6809026], [137.6283017, 34.6809353], [137.6281118, 34.6809803], [137.6279307, 34.6810232], [137.6270509, 34.6812319], [137.6270275, 34.6812374], [137.6268674, 34.6812826], [137.626607, 34.681356], [137.6262984, 34.6814555], [137.6260897, 34.6815228], [137.6253432, 34.6817634], [137.6252139, 34.6818051], [137.6251497, 34.6818256], [137.6235499, 34.6823364], [137.6230394, 34.6824996], [137.6223076, 34.6827335], [137.6219498, 34.6828479], [137.6218508, 34.6828796], [137.6217111, 34.682926], [137.6213295, 34.6830528], [137.6211503, 34.6831123], [137.6209562, 34.6831768], [137.6205835, 34.6832948], [137.6202555, 34.6833987], [137.6197646, 34.6835541], [137.6195667, 34.6836168], [137.6187046, 34.6838897], [137.6186018, 34.6839243], [137.6185869, 34.6839293], [137.6185206, 34.6839516], [137.6181669, 34.6840706], [137.6179836, 34.6841323], [137.6179299, 34.6841497], [137.6171443, 34.6843973], [137.6159167, 34.6847919], [137.6152818, 34.6849947], [137.6148837, 34.6851218], [137.6147289, 34.6851711], [137.6144172, 34.6852704], [137.6137993, 34.6854671], [137.6134195, 34.6855881], [137.6133189, 34.6856201], [137.6132312, 34.6856511], [137.612644, 34.6858589], [137.6123025, 34.6859988], [137.6108081, 34.6866111], [137.6102883, 34.6868241], [137.6097848, 34.6870338], [137.6096739, 34.6870789], [137.6094214, 34.6871816], [137.6086084, 34.6875122], [137.6085794, 34.6875242], [137.6085135, 34.6875514], [137.6083626, 34.6876136], [137.6083048, 34.6876375], [137.6081971, 34.687682], [137.6078121, 34.6878408], [137.6062217, 34.6884971], [137.6050288, 34.6889865], [137.6047401, 34.6891049], [137.6045798, 34.6891706], [137.6042818, 34.6892969], [137.6039729, 34.6894278], [137.6038499, 34.6894799], [137.6036949, 34.6895456], [137.6036815, 34.6895516], [137.6031699, 34.6897799], [137.6031464, 34.6897911], [137.6030772, 34.6898238], [137.6029322, 34.6898938], [137.6028266, 34.6899451], [137.6023346, 34.6901839], [137.6021685, 34.6902645], [137.6020978, 34.690297], [137.6019963, 34.6903436], [137.6019567, 34.6903604], [137.6019064, 34.6903816], [137.601683, 34.6904722], [137.6016286, 34.6904924], [137.6016171, 34.6904966], [137.601574, 34.6905126], [137.6014624, 34.6905479], [137.6013485, 34.690578], [137.6012498, 34.6905991], [137.6012327, 34.6906027], [137.6010454, 34.690632], [137.6009662, 34.6906438], [137.6009175, 34.690651], [137.600848, 34.6906609], [137.6007654, 34.6906727], [137.6005143, 34.690708], [137.6003576, 34.6907299], [137.6002167, 34.6907497], [137.6000894, 34.6907761], [137.5998516, 34.6908255], [137.5997039, 34.6908562], [137.5994618, 34.6909162], [137.5992235, 34.6909856], [137.5989894, 34.6910643], [137.5987601, 34.6911519], [137.5985362, 34.6912484], [137.598318, 34.6913535], [137.5981061, 34.6914669], [137.5979022, 34.6915852], [137.5975771, 34.6917737], [137.5973199, 34.6919228], [137.5972316, 34.6919699], [137.5972111, 34.6919809], [137.5971014, 34.6920376], [137.5968624, 34.692153], [137.5967637, 34.6921955], [137.5966411, 34.6922483], [137.5964564, 34.6923278], [137.5963682, 34.6923658], [137.5963044, 34.6923899], [137.5957685, 34.6925924], [137.5955999, 34.692653], [137.5954011, 34.6927245], [137.5952892, 34.6927624], [137.5950273, 34.6928512], [137.595012, 34.6928564], [137.5946784, 34.6929608], [137.5943716, 34.6930549], [137.5939444, 34.693173], [137.5935046, 34.6932868], [137.5933396, 34.6933295], [137.5932437, 34.6933512], [137.5928214, 34.6934467], [137.5922404, 34.693569], [137.5914423, 34.6937268], [137.591249, 34.693765], [137.5910662, 34.6938011], [137.5909907, 34.6938156], [137.5908318, 34.6938418], [137.5908147, 34.6938446], [137.5906921, 34.6938597], [137.5904574, 34.6938796], [137.5902802, 34.6938874], [137.5900718, 34.6938884], [137.5898123, 34.6938882], [137.5896775, 34.693881], [137.5895706, 34.693872], [137.5893491, 34.6938454], [137.5886337, 34.6937614], [137.5881566, 34.693727], [137.5877137, 34.6937061], [137.587105, 34.6936933], [137.5865643, 34.6936987], [137.5860149, 34.6937178], [137.5853672, 34.6937668], [137.584149, 34.6939131], [137.5837034, 34.6939541], [137.5834682, 34.6939757], [137.5832932, 34.6939918], [137.5828765, 34.6940159], [137.5825045, 34.6940291], [137.5811323, 34.6940377], [137.5805926, 34.6940394], [137.5789251, 34.6940408], [137.5781917, 34.6940355], [137.5779662, 34.6940368], [137.5775397, 34.6940347], [137.5772341, 34.6940375], [137.576076, 34.6940483], [137.5756733, 34.6940488], [137.5753082, 34.6940493], [137.5742635, 34.6940526], [137.5739709, 34.6940535], [137.5727439, 34.6940189], [137.57178, 34.6939953], [137.571294, 34.6939834], [137.5712281, 34.6939835], [137.5697019, 34.6939323], [137.5695387, 34.6939297], [137.568834, 34.6939172], [137.5686503, 34.6939207], [137.568248, 34.693922], [137.5676838, 34.6939075], [137.5675378, 34.6939037], [137.5672174, 34.6938923], [137.5663742, 34.6938929], [137.5655363, 34.6939172], [137.5647264, 34.6939834], [137.5637418, 34.6940742], [137.5634595, 34.6941005], [137.5634414, 34.6941023], [137.5627941, 34.6941682], [137.5626908, 34.6941744], [137.5621663, 34.6942263], [137.5619875, 34.6942516], [137.561722, 34.6943074], [137.5615426, 34.6943571], [137.5612996, 34.6944271], [137.5609362, 34.6945346], [137.5605989, 34.6946347], [137.5601772, 34.6947464], [137.5599343, 34.694815], [137.5595397, 34.6949274], [137.5591264, 34.6950472], [137.5591417, 34.6951635], [137.5592158, 34.6954374], [137.5593309, 34.6957564], [137.5593734, 34.6958699], [137.5593668, 34.6959492], [137.5593599, 34.696038], [137.5593285, 34.696112], [137.5592717, 34.6961717], [137.5591959, 34.6962632], [137.558301, 34.697072], [137.5573074, 34.6980722], [137.5568462, 34.6985517], [137.5566602, 34.6987557], [137.5565783, 34.6988708], [137.5564562, 34.6990328], [137.5562809, 34.699297], [137.5562006, 34.6994384], [137.5561079, 34.6996099], [137.5559364, 34.6999643], [137.5558995, 34.7000405], [137.5557933, 34.7002585], [137.5557678, 34.7003015], [137.5557341, 34.7003581], [137.5556537, 34.7004672], [137.5555496, 34.7005924], [137.5553795, 34.7007598], [137.5553051, 34.700842], [137.5552088, 34.7009483], [137.5551358, 34.7010128], [137.554858, 34.7012583], [137.5547546, 34.7013564], [137.5543986, 34.7016941], [137.5538166, 34.7022679], [137.5537537, 34.7023229], [137.5537362, 34.7023417], [137.5533701, 34.7027028], [137.5529081, 34.7031658], [137.5525356, 34.7035366], [137.5523922, 34.703666], [137.5522808, 34.7037593], [137.5522163, 34.7038047], [137.5521337, 34.7038489], [137.5519865, 34.7039146], [137.551744, 34.7040047], [137.5504834, 34.7044307], [137.5501838, 34.704534], [137.5501494, 34.7048601], [137.5501457, 34.7052198], [137.5501526, 34.7054029], [137.55016, 34.7055969], [137.5501619, 34.7058485], [137.5501389, 34.7060342], [137.5501232, 34.7061606], [137.5500746, 34.7064146], [137.5500134, 34.7066743], [137.5499645, 34.7068911], [137.5499095, 34.7071508], [137.5498601, 34.7073057], [137.5497814, 34.7074817], [137.5495947, 34.7078566], [137.5495072, 34.7080271], [137.5494641, 34.7081109], [137.5494353, 34.7081693], [137.5492702, 34.7085036], [137.5491522, 34.7087853], [137.5490416, 34.7090092], [137.5489535, 34.7091806], [137.5488968, 34.7092652], [137.5488424, 34.7093408], [137.5488301, 34.7093578], [137.5486581, 34.709574], [137.548355, 34.7099375], [137.5482064, 34.7102556], [137.5481461, 34.7103921], [137.548105, 34.7105143], [137.5478796, 34.7111833], [137.5475379, 34.7120747], [137.5472717, 34.7129166], [137.5468094, 34.7143442], [137.5466023, 34.7149326], [137.5465872, 34.7151233], [137.5465704, 34.715373], [137.5465879, 34.7155781], [137.5466643, 34.7157678], [137.5458671, 34.7161546], [137.5457967, 34.7161879], [137.5451346, 34.7165006], [137.5450353, 34.7165515], [137.5448055, 34.7166692], [137.5442782, 34.7169106], [137.5438928, 34.717087], [137.543041, 34.7176357], [137.541961, 34.7180468], [137.541517, 34.7181952], [137.5411888, 34.7183355], [137.5411667, 34.7183483], [137.5408408, 34.7185369], [137.540628, 34.718709], [137.5404501, 34.7188895], [137.5400289, 34.7193597], [137.5398965, 34.7194679], [137.5397502, 34.7195573], [137.5393617, 34.7197199], [137.5392922, 34.7197472], [137.5386256, 34.7200159], [137.5384625, 34.7200825], [137.5379855, 34.7202592], [137.5378471, 34.720313], [137.5372643, 34.7205363], [137.5366023, 34.7207977], [137.5364488, 34.7208583], [137.5362829, 34.7209221], [137.5361502, 34.7209749], [137.5360428, 34.7210252], [137.5359769, 34.7210653], [137.5358859, 34.7211124], [137.5357385, 34.7212395], [137.5355932, 34.7214353], [137.5355074, 34.7215671], [137.5354205, 34.7217047], [137.5353543, 34.7218108], [137.5352872, 34.7219158], [137.535229, 34.7219979], [137.5351438, 34.7221049], [137.5350115, 34.7222307], [137.5348557, 34.7223441], [137.5347203, 34.7224275], [137.5346059, 34.7224813], [137.5344577, 34.7225379], [137.5342525, 34.7225973], [137.5340624, 34.7226309], [137.5339139, 34.7226523], [137.533619, 34.7226859], [137.5335671, 34.7226923], [137.5331989, 34.7227357], [137.5330111, 34.7227622], [137.5326274, 34.7228037], [137.5317851, 34.7228992], [137.5312755, 34.7229158], [137.5306309, 34.7229315], [137.5298557, 34.7229446], [137.5296995, 34.7229335], [137.5295223, 34.7230872], [137.5294147, 34.7231638], [137.5292891, 34.7232507], [137.5292623, 34.7232686], [137.5291436, 34.7233516], [137.5289944, 34.7234558], [137.5289374, 34.7234999], [137.5288227, 34.7235977], [137.5286874, 34.7237467], [137.5285309, 34.7239427], [137.5282397, 34.7244099], [137.5280061, 34.7247228], [137.5271246, 34.725625], [137.5269043, 34.7258579], [137.5265261, 34.7262253], [137.5263397, 34.7263943], [137.5262985, 34.7264297], [137.5261515, 34.7265469], [137.5257652, 34.7268114], [137.5253374, 34.7270859], [137.5250423, 34.727335], [137.5249042, 34.7274645], [137.5243672, 34.7279604], [137.5242801, 34.7280435], [137.5237383, 34.7285532], [137.5236341, 34.7286529], [137.5235447, 34.7287606], [137.5232802, 34.7290792], [137.5230814, 34.7293498], [137.5230448, 34.7294336], [137.5228911, 34.729785], [137.5227778, 34.7304404], [137.5227261, 34.7308303], [137.5227189, 34.7308674], [137.5226934, 34.7309981], [137.5226766, 34.7311113], [137.5226424, 34.731342], [137.5225726, 34.7316285], [137.5225117, 34.731779], [137.5224817, 34.7318304], [137.5223079, 34.7321284], [137.5220679, 34.7324459], [137.5214082, 34.7331534], [137.521357, 34.7332073], [137.5212655, 34.7333005], [137.521003, 34.7335975], [137.5208771, 34.7338185], [137.5207507, 34.7341164], [137.5205006, 34.7349397], [137.5203727, 34.7351857], [137.5201182, 34.7356251], [137.5200093, 34.7359352], [137.5199687, 34.7360911], [137.5199556, 34.7363165], [137.5199397, 34.7366107], [137.519901, 34.7367453], [137.5198536, 34.7368366], [137.5198202, 34.736884], [137.5197114, 34.7370129], [137.51945, 34.7372323], [137.5191161, 34.7374935], [137.5190124, 34.7376234], [137.5189528, 34.7377029], [137.518853, 34.7378683], [137.5187799, 34.7379893], [137.5186081, 34.7381468], [137.5185084, 34.738212], [137.5182725, 34.7383288], [137.5178393, 34.7384556], [137.5176864, 34.7385262], [137.5175717, 34.7385957], [137.5174933, 34.7386595], [137.5173297, 34.7388523], [137.5168846, 34.7395741], [137.5163365, 34.7404431], [137.5161749, 34.740713], [137.5156552, 34.7415412], [137.515241, 34.7421472], [137.5150685, 34.7424781], [137.5149199, 34.7427821], [137.51471, 34.743236], [137.5144547, 34.7437504], [137.5142975, 34.7441333], [137.514186, 34.7445729], [137.514133, 34.7448294], [137.5138964, 34.7459097], [137.5138157, 34.7461539], [137.5134305, 34.7468734], [137.5132632, 34.747146], [137.5130843, 34.7474044], [137.512464, 34.748112], [137.5121611, 34.7484901], [137.5120828, 34.7485947], [137.5119793, 34.7487331], [137.5118452, 34.7489784], [137.5118163, 34.7491671], [137.5118582, 34.749686], [137.5118401, 34.7498974], [137.5118016, 34.7500282], [137.511683, 34.7502402], [137.5116055, 34.75035], [137.5115374, 34.7504602], [137.5114865, 34.7505919], [137.5114674, 34.750706], [137.5114776, 34.7508339], [137.5116347, 34.7515823], [137.5116487, 34.7517373], [137.5116492, 34.7518762], [137.5115744, 34.7527278], [137.5115833, 34.7531046], [137.5116348, 34.7534833], [137.5117109, 34.7540552], [137.5117114, 34.7543672], [137.5116797, 34.7551339], [137.5116636, 34.7556184], [137.5116513, 34.7559563], [137.5116401, 34.7562251], [137.5116145, 34.7567039], [137.5115915, 34.7574659], [137.511629, 34.7576931], [137.511726, 34.7579425], [137.5119174, 34.7584198], [137.5122882, 34.7592439], [137.5123613, 34.7593619], [137.5124476, 34.7594663], [137.5124751, 34.7594897], [137.5125441, 34.7595484], [137.5126434, 34.7596171], [137.5127644, 34.7596809], [137.5128857, 34.7597315], [137.5130183, 34.7597624], [137.5131531, 34.7597817], [137.5133186, 34.7597928], [137.5134392, 34.7597848], [137.5135881, 34.7597578], [137.5137285, 34.7597172], [137.5138843, 34.7596537], [137.5140827, 34.7595692], [137.5141769, 34.7595291], [137.5144469, 34.759407], [137.5148704, 34.7592234], [137.5152961, 34.7590302], [137.5156069, 34.7589042], [137.5158581, 34.7588626], [137.5161517, 34.7588607], [137.5165147, 34.7589657], [137.5178895, 34.7596114], [137.5183938, 34.7599316], [137.5195067, 34.7609257], [137.5198158, 34.7611712], [137.5209255, 34.7619178], [137.5216981, 34.7624444], [137.5228592, 34.7632251], [137.5233922, 34.7635218], [137.5237528, 34.7636529], [137.5241961, 34.7637615], [137.5245356, 34.7638153], [137.524992, 34.7639282], [137.5252467, 34.7640632], [137.525777, 34.7644692], [137.5260712, 34.764676], [137.5262306, 34.7647583], [137.5263828, 34.7648354], [137.526685, 34.7649308], [137.5270051, 34.7649708], [137.5277011, 34.7649242], [137.5280189, 34.7649072], [137.5282668, 34.7649599], [137.5283528, 34.7650189], [137.5285014, 34.7651208], [137.5287371, 34.7654582], [137.5288588, 34.765614], [137.5290677, 34.7658143], [137.5293235, 34.765937], [137.5296214, 34.7660015], [137.5302595, 34.7660328], [137.5305686, 34.7660998], [137.5307714, 34.7661923], [137.530943, 34.7663215], [137.5311674, 34.7665447], [137.5314595, 34.7668256], [137.5317189, 34.7669851], [137.5319354, 34.7670495], [137.5321483, 34.7670835], [137.5323474, 34.7670866], [137.5332241, 34.7670623], [137.5336902, 34.7670631], [137.5340211, 34.767101], [137.5341637, 34.7671174], [137.5346944, 34.7673293], [137.5350691, 34.7674807], [137.535694, 34.7677995], [137.5375781, 34.7690374], [137.5379352, 34.7692125], [137.5384849, 34.7694561], [137.5388172, 34.7695532], [137.5392803, 34.7696939], [137.5402228, 34.7699704], [137.5405756, 34.7700499], [137.5408026, 34.7700879], [137.5411561, 34.7701472], [137.5417461, 34.7701887], [137.5428197, 34.7702428], [137.5432989, 34.7702471], [137.5436857, 34.7702251], [137.5442518, 34.7701053], [137.5453714, 34.7697872], [137.5456173, 34.7697387], [137.5458229, 34.7697375], [137.5459801, 34.7697523], [137.5462507, 34.7698385], [137.5465295, 34.7700442], [137.5466403, 34.7702252], [137.5468007, 34.7704401], [137.5469743, 34.7707431], [137.5470222, 34.7708242], [137.5470735, 34.7711587], [137.5470605, 34.77143], [137.5469869, 34.7718222], [137.5468594, 34.7722016], [137.5465672, 34.7732337], [137.5465845, 34.7735172], [137.5465917, 34.7736342], [137.5466999, 34.7740134], [137.5467201, 34.7742669], [137.5466768, 34.774447], [137.5465672, 34.7745904], [137.5463537, 34.7747231], [137.5461344, 34.7747895], [137.54597, 34.7747912], [137.5459094, 34.7747918], [137.5453713, 34.7747373], [137.545295, 34.7747409], [137.5451448, 34.774748], [137.5449299, 34.774838], [137.5448316, 34.7748953], [137.5447611, 34.7749364], [137.5441509, 34.7754447], [137.5439721, 34.7756189], [137.5438466, 34.7758108], [137.54376, 34.7760881], [137.5437456, 34.7767394], [137.5437155, 34.7774991], [137.543708, 34.7781794], [137.543672, 34.7789294], [137.5436515, 34.778999], [137.5435968, 34.7791509], [137.5435215, 34.7792629], [137.5434643, 34.7793346], [137.5432363, 34.7794815], [137.5426824, 34.7796948], [137.5423117, 34.7799092], [137.5419938, 34.7801585], [137.5418659, 34.7802587], [137.5417299, 34.780388], [137.5416452, 34.7805016], [137.5415864, 34.7806703], [137.5415313, 34.7817451], [137.5415139, 34.7821129], [137.5415062, 34.7822831], [137.5415125, 34.7826756], [137.5415928, 34.7830627], [137.5419, 34.7838375], [137.5420525, 34.7841475], [137.5422073, 34.7844098], [137.542477, 34.7846778], [137.5428002, 34.7848955], [137.5431103, 34.7850946], [137.5432993, 34.7853268], [137.5433454, 34.785506], [137.5433454, 34.7857], [137.5433001, 34.7860857], [137.5433036, 34.7863622], [137.5434017, 34.7866406], [137.5435214, 34.7868337], [137.5436873, 34.7869877], [137.5439816, 34.7871951], [137.5444951, 34.7874972], [137.5449928, 34.787849], [137.5451677, 34.7880521], [137.5452673, 34.7882013], [137.5454274, 34.7886752], [137.5456061, 34.7894376], [137.5458498, 34.7902648], [137.5459233, 34.790584], [137.5459767, 34.7910101], [137.5460406, 34.7922064], [137.5460553, 34.7925156], [137.5460944, 34.7927359], [137.5461525, 34.7929605], [137.5462289, 34.7932112], [137.5462669, 34.7933345], [137.5463895, 34.7937098], [137.5464867, 34.7939155], [137.5466015, 34.7940866], [137.5467768, 34.7943164], [137.546962, 34.7944966], [137.5472444, 34.7947225], [137.5474768, 34.7948516], [137.5477095, 34.7949808], [137.5481413, 34.7952184], [137.548312, 34.7953587], [137.548339, 34.7953889], [137.5484571, 34.7955209], [137.5485686, 34.7956812], [137.5486577, 34.7958693], [137.5487086, 34.7960405], [137.5487264, 34.7962297], [137.5487419, 34.7964498], [137.5487296, 34.7967269], [137.5486711, 34.796956], [137.5486108, 34.797115], [137.548594, 34.7971593], [137.5485113, 34.7973662], [137.5484265, 34.7976596], [137.5484232, 34.7977162], [137.5484116, 34.797913], [137.5484182, 34.7981176], [137.5484797, 34.7983907], [137.5485646, 34.7986664], [137.5486304, 34.7989757], [137.548659, 34.7993639], [137.5486773, 34.7998078], [137.5487193, 34.8002388], [137.5487739, 34.8004784], [137.5488374, 34.8006671], [137.5488806, 34.8007461], [137.5489469, 34.8008676], [137.5489699, 34.8009134], [137.5496051, 34.8020085], [137.5497892, 34.8023445], [137.5499816, 34.8026943], [137.5504053, 34.8033728], [137.5507079, 34.8039033], [137.5502881, 34.8040873], [137.55008, 34.8041501], [137.5490031, 34.8043159], [137.5484424, 34.8044033], [137.5478023, 34.8044942], [137.5483832, 34.8069866], [137.5494399, 34.8093299], [137.5503413, 34.811448], [137.5497892, 34.8121994], [137.5497686, 34.8122267], [137.5496181, 34.8124481], [137.5495953, 34.8124832], [137.5495075, 34.8126117], [137.5490673, 34.8133152], [137.5489369, 34.8135443], [137.5485655, 34.814284], [137.548434, 34.8144603], [137.5482021, 34.8147363], [137.5476901, 34.8153672], [137.5472524, 34.8158978], [137.5465594, 34.8166415], [137.5463504, 34.8168658], [137.5462686, 34.8169738], [137.5462183, 34.8170928], [137.5461852, 34.8172307], [137.5461896, 34.8173707], [137.5462213, 34.8175158], [137.5464463, 34.8181601], [137.5465581, 34.8184774], [137.5466005, 34.8186341], [137.546613, 34.8187518], [137.5466022, 34.8189068], [137.5465575, 34.8190285], [137.5464912, 34.8191325], [137.5463078, 34.8193285], [137.5459235, 34.8196686], [137.5454047, 34.8201056], [137.5450692, 34.8203885], [137.5449949, 34.8204455], [137.5448332, 34.8205559], [137.5446365, 34.820672], [137.5444953, 34.8207359], [137.5442917, 34.8208123], [137.5442527, 34.8208223], [137.5440401, 34.8208864], [137.5424559, 34.821226], [137.5421622, 34.8213483], [137.5420101, 34.8214595], [137.5416007, 34.8218674], [137.5413205, 34.8221333], [137.5406806, 34.8226556], [137.5405822, 34.8227282], [137.5402787, 34.8229572], [137.5401095, 34.8230228], [137.5399337, 34.8230586], [137.5394871, 34.8231073], [137.5389673, 34.823133], [137.5381298, 34.8231843], [137.5379165, 34.8232281], [137.5377211, 34.8233052], [137.5374337, 34.8234675], [137.5369214, 34.8238086], [137.5360796, 34.8243122], [137.5359746, 34.8243771], [137.5359365, 34.8244004], [137.5357042, 34.8245526], [137.5356075, 34.824645], [137.5355705, 34.8247532], [137.5355891, 34.8249825], [137.5356717, 34.8255494], [137.5356652, 34.8258005], [137.5356256, 34.8259978], [137.535573, 34.8261464], [137.5353618, 34.8266913], [137.5351322, 34.8272876], [137.5349272, 34.8278647], [137.5347825, 34.828407], [137.5347027, 34.8286243], [137.5346623, 34.8287239], [137.5345749, 34.8288769], [137.5344538, 34.8290413], [137.5341599, 34.8293906], [137.5339853, 34.8295784], [137.5337809, 34.8298046], [137.5336988, 34.8299261], [137.5336574, 34.8300162], [137.5336253, 34.8301158], [137.5336095, 34.8302182], [137.5335746, 34.8303103], [137.5335194, 34.8304167], [137.5334137, 34.8305684], [137.5332767, 34.8307223], [137.5329662, 34.8310345], [137.532493, 34.8315072], [137.5321476, 34.8318382], [137.5320563, 34.8319633], [137.5320102, 34.8320654], [137.5319855, 34.8321955], [137.5319503, 34.8322798], [137.5318915, 34.8323587], [137.5315996, 34.8326302], [137.531544, 34.8327206], [137.5315292, 34.8327939], [137.5315389, 34.8328775], [137.5315721, 34.8329442], [137.5317083, 34.8331137], [137.5317866, 34.8332246], [137.5318186, 34.833317], [137.5318191, 34.8333953], [137.5317914, 34.8335193], [137.5317847, 34.8336066], [137.5318008, 34.8336773], [137.5318369, 34.8337448], [137.5318953, 34.8338055], [137.5320055, 34.8338925], [137.532051, 34.8339527], [137.5320945, 34.8340516], [137.5321025, 34.8341479], [137.5320797, 34.8342712], [137.5320623, 34.8343749], [137.5320529, 34.8344963], [137.5320715, 34.8346296], [137.5321354, 34.8348304], [137.532153, 34.834925], [137.5321471, 34.835023], [137.5321143, 34.8350932], [137.5320549, 34.8351757], [137.5319626, 34.8352463], [137.5318132, 34.8353509], [137.5313958, 34.8356268], [137.5312547, 34.8356951], [137.5311409, 34.835718], [137.5307929, 34.8357304], [137.5306821, 34.835744], [137.530558, 34.8358047], [137.5304931, 34.8358935], [137.5304763, 34.835992], [137.5304797, 34.8360642], [137.5304961, 34.8361278], [137.5307345, 34.8365206], [137.5308808, 34.836737], [137.5313355, 34.837449], [137.531548, 34.8377815], [137.5316794, 34.8379849], [137.5317704, 34.8381042], [137.5317888, 34.8381607], [137.5317793, 34.838218], [137.5317331, 34.8382692], [137.5316564, 34.8382897], [137.5315485, 34.8382741], [137.5312782, 34.8381312], [137.5309036, 34.8379367], [137.5305238, 34.8377467], [137.5302437, 34.8375823], [137.5301533, 34.8375443], [137.5300376, 34.8375405], [137.5299477, 34.8375583], [137.5298213, 34.8376373], [137.5297247, 34.8377168], [137.5296228, 34.8378085], [137.5295671, 34.8378825], [137.5295557, 34.8379719], [137.5295694, 34.8380564], [137.5295987, 34.8381321], [137.5296521, 34.8382392], [137.5296758, 34.8383401], [137.5296721, 34.8384609], [137.5296447, 34.8385753], [137.5295772, 34.8387789], [137.529494, 34.8389917], [137.5294532, 34.8390784], [137.5293452, 34.8391684], [137.529244, 34.839205], [137.5291166, 34.8392086], [137.5290254, 34.8391827], [137.5289156, 34.839111], [137.5286722, 34.8388138], [137.5285975, 34.8387486], [137.5285173, 34.8387221], [137.5284403, 34.8387265], [137.5283434, 34.8387529], [137.5282546, 34.8388083], [137.5281141, 34.8388794], [137.5279792, 34.8389147], [137.5278385, 34.8389411], [137.5276581, 34.8389444], [137.5275045, 34.8389525], [137.527347, 34.8389797], [137.5271812, 34.8390269], [137.5265924, 34.8392304], [137.5264605, 34.8392559], [137.5263044, 34.8392611], [137.5260667, 34.8392506], [137.5248071, 34.8390967], [137.5246118, 34.8390765], [137.5243735, 34.8390732], [137.5240539, 34.8391042], [137.5231543, 34.8392642], [137.5230219, 34.839308], [137.5229032, 34.8393646], [137.5227884, 34.8394408], [137.5224806, 34.8397023], [137.5223988, 34.8397787], [137.5221225, 34.8399981], [137.5217827, 34.8403171], [137.52154, 34.840606], [137.5214032, 34.8407258], [137.5212383, 34.8408371], [137.521003, 34.8409649], [137.5206998, 34.8411464], [137.5205789, 34.8412396], [137.5205194, 34.841322], [137.5204941, 34.8414074], [137.5205064, 34.8418453], [137.5203967, 34.8420366], [137.5202365, 34.8421408], [137.5200338, 34.8422018], [137.5198426, 34.8421912], [137.519402, 34.842095], [137.5191378, 34.8419958], [137.5188089, 34.8418126], [137.5183491, 34.8415607], [137.5182077, 34.8415471], [137.5181632, 34.8415547], [137.518093, 34.8415667], [137.5179964, 34.8416306], [137.5177695, 34.8419489], [137.5174644, 34.8423793], [137.5173551, 34.8424964], [137.5170543, 34.842762], [137.5169094, 34.8429412], [137.5165879, 34.8435368], [137.5165564, 34.8435951], [137.5164533, 34.8437492], [137.5157853, 34.8444913], [137.5157142, 34.8445541], [137.5156058, 34.8446053], [137.5154534, 34.8446306], [137.5152901, 34.844639], [137.5147284, 34.8446582], [137.5145672, 34.8446959], [137.5144856, 34.8447804], [137.5144529, 34.8448818], [137.5144825, 34.8450333], [137.5145784, 34.8451305], [137.5147825, 34.8451799], [137.5150834, 34.845174], [137.5153069, 34.8451531], [137.5155232, 34.8451003], [137.5160196, 34.8447927], [137.5162272, 34.8446641], [137.5164588, 34.8444983], [137.5169385, 34.8440639], [137.5171078, 34.8439802], [137.5172598, 34.843986], [137.5174027, 34.8440614], [137.5174289, 34.8440909], [137.5174853, 34.8441543], [137.5175169, 34.8442782], [137.5174639, 34.8443754], [137.5173782, 34.8444708], [137.5173122, 34.8445008], [137.5169619, 34.8446601], [137.5168242, 34.844774], [137.5164962, 34.8451107], [137.5162896, 34.8452861], [137.5157219, 34.8456623], [137.5150876, 34.8460716], [137.5147158, 34.8463393], [137.5145535, 34.8464808], [137.5144405, 34.8465803], [137.5142521, 34.8467034], [137.5140262, 34.8468269], [137.5129969, 34.8473253], [137.5126258, 34.847512], [137.5121999, 34.8476722], [137.5117388, 34.8478308], [137.5114717, 34.8479459], [137.5113315, 34.8480321], [137.5112156, 34.8481226], [137.5110183, 34.8482932], [137.5108541, 34.8484594], [137.5107629, 34.8485901], [137.5107027, 34.8487206], [137.5106733, 34.8488516], [137.5106647, 34.8489573], [137.5106737, 34.84906], [137.510702, 34.8491774], [137.5108528, 34.849743], [137.5109685, 34.8501416], [137.5111465, 34.8506404], [137.5113346, 34.8512547], [137.5113483, 34.8513729], [137.5113444, 34.8515032], [137.5113228, 34.8516249], [137.5112716, 34.8517578], [137.5112026, 34.8518697], [137.5110459, 34.8520395], [137.5104083, 34.8525229], [137.509982, 34.852892], [137.509732, 34.853096], [137.5094247, 34.8533454], [137.5091298, 34.8535905], [137.5089779, 34.8537671], [137.5088209, 34.8539818], [137.5087597, 34.8541119], [137.508707, 34.8542233], [137.5086336, 34.8544284], [137.5086057, 34.8545557], [137.5085417, 34.8549769], [137.5084708, 34.8554172], [137.5084274, 34.8556518], [137.5083755, 34.8558557], [137.508312, 34.8560913], [137.5082619, 34.856245], [137.5081855, 34.8565964], [137.5081167, 34.8568976], [137.5079311, 34.8578296], [137.5079097, 34.8579895], [137.507902, 34.8580842], [137.5079132, 34.8582704], [137.5079459, 34.8585912], [137.5079636, 34.8588], [137.507962, 34.8588949], [137.5079399, 34.8590643], [137.5078613, 34.859481], [137.5078309, 34.859655], [137.5077766, 34.8599695], [137.5076937, 34.8603138], [137.5075639, 34.8609231], [137.5072876, 34.8621161], [137.5071676, 34.8625919], [137.5070514, 34.8629126], [137.5069562, 34.8632449], [137.5068908, 34.8634126], [137.5067776, 34.8636779], [137.5066338, 34.8638678], [137.5064414, 34.8640358], [137.5062588, 34.8641659], [137.5061229, 34.8642329], [137.5058272, 34.8643716], [137.5047646, 34.8648564], [137.5041804, 34.8651272], [137.5040028, 34.8652196], [137.5037585, 34.8653693], [137.5034643, 34.8655919], [137.5031104, 34.8658631], [137.5026969, 34.8661994], [137.5021769, 34.8666246], [137.5012459, 34.8673455], [137.5007011, 34.8677905], [137.5003207, 34.8680675], [137.5000127, 34.8682332], [137.4995038, 34.8684558], [137.498951, 34.8687101], [137.4980097, 34.8690557], [137.4977394, 34.86915], [137.4967257, 34.8695037], [137.4965499, 34.8695574], [137.495751, 34.8698642], [137.4953201, 34.8700217], [137.4951451, 34.870093], [137.4948856, 34.8702353], [137.4946857, 34.8703642], [137.4945539, 34.8704937], [137.4940549, 34.8709884], [137.4937159, 34.8713209], [137.4934577, 34.8715291], [137.4928953, 34.8719208], [137.4925058, 34.8721385], [137.4920518, 34.8723526], [137.4914313, 34.8726004], [137.4910852, 34.8727207], [137.4901555, 34.8730733], [137.4896379, 34.8732645], [137.489164, 34.8734461], [137.4890331, 34.8735099], [137.4888962, 34.8736018], [137.4887969, 34.8736741], [137.4880257, 34.8745969], [137.4872876, 34.8754411], [137.4871368, 34.8756721], [137.4870718, 34.8758272], [137.487032, 34.8759618], [137.4870087, 34.8761249], [137.4869959, 34.8762692], [137.4869752, 34.8768277], [137.4869589, 34.8770725], [137.486954, 34.8770894], [137.4869125, 34.8772323], [137.4868463, 34.8773849], [137.4867656, 34.8775785], [137.4866618, 34.8777877], [137.4865333, 34.8780643], [137.4864221, 34.8782703], [137.4862071, 34.8786641], [137.4861099, 34.8788421], [137.4859405, 34.8791091], [137.4857141, 34.8794546], [137.4854878, 34.8797284], [137.4852799, 34.8799113], [137.485119, 34.8800414], [137.4850224, 34.8800975], [137.4848789, 34.8801843], [137.4849808, 34.8803401], [137.4852379, 34.8806571], [137.4858402, 34.8813034], [137.4864115, 34.8819497], [137.4867105, 34.8822179], [137.4869093, 34.882336], [137.4872508, 34.8824915], [137.487483, 34.8825994], [137.4876074, 34.8826586], [137.4876747, 34.8826992], [137.4878159, 34.8828105], [137.4881982, 34.883108], [137.4884504, 34.8832721], [137.4890238, 34.8835807], [137.4901137, 34.8841639], [137.4905084, 34.8843825], [137.4910998, 34.8846977], [137.4928136, 34.8856327], [137.4931968, 34.8858539], [137.4937335, 34.8862148], [137.4939809, 34.8863936], [137.4948709, 34.8870124], [137.4952612, 34.8872491], [137.4956963, 34.8874739], [137.4960016, 34.8876397], [137.4961797, 34.8877615], [137.4963326, 34.8879037], [137.4964673, 34.8880782], [137.4966077, 34.8883455], [137.4967698, 34.8886426], [137.4968842, 34.8888725], [137.4969681, 34.8889556], [137.4964112, 34.8895753], [137.4956946, 34.8903711], [137.4951102, 34.8910298], [137.4950409, 34.8911078], [137.4937887, 34.8924932], [137.4930183, 34.8933869], [137.4928026, 34.8937567], [137.4926923, 34.8939892], [137.4926274, 34.8941459], [137.4925596, 34.8943181], [137.4925134, 34.8944802], [137.4924514, 34.894786], [137.4924203, 34.8949425], [137.4922071, 34.8959936], [137.4919888, 34.8970136], [137.4918205, 34.8978793], [137.4917373, 34.8982682], [137.4916937, 34.8984246], [137.4915267, 34.898386], [137.4909738, 34.8982612], [137.4903128, 34.8981031], [137.4900915, 34.8980412], [137.4900405, 34.8980278], [137.4899936, 34.8979885], [137.4899283, 34.8979023], [137.4897998, 34.8977342], [137.4897304, 34.8976722], [137.4896519, 34.8976304], [137.4895029, 34.8975752], [137.4891735, 34.8974907], [137.4884642, 34.8973169], [137.4874149, 34.8970565], [137.4864563, 34.8968031], [137.4864088, 34.8967905], [137.4862588, 34.8967552], [137.4857869, 34.8966396], [137.4854587, 34.8965431], [137.4853501, 34.8965109], [137.4852712, 34.8964875], [137.4851363, 34.8964284], [137.4848911, 34.8962935], [137.4846112, 34.896132], [137.48394, 34.8971723], [137.4837615, 34.8974844], [137.4836176, 34.897718], [137.4832653, 34.8982665], [137.4832105, 34.8983759], [137.4831491, 34.8985564], [137.4831102, 34.8987433], [137.4830561, 34.8992863], [137.4830398, 34.8994625], [137.4830107, 34.8997369], [137.4829818, 34.9000074], [137.4829342, 34.900363], [137.482899, 34.9006215], [137.4828181, 34.900788], [137.4827195, 34.9009912], [137.4825787, 34.9012313], [137.4823452, 34.901622], [137.4819239, 34.9023071], [137.4818025, 34.9025715], [137.4817158, 34.9028116], [137.4814771, 34.9035762], [137.4814467, 34.9036549], [137.4814251, 34.9037108], [137.481316, 34.9039836], [137.4812272, 34.9041475], [137.4810824, 34.9043558], [137.480909, 34.9045624], [137.4807458, 34.9047164], [137.4797982, 34.9055409], [137.479449, 34.9058379], [137.4792269, 34.9060355], [137.4788778, 34.9063088], [137.4786456, 34.9064549], [137.4783895, 34.9066004], [137.4781825, 34.906698], [137.4778565, 34.9068358], [137.4776408, 34.9069204], [137.4761738, 34.9074297], [137.4754244, 34.9076899], [137.4750767, 34.9077999], [137.4747861, 34.9078709], [137.4744766, 34.9079129], [137.4741355, 34.9079094], [137.4740201, 34.9078993], [137.4739068, 34.9078816], [137.4735549, 34.9078094], [137.4727694, 34.9076], [137.4725761, 34.9075545], [137.4724571, 34.9075332], [137.4723352, 34.9075178], [137.4722126, 34.9075042], [137.4719234, 34.9074924], [137.4717784, 34.9074971], [137.4715959, 34.9075113], [137.4714755, 34.9075261], [137.4713442, 34.9075468], [137.4710723, 34.9076077], [137.4709367, 34.9076473], [137.4706366, 34.9077325], [137.4701698, 34.9078673], [137.4696918, 34.9080277], [137.4694992, 34.9080963], [137.4692518, 34.9082092], [137.4690217, 34.9083341], [137.468876, 34.9084352], [137.4687433, 34.9085582], [137.4685464, 34.9087505], [137.4684159, 34.9089545], [137.4683228, 34.909119], [137.4682908, 34.9092007], [137.4682045, 34.9094206], [137.4680855, 34.9098293], [137.4680422, 34.9099683], [137.4679752, 34.9100943], [137.4678987, 34.9102191], [137.4678266, 34.910306], [137.4677148, 34.9104196], [137.4675857, 34.9105172], [137.4673641, 34.9106739], [137.4673325, 34.9106963], [137.4671695, 34.9108094], [137.4670137, 34.9109383], [137.4669469, 34.9110168], [137.4669286, 34.9110383], [137.4668788, 34.9111075], [137.4667995, 34.9112358], [137.4666196, 34.9117476], [137.4665817, 34.9118202], [137.4665449, 34.9119036], [137.466467, 34.9119935], [137.4663934, 34.9120591], [137.4662744, 34.9121301], [137.4661136, 34.9121828], [137.4659542, 34.9122117], [137.4658446, 34.9122218], [137.4656664, 34.9122283], [137.4655452, 34.9122271], [137.4654515, 34.9122183], [137.465362, 34.9121964], [137.4652582, 34.9121621], [137.4651694, 34.9121112], [137.4650916, 34.9120455], [137.4649646, 34.9119095], [137.4647114, 34.9115895], [137.4646054, 34.9114902], [137.464498, 34.9114446], [137.4643811, 34.911418], [137.4642498, 34.9114227], [137.464133, 34.9114618], [137.4640652, 34.911505], [137.4638503, 34.911751], [137.4636108, 34.9120733], [137.4635538, 34.9121354], [137.4635077, 34.9121686], [137.4634168, 34.9122094], [137.4633309, 34.9122242], [137.4632675, 34.9122177], [137.4632134, 34.9121934], [137.4631614, 34.9121597], [137.4631131, 34.9120958], [137.4630388, 34.9118397], [137.4629842, 34.9116979], [137.4629628, 34.9116611], [137.4629189, 34.9116097], [137.4628649, 34.9115758], [137.4627935, 34.9115432], [137.4627221, 34.9115273], [137.4626257, 34.9115298], [137.4625232, 34.9115536], [137.4624115, 34.9116076], [137.4622309, 34.9117193], [137.4619698, 34.9119033], [137.4618537, 34.9119703], [137.4616786, 34.912035], [137.4615623, 34.9120626], [137.4614446, 34.9120738], [137.4613616, 34.9120765], [137.4612276, 34.9120639], [137.4608973, 34.9120427], [137.4607143, 34.9120604], [137.4605593, 34.9121091], [137.460365, 34.9122105], [137.4599449, 34.9124928], [137.45982, 34.912579], [137.4596702, 34.9126652], [137.4596084, 34.9126987], [137.4594981, 34.9127493], [137.4592826, 34.9127934], [137.459071, 34.9127956], [137.4588568, 34.9127568], [137.4585953, 34.9126738], [137.4583719, 34.9125919], [137.4582378, 34.9125025], [137.4581222, 34.9123624], [137.4579776, 34.9121598], [137.4578502, 34.9119798], [137.4577135, 34.9118473], [137.4576031, 34.9117697], [137.4574546, 34.9116891], [137.4572004, 34.9116046], [137.4565127, 34.9115513], [137.4562879, 34.9115178], [137.45605, 34.9114248], [137.4559087, 34.9112937], [137.4558623, 34.9111688], [137.4558549, 34.9109813], [137.455998, 34.9107527], [137.4562377, 34.910483], [137.4564347, 34.910329], [137.456706, 34.91023], [137.4570461, 34.9102041], [137.4574829, 34.9102361], [137.4575832, 34.9102429], [137.4577328, 34.9102307], [137.4578573, 34.9101934], [137.4580014, 34.9101317], [137.4580367, 34.9100928], [137.4580581, 34.9100334], [137.4580441, 34.909977], [137.4580227, 34.9099336], [137.4579493, 34.9098985], [137.4578787, 34.909883], [137.4578034, 34.9099084], [137.4576241, 34.9099877], [137.4574596, 34.9100364], [137.4573398, 34.9100395], [137.4572514, 34.9100318], [137.4571641, 34.9100242], [137.4567181, 34.9099252], [137.4563065, 34.9098307], [137.4560491, 34.9097933], [137.4558716, 34.9097903], [137.4556774, 34.9098116], [137.4555278, 34.9098574], [137.4553586, 34.9099267], [137.4551663, 34.9100319], [137.4548745, 34.9102102], [137.4544043, 34.9104974], [137.4540856, 34.9106963], [137.4539462, 34.9107657], [137.4533218, 34.9110476], [137.4527271, 34.9113029], [137.4523899, 34.9114375], [137.4522727, 34.9114728], [137.4521418, 34.9115015], [137.4519645, 34.9115338], [137.4518242, 34.9115548], [137.4517109, 34.9115815], [137.4516477, 34.9116238], [137.4516112, 34.9116826], [137.4516135, 34.9117434], [137.4516374, 34.9117984], [137.4517021, 34.911839], [137.4517739, 34.9118532], [137.4518625, 34.9118355], [137.4519677, 34.911777], [137.4521289, 34.9116677], [137.4522186, 34.9116164], [137.4523028, 34.9115999], [137.452386, 34.9116027], [137.4524667, 34.9116395], [137.4525418, 34.9117133], [137.4526085, 34.9118438], [137.4526723, 34.9119337], [137.4527539, 34.9120023], [137.4528662, 34.9120515], [137.4530176, 34.9120877], [137.4532097, 34.9121057], [137.4535421, 34.9121217], [137.4537968, 34.9121291], [137.453941, 34.9121448], [137.454041, 34.9121639], [137.4540899, 34.9121973], [137.4541184, 34.9122413], [137.4541252, 34.9123016], [137.4540969, 34.9123636], [137.4540319, 34.9124147], [137.453923, 34.9124281], [137.4537998, 34.912405], [137.4535617, 34.9123313], [137.4533033, 34.9122812], [137.4529454, 34.9122284], [137.4523869, 34.9121529], [137.4522082, 34.9121432], [137.4520492, 34.9121626], [137.4516497, 34.9122833], [137.4514749, 34.9123232], [137.4511504, 34.912334], [137.450262, 34.9122219], [137.4499374, 34.9121906], [137.4495235, 34.9122122], [137.4492633, 34.9122618], [137.4489597, 34.9123512], [137.4480915, 34.9127413], [137.4478787, 34.912806], [137.4477783, 34.912806], [137.4476761, 34.9127634], [137.447612, 34.9127001], [137.447585, 34.9125957], [137.4476018, 34.9124624], [137.4476659, 34.9122566], [137.4477356, 34.9121237], [137.447867, 34.9119265], [137.4479689, 34.911802], [137.4480845, 34.9116846], [137.4481483, 34.9115989], [137.4481699, 34.9115299], [137.4481529, 34.9114755], [137.4481154, 34.911427], [137.4480727, 34.9114012], [137.4480267, 34.9113941], [137.4479755, 34.9113963], [137.4479341, 34.9114055], [137.4478795, 34.9114367], [137.4478421, 34.9114922], [137.4477133, 34.911725], [137.4476502, 34.9118069], [137.4474899, 34.9119621], [137.4473269, 34.9121474], [137.4472139, 34.9122832], [137.4471272, 34.9124233], [137.4470803, 34.9124812], [137.4469726, 34.9125496], [137.4468996, 34.9125884], [137.4468017, 34.9126191], [137.4466191, 34.9126541], [137.4465087, 34.9126767], [137.44642, 34.9126913], [137.4463103, 34.9127123], [137.4462362, 34.912725], [137.4461219, 34.9127541], [137.4460391, 34.9127563], [137.4459576, 34.9127476], [137.4458853, 34.9127185], [137.4458407, 34.9126701], [137.4458236, 34.9126054], [137.445838, 34.9125504], [137.4458985, 34.9124966], [137.445976, 34.9124675], [137.4460719, 34.912475], [137.446169, 34.9125011], [137.4462721, 34.91252], [137.4464121, 34.9125426], [137.446489, 34.9125383], [137.4465626, 34.9125253], [137.4466164, 34.9125022], [137.4466565, 34.9124677], [137.4466979, 34.912424], [137.4467235, 34.9123739], [137.4467406, 34.9123292], [137.4467577, 34.9122161], [137.4467741, 34.9121061], [137.4467886, 34.9120415], [137.4468122, 34.9119774], [137.4468379, 34.9119283], [137.4468806, 34.9118642], [137.4469239, 34.9118238], [137.4470402, 34.9117543], [137.447129, 34.9117096], [137.4472492, 34.91166], [137.4473754, 34.9116029], [137.4474227, 34.9115646], [137.4474529, 34.9115285], [137.4474739, 34.9114914], [137.4474765, 34.9114262], [137.447468, 34.9113804], [137.4474332, 34.9113281], [137.4473878, 34.9112812], [137.447353, 34.9112543], [137.4472873, 34.9112494], [137.4472506, 34.9112489], [137.4471282, 34.9112895], [137.4469907, 34.9113886], [137.4468699, 34.9115516], [137.4465733, 34.9118501], [137.446463, 34.911946], [137.4463381, 34.9120268], [137.4461463, 34.9121066], [137.4459242, 34.9121659], [137.4457047, 34.9122133], [137.4453486, 34.912321], [137.445024, 34.9124137], [137.4447691, 34.9125118], [137.4445627, 34.912612], [137.444271, 34.9127682], [137.4440384, 34.9128825], [137.4439175, 34.912946], [137.4438032, 34.9130204], [137.4437506, 34.9131034], [137.4437388, 34.9131907], [137.4437808, 34.9132586], [137.4438584, 34.9133167], [137.4439819, 34.9133609], [137.444434, 34.9134407], [137.4451252, 34.9135549], [137.445455, 34.9136508], [137.4456824, 34.913751], [137.4459321, 34.9138976], [137.4460372, 34.9139946], [137.4461055, 34.9141142], [137.4461436, 34.9142209], [137.446141, 34.9143674], [137.446095, 34.9144698], [137.4459557, 34.9147306], [137.4459189, 34.9148135], [137.445911, 34.9148933], [137.4459189, 34.9150183], [137.4459754, 34.9151411], [137.4461292, 34.9153286], [137.4463174, 34.9156579], [137.4463252, 34.9158863], [137.4463095, 34.9163637], [137.446341, 34.9165674], [137.446387, 34.9167505], [137.4464894, 34.9171479], [137.4465871, 34.9178204], [137.4466494, 34.9182026], [137.4467741, 34.9186289], [137.4469833, 34.9193041], [137.4469887, 34.9194243], [137.446964, 34.9195473], [137.4468423, 34.9199208], [137.4467432, 34.9201915], [137.4466199, 34.9206512], [137.4465837, 34.9208758], [137.4465796, 34.9211415], [137.4465736, 34.9214608], [137.4465551, 34.9215876], [137.4465153, 34.9217005], [137.446429, 34.9218364], [137.4462484, 34.9220865], [137.4461505, 34.9222338], [137.446125, 34.9223295], [137.4461101, 34.9224517], [137.4460942, 34.9227507], [137.446062, 34.922909], [137.4460338, 34.9230033], [137.4459636, 34.9232318], [137.4459104, 34.9233972], [137.4458977, 34.9234934], [137.445892, 34.9236367], [137.4459104, 34.9237942], [137.4459526, 34.9239433], [137.4460197, 34.9240949], [137.4461411, 34.924273], [137.4462309, 34.9243737], [137.4463368, 34.9244691], [137.4464387, 34.9245398], [137.4466038, 34.9246815], [137.4467097, 34.9248036], [137.4468138, 34.9249601], [137.4470115, 34.925294], [137.4470866, 34.9254512], [137.4471222, 34.9256106], [137.4471201, 34.925791], [137.4470885, 34.9259578], [137.4469833, 34.926155], [137.4468704, 34.926297], [137.4466476, 34.9265166], [137.4465629, 34.9266388], [137.4465401, 34.9267449], [137.4465562, 34.9269065], [137.4465904, 34.9271017], [137.446583, 34.9272087], [137.4465166, 34.9273139], [137.4463651, 34.9274304], [137.4461511, 34.9275494], [137.4458554, 34.9276613], [137.4456382, 34.9277427], [137.4455351, 34.9278046], [137.4454316, 34.9279208], [137.4453064, 34.9281898], [137.4452251, 34.9283222], [137.445095, 34.9284464], [137.4449718, 34.9285084], [137.4447758, 34.9285674], [137.4445138, 34.9286355], [137.4442931, 34.9287257], [137.4441804, 34.9288126], [137.4441348, 34.9289079], [137.4441066, 34.9290149], [137.4441102, 34.9291938], [137.4441216, 34.9295048], [137.4440919, 34.9296735], [137.4440329, 34.9297603], [137.4439216, 34.9298351], [137.4437924, 34.9298774], [137.443656, 34.9298769], [137.4434986, 34.9298342], [137.4432531, 34.9297182], [137.442073, 34.9291084], [137.4418294, 34.9289984], [137.4416504, 34.9289511], [137.441443, 34.9289227], [137.4411636, 34.9288945], [137.4409919, 34.9288587], [137.4408285, 34.9288045], [137.4401648, 34.9285168], [137.4399318, 34.9283969], [137.4397572, 34.9282584], [137.4392594, 34.9276902], [137.4389045, 34.9272908], [137.438706, 34.9271182], [137.4384745, 34.9269539], [137.4380261, 34.9266784], [137.4377907, 34.9265232], [137.4375473, 34.9264079], [137.4373233, 34.9263265], [137.437044, 34.926292], [137.4359873, 34.9262443], [137.4354002, 34.9262088], [137.4351038, 34.9261506], [137.4349301, 34.9261106], [137.434236, 34.9258595], [137.433469, 34.9255557], [137.4329326, 34.9253369], [137.432705, 34.925274], [137.4324699, 34.9252247], [137.4321131, 34.9251808], [137.4319066, 34.925128], [137.431661, 34.9250259], [137.4314801, 34.9249421], [137.4312562, 34.9248591], [137.4311103, 34.9248222], [137.4309624, 34.9248078], [137.4307948, 34.9248047], [137.4306481, 34.9248227], [137.4305668, 34.924841], [137.4304542, 34.9249026], [137.4298171, 34.9252773], [137.4292308, 34.9256214], [137.4290655, 34.9257201], [137.4289025, 34.9258273], [137.4288441, 34.9259132], [137.4288282, 34.9260393], [137.428873, 34.9261462], [137.4289732, 34.9262277], [137.4291252, 34.9262935], [137.4294716, 34.9263655], [137.4297501, 34.926442], [137.4300103, 34.9265531], [137.4303254, 34.9267542], [137.4304921, 34.9268839], [137.4305695, 34.9270148], [137.4305781, 34.9271281], [137.4305421, 34.9272397], [137.4304073, 34.9273436], [137.430236, 34.9273851], [137.4300303, 34.927364], [137.4298797, 34.9272998], [137.4295411, 34.9271202], [137.429333, 34.9270555], [137.4291418, 34.9270468], [137.4288958, 34.9270877], [137.4284572, 34.9272007], [137.4281837, 34.9272468], [137.4279651, 34.9272558], [137.4275912, 34.9272154], [137.4262057, 34.9270032], [137.4254447, 34.926889], [137.4251904, 34.9268807], [137.4249813, 34.9269428], [137.4248474, 34.927045], [137.4247762, 34.9271741], [137.4247693, 34.9273227], [137.4248095, 34.9274645], [137.424905, 34.9275762], [137.4250522, 34.9276548], [137.4252182, 34.9276883], [137.4254331, 34.9276833], [137.425639, 34.9276397], [137.4264227, 34.9274944], [137.4266455, 34.9274942], [137.426805, 34.9275426], [137.426944, 34.9276378], [137.427029, 34.9277757], [137.4270553, 34.9279021], [137.4270208, 34.9280711], [137.426861, 34.9284975], [137.4266615, 34.9290259], [137.4265878, 34.9291952], [137.4264793, 34.9293541], [137.426278, 34.9295525], [137.4260393, 34.9297922], [137.4259343, 34.9299417], [137.4258649, 34.9301111], [137.4258056, 34.9303274], [137.4257552, 34.9305786], [137.4256477, 34.9309962], [137.4255417, 34.9312348], [137.4254549, 34.931414], [137.4251759, 34.9318331], [137.4249074, 34.9322485], [137.4248355, 34.9324231], [137.4247957, 34.9325295], [137.4247438, 34.9327883], [137.4247666, 34.9331105], [137.4247974, 34.933404], [137.4247867, 34.933625], [137.4247627, 34.9338296], [137.4246828, 34.9342244], [137.4245185, 34.9349719], [137.4244232, 34.9353237], [137.4243124, 34.9356323], [137.4242013, 34.9359091], [137.4241349, 34.9360746], [137.424037, 34.936389], [137.4239607, 34.9367312], [137.4238426, 34.9372833], [137.4238171, 34.9376676], [137.4238412, 34.9381624], [137.4238171, 34.9383976], [137.4237763, 34.9385482], [137.4237074, 34.9387218], [137.4235478, 34.9389466], [137.4228855, 34.939626], [137.4227514, 34.9397956], [137.4226806, 34.9399642], [137.4226713, 34.9400227], [137.4226815, 34.9402096], [137.4226918, 34.9402489], [137.4227884, 34.9407778], [137.4228099, 34.940957], [137.4227938, 34.9411571], [137.4227609, 34.9413447], [137.4225812, 34.9421499], [137.4225135, 34.9423125], [137.4224123, 34.9424324], [137.4222769, 34.9425165], [137.4221014, 34.9425747], [137.4218945, 34.942601], [137.4216397, 34.9426478], [137.42146, 34.9427137], [137.4212445, 34.9428436], [137.421133, 34.9429535], [137.4210732, 34.9430676], [137.4210346, 34.9432037], [137.4210353, 34.9433767], [137.42108, 34.9435324], [137.4211991, 34.9437168], [137.4215139, 34.9441381], [137.4215988, 34.9442588], [137.4216553, 34.9443852], [137.4216891, 34.9445075], [137.4217129, 34.9446453], [137.4217337, 34.9448849], [137.421754, 34.9450144], [137.4217943, 34.945119], [137.4218414, 34.9451949], [137.4218942, 34.9452749], [137.4219716, 34.9453472], [137.4221067, 34.9454608], [137.4229821, 34.9461054], [137.4234651, 34.9464758], [137.423608, 34.9466038], [137.4236856, 34.9467323], [137.4237142, 34.9468419], [137.4237271, 34.9470006], [137.4237167, 34.9478426], [137.4236767, 34.9480413], [137.4236079, 34.948219], [137.4234512, 34.9484818], [137.4229749, 34.9490886], [137.4226421, 34.9494733], [137.4223593, 34.9498229], [137.4221675, 34.9500163], [137.4218829, 34.9502228], [137.4207497, 34.9508834], [137.4204925, 34.9510738], [137.4203405, 34.9512308], [137.4202162, 34.9513838], [137.4201072, 34.9515623], [137.4200129, 34.9517647], [137.4198832, 34.9521673], [137.4198147, 34.9524157], [137.4195792, 34.9531502], [137.4195282, 34.953403], [137.4195034, 34.9536349], [137.4195021, 34.9538833], [137.419547, 34.954245], [137.4196613, 34.954827], [137.4197596, 34.9553656], [137.419771, 34.9553997], [137.4198106, 34.9556365], [137.4199705, 34.9565205], [137.4199898, 34.9567584], [137.4199994, 34.9569629], [137.4199545, 34.957197], [137.4198725, 34.9575432], [137.4197003, 34.9580613], [137.4192575, 34.9591788], [137.4191869, 34.9594955], [137.4191481, 34.9598099], [137.4191595, 34.9600695], [137.4192746, 34.9606482], [137.4193668, 34.9611231], [137.4194659, 34.9615195], [137.4195901, 34.9619011], [137.4197015, 34.9621909], [137.41974, 34.9622832], [137.4197616, 34.9623345], [137.4199156, 34.9626717], [137.4202664, 34.9632469], [137.4203656, 34.9633943], [137.4206173, 34.9637963], [137.4209475, 34.9642738], [137.4212979, 34.9647725], [137.4216073, 34.9651604], [137.4218709, 34.9655904], [137.4225244, 34.9664918], [137.422571, 34.9665597], [137.4226582, 34.9666684], [137.4227789, 34.9668189], [137.4229939, 34.9670027], [137.4233974, 34.9673218], [137.4236866, 34.9675258], [137.4240668, 34.9678546], [137.4241198, 34.9679421], [137.424456, 34.9683147], [137.4247247, 34.9686819], [137.4248396, 34.9689115], [137.425132, 34.9693859], [137.4253955, 34.9698135], [137.425467, 34.9699126], [137.4256342, 34.97014], [137.4257735, 34.9703374], [137.4260004, 34.9707114], [137.4261055, 34.9709313], [137.4261595, 34.9712766], [137.4261738, 34.9716767], [137.4261015, 34.9719819], [137.4259614, 34.9726638], [137.4259158, 34.9729502], [137.4257525, 34.9735081], [137.4254578, 34.9743281], [137.4251741, 34.9749531], [137.4250507, 34.9752482], [137.4249152, 34.9755081], [137.4244185, 34.9765152], [137.4241521, 34.9770472], [137.4240252, 34.9773643], [137.4240224, 34.9773844], [137.4240168, 34.9774441], [137.4240014, 34.9776086], [137.423992, 34.9778429], [137.4239954, 34.9779202], [137.4240323, 34.9781226], [137.424034, 34.9781322], [137.4243995, 34.9790025], [137.4246362, 34.9796428], [137.4250371, 34.9804991], [137.4253903, 34.9813597], [137.4254611, 34.9816061], [137.4255558, 34.9818193], [137.4255794, 34.9818815], [137.4256193, 34.9819531], [137.4259319, 34.9827111], [137.4262495, 34.9833766], [137.42656, 34.983744], [137.4270855, 34.9844991], [137.4277905, 34.9853975], [137.4281073, 34.985689], [137.4284324, 34.9859261], [137.4287614, 34.9861363], [137.429078, 34.9863385], [137.4291726, 34.9863812], [137.4298937, 34.9867436], [137.4302598, 34.9870047], [137.430408, 34.9874149], [137.4304518, 34.9877159], [137.4304256, 34.9879365], [137.4302868, 34.9881817], [137.4298202, 34.9887673], [137.4296407, 34.9890585], [137.4293595, 34.9895696], [137.4293335, 34.9896169], [137.4290584, 34.9901042], [137.4290138, 34.9901832], [137.4289277, 34.9903358], [137.4288453, 34.9905661], [137.4288097, 34.9907196], [137.4288133, 34.9908051], [137.428817, 34.9909434], [137.4288267, 34.9910302], [137.4288741, 34.9912178], [137.4289218, 34.9913082], [137.4290277, 34.9914519], [137.4300625, 34.9927585], [137.4302816, 34.9930352], [137.4310732, 34.9940196], [137.4312957, 34.9942963], [137.4321035, 34.9952864], [137.4322368, 34.9954497], [137.4325535, 34.9958815], [137.4327691, 34.9961755], [137.4328274, 34.9962549], [137.4330612, 34.9966016], [137.4333733, 34.9970805], [137.4334369, 34.9971888], [137.4340116, 34.9979906], [137.4342138, 34.9982556], [137.434812, 34.9991042], [137.4349674, 34.9993049], [137.4353118, 34.9997884], [137.435937, 35.0006327], [137.4355099, 35.00081], [137.4350793, 35.0009464], [137.4340122, 35.0011629], [137.4316802, 35.0016323], [137.4315212, 35.0016602], [137.4313657, 35.0016706], [137.431205, 35.0016752], [137.4301823, 35.0016088], [137.429047, 35.00154], [137.4284785, 35.001503], [137.4277149, 35.0014517], [137.4269306, 35.0014028], [137.4263942, 35.0013478], [137.4261102, 35.0012937], [137.4256702, 35.001154], [137.425298, 35.0010099], [137.4251493, 35.0009358], [137.4237241, 35.000023], [137.4234125, 34.9998141], [137.4222914, 34.9990627], [137.420902, 34.9985026], [137.4196104, 34.9981558], [137.4192631, 34.9981469], [137.4171139, 34.9984492], [137.4159308, 34.9985648], [137.4154316, 34.9984492], [137.4142985, 34.9979642], [137.4136131, 34.9976761], [137.413172, 34.9976917], [137.4121516, 34.9979231], [137.4116378, 34.9980169], [137.4106829, 34.9982], [137.4101354, 34.9982282], [137.4098246, 34.9982176], [137.4085639, 34.9980521], [137.406877, 34.9976622], [137.4066674, 34.9975726], [137.4064675, 34.9974772], [137.4059379, 34.997198], [137.40422, 34.996065], [137.403985, 34.9959], [137.4028191, 34.9951175], [137.4025443, 34.9949787], [137.4023593, 34.9948945], [137.4021634, 34.9948103], [137.401746, 34.9946793], [137.4014909, 34.9946338], [137.4005505, 34.9944184], [137.4000995, 34.9942771], [137.3996074, 34.9940972], [137.3971677, 34.9930106], [137.3964729, 34.9927327], [137.3956209, 34.9923317], [137.3953681, 34.9922315], [137.3951107, 34.9921723], [137.3948305, 34.9921381], [137.3931697, 34.9921272], [137.3927962, 34.9921039], [137.3924955, 34.9920424], [137.3921698, 34.9919285], [137.3909123, 34.9914114], [137.390639, 34.9913362], [137.3903929, 34.9912839], [137.390051, 34.99126], [137.3884794, 34.9911426], [137.3882334, 34.9911153], [137.3880329, 34.9910697], [137.3878689, 34.991015], [137.3872595, 34.9907975], [137.3870238, 34.9907428], [137.3868096, 34.990736], [137.3865853, 34.9907349], [137.3863575, 34.9907542], [137.3852378, 34.9908385], [137.3850408, 34.990867], [137.3847549, 34.9909604], [137.3846125, 34.9910458], [137.3844804, 34.9911813], [137.383206, 34.9924401], [137.3831161, 34.992534], [137.3830862, 34.9925652], [137.3829928, 34.9926472], [137.382895, 34.9927482], [137.3824609, 34.9932657], [137.3822309, 34.9934844], [137.3815383, 34.9939856], [137.3809301, 34.9943751], [137.3797866, 34.9951683], [137.3789539, 34.9956179], [137.3781851, 34.9959892], [137.3778576, 34.9961459], [137.3775252, 34.9963133], [137.3772885, 34.9964805], [137.3770603, 34.9966164], [137.376613, 34.996876], [137.376409, 34.997003], [137.3761615, 34.9971617], [137.3760274, 34.9972353], [137.3751217, 34.9976136], [137.3748843, 34.9977443], [137.3747385, 34.9978855], [137.374677, 34.99807], [137.3746679, 34.9982409], [137.3746702, 34.9984482], [137.3746679, 34.9986441], [137.3746588, 34.9987716], [137.3746451, 34.9989334], [137.3746155, 34.9990792], [137.3745631, 34.9992546], [137.3745312, 34.9994049], [137.3745358, 34.9995621], [137.3745472, 34.9997056], [137.374579, 34.9998377], [137.3746428, 34.9999858], [137.3747097, 35.0001093], [137.3750039, 35.0005257], [137.3750472, 35.0006168], [137.3750719, 35.0007018], [137.3750779, 35.0007945], [137.3750643, 35.0009198], [137.3750415, 35.0009927], [137.3749914, 35.0010724], [137.3749276, 35.0011362], [137.3748592, 35.0011977], [137.3747658, 35.0012478], [137.37462, 35.0013184], [137.3743421, 35.001446], [137.3742123, 35.0015052], [137.3741075, 35.0015713], [137.3740004, 35.0016829], [137.3739435, 35.0017809], [137.3739207, 35.0019221], [137.3739275, 35.0020747], [137.3739777, 35.0021886], [137.3740824, 35.0023003], [137.3742624, 35.0024187], [137.374431, 35.0024962], [137.3746474, 35.0026215], [137.3749572, 35.0027354], [137.3751075, 35.0028174], [137.3752255, 35.0028952], [137.3752765, 35.0029468], [137.375318, 35.00301], [137.3753717, 35.0032022], [137.3753757, 35.0032544], [137.375373, 35.0033011], [137.3753529, 35.0033752], [137.3753066, 35.0035145], [137.3752728, 35.0035708], [137.3752128, 35.0036279], [137.3744433, 35.0041362], [137.3743538, 35.0042085], [137.3743149, 35.0042521], [137.3742723, 35.0043256], [137.3742365, 35.0044024], [137.374221, 35.0044771], [137.374215, 35.0045512], [137.3742311, 35.0046281], [137.3742673, 35.0047336], [137.3743377, 35.0048286], [137.3744054, 35.004906], [137.3744624, 35.0049428], [137.374856, 35.00514], [137.3749921, 35.0052147], [137.3750512, 35.0052619], [137.3751224, 35.0053463], [137.3753073, 35.0056195], [137.3754863, 35.0058304], [137.3756439, 35.0059869], [137.3759396, 35.0062297], [137.3760463, 35.0063489], [137.3761415, 35.0064813], [137.3761991, 35.0065301], [137.3762843, 35.0066257], [137.3763748, 35.0067784], [137.3764124, 35.0068734], [137.3764305, 35.0069794], [137.3764312, 35.0071305], [137.376405, 35.0072167], [137.3763567, 35.0073227], [137.3762763, 35.0074441], [137.3761958, 35.0075298], [137.3761012, 35.0076061], [137.3759832, 35.0076852], [137.3751095, 35.0080977], [137.3749533, 35.0081872], [137.3748399, 35.0082679], [137.374455, 35.0084228], [137.3742679, 35.0085228], [137.3741372, 35.0086266], [137.3740614, 35.0087101], [137.3739836, 35.0088155], [137.3731917, 35.010188], [137.3730378, 35.010358], [137.3729235, 35.0104714], [137.371622, 35.0117623], [137.3708013, 35.0125261], [137.3705758, 35.0127125], [137.3704645, 35.0128339], [137.3703984, 35.0129524], [137.3703857, 35.0130104], [137.3703693, 35.0130827], [137.3703861, 35.0131784], [137.3703982, 35.0132526], [137.3704384, 35.0133435], [137.3708512, 35.013916], [137.3712505, 35.0144289], [137.3713148, 35.0145498], [137.371341, 35.0146497], [137.371343, 35.0147123], [137.371341, 35.0147733], [137.3713229, 35.0148524], [137.3712924, 35.014921], [137.3712545, 35.014982], [137.3711995, 35.0150484], [137.371056, 35.0151555], [137.3709816, 35.0151912], [137.3709085, 35.0152209], [137.370818, 35.0152379], [137.3706959, 35.0152527], [137.370539, 35.0152582], [137.3703742, 35.0152559], [137.3697079, 35.0152275], [137.3680258, 35.0151556], [137.3669303, 35.0151089], [137.3663762, 35.0150852], [137.3660678, 35.0150589], [137.3659149, 35.0150391], [137.3649573, 35.0148458], [137.364736, 35.0148183], [137.3646576, 35.0148155], [137.3645483, 35.0148194], [137.3643874, 35.014837], [137.3642586, 35.0148644], [137.3635035, 35.0152059], [137.3629189, 35.0154702], [137.3626781, 35.0155707], [137.3624649, 35.0156421], [137.3623174, 35.0156816], [137.3621752, 35.0156882], [137.3620284, 35.0156858], [137.3619398, 35.0156783], [137.3618124, 35.0156608], [137.3614463, 35.0155498], [137.360272, 35.0152153], [137.3597304, 35.0150528], [137.3590645, 35.0148954], [137.3589082, 35.01486], [137.3588273, 35.0148451], [137.3585693, 35.0148291], [137.3583437, 35.0148274], [137.3581318, 35.0148393], [137.3579938, 35.0148575], [137.3577151, 35.0149048], [137.3571681, 35.0150194], [137.3569894, 35.0150383], [137.3567896, 35.0150501], [137.3565808, 35.0150282], [137.3564231, 35.0150002], [137.3562067, 35.0149418], [137.3554395, 35.0146755], [137.355288, 35.0146327], [137.3551297, 35.0146069], [137.3549406, 35.0145953], [137.3546992, 35.0146003], [137.3545396, 35.014614], [137.3543452, 35.0146376], [137.3541581, 35.0146706], [137.3540086, 35.0147057], [137.3538758, 35.0147563], [137.3537537, 35.0148106], [137.3532683, 35.0151116], [137.3531456, 35.0151632], [137.3530111, 35.0152102], [137.3528771, 35.01524], [137.3526523, 35.0152772], [137.3524716, 35.0152736], [137.3522235, 35.0152659], [137.3519647, 35.0152478], [137.3518089, 35.0152398], [137.351089, 35.0152027], [137.3504947, 35.0151568], [137.3492476, 35.0151006], [137.3491229, 35.0151094], [137.3489968, 35.0151237], [137.3488681, 35.0151478], [137.3486015, 35.0152327], [137.3479038, 35.0155191], [137.3475498, 35.0156575], [137.3470898, 35.0158057], [137.3467331, 35.0158903], [137.3463495, 35.0159529], [137.345345, 35.0160639], [137.343784, 35.0162132], [137.3431107, 35.0162681], [137.3427379, 35.0162835], [137.3411479, 35.0162181], [137.3409221, 35.0162132], [137.3407497, 35.0162083], [137.3406337, 35.0162198], [137.3404305, 35.0162577], [137.3402857, 35.0162994], [137.3395112, 35.016523], [137.3392537, 35.0166074], [137.3391545, 35.0166477], [137.339066, 35.0166872], [137.3389895, 35.0167371], [137.3388769, 35.0168382], [137.3387991, 35.0169458], [137.3387023, 35.0172004], [137.3386673, 35.0172924], [137.3384424, 35.0178838], [137.3383914, 35.0180002], [137.3383297, 35.0181221], [137.3382987, 35.0181819], [137.3382584, 35.0182595], [137.3381768, 35.0184165], [137.3379837, 35.0187317], [137.3378442, 35.0189887], [137.3378192, 35.0190737], [137.337804, 35.0191798], [137.3377986, 35.0193347], [137.3378094, 35.0194852], [137.3378724, 35.0197312], [137.3379502, 35.0200409], [137.3379649, 35.0201848], [137.3379542, 35.0203484], [137.3379341, 35.0204901], [137.3379079, 35.0205944], [137.3378724, 35.0206852], [137.3374337, 35.0215589], [137.3371133, 35.0221968], [137.336605, 35.0231831], [137.3358896, 35.0245872], [137.335745, 35.0248694], [137.3356549, 35.0250426], [137.334867, 35.0266562], [137.3348512, 35.0267114], [137.3348254, 35.0268621], [137.3348241, 35.0269269], [137.3348267, 35.0270093], [137.3348408, 35.0271109], [137.3348825, 35.027249], [137.3349173, 35.0273646], [137.3349226, 35.0273821], [137.3351305, 35.028035], [137.3352621, 35.0285099], [137.3353028, 35.0286478], [137.3353216, 35.0287477], [137.3353337, 35.0288521], [137.3352921, 35.0289915], [137.3352411, 35.029109], [137.3351419, 35.0292178], [137.3350427, 35.0293111], [137.3348871, 35.0293803], [137.3347074, 35.0294187], [137.3345987, 35.0294303], [137.3344499, 35.0294281], [137.334303, 35.0294132], [137.333895, 35.0293174], [137.3330913, 35.0291288], [137.3318428, 35.028851], [137.3317288, 35.0288411], [137.3316376, 35.0288422], [137.3315397, 35.0288576], [137.3314364, 35.0288828], [137.3313877, 35.0288987], [137.3313385, 35.0289147], [137.3312594, 35.028963], [137.3311722, 35.02903], [137.3311105, 35.0290992], [137.3309469, 35.0293539], [137.3305728, 35.0300139], [137.3304749, 35.0301523], [137.3303016, 35.0303636], [137.3301543, 35.030496], [137.3300497, 35.030574], [137.3299384, 35.0306366], [137.3298204, 35.0306739], [137.3296568, 35.0307168], [137.3294972, 35.0307321], [137.329351, 35.0307288], [137.329218, 35.03072], [137.3286282, 35.030652], [137.3281856, 35.0306146], [137.3276867, 35.0306015], [137.3273018, 35.0306245], [137.3270068, 35.030652], [137.3266299, 35.0307091], [137.3262195, 35.0307827], [137.3255369, 35.0308683], [137.3251694, 35.0309045], [137.324865, 35.0309133], [137.3244882, 35.0308969], [137.3238833, 35.030842], [137.3230478, 35.0307717], [137.3224242, 35.0307398], [137.321987, 35.030742], [137.3213366, 35.0307662], [137.3210254, 35.0307914], [137.3206405, 35.0308409], [137.3201792, 35.0309078], [137.3199901, 35.0309551], [137.3198372, 35.0310188], [137.3196615, 35.0311308], [137.3195381, 35.0312285], [137.3194657, 35.0313328], [137.3194215, 35.0315162], [137.3194027, 35.0316524], [137.3194094, 35.0317512], [137.3194416, 35.0318643], [137.3195019, 35.0319851], [137.319919, 35.0325594], [137.3202905, 35.0330778], [137.3203757, 35.0332321], [137.3204253, 35.0333803], [137.3204729, 35.0335538], [137.3204816, 35.03369], [137.3204695, 35.0338519], [137.3204152, 35.0340337], [137.3203676, 35.034149], [137.3202798, 35.0342923], [137.3201027, 35.0345218], [137.3194939, 35.0352163], [137.319231, 35.0354837], [137.3190178, 35.0356479], [137.3188086, 35.0357791], [137.3185658, 35.0358878], [137.3181126, 35.036058], [137.3175707, 35.0362612], [137.3174148, 35.0363145], [137.3172696, 35.0363641], [137.3169798, 35.0364711], [137.3169009, 35.0364901], [137.3161887, 35.0366609], [137.3146394, 35.0369937], [137.313703, 35.0372176], [137.3135152, 35.0372549], [137.3133717, 35.0372648], [137.313239, 35.0372692], [137.3130687, 35.0372461], [137.3129225, 35.0372055], [137.3127696, 35.0371528], [137.3126831, 35.0371056], [137.312606, 35.0370512], [137.3124249, 35.0368991], [137.3119917, 35.0365082], [137.3118845, 35.0363896], [137.3118415, 35.0363111], [137.311802, 35.0362194], [137.3117604, 35.0360871], [137.3116444, 35.0354277], [137.3115859, 35.0352668], [137.3115177, 35.0351351], [137.3113681, 35.0348836], [137.3112454, 35.0347189], [137.3111408, 35.0346321], [137.3110436, 35.0345734], [137.3109229, 35.0345295], [137.3107794, 35.034496], [137.3105568, 35.0344724], [137.3102912, 35.0344526], [137.3099171, 35.0343549], [137.309278, 35.034104], [137.3090467, 35.0339925], [137.3088918, 35.0339003], [137.3087845, 35.0338173], [137.3087027, 35.0337196], [137.3086249, 35.0336032], [137.3085786, 35.0335], [137.308234, 35.0326034], [137.3077448, 35.0313493], [137.30764, 35.0311762], [137.3074418, 35.0309006], [137.3072026, 35.030634], [137.307009, 35.0304154], [137.3068404, 35.0302399], [137.3066764, 35.0301215], [137.3064987, 35.0300144], [137.3063074, 35.0299005], [137.3060158, 35.0297798], [137.305772, 35.0297092], [137.3055556, 35.0296864], [137.3053916, 35.0296727], [137.3052299, 35.0296841], [137.3050431, 35.0296932], [137.3047606, 35.0297137], [137.304084, 35.0297752], [137.3032571, 35.0298481], [137.3021227, 35.0299415], [137.3017286, 35.0299734], [137.3013527, 35.0300099], [137.3001522, 35.0301192], [137.2995804, 35.0302012], [137.2988674, 35.0303037], [137.2984323, 35.0303675], [137.2983457, 35.0303835], [137.2982501, 35.0303789], [137.2981612, 35.0303744], [137.2980177, 35.0303447], [137.2979129, 35.030322], [137.29784, 35.0302901], [137.2977193, 35.0302399], [137.2975917, 35.0301579], [137.2972888, 35.0299666], [137.2971771, 35.029896], [137.2969015, 35.0297206], [137.2968013, 35.0296317], [137.2967238, 35.0295201], [137.2966701, 35.0294426], [137.2966464, 35.0294085], [137.2966122, 35.029306], [137.2965803, 35.0292103], [137.2965393, 35.0290554], [137.2964708, 35.0287293], [137.2964114, 35.0286148], [137.2963616, 35.0285384], [137.2962771, 35.0284476], [137.2962037, 35.0283744], [137.2961419, 35.02833], [137.2960287, 35.0282683], [137.2959459, 35.0282264], [137.2958387, 35.0281921], [137.2956797, 35.0281489], [137.2954664, 35.0281069], [137.2951188, 35.0280485], [137.2949245, 35.028013], [137.2946615, 35.0279848], [137.2944761, 35.0279709], [137.2942631, 35.02796], [137.2940024, 35.0279535], [137.2938112, 35.027955], [137.2935044, 35.0279636], [137.2931957, 35.0279956], [137.2929819, 35.028021], [137.292663, 35.028058], [137.2922037, 35.0280921], [137.2920027, 35.0281032], [137.2917558, 35.0281093], [137.2917042, 35.0281099], [137.2913851, 35.0281017], [137.2911263, 35.0280962], [137.2904719, 35.0280467], [137.2902984, 35.0280161], [137.2900898, 35.0279858], [137.2899269, 35.0279684], [137.2897419, 35.0279672], [137.2895676, 35.0279883], [137.2893913, 35.0280222], [137.2892462, 35.0280628], [137.2890737, 35.0281305], [137.288942, 35.0282066], [137.2880641, 35.0287738], [137.2878043, 35.0289415], [137.2872346, 35.0293094], [137.2870419, 35.0294338], [137.286997, 35.0294561], [137.2868052, 35.0295516], [137.2865891, 35.029622], [137.2864057, 35.0296619], [137.2862539, 35.0296834], [137.2860785, 35.0296982], [137.2859025, 35.0297001], [137.2855983, 35.0296713], [137.2852041, 35.0296155], [137.2849173, 35.0296066], [137.2846839, 35.0296176], [137.2844361, 35.0296496], [137.2842465, 35.0296793], [137.2840145, 35.0297388], [137.2829105, 35.0300741], [137.2824518, 35.0302013], [137.2823362, 35.0302268], [137.2822129, 35.0302415], [137.2820323, 35.0302509], [137.2818591, 35.0302452], [137.2816633, 35.0302237], [137.2814144, 35.030162], [137.2811579, 35.0300785], [137.2808784, 35.0300082], [137.2807153, 35.0299735], [137.2805815, 35.0299687], [137.2804362, 35.0299797], [137.2802993, 35.0300012], [137.2801545, 35.0300401], [137.2799955, 35.0301143], [137.2798528, 35.0301976], [137.2797149, 35.0303306], [137.2792082, 35.0308275], [137.2783961, 35.0316109], [137.2783656, 35.031645], [137.2781788, 35.031841], [137.277491, 35.03251], [137.2769997, 35.032959], [137.2768664, 35.0330512], [137.2767535, 35.0331149], [137.2766759, 35.0331431], [137.2764437, 35.033207], [137.2762514, 35.0332487], [137.2759939, 35.0333189], [137.2756591, 35.0334033], [137.2753931, 35.0334806], [137.2752659, 35.0335197], [137.2747807, 35.033691], [137.2745165, 35.033765], [137.2742617, 35.0338468], [137.2740014, 35.0339317], [137.2738052, 35.0340061], [137.2735965, 35.0340964], [137.2734802, 35.0341503], [137.2733969, 35.0341889], [137.2732218, 35.034278], [137.273063, 35.0343707], [137.2728396, 35.0345133], [137.2726103, 35.0346834], [137.2724171, 35.0348578], [137.272268, 35.0350016], [137.2721444, 35.0351326], [137.2718051, 35.0355], [137.271698, 35.0356238], [137.2713968, 35.0359721], [137.2711729, 35.0362364], [137.2710511, 35.0363521], [137.270922, 35.036455], [137.2708179, 35.0365179], [137.2706467, 35.036597], [137.2705868, 35.0366205], [137.2704578, 35.0366712], [137.270329, 35.0367274], [137.2701488, 35.0367907], [137.2699686, 35.036861], [137.2698771, 35.0369341], [137.2697738, 35.0370228], [137.2696392, 35.0371541], [137.2695064, 35.0373015], [137.2690024, 35.0379735], [137.2688608, 35.0381329], [137.2687736, 35.0382015], [137.2687207, 35.0382375], [137.2686146, 35.0382957], [137.2680539, 35.0385658], [137.2679534, 35.0386227], [137.2672869, 35.0391047], [137.2671756, 35.039166], [137.2670503, 35.0392082], [137.2669202, 35.0392462], [137.2648965, 35.0397436], [137.2639539, 35.0400088], [137.2637501, 35.0400952], [137.2634567, 35.0402081], [137.2632761, 35.0403111], [137.2631876, 35.0403857], [137.2630742, 35.0405131], [137.2630198, 35.0406121], [137.2629696, 35.0407824], [137.2629656, 35.0410478], [137.26293, 35.0411789], [137.2628548, 35.0412896], [137.2627545, 35.0413925], [137.2625136, 35.0417751], [137.2620632, 35.0424985], [137.2619332, 35.0426473], [137.2618721, 35.0426994], [137.2618237, 35.0427314], [137.2617615, 35.0427462], [137.2616835, 35.0427523], [137.261614, 35.042729], [137.261555, 35.0426764], [137.2615277, 35.0426035], [137.261543, 35.0425314], [137.2615738, 35.0424511], [137.2617647, 35.0421278], [137.2617709, 35.0420633], [137.2617604, 35.0420073], [137.2617315, 35.0419521], [137.2616934, 35.0419161], [137.2616387, 35.0418854], [137.2615424, 35.0418695], [137.2614571, 35.0418693], [137.2613487, 35.0418804], [137.2612449, 35.041908], [137.2611428, 35.0419517], [137.2610445, 35.0420136], [137.2609885, 35.0420676], [137.2609461, 35.0421366], [137.2609124, 35.0422139], [137.2607648, 35.0428271], [137.2607412, 35.0428828], [137.2607029, 35.0429491], [137.2606677, 35.0429941], [137.260624, 35.0430402], [137.2605744, 35.0430686], [137.2604604, 35.0431059], [137.2603475, 35.0431312], [137.2601976, 35.0431468], [137.2600065, 35.0431689], [137.2598896, 35.0431915], [137.2597842, 35.0432175], [137.2596622, 35.0432647], [137.2594357, 35.0433888], [137.259346, 35.0434494], [137.2591582, 35.0435658], [137.2589906, 35.0437073], [137.2589383, 35.0437786], [137.2589128, 35.0438538], [137.2589017, 35.0439342], [137.2589224, 35.0440038], [137.2589484, 35.0440709], [137.2589911, 35.0441176], [137.2590474, 35.0441657], [137.2591298, 35.0442118], [137.2593894, 35.0443008], [137.2596697, 35.0443762], [137.2606932, 35.0446037], [137.2608136, 35.0446385], [137.2609182, 35.0446784], [137.2609961, 35.0447195], [137.2610805, 35.0447801], [137.2611226, 35.0448205], [137.2611661, 35.0448685], [137.261204, 35.0449212], [137.2612411, 35.0449935], [137.2612644, 35.0450524], [137.2612754, 35.0451118], [137.2612786, 35.0451734], [137.2612705, 35.0452518], [137.2612386, 35.0453497], [137.2611663, 35.0454775], [137.2610979, 35.0455517], [137.2609783, 35.0456444], [137.2608597, 35.0457155], [137.2607231, 35.0457785], [137.2605671, 35.045837], [137.2603466, 35.0459009], [137.2600441, 35.0459814], [137.259424, 35.0461607], [137.2592913, 35.0461903], [137.2591605, 35.0462055], [137.2590534, 35.0462112], [137.2589432, 35.0462076], [137.2588553, 35.0462049], [137.2584752, 35.0461767], [137.2576776, 35.0461088], [137.2572866, 35.0460686], [137.2562523, 35.0459819], [137.2557676, 35.0459106], [137.2554315, 35.0458344], [137.2551279, 35.0457542], [137.2549254, 35.0456879], [137.254725, 35.045617], [137.2545036, 35.045524], [137.2540462, 35.0453179], [137.2534719, 35.0450267], [137.253017, 35.0448089], [137.252811, 35.0447035], [137.2527601, 35.0446822], [137.2524076, 35.0445348], [137.252241, 35.0444799], [137.2520909, 35.0444444], [137.2519459, 35.0444094], [137.2516131, 35.0443602], [137.2513336, 35.0443399], [137.2508097, 35.0443064], [137.2506161, 35.0442688], [137.2505709, 35.0442589], [137.2504603, 35.0442348], [137.2503064, 35.0441734], [137.2501888, 35.0441176], [137.250018, 35.044039], [137.2498609, 35.0439682], [137.2496273, 35.0438147], [137.2494463, 35.0437097], [137.2492613, 35.0436255], [137.2491529, 35.0435838], [137.2489993, 35.0435633], [137.2488167, 35.0435426], [137.2486514, 35.043545], [137.2484818, 35.0435662], [137.2483208, 35.0436072], [137.2481662, 35.0436869], [137.2480212, 35.0437856], [137.2478954, 35.0439063], [137.2477765, 35.0440725], [137.2474778, 35.044573], [137.2473362, 35.0447991], [137.2472493, 35.0449482], [137.2471335, 35.0451426], [137.2470817, 35.0452371], [137.2469777, 35.0454044], [137.2469012, 35.0455032], [137.2468382, 35.0455713], [137.2467604, 35.0456404], [137.246688, 35.0456953], [137.2466022, 35.0457436], [137.2465015, 35.0458026], [137.2463972, 35.0458404], [137.2463015, 35.0458662], [137.2461823, 35.0458841], [137.2460003, 35.0458978], [137.2456875, 35.045927], [137.2455588, 35.0459512], [137.2454703, 35.045983], [137.2453885, 35.0460247], [137.245363, 35.0460431], [137.2453228, 35.0460719], [137.2452638, 35.0461356], [137.2452249, 35.0461927], [137.245198, 35.0462476], [137.2451766, 35.046319], [137.2451672, 35.0463925], [137.2451726, 35.0465298], [137.2451836, 35.0466739], [137.2451848, 35.0466895], [137.2451849, 35.0468045], [137.2451752, 35.0468932], [137.2451578, 35.0469635], [137.245131, 35.0470249], [137.2450975, 35.0470798], [137.2450598, 35.0471415], [137.2450465, 35.0471633], [137.2449549, 35.0472771], [137.2448803, 35.0473585], [137.2447252, 35.0475382], [137.2445514, 35.0477392], [137.2444484, 35.0478583], [137.2442338, 35.0481006], [137.2441761, 35.0481597], [137.2441466, 35.0481969], [137.2440211, 35.048306], [137.2438547, 35.0484438], [137.2437741, 35.0485106], [137.2434272, 35.0487914], [137.2432459, 35.0489503], [137.243192, 35.0490048], [137.2431478, 35.0490585], [137.243092, 35.0491091], [137.2429862, 35.0492182], [137.242908, 35.0493057], [137.2426628, 35.0495801], [137.2424766, 35.0497919], [137.2422954, 35.0499954], [137.2421594, 35.0501984], [137.242064, 35.0504386], [137.2419493, 35.0506857], [137.2419007, 35.05078], [137.241854, 35.0508424], [137.2418161, 35.050894], [137.2417434, 35.0509725], [137.2416743, 35.0510241], [137.2416106, 35.0510576], [137.2415435, 35.0510911], [137.241445, 35.051124], [137.2413397, 35.0511542], [137.2412378, 35.0511761], [137.2411553, 35.0511926], [137.2410627, 35.0512113], [137.2409736, 35.0512409], [137.2408805, 35.0512841], [137.2408653, 35.0512918], [137.240831, 35.051309], [137.2407557, 35.0513604], [137.2406949, 35.0514165], [137.2406126, 35.0515144], [137.2405371, 35.0516661], [137.2404391, 35.0519132], [137.2404188, 35.0519625], [137.240358, 35.0521108], [137.2403548, 35.0521185], [137.2402637, 35.0522975], [137.2401902, 35.0524009], [137.2400863, 35.0524852], [137.2400187, 35.0525301], [137.2399187, 35.0525742], [137.2397874, 35.0526119], [137.2396838, 35.052626], [137.2393268, 35.0526745], [137.2387618, 35.0527521], [137.2386179, 35.0527719], [137.2382484, 35.0528197], [137.2380111, 35.0528509], [137.2376925, 35.0528888], [137.2375008, 35.0529075], [137.2371884, 35.0529197], [137.2368047, 35.0529272], [137.2367115, 35.0529344], [137.236616, 35.0529534], [137.2365788, 35.0529629], [137.2365084, 35.0529827], [137.2364447, 35.0530096], [137.2363836, 35.0530381], [137.236332, 35.0530645], [137.2362877, 35.0530974], [137.2362314, 35.0531759], [137.2361979, 35.0532401], [137.2361495, 35.0533602], [137.2361374, 35.0533861], [137.236027, 35.0536233], [137.2359973, 35.0536937], [137.2358928, 35.0539418], [137.2358075, 35.0540943], [137.2357502, 35.0541946], [137.2356928, 35.0542948], [137.235577, 35.0544626], [137.2355233, 35.0545361], [137.2354683, 35.0545987], [137.2354221, 35.0546415], [137.2353429, 35.0547129], [137.2352511, 35.0547837], [137.2351317, 35.0548529], [137.2350385, 35.0549204], [137.2349654, 35.0549841], [137.2348662, 35.0550933], [137.2348069, 35.0551831], [137.2347267, 35.0553179], [137.2347212, 35.0553271], [137.2346529, 35.0554237], [137.2346306, 35.0554497], [137.2346127, 35.0554704], [137.2345631, 35.0555094], [137.2345054, 35.0555527], [137.234437, 35.0555906], [137.2343606, 35.0556213], [137.2342593, 35.0556517], [137.2341648, 35.0556762], [137.2340575, 35.0556993], [137.2339234, 35.0557201], [137.2338268, 35.0557256], [137.2337076, 35.0557257], [137.2335505, 35.055722], [137.2333561, 35.0556993], [137.2332329, 35.055674], [137.2331705, 35.0556634], [137.2330847, 35.0556435], [137.2327243, 35.0555721], [137.2325816, 35.0555566], [137.2324532, 35.0555488], [137.2323201, 35.0555489], [137.2321897, 35.055558], [137.2320388, 35.0555785], [137.2318925, 35.0556084], [137.2318528, 35.0556193], [137.2317368, 35.055651], [137.231473, 35.0557359], [137.2313221, 35.0557738], [137.2309931, 35.0558881], [137.2309045, 35.0558727], [137.2308455, 35.0558793], [137.2307342, 35.0559068], [137.2304271, 35.055999], [137.2298987, 35.0561686], [137.2296721, 35.0562433], [137.2294159, 35.0563404], [137.2291578, 35.0564453], [137.2290383, 35.0564913], [137.2289546, 35.0565232], [137.2288647, 35.0565457], [137.2287688, 35.0565666], [137.2286803, 35.0565792], [137.2286381, 35.0565962], [137.2287159, 35.0566083], [137.2290243, 35.0565704], [137.2293422, 35.0565226], [137.2296191, 35.0564524], [137.2297271, 35.056414], [137.2299591, 35.0563075], [137.2302058, 35.0562153], [137.2307745, 35.0560248], [137.2308167, 35.0559968], [137.2308294, 35.0559759], [137.2308499, 35.0559348]], [[137.2286381, 35.0565962], [137.2284911, 35.0565968], [137.2282422, 35.0565278], [137.2272527, 35.0562399], [137.2271002, 35.0561711], [137.2262089, 35.0557371], [137.2261096, 35.0556766], [137.2260223, 35.0555859], [137.2259641, 35.0555019], [137.2258949, 35.0553536], [137.2258042, 35.0551586], [137.2257564, 35.0550786], [137.225703, 35.0550057], [137.2253995, 35.0546589], [137.2253184, 35.0545845], [137.2252283, 35.0545278], [137.2251396, 35.0544683], [137.2250295, 35.0544149], [137.2249304, 35.0543911], [137.2247301, 35.0543293], [137.2245478, 35.0542827], [137.2240482, 35.0541568], [137.2237862, 35.0541001], [137.2236165, 35.0540797], [137.2233746, 35.0540689], [137.22313, 35.0540559], [137.2229214, 35.0540723], [137.2227393, 35.0541187], [137.222015, 35.0543422], [137.2218154, 35.0543888], [137.2215943, 35.0544402], [137.2213779, 35.0544617], [137.2211671, 35.0544541], [137.220997, 35.0544265], [137.2207693, 35.0543844], [137.2204918, 35.054348], [137.220223, 35.0543616], [137.220007, 35.0544104], [137.219979, 35.0544149], [137.2195646, 35.054542], [137.2193957, 35.0546058], [137.2191565, 35.0547233], [137.2190371, 35.0547925], [137.2189218, 35.0548704], [137.2188534, 35.0549275], [137.2187984, 35.054989], [137.2187434, 35.055056], [137.2187126, 35.0551262], [137.218679, 35.0552239], [137.2186536, 35.0553227], [137.2186361, 35.0554841], [137.2185691, 35.0560177], [137.2185194, 35.0563086], [137.2184819, 35.0564908], [137.2183987, 35.0568454], [137.2183746, 35.0570265], [137.2183371, 35.057144], [137.2182995, 35.0572296], [137.2182536, 35.0572957], [137.2181895, 35.0573581], [137.2180499, 35.0574509], [137.2183049, 35.0576969], [137.2184642, 35.057896], [137.2185168, 35.0579717], [137.2186388, 35.0581551], [137.218781, 35.0584273], [137.2188722, 35.0586216], [137.2189151, 35.0587325], [137.2189298, 35.058839], [137.2189325, 35.0589345], [137.2189164, 35.0590289], [137.2188958, 35.0590914], [137.2187861, 35.0592952], [137.2183666, 35.0599796], [137.2182213, 35.0601905], [137.218061, 35.0603477], [137.2177631, 35.0606124], [137.2173064, 35.0610095], [137.2168262, 35.0614467], [137.2167752, 35.0614919], [137.2167066, 35.0615526], [137.2166027, 35.0616849], [137.2164812, 35.0618815], [137.216297, 35.0622585], [137.2158814, 35.0630711], [137.2157665, 35.0632778], [137.2157027, 35.0634672], [137.2156694, 35.0635943], [137.2156694, 35.0637508], [137.2157152, 35.0640163], [137.2158399, 35.0645381], [137.2161143, 35.0656079], [137.2162154, 35.0659661], [137.2161428, 35.0659707], [137.2153859, 35.0660949], [137.2152823, 35.0660956], [137.2151775, 35.0661104], [137.2149094, 35.0661254], [137.2147547, 35.0661308], [137.2146282, 35.0661253], [137.2145105, 35.0661177], [137.2143414, 35.066092], [137.2141059, 35.0660477], [137.2135843, 35.0659202], [137.2122377, 35.0655753], [137.2114259, 35.0653378], [137.2109688, 35.0651977], [137.2103612, 35.0649921], [137.2095341, 35.0647121]], [[137.2162154, 35.0659661], [137.2162424, 35.0660509], [137.2161705, 35.0660625], [137.2156862, 35.0661381], [137.2154058, 35.0661716], [137.2153263, 35.0661806], [137.2152071, 35.0661866], [137.2148871, 35.0662103], [137.2146409, 35.0662166], [137.2143737, 35.0661967], [137.2141105, 35.0661384], [137.212547, 35.0657331], [137.2119441, 35.0655724], [137.2110576, 35.06531], [137.2103334, 35.0650797], [137.2094907, 35.0648082]], [[137.2095341, 35.0647121], [137.2093492, 35.0646352], [137.2086016, 35.064394], [137.2080517, 35.0642074], [137.2078525, 35.064143], [137.207624, 35.0640895], [137.2074168, 35.0640448], [137.2072175, 35.0640158], [137.2070239, 35.063998], [137.206837, 35.0639938], [137.2066455, 35.0639944], [137.2064616, 35.0640043], [137.2062798, 35.0640242], [137.2060922, 35.0640517], [137.2059143, 35.0640858], [137.2057256, 35.0641298], [137.2055493, 35.0641815], [137.2053648, 35.0642398], [137.2052044, 35.0642987], [137.2048917, 35.0644335], [137.2038861, 35.0649135], [137.2035086, 35.0650907], [137.2030141, 35.0653184], [137.2028133, 35.0654096]], [[137.2094907, 35.0648082], [137.2093094, 35.0647348], [137.2085677, 35.0644827], [137.2083265, 35.0644073], [137.2080127, 35.0642984], [137.2078457, 35.0642448], [137.2076848, 35.0641986], [137.2075276, 35.0641623], [137.2073607, 35.064131], [137.207188, 35.0641121], [137.2070273, 35.0640963], [137.2068635, 35.0640889], [137.2067044, 35.0640876], [137.2065442, 35.0640935], [137.2063916, 35.0641028], [137.2062344, 35.0641216], [137.2060797, 35.0641449], [137.2059285, 35.0641761], [137.2057708, 35.0642144], [137.205618, 35.0642581], [137.2054128, 35.064326], [137.2052541, 35.0643902], [137.2049433, 35.0645287], [137.2043991, 35.0647771], [137.2041349, 35.0648932], [137.2038946, 35.0649989], [137.2036265, 35.065114], [137.2033802, 35.0652167], [137.2030273, 35.0653459], [137.2028133, 35.0654096], [137.2026572, 35.0654681], [137.2023839, 35.065573], [137.2020569, 35.0656879], [137.2017061, 35.0657563], [137.2013058, 35.0658169], [137.2003227, 35.0659259], [137.1995881, 35.0660146], [137.1991609, 35.0660824], [137.1985781, 35.0661944], [137.1980631, 35.0662998], [137.197634, 35.0664052], [137.1968432, 35.0666116], [137.1967027, 35.0666509], [137.1965577, 35.0666947], [137.1957575, 35.0669016], [137.1952904, 35.0670502], [137.1946254, 35.0673057], [137.1942623, 35.0674793], [137.1936266, 35.0678592], [137.1930849, 35.0681965], [137.1924652, 35.0685728], [137.1922523, 35.0686758], [137.1920674, 35.0687527], [137.1917059, 35.0688483], [137.1914298, 35.0688819], [137.1913606, 35.0688862], [137.1912592, 35.0688919], [137.1911259, 35.068901], [137.1907717, 35.06895], [137.1904132, 35.0690088], [137.190243, 35.069047], [137.1901385, 35.0690641], [137.1899705, 35.0690432], [137.1896717, 35.0691349], [137.1894288, 35.0692515], [137.189235, 35.0693795], [137.1890506, 35.0695229], [137.1888801, 35.0696872], [137.1887213, 35.0698745], [137.1885554, 35.0701024], [137.1879938, 35.0709292], [137.187678, 35.0713009], [137.1874252, 35.0715677], [137.1872072, 35.071758], [137.1869095, 35.0719615], [137.1867785, 35.0720378], [137.1865112, 35.0721845], [137.1862424, 35.0723162], [137.1859297, 35.0723942], [137.1852685, 35.0725809], [137.1838778, 35.0728903], [137.1834773, 35.0730061], [137.1819041, 35.073527], [137.1811415, 35.0737798], [137.1807957, 35.0738681], [137.1800043, 35.0739876], [137.1792498, 35.0741011], [137.1789183, 35.0741809], [137.1786099, 35.0742567], [137.1783356, 35.0743521], [137.1782777, 35.0743723], [137.1779949, 35.0744996], [137.177634, 35.0747089], [137.1770954, 35.0750778], [137.1753903, 35.0762056], [137.1749571, 35.0764823], [137.1745429, 35.0767796], [137.1741506, 35.0771692], [137.1739712, 35.0773575], [137.1731331, 35.0784709], [137.1730609, 35.0785554], [137.172045, 35.0797627], [137.1714513, 35.0805277], [137.1711368, 35.0809603], [137.1709687, 35.0811562], [137.1708433, 35.0812873], [137.1707086, 35.0813883], [137.1704638, 35.0815619], [137.1702602, 35.0816711], [137.1696221, 35.0819344], [137.1694358, 35.0820084], [137.169359, 35.0820344], [137.1688397, 35.0821948], [137.168497, 35.0822858], [137.1682716, 35.0823208], [137.1678638, 35.0823612], [137.1678412, 35.0823634], [137.1677933, 35.0823676], [137.1647787, 35.0825099], [137.1646713, 35.0825142], [137.1640967, 35.0825429], [137.1636904, 35.0825486], [137.1635033, 35.0825419], [137.1628595, 35.0825186], [137.1624536, 35.0824785], [137.1623089, 35.0824642], [137.1621362, 35.0824594], [137.1619204, 35.0824534], [137.1614357, 35.0824622], [137.1611169, 35.0824754], [137.1609352, 35.082483]], [[137.1901385, 35.0690641], [137.1900097, 35.0691283], [137.1896174, 35.0692662], [137.1893782, 35.0693899], [137.1892033, 35.0695257], [137.1890403, 35.0696548], [137.1888895, 35.0698071], [137.188727, 35.0700159], [137.1880794, 35.0709682], [137.1878294, 35.0712903], [137.1877336, 35.0714015], [137.1874905, 35.0716479], [137.1872825, 35.071817], [137.1868605, 35.0720982], [137.1865248, 35.07228], [137.1862216, 35.0724119], [137.1859445, 35.0725161], [137.1852817, 35.0726612], [137.1848091, 35.0727658], [137.184038, 35.0729365], [137.1837572, 35.0730004], [137.1835072, 35.0730862], [137.1826548, 35.0733827], [137.1819328, 35.0736166], [137.1812651, 35.073839], [137.1809495, 35.0739201], [137.1806472, 35.0739762], [137.1803174, 35.0740262], [137.1796776, 35.0741182], [137.1789496, 35.074262], [137.1783467, 35.0744456], [137.178066, 35.0745801], [137.177148, 35.0751511], [137.1754068, 35.0763062], [137.1751169, 35.0764869], [137.1745914, 35.0768589], [137.1744461, 35.0769898], [137.1741905, 35.077234], [137.1741252, 35.0772907], [137.1731182, 35.0786329], [137.1720159, 35.0799388], [137.1717538, 35.0802777], [137.1713774, 35.0807837], [137.1712816, 35.0809287], [137.1711551, 35.0810923], [137.1709674, 35.0812943], [137.1707359, 35.0814888], [137.1703341, 35.0817517], [137.1697547, 35.0819879], [137.1694883, 35.0820935], [137.1694424, 35.082112], [137.1688057, 35.0822988], [137.1684047, 35.0823927], [137.1680859, 35.0824381], [137.1678847, 35.0824552], [137.1678299, 35.0824594], [137.1647663, 35.0826056], [137.1646612, 35.0826117], [137.1639508, 35.0826396], [137.1636347, 35.0826447], [137.1634341, 35.0826384], [137.1628235, 35.0826046], [137.1624568, 35.0825726], [137.1623301, 35.0825616], [137.1621566, 35.082545], [137.1614486, 35.082542], [137.1611207, 35.0825624], [137.160942, 35.0825735]]]}, "id": "relation/3518585"}, {"type": "Feature", "properties": {"@id": "relation/3524527", "name": "国道301号線", "route": "road", "type": "route"}, "geometry": {"type": "MultiLineString", "coordinates": [[[137.4284785, 35.001503], [137.429047, 35.00154], [137.4301823, 35.0016088], [137.431205, 35.0016752], [137.4313657, 35.0016706], [137.4315212, 35.0016602], [137.4316802, 35.0016323], [137.4340122, 35.0011629], [137.4350793, 35.0009464], [137.4355099, 35.00081], [137.435937, 35.0006327], [137.4353118, 34.9997884], [137.4349674, 34.9993049], [137.434812, 34.9991042], [137.4342138, 34.9982556], [137.4340116, 34.9979906], [137.4334369, 34.9971888], [137.4333733, 34.9970805], [137.4330612, 34.9966016], [137.4328274, 34.9962549], [137.4327691, 34.9961755], [137.4325535, 34.9958815], [137.4322368, 34.9954497], [137.4321035, 34.9952864], [137.4312957, 34.9942963], [137.4310732, 34.9940196], [137.4302816, 34.9930352], [137.4300625, 34.9927585], [137.4290277, 34.9914519], [137.4289218, 34.9913082], [137.4288741, 34.9912178], [137.4288267, 34.9910302], [137.428817, 34.9909434], [137.4288133, 34.9908051], [137.4288097, 34.9907196], [137.4288453, 34.9905661], [137.4289277, 34.9903358], [137.4290138, 34.9901832], [137.4290584, 34.9901042], [137.4293335, 34.9896169], [137.4293595, 34.9895696], [137.4296407, 34.9890585], [137.4298202, 34.9887673], [137.4302868, 34.9881817], [137.4304256, 34.9879365], [137.4304518, 34.9877159], [137.430408, 34.9874149], [137.4302598, 34.9870047], [137.4298937, 34.9867436], [137.4291726, 34.9863812], [137.429078, 34.9863385], [137.4287614, 34.9861363]]]}, "id": "relation/3524527"}, {"type": "Feature", "properties": {"@id": "relation/10601615", "name": "国道301号バイパス", "network": "JP:national", "ref": "301", "route": "road", "type": "route"}, "geometry": {"type": "MultiLineString", "coordinates": [[[137.5360628, 34.714888], [137.5349111, 34.716496], [137.5345819, 34.7169637], [137.5342732, 34.7173638], [137.5335326, 34.7182695], [137.5323563, 34.7196954], [137.5320606, 34.7200305], [137.5315238, 34.7207066], [137.531311, 34.7209672], [137.5301911, 34.7223175], [137.5296995, 34.7229335]]]}, "id": "relation/10601615"}]}