{"type": "FeatureCollection", "generator": "kokudo-quiz tools/fetch_raw.py (Overpass API)", "copyright": "The data included in this document is from www.openstreetmap.org. The data is made available under ODbL.", "timestamp": "2026-09-30T16:19:35Z", "features": [{"type": "Feature", "properties": {"@id": "relation/8547309", "colour": "red", "from": "岐阜県岐阜市", "name": "国道303号", "name:en": "National Highway Route 303", "name:ja": "国道303号", "name:ja-Hira": "こくどうさんびゃくさんごう", "name:ja-Latn": "Kokudou 303 Gou", "network": "JP:national", "ref": "303", "route": "road", "to": "福井県三方上中郡若狭町", "type": "route", "wikidata": "Q6157181", "wikipedia": "ja:国道303号"}, "geometry": {"type": "MultiLineString", "coordinates": [[[136.7600042, 35.4172083], [136.7599316, 35.4172058], [136.7592753, 35.4172384], [136.7581376, 35.4172864], [136.7579702, 35.4172885], [136.7570047, 35.4173133], [136.7568555, 35.4173148], [136.755999, 35.4173335], [136.7557478, 35.417343], [136.7549881, 35.4173553], [136.7542427, 35.4174042], [136.7541306, 35.4174138], [136.7529651, 35.4174496], [136.7528895, 35.4174509], [136.7528806, 35.4175204], [136.7527691, 35.4182936], [136.7527361, 35.4184174], [136.7526838, 35.4188285], [136.7526038, 35.4192971], [136.7525051, 35.4199093], [136.7524338, 35.4203032], [136.752385, 35.4205746], [136.7522655, 35.4212631], [136.7521289, 35.42196], [136.7520071, 35.422501], [136.7518481, 35.423191], [136.7518274, 35.4232862], [136.7516685, 35.4239553], [136.7515189, 35.4245849], [136.7514473, 35.4249202], [136.7512992, 35.4255297], [136.7511503, 35.4261564], [136.7511257, 35.4262694], [136.7510854, 35.4264546], [136.7505383, 35.4287987], [136.7504737, 35.4290753], [136.7504523, 35.4291669], [136.7498904, 35.4315327], [136.7498523, 35.4316588]], [[136.7600115, 35.4172729], [136.7599382, 35.4172795], [136.7592705, 35.4173108], [136.7581437, 35.4173496], [136.757526, 35.417374], [136.7570038, 35.4173891], [136.7568564, 35.4173884], [136.7564739, 35.4173999], [136.7559866, 35.4174219], [136.7553098, 35.4174382], [136.7549897, 35.4174435], [136.7541312, 35.4174675], [136.7534615, 35.4174918], [136.753211, 35.4175056], [136.7529603, 35.4175207], [136.7529224, 35.4178129], [136.7528156, 35.4184247], [136.7527475, 35.4188353], [136.752659, 35.4193712], [136.7525836, 35.4199176], [136.7525031, 35.4205369], [136.7523845, 35.4212409], [136.7522411, 35.4218781], [136.7520877, 35.4224942], [136.7519198, 35.4231835], [136.7517377, 35.4239587], [136.7516395, 35.4243517], [136.7515449, 35.4247633], [136.7515242, 35.4249308], [136.7513835, 35.4255294], [136.751249, 35.4260601], [136.7511968, 35.4262694], [136.7505314, 35.4290789], [136.7505106, 35.4291753], [136.7499528, 35.4315466], [136.7499227, 35.4316693], [136.7498523, 35.4316588], [136.7497492, 35.4316433], [136.749015, 35.4314228], [136.7475092, 35.4308948], [136.7468691, 35.430693], [136.7465333, 35.4305425], [136.7462135, 35.4303702], [136.7449102, 35.4296593], [136.7446445, 35.4295581], [136.7437611, 35.4292858], [136.7432948, 35.429142], [136.7430801, 35.4290836], [136.742603, 35.4289539], [136.7421855, 35.4288648], [136.7421131, 35.4288593], [136.7417922, 35.4288348], [136.7416039, 35.428824], [136.7414086, 35.4288457], [136.7408792, 35.4289125], [136.739943, 35.4291122], [136.7392944, 35.4293419], [136.7386678, 35.429592], [136.738187, 35.4297924], [136.737465, 35.4300783], [136.7369098, 35.4302764], [136.7360124, 35.4306297], [136.7350242, 35.4310662], [136.734403, 35.4312852], [136.7343071, 35.4313246], [136.7337375, 35.4315413], [136.733543, 35.4316205], [136.7334795, 35.4316447], [136.7333491, 35.4316984], [136.733294, 35.4317162], [136.7328651, 35.4318809], [136.7321728, 35.4321466], [136.7321109, 35.4322033], [136.7310658, 35.4326218], [136.7302808, 35.4329861], [136.7299442, 35.4330542], [136.7295167, 35.4331722], [136.7294394, 35.4331935], [136.7292198, 35.4332633], [136.7291708, 35.4332735], [136.7290662, 35.4332985], [136.7284702, 35.4334714], [136.7282331, 35.4335342], [136.7279959, 35.4336268], [136.727635, 35.4337879], [136.7275428, 35.433829], [136.7274731, 35.4338592], [136.7270144, 35.434058], [136.7262662, 35.4343857], [136.7253251, 35.4347823], [136.7248827, 35.4349634], [136.7245891, 35.4350156], [136.7243267, 35.4350305], [136.7242268, 35.435036], [136.723589, 35.4350713], [136.7234458, 35.4350793], [136.7229565, 35.4351077], [136.7227158, 35.4351437], [136.722534, 35.4351849], [136.722343, 35.4352411], [136.7216893, 35.4354585], [136.721588, 35.4354983], [136.7210061, 35.4356928], [136.7205956, 35.4358222], [136.7204132, 35.4358692], [136.7203733, 35.4358895], [136.7199805, 35.4360892], [136.7196892, 35.4362523], [136.7195437, 35.4363652], [136.7194955, 35.4363785], [136.7163816, 35.4373297], [136.716105, 35.4373869], [136.7160394, 35.4374003], [136.714964, 35.4376503], [136.7147104, 35.4376914], [136.7142436, 35.4377252], [136.7139954, 35.4377494], [136.7139313, 35.4377542], [136.713835, 35.4377613], [136.7137756, 35.4377657], [136.712811, 35.4378327], [136.7127449, 35.4378373], [136.7127389, 35.4378377], [136.7123961, 35.4378717], [136.71106, 35.437964], [136.7109867, 35.437969], [136.7109314, 35.437974], [136.710891, 35.4379776], [136.7103468, 35.438019], [136.7099209, 35.4380538], [136.7098673, 35.4380582], [136.709782, 35.4380629], [136.7097366, 35.4380665], [136.7093684, 35.4380957], [136.7090906, 35.4381175], [136.7089767, 35.4381225], [136.7089161, 35.4381263], [136.7087032, 35.4381341], [136.7085819, 35.4381378], [136.7084407, 35.4381372], [136.7082461, 35.438136], [136.7080044, 35.4381358], [136.7076453, 35.4381378], [136.7075483, 35.438145], [136.7072143, 35.4381639], [136.7068997, 35.4381852], [136.7064817, 35.4382279], [136.7060469, 35.4382691], [136.7051543, 35.4383516], [136.7045984, 35.4384005], [136.7039763, 35.4384448], [136.7034645, 35.4384619], [136.7026741, 35.4384784], [136.7018911, 35.43839], [136.7015421, 35.4383686], [136.7012414, 35.4383612], [136.7010721, 35.4383574], [136.7007145, 35.4383677], [136.700033, 35.4384304], [136.6995252, 35.4384772], [136.6995115, 35.4384768], [136.6988364, 35.4384585], [136.6987832, 35.4384571], [136.698703, 35.4384549], [136.6978413, 35.4383916], [136.6977106, 35.438382], [136.6974158, 35.4383653], [136.6972408, 35.4383715], [136.6969928, 35.4384015], [136.6967828, 35.4384517], [136.696507, 35.43855], [136.6962511, 35.4386684], [136.69504, 35.4392823], [136.6938147, 35.4399877], [136.6933511, 35.4401942], [136.6932378, 35.4402516], [136.6930075, 35.4403104], [136.6928091, 35.4403368], [136.6925006, 35.440343], [136.6918766, 35.4403171], [136.6914757, 35.4403046], [136.6906246, 35.4403039], [136.6904575, 35.4402887], [136.6894819, 35.4402628], [136.6892576, 35.4402569], [136.688901, 35.4402474], [136.6883544, 35.4402308], [136.6878956, 35.4402166], [136.6871588, 35.4402], [136.6863862, 35.4401682], [136.6858898, 35.4401178], [136.6851429, 35.4400226], [136.6846349, 35.4399702], [136.6842897, 35.4399316], [136.6837465, 35.4398709], [136.6833831, 35.4398312], [136.6824555, 35.4397243], [136.6815994, 35.4396273], [136.6811506, 35.439576], [136.6805021, 35.4394773], [136.6799394, 35.4393737], [136.6787723, 35.4391388], [136.678545, 35.4390639], [136.677988, 35.4388419], [136.6779649, 35.4388327], [136.6776242, 35.4387424], [136.6770642, 35.4386426], [136.6767403, 35.4385888], [136.6765591, 35.4385509], [136.676296, 35.438509], [136.6761135, 35.4384761], [136.6759967, 35.4384636], [136.6756818, 35.4384251], [136.6759967, 35.4384636], [136.6761135, 35.4384761], [136.676296, 35.438509], [136.6765591, 35.4385509], [136.6767403, 35.4385888], [136.6770642, 35.4386426], [136.6776242, 35.4387424]], [[136.6756818, 35.4384251], [136.6752074, 35.4395621], [136.6751894, 35.4396086], [136.6744477, 35.4413658], [136.6739571, 35.4425321], [136.6738029, 35.4429124], [136.6737145, 35.4432323], [136.673685, 35.4434083], [136.6736688, 35.4436166], [136.6736917, 35.4439867], [136.6737649, 35.4443769], [136.6741298, 35.4455304], [136.6742026, 35.4457451], [136.6743011, 35.4460561], [136.6743565, 35.4462721], [136.6746697, 35.4474448], [136.674763, 35.4478971], [136.6746901, 35.447951], [136.674436, 35.448051], [136.6740674, 35.4480683], [136.6740086, 35.4480711], [136.6738356, 35.4480792], [136.6738035, 35.4480802], [136.6736503, 35.448085], [136.6735644, 35.4480877], [136.6734295, 35.4480925], [136.6727208, 35.4481165], [136.6724005, 35.4481275], [136.6721812, 35.4481803], [136.672101, 35.4482209], [136.6719611, 35.4483016], [136.6717422, 35.448478], [136.6716432, 35.4485758], [136.671528, 35.4486832], [136.6713924, 35.4488166], [136.671089, 35.449089], [136.6708398, 35.4493225], [136.6704483, 35.4496653], [136.6699659, 35.4500242], [136.6696404, 35.4502354], [136.6694288, 35.4503741], [136.6691474, 35.4505615], [136.6689586, 35.4506834], [136.6687261, 35.4508272], [136.6682961, 35.4510903], [136.6681895, 35.4511517], [136.6680792, 35.4512088], [136.6679656, 35.4512614], [136.667849, 35.4513094], [136.6677297, 35.4513527], [136.6676078, 35.4513911], [136.6675146, 35.4514178], [136.667366, 35.451448], [136.6672473, 35.4514681], [136.6671278, 35.4514847], [136.6670076, 35.4514977], [136.6667495, 35.4515221], [136.6665205, 35.4515391], [136.6664374, 35.451543], [136.6664151, 35.4515454], [136.6660706, 35.4515665], [136.6657049, 35.451588], [136.6653186, 35.4516162], [136.664951, 35.4516557], [136.6647848, 35.4516698], [136.664648, 35.4516941], [136.6644634, 35.4517208], [136.663498, 35.4517988], [136.6632793, 35.4518196], [136.6630781, 35.4518401], [136.663022, 35.4518458], [136.6629609, 35.4518529], [136.6622815, 35.4519322], [136.6619431, 35.4519675], [136.6617888, 35.4519796], [136.66155, 35.4520059], [136.6615094, 35.4520104], [136.6613641, 35.4520264], [136.6611423, 35.4520509], [136.6610948, 35.4520561], [136.6610126, 35.4520652], [136.6608468, 35.4520837], [136.6606352, 35.4521073], [136.6599528, 35.4521835], [136.6598699, 35.4521928], [136.6595873, 35.452236], [136.6590931, 35.4523577], [136.6590055, 35.4523793], [136.6585254, 35.4525313], [136.6574006, 35.4528858], [136.6557881, 35.4533939], [136.6545802, 35.4537542], [136.654261, 35.4538456], [136.6539238, 35.4539747], [136.6537108, 35.4541044], [136.65359, 35.4541766], [136.6533401, 35.4543378], [136.6531507, 35.4544824], [136.6529958, 35.4546475], [136.6529296, 35.454718], [136.6528406, 35.4548128], [136.6527227, 35.4549384], [136.6519916, 35.4557834], [136.6515183, 35.4563126], [136.651383, 35.4564638], [136.6512048, 35.4566787], [136.6511801, 35.4567084], [136.6511576, 35.4567385], [136.6511097, 35.4568024], [136.6509759, 35.456981], [136.6508497, 35.4571978], [136.6507863, 35.4572964], [136.6506027, 35.4575819], [136.6502832, 35.4580602], [136.6501675, 35.4582464], [136.6500854, 35.4583877], [136.6499191, 35.4584018], [136.6489962, 35.4584325], [136.6484685, 35.4584721], [136.6474295, 35.4586429], [136.6473097, 35.4586652], [136.6432677, 35.4594679], [136.6431256, 35.4594918], [136.6424019, 35.4596315], [136.6422743, 35.4596606], [136.6407152, 35.459969], [136.6394287, 35.4601892], [136.6389334, 35.4602656], [136.6382845, 35.4603877], [136.6377645, 35.4604841], [136.6377213, 35.4612287], [136.6376998, 35.4615992], [136.6376879, 35.461862], [136.637672, 35.4622122], [136.6376619, 35.4624362], [136.637628, 35.4629949], [136.6376089, 35.4634174], [136.6375655, 35.4643494], [136.637567, 35.4644177], [136.637615, 35.4647401], [136.6376575, 35.4649447], [136.6376979, 35.4651396], [136.6375372, 35.4652188], [136.6372178, 35.4653761], [136.6368415, 35.4655546], [136.6362071, 35.4658534], [136.6358257, 35.4659589], [136.6357136, 35.4659844], [136.6356435, 35.4660015], [136.6353241, 35.4660512], [136.6343921, 35.46614], [136.6343002, 35.4661473], [136.6342165, 35.466155], [136.6331511, 35.4662529], [136.6331176, 35.4662563], [136.6327944, 35.466289], [136.6313836, 35.4664319], [136.6299223, 35.4665787], [136.6292904, 35.4666307], [136.6289377, 35.4666794], [136.6285288, 35.466768], [136.6281829, 35.4668983], [136.6277577, 35.4670836], [136.6271287, 35.4673789], [136.6270119, 35.4674337], [136.6268655, 35.4674929], [136.626432, 35.4676683], [136.6261645, 35.4677484], [136.6260887, 35.4677661], [136.6259517, 35.4677925], [136.6258682, 35.4678071], [136.6254777, 35.4678441], [136.6248044, 35.46784], [136.624617, 35.4678389], [136.624436, 35.4678459], [136.6240086, 35.4678623], [136.6236568, 35.4678639], [136.6236291, 35.4678641], [136.6229607, 35.4678655], [136.6228126, 35.4678658], [136.6225805, 35.4678644], [136.6224683, 35.4678641], [136.6223108, 35.4678488], [136.6222578, 35.4678488], [136.6222035, 35.4678493], [136.6220439, 35.4678651], [136.6222029, 35.4678799], [136.6222585, 35.4678799], [136.6223115, 35.4678799], [136.6224683, 35.4678641]], [[136.6220439, 35.4678651], [136.6214036, 35.4678651], [136.6209369, 35.4678635], [136.6207786, 35.4678537], [136.6202594, 35.4678501], [136.618577, 35.4678426], [136.6174229, 35.4678508], [136.6165701, 35.4678005], [136.6161934, 35.4677874], [136.6146848, 35.4677768], [136.6137774, 35.4677592], [136.6125988, 35.4677357], [136.6120881, 35.4677181], [136.6110024, 35.4677087], [136.6102546, 35.4677063], [136.6089404, 35.4676969], [136.6081493, 35.4677131], [136.6076738, 35.4677651], [136.6074227, 35.4678167], [136.6066447, 35.4679913], [136.6055067, 35.4682528], [136.6052481, 35.4683169], [136.604839, 35.4684183], [136.6040947, 35.4685945], [136.6036835, 35.468685], [136.6031129, 35.4688065], [136.6027428, 35.4688991], [136.6023275, 35.4689952], [136.6019798, 35.469135], [136.6015903, 35.4693618], [136.6011604, 35.4696672], [136.6009312, 35.4698878], [136.6002429, 35.4706095], [136.5997452, 35.4710841], [136.5991811, 35.4714777], [136.5989474, 35.4715975], [136.5984887, 35.4717656], [136.5978756, 35.4719665], [136.5967864, 35.4723506], [136.5964835, 35.4724728], [136.5958343, 35.4726913], [136.5936559, 35.4734068], [136.5929527, 35.4736585], [136.5927315, 35.4737366], [136.5910328, 35.4743362], [136.5906628, 35.4745229], [136.5897371, 35.4751012], [136.5895513, 35.4752141], [136.5894668, 35.4752652], [136.5893988, 35.4753056], [136.5883551, 35.4759635], [136.5872283, 35.476681], [136.5862503, 35.4772744], [136.5858017, 35.4776035], [136.5855348, 35.4778549], [136.5850214, 35.4785612], [136.5847565, 35.4789518], [136.5840567, 35.4799968], [136.5837558, 35.4804645], [136.5835144, 35.4808149], [136.5829667, 35.4814807], [136.5820399, 35.4825468], [136.5815271, 35.4831352], [136.5814048, 35.4832755], [136.5812908, 35.4834041], [136.5807764, 35.4839844], [136.580592, 35.4840919], [136.5804629, 35.4841672], [136.5799816, 35.4843524], [136.5795805, 35.4845067], [136.5795215, 35.4845281], [136.5795191, 35.4845289], [136.5788856, 35.4847583], [136.5786838, 35.4848207], [136.578036, 35.485021], [136.5772599, 35.4852636], [136.5772418, 35.4852693], [136.5760181, 35.4856564], [136.5758008, 35.4857271], [136.5749567, 35.4860017], [136.5746422, 35.4861621], [136.573797, 35.4866756], [136.5729238, 35.4871965], [136.5727956, 35.4872813], [136.5726706, 35.4873515], [136.5725407, 35.4874068], [136.5722285, 35.4874799], [136.5720387, 35.4875087], [136.5716713, 35.4875741], [136.5710078, 35.4876749], [136.5699586, 35.4878463], [136.5695179, 35.4879527], [136.5691859, 35.4881043], [136.5687462, 35.4883865], [136.5680771, 35.4888618], [136.5673086, 35.4893575], [136.5672359, 35.4894027], [136.566295, 35.4899872], [136.5655701, 35.4904549], [136.5646833, 35.4910271], [136.5641121, 35.4913991], [136.5636164, 35.491732], [136.5635193, 35.4917969], [136.5634969, 35.4918141], [136.5630948, 35.4920766], [136.5624501, 35.4924934], [136.5622698, 35.4926099], [136.5613087, 35.4932519], [136.5612399, 35.4932995], [136.5609769, 35.4934598], [136.5605269, 35.4936653], [136.5600583, 35.4938436], [136.5585591, 35.4943336], [136.5580201, 35.4945058], [136.5578296, 35.4945944], [136.5576784, 35.494731], [136.5575799, 35.4948837], [136.5575315, 35.4950693], [136.5575464, 35.4951731], [136.5576373, 35.4956421], [136.5576618, 35.4959909], [136.5576503, 35.496853], [136.5576084, 35.4971277], [136.557536, 35.4972629], [136.55743, 35.4974223], [136.5574048, 35.4974534], [136.5571566, 35.4977591], [136.5569252, 35.4980341], [136.5568243, 35.498167], [136.5559985, 35.4992963], [136.5557137, 35.4996857], [136.5549871, 35.5006276], [136.5549581, 35.5006757], [136.5544734, 35.5011139], [136.5538197, 35.5016939], [136.5533828, 35.502088], [136.5524411, 35.5029294], [136.5519118, 35.5033646], [136.5516589, 35.5034865], [136.5515697, 35.5035295], [136.5510862, 35.5036751], [136.5510543, 35.5036768], [136.550275, 35.5037182], [136.5492314, 35.503753], [136.548163, 35.5037788], [136.5479848, 35.5037831], [136.547141, 35.5038127], [136.5464276, 35.5038378], [136.5449188, 35.5038854], [136.5448934, 35.5038862], [136.5445124, 35.5039006], [136.5440203, 35.5039142], [136.542704, 35.5039513], [136.54177, 35.5039896], [136.5411573, 35.5041009], [136.5405858, 35.5042145], [136.5402357, 35.504284], [136.5397825, 35.5044134], [136.539391, 35.5045656], [136.5389167, 35.5048029], [136.5387543, 35.5048841], [136.5383936, 35.5050397], [136.5379392, 35.5052985], [136.5374025, 35.5054618], [136.5368047, 35.5055738], [136.5358101, 35.5056417], [136.5354333, 35.5056551], [136.5350502, 35.5056587], [136.5342822, 35.5057031], [136.5339523, 35.5057363], [136.5337597, 35.5057836], [136.5334726, 35.505857], [136.5333272, 35.5059741], [136.5332171, 35.5060828], [136.5331442, 35.5061703], [136.5330303, 35.5063913], [136.5329949, 35.5065059], [136.5329411, 35.5067323], [136.5328381, 35.5071378], [136.5328204, 35.5072731], [136.5328158, 35.5073871], [136.5328234, 35.5077341], [136.5329092, 35.5081249], [136.5329569, 35.5083555], [136.5329832, 35.5085046], [136.5329865, 35.5086834], [136.5329445, 35.5089405], [136.5327179, 35.5097214], [136.5326187, 35.5099812], [136.5326005, 35.5101553], [136.5326041, 35.5103356], [136.5326327, 35.5104381], [136.5326692, 35.5105067], [136.5328436, 35.5107538], [136.5330321, 35.5109455], [136.533701, 35.5117327], [136.5340926, 35.5121752], [136.5348075, 35.5130056], [136.5352835, 35.5135532], [136.5354516, 35.5138091], [136.5356011, 35.514068], [136.5357043, 35.5143631], [136.5357436, 35.5145045], [136.5357579, 35.5147207], [136.5357468, 35.5150495], [136.5357392, 35.5154973], [136.5357312, 35.5157928], [136.5356595, 35.5188312], [136.5355327, 35.5196223], [136.5354239, 35.5200601], [136.5348433, 35.5213104], [136.5334609, 35.523922], [136.5325466, 35.525702], [136.5322451, 35.5262909], [136.5319891, 35.5269661], [136.5318411, 35.5276647], [136.5318369, 35.5278218], [136.5317983, 35.5282895], [136.5317919, 35.5284083], [136.531782, 35.5289767], [136.53177, 35.529089], [136.5316696, 35.5292589], [136.5315248, 35.5294074], [136.5311372, 35.5298167], [136.5307942, 35.5302509], [136.5304099, 35.530737], [136.5300941, 35.531087], [136.5299304, 35.5312373], [136.5295984, 35.5314382], [136.529237, 35.5316963], [136.5288238, 35.5320183], [136.5284222, 35.5323742], [136.528311, 35.5324586], [136.5280666, 35.5326439], [136.5274709, 35.5329254], [136.5268925, 35.5331422], [136.5263174, 35.5333432], [136.5258695, 35.5335782], [136.5256198, 35.5337215], [136.5248423, 35.5344761], [136.5178792, 35.5420858], [136.5122242, 35.548357], [136.5111151, 35.5500845], [136.5109206, 35.5504633], [136.5108371, 35.5505826], [136.5106329, 35.550968], [136.5103685, 35.5515133], [136.5101918, 35.5518735], [136.5101537, 35.5519512], [136.5099791, 35.5523112], [136.5098889, 35.5526674], [136.509813, 35.553023], [136.5096872, 35.5532038], [136.5095011, 35.5533899], [136.5094394, 35.5534358], [136.5092854, 35.5535506], [136.5089723, 35.5537494], [136.5088544, 35.553846], [136.5086677, 35.553999], [136.5083664, 35.5543356], [136.5082538, 35.5544693], [136.5079318, 35.5548255], [136.5074664, 35.5553273], [136.5070305, 35.5557716], [136.5067142, 35.5560964], [136.5065926, 35.5562153], [136.5065499, 35.5562588], [136.5063635, 35.5564727], [136.5062693, 35.5565645], [136.5061441, 35.5566688], [136.5059596, 35.556802], [136.5055585, 35.5570406], [136.5052074, 35.5572851], [136.5048314, 35.5576433], [136.5043857, 35.5580973], [136.503951, 35.5585127], [136.5034899, 35.5590076], [136.5029682, 35.5594316], [136.5029485, 35.5594476], [136.5027763, 35.5595858], [136.5025675, 35.5597534], [136.5023967, 35.5599497], [136.5022937, 35.5600714], [136.5021741, 35.5602126], [136.5020495, 35.5603498], [136.501952, 35.560443], [136.501833, 35.5605449], [136.5016755, 35.5606527], [136.5012386, 35.5609313], [136.5010057, 35.5610845], [136.5005127, 35.5614013], [136.5004217, 35.5614643], [136.499467, 35.5620745], [136.4979942, 35.5630722], [136.497193, 35.5636288], [136.4968228, 35.5639002], [136.4957592, 35.564665], [136.4953711, 35.5649551], [136.4947804, 35.5653644], [136.4933082, 35.5664476], [136.4919673, 35.5674184], [136.4904416, 35.5684565], [136.4901461, 35.5686857], [136.4899686, 35.5688617], [136.4898393, 35.5690169], [136.4897126, 35.5691955], [136.4895494, 35.5693607], [136.4893892, 35.569486], [136.4892094, 35.5695526], [136.4889566, 35.5696588], [136.4886408, 35.5697546], [136.488294, 35.5699365], [136.4878836, 35.5700719], [136.487486, 35.5700846], [136.4868811, 35.5701227], [136.4863142, 35.5701776], [136.4860808, 35.570256], [136.4859177, 35.5703573], [136.4858026, 35.5704455], [136.4856668, 35.5705306], [136.4849401, 35.5710365], [136.4848562, 35.5710886], [136.4846414, 35.571222], [136.4843405, 35.5713844], [136.4834358, 35.5718245], [136.4831703, 35.5719697], [136.4828587, 35.5721825], [136.4825416, 35.5724418], [136.4823304, 35.5726255], [136.4818788, 35.5729993], [136.4817771, 35.5730851], [136.4815741, 35.5732254], [136.4810222, 35.5736041], [136.4808742, 35.5737164], [136.4806356, 35.5738974], [136.4805353, 35.5739735], [136.4799809, 35.5742928], [136.4794513, 35.5744576], [136.4778083, 35.5748657], [136.4776103, 35.5749183], [136.4736206, 35.5759384], [136.4717774, 35.5764032], [136.4716034, 35.5764522], [136.4706882, 35.5766991], [136.4698988, 35.5769151], [136.4691467, 35.577089], [136.4682589, 35.5773145], [136.467878, 35.5773703], [136.4674757, 35.5773226], [136.4660778, 35.5770152], [136.4658325, 35.5769613], [136.4657723, 35.5769497], [136.4654505, 35.576889], [136.464616, 35.5767163], [136.4643276, 35.5766474], [136.4639766, 35.5766035], [136.4629253, 35.5765103], [136.4623754, 35.5764807], [136.4618974, 35.5765314], [136.4614282, 35.5767068], [136.4612518, 35.5768033], [136.4610885, 35.5769033], [136.4609259, 35.5770313], [136.4607313, 35.577236], [136.4603363, 35.5777685], [136.460232, 35.5779325], [136.4601582, 35.578093], [136.4601069, 35.5782966], [136.4600656, 35.5785867], [136.460059, 35.5788142], [136.4600505, 35.5795659], [136.460054, 35.5798719], [136.4600273, 35.5801542], [136.4599233, 35.5804586], [136.4594682, 35.5811062], [136.459365, 35.5812741], [136.4592855, 35.5814599], [136.4591143, 35.5819349], [136.4588388, 35.5828613], [136.4587797, 35.5830486], [136.4587355, 35.5831904], [136.4587025, 35.5833484], [136.4586021, 35.583705], [136.458483, 35.5845535], [136.458474, 35.5850865], [136.4584591, 35.5853383], [136.4584346, 35.5855402], [136.4584316, 35.5856332], [136.458347, 35.5858861], [136.458237, 35.5862147], [136.4581231, 35.5864542], [136.458014, 35.5866036], [136.4578202, 35.586906], [136.4577328, 35.5870698], [136.4575672, 35.5873799], [136.457503, 35.5875425], [136.4574339, 35.5878053], [136.4573725, 35.588069], [136.4573513, 35.5883664], [136.4573301, 35.5884581], [136.4571214, 35.5898378], [136.4570814, 35.5900816], [136.4570324, 35.5903155], [136.4569535, 35.5905058], [136.456878, 35.5906718], [136.4567649, 35.5908671], [136.456587, 35.591063], [136.4564154, 35.5912423], [136.4563141, 35.5913829], [136.4562603, 35.591508], [136.4562377, 35.5916355], [136.4562438, 35.5917631], [136.4562663, 35.5919019], [136.4563092, 35.5920265], [136.4563637, 35.5921394], [136.456459, 35.5922649], [136.4566361, 35.5924516], [136.4573198, 35.5932731], [136.457546, 35.593514], [136.4577257, 35.5937423], [136.457918, 35.5939965], [136.4580877, 35.5942064], [136.4582608, 35.5944007], [136.4584414, 35.5945752], [136.4585533, 35.5946745], [136.4586863, 35.594752], [136.4589871, 35.5948848], [136.4588015, 35.5951425], [136.4575725, 35.5968586], [136.4575157, 35.5969427], [136.4575231, 35.5970415], [136.4575291, 35.5971399], [136.457558, 35.5972427], [136.4575989, 35.5972938], [136.4576603, 35.5973294], [136.4577302, 35.5973449], [136.4578134, 35.5973447], [136.4579566, 35.5973322], [136.4580796, 35.5973408], [136.4581713, 35.5973739], [136.4585349, 35.5975369], [136.4586883, 35.5976313], [136.4588696, 35.5977767], [136.4590343, 35.5978831], [136.4592187, 35.5979732], [136.4595659, 35.5980996], [136.4599396, 35.5981958], [136.4603464, 35.598291], [136.4605641, 35.5983433], [136.4606709, 35.5983802], [136.4607667, 35.5984334], [136.4608189, 35.5984922], [136.4608355, 35.5985627], [136.460827, 35.5986234], [136.4607841, 35.5986942], [136.460719, 35.5987506], [136.4605473, 35.5988524], [136.4601111, 35.598995], [136.4599907, 35.599051], [136.4598919, 35.5991412], [136.4596511, 35.5994824], [136.4594324, 35.5997588], [136.4593232, 35.5998879], [136.4592371, 35.6000124], [136.4592209, 35.6000875], [136.4592334, 35.6001502], [136.4592773, 35.6002101], [136.4593075, 35.6002774], [136.4593083, 35.6003516], [136.4592759, 35.6004117], [136.4592127, 35.6004533], [136.4587738, 35.6006581], [136.4586655, 35.6007385], [136.458591, 35.6008664], [136.4584894, 35.6011833], [136.4584351, 35.6013535], [136.4583877, 35.6014406], [136.4583631, 35.6015303], [136.4583696, 35.6015994], [136.4584515, 35.6017678], [136.4585031, 35.601895], [136.4585656, 35.6024887], [136.458585, 35.6029034], [136.458538, 35.6029752], [136.4584148, 35.6030552], [136.4582231, 35.6031124], [136.4580988, 35.6031131], [136.4579948, 35.6030781], [136.4578781, 35.60303], [136.4576613, 35.6029998], [136.4575764, 35.6029476], [136.4572691, 35.6027393], [136.4570863, 35.6026322], [136.4569035, 35.6025525], [136.4567506, 35.6025351], [136.4565842, 35.6025782], [136.4556668, 35.6028403], [136.4554771, 35.602908], [136.4552468, 35.6030251], [136.4545518, 35.6034234], [136.4541935, 35.6035858], [136.4539886, 35.60366], [136.4537298, 35.603685], [136.453377, 35.6036665], [136.4529522, 35.6035832], [136.4527486, 35.6034829], [136.4525484, 35.6033565], [136.4523676, 35.6031794], [136.4522237, 35.6030019], [136.4521406, 35.6028726], [136.4520994, 35.602743], [136.4520796, 35.6025744], [136.4520293, 35.6024126], [136.4519253, 35.6022868], [136.4517648, 35.602159], [136.4516319, 35.6020159], [136.4514196, 35.6017519], [136.4512666, 35.6016284], [136.4510494, 35.601531], [136.4507276, 35.6014357], [136.4504074, 35.6013775], [136.4500988, 35.6013478], [136.4497986, 35.6013538], [136.4495395, 35.6013823], [136.4492951, 35.6014339], [136.4489282, 35.6015383], [136.4485992, 35.6016494], [136.4483039, 35.6017714], [136.447825, 35.6020458], [136.4476393, 35.6021271], [136.447381, 35.602163], [136.4472112, 35.6021395], [136.4470752, 35.6020804], [136.4469204, 35.6019733], [136.4467005, 35.6018128], [136.4465516, 35.6017074], [136.4463179, 35.6016393], [136.4458394, 35.6015309], [136.4455233, 35.6014863], [136.4452004, 35.601472], [136.4450037, 35.6014791], [136.4448239, 35.6015028], [136.4439151, 35.6017182], [136.4437431, 35.6017516], [136.4436067, 35.6017562], [136.4434486, 35.6017323], [136.4433086, 35.6016709], [136.4430461, 35.6014994], [136.4423777, 35.6010095], [136.4420253, 35.6007634], [136.4417778, 35.600678], [136.4414293, 35.6006521], [136.4411873, 35.6006579], [136.4409845, 35.6006921], [136.4407664, 35.6007731], [136.4405945, 35.6008759], [136.4400663, 35.601266], [136.4396061, 35.6015997], [136.4394542, 35.6016801], [136.4393286, 35.6017243], [136.4391775, 35.6017423], [136.4390359, 35.6017174], [136.4389221, 35.6016675], [136.4388276, 35.6015971], [136.4387626, 35.6015092], [136.438713, 35.6014033], [136.4386437, 35.601168], [136.4385945, 35.6009026], [136.4386097, 35.6005637], [136.4385617, 35.600318], [136.4384589, 35.5999932], [136.4381746, 35.599255], [136.4381083, 35.5990591], [136.4381011, 35.5988894], [136.4381331, 35.5987104], [136.4382702, 35.5982778], [136.4383824, 35.5977677], [136.4384003, 35.5976133], [136.4383541, 35.5974569], [136.4382439, 35.5973263], [136.4380859, 35.5972076], [136.4378609, 35.5970519], [136.4377044, 35.596969], [136.4374781, 35.5969166], [136.4370816, 35.5969011], [136.4359764, 35.5969378], [136.4344111, 35.5969903], [136.4342102, 35.5969773], [136.4339987, 35.5969272], [136.4338358, 35.5968163], [136.433748, 35.5966968], [136.4337217, 35.5965687], [136.4337329, 35.5964298], [136.4338145, 35.5963044], [136.4341544, 35.5960012], [136.4343175, 35.5958341], [136.4343814, 35.5956867], [136.4344049, 35.5955542], [136.4343828, 35.5954217], [136.4342788, 35.5951431], [136.434164, 35.5948907], [136.4337609, 35.5942309], [136.4332554, 35.5935359], [136.4330312, 35.5931719], [136.4329571, 35.5930676], [136.432865, 35.5929695], [136.4327891, 35.5929067], [136.4327074, 35.5928629], [136.4325787, 35.5928266], [136.43245, 35.592806], [136.4309626, 35.5926214], [136.4308254, 35.5926082], [136.4306845, 35.5925983], [136.4305323, 35.5925939], [136.4304006, 35.592597], [136.4302783, 35.5926084], [136.4301538, 35.5926248], [136.4300038, 35.5926497], [136.4296681, 35.5927163], [136.4295598, 35.5927423], [136.4294399, 35.5927764], [136.4293283, 35.5928137], [136.4292157, 35.5928532], [136.4291151, 35.5928936], [136.4290257, 35.5929358], [136.4289292, 35.5929875], [136.4288342, 35.593045], [136.4287339, 35.5931106], [136.428615, 35.5931919], [136.4273242, 35.5940738], [136.427184, 35.5941802], [136.4270436, 35.5943018], [136.4269069, 35.5944296], [136.426799, 35.594546], [136.4267153, 35.5946484], [136.4260815, 35.5954892], [136.4259896, 35.5955994], [136.4258833, 35.5957097], [136.4257985, 35.5957854], [136.4256707, 35.5958855], [136.425536, 35.5959766], [136.4254056, 35.5960506], [136.4252791, 35.5961132], [136.4251709, 35.5961597], [136.4250697, 35.5961981], [136.4249446, 35.5962404], [136.4247734, 35.5962848], [136.4245474, 35.5963336], [136.42349, 35.5964528], [136.4229854, 35.596507], [136.4225849, 35.5965671], [136.4223414, 35.5966188], [136.4221061, 35.596681], [136.4213127, 35.5969495], [136.421079, 35.5970352], [136.420927, 35.5971104], [136.4207681, 35.5972112], [136.4206769, 35.5972823], [136.4202909, 35.5977766], [136.420174, 35.5979101], [136.4199972, 35.5980275], [136.4198044, 35.5981299], [136.4196058, 35.5982105], [136.4191675, 35.5983952], [136.4189234, 35.5984825], [136.4183816, 35.5986591], [136.4178747, 35.598814], [136.4176869, 35.5988903], [136.4175099, 35.5989819], [136.4173543, 35.5990822], [136.41721, 35.5991904], [136.4168399, 35.5995023], [136.4166249, 35.5996915], [136.41615, 35.6001421], [136.4158201, 35.6003711], [136.4154634, 35.6005674], [136.4150959, 35.600731], [136.4143992, 35.6009774], [136.414359, 35.6009965], [136.4136937, 35.6013901], [136.4132519, 35.601756], [136.4127812, 35.602082], [136.4124338, 35.6022947], [136.4121146, 35.6024702], [136.4116667, 35.6027232], [136.4113583, 35.6029217], [136.4111893, 35.6029773], [136.4110377, 35.603034], [136.4108835, 35.6030721], [136.4107172, 35.6030994], [136.4105737, 35.6031136], [136.4104597, 35.6031147], [136.4103296, 35.603107], [136.4103229, 35.6031065], [136.409765, 35.6030623], [136.4087136, 35.602974], [136.4084732, 35.6029489], [136.4084266, 35.602944], [136.4080122, 35.6029107], [136.407744, 35.6028955], [136.4074999, 35.6029129], [136.4073567, 35.6029386], [136.40717, 35.6029794], [136.4069393, 35.603058], [136.4055204, 35.603662], [136.4052764, 35.6037362], [136.4052176, 35.6037478], [136.4050993, 35.6037711], [136.4049759, 35.6037863], [136.4048848, 35.6037863], [136.404792, 35.6037834], [136.4047682, 35.6037827], [136.4045508, 35.6037758], [136.4041554, 35.6037633], [136.4039889, 35.603758], [136.4036751, 35.603754], [136.4035584, 35.6037525], [136.4033612, 35.6037499], [136.4028034, 35.6037427], [136.4018539, 35.6037493], [136.4016606, 35.6037461], [136.4006656, 35.6037296], [136.4001614, 35.6036904], [136.3998127, 35.6036577], [136.399338, 35.6035879], [136.3990831, 35.6035443], [136.3982007, 35.6033327], [136.3974416, 35.603143], [136.3973102, 35.6031103], [136.396527, 35.6029009], [136.395953, 35.6027439], [136.3951054, 35.602528], [136.3946774, 35.6024084], [136.3942471, 35.6022881], [136.3939015, 35.6021966], [136.3937777, 35.6021638], [136.3926853, 35.6018607], [136.3920418, 35.6016679], [136.391566, 35.601496], [136.391085, 35.6013047], [136.3905998, 35.6011501], [136.3903123, 35.6010788], [136.3901232, 35.6010581], [136.3899314, 35.6010494], [136.3896605, 35.6010538], [136.3881505, 35.6010712], [136.3869891, 35.6011039], [136.3862058, 35.6011192], [136.3856319, 35.6011214], [136.3850418, 35.6010777], [136.3847735, 35.6010407], [136.3845107, 35.6009949], [136.3841513, 35.600912], [136.3839501, 35.6008498], [136.383757, 35.6007822], [136.3835518, 35.6006906], [136.3833466, 35.6005881], [136.3831414, 35.6004725], [136.3829644, 35.6003526], [136.3828129, 35.6002299], [136.3827183, 35.60014], [136.3826224, 35.6000309], [136.3825648, 35.599941], [136.3825192, 35.5998423], [136.3824293, 35.5996253], [136.3822845, 35.5992643], [136.3822536, 35.5992087], [136.3821477, 35.5990386], [136.3820162, 35.598875], [136.3818741, 35.5987464], [136.3817185, 35.5986308], [136.3814154, 35.5984781], [136.3809407, 35.5982687], [136.37962, 35.5977218], [136.3793206, 35.5975741], [136.3767198, 35.5965002], [136.3764765, 35.596415], [136.3763188, 35.5963597], [136.3762141, 35.5963242], [136.3755717, 35.596085], [136.3754047, 35.5959878], [136.3751644, 35.595901], [136.3743156, 35.5956052], [136.3736546, 35.595436], [136.3734292, 35.5954106], [136.3727186, 35.5953303], [136.3721867, 35.5952852], [136.3719317, 35.5952313], [136.3708159, 35.5950158], [136.3706435, 35.5949993], [136.3701805, 35.5949833], [136.3698347, 35.5949814], [136.3695742, 35.5950358], [136.369323, 35.5951055], [136.3690386, 35.5952898], [136.3688172, 35.5955196], [136.3687453, 35.5957495], [136.3686186, 35.5961694], [136.3684688, 35.5968663], [136.3682021, 35.5978898], [136.3680672, 35.5983503], [136.3678694, 35.5988182], [136.3675313, 35.5991904], [136.3672299, 35.59946], [136.3670843, 35.5997953], [136.3669105, 35.6001194], [136.3664969, 35.6005385], [136.3660773, 35.6009941], [136.3659925, 35.6011622], [136.3659755, 35.601289], [136.3659742, 35.601634], [136.3660956, 35.6029459], [136.3660095, 35.6035959], [136.3655282, 35.6047885], [136.3653772, 35.605187], [136.3653083, 35.6054545], [136.3653203, 35.6058059], [136.3655609, 35.606341], [136.3658177, 35.6068901], [136.3658717, 35.6070753], [136.3658897, 35.6071582], [136.3658956, 35.6072678], [136.3658986, 35.607431], [136.3658134, 35.6076583], [136.365522, 35.6080104], [136.3652806, 35.6082653], [136.3651429, 35.6087459], [136.3651425, 35.6091853], [136.365108, 35.6097551], [136.3650038, 35.6102418], [136.3649332, 35.6103537], [136.36475, 35.6106437], [136.3645604, 35.6108456], [136.3639039, 35.6113522], [136.3631055, 35.6119974], [136.3629397, 35.6121691], [136.3627032, 35.612414], [136.3626102, 35.6125104], [136.3621304, 35.6129245], [136.3620972, 35.6129363], [136.3617366, 35.6130642], [136.3611446, 35.6133833], [136.360195, 35.6137627], [136.3592401, 35.6141944], [136.358929, 35.614286], [136.3586742, 35.6143165], [136.3581735, 35.6143166], [136.3579575, 35.614271], [136.357688, 35.6141875], [136.3574485, 35.6140595], [136.3573473, 35.6140137], [136.3569886, 35.6138139], [136.3565507, 35.613608], [136.3561281, 35.6134984], [136.3555108, 35.613418], [136.3547946, 35.6132913], [136.3541173, 35.6131281], [136.3535959, 35.6128577], [136.3531583, 35.6124532], [136.3525859, 35.6119124], [136.3520893, 35.6114156], [136.3515419, 35.610734], [136.3509533, 35.6102176], [136.3502844, 35.609822], [136.3494389, 35.6093736], [136.3462571, 35.607065], [136.34487, 35.6059653], [136.3432233, 35.6045628], [136.3430063, 35.6044078], [136.3417809, 35.6035327], [136.3413944, 35.6032536], [136.3413368, 35.6032126], [136.3409815, 35.6029998], [136.3389337, 35.6017818], [136.3379766, 35.6012333], [136.337558, 35.601011], [136.3374269, 35.6009381], [136.3371671, 35.6008302], [136.3370751, 35.6007877], [136.3215537, 35.593716], [136.3103708, 35.5883179], [136.3087772, 35.5876567], [136.3079556, 35.5874522], [136.3070935, 35.5872367], [136.3067465, 35.5871763], [136.3063541, 35.5871158], [136.305869, 35.5870932], [136.3053786, 35.587123], [136.3048177, 35.5872447], [136.3041092, 35.587332], [136.3037425, 35.5873355], [136.303101, 35.5872728], [136.3028394, 35.5872327], [136.3023691, 35.5871577], [136.3018525, 35.587086], [136.3015224, 35.5870577], [136.3011866, 35.5870497], [136.3008128, 35.5870995], [136.3006523, 35.5871394], [136.2999513, 35.5873159], [136.2996691, 35.5873639], [136.2993009, 35.5873746], [136.298923, 35.5873075], [136.2985833, 35.5872246], [136.298031, 35.5869406], [136.2961439, 35.5860419], [136.2956269, 35.5858707], [136.295157, 35.5857616], [136.2945205, 35.585605], [136.2941365, 35.5854596], [136.2934484, 35.5850962], [136.2932281, 35.584927], [136.2917991, 35.5838121], [136.2900073, 35.5827468], [136.2889589, 35.5821165], [136.2888918, 35.5820656], [136.2887101, 35.5819244], [136.2883652, 35.581546], [136.2882277, 35.5811928], [136.2881328, 35.5809421], [136.2880458, 35.5807357], [136.2878973, 35.5803698], [136.2878501, 35.5802695], [136.2874045, 35.5792943], [136.2867479, 35.577849], [136.2860738, 35.5766726], [136.2856281, 35.5757409], [136.2854215, 35.5752452], [136.2853045, 35.5748733], [136.2852373, 35.574608], [136.2851792, 35.5742304], [136.2851656, 35.5741069], [136.2851567, 35.5740221], [136.2851442, 35.5739499], [136.2850943, 35.5736593], [136.2849981, 35.5734481], [136.2848019, 35.5730557], [136.2844921, 35.5726942], [136.2837898, 35.5721262], [136.2818005, 35.5713551], [136.2812821, 35.5712629], [136.280797, 35.5712084], [136.2800122, 35.5711708], [136.2794209, 35.5711951], [136.2791032, 35.571222], [136.2786373, 35.5712561], [136.2782888, 35.571272], [136.2781407, 35.5712583], [136.2780314, 35.571231], [136.2774778, 35.5710032], [136.2773744, 35.5709454], [136.2773171, 35.5709004], [136.2767262, 35.5703621], [136.2765031, 35.5701435], [136.2763886, 35.5700259], [136.276245, 35.5697986], [136.2761586, 35.5696842], [136.2760286, 35.5695705], [136.2752184, 35.5691356], [136.2749797, 35.569018], [136.2747061, 35.5689241], [136.2745052, 35.5688641], [136.274283, 35.5688349], [136.2739017, 35.5688452], [136.2734282, 35.5688704], [136.2732118, 35.5689052], [136.2729653, 35.5689786], [136.2727848, 35.5690867], [136.2726344, 35.569224], [136.2725403, 35.5693408], [136.2723133, 35.5698018], [136.2722589, 35.5698783], [136.2721755, 35.5699588], [136.2720086, 35.5700891], [136.2717874, 35.5702619], [136.2716933, 35.5703464], [136.2716214, 35.5704647], [136.2715729, 35.5705658], [136.2714029, 35.5709992], [136.2713321, 35.5712199], [136.2713016, 35.5713189], [136.2712318, 35.5714272], [136.2711742, 35.5715041], [136.271075, 35.5715811], [136.2709748, 35.5716462], [136.2708505, 35.5716933], [136.2707639, 35.5717196], [136.2706725, 35.5717362], [136.2705408, 35.5717376], [136.2700107, 35.5716928], [136.2698739, 35.5716699], [136.2697109, 35.5716241], [136.268989, 35.5712761], [136.2686329, 35.5710725], [136.2682312, 35.5708057], [136.2677509, 35.5704355], [136.267617, 35.5703053], [136.2675297, 35.5701798], [136.2674501, 35.5700346], [136.2674084, 35.5698894], [136.267387, 35.5697149], [136.2673977, 35.5695374], [136.2674355, 35.5693827], [136.2675792, 35.5689873], [136.2676199, 35.5687718], [136.267682, 35.5682485], [136.267681, 35.5680993], [136.2676655, 35.5679746], [136.2676286, 35.5678428], [136.2672987, 35.5671238], [136.267126, 35.5668002], [136.2670115, 35.5666384], [136.2667942, 35.5663961], [136.2666011, 35.5662358], [136.2659781, 35.5657765], [136.2658239, 35.5656794], [136.2656715, 35.5656099], [136.2648671, 35.5654016], [136.2646983, 35.5653337], [136.2645382, 35.5652382], [136.2639599, 35.5647243], [136.2630546, 35.5639011], [136.2624821, 35.5633738], [136.2620222, 35.5629405], [136.2616263, 35.5625608], [136.2615332, 35.5624985], [136.2614313, 35.562459], [136.2613197, 35.5624432], [136.2612023, 35.5624527], [136.2611121, 35.5624677], [136.2609845, 35.5625166], [136.2609679, 35.5625239], [136.2606567, 35.5626711], [136.2606065, 35.5626884], [136.2603753, 35.5627715], [136.2602388, 35.5627858], [136.2600991, 35.5627838], [136.2599462, 35.5627527], [136.2596522, 35.5626703], [136.2595237, 35.5626139], [136.2592544, 35.5624725], [136.2590211, 35.5622767], [136.2588395, 35.5620589], [136.2587057, 35.5618505], [136.2584539, 35.5612391], [136.2582905, 35.5609587], [136.25788, 35.5603251], [136.2578581, 35.5602913], [136.2575242, 35.559842], [136.2571972, 35.5595312], [136.2567097, 35.5591428], [136.256489, 35.5590306], [136.2562222, 35.558895], [136.2556769, 35.5587463], [136.255016, 35.5586141], [136.2547306, 35.558506], [136.254165, 35.5582918], [136.2533702, 35.5579811], [136.2533222, 35.5579613], [136.2525797, 35.5576658], [136.2525125, 35.5576391], [136.2519507, 35.557226], [136.2513444, 35.556566], [136.2512551, 35.5564361], [136.2510914, 35.5561354], [136.2510088, 35.5556727], [136.2510171, 35.555334], [136.2512839, 35.5550086], [136.2514809, 35.5548688], [136.2515804, 35.5548169], [136.2521024, 35.5546591], [136.2523182, 35.5545867], [136.2524667, 35.5545217], [136.2526832, 35.554347], [136.2527956, 35.5541825], [136.2528323, 35.5540023], [136.2528327, 35.5538278], [136.2526603, 35.553218], [136.252617, 35.5530126], [136.2526263, 35.5527869], [136.2526539, 35.5526021], [136.2527686, 35.5522245], [136.2527604, 35.5520622], [136.2526943, 35.5515251], [136.2525962, 35.5510758], [136.2525219, 35.5505732], [136.2524392, 35.5496104], [136.2524144, 35.5490961], [136.2523855, 35.5485004], [136.2525621, 35.5481542], [136.2526071, 35.5480876], [136.2527687, 35.5478485], [136.2530427, 35.5473477], [136.2531007, 35.5470755], [136.2530569, 35.5466609], [136.2529091, 35.5462456], [136.252657, 35.5459741], [136.2521782, 35.5456367], [136.2516615, 35.545312], [136.2514773, 35.5451387], [136.2513933, 35.544982], [136.251368, 35.5448249], [136.2514054, 35.5445932], [136.2514723, 35.5444478], [136.251612, 35.544304], [136.2520647, 35.5441105], [136.2525786, 35.5440561], [136.2528906, 35.5440591], [136.2531459, 35.5440498], [136.2534073, 35.54399], [136.2535999, 35.5439056], [136.253975, 35.5435401], [136.2541379, 35.5431907], [136.2542613, 35.542789], [136.2542641, 35.5425276], [136.2541894, 35.5422335], [136.2541512, 35.542098], [136.2539279, 35.5420814], [136.2536899, 35.5419958], [136.253221, 35.5417987], [136.2529248, 35.5415094], [136.2527654, 35.5412172], [136.2526351, 35.5408367], [136.252445, 35.5402224], [136.2524368, 35.540113], [136.2520829, 35.5394459], [136.2517648, 35.5388344], [136.2516414, 35.5384046], [136.2517154, 35.5381556], [136.2518763, 35.5378347], [136.2520994, 35.5372894], [136.2521153, 35.5367577], [136.2520708, 35.5362074], [136.2521794, 35.5356732], [136.2523857, 35.5353905], [136.2527084, 35.5347723], [136.25291, 35.5341307], [136.2528557, 35.5336647], [136.2527323, 35.5333393], [136.252525, 35.5329416], [136.2524342, 35.5327333], [136.2522387, 35.5323551], [136.251982, 35.5319293], [136.2515823, 35.5314945], [136.2512121, 35.5311772], [136.2508552, 35.5308996], [136.2504057, 35.5306749], [136.2499034, 35.5304039], [136.2496456, 35.5300139], [136.2496654, 35.5296834], [136.2498968, 35.5293463], [136.2501083, 35.5290357], [136.2504322, 35.528573], [136.2506833, 35.5280574], [136.250933, 35.5270029], [136.2510915, 35.5265265], [136.2513575, 35.5260282], [136.2514005, 35.5257324], [136.2513267, 35.5253774], [136.2512664, 35.5250613], [136.2512262, 35.5246253], [136.2512329, 35.5241784], [136.2513097, 35.523708], [136.2514025, 35.5234318], [136.2516025, 35.5230138], [136.2518063, 35.5227108], [136.2525036, 35.5215208], [136.2527682, 35.5209423], [136.2529147, 35.5204341], [136.2529833, 35.5199317], [136.2533265, 35.5172337], [136.253364, 35.5167804], [136.2533929, 35.5164096], [136.2533483, 35.5159884], [136.2532777, 35.5156862], [136.2531321, 35.515314], [136.252937, 35.5149606], [136.2526893, 35.514679], [136.2523933, 35.5143669], [136.2520191, 35.5141337], [136.2517462, 35.5139691], [136.2513821, 35.5137958], [136.2509135, 35.5136762], [136.2496824, 35.51347], [136.2494465, 35.5133735], [136.2491413, 35.5131671], [136.248381, 35.5126091], [136.247986, 35.5123066], [136.2474796, 35.5119244], [136.2470093, 35.51161], [136.2465544, 35.5113541], [136.2461445, 35.511165], [136.24543, 35.510901], [136.2449682, 35.5107438], [136.2442731, 35.510471], [136.2437955, 35.510244], [136.2433737, 35.509984], [136.2429929, 35.5097031], [136.2426721, 35.5093947], [136.2424455, 35.5091312], [136.2416247, 35.5081459], [136.2411264, 35.5075502], [136.2406714, 35.5069899], [136.2404685, 35.5067519], [136.2402209, 35.5064968], [136.2399852, 35.5062757], [136.2397146, 35.5060532], [136.2394149, 35.505838], [136.2391185, 35.5056384], [136.2387785, 35.5054599], [136.2384477, 35.5053169], [136.2381385, 35.5052041], [136.2371124, 35.5049062], [136.2368975, 35.5048379], [136.2366931, 35.5047601], [136.2364904, 35.5046645], [136.2363003, 35.5045587], [136.2343815, 35.5032641], [136.2341572, 35.5031044], [136.2340029, 35.5029759], [136.2338667, 35.502838], [136.2337572, 35.5026907], [136.2336743, 35.5025492], [136.2336115, 35.5024062], [136.2335665, 35.5022432], [136.2334723, 35.5013475], [136.2333868, 35.5006149], [136.2333508, 35.5004279], [136.2333009, 35.5002802], [136.2332322, 35.5001314], [136.2331324, 35.4999775], [136.233025, 35.4998484], [136.2328831, 35.4997182], [136.2327356, 35.4996102], [136.2325542, 35.4995061], [136.2323388, 35.4994056], [136.2320999, 35.4993003], [136.2309404, 35.4989683], [136.2298966, 35.4986709], [136.2297696, 35.498641], [136.2286411, 35.4983216], [136.2285685, 35.4983019], [136.2284735, 35.4982716], [136.2249617, 35.4972679], [136.2239128, 35.4969796], [136.223802, 35.4969368], [136.2236906, 35.4968706], [136.2235635, 35.4967417], [136.2235112, 35.4966446], [136.2234829, 35.496545], [136.2234762, 35.4964603], [136.2234933, 35.4963523], [136.22352, 35.4962576], [136.2235621, 35.4961969], [136.2236125, 35.4961411], [136.2236536, 35.4960958], [136.2237411, 35.4960371], [136.2238411, 35.49598], [136.223941, 35.4959544], [136.2241123, 35.4959302], [136.2242773, 35.49593], [136.2243225, 35.4959385], [136.2245339, 35.4959879], [136.2244821, 35.4961082], [136.2242567, 35.4966183], [136.2236404, 35.4980165], [136.2233422, 35.4987718], [136.2233221, 35.4988228], [136.223271, 35.4989522], [136.2232501, 35.4989999], [136.2232263, 35.4990542], [136.2230105, 35.4995467], [136.2225015, 35.5007281], [136.222481, 35.5007756], [136.2224609, 35.5008222], [136.2224502, 35.500847], [136.2223581, 35.501059], [136.2223184, 35.5011404], [136.2222911, 35.5012056], [136.2216584, 35.5027165], [136.2216118, 35.5028093], [136.22113, 35.5039077], [136.2209754, 35.5042602], [136.2209486, 35.5043212], [136.2208507, 35.5044121], [136.220705, 35.5043691], [136.2206405, 35.5043531], [136.2201465, 35.5042305], [136.2198333, 35.5041528], [136.2197552, 35.5041334], [136.2196406, 35.5041027], [136.2195237, 35.5040727], [136.2194571, 35.5040533], [136.2193797, 35.5040307], [136.2172746, 35.5034172], [136.2171688, 35.5033864], [136.2166327, 35.5032492], [136.2162259, 35.5031277], [136.2158692, 35.5030212], [136.2153926, 35.5028864], [136.2152282, 35.5028399], [136.2148689, 35.5027354], [136.2144302, 35.5026204], [136.2140056, 35.5025088], [136.210595, 35.5015295], [136.2105205, 35.5015081], [136.2103913, 35.501471], [136.2102842, 35.5014412], [136.2102129, 35.5014213], [136.2100402, 35.5013732], [136.2094525, 35.5012096], [136.208115, 35.50082], [136.2073522, 35.500608], [136.206913, 35.5004836], [136.2068592, 35.5004676], [136.2067085, 35.5004242], [136.2065905, 35.5003909], [136.2064816, 35.5003611], [136.2060394, 35.5002333], [136.2056936, 35.5001292], [136.2047601, 35.4998691], [136.2043805, 35.4997691], [136.2039734, 35.4996826], [136.2034798, 35.4996189], [136.2027301, 35.4995365], [136.2020994, 35.4994908], [136.2014524, 35.4994802], [136.1990863, 35.4994937], [136.1986459, 35.4994925], [136.1890873, 35.4995783], [136.1888437, 35.4995778], [136.1887149, 35.4995887], [136.1885383, 35.4996174], [136.1883349, 35.499672], [136.1881508, 35.499752], [136.1879771, 35.4998483], [136.1878201, 35.4999548], [136.1876856, 35.5000812], [136.1875743, 35.5002079], [136.1874828, 35.5003584], [136.1868165, 35.5016237], [136.186679, 35.5018343], [136.1865881, 35.5019647], [136.186477, 35.5020954], [136.1863731, 35.502208], [136.186209, 35.5023495], [136.1859573, 35.5025279], [136.1857757, 35.5026459], [136.1853467, 35.5029237], [136.1848282, 35.5031803], [136.1847057, 35.5032502], [136.1846703, 35.5032704], [136.1845704, 35.5033274], [136.1842265, 35.5035447], [136.1835354, 35.5039982], [136.1829544, 35.5044467], [136.1829193, 35.5044738], [136.1828323, 35.504541], [136.182743, 35.504641], [136.1826667, 35.5047266], [136.1825457, 35.5048881], [136.1824751, 35.5049932], [136.1822195, 35.5054215], [136.1820158, 35.5058049], [136.1819565, 35.5059165], [136.1812072, 35.506962], [136.1794822, 35.5085644], [136.1745926, 35.5121972], [136.1726435, 35.5135642], [136.1723769, 35.5137538], [136.1720065, 35.514011], [136.1714793, 35.5143863], [136.1710703, 35.5145985], [136.1708057, 35.5146892], [136.1705373, 35.5147596], [136.1702797, 35.5147958], [136.1700765, 35.5148175], [136.1697582, 35.5148177], [136.1694137, 35.5147931], [136.1690567, 35.5147201], [136.1686462, 35.5145934], [136.1683016, 35.514493], [136.1681082, 35.5144205], [136.1677472, 35.5143226], [136.1673508, 35.5142649], [136.1669332, 35.5142649], [136.1667437, 35.514271], [136.1665647, 35.5142914], [136.1663186, 35.5143532], [136.1660828, 35.5144196], [136.1658431, 35.5145012], [136.1656018, 35.5146324], [136.1654201, 35.5147438], [136.1651775, 35.5149494], [136.1650332, 35.5151259], [136.1649877, 35.5151914], [136.1648636, 35.5154412], [136.16482, 35.5155702], [136.1647647, 35.5157338], [136.1646514, 35.5160689], [136.1646292, 35.5161432], [136.1646044, 35.5162445], [136.1645648, 35.5163872], [136.1645257, 35.5165293], [136.1643802, 35.5170373], [136.1641306, 35.5179746], [136.1640923, 35.5181185], [136.1640659, 35.5182214], [136.1640427, 35.5183115], [136.1637352, 35.5195088], [136.1636057, 35.5200014], [136.1634218, 35.5205982], [136.1633116, 35.5210444], [136.1632354, 35.5213594], [136.1631288, 35.5218612], [136.1630839, 35.5220041], [136.1630069, 35.5221828], [136.1628378, 35.5225289], [136.1627041, 35.5227154], [136.162582, 35.5228486], [136.1624744, 35.5229622], [136.1622298, 35.5231944], [136.1617184, 35.5235952], [136.1616371, 35.5236589], [136.1615036, 35.5237636], [136.1614269, 35.5237335], [136.1613085, 35.523687], [136.160447, 35.523375], [136.1602247, 35.5232861], [136.1588, 35.5227466], [136.1577137, 35.5223254], [136.1571767, 35.5219247], [136.1566386, 35.5214695], [136.1560806, 35.5209959], [136.1545835, 35.5199043], [136.1539986, 35.5194681], [136.1534505, 35.5189002], [136.1524512, 35.5177762], [136.1516244, 35.5168502], [136.151188, 35.5163386], [136.1508192, 35.5158011], [136.150517, 35.5152412], [136.1503079, 35.5146651], [136.1501867, 35.5142654], [136.150133, 35.5140885], [136.150099, 35.5139305], [136.1498088, 35.51299], [136.1496292, 35.5126136], [136.1487787, 35.5118923], [136.1462943, 35.5095866], [136.1437365, 35.5073336], [136.1425015, 35.5062514], [136.1420887, 35.5058118], [136.1419986, 35.5057619]], [[136.150133, 35.5140885], [136.1499274, 35.5136871], [136.1496578, 35.5133214], [136.1493415, 35.5130015], [136.1436346, 35.507618], [136.1435695, 35.5075396], [136.1423689, 35.5062779], [136.1420082, 35.5058532], [136.1419986, 35.5057619], [136.1417975, 35.505467], [136.1415449, 35.5051742], [136.1412621, 35.5049688], [136.1409233, 35.5047787], [136.1405151, 35.504623], [136.140194, 35.5045432], [136.1398403, 35.5045166], [136.139258, 35.5045237], [136.1388899, 35.5045119], [136.138614, 35.5044632], [136.1383847, 35.5044107], [136.1381218, 35.5043057], [136.1377621, 35.5041388], [136.1352359, 35.5029676], [136.1350754, 35.502907], [136.1349239, 35.5028403], [136.1346355, 35.5027558], [136.1344496, 35.5027168], [136.134164, 35.5026771], [136.1339447, 35.5026667], [136.133716, 35.502679], [136.1335025, 35.5027036], [136.1331665, 35.5027616], [136.1327803, 35.5028899], [136.1326084, 35.5029546], [136.1323754, 35.5030386], [136.1320134, 35.503174], [136.1312626, 35.503455], [136.1309384, 35.5035763], [136.130008, 35.5039135], [136.1294851, 35.504103], [136.1291577, 35.5042252], [136.1288423, 35.5043308], [136.1286117, 35.5043967], [136.1283392, 35.5044595], [136.1280752, 35.5044941], [136.1277277, 35.5045205], [136.1275232, 35.5045141], [136.127225, 35.5044961], [136.1267385, 35.5044192], [136.1259275, 35.5041915], [136.1244899, 35.5037765], [136.1241035, 35.5036751], [136.1239699, 35.5036401], [136.1236217, 35.5035868], [136.1232165, 35.5035669], [136.1231791, 35.5035648], [136.1225855, 35.5035758], [136.1218721, 35.5035939], [136.1205477, 35.5036179], [136.1190612, 35.5036551], [136.11825, 35.5036663], [136.1177603, 35.5036403], [136.1170017, 35.5035233], [136.1162706, 35.5033337], [136.1149801, 35.5029555], [136.113145, 35.5024153], [136.1110943, 35.5018219], [136.1106886, 35.5016688], [136.1102468, 35.501431], [136.109945, 35.501199], [136.1098834, 35.5011402], [136.1097488, 35.5010326], [136.1092365, 35.5004208], [136.1084966, 35.4994247], [136.1077994, 35.4986279], [136.1071306, 35.4979022], [136.1062635, 35.4972716], [136.1051296, 35.4966491], [136.103163, 35.496327], [136.0992567, 35.4963196], [136.0958227, 35.4961865], [136.0930029, 35.4963809], [136.092905, 35.4963953], [136.0928394, 35.49641], [136.0927756, 35.4964248], [136.0927215, 35.4964404], [136.0926711, 35.4964561], [136.0926148, 35.4964727], [136.0919014, 35.4966738], [136.0918113, 35.4967009], [136.0915027, 35.4968149], [136.09108, 35.4969782], [136.0906556, 35.4971631], [136.0905572, 35.4972017], [136.0904493, 35.4972345], [136.0903367, 35.4972614], [136.0902168, 35.4972824], [136.0901358, 35.4972968], [136.0900404, 35.4973092], [136.0899605, 35.4973142], [136.0898591, 35.4973153], [136.0897142, 35.4973037], [136.0895693, 35.497292], [136.0893169, 35.4972711], [136.0890452, 35.4972343], [136.0884733, 35.497112], [136.0884477, 35.4968712], [136.0883908, 35.496589], [136.0881691, 35.4957287], [136.0881553, 35.4956845], [136.0879584, 35.4950723], [136.0878567, 35.4947524], [136.0873783, 35.49361], [136.0871318, 35.4930982], [136.087096, 35.4930265], [136.0865874, 35.4920087], [136.0863621, 35.491542], [136.0863387, 35.491504], [136.0851424, 35.4890503], [136.0844693, 35.4876551], [136.0843027, 35.4872929], [136.0835997, 35.4858576], [136.0835263, 35.4856706], [136.0830961, 35.4846427], [136.0824952, 35.4832074], [136.0823733, 35.4829111], [136.0823314, 35.4827762], [136.0823016, 35.4826569], [136.0822779, 35.4825325], [136.0822577, 35.4822879], [136.0822553, 35.4819451], [136.0822865, 35.481689], [136.0823447, 35.4814356], [136.0826823, 35.480444], [136.0827496, 35.4801959], [136.0827966, 35.4799424], [136.0828333, 35.4796197], [136.0828304, 35.4792401], [136.0828109, 35.4788771], [136.0827769, 35.4786211], [136.082698, 35.478305], [136.082603, 35.478002], [136.0814299, 35.4748971], [136.0812338, 35.474395], [136.0811066, 35.4739784], [136.0809493, 35.4733457], [136.0808789, 35.4730994], [136.0807744, 35.4728669], [136.0806434, 35.4726161], [136.0804699, 35.4724017], [136.0803029, 35.4722151], [136.0800827, 35.4720267], [136.0798389, 35.4718442], [136.0793134, 35.4715139], [136.0790424, 35.4713418], [136.0787926, 35.4711367], [136.0785509, 35.4708929], [136.0783432, 35.4706283], [136.0782265, 35.4704214], [136.07814, 35.4702262], [136.0781068, 35.4700554], [136.0781021, 35.4698958], [136.0781507, 35.4697188], [136.0782747, 35.4694829], [136.078393, 35.4692789], [136.0784606, 35.4691204], [136.0784918, 35.4689597], [136.0784893, 35.4687647], [136.0784467, 35.4686188], [136.0783855, 35.4684854], [136.0782673, 35.4683333], [136.0780646, 35.4681428], [136.0778291, 35.4679336], [136.0778086, 35.4679066], [136.0776889, 35.4678183], [136.0774464, 35.4676748], [136.0773463, 35.4676145], [136.0769593, 35.4673817], [136.075708, 35.4666783], [136.0756, 35.4666196], [136.0752514, 35.4664744], [136.0746263, 35.466261], [136.0740405, 35.4660657], [136.0738257, 35.4659941], [136.0730099, 35.4657501], [136.0727916, 35.4656755], [136.0718968, 35.4653689], [136.0715605, 35.4652543], [136.0712878, 35.4651526], [136.0712182, 35.4651249], [136.070768, 35.4649068], [136.0706159, 35.4648429], [136.0698916, 35.4644388], [136.0694189, 35.4641033], [136.068893, 35.4636996], [136.0684582, 35.4633485], [136.067415, 35.4625108], [136.0666818, 35.4619075], [136.0666206, 35.4618706], [136.0665067, 35.4618296], [136.0663971, 35.4618043], [136.0662903, 35.4617938], [136.0661784, 35.461789], [136.0636992, 35.4619563], [136.0626616, 35.4620292], [136.0623565, 35.4620476], [136.0603872, 35.4621759], [136.0588868, 35.4622735], [136.0576564, 35.4623404], [136.0575971, 35.4623436], [136.057353, 35.4623565], [136.0573441, 35.4623575], [136.0567367, 35.4624025], [136.0551151, 35.462489], [136.0538276, 35.4625351], [136.0527987, 35.4625674], [136.0526294, 35.4625494], [136.051982, 35.4624813], [136.0511957, 35.4623548], [136.0506828, 35.4622637], [136.0501698, 35.4621564], [136.0494456, 35.4619555], [136.0491923, 35.4618713], [136.0487244, 35.4616804], [136.0484859, 35.4615556], [136.0482261, 35.4614141], [136.0479083, 35.4612233], [136.0476913, 35.4610633], [136.0473875, 35.4608188], [136.0470828, 35.4605063], [136.0468974, 35.4602945], [136.0467045, 35.4600642], [136.0465758, 35.4598683], [136.04647, 35.4596911], [136.0463021, 35.4593906], [136.046133, 35.4590575], [136.0460117, 35.458768], [136.0457863, 35.4582765], [136.0456508, 35.4579783], [136.0455359, 35.4577478], [136.0452645, 35.4572984], [136.045136, 35.457144], [136.044826, 35.456783], [136.044518, 35.456488], [136.044427, 35.456402], [136.044207, 35.456227], [136.043932, 35.456027], [136.043875, 35.455985], [136.043435, 35.455737], [136.042922, 35.45552], [136.042084, 35.4552666], [136.0413969, 35.4551386], [136.0411108, 35.4551079], [136.0407924, 35.4550859], [136.0403382, 35.4550594], [136.03936, 35.4551188], [136.0387435, 35.455156], [136.0384751, 35.45516], [136.0378406, 35.4551423], [136.037189, 35.4551125], [136.03676, 35.4550676], [136.0360975, 35.4549758], [136.0352982, 35.4548709], [136.0345713, 35.4546808], [136.0334261, 35.4542177], [136.0329696, 35.4539529], [136.0325148, 35.4536227], [136.0322016, 35.4533314], [136.0319427, 35.4530613], [136.0317374, 35.4528072], [136.0315822, 35.452594], [136.0314788, 35.4524399], [136.0313879, 35.4522782], [136.0313095, 35.4521241], [136.0312436, 35.45197], [136.0311765, 35.451812], [136.0311281, 35.451654], [136.031073, 35.4514294], [136.0310272, 35.4511868], [136.0309939, 35.4507707], [136.030956, 35.4503987], [136.0309423, 35.4501433], [136.03092, 35.449246], [136.0309, 35.44813], [136.030872, 35.44764], [136.030831, 35.447121], [136.030762, 35.44671], [136.030679, 35.446354], [136.0305168, 35.4457554], [136.0304522, 35.4455383], [136.0303919, 35.4453413], [136.0303117, 35.4451361], [136.0301577, 35.4447408], [136.030163, 35.4447441], [136.0300365, 35.444489], [136.0298404, 35.4441327], [136.029612, 35.443773], [136.0291366, 35.4430786], [136.0288032, 35.4426846], [136.0283477, 35.4422089], [136.0277375, 35.441631], [136.0269978, 35.4410521], [136.026834, 35.4409388], [136.026643, 35.4408248], [136.0260715, 35.440472], [136.0234141, 35.4390168], [136.0203972, 35.4373652], [136.0196904, 35.4369867], [136.0191577, 35.4366895], [136.0186284, 35.436397], [136.0180242, 35.4360231], [136.0176514, 35.4357324], [136.0173289, 35.4353931], [136.0171913, 35.4352321], [136.0170087, 35.4350048], [136.0168438, 35.4347792], [136.0167824, 35.43468], [136.0167184, 35.4345764], [136.0166058, 35.4343538], [136.0165227, 35.4341768], [136.0164748, 35.4340412], [136.0164215, 35.4339012], [136.0163597, 35.4337085], [136.0163056, 35.4334881], [136.0162605, 35.433258], [136.0162201, 35.4329509], [136.0162097, 35.4322386], [136.0162387, 35.4295087], [136.0162459, 35.4292528], [136.0162914, 35.4280348], [136.0163277, 35.4275824], [136.0163792, 35.4271914], [136.0164119, 35.4270196], [136.0165602, 35.4265295], [136.0167395, 35.4260452], [136.016855, 35.4258093], [136.0169804, 35.425567], [136.0171586, 35.4252805], [136.0173959, 35.42492], [136.0175803, 35.4246685], [136.0177779, 35.4244078], [136.0188577, 35.4229092], [136.0193171, 35.4223377], [136.0196964, 35.4218026], [136.0200265, 35.4212569], [136.0203265, 35.4207969], [136.0205083, 35.4204442], [136.0206766, 35.4201306], [136.0208062, 35.41985], [136.0208971, 35.419622], [136.0209802, 35.4193119], [136.0210581, 35.4189482], [136.0211167, 35.4184807], [136.0211363, 35.4183322], [136.0212486, 35.4174126], [136.0212823, 35.4171324], [136.021419, 35.4154269], [136.021429, 35.4152771], [136.021467, 35.4145978], [136.0215211, 35.4138009], [136.021586, 35.4130429], [136.0216376, 35.4126587], [136.0216414, 35.4125607], [136.0216519, 35.4123736], [136.0216905, 35.4118837], [136.0217168, 35.4116062], [136.0217346, 35.4111639], [136.0217511, 35.4106481], [136.0217969, 35.4099519], [136.0218921, 35.4095061], [136.0219509, 35.4091453], [136.0221965, 35.4077099], [136.0216923, 35.4076444]], [[136.0217511, 35.4106481], [136.0217127, 35.4102411], [136.0216955, 35.409808], [136.0216916, 35.4094987], [136.0216955, 35.4091394], [136.021696, 35.4086748], [136.0216923, 35.4076444], [136.0214612, 35.4076114], [136.0205418, 35.4074696], [136.0202859, 35.407446], [136.0201242, 35.4074311], [136.0191588, 35.4074232], [136.01891, 35.4073881], [136.0176434, 35.4073395], [136.0171379, 35.4073212], [136.0159661, 35.4072786], [136.0147232, 35.4072454], [136.0134755, 35.4071994], [136.0122845, 35.4071538], [136.0112959, 35.4071724], [136.0081692, 35.4072179], [136.0069144, 35.4072555], [136.006138, 35.4072591], [136.0055824, 35.4072712], [136.0038603, 35.4072855], [136.0037144, 35.4072903], [136.0024374, 35.4072236], [136.001163, 35.4071861], [136.000548, 35.407168], [135.9984965, 35.407093], [135.9983921, 35.4070892], [135.9970156, 35.4070303], [135.9963994, 35.4071254], [135.9961338, 35.4071819], [135.9950863, 35.4074076], [135.9945883, 35.4075293], [135.9938799, 35.4077025], [135.9933155, 35.4078528], [135.9932311, 35.4078704], [135.9922971, 35.4080909], [135.9916967, 35.4082147], [135.9915968, 35.4082255], [135.9913339, 35.4082538], [135.9910773, 35.4082815], [135.9910044, 35.4082887], [135.9899278, 35.4083943], [135.9893046, 35.4084625], [135.9888281, 35.408453], [135.9883135, 35.4083768], [135.9880838, 35.4083309], [135.9869697, 35.408129], [135.9862931, 35.4079479], [135.9855592, 35.4076429], [135.9851208, 35.4074142], [135.9849328, 35.4072797], [135.9847923, 35.407121], [135.9846845, 35.4069711], [135.9839474, 35.4058939], [135.9837904, 35.4057206], [135.9836218, 35.4055636], [135.9834754, 35.4054602], [135.9832904, 35.405351], [135.9830668, 35.4052618], [135.9815832, 35.404783], [135.981345, 35.4047133], [135.9812565, 35.4046891], [135.9806197, 35.4045514], [135.9803754, 35.4044807], [135.9801873, 35.4044203], [135.9799497, 35.4043302], [135.97973, 35.4042141], [135.9794782, 35.404065], [135.9786381, 35.403466], [135.9783722, 35.4032713], [135.9778519, 35.4028904], [135.9772861, 35.4025339], [135.9765319, 35.4021297], [135.9762854, 35.4020017], [135.9760705, 35.4019389], [135.9758806, 35.4019208], [135.9756854, 35.4019198], [135.9753162, 35.4019609], [135.9750996, 35.4019614], [135.974792, 35.4019003], [135.9743369, 35.4017963], [135.9739689, 35.4016751], [135.9735218, 35.4014874], [135.9732181, 35.4013338], [135.9721102, 35.4006887], [135.9714563, 35.4003432], [135.971025, 35.4001432], [135.9670262, 35.398478], [135.9666733, 35.3983605], [135.966286, 35.3982359], [135.965461, 35.3980147], [135.961836, 35.3970799], [135.9614568, 35.3970154], [135.9610299, 35.3970136], [135.9606242, 35.3970465], [135.9601377, 35.3971144], [135.9593413, 35.3972394], [135.9589213, 35.3973396], [135.9585097, 35.3974719], [135.9581799, 35.3976203], [135.9578666, 35.397807], [135.9576165, 35.3980009], [135.9573991, 35.3982195], [135.9572536, 35.3984017], [135.9570923, 35.3986421], [135.9567348, 35.3993474], [135.9566094, 35.3995951], [135.9560296, 35.4007529], [135.9547844, 35.4029885], [135.9547185, 35.4030942], [135.9541222, 35.4039504], [135.9537932, 35.4043752], [135.9534485, 35.4047652], [135.9530825, 35.4051378], [135.9528152, 35.4053311], [135.9524919, 35.4054949], [135.9520989, 35.4056048], [135.9515967, 35.4057213], [135.9513782, 35.4057493], [135.9511132, 35.4057161], [135.9508377, 35.4056917], [135.9506566, 35.4057071], [135.9498588, 35.4058635], [135.9496381, 35.4059352], [135.9494636, 35.4060169], [135.9493009, 35.4061237], [135.949147, 35.4062306], [135.9490096, 35.4063785], [135.9489174, 35.4064953], [135.9488474, 35.406612], [135.9487582, 35.4068379], [135.9486671, 35.4071141], [135.9481458, 35.4091839], [135.9480947, 35.4093558], [135.9480127, 35.4095276], [135.9478853, 35.4096733], [135.9476914, 35.4098005], [135.9473275, 35.4099868], [135.9470044, 35.410143], [135.9468507, 35.4102906], [135.9467347, 35.4104549], [135.946651, 35.4106314], [135.9466192, 35.4108299], [135.9466236, 35.4110225], [135.9466567, 35.4112318], [135.9467742, 35.4116357], [135.9468167, 35.4117832], [135.947169, 35.4130166], [135.9472624, 35.4132212], [135.9474043, 35.4134428], [135.9480914, 35.4143515], [135.9481733, 35.4144516], [135.9484132, 35.4147569], [135.9491784, 35.4158009], [135.9493717, 35.4160941], [135.9495082, 35.4163566], [135.9496447, 35.416675], [135.9497722, 35.417015], [135.9498706, 35.4173807], [135.9499305, 35.4177486], [135.949967, 35.4181366], [135.9499795, 35.4184421], [135.9499501, 35.418857], [135.9499045, 35.4191677], [135.9495531, 35.4207987], [135.9494904, 35.4210887], [135.9493453, 35.4217592], [135.9492602, 35.4220849], [135.9491618, 35.4223213], [135.9490398, 35.4225298], [135.9488389, 35.4228045], [135.9485493, 35.4230776], [135.9484846, 35.4231321], [135.9482461, 35.4232923], [135.9477662, 35.4235398], [135.9475825, 35.4236218], [135.9473569, 35.4237205], [135.94542, 35.424309], [135.941966, 35.4254578], [135.941376, 35.425654], [135.9392609, 35.4265428], [135.9386334, 35.4267487], [135.9382756, 35.4269037], [135.9380505, 35.4270579], [135.9378503, 35.4272997], [135.9375683, 35.4278093], [135.937111, 35.428639], [135.936994, 35.428909], [135.9369483, 35.429123], [135.9369328, 35.4293875], [135.9369664, 35.4299592], [135.9369634, 35.430261], [135.9369106, 35.4305576], [135.9367662, 35.4308686], [135.9365853, 35.4310258], [135.9364218, 35.4311685], [135.9349135, 35.4319685], [135.9343114, 35.4322793], [135.9332003, 35.4328483], [135.9329007, 35.4329791], [135.9326581, 35.4330418], [135.9324341, 35.4330791], [135.9319363, 35.4331342], [135.9316002, 35.4332095], [135.9313669, 35.4332967], [135.9311928, 35.4333936], [135.930896, 35.4336137], [135.9305747, 35.4339113], [135.9303067, 35.4341079], [135.9300108, 35.434259], [135.9297553, 35.4343493], [135.9280063, 35.4347331], [135.9267735, 35.4350183], [135.9264412, 35.4350883], [135.9262364, 35.4351077], [135.926023, 35.4350997], [135.9252216, 35.4349835], [135.9249141, 35.4349648], [135.9246667, 35.4349752], [135.9239894, 35.4350886], [135.923754, 35.4351159], [135.92351, 35.4351164], [135.9232538, 35.4350808], [135.9223805, 35.4348642], [135.9221587, 35.434834], [135.921932, 35.434824], [135.9217963, 35.4348338], [135.9214777, 35.4349069], [135.9191509, 35.4356085], [135.9188097, 35.4356942], [135.918723, 35.4357163], [135.9186277, 35.4357396], [135.9183273, 35.4358092], [135.9181832, 35.4358369], [135.9180461, 35.4358618], [135.917193, 35.4359967], [135.9166616, 35.4360854], [135.9161604, 35.4361704], [135.9156948, 35.4362501], [135.9153742, 35.4363206], [135.9151933, 35.4363718], [135.9149759, 35.4364336], [135.913098, 35.4370318], [135.9116467, 35.4374924], [135.9114609, 35.4375657], [135.9112718, 35.4376498], [135.9106637, 35.4379391], [135.9096457, 35.438433], [135.9093352, 35.438578], [135.9090516, 35.4387134], [135.9087912, 35.4388469], [135.9086084, 35.4389569], [135.9084468, 35.4390576], [135.9083962, 35.4390979], [135.908314, 35.4391703], [135.9082148, 35.4392641], [135.9081002, 35.4393813], [135.9079596, 35.4395198], [135.9077756, 35.4397149], [135.9075201, 35.4399793], [135.9073069, 35.4401922], [135.9071928, 35.4403224], [135.9070574, 35.4404682], [135.9068425, 35.4406841], [135.906653, 35.4408714], [135.906535, 35.4409668], [135.9063823, 35.4410854], [135.906177, 35.4412382], [135.9060233, 35.441333], [135.9058625, 35.4414254], [135.905676, 35.4415226], [135.905446, 35.4416369], [135.905159, 35.4417772], [135.9043572, 35.4421897], [135.9040111, 35.4423705], [135.9038347, 35.442462], [135.9035182, 35.4426262], [135.9031578, 35.4428078], [135.9029542, 35.4429102], [135.9029294, 35.4429224], [135.9027907, 35.4429976], [135.9026578, 35.4430752], [135.902474, 35.4431932], [135.9024307, 35.4432223], [135.9022403, 35.443351], [135.9018693, 35.4435991], [135.9017815, 35.4436593], [135.9014059, 35.443917], [135.9012612, 35.4440131], [135.9007694, 35.4443397], [135.9006426, 35.4444239], [135.9002244, 35.4447075], [135.8998134, 35.4449899], [135.8997058, 35.4450722], [135.8995989, 35.445158], [135.8995523, 35.4451996], [135.8995049, 35.4452563], [135.8994473, 35.4453357], [135.8993239, 35.4455417], [135.899152, 35.4458245], [135.8990798, 35.4459372], [135.8990019, 35.4460416], [135.8989135, 35.4461464], [135.8988288, 35.4462346], [135.8987211, 35.4463365], [135.8984535, 35.4465752], [135.89795, 35.4470193], [135.8977452, 35.4471942], [135.8975309, 35.4473608], [135.8972412, 35.4475902], [135.8970849, 35.4477158], [135.8969135, 35.4478498], [135.896818, 35.4479267], [135.8967116, 35.4480099], [135.8966383, 35.4480545], [135.8965478, 35.4480944], [135.8964266, 35.4481377], [135.8961764, 35.4482233], [135.8957243, 35.448383], [135.8955399, 35.4484467], [135.8953897, 35.4484937], [135.8952185, 35.4485351], [135.8950393, 35.4485636], [135.894893, 35.4485766], [135.8947326, 35.4485855], [135.8945328, 35.4485838], [135.8942961, 35.4485734], [135.8939622, 35.4485467], [135.8936547, 35.4485386], [135.8934626, 35.4485383], [135.8933192, 35.4485438], [135.8931803, 35.4485538], [135.8930549, 35.4485702], [135.8928953, 35.4485998], [135.8927183, 35.4486406], [135.8925929, 35.4486745], [135.8924253, 35.4487259], [135.8920976, 35.448832], [135.8916823, 35.4489706], [135.8911874, 35.4491356], [135.8906723, 35.449309], [135.8905202, 35.4493584], [135.8904228, 35.4493866], [135.8903412, 35.4494074], [135.8902593, 35.4494246], [135.8901527, 35.4494437], [135.8900224, 35.4494606], [135.8897791, 35.4494758], [135.8896379, 35.4494836], [135.8895614, 35.4494879], [135.8892475, 35.4495097], [135.8887607, 35.4495355], [135.8886112, 35.4495375], [135.8884744, 35.4495298], [135.8883382, 35.4495125], [135.8882149, 35.4494896], [135.8878567, 35.4494079], [135.8876952, 35.4493748], [135.8874905, 35.4493431], [135.8873398, 35.4493284], [135.8872064, 35.4493265], [135.8871131, 35.4493317], [135.8870045, 35.4493426], [135.8868761, 35.449361], [135.8868147, 35.4493731], [135.8867246, 35.4493949], [135.8866055, 35.4494294], [135.8862368, 35.4495562], [135.8860059, 35.449672], [135.8857977, 35.4497579], [135.8856125, 35.4498179], [135.8854635, 35.4498572], [135.8852976, 35.4498861], [135.8852639, 35.4498902], [135.8851711, 35.4499014], [135.8850226, 35.4499078], [135.8848977, 35.4499083], [135.8847172, 35.449909], [135.8844659, 35.4499147], [135.8840586, 35.4499349], [135.8839715, 35.4499397], [135.8838549, 35.4499462], [135.8836175, 35.4499576], [135.8833526, 35.4500013], [135.8829704, 35.4500807], [135.8826775, 35.4501658], [135.8823896, 35.4502832], [135.8821155, 35.450404], [135.8818696, 35.450533], [135.8816964, 35.4506356], [135.8815319, 35.4507417], [135.8814201, 35.4508212], [135.8811694, 35.4510108], [135.8810017, 35.4511381], [135.8805169, 35.4515057], [135.8797507, 35.4520825], [135.8796547, 35.4521548], [135.8790953, 35.4525643], [135.8786841, 35.4528392], [135.8780117, 35.4532427], [135.877374, 35.4536218], [135.8763438, 35.4542043], [135.8746032, 35.455183], [135.8744273, 35.4552815], [135.8737349, 35.4556636], [135.871547, 35.456918], [135.8707631, 35.457395], [135.8700888, 35.4578141], [135.8688156, 35.4585739], [135.8685403, 35.4587408], [135.8684298, 35.4588162], [135.8684042, 35.4588335], [135.8683004, 35.4589082], [135.8680634, 35.4590778], [135.8678196, 35.4592287], [135.8677201, 35.4592903], [135.8661147, 35.4602867], [135.8649614, 35.461025], [135.8636847, 35.4618278], [135.8625764, 35.4625132], [135.862473, 35.4625772], [135.8622634, 35.462702]], [[136.2309103, 35.5009783], [136.2304639, 35.5016182], [136.2300692, 35.5023443], [136.2300216, 35.5025012], [136.2297363, 35.5033328]], [[136.4325787, 35.5928266], [136.4331283, 35.5929502], [136.4336773, 35.5930898], [136.434484, 35.5933123], [136.4353253, 35.5936011], [136.4489867, 35.5981573], [136.4497836, 35.5983867], [136.4503446, 35.598532], [136.4508888, 35.5986471], [136.4514254, 35.5987314], [136.4519562, 35.5987828], [136.452493, 35.5988239], [136.4530271, 35.5988291], [136.4535113, 35.598811], [136.453961, 35.5987671], [136.4544443, 35.5987114], [136.4549258, 35.5986182], [136.4553736, 35.5984915], [136.4558155, 35.5983309], [136.4562897, 35.5980837], [136.4567178, 35.5977945], [136.4570963, 35.5974538], [136.4573321, 35.5971855], [136.4574239, 35.5970641], [136.4575157, 35.5969427]]]}, "id": "relation/8547309"}, {"type": "Feature", "properties": {"@id": "relation/10606305", "name": "国道303号旧道", "network": "JP:national", "old_ref": "303", "route": "road", "type": "route"}, "geometry": {"type": "MultiLineString", "coordinates": [[[136.2208507, 35.5044121], [136.2209959, 35.5044688], [136.2211384, 35.504518], [136.2212533, 35.5045531], [136.2215543, 35.5046451], [136.2219868, 35.5047674], [136.2221252, 35.5048092], [136.2222022, 35.5048327], [136.2222465, 35.5048449], [136.2223918, 35.5048906], [136.2225484, 35.5049381], [136.2225782, 35.5049456], [136.2226509, 35.5049668], [136.2230008, 35.5050691], [136.2233282, 35.5051661], [136.2239011, 35.5053359], [136.224511, 35.5055039], [136.2252493, 35.5057249], [136.2253812, 35.5055256], [136.225515, 35.5052944], [136.2256075, 35.5051116], [136.2256789, 35.5049681], [136.2256871, 35.504952], [136.2261231, 35.5041006], [136.2263888, 35.5035818], [136.2269082, 35.5025474], [136.2278592, 35.5028844], [136.2280608, 35.5029219], [136.228385, 35.5028884], [136.2284625, 35.5029204], [136.2287715, 35.5030216], [136.2297363, 35.5033328], [136.2297732, 35.5033847], [136.2299675, 35.5035806], [136.2301809, 35.5039393], [136.2304004, 35.5043356], [136.2305736, 35.5046415], [136.2305972, 35.5046807], [136.2306398, 35.5047493], [136.2307522, 35.504961], [136.2308392, 35.5050879], [136.2311213, 35.5052965], [136.231936, 35.5054166], [136.2324443, 35.5054428], [136.2329673, 35.5056153], [136.2333267, 35.5057408], [136.2335426, 35.5057113], [136.233713, 35.5055672], [136.2338256, 35.5052615], [136.2340321, 35.5051415], [136.2343129, 35.5050345], [136.2346689, 35.5049687], [136.2348558, 35.5050958], [136.2352247, 35.5054224], [136.2354673, 35.5055429], [136.2357069, 35.5055285], [136.2360129, 35.5054743], [136.2363384, 35.5054478], [136.2366267, 35.5054915], [136.2368024, 35.5054423], [136.2369339, 35.5053899], [136.2370774, 35.5053583], [136.2371887, 35.5053878], [136.2373398, 35.5054714], [136.2374834, 35.5056315], [136.2376897, 35.5058282], [136.2378672, 35.5057704], [136.2379115, 35.5055682], [136.2380712, 35.5054707], [136.2383817, 35.5054815], [136.2386701, 35.5056187], [136.239056, 35.5058462], [136.2391249, 35.5058979], [136.2391528, 35.5059871], [136.2397703, 35.5071153], [136.2400097, 35.5074584], [136.2401338, 35.5075719], [136.2410279, 35.5079976], [136.2411514, 35.5080669], [136.241242, 35.508181], [136.2413591, 35.5084528], [136.2414812, 35.5086057], [136.2419367, 35.5090182], [136.2420862, 35.5091203], [136.2422857, 35.5091482], [136.2424455, 35.5091312]]]}, "id": "relation/10606305"}]}