{"type": "FeatureCollection", "generator": "kokudo-quiz tools/fetch_raw.py (Overpass API)", "copyright": "The data included in this document is from www.openstreetmap.org. The data is made available under ODbL.", "timestamp": "2026-09-30T16:19:35Z", "features": [{"type": "Feature", "properties": {"@id": "relation/8901184", "colour": "red", "from": "石川県金沢市", "name": "国道304号", "name:en": "National Highway Route 304", "name:ja": "国道304号", "name:ja-Hira": "こくどうさんびゃくよんごう", "name:ja-Latn": "kokudou 304 gou", "name:ko": "국도 304호선", "network": "JP:national", "ref": "304", "route": "road", "to": "富山県南砺市", "type": "route", "wikidata": "Q6157183", "wikipedia": "ja:国道304号"}, "geometry": {"type": "MultiLineString", "coordinates": [[[136.6558536, 36.5720765], [136.6561128, 36.5720689], [136.6562003, 36.5720589], [136.6570265, 36.5719197], [136.6571676, 36.5718909], [136.6579413, 36.5717333], [136.6583608, 36.5716498], [136.6587508, 36.5715827], [136.6598237, 36.5714487], [136.6608394, 36.5713398], [136.661514, 36.5712429], [136.6628412, 36.5710872], [136.6629373, 36.5710759], [136.6634376, 36.5710172], [136.6634563, 36.571015], [136.6635551, 36.5710034], [136.6638878, 36.5709829], [136.6639353, 36.5708445], [136.6640228, 36.5703314], [136.6641067, 36.5697253], [136.6641961, 36.5690953], [136.6642025, 36.5690503], [136.6642758, 36.5685495], [136.6643233, 36.5681992], [136.6643356, 36.5681041], [136.664348, 36.56801], [136.6644293, 36.5673918], [136.6644186, 36.5673013], [136.6644091, 36.5672688], [136.66434, 36.5671695], [136.6642825, 36.5671176], [136.6642113, 36.5670759], [136.6641169, 36.5670444], [136.6640105, 36.5670244], [136.6635734, 36.5669647], [136.663502, 36.5669512], [136.6634342, 36.5669353], [136.6633348, 36.5668977], [136.6632593, 36.5668489], [136.6632021, 36.5667915], [136.6631558, 36.566715], [136.6631372, 36.5666453], [136.663135, 36.5665876], [136.6631419, 36.5665306], [136.6632778, 36.5660027], [136.6633177, 36.5658444], [136.6633879, 36.5655895], [136.6635863, 36.5655601], [136.6639087, 36.5655299], [136.6642908, 36.565486], [136.664592, 36.5654515], [136.6647559, 36.5654147], [136.6649182, 36.56537], [136.6652374, 36.5652752], [136.6658539, 36.5650406], [136.6660327, 36.564954], [136.6668101, 36.564415], [136.6670835, 36.5642264], [136.6672241, 36.5641389], [136.6678171, 36.5637613], [136.6688421, 36.5636399], [136.6694838, 36.5635506], [136.6699231, 36.5635041], [136.670106, 36.563483], [136.6702438, 36.5634631], [136.6706968, 36.5634029], [136.6709903, 36.5633531], [136.6712833, 36.5633041], [136.6716421, 36.5632507], [136.6718551, 36.563219], [136.6723262, 36.5631476], [136.6723695, 36.5631275], [136.672664, 36.5629913], [136.673327, 36.5626846], [136.673428, 36.5626378], [136.6734516, 36.562627], [136.673926, 36.5624075], [136.673989, 36.5623783], [136.6742929, 36.5622378], [136.674761, 36.5620212], [136.6750065, 36.5619122], [136.6768763, 36.5610896], [136.6771338, 36.5609865], [136.6773485, 36.5608974], [136.6774629, 36.5608402], [136.6775649, 36.5607764], [136.6776121, 36.5608709], [136.6776666, 36.5609519], [136.6777338, 36.5610455], [136.6777885, 36.5611051], [136.6778488, 36.5611701], [136.6779952, 36.5612963], [136.678627, 36.5617725], [136.6787506, 36.5618657], [136.6787764, 36.5618838], [136.6791697, 36.5621777], [136.6792238, 36.5622189], [136.6793122, 36.5622862], [136.6789846, 36.5626649], [136.6788591, 36.5628236], [136.6786762, 36.5630697], [136.6785616, 36.5632495], [136.6784128, 36.5635351], [136.6783035, 36.5637606], [136.6781259, 36.5641645], [136.6780165, 36.5644212], [136.677896, 36.5647611], [136.6778442, 36.564974], [136.6778069, 36.5651308], [136.6777522, 36.5654121], [136.6777203, 36.565673], [136.6776967, 36.5660027], [136.677693, 36.566247], [136.6777055, 36.5665352], [136.6777344, 36.5668383], [136.6777796, 36.5671354], [136.6778411, 36.5673963], [136.6779288, 36.567714], [136.6780438, 36.5680466], [136.6781976, 36.5683861], [136.6783422, 36.5686845], [136.6785074, 36.568967], [136.6787318, 36.5692802], [136.6790713, 36.5697211], [136.6796768, 36.5703092], [136.6800186, 36.5705864], [136.6802044, 36.5707304], [136.6803902, 36.5708476], [136.6811602, 36.5713247], [136.6818392, 36.5716826], [136.6831599, 36.572351], [136.6841116, 36.5728427], [136.6845611, 36.5730963], [136.6850625, 36.5734375], [136.6854724, 36.5737701], [136.6857207, 36.5740298], [136.685953, 36.5742849], [136.6861763, 36.5745811], [136.6863699, 36.5748749], [136.686502, 36.5751096], [136.6866457, 36.5754435], [136.6868642, 36.5761165], [136.6870071, 36.5766609], [136.6873633, 36.5781805], [136.687428, 36.578487], [136.6877168, 36.5797977], [136.6880123, 36.581226], [136.6880762, 36.5816655], [136.688108, 36.5820085], [136.6881202, 36.5824147], [136.6881171, 36.5825848], [136.6881034, 36.5827812], [136.6880928, 36.5829461], [136.6880659, 36.5832113], [136.6880359, 36.5834348], [136.6879907, 36.583676], [136.6879015, 36.584071], [136.6878489, 36.5842976], [136.6877283, 36.5846568], [136.6875089, 36.5851852], [136.6872879, 36.5856772], [136.6871353, 36.5859688], [136.6865483, 36.5870469], [136.6863083, 36.5874777], [136.6860637, 36.587919], [136.6857668, 36.5885196], [136.6856387, 36.5888152], [136.685527, 36.5891193], [136.685445, 36.5893915], [136.6853812, 36.5896569], [136.6853038, 36.5900578], [136.6852765, 36.5903335], [136.6852719, 36.5906615], [136.6852838, 36.5909565], [136.6853129, 36.5912754], [136.6853892, 36.5917789], [136.6854712, 36.5921092], [136.6855806, 36.5924497], [136.6857127, 36.5928096], [136.6858391, 36.5930796], [136.6859815, 36.5933609], [136.6861717, 36.5936787], [136.686414, 36.5940295], [136.686708, 36.5944041], [136.6868973, 36.5946257], [136.6873027, 36.5950154], [136.6875281, 36.5952099], [136.68816, 36.5956763], [136.68851, 36.5958862], [136.688742, 36.5960156], [136.6890076, 36.5961544], [136.6895814, 36.5964314], [136.6900557, 36.5966245], [136.6904859, 36.5967865], [136.691704, 36.5972326], [136.6923704, 36.5974914], [136.6932956, 36.5978622], [136.6941536, 36.5982459], [136.6948471, 36.5985958], [136.6954909, 36.5989458], [136.6968105, 36.5997501], [136.6975143, 36.6002237], [136.6979817, 36.600568], [136.6984494, 36.6009274], [136.6990025, 36.6013837], [136.6997109, 36.6020357], [136.7003453, 36.6026875], [136.701014, 36.6033617], [136.7012826, 36.603677], [136.7015373, 36.6039998], [136.7019112, 36.6045879], [136.7022501, 36.605141], [136.7023046, 36.605246], [136.7023363, 36.6053271], [136.7023573, 36.6054071], [136.7023631, 36.6054991], [136.7023522, 36.6055876], [136.702334, 36.6056442], [136.7023054, 36.6056997], [136.7022606, 36.6057708], [136.7022067, 36.6058369], [136.7021367, 36.6059052], [136.7020647, 36.6059718], [136.7019862, 36.6060454], [136.7019277, 36.6061158], [136.7018831, 36.6061853], [136.7018492, 36.6062644], [136.7018311, 36.6063442], [136.7018286, 36.6064255], [136.7018422, 36.6065103], [136.7018736, 36.6065894], [136.7019197, 36.6066631], [136.7019766, 36.606731], [136.7020496, 36.6067892], [136.7021249, 36.6068332], [136.702211, 36.6068697], [136.7023095, 36.6068947], [136.7024129, 36.6069076], [136.7025232, 36.6069056], [136.7026361, 36.6068898], [136.7027409, 36.6068612], [136.7028446, 36.6068186], [136.7029335, 36.6067642], [136.7030265, 36.6066956], [136.70311, 36.6066107], [136.7031692, 36.6065352], [136.7032265, 36.6064477], [136.7032651, 36.6063624], [136.7032916, 36.6062774], [136.70331, 36.6061748], [136.7033186, 36.6060753], [136.7033165, 36.6059747], [136.703298, 36.6058709], [136.7032648, 36.6057724], [136.7030957, 36.6053996], [136.7029272, 36.6050948], [136.7028911, 36.6050173], [136.7028643, 36.6049398], [136.7028484, 36.604859], [136.7028469, 36.6047791], [136.7028602, 36.6047004], [136.7028921, 36.6046227], [136.7029388, 36.604558], [136.7030025, 36.6045026], [136.7030889, 36.6044559], [136.7031859, 36.604423], [136.7032836, 36.6044075], [136.7033732, 36.604406], [136.7034598, 36.604416], [136.7035422, 36.6044419], [136.7036223, 36.604477], [136.7036971, 36.6045239], [136.7037686, 36.6045848], [136.7038267, 36.6046553], [136.7038777, 36.6047394], [136.7039179, 36.6048224], [136.7040974, 36.6052574], [136.7042857, 36.6057296], [136.7043023, 36.605782], [136.7043149, 36.6058333], [136.7043213, 36.6058931], [136.7043174, 36.6059508], [136.7043028, 36.6060052], [136.7042807, 36.6060553], [136.7042476, 36.6061039], [136.7042027, 36.6061448], [136.7041488, 36.6061792], [136.704083, 36.6062014], [136.704008, 36.606212], [136.7039371, 36.6062105], [136.7038622, 36.6062004], [136.7037965, 36.6061787], [136.7037371, 36.6061414], [136.7036853, 36.606095], [136.7036463, 36.6060483], [136.7036106, 36.6059954], [136.7034077, 36.6055446]], [[136.6793122, 36.5622862], [136.6795904, 36.5624616], [136.6792129, 36.5629276], [136.6788698, 36.5634537], [136.6786816, 36.5637891], [136.6784383, 36.5642739], [136.6783349, 36.5645181], [136.6782511, 36.5648244], [136.6781623, 36.5651889], [136.6781281, 36.5653711], [136.6780916, 36.5657014], [136.678078, 36.5660431], [136.6780939, 36.5663962], [136.6781144, 36.5667334], [136.6781645, 36.5670295], [136.6782579, 36.5673826], [136.6783901, 36.5678086], [136.6785267, 36.5681594], [136.6787021, 36.568533], [136.6788935, 36.5688587], [136.6791828, 36.5692506], [136.6795177, 36.5696606], [136.6799072, 36.5700684], [136.6802603, 36.5703691], [136.6805838, 36.570606], [136.6810667, 36.57095], [136.6814198, 36.5711527], [136.682249, 36.571577], [136.6833607, 36.5721413], [136.6842275, 36.5725842], [136.6845783, 36.5727826], [136.6849561, 36.5730204], [136.6855204, 36.573475], [136.6858573, 36.5737906], [136.6861415, 36.5741151], [136.6863767, 36.574474], [136.6864997, 36.5746904], [136.686625, 36.5749638], [136.6868323, 36.5754513], [136.6869485, 36.5757793], [136.6870164, 36.5760367], [136.6871654, 36.5766706], [136.6873107, 36.5774218], [136.6878261, 36.5797264], [136.6881513, 36.5812044], [136.6882492, 36.5817203], [136.6883142, 36.5822215], [136.6883506, 36.5825985], [136.6883597, 36.5828798], [136.6883584, 36.5832871], [136.6883392, 36.583496], [136.6883142, 36.5836714], [136.6882431, 36.5841691], [136.6881707, 36.5844813], [136.6880648, 36.5848648], [136.687936, 36.5852285], [136.6878109, 36.5855325], [136.6875554, 36.586102], [136.6872059, 36.5867251], [136.6866981, 36.5875511], [136.6864462, 36.5879678], [136.6862763, 36.5882785], [136.6861239, 36.5886261], [136.6859135, 36.5891943], [136.6858448, 36.5894815], [136.6857816, 36.5898244], [136.6857469, 36.5900852], [136.685715, 36.5904025], [136.6857093, 36.5906774], [136.6857211, 36.5910169], [136.6857617, 36.5913927], [136.68583, 36.5917485], [136.6859245, 36.5920864], [136.68605, 36.5924818], [136.6862059, 36.5928472], [136.6864023, 36.5931954], [136.6866125, 36.5935659], [136.686858, 36.5939276], [136.6873103, 36.5944504], [136.6876331, 36.5947545], [136.6881341, 36.5951783], [136.6884531, 36.5954259], [136.688822, 36.5956644], [136.6891092, 36.5958291], [136.6893585, 36.5959594], [136.6896524, 36.5960887], [136.6899947, 36.5962541], [136.6904806, 36.5964565], [136.6909479, 36.5966214], [136.6909956, 36.596641], [136.6922028, 36.5970694], [136.6936335, 36.597613], [136.6948875, 36.5981954], [136.6962184, 36.5989052], [136.6972617, 36.5995748], [136.697926, 36.6000437], [136.6990774, 36.6009735], [136.6998721, 36.6017456], [136.7001134, 36.6019795], [136.7002121, 36.6020517], [136.7004998, 36.602329], [136.700749, 36.6025931], [136.7009981, 36.60287], [136.7014422, 36.603394], [136.7019889, 36.6040977], [136.7020429, 36.6041598], [136.7021061, 36.6042134], [136.7021691, 36.604257], [136.7022369, 36.604291], [136.7023116, 36.6043165], [136.7023945, 36.6043358], [136.7024907, 36.6043444], [136.7025952, 36.6043458], [136.7027115, 36.6043386], [136.7029322, 36.6043151], [136.7032576, 36.6042775], [136.7035842, 36.6042391], [136.7040047, 36.6041851], [136.7042028, 36.6041531], [136.7043278, 36.6041282], [136.7044142, 36.6041061], [136.7044887, 36.6040724], [136.7045605, 36.60403], [136.7046154, 36.6039792], [136.7046487, 36.603927], [136.7046775, 36.6038623], [136.7046882, 36.6037875], [136.7046773, 36.6037128], [136.7046482, 36.6036423], [136.7046003, 36.6035869], [136.7045367, 36.6035396], [136.7044578, 36.6035021], [136.7043581, 36.6034849], [136.7042598, 36.603486], [136.7041651, 36.6035053], [136.7040851, 36.6035365], [136.704018, 36.6035783], [136.7039603, 36.6036265], [136.7038904, 36.6036993], [136.703823, 36.6037868], [136.7035445, 36.6041741], [136.703322, 36.6045337], [136.7032872, 36.6046305], [136.7032659, 36.6047251], [136.703254, 36.6048172], [136.7032498, 36.6049108], [136.7032509, 36.6050087], [136.7032585, 36.6051097], [136.7032756, 36.6051926], [136.7032976, 36.6052697], [136.7034077, 36.6055446], [136.7042129, 36.6049008], [136.7044407, 36.6047381], [136.7047002, 36.6045864], [136.7048277, 36.6045235]], [[136.712632, 36.6053045], [136.7124825, 36.6052929], [136.7117278, 36.6053312], [136.7110535, 36.6052921], [136.7108819, 36.6052665], [136.7102429, 36.605139], [136.7091471, 36.6047772], [136.7084931, 36.6045615], [136.7082309, 36.604475], [136.70757, 36.6042514], [136.7074266, 36.6042182], [136.7073326, 36.6041918], [136.707216, 36.6041653], [136.7070132, 36.6041436], [136.7067344, 36.6041268], [136.7064481, 36.6041272], [136.7061618, 36.6041469], [136.7058682, 36.6041889], [136.705553, 36.6042535], [136.7052915, 36.6043313], [136.7050488, 36.6044241], [136.7048277, 36.6045235]], [[136.712632, 36.6053045], [136.7134875, 36.6051948], [136.7142976, 36.6050522], [136.716233, 36.6043229], [136.7188117, 36.6035924], [136.719953, 36.6035679], [136.7202426, 36.6035712], [136.7206853, 36.6036056], [136.7212014, 36.603682], [136.7214482, 36.603658], [136.7217501, 36.6035958], [136.7219908, 36.603491], [136.7221641, 36.6033856], [136.7225411, 36.6030488], [136.7227979, 36.6028339], [136.7231183, 36.6025948], [136.7233432, 36.6024491], [136.7235541, 36.6023426], [136.7237215, 36.6022703], [136.7239081, 36.602212], [136.7241041, 36.6021664], [136.724343, 36.6021244], [136.724632, 36.602089], [136.7258647, 36.6019539], [136.7260962, 36.6019197], [136.7263458, 36.6018602], [136.7265874, 36.6017916], [136.7267399, 36.6017333], [136.7268996, 36.6016622], [136.7271933, 36.6015005], [136.7280535, 36.6009584], [136.7286918, 36.6005376], [136.7290611, 36.6002972], [136.7292144, 36.600186], [136.7294123, 36.6000288], [136.729549, 36.5999027], [136.7298608, 36.5994057], [136.7299958, 36.5992001], [136.7302059, 36.5990281], [136.7304323, 36.5988659], [136.7307812, 36.5987005], [136.7310485, 36.5986383], [136.7311029, 36.5986193], [136.7318114, 36.5985348], [136.7323107, 36.5983619], [136.7331212, 36.5978652], [136.7338108, 36.5974459], [136.7340903, 36.59731], [136.7341271, 36.597297], [136.7345432, 36.5971495], [136.7349634, 36.5970512], [136.7352021, 36.5970233], [136.735489, 36.5969841], [136.7362855, 36.5970043], [136.7369772, 36.5970271], [136.7375113, 36.5970447], [136.7383784, 36.5970534], [136.7389912, 36.5970536], [136.7396012, 36.5970362], [136.7423785, 36.5969568], [136.742621, 36.5969385], [136.7428217, 36.5969093], [136.7430308, 36.5968667], [136.7432736, 36.5967987], [136.7435775, 36.596675], [136.7438581, 36.5965293], [136.7445721, 36.5959789], [136.7450017, 36.5956502], [136.7456618, 36.595145], [136.7458767, 36.5949793], [136.7463686, 36.5944859], [136.7466196, 36.5942392], [136.746867, 36.5939429], [136.7479856, 36.5927808], [136.7481422, 36.5926292], [136.7483204, 36.5924863], [136.7486615, 36.592258], [136.7490775, 36.5920446], [136.7497307, 36.5917617], [136.7499357, 36.5916705], [136.7501177, 36.5916041], [136.7503731, 36.5915359], [136.7506091, 36.5914989], [136.7508612, 36.5914919], [136.7511724, 36.5915129], [136.7514587, 36.5915886], [136.7517526, 36.5916957], [136.7524919, 36.5919811], [136.7527314, 36.592061], [136.7530102, 36.5921095], [136.7532621, 36.5921337], [136.7535081, 36.5921186], [136.7538556, 36.5920602], [136.7554243, 36.5917524], [136.7562237, 36.5916001], [136.756486, 36.5915687], [136.756772, 36.591559], [136.757014, 36.5915762], [136.7572391, 36.591615], [136.75749, 36.5916778], [136.7577464, 36.5917729], [136.757996, 36.5918843], [136.7592669, 36.5924994], [136.7607106, 36.5931907], [136.7609289, 36.5933103], [136.7611392, 36.5934746], [136.7613233, 36.5936493], [136.7614445, 36.5938302], [136.7617025, 36.5942743], [136.7618214, 36.5944494], [136.7619721, 36.594594], [136.7621634, 36.5947385], [136.7623329, 36.5948432], [136.7625697, 36.5949471], [136.7628625, 36.5950265], [136.763156, 36.595067], [136.7636497, 36.5950869], [136.7642574, 36.5951408], [136.7648266, 36.5951684], [136.7648857, 36.5951713], [136.7658603, 36.5951749], [136.7664404, 36.5951419], [136.7674636, 36.5951117], [136.7680388, 36.5951151], [136.769004, 36.5951433], [136.7696235, 36.5952947], [136.7696866, 36.5953251], [136.7698449, 36.5954014], [136.7700311, 36.5955085], [136.7702046, 36.595668], [136.7710952, 36.5965163], [136.7713745, 36.5967345], [136.7716487, 36.5968839], [136.7719934, 36.596989], [136.772411, 36.5970334], [136.7733443, 36.5969183], [136.7737242, 36.5968173], [136.7739884, 36.5966779], [136.7741393, 36.5965648], [136.7743506, 36.5963103], [136.7746752, 36.5956478], [136.7748764, 36.5953287], [136.7759658, 36.5943733], [136.7763909, 36.5939108], [136.776635, 36.5934785], [136.7769519, 36.5927049], [136.7771608, 36.5924221], [136.7774501, 36.5921858], [136.7783457, 36.5917737], [136.778796, 36.5916384], [136.7792841, 36.5915879], [136.7797495, 36.591604], [136.7802552, 36.5916929], [136.78142, 36.5919212], [136.7821294, 36.5919898], [136.7826879, 36.5919696], [136.7831835, 36.5918525], [136.7835433, 36.5917232], [136.7841873, 36.5914909], [136.7847483, 36.5911112], [136.7849722, 36.590765], [136.7853083, 36.5901496], [136.7855975, 36.5897507], [136.7858614, 36.5894672], [136.7860785, 36.5893192], [136.7862955, 36.5891883], [136.7868465, 36.5890225], [136.7875509, 36.5888953], [136.7882302, 36.5889013], [136.7887962, 36.5890266], [136.7930359, 36.5903218], [136.7935145, 36.5905174], [136.793945, 36.5908002], [136.7943114, 36.5911173], [136.7945996, 36.5915315], [136.7950017, 36.5923557], [136.7952027, 36.5926613], [136.7955531, 36.593007], [136.7958217, 36.5932041], [136.7960156, 36.5933098], [136.7963803, 36.5934597], [136.7969353, 36.5936168], [136.7988957, 36.5939739], [136.7995806, 36.5942082], [136.7999631, 36.5943752], [136.8001338, 36.5944652], [136.8005216, 36.5946723], [136.8008187, 36.5948337], [136.8011852, 36.5950537], [136.8015588, 36.5952408], [136.8019309, 36.5953668], [136.8021141, 36.5954062], [136.8025238, 36.595397], [136.8027561, 36.5953506], [136.8031586, 36.5952105], [136.8035567, 36.5949383], [136.8041208, 36.5944959], [136.8043371, 36.5943662], [136.804718, 36.5941856], [136.8049704, 36.5940837], [136.8055232, 36.5939252], [136.8061985, 36.5937039], [136.8065097, 36.5935827], [136.8069021, 36.5934066], [136.8072728, 36.5932086], [136.8076104, 36.5929966], [136.8080345, 36.5927291], [136.8086447, 36.59237], [136.8088294, 36.5922542], [136.8092304, 36.5920503], [136.8094915, 36.5919461], [136.809832, 36.5918314], [136.8100873, 36.5917735], [136.8105435, 36.5916993], [136.8110114, 36.5916653], [136.8113592, 36.5916849], [136.8116652, 36.5917046], [136.8124188, 36.5918509], [136.8155447, 36.5926355], [136.817289, 36.5930729], [136.8179916, 36.5932355], [136.8183494, 36.5933038], [136.8187649, 36.5933443], [136.8190692, 36.593364], [136.8194876, 36.5933374], [136.8198122, 36.5933015], [136.8205075, 36.5931312], [136.8210996, 36.5929101], [136.8215339, 36.5927387], [136.8222843, 36.5924402], [136.8227657, 36.5922568], [136.8230881, 36.5921667], [136.823443, 36.5920832], [136.8236797, 36.592034], [136.8241714, 36.5919423], [136.8245039, 36.5919177], [136.8252037, 36.591903], [136.8259004, 36.5918694], [136.8262247, 36.5918399], [136.8267613, 36.5917433], [136.8270887, 36.5916671], [136.8275108, 36.5915229], [136.8280831, 36.5912913], [136.8285216, 36.5910619], [136.8289847, 36.5908187], [136.8293684, 36.5906357], [136.8296944, 36.5905303], [136.8300204, 36.590455], [136.8303551, 36.5904098], [136.830961, 36.5903728], [136.8313309, 36.59035], [136.8316506, 36.5902894], [136.8319636, 36.5902083], [136.8331523, 36.589789], [136.8339053, 36.5895411], [136.8344621, 36.589306], [136.8348848, 36.5890987], [136.8355138, 36.5886759], [136.8356926, 36.5885357], [136.8360994, 36.5881465], [136.8367884, 36.5873575], [136.8369659, 36.5871658], [136.837325, 36.5868349], [136.8379084, 36.5864221], [136.8385307, 36.5860585], [136.8388361, 36.5858897], [136.8394478, 36.5855237], [136.8414159, 36.5844198], [136.8423953, 36.5839346], [136.8464756, 36.5818396], [136.8469034, 36.5815137], [136.847316, 36.5811268], [136.8475641, 36.5808395], [136.8477084, 36.5806287], [136.8479969, 36.5801931], [136.8482652, 36.5794378], [136.84847, 36.5783883], [136.8486374, 36.5778484], [136.8487672, 36.5776376], [136.848897, 36.5774407], [136.8491913, 36.5771256], [136.8497078, 36.5766992], [136.8505987, 36.5760193], [136.850952, 36.5757309], [136.8511827, 36.5754994], [136.8513908, 36.5752487], [136.8516948, 36.5748883], [136.8518376, 36.5747326], [136.8520599, 36.5745655], [136.8524129, 36.5744153], [136.85271, 36.574344], [136.8532713, 36.5743088], [136.8540012, 36.574245], [136.854304, 36.574214], [136.854864, 36.5741229], [136.8552303, 36.5740087], [136.8559761, 36.573733], [136.8564334, 36.5735441], [136.8566252, 36.5734352], [136.8568156, 36.5732858], [136.8570592, 36.573068], [136.8574215, 36.5726648], [136.8578918, 36.5721446], [136.8584933, 36.5714732], [136.8587789, 36.57117], [136.8590685, 36.5708209], [136.8593241, 36.5706042], [136.8594408, 36.5704687], [136.8595567, 36.5703532], [136.860217, 36.5696079], [136.860812, 36.5686634], [136.8616154, 36.5675479], [136.86213, 36.5667749], [136.8626217, 36.5660465], [136.8626435, 36.5660263], [136.8627928, 36.5658854], [136.8631999, 36.5655196], [136.8639191, 36.5650909], [136.8639784, 36.5650653], [136.8640832, 36.5648439], [136.8645177, 36.5643248], [136.8652751, 36.563404], [136.8653936, 36.5632856], [136.8654176, 36.5632591], [136.8656712, 36.5630475], [136.8661349, 36.5626149], [136.8667557, 36.5620255], [136.8670514, 36.5617581], [136.8672098, 36.5616317], [136.8674056, 36.5615688], [136.8676247, 36.5615162], [136.8682886, 36.5613991], [136.8687529, 36.5612532], [136.8690939, 36.5611147], [136.869152, 36.5610926], [136.8696234, 36.5609129], [136.8702017, 36.5608207], [136.870654, 36.5607816], [136.8710672, 36.5606886], [136.8712306, 36.5605864], [136.8716938, 36.5603561], [136.8719135, 36.5602308], [136.8721759, 36.5600778], [136.8722993, 36.5600045], [136.8723902, 36.5599418], [136.872538, 36.559886], [136.8727741, 36.5597654], [136.8732146, 36.5594905], [136.8732481, 36.5594751], [136.8732961, 36.5594529], [136.8736814, 36.5592753], [136.8737385, 36.5592628], [136.8739372, 36.5592195], [136.8740176, 36.5592019], [136.8742268, 36.559178], [136.8742694, 36.5591848], [136.8747525, 36.5591194], [136.8748144, 36.5591113], [136.8756256, 36.5589565], [136.8757026, 36.5589425], [136.8760299, 36.5588605], [136.8763979, 36.5587386], [136.8766466, 36.5586593], [136.8765376, 36.5584243], [136.8764136, 36.5580522], [136.8762821, 36.5577274], [136.8759919, 36.5571089], [136.8751822, 36.5553474], [136.875069, 36.5549706], [136.8749912, 36.5547812], [136.8747975, 36.5542654], [136.8746208, 36.553739], [136.8744873, 36.5532573], [136.8743918, 36.5528143], [136.8743266, 36.5524154], [136.8742912, 36.5519964], [136.8742824, 36.5516652], [136.8742876, 36.5513301], [136.8743086, 36.5508798], [136.8743794, 36.5498509], [136.8744019, 36.5495233], [136.8744981, 36.5483104], [136.8745959, 36.5470031], [136.8746225, 36.546537], [136.8746413, 36.5463332], [136.8746826, 36.5460909], [136.8747395, 36.5458916], [136.8748246, 36.5456127], [136.8749033, 36.545416], [136.875032, 36.5452118], [136.8751416, 36.5450396], [136.8752471, 36.5448923], [136.8753755, 36.5447463], [136.875562, 36.5445449], [136.8757997, 36.5443304], [136.8758665, 36.544259], [136.8761917, 36.5440156], [136.876706, 36.5437281], [136.8780863, 36.5429525], [136.878563, 36.5426768], [136.8790026, 36.5424263], [136.8791683, 36.5423328], [136.8797181, 36.5420211], [136.880039, 36.5418412], [136.8803121, 36.5416848], [136.8805967, 36.5415062], [136.8813831, 36.5409888], [136.8815547, 36.5408513], [136.8820669, 36.540432], [136.8822308, 36.5402295], [136.8823523, 36.540088], [136.8825804, 36.5397761], [136.8827259, 36.5395625], [136.8829959, 36.5391185], [136.883303, 36.5384585], [136.8834007, 36.5382486], [136.883698, 36.537659], [136.88416, 36.536852], [136.8846464, 36.536117], [136.8860518, 36.5342689], [136.8862899, 36.5339558], [136.8872091, 36.5327028], [136.8875277, 36.5322349], [136.8876652, 36.5319912], [136.8878389, 36.531648], [136.8880178, 36.5312162], [136.8881644, 36.5308299], [136.8883331, 36.5303603], [136.8884153, 36.5301693], [136.8885152, 36.5299752], [136.8885833, 36.5298674], [136.8886982, 36.5296951], [136.8888642, 36.5294813], [136.8890479, 36.5292853], [136.8893997, 36.5289612], [136.8897712, 36.5286563], [136.8902935, 36.528266], [136.8908067, 36.5279942], [136.8912838, 36.5277436], [136.8915157, 36.5276218], [136.8918798, 36.5274804], [136.893041, 36.5270295], [136.8933562, 36.5269071], [136.893474, 36.5268614], [136.8944992, 36.5264495], [136.8945779, 36.5264179], [136.8954873, 36.5260185], [136.8957081, 36.5259215], [136.8964281, 36.5255107], [136.896615, 36.525404], [136.8975218, 36.5248865], [136.8978165, 36.5246586], [136.8985732, 36.5240733], [136.8991414, 36.5236281], [136.8996246, 36.5232495], [136.8998803, 36.5230412], [136.9005708, 36.5224785], [136.9014813, 36.5217424], [136.9016184, 36.5216214], [136.9021627, 36.5211523], [136.9023077, 36.5210255], [136.902331, 36.5210051], [136.902711, 36.5206712], [136.9030201, 36.5204217], [136.903053, 36.5203944], [136.9032649, 36.5202319], [136.9035945, 36.5200146], [136.9041752, 36.5196691], [136.9042769, 36.5195929], [136.9043593, 36.519516], [136.9044128, 36.5194353], [136.9044304, 36.5193724], [136.9044609, 36.5192966], [136.9044573, 36.519182], [136.9044246, 36.5190431], [136.903909, 36.5181377], [136.903645, 36.5175965], [136.9036345, 36.5175815], [136.9036067, 36.5175251], [136.9032913, 36.5169441], [136.903106, 36.5165921], [136.9029233, 36.5162259], [136.9025235, 36.5153617], [136.9024103, 36.5148793], [136.902339, 36.5145647], [136.9023221, 36.5144902], [136.9022059, 36.514127], [136.9021304, 36.5139823], [136.9019138, 36.5135676], [136.9018152, 36.5133938], [136.9016774, 36.513153], [136.9013786, 36.5125804], [136.9011762, 36.5121921], [136.9011096, 36.5120642], [136.9010362, 36.5118909], [136.9006891, 36.5110713], [136.9002554, 36.5100361], [136.8996246, 36.508853], [136.8996192, 36.5088418], [136.8990857, 36.5077333], [136.8987705, 36.5069707], [136.8985732, 36.5066453], [136.898284, 36.5057368], [136.8980081, 36.5047227], [136.8978317, 36.5041477], [136.8977715, 36.5039515], [136.8976808, 36.503587], [136.8976401, 36.5034233], [136.8976388, 36.5033907], [136.8975958, 36.5030427], [136.8974774, 36.5020251], [136.8974007, 36.50159], [136.8972843, 36.501214], [136.8969759, 36.5006882], [136.8969567, 36.5006555], [136.8966807, 36.5000005], [136.8963784, 36.4993877], [136.8962525, 36.4990029], [136.8961813, 36.4987855], [136.896063, 36.4981728], [136.8960587, 36.4981309], [136.8959973, 36.4975389], [136.8960498, 36.4969155], [136.8960498, 36.4964414], [136.8960498, 36.4963873], [136.8959973, 36.4958379], [136.8959094, 36.4952177], [136.895888, 36.4951241], [136.8958208, 36.4948296], [136.8956792, 36.4943885], [136.8955888, 36.4941072], [136.8953676, 36.4934284], [136.8954603, 36.4928052], [136.8955237, 36.4926693], [136.8957047, 36.4923702], [136.8959336, 36.4921399], [136.8963208, 36.491831], [136.8970037, 36.4913275], [136.8976326, 36.4908132], [136.8978585, 36.4906284], [136.8979672, 36.4905099], [136.8984583, 36.489975], [136.8990158, 36.4893566], [136.8996108, 36.488775], [136.8998827, 36.4884115], [136.9001205, 36.4879769], [136.9001731, 36.4877235], [136.9001317, 36.4873735], [136.8999679, 36.4869926], [136.8995279, 36.4865444], [136.8990821, 36.4861348], [136.89859, 36.4856345], [136.8982772, 36.4852695], [136.8973756, 36.484156], [136.8967532, 36.4834259], [136.896442, 36.4830877], [136.8961056, 36.4828848], [136.8957523, 36.4827293], [136.8953906, 36.4826346], [136.8949448, 36.4824926], [136.8946168, 36.4823235], [136.8942804, 36.4820598], [136.8939523, 36.4817216], [136.8936075, 36.4813226], [136.8935654, 36.4811738], [136.8936411, 36.4810183], [136.8938178, 36.4808086], [136.8939355, 36.480626], [136.8939439, 36.4804705], [136.8938093, 36.4802473], [136.8936159, 36.4800715], [136.8934393, 36.4798753], [136.8934393, 36.4796995], [136.8935402, 36.4794357], [136.8936832, 36.4793208], [136.8938766, 36.4792396], [136.8942467, 36.4792058], [136.8946168, 36.479199], [136.8949617, 36.4789894], [136.8952056, 36.4786918], [136.8954243, 36.478428], [136.8956177, 36.4780831], [136.8956598, 36.4778532], [136.895685, 36.4774068], [136.895786, 36.4767102], [136.8957691, 36.476514], [136.8956598, 36.4763585], [136.8954159, 36.4762841], [136.8951972, 36.47623], [136.894886, 36.4761961], [136.8946505, 36.4761285], [136.8944654, 36.4759932], [136.8944402, 36.4757903], [136.8943729, 36.4754657], [136.8942467, 36.474999], [136.8940617, 36.4747285], [136.8938514, 36.4744106], [136.8937084, 36.4739574], [136.8936411, 36.473484], [136.8936579, 36.4730646], [136.8937237, 36.4729031], [136.8938178, 36.4726723], [136.8941037, 36.4722327], [136.8946084, 36.4716713], [136.8949785, 36.4712655], [136.8954832, 36.4707244], [136.8959542, 36.4702374], [136.8965093, 36.4697436], [136.896728, 36.4696083], [136.8970644, 36.469446], [136.8975018, 36.4693378], [136.8980485, 36.4692566], [136.8983597, 36.4691687], [136.8985784, 36.4690807], [136.8987298, 36.4689184], [136.898856, 36.4687222], [136.8988644, 36.4684652], [136.8988224, 36.4682285], [136.8986121, 36.4679105], [136.8981579, 36.4672003], [136.8976869, 36.4666051], [136.8976364, 36.4664224], [136.8977626, 36.4661451], [136.8979644, 36.4659895], [136.8980822, 36.4659489], [136.8996887, 36.4652928], [136.9001345, 36.4651846], [136.9005298, 36.4651169], [136.9008831, 36.4651102], [136.9012532, 36.4651372], [136.9016989, 36.4651575], [136.902069, 36.4651507], [136.902874, 36.4651971], [136.903516, 36.465229], [136.903767, 36.465193], [136.904085, 36.465144], [136.905126, 36.464965], [136.906117, 36.464649], [136.906868, 36.464291], [136.907288, 36.464056], [136.907949, 36.463544], [136.90854, 36.462976], [136.909651, 36.461782], [136.910297, 36.461217], [136.910371, 36.461152], [136.910881, 36.460717], [136.91139, 36.460283], [136.911449, 36.460237], [136.915156, 36.457348], [136.919471, 36.454015], [136.919503, 36.45399], [136.921244, 36.452645], [136.926509, 36.448562], [136.927533, 36.447778], [136.92911, 36.446572], [136.9291583, 36.4465357], [136.9300935, 36.4458127], [136.9302367, 36.4457146], [136.9304167, 36.4456212], [136.9306172, 36.445546], [136.9308199, 36.4454982], [136.9310272, 36.445464], [136.9312049, 36.4454572], [136.9313689, 36.445464], [136.9315853, 36.445491], [136.9319459, 36.4455599], [136.9322876, 36.445655], [136.9326425, 36.4456762], [136.9329996, 36.4456216], [136.9332559, 36.4454849], [136.9396635, 36.4400548], [136.9399135, 36.4398379], [136.9401164, 36.4396665], [136.9404627, 36.4393863], [136.9406768, 36.4392747], [136.9408363, 36.4392177], [136.9410071, 36.439179], [136.9411529, 36.4391653], [136.9413374, 36.439179], [136.9414923, 36.4392177], [136.941686, 36.4392974], [136.9418568, 36.439384], [136.9420846, 36.4395047], [136.9423238, 36.4396369], [136.9424537, 36.4396824], [136.9426441, 36.4397595], [136.9428924, 36.4397858], [136.9431654, 36.439768], [136.9434134, 36.4397212], [136.943645, 36.4396665], [136.9439799, 36.4395981], [136.9440984, 36.4395526], [136.9441644, 36.4394979], [136.9442077, 36.4394387], [136.9442305, 36.4393476], [136.9442237, 36.4392724], [136.9441758, 36.4391881], [136.9440915, 36.4391129], [136.9435927, 36.438851], [136.9432851, 36.4386801], [136.9428979, 36.4384705], [136.9424466, 36.4382332], [136.9419024, 36.4379329], [136.9417771, 36.4378486], [136.9416791, 36.437753], [136.9415971, 36.4376459], [136.9415425, 36.4375206], [136.9415242, 36.4373657], [136.9415493, 36.4372313], [136.9416108, 36.4370878], [136.9416996, 36.4369579], [136.9418978, 36.4367643], [136.9421051, 36.4365912], [136.9423031, 36.4363762], [136.9425103, 36.4360807], [136.9426362, 36.4357341], [136.9427489, 36.4353557], [136.9429058, 36.4351436], [136.943066, 36.4350021], [136.9432669, 36.4348986], [136.9434898, 36.4348177], [136.9439776, 36.4346982], [136.9441211, 36.4346754], [136.9443092, 36.4346687], [136.9446337, 36.4347073], [136.9447749, 36.4347187], [136.9448934, 36.4347027], [136.9449891, 36.434664], [136.9450711, 36.4345979], [136.9451052, 36.4345159], [136.9451052, 36.4344316], [136.9450734, 36.4343496], [136.9449831, 36.4342047], [136.9447818, 36.4339943], [136.9445973, 36.4338371], [136.9443968, 36.4336981], [136.944169, 36.4335705], [136.9439964, 36.4334993], [136.9431174, 36.4332342], [136.9429582, 36.4331545], [136.9428511, 36.4330773], [136.942764, 36.4329946], [136.9426888, 36.4329049], [136.9422733, 36.4322924], [136.9422052, 36.4322147], [136.9420793, 36.432119], [136.9419409, 36.4320892], [136.9417944, 36.4320779], [136.9412078, 36.4321179], [136.9410021, 36.4320933], [136.940858, 36.4320593], [136.9406857, 36.4320031], [136.9405362, 36.4319388], [136.9399926, 36.431576], [136.9398694, 36.4315226], [136.9396687, 36.4314586], [136.9390184, 36.4313518], [136.9389296, 36.4313017], [136.9388567, 36.4312219], [136.9388339, 36.4311376], [136.9388412, 36.4310667], [136.9388899, 36.430982], [136.9390767, 36.4306868], [136.9391478, 36.4306032], [136.9392257, 36.4304839], [136.9392872, 36.4303426], [136.9393396, 36.4301786], [136.9393601, 36.4300191], [136.9393578, 36.429821], [136.939228, 36.4292469], [136.9390928, 36.4286486], [136.9389348, 36.4278627], [136.9388692, 36.4274393], [136.9388385, 36.4272035], [136.9388385, 36.4271318], [136.9388692, 36.4270714], [136.9389171, 36.4270293], [136.9389774, 36.4269917], [136.9390503, 36.4269814], [136.9391289, 36.4270008], [136.9391824, 36.4270281], [136.939236, 36.4270771], [136.9392645, 36.4271352], [136.939269, 36.4272229], [136.9392576, 36.4272958], [136.9391859, 36.4275088], [136.9391767, 36.4275976], [136.9391813, 36.4276694], [136.9391961, 36.4277696], [136.9392291, 36.427855], [136.9392781, 36.4279257], [136.939359, 36.4280099], [136.9394228, 36.4280635], [136.9397929, 36.4283232], [136.9398601, 36.4283824], [136.9399228, 36.4284473], [136.9399775, 36.4285225], [136.9400367, 36.4286136], [136.9400948, 36.4287321], [136.9402656, 36.4291171], [136.9403864, 36.4293745], [136.9406062, 36.4298477], [136.940645, 36.4299029], [136.9406775, 36.4299419], [136.9407333, 36.429988], [136.9408015, 36.4300261], [136.9408625, 36.4300374], [136.9409331, 36.4300385], [136.9410048, 36.4300317], [136.9410755, 36.4300134], [136.941137, 36.429977], [136.9411962, 36.4299246], [136.9413295, 36.4297982], [136.9413978, 36.4297651], [136.9414616, 36.4297515], [136.9415481, 36.4297469], [136.9416188, 36.4297446], [136.9417099, 36.4297617], [136.942047, 36.4298734], [136.9421473, 36.429895], [136.9422338, 36.4299121], [136.9423477, 36.42992], [136.9428386, 36.4299269], [136.9429673, 36.4299269], [136.9430983, 36.4299406], [136.9432282, 36.4299633], [136.9434514, 36.4300214], [136.9436952, 36.4301182], [136.9441701, 36.4303438], [136.9445175, 36.4305192], [136.9446872, 36.4306365], [136.9448547, 36.4307663], [136.9450107, 36.4309224], [136.9451337, 36.4310568], [136.9458308, 36.4319703], [136.9459675, 36.4321263], [136.9461076, 36.4322618], [136.9462739, 36.4323962], [136.9464436, 36.432501], [136.9466372, 36.4326206], [136.9472067, 36.4329748], [136.9475678, 36.4332345], [136.9480826, 36.4336286], [136.9482033, 36.4336993], [136.9483275, 36.433763], [136.9484505, 36.4338018], [136.9485929, 36.433828], [136.9487136, 36.4338371], [136.9488252, 36.4338314], [136.9489198, 36.4338097], [136.9490132, 36.4337687], [136.949094, 36.4336822], [136.9491507, 36.4335684], [136.9492496, 36.4333479], [136.9493078, 36.4332748]]]}, "id": "relation/8901184"}]}