{"type": "FeatureCollection", "generator": "kokudo-quiz tools/fetch_raw.py (Overpass API)", "copyright": "The data included in this document is from www.openstreetmap.org. The data is made available under ODbL.", "timestamp": "2026-09-30T16:19:51Z", "features": [{"type": "Feature", "properties": {"@id": "relation/8770279", "colour": "red", "from": "大阪府堺市堺区", "name": "国道310号", "name:en": "National Highway Route 310", "name:ja": "国道310号", "name:ja-Hira": "こくどうさんびゃくじゅうごう", "name:ja-Latn": "Kokudou 310 Gou", "network": "JP:national", "ref": "310", "route": "road", "to": "奈良県五條市", "type": "route", "wikidata": "Q6157203", "wikipedia": "ja:国道310号"}, "geometry": {"type": "MultiLineString", "coordinates": [[[135.4891139, 34.5676839], [135.4901524, 34.5669638], [135.4906723, 34.5665628], [135.4900932, 34.5669072], [135.4898101, 34.5671085], [135.4894946, 34.567325], [135.4892465, 34.5674953], [135.4891075, 34.5675748], [135.4889944, 34.56763], [135.4888077, 34.5676468], [135.4885677, 34.567601], [135.4882474, 34.5675725], [135.4877166, 34.5674817], [135.4874949, 34.5674526], [135.487419, 34.5674499], [135.4871582, 34.5674405], [135.4868506, 34.5674582], [135.4865304, 34.5675229], [135.4862427, 34.5676119], [135.4859964, 34.5677167], [135.4858915, 34.5677722], [135.4853244, 34.5680727], [135.4851649, 34.5681594], [135.4848435, 34.5683495], [135.4843571, 34.5686253], [135.4839523, 34.5688776], [135.4838863, 34.5689209], [135.4837747, 34.5689781], [135.4837015, 34.5690171], [135.4833636, 34.569243], [135.4831611, 34.5693597], [135.4820683, 34.5699894], [135.4804866, 34.5707981], [135.4786425, 34.5717017], [135.4779911, 34.5720205], [135.4779184, 34.5720542], [135.4778822, 34.5720737], [135.4778159, 34.5721084], [135.4773502, 34.5723522], [135.4770882, 34.5724893], [135.4770251, 34.5725223], [135.4769526, 34.5725679], [135.4765924, 34.5727962], [135.4764821, 34.5728652], [135.4764706, 34.5728723], [135.475983, 34.5731708], [135.4761191, 34.5732612], [135.4762923, 34.573156], [135.4767324, 34.5728636], [135.4770394, 34.5726718], [135.4771082, 34.572629], [135.4771722, 34.5725961], [135.477901, 34.5722217], [135.4780255, 34.5721578], [135.4780803, 34.5721331], [135.4784969, 34.5719315], [135.4787371, 34.5718027], [135.4805414, 34.5708804], [135.4821315, 34.5700579], [135.4829368, 34.569589], [135.4832219, 34.5694313], [135.4837223, 34.5691644], [135.4838213, 34.5691115], [135.4839279, 34.56906], [135.4839939, 34.5690185], [135.4843937, 34.5687877], [135.4848813, 34.5685038], [135.4850462, 34.5684022], [135.4853638, 34.5682208], [135.4857159, 34.5680332], [135.4859771, 34.5678945], [135.486052, 34.5678547], [135.4863514, 34.5677267], [135.4867066, 34.5676426], [135.4870519, 34.567645], [135.4872517, 34.5676579], [135.4876404, 34.5677077], [135.4880768, 34.5677941], [135.4883798, 34.5678672], [135.4885374, 34.5678882], [135.4886376, 34.5678833], [135.488744, 34.5678701], [135.4889576, 34.5677887], [135.4891139, 34.5676839]], [[135.4906723, 34.5665628], [135.4907574, 34.5665053], [135.4910631, 34.5662985], [135.4913998, 34.5660347], [135.4916673, 34.565759], [135.4918503, 34.5655289], [135.4920649, 34.5651513], [135.4920996, 34.5650966], [135.4922151, 34.5648764], [135.4922258, 34.5648546], [135.4922484, 34.5648102], [135.4922838, 34.5647469], [135.4924666, 34.5644206], [135.4926091, 34.5641516], [135.4926427, 34.5640828], [135.4926993, 34.5639748], [135.4928022, 34.5637912], [135.4929459, 34.5635284], [135.4931634, 34.5631179], [135.4932008, 34.5630359], [135.4932774, 34.5628679], [135.4933498, 34.5627093], [135.4935288, 34.5623144], [135.4936824, 34.561898], [135.4937619, 34.5616753], [135.4938059, 34.5615325], [135.4938196, 34.5614833], [135.4938348, 34.5614321], [135.4939023, 34.5612126], [135.4939428, 34.5610766], [135.4940651, 34.5606492], [135.4941911, 34.5602297], [135.4943187, 34.559813], [135.4944483, 34.5593962], [135.4945543, 34.5590318], [135.4945693, 34.5589804], [135.4945852, 34.5589244], [135.4947035, 34.5585541], [135.4948243, 34.5581308], [135.4949282, 34.5577906], [135.4949521, 34.5577214], [135.495012, 34.5575345], [135.4950371, 34.557464], [135.4950933, 34.5573073], [135.4951126, 34.557261], [135.495248, 34.5570014], [135.4953778, 34.5568147], [135.4954952, 34.5566564], [135.4956595, 34.5564773], [135.4957567, 34.5563847], [135.4959116, 34.5562511], [135.4960698, 34.5561287], [135.4961411, 34.5560761], [135.4962757, 34.5559986], [135.4964432, 34.5559007], [135.4967118, 34.5557648], [135.4969868, 34.5556688], [135.4971509, 34.5556116], [135.4983472, 34.555242], [135.49839, 34.5552288], [135.4984954, 34.5551963], [135.4985618, 34.5551759], [135.4986261, 34.5551561], [135.4992898, 34.5549501], [135.4997457, 34.5548119], [135.4999613, 34.5547438], [135.5003049, 34.5546389], [135.5004928, 34.554584], [135.5005819, 34.5545561], [135.5006925, 34.5545212], [135.5008639, 34.5544617], [135.5010705, 34.5543842], [135.5012432, 34.5543049], [135.501296, 34.5542809], [135.5013447, 34.5542554], [135.5015329, 34.5541578], [135.5017092, 34.5540437], [135.5018384, 34.5539418], [135.5019203, 34.5538762], [135.5022581, 34.5535833], [135.5023709, 34.5534855], [135.5024508, 34.5534111], [135.5026067, 34.5532775], [135.5030936, 34.5528547], [135.5034024, 34.5525865], [135.5034639, 34.5525345], [135.5035259, 34.5524802], [135.5044438, 34.5516766], [135.5046147, 34.551528], [135.5054767, 34.5507635], [135.5060461, 34.5502686], [135.5060848, 34.5502349], [135.5061412, 34.5501867], [135.5065719, 34.549818], [135.5066309, 34.5497675], [135.5066764, 34.5497278], [135.5067173, 34.5496915], [135.5069109, 34.5495239], [135.5077412, 34.548793], [135.5083827, 34.5482327], [135.5085971, 34.5480401], [135.508782, 34.5478786], [135.5088835, 34.5477901], [135.5089236, 34.5477569], [135.5089878, 34.5476986], [135.5090866, 34.5476091], [135.5092562, 34.5474552], [135.5093449, 34.5473591], [135.5094337, 34.5472629], [135.5094855, 34.5472008], [135.5095079, 34.5471739], [135.5096464, 34.5469615], [135.50973, 34.5468388], [135.5099584, 34.5464808], [135.5102252, 34.5460523], [135.5107771, 34.5451744], [135.5108541, 34.5450433], [135.510922, 34.5449343], [135.5110225, 34.5447702], [135.5112139, 34.5444638], [135.5112757, 34.5443627], [135.5113037, 34.544315], [135.5113434, 34.5442514], [135.511727, 34.5436406], [135.5117413, 34.5436184], [135.5118504, 34.5434524], [135.511893, 34.5433893], [135.5119773, 34.5432412], [135.51231, 34.5427143], [135.5123501, 34.5426493], [135.5125342, 34.5423463], [135.5126914, 34.5420876], [135.5128292, 34.5418608], [135.5130539, 34.541483], [135.5132313, 34.5412091], [135.5133022, 34.5410997], [135.513358, 34.54101], [135.5135571, 34.5406896], [135.5142026, 34.5397546], [135.5142768, 34.5396582], [135.5143419, 34.5395689], [135.514398, 34.5394888], [135.5144546, 34.5394115], [135.5146565, 34.5391235], [135.5148089, 34.538904], [135.5149247, 34.5387415], [135.5149974, 34.5386377], [135.5150599, 34.538548], [135.5153301, 34.538154], [135.5153639, 34.5381058], [135.5157849, 34.5375191], [135.5159824, 34.5372381], [135.5161236, 34.5370391], [135.5161461, 34.5370051], [135.5162024, 34.5369251], [135.5163307, 34.5367414], [135.5164635, 34.5365624], [135.5165186, 34.5364768], [135.5166172, 34.5363315], [135.5170264, 34.5357522], [135.5172841, 34.5353901], [135.5173241, 34.5353364], [135.5174519, 34.5351736], [135.5174736, 34.5351477], [135.5174961, 34.5351186], [135.5179252, 34.5346813], [135.5182476, 34.5343661], [135.5183714, 34.5342464], [135.519368, 34.5332625], [135.5194916, 34.5331446], [135.519656, 34.5329827], [135.5196736, 34.5329654], [135.520174, 34.5324735], [135.5205274, 34.5321192], [135.520639, 34.5320088], [135.5209485, 34.5317164], [135.521053, 34.5316164], [135.5222013, 34.5304823], [135.5222439, 34.5304402], [135.522277, 34.5304078], [135.5229498, 34.5297488], [135.5230385, 34.5296406], [135.5232434, 34.5293907], [135.5232791, 34.5293432], [135.5233104, 34.5292952], [135.5236357, 34.5287475], [135.5237129, 34.5285934], [135.5238073, 34.5284072], [135.5241215, 34.5277784], [135.5241448, 34.5277319], [135.5241694, 34.527682], [135.5245464, 34.5269164], [135.5248314, 34.5263343], [135.524957, 34.5260777], [135.5250554, 34.5259001], [135.5253383, 34.5253177], [135.5253648, 34.5252631], [135.5255253, 34.5249361], [135.5257059, 34.5245656], [135.5259648, 34.5240212], [135.5260028, 34.5239442], [135.5261385, 34.5236777], [135.5261586, 34.5236383], [135.5262984, 34.523361], [135.5264723, 34.5230179], [135.5267028, 34.5225805], [135.526843, 34.5223835], [135.5270207, 34.5221754], [135.5271321, 34.5220561], [135.5273012, 34.521897], [135.5273974, 34.5218145], [135.5276822, 34.5216068], [135.5279435, 34.5214559], [135.5282883, 34.5213262], [135.5286712, 34.5212295], [135.5295542, 34.5210361], [135.5300552, 34.5208948], [135.530289, 34.52079], [135.5308255, 34.5204767], [135.5309079, 34.5204285], [135.5311655, 34.5202636], [135.5323039, 34.5195525], [135.5324251, 34.5194747], [135.5326023, 34.519361], [135.5327017, 34.5192972], [135.5348905, 34.5179006], [135.5349886, 34.5178391], [135.5360948, 34.5171433], [135.5362218, 34.5170634], [135.5375002, 34.51624], [135.5378102, 34.516048], [135.5381519, 34.5158355], [135.540021, 34.5146355], [135.5402451, 34.5144523], [135.5403091, 34.5143999], [135.5403255, 34.5143865], [135.540558, 34.514187], [135.5406885, 34.5140051], [135.5408726, 34.5137388], [135.5409881, 34.5134821], [135.5411505, 34.5131209], [135.5417583, 34.5118279], [135.5420549, 34.5111969], [135.5426084, 34.5100172], [135.5429531, 34.50927], [135.5432594, 34.5086223], [135.5437556, 34.5075594], [135.544374, 34.5062103], [135.5448677, 34.5051728], [135.5449841, 34.5049438], [135.5457444, 34.5033501], [135.5459366, 34.5029875], [135.5460724, 34.50269], [135.5461714, 34.5023593], [135.5462507, 34.5020944], [135.5466744, 34.5004277], [135.546996, 34.4991629], [135.5470403, 34.4989739], [135.5470468, 34.4989511], [135.54715, 34.498589], [135.5472006, 34.4983722], [135.5472204, 34.4982855], [135.5472411, 34.4982079], [135.5474908, 34.4972647], [135.547739, 34.4963295], [135.5477737, 34.4961995], [135.5480124, 34.4953053], [135.5481093, 34.4948647], [135.5482452, 34.494347], [135.5483897, 34.4937967], [135.548444, 34.4936569], [135.5493923, 34.492129], [135.5494378, 34.4920584], [135.5496496, 34.4917227], [135.5498509, 34.4914034], [135.5502537, 34.4907651], [135.5508745, 34.4897811], [135.5514828, 34.4888268], [135.5517562, 34.4883999], [135.5518916, 34.4881844], [135.5520732, 34.4878955], [135.5520823, 34.487881], [135.5523987, 34.4873775], [135.5525051, 34.487208], [135.5527114, 34.4868814], [135.5529621, 34.4865386], [135.5542459, 34.4844833], [135.5545518, 34.4840102], [135.5550305, 34.4832386], [135.5552841, 34.4828506], [135.5553208, 34.4827902], [135.5553574, 34.4827297], [135.5555745, 34.4823949], [135.5560333, 34.4818005], [135.5565686, 34.4811073], [135.5568012, 34.4808026], [135.5568374, 34.4807566], [135.5571356, 34.4803781], [135.5571558, 34.4803521], [135.5573027, 34.4801625], [135.5573444, 34.480104], [135.5574268, 34.4799977], [135.5575626, 34.4798226], [135.5576195, 34.4797573], [135.5578668, 34.4794737], [135.5581776, 34.4791639], [135.558388, 34.4789441], [135.5585483, 34.4787767], [135.5588703, 34.478456], [135.5596907, 34.4776344], [135.5604729, 34.4768472], [135.5607526, 34.4765678], [135.561352, 34.4759585], [135.5614495, 34.4758599], [135.561915, 34.4753892], [135.5620027, 34.4752976], [135.5620656, 34.4752319], [135.5623827, 34.4749005], [135.5628638, 34.4744419], [135.5632115, 34.4740685], [135.5632834, 34.4739461], [135.5634437, 34.4736732], [135.5636038, 34.4732653], [135.5638706, 34.4725077], [135.5640438, 34.4720989], [135.5641208, 34.4718903], [135.5644094, 34.4711665], [135.5645463, 34.4708387], [135.5646616, 34.4705206], [135.5650392, 34.4693688], [135.5652441, 34.4687474], [135.5655403, 34.4680047], [135.5655853, 34.4678918], [135.5656164, 34.4678131], [135.5657329, 34.4675179], [135.5658659, 34.4671114], [135.56609, 34.4665039], [135.5662528, 34.4660852], [135.5666958, 34.4650229], [135.5667225, 34.4649594], [135.5668481, 34.4646611], [135.5669099, 34.4645144], [135.567017, 34.46426], [135.5670611, 34.4641552], [135.5670757, 34.4641206], [135.5672501, 34.4637064], [135.5672687, 34.463662], [135.5675838, 34.4629137], [135.5675875, 34.4629049], [135.5678392, 34.462326], [135.567876, 34.4622413], [135.568096, 34.4617053], [135.5681251, 34.4616344], [135.568136, 34.461599], [135.568253, 34.46122], [135.5683189, 34.4609389], [135.5683622, 34.4606583], [135.5684963, 34.4598609], [135.5685636, 34.4594935], [135.5686984, 34.4587579], [135.5687241, 34.4586176], [135.5687537, 34.4584913], [135.5687723, 34.4583772], [135.5687901, 34.4582696], [135.568812, 34.4581351], [135.568864, 34.4578499], [135.5688878, 34.4577008], [135.5688949, 34.4576561], [135.568906, 34.457589], [135.5689474, 34.4573398], [135.56903, 34.4568426], [135.56906, 34.4566808], [135.5691295, 34.4562035], [135.5692, 34.4558848], [135.5692126, 34.4558113], [135.5694426, 34.454488], [135.5694726, 34.4543796], [135.5694849, 34.4542815], [135.5695388, 34.4539317], [135.5695508, 34.453854], [135.5695587, 34.4537921], [135.5696199, 34.4534382], [135.5697537, 34.452634], [135.5697696, 34.4525581], [135.5697839, 34.452481], [135.5698737, 34.4518849], [135.5698784, 34.4517944], [135.5700036, 34.4517475], [135.5700641, 34.451725], [135.5708006, 34.451425], [135.5708204, 34.4514166], [135.5709081, 34.4513793], [135.5711148, 34.4512972], [135.5711712, 34.4512723], [135.5714825, 34.4511425], [135.5717444, 34.4510348], [135.5718859, 34.4509734], [135.5719978, 34.4509492], [135.5721007, 34.4509414], [135.5721813, 34.4509474], [135.5723072, 34.4509687], [135.5724673, 34.4510639], [135.5725417, 34.4511192], [135.5726017, 34.451178], [135.5727144, 34.4513386], [135.5727597, 34.4514224], [135.5727954, 34.4514959], [135.5729335, 34.4517395], [135.5730737, 34.4520136], [135.5733311, 34.4525132], [135.5735073, 34.4528554], [135.5735321, 34.4528894], [135.5736629, 34.4530268], [135.5737145, 34.4530429], [135.5737408, 34.4530465], [135.5737965, 34.4530406], [135.5739527, 34.4530142], [135.5740238, 34.4530165], [135.5741347, 34.4530042], [135.574203, 34.4529956], [135.574341, 34.4529637], [135.5743763, 34.4529415], [135.5743955, 34.4529132], [135.5744093, 34.4528489], [135.574411, 34.4527926], [135.5743258, 34.4523582], [135.5742724, 34.4521156], [135.57414, 34.4515143], [135.5741302, 34.4514739], [135.5741325, 34.4514193], [135.574145, 34.4513714], [135.5741804, 34.4513225], [135.5742316, 34.4512689], [135.5742749, 34.4512347], [135.5745177, 34.4510985], [135.574533, 34.4510861], [135.5745482, 34.4510736], [135.5745695, 34.4510473]], [[135.6139818, 34.4216598], [135.6138839, 34.4217152], [135.6137442, 34.4217615], [135.6134547, 34.4218269], [135.6131831, 34.4218641], [135.612984, 34.4218955], [135.612819, 34.4219397], [135.6126713, 34.4219958], [135.6121344, 34.4222756], [135.6118125, 34.4224595], [135.6116027, 34.4226345], [135.6114243, 34.4228048], [135.6113882, 34.4228408], [135.6110666, 34.4231613], [135.6109978, 34.423275], [135.6109107, 34.4234478], [135.6108863, 34.4235744], [135.6108953, 34.4236747], [135.6110468, 34.4239901], [135.611085, 34.4241268], [135.611093, 34.4242009], [135.6110887, 34.424259], [135.6110394, 34.4244144], [135.61097, 34.4245732], [135.6107462, 34.425004], [135.6106397, 34.425139], [135.6105271, 34.4252585], [135.610244, 34.425548], [135.6099933, 34.4257961], [135.6098498, 34.425941], [135.6097556, 34.4260525], [135.6096782, 34.42618], [135.609603, 34.4263218], [135.6094411, 34.4267272], [135.6092624, 34.427159], [135.6091645, 34.4274001], [135.6091183, 34.4275113], [135.6090954, 34.427562], [135.6090874, 34.4275802], [135.6089038, 34.4279739], [135.6088641, 34.4280495], [135.6087518, 34.4281397], [135.6081274, 34.4285144], [135.6080595, 34.4285904], [135.6080275, 34.4286904], [135.6080033, 34.428813], [135.6080131, 34.4292293], [135.6080187, 34.4294651], [135.6080027, 34.4295316], [135.6079718, 34.4296236], [135.6079455, 34.4297032], [135.6078966, 34.4297793], [135.6077188, 34.4299565], [135.6075219, 34.4301261], [135.6073742, 34.4301932], [135.6072089, 34.4302339], [135.6070461, 34.4302494], [135.6068115, 34.4302683], [135.6067346, 34.4302775], [135.6066487, 34.4303062], [135.606611, 34.4303349], [135.6065703, 34.4303854], [135.606547, 34.4304413], [135.6065447, 34.4305174], [135.6065599, 34.4305855], [135.6066033, 34.4306956], [135.6066405, 34.4308241], [135.6066419, 34.4309465], [135.6066137, 34.4310664], [135.6064957, 34.4313956], [135.6063986, 34.4316092], [135.6063348, 34.431681], [135.606202, 34.4318], [135.606025, 34.4318967], [135.6058499, 34.4319779], [135.6056643, 34.4320847], [135.605479, 34.4322222], [135.6051547, 34.4323239], [135.605097, 34.4323458], [135.6050397, 34.4323806], [135.6049776, 34.4324365], [135.6049415, 34.4324988], [135.604879, 34.4327928], [135.6048529, 34.4329409], [135.6048084, 34.433117], [135.6047255, 34.4332451], [135.6046301, 34.4333552], [135.6044948, 34.4334796], [135.604268, 34.4336206], [135.6037912, 34.4338733], [135.6036901, 34.4339054], [135.6035648, 34.433909], [135.6030924, 34.4338593], [135.6028694, 34.4338413], [135.6027517, 34.4338609], [135.6025953, 34.4339452], [135.6022709, 34.4342127], [135.6021935, 34.4342605], [135.6020994, 34.434291], [135.6016504, 34.4343773], [135.6015122, 34.434412], [135.6014165, 34.4344564], [135.6013794, 34.4345215], [135.6013636, 34.4345952], [135.6014416, 34.4348736], [135.6014599, 34.4350635], [135.6014345, 34.4352117], [135.6014022, 34.4352715], [135.6013459, 34.4353367], [135.601186, 34.4354877], [135.6010343, 34.4356718], [135.6009825, 34.4357803], [135.6009353, 34.4358953], [135.6008926, 34.4359572], [135.6008413, 34.4360091], [135.6006966, 34.4360817], [135.6004085, 34.436215], [135.6002121, 34.4362943], [135.600144, 34.4363076], [135.6000751, 34.4363093], [135.5999672, 34.4362913], [135.5997437, 34.4362078], [135.5993479, 34.4359987], [135.5991155, 34.4358967], [135.5990438, 34.4358716], [135.5987657, 34.4358479], [135.5985119, 34.4358486], [135.5984414, 34.4358584], [135.598406, 34.4358634], [135.5983191, 34.4358755], [135.5980724, 34.4359231], [135.5980389, 34.4359321], [135.5978192, 34.4359916], [135.5976743, 34.4360825], [135.5975366, 34.4363074], [135.5972221, 34.4368369], [135.5971238, 34.4370029], [135.5971102, 34.4370258], [135.5970517, 34.4370932], [135.5969001, 34.4372337], [135.5968528, 34.4372901], [135.5966205, 34.4375498], [135.5962875, 34.4377566], [135.595992, 34.4378995], [135.5955872, 34.4380123], [135.5951688, 34.4381119], [135.5943294, 34.4383171], [135.5939199, 34.4384129], [135.5934782, 34.4384611], [135.5926414, 34.4384516], [135.5923478, 34.4385034], [135.5920909, 34.4385587], [135.59197, 34.4385661], [135.5919396, 34.438568], [135.591413, 34.438524], [135.5911857, 34.4384913], [135.5909723, 34.4384436], [135.5908169, 34.4383696], [135.5906653, 34.4382822], [135.590425, 34.4381539], [135.5902335, 34.4380853], [135.5900387, 34.4380528], [135.5898835, 34.4380333], [135.5896693, 34.4380337], [135.5894785, 34.4380577], [135.5893878, 34.4380759], [135.5892776, 34.438098], [135.589111, 34.4381373], [135.588938, 34.4381484], [135.5886186, 34.4381576], [135.5884002, 34.4381959], [135.5882343, 34.4382657], [135.5880757, 34.4384017], [135.5879799, 34.4385706], [135.5879161, 34.4387788], [135.5878981, 34.4389409], [135.5879147, 34.4391106], [135.5879976, 34.4394924], [135.5880486, 34.439728], [135.5880569, 34.4399479], [135.588041, 34.440107], [135.5879118, 34.4404766], [135.5876385, 34.441165], [135.5873025, 34.4418191], [135.5871647, 34.4420384], [135.586973, 34.4421548], [135.5863876, 34.4423839], [135.5855459, 34.4425545], [135.585278, 34.4426599], [135.5851335, 34.4427209], [135.5849443, 34.4428894], [135.584802, 34.4429752], [135.5844531, 34.4431426], [135.5842593, 34.4432688], [135.583925, 34.4433499], [135.5833797, 34.4434284], [135.5826439, 34.4435427], [135.5818213, 34.4437332], [135.5811603, 34.4438821], [135.580749, 34.4440351], [135.5806645, 34.444074], [135.5806191, 34.4441217], [135.5805759, 34.4442037], [135.5805531, 34.4442948], [135.5805098, 34.4446411], [135.5804824, 34.4447276], [135.5804102, 34.4448426], [135.5803093, 34.444947], [135.5803039, 34.4449526], [135.5802713, 34.4449838], [135.5802456, 34.4450084], [135.5802385, 34.4450141], [135.5800847, 34.4451351], [135.5800496, 34.4451627], [135.5795616, 34.4455372], [135.5790854, 34.4458595], [135.5788186, 34.4460401], [135.5786646, 34.4461537], [135.578586, 34.4462313], [135.5785279, 34.4463131], [135.5784294, 34.4465507], [135.5783165, 34.4467187], [135.5781881, 34.446821], [135.5780136, 34.4469031], [135.5777091, 34.4469649], [135.5775791, 34.4470239], [135.577435, 34.4471101], [135.5772352, 34.4472756], [135.5771753, 34.4473504], [135.5770142, 34.4476029], [135.576819, 34.4477644], [135.5762931, 34.448032], [135.5761998, 34.44809], [135.5760374, 34.4483064], [135.575958, 34.448463], [135.5758783, 34.4486359], [135.5756337, 34.4491413], [135.5755882, 34.4491994], [135.5755426, 34.4492404], [135.5754754, 34.4492905], [135.5753794, 34.4493465], [135.5752179, 34.4494223], [135.5750884, 34.4494825], [135.57503, 34.4495274], [135.5749861, 34.4495698], [135.5749423, 34.4496413], [135.574911, 34.4497262], [135.5748979, 34.4498463], [135.5748926, 34.4499558], [135.574882, 34.4500399], [135.5748421, 34.4501231], [135.5747362, 34.4502692], [135.57467, 34.4503783], [135.5746221, 34.4504908], [135.5745482, 34.4506242], [135.5745277, 34.4506778], [135.5745243, 34.450729], [135.5745364, 34.4507865], [135.5745927, 34.4509363], [135.5745984, 34.4509722], [135.5745909, 34.4510097], [135.5745695, 34.4510473]], [[135.6139818, 34.4216598], [135.6142017, 34.4215044], [135.614471, 34.421299], [135.6149881, 34.4208661], [135.6150942, 34.4207298], [135.6151083, 34.4206697], [135.6150588, 34.4205531], [135.6149433, 34.4203282], [135.6147948, 34.4199468], [135.6147869, 34.4198028], [135.6147918, 34.419663], [135.6149332, 34.4192095], [135.6151434, 34.4190642], [135.615297, 34.4190378], [135.6154521, 34.4190411], [135.6157785, 34.4190436], [135.6162855, 34.4191025], [135.6164936, 34.4191455], [135.6167354, 34.4191261], [135.6169332, 34.4190866], [135.6171434, 34.4189805], [135.6172301, 34.4188812], [135.617227, 34.4187357], [135.6171934, 34.4185101], [135.6171679, 34.4183435], [135.6172689, 34.418171], [135.6174055, 34.4180305], [135.6178554, 34.4177427], [135.6180829, 34.4176263], [135.6181584, 34.4175761], [135.6187806, 34.4173076], [135.6189881, 34.4172159], [135.6191283, 34.4171539], [135.6191718, 34.4171328], [135.6194875, 34.4169794], [135.6199231, 34.4167716], [135.6202149, 34.4165907], [135.6207055, 34.4162069], [135.6208057, 34.4161697], [135.6208983, 34.4161354], [135.6215318, 34.415978], [135.6218449, 34.4158897], [135.6220979, 34.4157096], [135.622458, 34.4154613], [135.6226365, 34.4153503], [135.6227997, 34.4152888], [135.6231302, 34.4152728], [135.6234852, 34.4152476], [135.6235474, 34.4152363], [135.6237719, 34.4151954], [135.6239371, 34.4151053], [135.6239586, 34.4150936], [135.6243941, 34.4147326], [135.6247175, 34.4144582], [135.624896, 34.4143337], [135.6252133, 34.4142302], [135.6257967, 34.4140509], [135.6261272, 34.4139289], [135.6264445, 34.4137429], [135.6265373, 34.4136158], [135.626556, 34.4135242], [135.6265828, 34.4133929], [135.6265924, 34.4133457], [135.626623, 34.4131681], [135.6266924, 34.4130815], [135.6268117, 34.4130293], [135.6271075, 34.4130427], [135.6273758, 34.4131547], [135.6276941, 34.4132961], [135.6279134, 34.4133365], [135.6282684, 34.413328], [135.6287704, 34.4133186], [135.6289891, 34.4133072], [135.6290768, 34.4132878], [135.6291519, 34.4132662], [135.629224, 34.4132294], [135.6292921, 34.4131753], [135.6293278, 34.4130898], [135.6293534, 34.4130228], [135.6293549, 34.4130006], [135.6293667, 34.4128808], [135.6293798, 34.4127855], [135.6293513, 34.4127126], [135.6293364, 34.4126388], [135.6293171, 34.4125634], [135.6292844, 34.4124915], [135.6292476, 34.4124358], [135.6291485, 34.4123333], [135.6290756, 34.4122627], [135.6290164, 34.4121613], [135.6289936, 34.412085], [135.6289947, 34.4119985], [135.6290018, 34.4119386], [135.6290414, 34.411839], [135.6291759, 34.4115691], [135.6291987, 34.411496], [135.629218, 34.4114016], [135.6292191, 34.4113105], [135.629213, 34.4112351], [135.6291447, 34.4108732], [135.6291052, 34.4106749], [135.6291018, 34.4105861], [135.629103, 34.4104938], [135.6291467, 34.4100905], [135.6291838, 34.409889], [135.6292237, 34.4097353], [135.6292898, 34.4095701], [135.6293159, 34.4095211], [135.6296404, 34.4087861], [135.6297965, 34.4084191], [135.6298838, 34.4082186], [135.6299481, 34.4081224], [135.6300609, 34.4080154], [135.6303065, 34.4078351], [135.6303661, 34.4077728], [135.6304136, 34.4077147], [135.6304322, 34.4076498], [135.630431, 34.4075734], [135.6304228, 34.4075161], [135.6303969, 34.4073377], [135.6303832, 34.4072671], [135.6303626, 34.4072123], [135.630316, 34.4071099], [135.6301515, 34.4068613], [135.6300415, 34.406701], [135.6299982, 34.4065837], [135.6299766, 34.4064891], [135.6299618, 34.4063513], [135.6299435, 34.4060711], [135.6299219, 34.4059697], [135.6298991, 34.4058832], [135.6298547, 34.4058069], [135.6297659, 34.4056964], [135.6296793, 34.4056326], [135.6295139, 34.4055408], [135.6292895, 34.4053851], [135.6292396, 34.4053353], [135.6291941, 34.4052704], [135.6291671, 34.4052117], [135.6291576, 34.405161], [135.6291531, 34.4051075], [135.6291645, 34.4050483], [135.629202, 34.4049765], [135.6292762, 34.404849], [135.6293273, 34.4047442], [135.6293609, 34.404647], [135.6293752, 34.4045745], [135.629382, 34.4045175], [135.6293718, 34.4044344], [135.6293374, 34.4042514], [135.6293125, 34.4041633], [135.6293011, 34.4040847], [135.6293011, 34.4040163], [135.6293334, 34.4037347], [135.6293672, 34.4036314], [135.6294201, 34.4035352], [135.629566, 34.4033549], [135.6296901, 34.4032217], [135.6298281, 34.4031001], [135.6299037, 34.4030004], [135.6299322, 34.4029553], [135.6299435, 34.4028887], [135.6299444, 34.4028299], [135.6299209, 34.4027297], [135.6298679, 34.4025833], [135.6298558, 34.402522], [135.6298526, 34.4024562], [135.6298706, 34.4023944], [135.6299495, 34.4022045], [135.6300413, 34.4020438], [135.6300586, 34.4019798], [135.6300757, 34.4018887], [135.6301019, 34.4017065], [135.6301258, 34.4015254], [135.6301508, 34.4014285], [135.6301964, 34.4013272], [135.6302511, 34.4012417], [135.6303194, 34.40117], [135.6304514, 34.4010927], [135.6307554, 34.401011], [135.6311642, 34.4009188], [135.6312247, 34.4008938], [135.6313087, 34.4008494], [135.6313656, 34.4008083], [135.6314086, 34.4007563], [135.6314584, 34.400687], [135.6315882, 34.4003421], [135.6317126, 34.3999903], [135.6318156, 34.3998001], [135.6318408, 34.3997343], [135.631868, 34.3996331], [135.631871, 34.3995846], [135.6318616, 34.3995443], [135.6318292, 34.3994875], [135.6317667, 34.3994306], [135.6315347, 34.3992348], [135.6314857, 34.3991779], [135.6314443, 34.3991149], [135.6314299, 34.3990412], [135.6314263, 34.3989751], [135.6314402, 34.3988897], [135.6314675, 34.3988396], [135.6316381, 34.3986874], [135.631782, 34.3985636], [135.6319635, 34.398418], [135.6321031, 34.3982519], [135.6321691, 34.3981869], [135.6322295, 34.3981482], [135.6323423, 34.3981049], [135.6326225, 34.397982], [135.6327216, 34.3979193], [135.6328041, 34.3978297], [135.6329983, 34.3975616], [135.6331088, 34.3974204], [135.6332341, 34.3972564], [135.6334437, 34.3970275], [135.6337742, 34.3966967], [135.6338555, 34.3966152], [135.6339471, 34.3965171], [135.6340011, 34.3964593], [135.6341211, 34.3962946], [135.6341738, 34.3961367], [135.6342108, 34.3959459], [135.6342376, 34.3958657], [135.6342774, 34.3957791], [135.6343332, 34.3957176], [135.6344209, 34.3956606], [135.6346321, 34.395536], [135.634708, 34.3955103], [135.6348105, 34.3954795], [135.6350371, 34.3954333], [135.6351602, 34.3954032], [135.6352903, 34.3953653], [135.6355497, 34.3952898], [135.635643, 34.3952627], [135.6357433, 34.3952335], [135.6358286, 34.3952119], [135.6361067, 34.3951572], [135.6361806, 34.3951353], [135.6362878, 34.3950934], [135.6369324, 34.3948054], [135.6373812, 34.3945945], [135.6374363, 34.3945604], [135.6375099, 34.3945102], [135.6375885, 34.3944396], [135.63765, 34.3943747], [135.6376587, 34.3943637], [135.6377124, 34.3942954], [135.6378617, 34.3941059], [135.6379177, 34.394049], [135.637978, 34.394], [135.6380942, 34.3939339], [135.638542, 34.3937158], [135.6387047, 34.3936366], [135.6388336, 34.3935738], [135.6388801, 34.3935512], [135.6389929, 34.3934886], [135.6390931, 34.3934282], [135.6392036, 34.393353], [135.6394167, 34.3931915], [135.6394642, 34.3931555], [135.6395339, 34.3931138], [135.6396009, 34.3930832], [135.6396797, 34.3930626], [135.6397417, 34.3930478], [135.6400544, 34.3930204], [135.6401501, 34.3930022], [135.6402298, 34.3929863], [135.6403139, 34.3929653], [135.640403, 34.3929373], [135.6405894, 34.3928576], [135.6406627, 34.3928302], [135.6407189, 34.3928163], [135.6408506, 34.3928063], [135.6409497, 34.3928109], [135.6410392, 34.3928163], [135.6413881, 34.3928761], [135.6414828, 34.3928838], [135.6415659, 34.3928838], [135.6416479, 34.3928724], [135.6417778, 34.3928458], [135.6419463, 34.3928029], [135.6419981, 34.392797], [135.6421521, 34.3927902], [135.6423894, 34.3927699], [135.6424566, 34.3927573], [135.6427038, 34.3926582], [135.6432083, 34.3923997], [135.6432225, 34.3923923], [135.6433359, 34.3923331], [135.643404, 34.3922975], [135.6434372, 34.3922802], [135.6435878, 34.3922129], [135.6441462, 34.3919577], [135.6444649, 34.3918183], [135.6446439, 34.3917173], [135.6447409, 34.391632], [135.6448109, 34.3915557], [135.644869, 34.3914805], [135.6449414, 34.3913808], [135.6451015, 34.391107], [135.6452494, 34.3908871], [135.6452916, 34.3908142], [135.6453143, 34.3907641], [135.645328, 34.3907174], [135.6453565, 34.3906285], [135.6453872, 34.3904953], [135.6454189, 34.3904213], [135.6454465, 34.3903711], [135.6454795, 34.3903189], [135.6455194, 34.3902766], [135.6455581, 34.3902458], [135.6457781, 34.3901011], [135.6458463, 34.3900533], [135.6458736, 34.39003], [135.6459317, 34.3899839], [135.6459807, 34.3899326], [135.6460126, 34.3898882], [135.6460627, 34.3898039], [135.6461948, 34.3894166], [135.6462119, 34.3893722], [135.6462438, 34.3893267], [135.6462802, 34.3892913], [135.6463201, 34.3892743], [135.64636, 34.3892674], [135.646418, 34.3892731], [135.6464727, 34.3893027], [135.6464989, 34.3893392], [135.6465149, 34.3893688], [135.6465194, 34.3894144], [135.6465114, 34.3894485], [135.6464921, 34.3894895], [135.6463292, 34.3898046], [135.6462094, 34.3901451], [135.6461242, 34.3904144], [135.6461037, 34.3904953], [135.6460365, 34.3908233], [135.6460388, 34.3908746], [135.6460513, 34.3909224], [135.6460809, 34.3909657], [135.6461128, 34.391001], [135.6461662, 34.3910403], [135.646385, 34.3911172], [135.6464186, 34.3911368], [135.6464613, 34.391173], [135.646483, 34.3912049], [135.646508, 34.3912436], [135.6465171, 34.3912948], [135.6465183, 34.3913564], [135.6465103, 34.3914031], [135.6464898, 34.3914441], [135.6464522, 34.3914885], [135.6464146, 34.3915261], [135.6463622, 34.3915523], [135.6462392, 34.3915785], [135.6461629, 34.3916035], [135.6461014, 34.391624], [135.6460672, 34.3916479], [135.6460444, 34.3916798], [135.6460376, 34.3917186], [135.6460399, 34.3917641], [135.6460638, 34.3918017], [135.64609, 34.3918325], [135.6461322, 34.3918495], [135.6461823, 34.3918564], [135.6462381, 34.3918541], [135.6462848, 34.3918359], [135.6463406, 34.3918051], [135.6463748, 34.391771], [135.6464013, 34.3917427], [135.6464921, 34.3916479], [135.6465502, 34.3916058], [135.6466846, 34.3915215], [135.6467335, 34.3914714], [135.6467562, 34.3914356], [135.6467814, 34.3913746], [135.6467859, 34.3913256], [135.6467723, 34.3912652], [135.6467529, 34.3912197], [135.6467222, 34.3911718], [135.6466766, 34.3911251], [135.6464852, 34.3909998], [135.6464442, 34.3909714], [135.6464146, 34.3909326], [135.6463839, 34.3908734], [135.6463713, 34.3908108], [135.6463736, 34.3907629], [135.6463873, 34.3907048], [135.6465057, 34.3905135], [135.6465297, 34.390452], [135.6465741, 34.3902982], [135.6465975, 34.3902499], [135.6466242, 34.3902105], [135.6466834, 34.3901661], [135.6467187, 34.3901439], [135.6469932, 34.3900909], [135.6471962, 34.3900368], [135.6472563, 34.3900055], [135.6473019, 34.3899497], [135.6473534, 34.3897951], [135.6473942, 34.3897538], [135.647427, 34.3897225], [135.6474933, 34.3896934], [135.6475641, 34.3896785], [135.6476732, 34.3896649], [135.6477541, 34.389649], [135.6478093, 34.3896344], [135.6478612, 34.3895932], [135.6478896, 34.3895396], [135.6478999, 34.389477], [135.6478885, 34.3894178], [135.6478627, 34.3893642], [135.6478338, 34.3892651], [135.6478266, 34.389213], [135.6478395, 34.3891524], [135.6478656, 34.3890987], [135.647901, 34.3890476], [135.6479466, 34.3890089], [135.6480047, 34.388961], [135.648157, 34.3888701], [135.6482302, 34.3888483], [135.6483286, 34.3888308], [135.6483988, 34.3888346], [135.6484933, 34.3888562], [135.6485667, 34.3888785], [135.6487874, 34.3889427], [135.6488612, 34.3889485], [135.6489364, 34.3889519], [135.6490093, 34.3889383], [135.6491899, 34.3888713], [135.6492655, 34.3888585], [135.6493673, 34.3888558], [135.6496126, 34.388913], [135.6497669, 34.3889451], [135.6498939, 34.3889213], [135.6500511, 34.388807], [135.6501564, 34.3887332], [135.6502949, 34.3886904], [135.6504825, 34.3886999], [135.6507854, 34.3887927], [135.6510465, 34.3888773], [135.6512182, 34.388913], [135.6513755, 34.3889015], [135.6514317, 34.3888332], [135.6514577, 34.3887201], [135.6513855, 34.3885927], [135.651198, 34.3883975], [135.6508503, 34.3881237], [135.6507465, 34.3880094], [135.6507263, 34.387907], [135.6507623, 34.3878094], [135.6509383, 34.3876606], [135.6514144, 34.3874844], [135.6517981, 34.3873546], [135.6519775, 34.3873197], [135.6520515, 34.3873175], [135.6521301, 34.3873288], [135.6522235, 34.387355], [135.6524297, 34.3874712], [135.6524821, 34.3874963], [135.6525447, 34.3875099], [135.652621, 34.3875031], [135.6526894, 34.3874815], [135.6527497, 34.3874382], [135.6528238, 34.387379], [135.6528887, 34.387322], [135.6529436, 34.3872892], [135.6530015, 34.3872776], [135.6530503, 34.3872796], [135.6531119, 34.3873004], [135.6532234, 34.3873427], [135.6533329, 34.3873881], [135.6534069, 34.3873949], [135.6534787, 34.3873869], [135.6535391, 34.3873596], [135.6535778, 34.3873175], [135.6536085, 34.3872594], [135.6536211, 34.3871682], [135.6536418, 34.3870903], [135.6536632, 34.387043], [135.6536995, 34.3869999], [135.6537475, 34.3869735], [135.6538308, 34.3869403], [135.6542693, 34.3867999], [135.6544082, 34.3867455], [135.6550786, 34.3864832], [135.656098, 34.386066], [135.6571263, 34.3856885], [135.657278, 34.3856851], [135.657433, 34.3857146], [135.6576381, 34.3859107], [135.657786, 34.3860193], [135.6580788, 34.3861145], [135.6582563, 34.38617], [135.6584654, 34.3862214], [135.6585851, 34.3862036], [135.6588581, 34.3861338], [135.6589642, 34.3861271], [135.6590999, 34.3862517], [135.6592223, 34.3863679], [135.6593865, 34.3863754], [135.6595548, 34.3863434], [135.6597099, 34.3862357], [135.6598139, 34.3861473], [135.6599873, 34.3858417], [135.660073, 34.3856994], [135.6602219, 34.3856447], [135.660379, 34.3856877], [135.66043, 34.3857634], [135.6604331, 34.3861936], [135.6604627, 34.3863636], [135.6605233, 34.3865105], [135.6609452, 34.3871583], [135.6610921, 34.3873014], [135.6612859, 34.3873141], [135.661445, 34.3872391], [135.6615787, 34.3870615], [135.6617021, 34.386548], [135.6618225, 34.3862618], [135.6621152, 34.3858788], [135.6622937, 34.3856043], [135.662457, 34.385324], [135.6624855, 34.3851034], [135.6625579, 34.3849974], [135.6626987, 34.3849275], [135.6628589, 34.3849317], [135.6629797, 34.3849844], [135.6635597, 34.385292], [135.6637321, 34.3853492], [135.6638973, 34.3853231], [135.6640228, 34.3852314], [135.6641462, 34.3850984], [135.6645823, 34.3846995], [135.6647562, 34.3846286], [135.6648803, 34.3845955], [135.665049, 34.3846227], [135.6651773, 34.3846725], [135.6652673, 34.3848105], [135.6653887, 34.3852314], [135.6654601, 34.3854132], [135.6656467, 34.3855951], [135.6659803, 34.3859225], [135.6660986, 34.3861523], [135.6662109, 34.3862466], [135.6663975, 34.3862719], [135.6665607, 34.386229], [135.6666546, 34.3861364], [135.6667719, 34.3859427], [135.6669014, 34.3856119], [135.6670096, 34.3853038], [135.667082, 34.3851598], [135.6672228, 34.3850251], [135.6674758, 34.3848728], [135.667693, 34.3847019], [135.6679317, 34.3844291], [135.6681817, 34.3841749], [135.6684224, 34.383977], [135.6687366, 34.3838962], [135.6689579, 34.3838684], [135.6692599, 34.383812], [135.6694619, 34.3838129], [135.6696342, 34.3838651], [135.6697526, 34.3839703], [135.6698168, 34.3841934], [135.6697709, 34.3843534], [135.6697261, 34.384504], [135.669724, 34.3846733], [135.669875, 34.3850554], [135.6698678, 34.3853038], [135.6696383, 34.3856523], [135.6694812, 34.3859385], [135.6693956, 34.3861119], [135.669366, 34.3862391], [135.6694445, 34.386362], [135.6696067, 34.3864402], [135.6700729, 34.3863889], [135.6703575, 34.3862997], [135.6707757, 34.3860959], [135.6711583, 34.385888], [135.6720325, 34.3854351], [135.6724966, 34.3852827], [135.6726812, 34.3852028], [135.6731423, 34.3851666], [135.6734055, 34.3851506], [135.673582, 34.3851682], [135.6738013, 34.3852819], [135.6738911, 34.3853955], [135.6739043, 34.3855597], [135.6738064, 34.3857609], [135.6736728, 34.3859326], [135.6735095, 34.3861507], [135.6734014, 34.3863426], [135.6732413, 34.3866246], [135.6730015, 34.3869504], [135.6727894, 34.3872004], [135.6726415, 34.3873115], [135.6724379, 34.3874107], [135.672359, 34.3874311], [135.6722895, 34.3874715], [135.6722586, 34.3875204], [135.6722599, 34.3875716], [135.6722829, 34.3876138], [135.6723273, 34.3876516], [135.6723805, 34.3876659], [135.672439, 34.3876536], [135.6725293, 34.387618], [135.6726343, 34.387554], [135.6732606, 34.3870337], [135.6738258, 34.3864259], [135.6741481, 34.3860555], [135.6743817, 34.3859032], [135.6744939, 34.3856809], [135.6745694, 34.3854115], [135.6745653, 34.3852676], [135.6745255, 34.3850571], [135.6744837, 34.3848475], [135.674497, 34.3847204], [135.67465, 34.3845436], [135.6747449, 34.3843719], [135.6747428, 34.3842372], [135.6746327, 34.3841084], [135.6744531, 34.3840259], [135.6743236, 34.3837851], [135.6741389, 34.3831756], [135.6740726, 34.382939], [135.6740012, 34.3828203], [135.6738339, 34.3827522], [135.6736564, 34.3827623], [135.6734892, 34.3828138], [135.6733188, 34.382753], [135.6731607, 34.3826141], [135.6728363, 34.3822058], [135.6726517, 34.3819389], [135.6723946, 34.3816241], [135.6723375, 34.3814422], [135.6723895, 34.3812924], [135.6725231, 34.3811602], [135.6726476, 34.381113], [135.672924, 34.3811215], [135.6731301, 34.3810861], [135.6732868, 34.3809807], [135.6734455, 34.3807962], [135.6735249, 34.3806379], [135.6736461, 34.3805259], [135.6738927, 34.3805033], [135.6742101, 34.3804235], [135.6743904, 34.3803307], [135.6745217, 34.3802307], [135.6747251, 34.3802057], [135.6750468, 34.3801438], [135.67523, 34.3800437], [135.6753325, 34.3799675], [135.6754046, 34.3797866], [135.6753916, 34.3796723], [135.6753967, 34.3795223], [135.6754885, 34.3793135], [135.6755436, 34.379071], [135.6755232, 34.3789616], [135.6753814, 34.3788156], [135.6752355, 34.3786703], [135.6751804, 34.3785154], [135.6752275, 34.378357], [135.6754721, 34.3779336], [135.6756925, 34.3776146], [135.675972, 34.3773671], [135.6759659, 34.3772273], [135.6759002, 34.3770784], [135.6756802, 34.3769074], [135.675615, 34.3768266], [135.6756496, 34.3767306], [135.6758088, 34.37651], [135.6758128, 34.3763181], [135.675802, 34.3761078], [135.6758067, 34.3760285], [135.6758904, 34.3759561], [135.6760352, 34.3758483], [135.676176, 34.3756614], [135.6761964, 34.3754695], [135.6761862, 34.3751428], [135.6760475, 34.3749306], [135.6755762, 34.3746663], [135.6752889, 34.374602], [135.675107, 34.3745888], [135.6749601, 34.3745585], [135.6748581, 34.3744693], [135.674854, 34.3743514], [135.6749071, 34.3741864], [135.6749106, 34.3740285], [135.6748606, 34.3739644], [135.6747665, 34.3739233], [135.6746028, 34.3738942], [135.6744093, 34.3738799], [135.6742501, 34.3738261], [135.6741849, 34.3737469], [135.6741747, 34.3736088], [135.6741808, 34.3734657], [135.6742665, 34.3733596], [135.6744215, 34.3733411], [135.6745296, 34.373395], [135.6746867, 34.3735314], [135.6748377, 34.3736004], [135.6749989, 34.3735937], [135.6751437, 34.3735667], [135.675311, 34.3735196], [135.6754946, 34.3734657], [135.6755966, 34.3734725], [135.6756945, 34.3735364], [135.6758765, 34.3736834], [135.6760728, 34.3738164], [135.6761843, 34.3739488], [135.6762943, 34.3741763], [135.6763678, 34.3742319], [135.67648, 34.3742605], [135.6765983, 34.3742251], [135.6766527, 34.3741421], [135.676671, 34.3740395], [135.6766921, 34.3739288], [135.6767492, 34.3737537], [135.67689, 34.3736711], [135.6770675, 34.3736139], [135.6771879, 34.3736493], [135.6774, 34.3737318], [135.6774735, 34.37372], [135.6775877, 34.3736257], [135.6775469, 34.373464], [135.6774776, 34.37323], [135.677551, 34.3730869], [135.6776184, 34.3729998], [135.6777244, 34.3728629], [135.677979, 34.3727433], [135.6781936, 34.3727181], [135.6783262, 34.3726474], [135.6784099, 34.372511], [135.678367, 34.3722803], [135.6782161, 34.3719839], [135.678112, 34.3718223], [135.6780039, 34.3717196], [135.6779141, 34.3714771], [135.6776816, 34.3709635], [135.6776081, 34.3707193], [135.6776367, 34.3705055], [135.6776856, 34.3703691], [135.6778244, 34.3702832], [135.6780182, 34.3703051], [135.6782263, 34.3704398], [135.6783813, 34.370689], [135.6785853, 34.3709719], [135.6787751, 34.371334], [135.6788159, 34.3716522], [135.6789423, 34.3717482], [135.6790525, 34.3717718], [135.6791627, 34.3717145], [135.6792341, 34.3714771], [135.6792341, 34.3710662], [135.6790194, 34.3706462], [135.678872, 34.3704099], [135.6787955, 34.3702815], [135.678773, 34.3700407], [135.6788179, 34.369933], [135.6791627, 34.3695574], [135.6794034, 34.369421], [135.679577, 34.369266], [135.679687, 34.3690186], [135.6796931, 34.3688569], [135.6796339, 34.3685235], [135.679536, 34.368217], [135.6794014, 34.3679013], [135.6792545, 34.367338], [135.6792382, 34.3670349], [135.6793565, 34.3666122], [135.6794932, 34.3661441], [135.679545, 34.3658145], [135.6796176, 34.3653526], [135.6798543, 34.3648188], [135.680008, 34.364307], [135.6800277, 34.3638892], [135.6800501, 34.3635204], [135.6802786, 34.3628737], [135.6805683, 34.3622371], [135.6807254, 34.3618852], [135.6810549, 34.3612015], [135.6811173, 34.3611095], [135.6812179, 34.3610133], [135.6813321, 34.3609408], [135.6814942, 34.3608648], [135.681776, 34.3606979], [135.6824406, 34.3602176], [135.6826104, 34.3601219], [135.6827226, 34.3600664], [135.6829531, 34.359999], [135.6831816, 34.3599518], [135.683404, 34.3598676], [135.6837423, 34.3596584], [135.6844719, 34.3592107], [135.6848103, 34.3589932], [135.6853768, 34.3586685], [135.6853899, 34.3586613], [135.68576, 34.358459], [135.686205, 34.3581785], [135.6875515, 34.3573431], [135.688033, 34.3570905], [135.6882329, 34.3569255], [135.6885287, 34.3565044], [135.6886715, 34.3563646], [135.6888388, 34.3562282], [135.6892448, 34.3560581], [135.6892586, 34.356052], [135.6899404, 34.3557516], [135.690269, 34.3556024], [135.6907565, 34.3553811], [135.6907844, 34.3553711], [135.6912951, 34.3551874], [135.6915603, 34.3550392], [135.6917847, 34.3548118], [135.6921101, 34.354471], [135.6922559, 34.3543183], [135.6923579, 34.3541853], [135.692957, 34.35356], [135.6939641, 34.3527533], [135.6941994, 34.3525654], [135.6948945, 34.3519604], [135.6949601, 34.3519034], [135.6953031, 34.3516643]]]}, "id": "relation/8770279"}]}