{"type": "FeatureCollection", "generator": "kokudo-quiz tools/fetch_raw.py (Overpass API)", "copyright": "The data included in this document is from www.openstreetmap.org. The data is made available under ODbL.", "timestamp": "2026-09-30T16:19:51Z", "features": [{"type": "Feature", "properties": {"@id": "relation/12886", "colour": "red", "from": "徳島県徳島市", "name": "国道318号", "name:en": "National Highway Route 318", "name:ja": "国道318号", "name:ja-Hira": "こくどうさんびゃくじゅうはちごう", "name:ja-Latn": "kokudo 318 Gou", "network": "JP:national", "ref": "318", "route": "road", "to": "香川県東かがわ市", "type": "route", "wikidata": "Q6157220", "wikipedia": "ja:国道318号"}, "geometry": {"type": "MultiLineString", "coordinates": [[[134.5536733, 34.0714364], [134.5534488, 34.0714504], [134.5532307, 34.0714853], [134.5530142, 34.0715389], [134.5527811, 34.0716108], [134.5526086, 34.0716641], [134.5522826, 34.0717646], [134.5521709, 34.0717991], [134.5515153, 34.0720087], [134.5513027, 34.0720777], [134.5508077, 34.0722648], [134.5499748, 34.0725314], [134.5497664, 34.0725931], [134.5495546, 34.0726656], [134.5493486, 34.0727303], [134.5489037, 34.0728814], [134.5487944, 34.0729228], [134.5486885, 34.0729697], [134.5485877, 34.0730196], [134.5484584, 34.0730929], [134.5483278, 34.0732054], [134.5482798, 34.0732507], [134.5482329, 34.0733024], [134.5481604, 34.073389], [134.5480397, 34.0735362], [134.5477439, 34.0738909], [134.5476507, 34.0740029], [134.5473896, 34.0742906], [134.5472549, 34.0744516], [134.5470437, 34.0747086], [134.5469187, 34.074857], [134.5466769, 34.0751514], [134.5465994, 34.0752452], [134.546363, 34.0755395], [134.5460163, 34.0759334], [134.5458569, 34.0760833], [134.5456842, 34.0762233], [134.5454931, 34.0763573], [134.5452927, 34.0764783], [134.5451314, 34.0765775], [134.5449544, 34.076666], [134.5448723, 34.0767018], [134.5448012, 34.0767306], [134.5446512, 34.0767878], [134.5444921, 34.0768414], [134.5443467, 34.0768802], [134.5442152, 34.0769062], [134.54404, 34.0769409], [134.5437975, 34.0769793], [134.543172, 34.0770648], [134.5431201, 34.0770714], [134.5425882, 34.0771392], [134.5419068, 34.0772294], [134.5418879, 34.0772319], [134.5416393, 34.0772652], [134.5408461, 34.0773687], [134.539618, 34.0775322], [134.5385669, 34.0776712], [134.5383635, 34.0776986], [134.5382143, 34.0777182], [134.5375738, 34.0778052], [134.5371406, 34.0778756], [134.5359708, 34.0780352], [134.5358766, 34.0780481], [134.5357379, 34.0780665], [134.5347344, 34.0781992], [134.5346169, 34.0782151], [134.5345062, 34.07823], [134.5335132, 34.0783639], [134.5333866, 34.078381], [134.5332655, 34.078397], [134.5321264, 34.0785479], [134.5308487, 34.0787212], [134.5304698, 34.0787695], [134.5304133, 34.0787768], [134.529967, 34.0788519], [134.5297587, 34.0788726], [134.529645, 34.0788838], [134.5295679, 34.0788915], [134.5290276, 34.0789617], [134.5289103, 34.0789737], [134.5287976, 34.0789747], [134.5285332, 34.078962], [134.5283337, 34.0789364], [134.5279449, 34.0788649], [134.5277675, 34.0788333], [134.5275757, 34.0787964], [134.5264067, 34.0785768], [134.5258133, 34.0784649], [134.5254324, 34.078396], [134.5253444, 34.0783806], [134.5242213, 34.0781864], [134.5239998, 34.0781496], [134.5231504, 34.0780041], [134.5230443, 34.0779847], [134.5219134, 34.0777868], [134.5208507, 34.0775997], [134.5206797, 34.0775688], [134.5205414, 34.0775439], [134.520036, 34.0774558], [134.5197751, 34.0774136], [134.5196564, 34.0774067], [134.5191599, 34.0773174], [134.5190682, 34.0773002], [134.5188573, 34.0772584], [134.5187047, 34.0772282], [134.5181412, 34.0771416], [134.5178468, 34.077115], [134.5159524, 34.076837], [134.515772, 34.0768083], [134.5155124, 34.0767671], [134.5151505, 34.0767121], [134.5149385, 34.0766753], [134.514763, 34.0766202], [134.5145977, 34.0765434], [134.5145052, 34.0764839], [134.514428, 34.076434], [134.5142996, 34.0763533], [134.5136629, 34.0759535], [134.513594, 34.0759102], [134.5135063, 34.0758538], [134.5129216, 34.0754777], [134.5124663, 34.0751976], [134.5123712, 34.0751391], [134.5122791, 34.0750809], [134.512231, 34.0750505], [134.512103, 34.0749708], [134.5116158, 34.0746749], [134.5113908, 34.0745531], [134.5110711, 34.0743622], [134.5110222, 34.0743322], [134.5109326, 34.0742858], [134.509776, 34.0736858], [134.5093904, 34.0734858], [134.508841, 34.0732157], [134.5083828, 34.0729683], [134.5076197, 34.0725771], [134.5074223, 34.0724769], [134.5072637, 34.0724123], [134.5071028, 34.0723549], [134.5070212, 34.0723328], [134.5068714, 34.0723076], [134.5067972, 34.072293], [134.5064761, 34.0722476], [134.5060616, 34.0722026], [134.5050828, 34.0720824], [134.5049583, 34.0720613], [134.5047809, 34.0720369], [134.5032714, 34.0718747], [134.5030432, 34.0718561], [134.5028319, 34.0718375], [134.5026623, 34.0718402], [134.5023765, 34.0718723], [134.501633, 34.0720325], [134.5015342, 34.0720518], [134.501248, 34.0721184], [134.501089, 34.0721546], [134.500106, 34.0723705], [134.5000471, 34.072384], [134.4999219, 34.0724128], [134.4998413, 34.0724303], [134.4967011, 34.0731547], [134.4966502, 34.0731677], [134.4965307, 34.0731993], [134.4963446, 34.0732403], [134.4962806, 34.0732541], [134.4958817, 34.0733238], [134.4955058, 34.0733685], [134.4949859, 34.0733994], [134.4946967, 34.0734391]], [[134.5526567, 34.0717489], [134.5528251, 34.0716936], [134.553054, 34.0716184], [134.5532644, 34.0715694], [134.5534604, 34.0715349], [134.5536604, 34.0715157], [134.553886, 34.071507], [134.5541297, 34.0715102], [134.55614, 34.0716088], [134.5566456, 34.071637], [134.5568622, 34.0716516], [134.5569842, 34.0716616], [134.5571009, 34.0716633], [134.5577469, 34.0716605], [134.5578979, 34.0716593], [134.5580196, 34.0716604], [134.5581454, 34.0716401], [134.5580077, 34.071585], [134.5578821, 34.0715881], [134.5577492, 34.0715826], [134.5573517, 34.0715855], [134.5572296, 34.0715827], [134.5570003, 34.0715822], [134.5568515, 34.0715866], [134.5566036, 34.0715826], [134.5553899, 34.071515], [134.5541379, 34.0714574], [134.5539102, 34.0714436], [134.5536733, 34.0714364]], [[134.5437447, 34.0770798], [134.5440645, 34.0770361], [134.5442288, 34.0770038], [134.5443793, 34.0769742], [134.5445225, 34.0769359], [134.5446922, 34.0768769], [134.5449835, 34.0767555], [134.5451789, 34.0766624], [134.545367, 34.0765619], [134.5455683, 34.076432], [134.5457634, 34.0762923], [134.5459532, 34.0761365], [134.5461299, 34.0759726], [134.5464956, 34.0755532], [134.5466957, 34.0753008], [134.5467773, 34.0752024], [134.5471845, 34.074709], [134.5474895, 34.0743458], [134.5476443, 34.0741622], [134.547693, 34.0741059]], [[134.5484016, 34.0732777], [134.548314, 34.0733668], [134.5481731, 34.0735341], [134.5478293, 34.0739485], [134.547693, 34.0741059]], [[134.5526567, 34.0717489], [134.5523258, 34.0718576], [134.5522152, 34.0718939], [134.5513837, 34.0721611], [134.5506437, 34.0724107], [134.5500443, 34.0726074], [134.5498397, 34.0726745], [134.5496241, 34.0727445], [134.5493928, 34.0728164], [134.5489641, 34.0729597], [134.5488756, 34.0729934], [134.5487901, 34.0730272], [134.5487067, 34.0730635], [134.5486255, 34.0731083], [134.5485481, 34.0731563], [134.5484736, 34.0732141], [134.5484016, 34.0732777]], [[134.5437447, 34.0770798], [134.5431253, 34.0771646], [134.5420907, 34.0773078], [134.5419062, 34.0773304], [134.5416984, 34.0773595], [134.5415149, 34.0773717], [134.5408636, 34.0774592], [134.5396351, 34.077621], [134.5385837, 34.0777611], [134.5383786, 34.0777957], [134.5382315, 34.07782], [134.5376227, 34.0779007], [134.5371524, 34.0779546], [134.5359873, 34.0781157], [134.5358896, 34.0781285], [134.5357549, 34.0781457], [134.5347445, 34.0782741], [134.5346286, 34.0782892], [134.5345194, 34.0783035], [134.533526, 34.078434], [134.5333947, 34.0784512], [134.5332783, 34.0784672], [134.5321358, 34.0786239], [134.5308478, 34.0787939], [134.5303936, 34.0788542], [134.5299881, 34.07891], [134.5297739, 34.0789321], [134.5296552, 34.0789443], [134.5296422, 34.0789457], [134.5290121, 34.0790395], [134.5288949, 34.079048], [134.5287689, 34.079048], [134.5286158, 34.0790413], [134.5284994, 34.0790297], [134.527928, 34.0789303], [134.527744, 34.0788968], [134.5275581, 34.0788636], [134.5275041, 34.0788536], [134.527008, 34.0787699], [134.5259474, 34.0785612], [134.5254982, 34.0784825], [134.5255001, 34.0784803], [134.5254126, 34.0784652], [134.5250459, 34.0784021], [134.5242132, 34.0782547], [134.5231339, 34.0780694], [134.5230385, 34.078053], [134.5218999, 34.0778534], [134.5213448, 34.0777566], [134.5208336, 34.0776762], [134.520722, 34.0776524], [134.5205238, 34.0776102], [134.5200205, 34.0775235], [134.5198418, 34.0775043], [134.5195139, 34.0774509], [134.5190508, 34.0773714], [134.5188156, 34.0773245], [134.5186892, 34.0772993], [134.5183683, 34.0772464], [134.5181183, 34.0772078], [134.5177547, 34.0771705], [134.5171709, 34.0770862], [134.5170213, 34.0770655], [134.5166054, 34.0770055], [134.515969, 34.0769141], [134.5159371, 34.0769098], [134.5157887, 34.0768874], [134.515718, 34.0768767], [134.5154973, 34.0768366], [134.5151226, 34.0767829], [134.514945, 34.0767534], [134.5148596, 34.0767289], [134.5148024, 34.0767124], [134.5146688, 34.0766572], [134.5145255, 34.0765825], [134.5144603, 34.0765424], [134.5143817, 34.0764938], [134.5142461, 34.0764084], [134.5136109, 34.0760084], [134.51354, 34.0759637], [134.5134528, 34.0759093], [134.5127805, 34.0754897], [134.5124127, 34.0752614], [134.5123436, 34.0752185], [134.5122273, 34.0751463], [134.5121812, 34.0751177], [134.5120426, 34.0750318], [134.5113041, 34.0745893], [134.5110268, 34.0744276], [134.5109744, 34.0743963], [134.5108852, 34.0743506], [134.5097238, 34.0737564], [134.5093934, 34.0735874], [134.5083687, 34.073057], [134.5082159, 34.0729695], [134.507651, 34.0726916], [134.5073565, 34.0725413], [134.5072016, 34.0724778], [134.5070436, 34.0724236], [134.5067367, 34.0723688], [134.5064271, 34.0723253], [134.5050708, 34.0721538], [134.5049121, 34.0721315], [134.5047327, 34.0721054], [134.5043652, 34.072066], [134.5039017, 34.0720262], [134.5030268, 34.0719268], [134.5028329, 34.0719178], [134.5026253, 34.0719168], [134.5023984, 34.0719358], [134.5018022, 34.0720705], [134.5016741, 34.0720987], [134.5015797, 34.0721219], [134.5012941, 34.072184], [134.5011285, 34.0722244], [134.5009018, 34.0722768], [134.5005486, 34.0723622], [134.5000723, 34.0724676], [134.4999684, 34.0724931], [134.4998845, 34.0725123], [134.4998695, 34.0725158], [134.4997094, 34.0725521], [134.4966899, 34.0732366], [134.4965845, 34.0732592], [134.4963699, 34.0733061], [134.4963012, 34.0733235], [134.4958995, 34.0733913], [134.4955151, 34.0734359], [134.495089, 34.0734637], [134.4946967, 34.0734391], [134.4942428, 34.0734396], [134.4940782, 34.0734291], [134.4939083, 34.0734141], [134.4926192, 34.0732084], [134.4920333, 34.073117], [134.4910319, 34.072963], [134.4909085, 34.072944], [134.4907299, 34.0729152], [134.4903709, 34.0728569], [134.4901845, 34.0728224], [134.490012, 34.0727904], [134.4897274, 34.0727391], [134.4885541, 34.0724917], [134.4878211, 34.0723371], [134.4877773, 34.0723264], [134.4864133, 34.0720429], [134.4858288, 34.0719824], [134.4854499, 34.0719672], [134.4853951, 34.0719665], [134.4842929, 34.0719615], [134.4834668, 34.071963], [134.483104, 34.0719617], [134.4828209, 34.07196], [134.4826073, 34.0719612], [134.4825167, 34.071961], [134.4824286, 34.0719584], [134.4823414, 34.0719574], [134.4822546, 34.0719517], [134.4819298, 34.0719101], [134.4815808, 34.0718765], [134.4802757, 34.0717239], [134.4796966, 34.0716586], [134.4787366, 34.0715503], [134.4771938, 34.0713762], [134.4758592, 34.0712167], [134.4745043, 34.0710548], [134.473276, 34.0709038], [134.472117, 34.0707688], [134.4706983, 34.0705984], [134.4706297, 34.0705932], [134.4705123, 34.0705792], [134.4699585, 34.0705125], [134.4684447, 34.0703302], [134.4683468, 34.0703184], [134.467421, 34.0703155], [134.4673585, 34.070321], [134.4666339, 34.0703977], [134.4657881, 34.0704873], [134.4655654, 34.0704929], [134.4647655, 34.0705076], [134.4645742, 34.07051], [134.4639025, 34.0704569], [134.4635204, 34.0704228], [134.462702, 34.0703496], [134.4624685, 34.070333], [134.460937, 34.070225], [134.4606336, 34.0702062], [134.459062, 34.0701086], [134.458591, 34.0700627], [134.4584307, 34.0700509], [134.4572314, 34.069963], [134.4560878, 34.0698792], [134.4556023, 34.0698405], [134.4551192, 34.0697921], [134.4545786, 34.0697391], [134.454508, 34.0697306], [134.4544221, 34.0697222], [134.4531396, 34.0695964], [134.4531035, 34.0695923], [134.4522871, 34.0695172], [134.4514993, 34.0693741], [134.4512507, 34.069329], [134.450736, 34.0692405], [134.4501598, 34.0691309], [134.4496526, 34.0690345], [134.4472436, 34.0686092], [134.444885, 34.0681905], [134.4442436, 34.06808], [134.4437387, 34.068001], [134.4428799, 34.0679358], [134.4425473, 34.0679033], [134.4413342, 34.0678099], [134.4401288, 34.0677075], [134.4392318, 34.0676352], [134.4385399, 34.0675551], [134.43821, 34.0674851], [134.4379432, 34.0674086], [134.4376682, 34.0672928], [134.4375741, 34.0672532], [134.436984, 34.0669889], [134.4354198, 34.0663096], [134.4342538, 34.0657951], [134.4340086, 34.0656869], [134.4333003, 34.0654595], [134.4330126, 34.0653972], [134.4327333, 34.0653468], [134.4321876, 34.065336], [134.4319795, 34.0653382], [134.4317307, 34.0653544], [134.4314417, 34.0653928], [134.4311954, 34.0654329], [134.4309063, 34.0654929], [134.4306176, 34.0655663], [134.4302269, 34.0656846], [134.4284043, 34.0662461], [134.4274633, 34.0665405], [134.4263713, 34.0668763], [134.4255408, 34.0671313], [134.425069, 34.0672738], [134.4248274, 34.0673544], [134.424334, 34.0674748], [134.4239603, 34.0675382], [134.4234351, 34.0675474], [134.4230659, 34.0675288], [134.4220065, 34.0674774], [134.4206146, 34.0674279], [134.4202601, 34.0674117], [134.4187114, 34.0673394], [134.4173944, 34.0674036], [134.4169581, 34.0674408], [134.4168589, 34.0674571], [134.416064, 34.0676311], [134.4156177, 34.0677204], [134.4134266, 34.0682257], [134.4127815, 34.0683778], [134.4102605, 34.0689911], [134.4080947, 34.0694828], [134.4078534, 34.0695451], [134.4077021, 34.0695852], [134.4038669, 34.0704792], [134.4029834, 34.0706814], [134.4016911, 34.0709853], [134.400056, 34.0714313], [134.3988362, 34.0717963], [134.3977881, 34.0720788], [134.3965068, 34.0724321], [134.3963838, 34.0724657], [134.3936222, 34.073272], [134.3926888, 34.0734924], [134.3925233, 34.0735335], [134.3919781, 34.0736217], [134.3915319, 34.0736547], [134.3910337, 34.0736583], [134.3907704, 34.0736627], [134.3901478, 34.0736512], [134.389473, 34.073588], [134.3894468, 34.0735855], [134.3890101, 34.0735084], [134.3888432, 34.0734789], [134.3871494, 34.0730404], [134.3869305, 34.0729837], [134.3851715, 34.0725263], [134.3847579, 34.0724111], [134.3841889, 34.072262], [134.3823234, 34.07182], [134.3790761, 34.0709529], [134.3786654, 34.070868], [134.3784064, 34.0708144], [134.3777589, 34.0706899], [134.3769248, 34.0706048], [134.3761173, 34.0705635], [134.3753075, 34.0705771], [134.3742699, 34.0706018], [134.3727819, 34.0706386], [134.3710244, 34.0706708], [134.3698959, 34.0707049], [134.3688673, 34.0706743], [134.3687007, 34.0706547], [134.3681235, 34.0705868], [134.3678056, 34.0705366], [134.3675452, 34.0704868], [134.3672479, 34.0704213], [134.3668323, 34.070328], [134.3666821, 34.0702926], [134.3655537, 34.0699974], [134.363903, 34.069594], [134.3628009, 34.0693261], [134.3622953, 34.0691996], [134.3610736, 34.068894], [134.3608371, 34.068832], [134.3604653, 34.0687344], [134.3601437, 34.0686395], [134.3598659, 34.0685733], [134.3594517, 34.0684747], [134.3591063, 34.0684023], [134.3588297, 34.0683583], [134.3585102, 34.0683176], [134.3579037, 34.0682482], [134.3573831, 34.0682173], [134.3573161, 34.0682148], [134.3572467, 34.0682122], [134.3568071, 34.0682041], [134.3562761, 34.0682096], [134.3559616, 34.0682076], [134.3557663, 34.0682073], [134.3552635, 34.0682066], [134.3542133, 34.0682548], [134.3524447, 34.068333], [134.352058, 34.068343], [134.3517306, 34.0683533], [134.350006, 34.0684074], [134.3500615, 34.0688136], [134.3500791, 34.0689513], [134.3503346, 34.0709536], [134.3503533, 34.0711334], [134.3504007, 34.0714827], [134.3505075, 34.0721513], [134.3506253, 34.0726366], [134.350816, 34.0734206], [134.3509392, 34.0739267], [134.3509818, 34.0741893], [134.350986, 34.0742151], [134.3509901, 34.0742338], [134.3510408, 34.0744365], [134.3510968, 34.0747406], [134.3511356, 34.0750262], [134.3511582, 34.0754484], [134.3511569, 34.0755273], [134.3511479, 34.0757342], [134.3511262, 34.0760218], [134.3511153, 34.0761694], [134.3510589, 34.0764758], [134.3509634, 34.0767857], [134.3507845, 34.0772644], [134.3505446, 34.077743], [134.350176, 34.0783629], [134.3494361, 34.0796354], [134.3492612, 34.0799317], [134.3490957, 34.0801898], [134.3490055, 34.0803143], [134.3487374, 34.0807959], [134.3483937, 34.0814414], [134.347666, 34.0829602], [134.3476439, 34.0830111], [134.3443509, 34.0899657], [134.3443305, 34.0900049], [134.3442924, 34.090086], [134.3442194, 34.0902412], [134.3441502, 34.090387], [134.3436, 34.0915554], [134.3434357, 34.0919234], [134.3433787, 34.0920999], [134.3433354, 34.092297], [134.343299, 34.0925065], [134.3432899, 34.0926808], [134.3432944, 34.0928494], [134.3433081, 34.0930612], [134.3433423, 34.0932366], [134.3433947, 34.0934269], [134.3434539, 34.0936319], [134.3434994, 34.0937993], [134.3436714, 34.0943802], [134.3437489, 34.0946684], [134.3439909, 34.0955172], [134.3441483, 34.0960684], [134.3445219, 34.097292], [134.3448415, 34.0983513], [134.3448571, 34.0984032], [134.3449221, 34.0986728], [134.3449432, 34.0987816], [134.344979, 34.0990319], [134.3450416, 34.0998279], [134.3450507, 34.0999555], [134.345118, 34.100991], [134.3452064, 34.1019874], [134.3452556, 34.1025978], [134.3452959, 34.1028422], [134.3453613, 34.1030975], [134.3454927, 34.1034542], [134.3456201, 34.1037296], [134.3458323, 34.1040686], [134.3459245, 34.1042159], [134.3466251, 34.1051019], [134.3468951, 34.1054225], [134.3470765, 34.1056565], [134.3472155, 34.105866], [134.3472517, 34.1059198], [134.3472703, 34.1059487], [134.3473388, 34.1060687], [134.3474073, 34.106201], [134.3474969, 34.1064028], [134.3478506, 34.1073663], [134.3484302, 34.1090077], [134.3491231, 34.1109331], [134.3494525, 34.1116157], [134.3496473, 34.1119294], [134.3500072, 34.1124415], [134.3508356, 34.1135515], [134.3510968, 34.1139147], [134.3518574, 34.11494], [134.3526406, 34.1159924], [134.352785, 34.1162167], [134.3528058, 34.1162489], [134.3528996, 34.1164191], [134.352996, 34.1166179], [134.3530673, 34.1168033], [134.3531303, 34.1169765], [134.3531827, 34.1172133], [134.3532175, 34.1174095], [134.3532376, 34.1175971], [134.3532469, 34.1179146], [134.3532508, 34.1179574], [134.3532598, 34.1180554], [134.3532668, 34.1181307], [134.3532766, 34.1182378], [134.3532805, 34.1182799], [134.3532968, 34.1185588], [134.3533851, 34.1194786], [134.3533954, 34.1195742], [134.3534108, 34.1197216], [134.3534396, 34.1199979], [134.353502, 34.1203831], [134.3535976, 34.1209798], [134.3539935, 34.1229311], [134.3540361, 34.1231123], [134.3541469, 34.1234015], [134.3542744, 34.1235985], [134.3544456, 34.1237964], [134.3545767, 34.1239206], [134.3550105, 34.1242563], [134.3552008, 34.1244489], [134.3554147, 34.1246765], [134.3554761, 34.1247489], [134.3555033, 34.1248226], [134.3559084, 34.1252874], [134.3559879, 34.1253773], [134.3560366, 34.1253837], [134.3561492, 34.1255198], [134.3562335, 34.1256498], [134.3562921, 34.1257814], [134.3563194, 34.1259063], [134.3563213, 34.1260356], [134.3562883, 34.1261583], [134.3562212, 34.1262922], [134.3561189, 34.1264097], [134.3559924, 34.1265168], [134.3558418, 34.1266107], [134.3536789, 34.1276752], [134.3533736, 34.1278721], [134.3531309, 34.1280769], [134.3529096, 34.1282907], [134.3527625, 34.1284798], [134.3523964, 34.129033], [134.3520549, 34.1295626], [134.351991, 34.1296649], [134.3519631, 34.1297096], [134.3511602, 34.1309706], [134.3503453, 34.1322282], [134.3502828, 34.1323565], [134.3502366, 34.1324993], [134.3502226, 34.1326533], [134.3502253, 34.1327741], [134.3502481, 34.1328877], [134.3502924, 34.1330014], [134.3508996, 34.1342224], [134.3509151, 34.1343036], [134.3509172, 34.1343871], [134.350917, 34.1344449], [134.3509061, 34.1345094], [134.3508299, 34.1347121], [134.3504048, 34.135624], [134.3503432, 34.1358992], [134.3503332, 34.1364531], [134.3504306, 34.1369858], [134.3504926, 34.1371736], [134.3511533, 34.1382892], [134.3512266, 34.1384466], [134.3512708, 34.1385965], [134.3512903, 34.1387225], [134.3513097, 34.1388885], [134.3513163, 34.1390317], [134.3512949, 34.139139], [134.3512566, 34.1393228], [134.351141, 34.1397853], [134.3511382, 34.139872], [134.3511456, 34.1399744], [134.3511683, 34.1400928], [134.3512155, 34.1402016], [134.3512686, 34.140307], [134.3516145, 34.1407913], [134.3517098, 34.1409534], [134.3517674, 34.1410815], [134.3518198, 34.1412706], [134.3520659, 34.1422843], [134.352116, 34.1424483], [134.3521752, 34.1426032], [134.3523711, 34.1430087], [134.3524622, 34.1431499], [134.3525374, 34.1432684], [134.3526764, 34.1434461], [134.3528404, 34.1436511], [134.3535466, 34.144396], [134.35364, 34.1445258], [134.3537106, 34.144658], [134.3537698, 34.1448083], [134.3538754, 34.1451498], [134.3539384, 34.1452662], [134.3540067, 34.1453801], [134.3541183, 34.1455259], [134.3547539, 34.1461273], [134.3548541, 34.1462776], [134.3549156, 34.1464006], [134.354943, 34.1465305], [134.3549407, 34.1466603], [134.3549126, 34.1467578], [134.3548642, 34.1468927], [134.3548069, 34.1469976], [134.3547152, 34.1471034], [134.3546122, 34.1471919], [134.3544973, 34.1472541], [134.3543043, 34.1473421], [134.3532305, 34.1477581], [134.3531184, 34.1478166], [134.3530242, 34.1478877], [134.3529478, 34.1479967], [134.3528925, 34.1480987], [134.3528603, 34.1482442], [134.3528258, 34.1494143], [134.3527947, 34.1499634], [134.3527709, 34.1502449], [134.3525957, 34.1516193], [134.3525898, 34.1517108], [134.3525974, 34.1517987], [134.3526119, 34.1518913], [134.3526358, 34.1520006], [134.3527189, 34.1523181], [134.3528192, 34.1526232], [134.3528415, 34.1527016], [134.3528847, 34.1528295], [134.3529359, 34.1529552], [134.3530207, 34.1531191], [134.3530971, 34.1532315], [134.3531657, 34.1533202], [134.3532558, 34.1534222], [134.3537608, 34.1538205], [134.3538534, 34.1539196], [134.3539099, 34.1540117], [134.3539444, 34.1540965], [134.3539586, 34.1541582], [134.3539629, 34.1542314], [134.3539615, 34.154335], [134.3537142, 34.1555243], [134.3536699, 34.1556615], [134.3536184, 34.1557865], [134.3532758, 34.1561559], [134.3531731, 34.1563021], [134.3531263, 34.1564083], [134.3530898, 34.1565535], [134.3530699, 34.1566914], [134.3530682, 34.1568219], [134.3530743, 34.1569028], [134.3531383, 34.1572541], [134.3531762, 34.157376], [134.3532345, 34.1574723], [134.3533246, 34.1575861], [134.3540046, 34.1580997], [134.3551936, 34.15931], [134.3552876, 34.1594927], [134.3553309, 34.1596267], [134.3553615, 34.1597701], [134.3553896, 34.1599246], [134.3553876, 34.1601936], [134.3553726, 34.1602987], [134.355334, 34.1604253], [134.3552612, 34.1605963], [134.3551512, 34.1607764], [134.355101, 34.160842], [134.3550023, 34.1609305], [134.3548836, 34.1610028], [134.3547242, 34.1610907], [134.3543779, 34.16126], [134.3541924, 34.1613915], [134.3538134, 34.1617341], [134.3536323, 34.1619261], [134.3534953, 34.1620919], [134.3532501, 34.1625288], [134.3531564, 34.1626325], [134.3530497, 34.1626995], [134.3529153, 34.1627611], [134.3527903, 34.162799], [134.3522401, 34.1628614], [134.3521203, 34.1628753], [134.3519755, 34.1629205], [134.351831, 34.1630021], [134.3514279, 34.1632446], [134.3512755, 34.1633401], [134.3511256, 34.1633916], [134.3509809, 34.1634277], [134.3508202, 34.1634559], [134.350232, 34.163522], [134.3500136, 34.1635416], [134.3499467, 34.1635473], [134.3498007, 34.1635312], [134.3490438, 34.1635918], [134.3489565, 34.1636003], [134.3484221, 34.1636556], [134.3482829, 34.1636877], [134.3481292, 34.1637561], [134.3479909, 34.1638379], [134.3478931, 34.1639382], [134.3475848, 34.1643058], [134.3474809, 34.1644122], [134.3473636, 34.1644741], [134.3470052, 34.1646111], [134.3468515, 34.164682], [134.3466629, 34.1647671], [134.3464852, 34.1648816], [134.346301, 34.1650094], [134.3456983, 34.1653687], [134.3454703, 34.1654649], [134.3452623, 34.1655243], [134.3450784, 34.1655739], [134.344945, 34.1655965], [134.3423667, 34.1657775], [134.3421791, 34.1657911], [134.3420088, 34.165788], [134.3410814, 34.1657057], [134.3409634, 34.1657033], [134.3401984, 34.1657531], [134.3400504, 34.165744], [134.33989, 34.1657163], [134.3397089, 34.1656483], [134.338684, 34.1651961], [134.3384983, 34.1651199], [134.3371442, 34.164666], [134.3363843, 34.1643537], [134.3361525, 34.1642259], [134.3358323, 34.1641295], [134.3355137, 34.1641632], [134.3348889, 34.1644036], [134.3345574, 34.1644578], [134.3343997, 34.1644648], [134.3342297, 34.1644565], [134.3340671, 34.164427], [134.3337603, 34.1643258], [134.3335245, 34.1642529], [134.3333049, 34.164223], [134.3331896, 34.1642168], [134.3330712, 34.1642259], [134.3329361, 34.1642548], [134.3328303, 34.164299], [134.3326671, 34.1643866], [134.3325239, 34.1645197], [134.3324053, 34.1646757], [134.3323519, 34.1648212], [134.3323365, 34.1648535], [134.3323304, 34.1649061], [134.3291023, 34.1805519], [134.3291012, 34.1806297], [134.329115, 34.180713], [134.3291341, 34.1807865], [134.3291534, 34.1808446], [134.3291915, 34.18092], [134.3293261, 34.1810783], [134.3302722, 34.1818413], [134.3305748, 34.1820885], [134.3310027, 34.1823693], [134.333358, 34.1836729], [134.3336815, 34.1840617], [134.333996, 34.1843499], [134.3342155, 34.1844843], [134.3344136, 34.1845663], [134.3347189, 34.1846642], [134.3348601, 34.1847439], [134.3350401, 34.1848761], [134.335277, 34.1851289], [134.3354228, 34.1852292], [134.3356643, 34.1853545], [134.3359467, 34.1854797], [134.3360538, 34.1855276], [134.3361358, 34.185605], [134.3361882, 34.1857144], [134.3362315, 34.1858465], [134.3362793, 34.1860447], [134.3363363, 34.1861768], [134.3364046, 34.1862907], [134.3367007, 34.1865891], [134.3367919, 34.1867258], [134.336842, 34.1868511], [134.3368602, 34.1869718], [134.3368534, 34.1871131], [134.336822, 34.1873678], [134.336777, 34.187705], [134.3366886, 34.1880975], [134.33659, 34.188314], [134.3364991, 34.1884457], [134.336347, 34.1886028], [134.3362713, 34.1886986], [134.3362281, 34.1887817], [134.3362019, 34.188866], [134.3361985, 34.18894], [134.336211, 34.1890494], [134.3362725, 34.1892931], [134.3362725, 34.1893671], [134.3362713, 34.1894366], [134.3362463, 34.1895346], [134.3361928, 34.1896644], [134.3359388, 34.1901052], [134.3358106, 34.1902977], [134.3356905, 34.1904378], [134.3355538, 34.1905893], [134.3347052, 34.1913285], [134.3345537, 34.1914891], [134.3344205, 34.1916486], [134.334304, 34.191832], [134.3342109, 34.1920062], [134.3341209, 34.192209], [134.3329261, 34.1951658], [134.3325502, 34.1960884], [134.3323885, 34.1964187], [134.3322128, 34.1966827], [134.3310241, 34.1982808], [134.3308076, 34.1986284], [134.330661, 34.1989332], [134.3305342, 34.1992457], [134.3304317, 34.1996284], [134.3299783, 34.2020852], [134.32991, 34.2025101], [134.3298781, 34.2029292], [134.3297952, 34.204287], [134.3297566, 34.2047833], [134.3297665, 34.2049589], [134.3297984, 34.2051321], [134.3298462, 34.2053553], [134.3300057, 34.2058815], [134.3307028, 34.2084967], [134.3310923, 34.2098885], [134.3311641, 34.2101143], [134.3312814, 34.2105216], [134.3313267, 34.2107749], [134.331346, 34.2114758], [134.3313474, 34.2116498], [134.3313611, 34.2125788], [134.3313771, 34.2127861], [134.3314181, 34.2129729], [134.3314796, 34.2131461], [134.3315684, 34.213342], [134.3317332, 34.2135712], [134.3323266, 34.21426], [134.3325805, 34.2146517], [134.3327803, 34.2150527], [134.3332359, 34.216069], [134.3337371, 34.2172442], [134.333835, 34.2174219], [134.3339307, 34.217538], [134.3340155, 34.2176324], [134.3341813, 34.2177453], [134.3343472, 34.2178191], [134.3361408, 34.2184969], [134.3380949, 34.2192147], [134.3382589, 34.2192967], [134.3383922, 34.2193866], [134.3384833, 34.2194493], [134.3385972, 34.2195564], [134.3386906, 34.2196543], [134.3387771, 34.2197602], [134.3388375, 34.2198525], [134.3389024, 34.2199971], [134.3390266, 34.2203514], [134.3394322, 34.2215771], [134.3394685, 34.2217546], [134.3394822, 34.2219118], [134.3394779, 34.2220436], [134.3394594, 34.2221637], [134.3394355, 34.2222911], [134.3393697, 34.2224969], [134.3390954, 34.2232876], [134.3390324, 34.2234662], [134.3390084, 34.2236271], [134.3390067, 34.2237471], [134.3390243, 34.2239324], [134.3393318, 34.2253151], [134.3394025, 34.2255384], [134.3394867, 34.2257434], [134.3396052, 34.2259507], [134.33971, 34.2261147], [134.3399458, 34.2263824], [134.3400847, 34.2265065], [134.3402681, 34.2266569], [134.3410141, 34.2271942], [134.3419965, 34.2278998], [134.3426752, 34.2283872], [134.342792, 34.2284711], [134.3434641, 34.2291069], [134.3437944, 34.2294611], [134.3440234, 34.2297379], [134.3442387, 34.2300306], [134.3444061, 34.2302857], [134.3446794, 34.2307607], [134.3450771, 34.2315985], [134.3452057, 34.2318963], [134.3455121, 34.2324886], [134.3456468, 34.2327218], [134.3457524, 34.2328884], [134.3459302, 34.2331393], [134.3464068, 34.233759], [134.3471673, 34.2347476], [134.3471898, 34.2347757], [134.3472422, 34.2348463], [134.3476624, 34.2353912], [134.3479467, 34.235737], [134.3484215, 34.2361846], [134.3486147, 34.236327], [134.3487992, 34.2364534], [134.3490555, 34.236589], [134.349339, 34.236718], [134.3504593, 34.2372392], [134.3507262, 34.2373831], [134.3509103, 34.2375084], [134.3510425, 34.2375983], [134.3512795, 34.237771], [134.3514342, 34.2378985], [134.3524142, 34.2388749], [134.3527842, 34.2392465], [134.3529577, 34.2394536], [134.3530716, 34.23958], [134.3533507, 34.2399297], [134.3553508, 34.2422887], [134.3564135, 34.2435423]]]}, "id": "relation/12886"}]}