{"type": "FeatureCollection", "generator": "kokudo-quiz tools/fetch_raw.py (Overpass API)", "copyright": "The data included in this document is from www.openstreetmap.org. The data is made available under ODbL.", "timestamp": "2026-09-30T16:19:51Z", "features": [{"type": "Feature", "properties": {"@id": "relation/31661", "colour": "red", "from": "香川県坂出市", "name": "国道319号", "name:en": "National Highway Route 319", "name:ja": "国道319号", "name:ja-Hira": "こくどうさんびゃくじゅうきゅうごう", "name:ja-Latn": "Kokudo 319 Gou", "network": "JP:national", "ref": "319", "route": "road", "to": "愛媛県四国中央市", "type": "route", "wikidata": "Q8190527", "wikipedia": "ja:国道319号"}, "geometry": {"type": "MultiLineString", "coordinates": [[[133.8485875, 34.301643], [133.8484872, 34.3015933], [133.8484081, 34.3015541], [133.8481729, 34.3014255], [133.8477865, 34.3012315], [133.847349, 34.3009919], [133.8469965, 34.3007954], [133.8464809, 34.3005325], [133.8452942, 34.2998875], [133.8451313, 34.2998211], [133.8442186, 34.2994204], [133.8432135, 34.2988896], [133.8425086, 34.2985166], [133.8408939, 34.2976454], [133.8407276, 34.2975522], [133.8406174, 34.2974903], [133.8404287, 34.2973811], [133.8399215, 34.2970897], [133.8398587, 34.297052], [133.8392245, 34.2966692], [133.8388948, 34.2964636], [133.8384839, 34.2962036], [133.8380611, 34.2959114], [133.8379663, 34.2958423], [133.8378957, 34.2957893], [133.837726, 34.2956641], [133.8375271, 34.2955062], [133.8373884, 34.295403], [133.836711, 34.294871], [133.8363422, 34.2945493], [133.8359609, 34.2942075], [133.8358472, 34.2941037], [133.8355649, 34.2938336], [133.8350414, 34.2933089], [133.8344275, 34.2926469], [133.8335632, 34.2917438], [133.8334177, 34.2915918], [133.8333193, 34.2914866], [133.8325978, 34.2907154], [133.8322421, 34.2903353], [133.8321095, 34.2901979], [133.8319974, 34.2900818], [133.8313699, 34.2894174], [133.8308595, 34.2888677], [133.8304084, 34.2883817], [133.83035, 34.2883188], [133.830109, 34.2880675], [133.8299686, 34.2879161], [133.8294518, 34.2873746], [133.8287443, 34.286662], [133.8284957, 34.2864393], [133.8282751, 34.2862517], [133.8280071, 34.2860257], [133.8277006, 34.285775], [133.8276329, 34.285723], [133.8274375, 34.2855701], [133.8271764, 34.2853729], [133.8266783, 34.2850178], [133.8264027, 34.284837], [133.8258488, 34.2844979], [133.8254213, 34.2842651], [133.8253688, 34.2842374], [133.8248044, 34.2839399], [133.8227902, 34.2829394], [133.8227716, 34.2829301], [133.8226438, 34.2828666], [133.8217053, 34.2824003], [133.8216388, 34.2823673], [133.821456, 34.2822772], [133.8212861, 34.2821927], [133.8207969, 34.2819513], [133.8207054, 34.2819061], [133.8206191, 34.2818653], [133.8206054, 34.2818588], [133.8190374, 34.2810776], [133.8189857, 34.2810529], [133.8188648, 34.2809987], [133.8165078, 34.2798726], [133.8163541, 34.2797938], [133.8157204, 34.279481], [133.8155738, 34.2794094], [133.815543, 34.2793943], [133.8142881, 34.278779], [133.8136478, 34.2784651], [133.8133566, 34.2783233], [133.8132531, 34.2782643], [133.8130713, 34.2781606], [133.8127907, 34.2780025], [133.8126563, 34.2779302], [133.8125105, 34.2778444], [133.8124648, 34.277816], [133.8122319, 34.2776713], [133.8119805, 34.2774841], [133.8117277, 34.2772913], [133.8114466, 34.2770843], [133.8112134, 34.2768954], [133.8111603, 34.276858], [133.8111068, 34.276805], [133.8109629, 34.2766624], [133.8107393, 34.2764529], [133.8105561, 34.2762709], [133.8103796, 34.2760571], [133.8101736, 34.2758366], [133.8099747, 34.2755991], [133.809967, 34.2755899], [133.809756, 34.2753285], [133.8094534, 34.2749145], [133.8092289, 34.2745483], [133.8091961, 34.2744948], [133.8091528, 34.2744244], [133.8080104, 34.2725667], [133.807842, 34.2723077], [133.8078359, 34.2722995], [133.8076667, 34.2720718], [133.807275, 34.2716648], [133.8070755, 34.2714617], [133.8068998, 34.2713076], [133.8067152, 34.2711366], [133.8064519, 34.2708933], [133.8062119, 34.2707241], [133.8057589, 34.2704305], [133.8054589, 34.2702486], [133.805232, 34.2701211], [133.8047687, 34.269872], [133.8041676, 34.2695477], [133.8039606, 34.2694251], [133.8032006, 34.2690043], [133.8031725, 34.2689888], [133.8029916, 34.2688881], [133.8026612, 34.2687055], [133.802438, 34.2685745], [133.8022802, 34.2684826], [133.8013418, 34.2679357], [133.8012263, 34.267871], [133.7999722, 34.2671679], [133.7999596, 34.2671607], [133.799917, 34.2671364], [133.7994354, 34.2668617], [133.7984466, 34.2662978], [133.7974404, 34.2657239], [133.7964646, 34.2651783], [133.7954823, 34.2646229], [133.7954195, 34.2645874], [133.7951794, 34.2644473], [133.7942077, 34.2638846], [133.7934773, 34.2634701], [133.7933932, 34.2634236], [133.7933114, 34.2633743], [133.793215, 34.2633229], [133.7929511, 34.2631866], [133.7920744, 34.2626892], [133.7911644, 34.2621932], [133.7908573, 34.2620251], [133.7903987, 34.2618066], [133.7898611, 34.2615447], [133.7892077, 34.2613021], [133.7886392, 34.2610973], [133.7877002, 34.2608036], [133.7873057, 34.2606765], [133.7861913, 34.2602681], [133.7851213, 34.2599047], [133.7849866, 34.259859], [133.7847859, 34.2597941], [133.7843051, 34.2596388], [133.7828586, 34.2592015], [133.7825735, 34.2591141], [133.7823493, 34.2590319], [133.7825324, 34.2587501], [133.7831958, 34.2577922], [133.7832383, 34.2577308], [133.7833526, 34.2575649], [133.7838025, 34.2569125], [133.7839891, 34.2566342], [133.7842982, 34.2561734], [133.7843397, 34.256118], [133.7844176, 34.2560169], [133.7844875, 34.2559157], [133.7856146, 34.2542856], [133.7857009, 34.2541549], [133.7859531, 34.2537857], [133.7860046, 34.2537151], [133.78622, 34.2534099], [133.7865629, 34.2528999], [133.787179, 34.2519636], [133.7873199, 34.2517358], [133.7877643, 34.2509984], [133.788366, 34.2499139], [133.7888516, 34.2489498], [133.7892732, 34.2480637], [133.7897356, 34.2470846], [133.7900363, 34.2464575], [133.7900556, 34.2464173], [133.7901648, 34.2461894], [133.7901901, 34.2461416], [133.7902672, 34.2459758], [133.7903302, 34.2458416], [133.7903858, 34.2457231], [133.790671, 34.2451157], [133.7907431, 34.2449621], [133.7911841, 34.2440428], [133.7913381, 34.2437299], [133.7916727, 34.2430144], [133.7920141, 34.2423113], [133.7921536, 34.2420246], [133.7921732, 34.2419835], [133.7922222, 34.2418806], [133.792281, 34.2417664], [133.7929734, 34.2404208], [133.7929869, 34.240397], [133.7932108, 34.2400003], [133.7932578, 34.2399212], [133.7934272, 34.2396362], [133.7936453, 34.2392927], [133.7946682, 34.2377387], [133.7947968, 34.2375485], [133.7954722, 34.2365499], [133.7956783, 34.2362396], [133.79569, 34.236222], [133.7958993, 34.2358864], [133.7960476, 34.2356285], [133.7961872, 34.2353791], [133.7963144, 34.2351316], [133.7964163, 34.2348965], [133.7964945, 34.2346841], [133.796525, 34.2345889], [133.7965731, 34.2344388], [133.7966322, 34.2342429], [133.7966391, 34.2342148], [133.7966624, 34.2341201], [133.796709, 34.2339308], [133.796752, 34.2336367], [133.7967751, 34.2334409], [133.7967894, 34.2332432], [133.7967983, 34.2330462], [133.7968067, 34.2328383], [133.7967902, 34.2325745], [133.7967863, 34.2325393], [133.7967523, 34.2322299], [133.7967114, 34.2319753], [133.7966508, 34.2316851], [133.7965806, 34.2314264], [133.7962311, 34.2303808], [133.7961828, 34.2302362], [133.7961276, 34.2300818], [133.7957957, 34.2291527], [133.7957241, 34.2289334], [133.7956515, 34.2286355], [133.7955962, 34.2283476], [133.7955541, 34.227975], [133.7955421, 34.2276419], [133.7955522, 34.2273491], [133.795559, 34.2272613], [133.7955708, 34.227109], [133.7955937, 34.2269281], [133.7956091, 34.2268066], [133.7956622, 34.2265148], [133.7957662, 34.2261022], [133.7960216, 34.2251499], [133.7960548, 34.2250261], [133.796081, 34.2249233], [133.7962482, 34.2242662], [133.7963567, 34.2238337], [133.7965841, 34.2231281], [133.7968253, 34.2224492], [133.7968497, 34.2223873], [133.7968553, 34.2223749], [133.7969224, 34.222225], [133.7970777, 34.2218531], [133.7972402, 34.2214721], [133.7975092, 34.2208985], [133.7977626, 34.2203751], [133.7979476, 34.2199709], [133.7980621, 34.2197037], [133.7978964, 34.2199703], [133.7977233, 34.2202868], [133.7976813, 34.2203636], [133.7974122, 34.2208823], [133.7969103, 34.2219403], [133.7967909, 34.2221886], [133.7967323, 34.2223468], [133.7965935, 34.2227214], [133.796461, 34.2231058], [133.796243, 34.2237997], [133.7961041, 34.2242456], [133.7959387, 34.2248943], [133.7959133, 34.224994], [133.79588, 34.2251261], [133.7956442, 34.2260627], [133.7955525, 34.2265073], [133.7955003, 34.2267895], [133.7954824, 34.2269218], [133.7954585, 34.2270983], [133.7954489, 34.2272545], [133.795443, 34.2273507], [133.7954311, 34.2277085], [133.7954466, 34.2279839], [133.7954502, 34.2280148], [133.795491, 34.2283642], [133.7955413, 34.2286397], [133.7956156, 34.2289589], [133.7956796, 34.2291842], [133.7958123, 34.2295887], [133.7959811, 34.2301032], [133.7960354, 34.2302688], [133.7960821, 34.2304025], [133.7963683, 34.2312227], [133.7964396, 34.231463], [133.7965058, 34.2317341], [133.7965673, 34.2320137], [133.7966093, 34.2322582], [133.7966349, 34.2325015], [133.796643, 34.2325782], [133.7966566, 34.2328677], [133.7966538, 34.2330767], [133.7966476, 34.2332754], [133.7966391, 34.2334697], [133.7966221, 34.2336275], [133.7965728, 34.233907], [133.7965072, 34.2341848], [133.7964958, 34.234233], [133.7964537, 34.2343766], [133.7963899, 34.2345555], [133.7963731, 34.2346027], [133.7962699, 34.2348698], [133.7961756, 34.2350989], [133.7960816, 34.2353081], [133.7960584, 34.2353598], [133.7959353, 34.2355943], [133.7957983, 34.2358369], [133.7955936, 34.2361722], [133.7955811, 34.2361907], [133.7953625, 34.2365132], [133.7946915, 34.2375001], [133.7945881, 34.2376473], [133.7945258, 34.2377404], [133.7938427, 34.2387812], [133.7935563, 34.239247], [133.7933279, 34.2396135], [133.793169, 34.2398851], [133.7931105, 34.2399852], [133.7928836, 34.2403772], [133.7922289, 34.2416465], [133.7921835, 34.2417344], [133.7921244, 34.2418489], [133.7920738, 34.241954], [133.791534, 34.243052], [133.7911724, 34.2437947], [133.79108, 34.2439716], [133.7907151, 34.2446863], [133.7906885, 34.2447309], [133.7906079, 34.2448875], [133.7905761, 34.2449621], [133.7900362, 34.2461345], [133.7896209, 34.2470499], [133.7894658, 34.2473814], [133.7891741, 34.2480147], [133.7887545, 34.248897], [133.7882706, 34.2498723], [133.7877685, 34.2507698], [133.7876606, 34.2509626], [133.7872225, 34.2516937], [133.7871003, 34.2518963], [133.7863704, 34.2530021], [133.7863299, 34.2530635], [133.7861771, 34.2532852], [133.7859109, 34.2536692], [133.7855208, 34.254232], [133.7852171, 34.2546679], [133.7851135, 34.2548166], [133.784831, 34.255229], [133.7844344, 34.255808], [133.7843916, 34.2558701], [133.7843242, 34.2559679], [133.7842499, 34.2560736], [133.7839059, 34.2565727], [133.7836991, 34.2568727], [133.7832847, 34.2574794], [133.7832572, 34.2575188], [133.7831602, 34.2576582], [133.7824023, 34.2587362], [133.7823267, 34.2588625], [133.7822459, 34.259003], [133.7822478, 34.2590523], [133.7822636, 34.259091], [133.7822901, 34.2591316], [133.7823792, 34.2592024], [133.7835974, 34.2595495], [133.7843042, 34.2597774], [133.7847178, 34.259913], [133.7849115, 34.2599766], [133.7850639, 34.2600285], [133.786045, 34.2603626]], [[133.8486848, 34.3019262], [133.8485862, 34.3018782], [133.8485304, 34.3018544], [133.8483474, 34.301779], [133.8482648, 34.3017355], [133.8468814, 34.3010262], [133.846302, 34.300726], [133.8455442, 34.3003279], [133.8451333, 34.3001069], [133.8448613, 34.2999453], [133.8441687, 34.2994954], [133.8431469, 34.2989496], [133.8424662, 34.2985875], [133.8408691, 34.2977276], [133.8406922, 34.2976297], [133.8405816, 34.2975686], [133.8404033, 34.2974657], [133.8398936, 34.2971762], [133.839858, 34.2971545], [133.8391631, 34.2967302], [133.8388468, 34.2965341], [133.83845, 34.2962928], [133.8379979, 34.295984], [133.8376552, 34.2957319], [133.837478, 34.2955927], [133.8373084, 34.2954681], [133.836653, 34.294938], [133.836268, 34.294608], [133.8358877, 34.2942606], [133.8358023, 34.2941824], [133.8355048, 34.2938935], [133.8349952, 34.2933938], [133.834302, 34.292668], [133.8338429, 34.292188], [133.8334693, 34.2917973], [133.8333564, 34.2916796], [133.83323, 34.2915442], [133.8321512, 34.2903893], [133.8320196, 34.290248], [133.8319111, 34.2901315], [133.831289, 34.289472], [133.831111, 34.28928], [133.831053, 34.289218], [133.8307752, 34.2889226], [133.8302565, 34.2883711], [133.8300799, 34.2881743], [133.8298895, 34.2879637], [133.829802, 34.2878726], [133.82938, 34.287433], [133.828705, 34.28674], [133.8284428, 34.2865174], [133.8282235, 34.2863132], [133.8279462, 34.2860846], [133.8276443, 34.285844], [133.8275629, 34.2857797], [133.8273752, 34.2856306], [133.8271195, 34.2854358], [133.826607, 34.285072], [133.826346, 34.284903], [133.8258044, 34.2845736], [133.825678, 34.284503], [133.8253769, 34.2843366], [133.8247612, 34.2840047], [133.8228942, 34.2830853], [133.8226611, 34.2829701], [133.8226152, 34.2829479], [133.8225372, 34.2829102], [133.8215841, 34.2824492], [133.8213859, 34.2823526], [133.8212254, 34.2822745], [133.8211547, 34.2822403], [133.820735, 34.2820374], [133.8206143, 34.2819792], [133.8205208, 34.2819335], [133.8205104, 34.2819285], [133.8189477, 34.2811539], [133.8188893, 34.281125], [133.8187874, 34.2810635], [133.8164645, 34.2799502], [133.8163059, 34.2798673], [133.815646, 34.279549], [133.81552, 34.279487], [133.8154904, 34.2794725], [133.8135922, 34.2785439], [133.813316, 34.278407], [133.8130127, 34.2782435], [133.812712, 34.278076], [133.81247, 34.277934], [133.8124186, 34.2779017], [133.8121843, 34.2777544], [133.811895, 34.277562], [133.811679, 34.277408], [133.811372, 34.277173], [133.811092, 34.276943], [133.8110393, 34.276897], [133.810847, 34.276729], [133.81064, 34.276538], [133.810465, 34.276364], [133.810259, 34.276148], [133.810064, 34.275922], [133.8099426, 34.2757846], [133.809844, 34.27566], [133.809653, 34.275406], [133.809348, 34.27496], [133.809172, 34.274684], [133.8090901, 34.2745387], [133.8090465, 34.2744704], [133.808815, 34.274108], [133.807903, 34.272632], [133.8078401, 34.2725181], [133.8077364, 34.2723669], [133.807559, 34.272118], [133.8071908, 34.2717325], [133.8070142, 34.2715519], [133.806832, 34.2713634], [133.8067705, 34.271309], [133.8066427, 34.2711904], [133.8063863, 34.2709987], [133.8061415, 34.2708284], [133.8061102, 34.2708066], [133.806046, 34.270762], [133.805709, 34.270541], [133.8054064, 34.2703626], [133.8051783, 34.2702245], [133.8039136, 34.2695112], [133.8036804, 34.269383], [133.803102, 34.269065], [133.8026508, 34.2688087], [133.8019073, 34.2683775], [133.8012623, 34.2680027], [133.8008507, 34.2677684], [133.8004398, 34.2675344], [133.7999065, 34.2672307], [133.7993276, 34.2669039], [133.7983405, 34.2663467], [133.7973707, 34.2657993], [133.7967175, 34.2654293], [133.796362, 34.265228], [133.7959918, 34.265019], [133.7958268, 34.2649259], [133.7953621, 34.2646562], [133.7951529, 34.2645348], [133.7950772, 34.2644909], [133.7948965, 34.2643889], [133.7938693, 34.2638093], [133.7938093, 34.2637754], [133.7933332, 34.2635067], [133.793239, 34.2634535], [133.7931671, 34.2634139], [133.7930872, 34.2633698], [133.7924996, 34.2630459], [133.7922698, 34.2629088], [133.7920214, 34.2627606], [133.7911162, 34.2622616], [133.790828, 34.2621122], [133.7903573, 34.2618706], [133.7898429, 34.2616443], [133.789191, 34.261397], [133.7876581, 34.2608877], [133.7868295, 34.2606339], [133.786045, 34.2603626]], [[133.7980621, 34.2197037], [133.7987378, 34.2186735], [133.7987982, 34.2185852], [133.7991685, 34.2179934], [133.8001357, 34.2164825], [133.8002264, 34.2163491], [133.8002705, 34.2162763], [133.801011, 34.2151436], [133.8011614, 34.2149033], [133.8011886, 34.2148607], [133.8015085, 34.2143635], [133.8016438, 34.2141532], [133.8021864, 34.21331], [133.8028391, 34.2123105], [133.8029135, 34.2121881], [133.8034034, 34.21144], [133.8037054, 34.210971], [133.8044921, 34.2097609], [133.8047429, 34.2093759], [133.8048398, 34.2092269], [133.8061895, 34.2071238], [133.8072843, 34.2053976], [133.8078768, 34.2044758], [133.8091846, 34.2024544], [133.8092782, 34.2023128], [133.8093186, 34.2022493], [133.8093316, 34.2022285], [133.8107547, 34.2000229], [133.8110179, 34.1997436], [133.8111915, 34.1996093], [133.8113172, 34.1995118], [133.8114514, 34.1994233], [133.8116299, 34.1993161], [133.811788, 34.1992326], [133.8119559, 34.1991523], [133.8121196, 34.1990841], [133.8122625, 34.1990293], [133.8122965, 34.1990182], [133.8123494, 34.1990008], [133.8124066, 34.1989836], [133.8124985, 34.1989559], [133.812663, 34.1989137], [133.8136389, 34.1986921], [133.8143557, 34.1985351], [133.8144753, 34.1985121], [133.8148541, 34.1984518], [133.8180598, 34.1978005], [133.8189187, 34.1976175], [133.8197961, 34.1974624], [133.8213043, 34.197171], [133.8217651, 34.1970769], [133.8219602, 34.1970337], [133.8220646, 34.1970106], [133.8222572, 34.1969641], [133.8224569, 34.1969041], [133.8226398, 34.1968383], [133.8228165, 34.1967679], [133.8230329, 34.1966674], [133.8232219, 34.1965808], [133.8234121, 34.196475], [133.8235717, 34.1963845], [133.8237559, 34.1962662], [133.8239779, 34.1961247], [133.824154, 34.195993], [133.824258, 34.195903], [133.8244666, 34.195712], [133.8246062, 34.1955768], [133.8246446, 34.195535], [133.8247877, 34.1953786], [133.8247988, 34.1953664], [133.8249352, 34.1951831], [133.8258074, 34.193884], [133.8259088, 34.1937317], [133.8266713, 34.1925915], [133.8267216, 34.1925111], [133.8272182, 34.191778], [133.8273988, 34.1915036], [133.8279959, 34.1906304], [133.8280603, 34.1905354], [133.8281308, 34.1904325], [133.8282161, 34.1903133], [133.8285182, 34.1898661], [133.8286631, 34.1896455], [133.8290463, 34.1890619], [133.8296543, 34.1881688], [133.8301696, 34.1874114], [133.830357, 34.1870852], [133.8304478, 34.1868889], [133.8304845, 34.1867721], [133.8305051, 34.1866685], [133.8305231, 34.1865516], [133.8305358, 34.1864366], [133.8305461, 34.1863156], [133.8305487, 34.1861145], [133.830523, 34.1859245], [133.8303752, 34.1854263], [133.8303381, 34.1853053], [133.8299233, 34.183984], [133.8298675, 34.1838081], [133.82986, 34.1837782], [133.8296989, 34.1832765], [133.829587, 34.1829921], [133.829409, 34.1826381], [133.8292591, 34.1824055], [133.8283349, 34.1810966], [133.8279097, 34.1804643], [133.8277783, 34.1802818], [133.827574, 34.1799974], [133.8273628, 34.1796856], [133.8273138, 34.179607], [133.8272666, 34.1795314], [133.8272233, 34.1794586], [133.8271072, 34.1792543], [133.8269736, 34.1789956], [133.8269057, 34.1788446], [133.8268265, 34.1786122], [133.8267204, 34.1781376], [133.8266968, 34.1780098], [133.8266835, 34.177856], [133.8266784, 34.177503], [133.8267221, 34.1762177], [133.8268072, 34.1741798], [133.8268103, 34.1740659], [133.8269057, 34.1721659], [133.8269016, 34.1720787], [133.8268885, 34.1719979], [133.8268661, 34.1719248], [133.8268252, 34.1718298], [133.8267724, 34.1717588], [133.826712, 34.1716917], [133.8266302, 34.1716247], [133.8265465, 34.171576], [133.8264347, 34.1715229], [133.826188, 34.1714314], [133.8260526, 34.1713749], [133.825648, 34.1712154], [133.8255721, 34.1711792], [133.8254841, 34.1711241], [133.8253897, 34.1710573], [133.8253167, 34.1709849], [133.825254, 34.1709045], [133.8251985, 34.1708114], [133.8251603, 34.1707226], [133.8251343, 34.1706273], [133.8251304, 34.1705405], [133.8251362, 34.1704275], [133.8251558, 34.170321], [133.8252028, 34.1701676], [133.8256298, 34.1689754], [133.8256609, 34.1688843], [133.8256938, 34.1687881], [133.825906, 34.1681671], [133.826227, 34.167165], [133.8263359, 34.1667699], [133.8264379, 34.1663134], [133.8265012, 34.166017], [133.8265149, 34.1659214], [133.8265164, 34.1657882], [133.8265091, 34.165583], [133.8264721, 34.1653314], [133.8264145, 34.1650797], [133.826239, 34.1644903], [133.8259372, 34.163526], [133.8254691, 34.1620105], [133.8253164, 34.1616574], [133.8246073, 34.1602138], [133.8244819, 34.1599657], [133.8243294, 34.1597089], [133.8241025, 34.1593989], [133.8232917, 34.1583442], [133.8231915, 34.1581665], [133.8231148, 34.1579708], [133.8230788, 34.1578238], [133.8230559, 34.1576512], [133.8230607, 34.157471], [133.8231144, 34.1571769], [133.8231823, 34.156853], [133.8231939, 34.1567776], [133.8232011, 34.1566781], [133.8232003, 34.1565797], [133.8231843, 34.1564434], [133.8231521, 34.1563192], [133.8231015, 34.1561828], [133.8230426, 34.1560703], [133.8229638, 34.1559494], [133.8228662, 34.1558374], [133.8227172, 34.155688], [133.8225424, 34.1555691], [133.8223521, 34.1554641], [133.8217949, 34.1552133], [133.8210114, 34.1548465], [133.8208696, 34.1547636], [133.8207168, 34.1546558], [133.8205973, 34.1545387], [133.82051, 34.1544394], [133.8204167, 34.1543195], [133.8203259, 34.1541547], [133.8202576, 34.1539324], [133.8202264, 34.1536758], [133.8202253, 34.1536022], [133.8202145, 34.1529141], [133.8201898, 34.1523741], [133.8201793, 34.1522053], [133.8201471, 34.1516904], [133.8199998, 34.150181], [133.81995, 34.1499989], [133.8198921, 34.1498479], [133.8198318, 34.1497356], [133.8197472, 34.1496012], [133.8196277, 34.1494486], [133.8195109, 34.1493227], [133.8181472, 34.1480403], [133.8180001, 34.1478786], [133.8178351, 34.1476241], [133.8177349, 34.1474418], [133.8176324, 34.1471453], [133.8175759, 34.1468732], [133.8175665, 34.1466607], [133.817596, 34.1458979], [133.8176056, 34.1456504], [133.817542, 34.1453784], [133.817436, 34.1451706], [133.8169856, 34.1445152], [133.8168948, 34.144328], [133.8168088, 34.1441037], [133.8167876, 34.1438492], [133.8168803, 34.1412235], [133.8169786, 34.1406125], [133.8170019, 34.1403505], [133.8170152, 34.1400429], [133.8168786, 34.1386044], [133.8168678, 34.1382956], [133.8168688, 34.138192], [133.8169003, 34.1377159], [133.8170376, 34.1369915], [133.8170499, 34.1368135], [133.8170441, 34.1366871], [133.8170216, 34.1365735], [133.8169973, 34.1364599], [133.8169623, 34.1363463], [133.8168779, 34.1361483], [133.8168231, 34.1360622], [133.8167082, 34.1359175], [133.8165802, 34.1357876], [133.8156874, 34.1349228], [133.8154444, 34.1347019], [133.8148541, 34.1341213], [133.8147139, 34.1339886], [133.8145134, 34.1338071], [133.8144868, 34.1337775], [133.8138997, 34.1332233], [133.8136425, 34.1329674], [133.8131281, 34.1324724], [133.8117664, 34.1311652], [133.8110898, 34.1306295], [133.8109662, 34.1304591], [133.8108074, 34.1302464], [133.8104238, 34.1295635], [133.8103115, 34.1292696], [133.8100951, 34.1284913], [133.8100369, 34.1283444], [133.8099398, 34.1282273], [133.8094988, 34.1277314], [133.8093518, 34.1275638], [133.8091133, 34.1273066], [133.8089635, 34.1271861], [133.8088693, 34.1271316], [133.8086286, 34.1269796], [133.8083508, 34.126811], [133.8081518, 34.1266398], [133.808016, 34.1264904], [133.8079343, 34.1263302], [133.80734, 34.1243642], [133.8072333, 34.1241246], [133.8071135, 34.1239363], [133.8069975, 34.1238077], [133.8068576, 34.1236919], [133.806701, 34.1235827], [133.8065712, 34.1235192], [133.806373, 34.1234449], [133.8061811, 34.1233961], [133.8056681, 34.1233175], [133.8054695, 34.1232913], [133.8051568, 34.1232331], [133.8051167, 34.1232256], [133.8048055, 34.1231101], [133.8041987, 34.1227727], [133.8040785, 34.1226877], [133.8038191, 34.1225427], [133.8031964, 34.1220616], [133.8029538, 34.1218254], [133.8028349, 34.1216289], [133.8028025, 34.1215532], [133.8027363, 34.1213103], [133.8028558, 34.1195092], [133.8028669, 34.1193425], [133.8028748, 34.1192238], [133.8028689, 34.1190336], [133.8028556, 34.1189197], [133.8028326, 34.1187678], [133.8027962, 34.1186147], [133.8027425, 34.1184244], [133.8026754, 34.1182318], [133.8025208, 34.1179255], [133.8022335, 34.117535], [133.8022091, 34.1175018], [133.8021827, 34.117466], [133.8021344, 34.1174139], [133.8015242, 34.1168169], [133.8010159, 34.1163385], [133.800819, 34.1161407], [133.8006928, 34.115981], [133.8005787, 34.115818], [133.8005068, 34.1157017], [133.8004402, 34.1155766], [133.7999258, 34.1143247], [133.7997887, 34.1139886], [133.7996107, 34.1135806], [133.7993203, 34.1128635], [133.799071, 34.112271], [133.7990102, 34.1121048], [133.7989554, 34.1119229], [133.7988799, 34.1115993], [133.7988428, 34.111353], [133.7988386, 34.1109748], [133.7988471, 34.1108459], [133.7988577, 34.1107316], [133.7989855, 34.1103098], [133.7991356, 34.109926], [133.7998155, 34.1086798], [133.8003165, 34.1080259], [133.8004066, 34.1078649], [133.8004361, 34.1077579], [133.8004489, 34.1076326], [133.8004418, 34.1075225], [133.8004003, 34.1074106], [133.8003792, 34.1073694], [133.8003286, 34.1072911], [133.8002431, 34.107179], [133.7998936, 34.1067519], [133.7993796, 34.1061184], [133.7992397, 34.105925], [133.7991474, 34.1057206], [133.7990873, 34.105513], [133.7990381, 34.1052238], [133.7989131, 34.1045123], [133.7987773, 34.1038886], [133.7987471, 34.1037391], [133.7987214, 34.10358], [133.7986753, 34.1032197], [133.7986755, 34.1031019], [133.7986973, 34.1029936], [133.798738, 34.102904], [133.7988464, 34.1027938], [133.7989239, 34.102752], [133.7990163, 34.1027094], [133.799339, 34.1026059], [133.7995221, 34.1025419], [133.7996959, 34.1024309], [133.7998431, 34.1023229], [133.8000049, 34.1021122], [133.8020123, 34.0994515], [133.8021921, 34.0991969], [133.802329, 34.0989463], [133.8024003, 34.0987539], [133.8024665, 34.0985076], [133.8024937, 34.0982779], [133.802502, 34.0980459], [133.8024889, 34.0978103], [133.8024752, 34.0976139], [133.8024159, 34.0967557], [133.8023499, 34.0958396], [133.8023571, 34.0949765], [133.8024095, 34.0941088], [133.8025455, 34.0929398], [133.8028801, 34.0913717], [133.8030865, 34.0907237], [133.8035417, 34.0894524], [133.8156155, 34.0608309], [133.8156498, 34.0607508], [133.8157992, 34.0604009], [133.8160429, 34.0599141], [133.8164108, 34.0590466], [133.8179138, 34.0561336], [133.8183975, 34.0553025], [133.8195652, 34.0533887], [133.8203712, 34.0521826], [133.8213179, 34.0508322], [133.8224334, 34.0493653], [133.8241026, 34.0473505], [133.825645, 34.0456275], [133.8272724, 34.0439632], [133.827933, 34.0433249], [133.828416, 34.042927], [133.8286837, 34.0427329], [133.8287994, 34.0426565], [133.8288973, 34.0425921], [133.8290243, 34.0425181], [133.8290903, 34.042483], [133.8295313, 34.0422559], [133.8298807, 34.0420971], [133.8302504, 34.0419617], [133.8305929, 34.041871], [133.8307237, 34.0418322], [133.8309384, 34.0417812], [133.8311734, 34.0417324], [133.8313889, 34.0416912], [133.8314634, 34.0416773], [133.8338218, 34.0413669], [133.833963, 34.0413461], [133.83411, 34.0413187], [133.8342455, 34.0412903], [133.8343972, 34.0412563], [133.8345149, 34.0412281], [133.8346658, 34.0411843], [133.8347887, 34.0411407], [133.8349186, 34.0410898], [133.8350141, 34.0410476], [133.835108, 34.0410019], [133.835208, 34.0409484], [133.8353057, 34.040891], [133.835401, 34.0408296], [133.8357843, 34.0405127], [133.8360133, 34.040248], [133.8361063, 34.0401058], [133.8361886, 34.0399592], [133.836255, 34.039817], [133.8363106, 34.0396792], [133.8363942, 34.0393587], [133.8364383, 34.0389734], [133.8364363, 34.0386854], [133.8363885, 34.0383155], [133.8362595, 34.0378847], [133.836043, 34.0374594], [133.8358535, 34.0371483], [133.8355198, 34.0366847], [133.8349358, 34.0360265], [133.8347178, 34.0358019], [133.8344796, 34.0356195], [133.8342747, 34.0355129], [133.8340147, 34.0354076], [133.8337652, 34.0353332], [133.8334694, 34.0352524], [133.8330239, 34.0351066], [133.8322834, 34.0348613], [133.8316515, 34.0346411], [133.8311407, 34.0345035], [133.8306242, 34.0343877], [133.8302538, 34.0343251], [133.8299403, 34.0342681], [133.8296486, 34.0342064], [133.8293951, 34.0341339], [133.8293303, 34.0341088], [133.8293116, 34.0341016], [133.8291888, 34.0340429], [133.8289896, 34.0339225], [133.8288987, 34.033853], [133.8288004, 34.0337688], [133.8287248, 34.0336891], [133.8286572, 34.033615], [133.8285778, 34.0335141], [133.8285163, 34.0334157], [133.8284568, 34.0333064], [133.8284053, 34.0331804], [133.8283664, 34.033031], [133.8283486, 34.0328898], [133.8283434, 34.0327608], [133.8283522, 34.032627], [133.8283753, 34.032481], [133.8284306, 34.0322862], [133.8284993, 34.0320936], [133.8287577, 34.0313617], [133.8291179, 34.0303131], [133.8294853, 34.0292803], [133.8295335, 34.0291576], [133.8295732, 34.0290631], [133.8290523, 34.0289582], [133.8287835, 34.0289249], [133.8285174, 34.0289028], [133.828156, 34.0288901], [133.8274153, 34.0289022], [133.827119, 34.0288926], [133.8269326, 34.0288699], [133.8267327, 34.0288306], [133.8262648, 34.0287136], [133.8254457, 34.0284985], [133.8252765, 34.0284517], [133.8246868, 34.0282955], [133.8244259, 34.0282192], [133.8243925, 34.0282077], [133.8243761, 34.0282055], [133.8241358, 34.0281726], [133.8240533, 34.0281838], [133.824006, 34.0281882], [133.8238706, 34.0282009], [133.8239932, 34.028231], [133.8240046, 34.0282338], [133.8240726, 34.0282504], [133.8242953, 34.0282912], [133.8243394, 34.0282978], [133.8244151, 34.0283092], [133.8246222, 34.0283659], [133.8253616, 34.0285648], [133.8262378, 34.0288022], [133.8267029, 34.0289082], [133.8269008, 34.0289465], [133.8271001, 34.0289714], [133.8274102, 34.0289831], [133.8281534, 34.0289934], [133.8284938, 34.0290004], [133.8287741, 34.0290209], [133.8290343, 34.029058], [133.8295335, 34.0291576]], [[133.8238706, 34.0282009], [133.8238431, 34.0282007], [133.8235275, 34.0282014], [133.8233927, 34.028202], [133.8231452, 34.0282145], [133.8226567, 34.0282775], [133.8214664, 34.02853], [133.8206601, 34.0287004], [133.8194167, 34.0289489], [133.8184103, 34.0291275], [133.816569, 34.0294368], [133.8164325, 34.0294597], [133.8159391, 34.0295421], [133.8157052, 34.0295889], [133.815453, 34.0296637], [133.8151669, 34.0297736], [133.8149492, 34.0298786], [133.8148971, 34.0299037], [133.8144116, 34.0301409], [133.8136154, 34.0305648], [133.8131254, 34.0308632], [133.8128548, 34.0310445], [133.8121154, 34.0315377], [133.8119414, 34.0316297], [133.8117439, 34.0317199], [133.8115249, 34.0318056], [133.8112408, 34.0318954], [133.8109487, 34.0319741], [133.8106372, 34.0320413], [133.8103229, 34.032084], [133.8080922, 34.0322221], [133.8075702, 34.0322121], [133.8063302, 34.0320675], [133.8054925, 34.0320182], [133.8050678, 34.0319932], [133.804546, 34.0319204], [133.8037075, 34.0317877], [133.8032802, 34.0316956], [133.8029384, 34.031581], [133.8024795, 34.0313985], [133.8024484, 34.0313878], [133.8021831, 34.0312962], [133.8019332, 34.0312386], [133.8017682, 34.0312162], [133.8016265, 34.0312123], [133.8015032, 34.031216], [133.8013462, 34.0312206], [133.8011386, 34.0312513], [133.8007629, 34.0313516], [133.8002237, 34.0314927], [133.7998418, 34.0315599], [133.7995914, 34.0315887], [133.7992819, 34.031603], [133.7989091, 34.031595], [133.7984931, 34.0315565], [133.7979848, 34.0314673], [133.7977619, 34.0314091], [133.7975774, 34.0313609], [133.7974414, 34.031322], [133.7972695, 34.0312718], [133.7969737, 34.0311854], [133.7960872, 34.0309414], [133.7958813, 34.0308847], [133.79567, 34.030819], [133.7954819, 34.0307509], [133.7953046, 34.0306683], [133.7951686, 34.0305901], [133.7950326, 34.0305008], [133.7948473, 34.0303578], [133.794284, 34.02987], [133.7939566, 34.0295723], [133.7935883, 34.0292153], [133.7927617, 34.0283969], [133.7923603, 34.0280253], [133.7919433, 34.0275779], [133.7907025, 34.0261247], [133.7905038, 34.0259374], [133.7897775, 34.0253923], [133.7895497, 34.025196], [133.7889617, 34.0245833], [133.7887951, 34.024434], [133.7886654, 34.0243312], [133.7885277, 34.024235], [133.7883635, 34.0241323], [133.7881806, 34.0240341], [133.7868543, 34.0234033], [133.7866548, 34.0232932], [133.786468, 34.0231548], [133.7863508, 34.0230487], [133.7861855, 34.0228758], [133.7859892, 34.022628], [133.7854681, 34.0218765], [133.7853325, 34.0216349], [133.7852482, 34.0213546], [133.7852186, 34.0210442], [133.7852377, 34.0208046], [133.7853257, 34.0201904], [133.7853637, 34.01991], [133.7853772, 34.0197565], [133.7853825, 34.0197245], [133.7853693, 34.0196848], [133.7853391, 34.019593], [133.7852811, 34.0194935], [133.7852167, 34.0194261], [133.7851767, 34.0193735], [133.7851345, 34.0193294], [133.7850867, 34.0192938], [133.7850533, 34.019279], [133.7848828, 34.0192136], [133.7843545, 34.0190439], [133.7836492, 34.0188298], [133.7830564, 34.0186783], [133.7829683, 34.0186112], [133.7829393, 34.0185863], [133.782907, 34.0185586], [133.7828689, 34.0185154], [133.7828362, 34.0184632], [133.7828165, 34.0184087], [133.7828076, 34.0183542], [133.7828164, 34.0182577], [133.7828355, 34.0181787], [133.7828481, 34.0181311], [133.7830669, 34.0177492], [133.7831927, 34.0174961], [133.7832314, 34.0172729], [133.7831207, 34.0174957], [133.7828021, 34.0180242], [133.78224, 34.0189459], [133.7821409, 34.0190724], [133.7820537, 34.0191472], [133.7820188, 34.0191799], [133.7819786, 34.0192096], [133.7819278, 34.0192383], [133.7818699, 34.0192619], [133.781808, 34.0192784], [133.7817399, 34.0192876], [133.7816728, 34.0192881], [133.7816033, 34.0192796], [133.7815401, 34.019268], [133.7814827, 34.0192492], [133.7814267, 34.0192251], [133.7813765, 34.0191715], [133.7813311, 34.0191239], [133.7812848, 34.0190488], [133.7812634, 34.0189839], [133.7812574, 34.0188966], [133.7812769, 34.0188087], [133.7813157, 34.0187353], [133.7813809, 34.0186631], [133.7814523, 34.0186132], [133.7815539, 34.0185706], [133.7816966, 34.0185495], [133.7818403, 34.0185351], [133.7821798, 34.0185262], [133.7823778, 34.0185472], [133.7830564, 34.0186783]], [[133.7832314, 34.0172729], [133.7832722, 34.0170861], [133.783287, 34.0170051], [133.7832891, 34.0169938], [133.7833047, 34.0167989], [133.7832993, 34.0166934], [133.7832965, 34.0166475], [133.7832879, 34.0165266], [133.7832766, 34.0163946], [133.7832664, 34.0162885], [133.7831719, 34.0157858], [133.7829201, 34.0144135], [133.7829145, 34.0143902], [133.7827396, 34.0134506], [133.782682, 34.0131174], [133.7826545, 34.0129679], [133.782517, 34.0122203], [133.7824828, 34.0120301], [133.7824721, 34.0118895], [133.7824796, 34.011742], [133.7825135, 34.0115131], [133.7825925, 34.010998], [133.7826181, 34.0108532], [133.7826446, 34.0107524], [133.782748, 34.0105074], [133.7827897, 34.0104421], [133.7828774, 34.0103304], [133.7831311, 34.0100892], [133.7832049, 34.0099968], [133.7832592, 34.0098997], [133.7833061, 34.0097887], [133.7833754, 34.0095924], [133.7834401, 34.0093029], [133.7836926, 34.008113], [133.7837325, 34.007944], [133.7837422, 34.0078003], [133.7837495, 34.0076486], [133.7837313, 34.0075019], [133.783684, 34.0070969], [133.7836064, 34.0065431], [133.7835967, 34.0064014], [133.7836056, 34.0062578], [133.7836528, 34.0061366], [133.7837383, 34.0059892], [133.7839315, 34.0057558], [133.7842598, 34.0053452], [133.784729, 34.0048939], [133.7850988, 34.0045422], [133.7852418, 34.0043894], [133.7854734, 34.004097], [133.7860124, 34.0032046], [133.7861887, 34.0029135], [133.7864663, 34.0024809], [133.7866772, 34.0021529], [133.7868365, 34.0018075], [133.7872944, 34.0006887], [133.7873123, 34.0006448], [133.7879328, 33.9992603], [133.7881806, 33.9987], [133.788381, 33.9982785], [133.788578, 33.9979435], [133.7889772, 33.9974204], [133.7890588, 33.9972524], [133.7891309, 33.9970464], [133.7891892, 33.9968234], [133.7892718, 33.9965187], [133.7893158, 33.9964012], [133.7893391, 33.9963381], [133.7893684, 33.9962925], [133.7894447, 33.9962016], [133.7897122, 33.9959256], [133.7898342, 33.9957906], [133.7899299, 33.9956565], [133.7901704, 33.9950931], [133.7903146, 33.9948638], [133.7907179, 33.9944018], [133.7908338, 33.9941441], [133.7909633, 33.9937171], [133.7911203, 33.9933783], [133.7911516, 33.9931887], [133.7911694, 33.9929968], [133.791144, 33.9928059], [133.7910523, 33.9924507], [133.7907468, 33.9917001], [133.7905692, 33.991369], [133.7903669, 33.9910761], [133.7900696, 33.9907622], [133.7898336, 33.9906002], [133.7895243, 33.9904375], [133.7892516, 33.9903473], [133.7889547, 33.9902893], [133.7883063, 33.9902308], [133.7881652, 33.9901993], [133.7880006, 33.9901272], [133.7879063, 33.9900609], [133.7878322, 33.9899728], [133.7873261, 33.9881849], [133.7871768, 33.9876938], [133.787098, 33.9874503], [133.7869978, 33.987186], [133.7868696, 33.9869017], [133.7865655, 33.9863201], [133.7855815, 33.9846186], [133.7853154, 33.9839922], [133.7850842, 33.9833487], [133.7850706, 33.9831716], [133.7850881, 33.9829748], [133.7851444, 33.9826428], [133.7851551, 33.9825411], [133.785164, 33.982441], [133.7851673, 33.9823219], [133.7851618, 33.9822308], [133.7851123, 33.9816512], [133.7851082, 33.9814579], [133.7851149, 33.9812878], [133.7851174, 33.9811024], [133.7851795, 33.9806788], [133.7852428, 33.9801515], [133.7854028, 33.9794385], [133.7854978, 33.9791039], [133.7855854, 33.9786876], [133.7855909, 33.9785793], [133.7856093, 33.9783426], [133.7856013, 33.9779518], [133.7855785, 33.9776751], [133.7855101, 33.9774127], [133.7853356, 33.9770319], [133.785127, 33.976715], [133.7848064, 33.9763909], [133.7840239, 33.9755968], [133.7828692, 33.9744297], [133.7822904, 33.9739524], [133.7821315, 33.973769], [133.7820235, 33.9736055], [133.781881, 33.9732648], [133.7817945, 33.9731339], [133.781718, 33.9730206], [133.7815654, 33.9728414], [133.7813787, 33.9726911], [133.7811748, 33.9725532], [133.7801338, 33.9719276], [133.7795739, 33.9716198], [133.7789506, 33.9713477], [133.7775347, 33.9707836], [133.777307, 33.9707053], [133.7771124, 33.970657], [133.7769307, 33.9706168], [133.7767223, 33.9705878], [133.7761359, 33.9705364], [133.7756118, 33.9704866], [133.7752451, 33.9704409], [133.7744633, 33.9702839], [133.7742455, 33.9702565], [133.7739876, 33.9702347], [133.7737538, 33.9702296], [133.7734987, 33.9702528], [133.7719021, 33.9704318], [133.7709293, 33.9705468], [133.7699029, 33.9706807], [133.7695696, 33.9707318], [133.7691875, 33.9708177], [133.7687802, 33.9709422], [133.7684368, 33.9710478], [133.7681076, 33.9711349], [133.7679396, 33.971151], [133.7677523, 33.9711572], [133.7675656, 33.9711405], [133.7658825, 33.9709784], [133.7649425, 33.970934], [133.7647745, 33.9709265], [133.7642824, 33.9709099], [133.7636707, 33.9708768], [133.7633519, 33.9708465], [133.7630858, 33.9708079], [133.7628618, 33.9707651], [133.7626187, 33.9707107], [133.7604804, 33.9701564], [133.7601307, 33.9700454], [133.759835, 33.9699352], [133.7595478, 33.9698109], [133.7590752, 33.9695558], [133.7582759, 33.9690147], [133.7574479, 33.9683166], [133.756959, 33.9678115], [133.7565346, 33.9674258], [133.7562168, 33.967101], [133.7560719, 33.9669642], [133.7559377, 33.9668397], [133.755757, 33.9666425], [133.7555249, 33.966341], [133.7553736, 33.965999], [133.7552905, 33.9657057], [133.7552489, 33.965462], [133.754949, 33.9638794], [133.7546243, 33.9625788], [133.7545354, 33.962289], [133.7544685, 33.962066], [133.7543691, 33.9616186], [133.7543434, 33.9612951], [133.7543792, 33.9609675], [133.7544535, 33.9606629], [133.7545969, 33.9603597], [133.7548883, 33.9599413], [133.7550203, 33.9597991], [133.7552343, 33.9596114], [133.7553662, 33.9595023], [133.7552824, 33.9594181], [133.7552536, 33.9593929], [133.7551948, 33.9593611], [133.7551504, 33.9593551], [133.7551065, 33.959356], [133.7550593, 33.9593718], [133.7550105, 33.9594119], [133.7548877, 33.9595912], [133.7548037, 33.9596944], [133.7546667, 33.9598115], [133.7546024, 33.959856], [133.754529, 33.9598911], [133.7544282, 33.9599219], [133.7543545, 33.9599387], [133.7542676, 33.9599514], [133.7541177, 33.9599522], [133.7539858, 33.9599381], [133.7537139, 33.9598757], [133.7527041, 33.9596169], [133.7525337, 33.9595564], [133.7520755, 33.9593988], [133.7517822, 33.9592916], [133.7515646, 33.959245], [133.7513233, 33.9592298], [133.7510895, 33.9592219], [133.750837, 33.959224], [133.7504899, 33.9592434], [133.750352, 33.9592596], [133.750221, 33.9592824], [133.7500902, 33.9593253], [133.7499729, 33.9593708], [133.7495953, 33.9595678], [133.7494258, 33.9596291], [133.7492522, 33.9596668], [133.7482691, 33.9597483], [133.7481787, 33.9597567], [133.7475706, 33.9597983], [133.7473847, 33.9597901], [133.7472394, 33.9597683], [133.7471038, 33.9597331], [133.7469119, 33.9596501], [133.7467334, 33.9595556], [133.7465127, 33.9594572], [133.7461444, 33.9593103], [133.7459522, 33.9592273], [133.7457014, 33.9591566], [133.745373, 33.9590963], [133.7452406, 33.9590731], [133.7451693, 33.959058], [133.7447918, 33.9590322], [133.7444845, 33.959022], [133.7442294, 33.9590477], [133.743959, 33.9591058], [133.7423999, 33.959853], [133.7422423, 33.9599227], [133.7421367, 33.9599908], [133.741966, 33.9601292], [133.7418828, 33.9601997], [133.7417227, 33.9603839], [133.7416229, 33.9605026], [133.7415045, 33.9606401], [133.7414072, 33.9607653], [133.7413282, 33.9608759], [133.74126, 33.9609997], [133.7412094, 33.9611293], [133.7412105, 33.9612739], [133.7412146, 33.961497], [133.7411888, 33.9616471], [133.7411509, 33.9617785], [133.7410363, 33.9619818], [133.7409127, 33.9621351], [133.7408448, 33.9622521], [133.7407933, 33.9624138], [133.740753, 33.963078], [133.7407699, 33.9631956], [133.7408257, 33.9633933], [133.7410437, 33.9638496], [133.7411197, 33.9640473], [133.741282, 33.9646558], [133.7413631, 33.9648383], [133.7414514, 33.9650122], [133.7415995, 33.9651826], [133.7417438, 33.9652905], [133.7423001, 33.9657019], [133.7426212, 33.9659097], [133.7430618, 33.9661523], [133.7432476, 33.9663052], [133.7434677, 33.9665679], [133.7438292, 33.9672201], [133.7438887, 33.967374], [133.7439192, 33.9675324], [133.7439276, 33.9676612], [133.7439192, 33.9677921], [133.7438652, 33.9681911], [133.7438238, 33.968357], [133.7437727, 33.9684732], [133.743599, 33.968651], [133.7434232, 33.9688256], [133.7432843, 33.9689232], [133.7431615, 33.9689879], [133.742924, 33.9690774], [133.7427668, 33.9691096], [133.7425812, 33.9691078], [133.7420485, 33.969062], [133.7417785, 33.9690548], [133.7417441, 33.9690539], [133.741436, 33.9690407], [133.7411405, 33.9690009], [133.7409124, 33.9689408], [133.7405067, 33.9688039], [133.7400149, 33.9685758], [133.7396286, 33.9683971], [133.7395941, 33.968378], [133.7392341, 33.9682716], [133.7389908, 33.9682462], [133.7387474, 33.9682563], [133.7383925, 33.968307], [133.7380929, 33.9684358], [133.737892, 33.9685592], [133.7372259, 33.9690544], [133.7370959, 33.9691628], [133.7369698, 33.9692979], [133.7366026, 33.9697916], [133.7364617, 33.9699492], [133.7363435, 33.9700677], [133.7359232, 33.9704656], [133.7357277, 33.9707116], [133.7355821, 33.970968], [133.7354734, 33.9711756], [133.7353399, 33.9713429], [133.7351119, 33.971495], [133.7349281, 33.9715966], [133.7348406, 33.9716393], [133.7345139, 33.9717967], [133.7342594, 33.9718968], [133.7340289, 33.9719408], [133.7337744, 33.9719632], [133.7314104, 33.9720014], [133.7311496, 33.9720113], [133.7310419, 33.9720287], [133.7309237, 33.9720277], [133.7306855, 33.9720125], [133.7304979, 33.9719821], [133.7303001, 33.9719212], [133.7295202, 33.9715859], [133.7287436, 33.9712368], [133.7280926, 33.970873], [133.727907, 33.9707906], [133.7276941, 33.9706993], [133.7272163, 33.9705525], [133.7268905, 33.9704419], [133.7264418, 33.970344], [133.7257615, 33.9702137], [133.725286, 33.9701206], [133.7245012, 33.9699309], [133.7242092, 33.9698597], [133.724022, 33.9697863], [133.7237495, 33.9696295], [133.7236076, 33.9695028], [133.7235062, 33.9693608], [133.7233744, 33.9691175], [133.7230448, 33.9684026], [133.7228014, 33.9678043], [133.7225823, 33.9671795], [133.7225298, 33.9669095], [133.7225205, 33.9667458], [133.7225302, 33.9665633], [133.722556, 33.9662455], [133.7225566, 33.9660376], [133.7225475, 33.9658658], [133.7225323, 33.965626], [133.7225066, 33.965318], [133.7224643, 33.9651168], [133.7223716, 33.9649308], [133.7222611, 33.9648185], [133.722117, 33.9646912], [133.721744, 33.964486], [133.7193066, 33.9633391], [133.7188836, 33.9631366], [133.7183026, 33.9629283], [133.7178537, 33.9628139], [133.7173461, 33.9627317], [133.7161226, 33.9625733], [133.7159554, 33.9625821], [133.7158321, 33.9626026], [133.7154096, 33.9627552], [133.7151984, 33.9628461], [133.7150311, 33.9629606], [133.7149587, 33.9630383], [133.7149125, 33.9631253], [133.7148157, 33.9633879], [133.7147485, 33.9635804], [133.7146209, 33.9638436], [133.7144615, 33.9640712], [133.7142504, 33.9643539], [133.7141198, 33.9645585], [133.7138528, 33.9650469], [133.7136388, 33.9654284], [133.7135595, 33.9655215], [133.7134418, 33.9656158], [133.7132841, 33.9656855], [133.7128771, 33.9657584], [133.7126043, 33.9658111], [133.7122887, 33.965837], [133.7120875, 33.9658701], [133.7113031, 33.9659991], [133.7112143, 33.9660257], [133.7110763, 33.966089], [133.7109627, 33.9661237], [133.7107467, 33.9661813], [133.7106175, 33.966243], [133.7103408, 33.9664255], [133.7101933, 33.9664873], [133.7100642, 33.9665238], [133.7098015, 33.9665554], [133.7096456, 33.9665636], [133.7092976, 33.966566], [133.7090131, 33.9665667], [133.7087745, 33.9665772], [133.7085287, 33.966598], [133.7081261, 33.966626], [133.7078444, 33.966659], [133.7077203, 33.966673], [133.7074643, 33.9666962], [133.7072763, 33.9666986], [133.7071502, 33.9667133], [133.7070276, 33.9667274], [133.7069357, 33.9667572], [133.7068497, 33.966812], [133.7068093, 33.9668896], [133.7067943, 33.9669813], [133.7068062, 33.9671086], [133.7067871, 33.9672089], [133.7067532, 33.9672719], [133.7066329, 33.9674229], [133.7065756, 33.9675033], [133.7064272, 33.9677152], [133.706281, 33.9678541], [133.7058575, 33.9680463], [133.7053846, 33.9682608], [133.7050858, 33.9683519], [133.7048727, 33.9684479], [133.7046122, 33.9686527], [133.7044625, 33.9688194], [133.7044284, 33.9688647], [133.7043714, 33.968903], [133.7043155, 33.9689324], [133.7042133, 33.9689489], [133.7040151, 33.9689614], [133.7037174, 33.9690072], [133.7035074, 33.9690256], [133.7030887, 33.9690153], [133.7027252, 33.9690464], [133.702374, 33.9690679], [133.7022099, 33.9690501], [133.7019779, 33.9689453], [133.7017785, 33.9687642], [133.7017157, 33.9687611], [133.7015722, 33.9688022], [133.7014672, 33.9688788], [133.7013689, 33.9690008], [133.7013051, 33.96903], [133.7011557, 33.9690477], [133.7008472, 33.9690937], [133.7007515, 33.9691097], [133.7004057, 33.9692322], [133.7001806, 33.9693291], [133.7000131, 33.9694181], [133.6998275, 33.9696245], [133.6997258, 33.9697169], [133.699609, 33.9698226], [133.699511, 33.969992], [133.6993499, 33.9701441], [133.6991574, 33.9702783], [133.6989836, 33.9704279], [133.6988391, 33.9705777], [133.6987589, 33.9706848], [133.6987344, 33.9707302], [133.6987022, 33.9708259], [133.6986774, 33.970868], [133.6986198, 33.9709137], [133.6984497, 33.9709928], [133.6983959, 33.9710505], [133.6983698, 33.9711331], [133.6983741, 33.9713164], [133.6983597, 33.9714391], [133.6982967, 33.9716163], [133.6981705, 33.9718986], [133.6979241, 33.9722539], [133.6978632, 33.9724244], [133.6977746, 33.9725262], [133.6976444, 33.9725832], [133.6974182, 33.9726161], [133.6972178, 33.9726197], [133.6970256, 33.9725835], [133.6968922, 33.9725476], [133.6967751, 33.9725699], [133.6966574, 33.9726474], [133.6964513, 33.9727524], [133.6961899, 33.9728366], [133.6958696, 33.9728874], [133.6955287, 33.9728842], [133.694984, 33.9729417], [133.6947032, 33.9729452], [133.6944135, 33.973012], [133.6941325, 33.9730511], [133.6937447, 33.973089], [133.6933524, 33.9731262], [133.6929656, 33.9731547], [133.6927968, 33.9731824], [133.6924352, 33.973293], [133.6922417, 33.9734035], [133.691947, 33.9736177], [133.6917344, 33.9737702], [133.6915264, 33.9738999], [133.6914022, 33.9739311], [133.6912261, 33.9738963], [133.6910304, 33.9737605], [133.6907908, 33.9735762], [133.6906734, 33.9734242], [133.6905744, 33.973187], [133.6905467, 33.9729797], [133.6905467, 33.9727195], [133.6905053, 33.9723833], [133.6904845, 33.972176], [133.6903924, 33.9720378], [133.6901667, 33.971872], [133.6899572, 33.9716025], [133.6898904, 33.9714482], [133.6897199, 33.971013], [133.6895889, 33.9707021], [133.6895079, 33.9703892], [133.6894666, 33.9702576], [133.6894896, 33.9701355], [133.6895633, 33.9699559], [133.6896255, 33.9698453], [133.6897637, 33.9696588], [133.6898535, 33.9694676], [133.6900101, 33.9690531], [133.6901322, 33.9687836], [133.6901852, 33.968627], [133.6902612, 33.9683136], [133.6903348, 33.9679753], [133.690351, 33.9678855], [133.6903418, 33.9677956], [133.6903026, 33.9677173], [133.689941, 33.9673189], [133.6898028, 33.9671923], [133.6892732, 33.9668169], [133.6890981, 33.9667132], [133.6889807, 33.9666557], [133.6888793, 33.9666165], [133.6887043, 33.9665612], [133.6885362, 33.9665244], [133.6882736, 33.9664852], [133.688041, 33.9664622], [133.6878018, 33.9664205], [133.6875784, 33.9663765], [133.6873869, 33.9663086], [133.6871321, 33.9662232], [133.6868985, 33.9661293], [133.6866645, 33.9660751], [133.686411, 33.9660119], [133.6862678, 33.9659371], [133.6861679, 33.9658542], [133.6860719, 33.9657334], [133.6860057, 33.9655523], [133.6860064, 33.9654438], [133.6860472, 33.9653542], [133.686194, 33.9652416], [133.6863092, 33.9651817], [133.6865418, 33.9651172], [133.686703, 33.9649975], [133.6869517, 33.96488], [133.6870577, 33.9648178], [133.687281, 33.9645852], [133.6875021, 33.9644079], [133.6875758, 33.9643158], [133.6876311, 33.9642237], [133.687668, 33.96412], [133.6877025, 33.9640095], [133.687714, 33.9639082], [133.687714, 33.9637677], [133.687714, 33.9636364], [133.6876242, 33.9632932], [133.687463, 33.9629662], [133.6873593, 33.9628442], [133.687235, 33.962729], [133.6871383, 33.962683], [133.6869241, 33.9626484], [133.6867237, 33.9626162], [133.6861232, 33.9625459], [133.6857265, 33.9624918], [133.6854264, 33.9624246], [133.6846556, 33.9622523], [133.6838472, 33.9621026], [133.6834182, 33.9620051], [133.6833567, 33.9619897], [133.6831886, 33.961946], [133.6829882, 33.9618654], [133.6827833, 33.9617548], [133.6824793, 33.9615821], [133.6823145, 33.9615214], [133.6817937, 33.9614476], [133.6817682, 33.961444], [133.6812126, 33.9613633], [133.6809362, 33.9613748], [133.6808142, 33.961414], [133.680729, 33.9614739], [133.6806184, 33.961566], [133.6804204, 33.9618078], [133.6802315, 33.9619943], [133.6793264, 33.962706], [133.6791353, 33.9628511], [133.679057, 33.9629478], [133.6789372, 33.9632011], [133.678852, 33.9633416], [133.6787967, 33.9634245], [133.6787299, 33.9634844], [133.6786263, 33.9635236], [133.6785227, 33.963542], [133.6780943, 33.9635558], [133.6777327, 33.9634913], [133.6772629, 33.9634337], [133.6770833, 33.9634107], [133.6769313, 33.9633531], [133.6766618, 33.9632149], [133.6763026, 33.9630077], [133.6761828, 33.9628511], [133.6760677, 33.9626783], [133.6760239, 33.962531], [133.6760285, 33.9623536], [133.6760815, 33.9621302], [133.676139, 33.961969], [133.6761943, 33.9617756], [133.6763855, 33.9613057], [133.6764384, 33.9611307], [133.676648, 33.9607945], [133.6767563, 33.9606494], [133.6768737, 33.9605296], [133.6770994, 33.9603339], [133.6772123, 33.9602164], [133.677286, 33.9601013], [133.6773504, 33.9599654], [133.6773827, 33.9598272], [133.6774057, 33.9595854], [133.6774264, 33.9594725], [133.677461, 33.9593459], [133.6775093, 33.9592169], [133.6776337, 33.9589244], [133.6776706, 33.9588277], [133.6776844, 33.9587172], [133.6776844, 33.9586089], [133.6776544, 33.9584753], [133.6776222, 33.9583786], [133.677537, 33.9582658], [133.6774057, 33.9581713], [133.6772721, 33.9580746], [133.6772076, 33.9580147], [133.6770326, 33.9577706], [133.6768161, 33.9574482], [133.6767309, 33.9573284], [133.6764638, 33.957082], [133.6763647, 33.957029], [133.6762404, 33.9569715], [133.6760999, 33.9569231], [133.6755955, 33.9568333], [133.6752846, 33.9567688], [133.6751023, 33.9567089], [133.6750359, 33.9566859], [133.6746628, 33.9565661], [133.6744072, 33.9564418], [133.6743387, 33.9563973], [133.6742229, 33.956322], [133.6741101, 33.9562276], [133.673988, 33.9561493], [133.6738775, 33.9561055], [133.6737324, 33.9561055], [133.6736288, 33.956147], [133.6734675, 33.956269], [133.6733524, 33.9563312], [133.6730645, 33.9564257], [133.6724773, 33.9565846], [133.6723068, 33.9566214], [133.6721617, 33.9566444], [133.6720143, 33.9566652], [133.6716811, 33.9567027], [133.6715238, 33.9567204], [133.6713879, 33.9567191], [133.6712152, 33.9567248], [133.671102, 33.9567486], [133.6709631, 33.9568192], [133.6708554, 33.9569194], [133.6708088, 33.9570475], [133.6707719, 33.9571478], [133.6707173, 33.9572138], [133.6706095, 33.957264], [133.6703953, 33.9573261], [133.6701857, 33.9573883], [133.6699923, 33.9574413], [133.6698357, 33.9575035], [133.6696814, 33.9575841], [133.6694327, 33.9577223], [133.6692553, 33.9578282], [133.6691471, 33.9578789], [133.6690227, 33.9578996], [133.6688638, 33.9579042], [133.6686289, 33.957865], [133.6684654, 33.9578167], [133.6682696, 33.9577545], [133.6681245, 33.9576808], [133.667907, 33.9575568], [133.6677216, 33.9574936], [133.6676225, 33.9574819], [133.6675411, 33.9575025], [133.667488, 33.9575582], [133.6674809, 33.9576375], [133.6675057, 33.9577813], [133.667543, 33.9579306], [133.6675872, 33.9580906], [133.6675979, 33.9582256], [133.6675695, 33.9583107], [133.6675341, 33.9583753], [133.6674262, 33.9584678], [133.6668652, 33.9590182], [133.6664518, 33.9593662], [133.6663039, 33.9594566], [133.6661957, 33.9594958], [133.6660641, 33.9595119], [133.6659187, 33.9595132], [133.6658054, 33.9594844], [133.6656888, 33.9594374], [133.6655674, 33.9593574], [133.6654175, 33.9592601], [133.6652652, 33.9592221], [133.6651486, 33.9592268], [133.665045, 33.9592753], [133.664954, 33.9593643], [133.6649117, 33.9594637], [133.6648721, 33.9595725], [133.6648102, 33.959662], [133.6647069, 33.9597397], [133.6645848, 33.9597627], [133.6644858, 33.9597558], [133.6639607, 33.9596568], [133.6638455, 33.9596245], [133.6637396, 33.9595762], [133.6636636, 33.9595301], [133.6636014, 33.9594587], [133.6635392, 33.9593689], [133.663484, 33.9591732], [133.6634494, 33.9590995], [133.6633872, 33.9590557], [133.6631709, 33.9589189], [133.6629612, 33.9589244], [133.6628276, 33.958959], [133.6626756, 33.9589958], [133.6625443, 33.9589889], [133.6624338, 33.9589544], [133.6623302, 33.9588922], [133.6622434, 33.9588052], [133.6621416, 33.9587343], [133.6620492, 33.9586923], [133.6619612, 33.9586681], [133.6619096, 33.9586565], [133.6618553, 33.9586439], [133.6617658, 33.9586174], [133.6615794, 33.9585053], [133.6614136, 33.9583464], [133.6613491, 33.9582635], [133.6612961, 33.9581667], [133.6611971, 33.9579042], [133.661052, 33.9576025], [133.6609783, 33.957515], [133.6608885, 33.9574229], [133.6607618, 33.9573791], [133.6605868, 33.9573284], [133.6605131, 33.9572801], [133.6604578, 33.9572156], [133.660421, 33.9571281], [133.6603104, 33.9568241], [133.6602574, 33.9566122], [133.6602574, 33.9564786], [133.6602344, 33.9563842], [133.6601676, 33.956322], [133.6600824, 33.9562921], [133.6599995, 33.9562944], [133.6599097, 33.9562944], [133.659813, 33.9562967], [133.6597231, 33.9562806], [133.6596366, 33.9562607], [133.6595568, 33.9562319], [133.6594693, 33.9561727], [133.6593982, 33.9561023], [133.6593428, 33.9560329], [133.6592923, 33.9559648], [133.6592493, 33.9558912], [133.6592053, 33.9558037], [133.659163, 33.9556899], [133.6591447, 33.9556091], [133.6591264, 33.9555272], [133.6590853, 33.9554538], [133.6590391, 33.9554066], [133.6589194, 33.9553904], [133.6587957, 33.9553855], [133.6586822, 33.9553663], [133.658544, 33.9553248], [133.6582147, 33.9552004], [133.6573672, 33.9548412], [133.6571312, 33.9547347], [133.6570204, 33.9546689], [133.6569391, 33.9545981], [133.6568568, 33.9544758], [133.6567988, 33.9544067], [133.6567171, 33.9543727], [133.6566047, 33.9543664], [133.6565016, 33.9543905], [133.6563706, 33.954458], [133.6562467, 33.9545666], [133.6560867, 33.9547076], [133.6560314, 33.9547491], [133.655937, 33.9547836], [133.6558403, 33.9547974], [133.6556053, 33.9547974], [133.6554027, 33.9548135], [133.6552184, 33.9548251], [133.6550089, 33.9548437], [133.6548428, 33.9548649], [133.6547233, 33.9548856], [133.6545066, 33.9549312], [133.6543485, 33.954978], [133.6542235, 33.9550415], [133.6541614, 33.9551014], [133.6540761, 33.955235], [133.653908, 33.9555252], [133.6538528, 33.9555781], [133.6537606, 33.9556265], [133.6536501, 33.9556564], [133.6531158, 33.9557578], [133.6529836, 33.9557944], [133.6528492, 33.9558627], [133.6527733, 33.9559358], [133.6527174, 33.9560163], [133.6526633, 33.9560948], [133.6526009, 33.9562503], [133.6525458, 33.9563525], [133.6525244, 33.9563938], [133.6524797, 33.9564603], [133.6523906, 33.9565424], [133.6522709, 33.9565996], [133.6520817, 33.9566466], [133.6520344, 33.9566587], [133.651991, 33.956687], [133.6519328, 33.9567199], [133.6518892, 33.9567706], [133.6518451, 33.9568353], [133.6518128, 33.9568709], [133.6517823, 33.9569093], [133.6517501, 33.95696], [133.6511053, 33.9574206], [133.6508385, 33.9576427], [133.65067, 33.9577844], [133.6505387, 33.9579226], [133.6503729, 33.9580861], [133.6502554, 33.9581552], [133.650009, 33.9582197], [133.649811, 33.9582199], [133.6496131, 33.9582237], [133.649512, 33.958219], [133.6493158, 33.9582151], [133.6489565, 33.9580953], [133.6486802, 33.9579134], [133.6485213, 33.9578604], [133.6483416, 33.9578351], [133.6482311, 33.9578581], [133.6481482, 33.9579134], [133.648086, 33.9579733], [133.6478995, 33.9580861], [133.6477451, 33.9581575], [133.647303, 33.9582934], [133.6470865, 33.9582957], [133.6469161, 33.9583141], [133.646695, 33.9583418], [133.6465811, 33.9583908], [133.6463841, 33.9584132], [133.6462827, 33.9583901], [133.6461906, 33.9583441], [133.646057, 33.9582635], [133.6459626, 33.9582128], [133.6458797, 33.958123], [133.6458221, 33.9580332], [133.6457807, 33.9579387], [133.6457507, 33.9578374], [133.645714, 33.9576951], [133.6456678, 33.9575495], [133.6456056, 33.9574436], [133.6454974, 33.957333], [133.6453454, 33.9572179], [133.6453109, 33.9571626], [133.6452809, 33.9570866], [133.6452671, 33.9570267], [133.6452533, 33.9569323], [133.6452349, 33.9568632], [133.6451842, 33.9567872], [133.6449861, 33.9566076], [133.644924, 33.9565293], [133.644894, 33.9564556], [133.6448733, 33.9563681], [133.6448733, 33.9562529], [133.6449032, 33.9560434], [133.644917, 33.9559052], [133.6449032, 33.9557969], [133.6448618, 33.9556933], [133.6447858, 33.9555781], [133.6447029, 33.9554745], [133.6446476, 33.9553755], [133.6446223, 33.955258], [133.644613, 33.9551221], [133.6445877, 33.9549034], [133.6445301, 33.9546615], [133.6444541, 33.9544635], [133.6442354, 33.9540236], [133.644187, 33.9539154], [133.6441824, 33.9538555], [133.6441939, 33.9538025], [133.6442584, 33.9536712], [133.6442952, 33.9535952], [133.6442804, 33.9535073], [133.6442031, 33.9533808], [133.6441047, 33.9532472], [133.6440414, 33.9531418], [133.6440256, 33.9528661], [133.6439993, 33.9525585], [133.6439219, 33.9522844], [133.6437407, 33.9518967], [133.6432722, 33.9512098], [133.6432287, 33.9510997], [133.6432519, 33.9510054], [133.6433259, 33.9508664], [133.6432964, 33.9508014], [133.6432202, 33.9507488], [133.6431007, 33.9507195], [133.6430256, 33.9507174], [133.6429239, 33.9507382], [133.6428607, 33.9507382], [133.6427977, 33.9507321], [133.6427376, 33.9507083], [133.6423898, 33.9504922], [133.6421917, 33.9503963], [133.6421087, 33.9503376], [133.6420606, 33.9502876], [133.6420032, 33.95019], [133.6419881, 33.9501281], [133.6419892, 33.9500136], [133.6420243, 33.9496488], [133.6421016, 33.9492341], [133.6421049, 33.9490785], [133.6421141, 33.9489591], [133.6421297, 33.9488476], [133.642193, 33.9484956], [133.642193, 33.9483978], [133.6421815, 33.9482759], [133.6421508, 33.9481518], [133.6421268, 33.9480647], [133.642064, 33.9479538], [133.6419499, 33.9477824], [133.6414882, 33.9472092], [133.6413876, 33.9470483], [133.6413045, 33.9468777], [133.6412528, 33.9466324], [133.6412213, 33.9464001], [133.6408585, 33.946449], [133.6407089, 33.9464632], [133.6405752, 33.9464509], [133.6404508, 33.946423], [133.640243, 33.9463715], [133.640103, 33.9463511], [133.6399493, 33.9463345], [133.639796, 33.946327], [133.6396779, 33.946334], [133.6395488, 33.9463462], [133.6394359, 33.9463689], [133.6392976, 33.9464076], [133.6389242, 33.9465226], [133.6388629, 33.9465844], [133.6388506, 33.9466488], [133.6388657, 33.9467177], [133.6389313, 33.9473371], [133.6389381, 33.9474493], [133.6389343, 33.947548], [133.638899, 33.9478038], [133.6388353, 33.9479837], [133.638743, 33.9482111], [133.6386351, 33.9484728], [133.6385777, 33.9486302], [133.6385435, 33.9487642], [133.6385294, 33.9489043], [133.6384912, 33.9497619], [133.6384929, 33.9500353], [133.6385007, 33.9504042], [133.6385619, 33.951162], [133.6385574, 33.9513876], [133.6385437, 33.9515809], [133.6384967, 33.9517474], [133.6382764, 33.9523539], [133.6381908, 33.952583], [133.6380973, 33.952784], [133.637964, 33.9530199], [133.6375236, 33.9536931], [133.637396, 33.9539043], [133.6373158, 33.9540906], [133.6372776, 33.9542657], [133.6372568, 33.9544408], [133.6372591, 33.9545812], [133.637272, 33.9547018], [133.6373123, 33.9548878], [133.637447, 33.9552665], [133.637625, 33.955714], [133.6376837, 33.9559296], [133.6377087, 33.9560713], [133.6377157, 33.956217], [133.6376967, 33.9564075], [133.6376577, 33.9565743], [133.6375882, 33.956741], [133.6374946, 33.956901], [133.637277, 33.9571164], [133.6372007, 33.9572093], [133.6371651, 33.9572978], [133.6371142, 33.9574534], [133.6370478, 33.9575729], [133.6369282, 33.9576635], [133.6367488, 33.9577742], [133.6365761, 33.9578596], [133.6363807, 33.9579114], [133.6362549, 33.9579634], [133.6361381, 33.9580463], [133.6359825, 33.9581969], [133.6358721, 33.95825], [133.6357664, 33.9582687], [133.6356679, 33.9582561], [133.6355572, 33.9582216], [133.6351515, 33.9580532], [133.6350144, 33.9580152], [133.634888, 33.9579997], [133.6347112, 33.9580123], [133.6342448, 33.958085], [133.6341653, 33.9580993], [133.6338923, 33.9581457], [133.6336985, 33.9581504], [133.6335192, 33.9581476], [133.6333309, 33.958126], [133.6330338, 33.9580388], [133.6328577, 33.9579631], [133.632675, 33.9578752], [133.63196, 33.957423], [133.6318602, 33.9573439], [133.631803, 33.9572642], [133.6317, 33.9570508], [133.6315324, 33.9567748], [133.6314481, 33.9566797], [133.6313451, 33.9566108], [133.6312376, 33.95657], [133.6311017, 33.9565544], [133.6309764, 33.9565626], [133.6304682, 33.9566384], [133.6302705, 33.9566447], [133.6301627, 33.9566349], [133.6300593, 33.956607], [133.6298412, 33.9565242], [133.6297172, 33.9564805], [133.6295815, 33.9564468], [133.6293794, 33.9564421], [133.629174, 33.9564615], [133.6290005, 33.9564768], [133.6287979, 33.9564615], [133.6285318, 33.9564138], [133.6284369, 33.9564131], [133.6283317, 33.9564346], [133.6281926, 33.9565003], [133.6281034, 33.9565243], [133.6279918, 33.9565221], [133.627894, 33.9564881], [133.627698, 33.956429], [133.627592, 33.9564048], [133.6275118, 33.956415], [133.6273446, 33.9564812], [133.6272267, 33.956541], [133.6271107, 33.9566338], [133.6270437, 33.9567255], [133.6270086, 33.9568171], [133.6270131, 33.9569415], [133.6271191, 33.9575338], [133.627155, 33.957717], [133.627192, 33.957836], [133.627237, 33.957955], [133.627285, 33.958072], [133.627333, 33.958187], [133.627372, 33.958304], [133.627394, 33.958421], [133.627411, 33.958656], [133.627437, 33.95877], [133.627496, 33.958873], [133.62758, 33.958965], [133.627663, 33.959057], [133.627733, 33.959156], [133.627802, 33.959256], [133.627881, 33.959352], [133.62807, 33.959513], [133.6281313, 33.9595631], [133.6281904, 33.9596388], [133.628254, 33.959799], [133.6282891, 33.9599129], [133.6284844, 33.9605461], [133.6285383, 33.9606615], [133.6285914, 33.9607704], [133.628963, 33.961291], [133.629004, 33.961382], [133.629008, 33.961472], [133.628969, 33.961554], [133.628893, 33.961617], [133.628798, 33.961663], [133.628704, 33.961712], [133.628626, 33.961776], [133.628569, 33.961856], [133.628533, 33.961948], [133.628471, 33.96224], [133.628434, 33.962317], [133.628362, 33.962367], [133.628262, 33.962381], [133.628159, 33.962364], [133.628068, 33.962321], [133.627993, 33.962264], [133.62793, 33.962199], [133.62789, 33.962112], [133.627874, 33.962004], [133.627862, 33.961905], [133.627843, 33.961807], [133.627802, 33.961715], [133.627737, 33.961629], [133.62718, 33.9610178], [133.6270801, 33.9609358], [133.626992, 33.960894], [133.62688, 33.960889], [133.62678, 33.960932], [133.626703, 33.961002], [133.626666, 33.961086], [133.626675, 33.96117], [133.626711, 33.961254], [133.626811, 33.961417], [133.626849, 33.961505], [133.626871, 33.961598], [133.626874, 33.961694], [133.626854, 33.96179], [133.62681, 33.961884], [133.626745, 33.961973], [133.626597, 33.962146], [133.626534, 33.962232], [133.62649, 33.962324], [133.626469, 33.962421], [133.626464, 33.962522], [133.62646, 33.962625], [133.626427, 33.962827], [133.62639, 33.962917], [133.626332, 33.962994], [133.626256, 33.96305], [133.626163, 33.963081], [133.62605, 33.963072], [133.625939, 33.963037], [133.625846, 33.962985], [133.6256829, 33.962877], [133.625476, 33.962778], [133.625377, 33.962747], [133.625279, 33.962736], [133.6251855, 33.9627597], [133.6251129, 33.9628133], [133.6250671, 33.9628787], [133.6249954, 33.9630044], [133.624783, 33.9634037], [133.6247084, 33.9634903], [133.6246298, 33.9635349], [133.6245215, 33.9635515], [133.6244139, 33.9635389], [133.6243154, 33.963499], [133.6241712, 33.963413], [133.6240492, 33.9633916], [133.6239411, 33.96339], [133.6238234, 33.963434], [133.6237252, 33.9635116], [133.6236237, 33.9636332], [133.6233736, 33.9640321], [133.6230988, 33.9644892], [133.6230484, 33.9646325], [133.6230255, 33.9647764], [133.6229745, 33.9647082], [133.6229001, 33.9645688], [133.6228253, 33.964432], [133.6227922, 33.9643904], [133.6227211, 33.9643555], [133.6224642, 33.9642785], [133.6222558, 33.9642451], [133.6221777, 33.9642176], [133.6221066, 33.9641547], [133.6220664, 33.9640644], [133.622038, 33.9639682], [133.6220025, 33.9637895], [133.6219385, 33.9636736], [133.6218391, 33.9635794], [133.6215408, 33.9634006], [133.6211714, 33.9631807], [133.6211122, 33.9631002], [133.621079, 33.9630216], [133.6210506, 33.9629215], [133.621053, 33.9627526], [133.6210293, 33.962621], [133.6209867, 33.962511], [133.6209275, 33.9624266], [133.620802, 33.962352], [133.6206789, 33.9622891], [133.6205179, 33.962134], [133.6204634, 33.9620103], [133.6204421, 33.961863], [133.6204184, 33.9617491], [133.6203782, 33.9617078], [133.6203, 33.9616941], [133.6202077, 33.9617078], [133.6200775, 33.9617844], [133.6199023, 33.9620652], [133.6196513, 33.9624207], [133.6196371, 33.9625837], [133.6195897, 33.9627938], [133.6195353, 33.9629175], [133.6194074, 33.9630884], [133.6192866, 33.9631709], [133.6191493, 33.9632239], [133.6190001, 33.9632239], [133.6187894, 33.9632651], [133.6187018, 33.963328], [133.6186758, 33.963379], [133.6185313, 33.9637679], [133.6184248, 33.9638916], [133.6181809, 33.9639564], [133.6179749, 33.9640173], [133.6178305, 33.9641194], [133.6177547, 33.9642137], [133.6177523, 33.964359], [133.6177216, 33.964467], [133.6176292, 33.9645298], [133.6173995, 33.9645829], [133.6172385, 33.9646987], [133.6168715, 33.9650758], [133.6167295, 33.9651386], [133.6165448, 33.965227], [133.6163861, 33.9653723], [133.6162796, 33.9653939], [133.6162038, 33.965386], [133.6161494, 33.965335], [133.6161399, 33.9652054], [133.6161494, 33.9649501], [133.6160949, 33.9648912], [133.615967, 33.9648578], [133.6156947, 33.9648696], [133.6156, 33.9648165], [133.6153325, 33.9645829], [133.6153301, 33.9645298], [133.6153609, 33.9644611], [133.6155219, 33.9643884], [133.6156734, 33.9642902], [133.6157445, 33.9641508], [133.6157918, 33.963978], [133.6157516, 33.9638602], [133.615645, 33.9637934], [133.6153751, 33.9637011], [133.6149606, 33.9635796], [133.614641, 33.9634675], [133.6144634, 33.963384], [133.6143396, 33.9633164], [133.6143688, 33.9632435], [133.614428, 33.9631414], [133.6148376, 33.9628959], [133.6151052, 33.962733], [133.6151652, 33.9626264], [133.6151904, 33.9625817], [133.6151999, 33.9624462], [133.6151241, 33.9623363], [133.614911, 33.9621497], [133.6147453, 33.9618905], [133.6147169, 33.9618178], [133.6147382, 33.9617334], [133.6149915, 33.9616136], [133.6151052, 33.9614231], [133.6152271, 33.9611448], [133.6152456, 33.9610681], [133.6152179, 33.960976], [133.6150976, 33.9608188], [133.6149681, 33.9607075], [133.6149681, 33.9605963], [133.6150329, 33.9604889], [133.6152179, 33.9604045], [133.6153011, 33.9603086], [133.6153011, 33.9601782], [133.6151485, 33.9600554], [133.6145519, 33.9596297], [133.6144363, 33.9594763], [133.6141681, 33.9594187], [133.613997, 33.9593152], [133.6138814, 33.9591771], [133.6138305, 33.9590965], [133.6137796, 33.9589814], [133.6137796, 33.9589086], [133.6138398, 33.958828], [133.6138906, 33.9587897], [133.614108, 33.9586324], [133.6144178, 33.9583984], [133.6146028, 33.9582987], [133.6147415, 33.9582833], [133.6148109, 33.9582488], [133.6148433, 33.9581836], [133.6148525, 33.958103], [133.6148155, 33.9580417], [133.6147092, 33.9578691], [133.6146213, 33.9578154], [133.6145196, 33.9577923], [133.6141773, 33.9578384], [133.6140617, 33.9578077], [133.6137195, 33.9574701], [133.6135808, 33.9573551], [133.6135438, 33.957309], [133.6135392, 33.9572438], [133.6136039, 33.9571748], [133.6141126, 33.9567912], [133.6143253, 33.956538], [133.6143531, 33.9563923], [133.6143115, 33.9561813], [133.6142652, 33.9560662], [133.6141357, 33.9559435], [133.613738, 33.9557478], [133.6136455, 33.9556596], [133.6135715, 33.9555062], [133.6135392, 33.9553259], [133.6135808, 33.9551111], [133.6135854, 33.9549806], [133.6134883, 33.9547543], [133.6134837, 33.9546431], [133.6135438, 33.9545587], [133.6136224, 33.9545165], [133.6136871, 33.9545165], [133.6137473, 33.9545932], [133.6137796, 33.954762], [133.6137796, 33.9548617], [133.613738, 33.9550228], [133.6137611, 33.9552185], [133.6139831, 33.9555062], [133.6143485, 33.9557402], [133.6146121, 33.9558245], [133.6147055, 33.9557941], [133.6147092, 33.9557481], [133.6147018, 33.9556775], [133.6146167, 33.9556314], [133.6142838, 33.955567], [133.6141543, 33.9555179], [133.6140433, 33.9553368], [133.61401, 33.9550913], [133.6140248, 33.9547783], [133.6140174, 33.9543886], [133.6139619, 33.954318], [133.6138287, 33.9542689], [133.6136326, 33.9543057], [133.6134513, 33.9543733], [133.6133625, 33.9544469], [133.6132775, 33.9544899], [133.6131739, 33.9544899], [133.6130518, 33.9544162], [133.6127817, 33.9543027], [133.6125375, 33.9542689], [133.6121306, 33.9542812], [133.6119049, 33.9542045], [133.6117495, 33.954094], [133.6115682, 33.9540817], [133.6114498, 33.9540081], [133.6114128, 33.953916], [133.6114276, 33.953827], [133.6114942, 33.953738], [133.6116274, 33.9536091], [133.6118161, 33.9535692], [133.6122453, 33.95356], [133.6125338, 33.9535876], [133.6126818, 33.9535938], [133.6127826, 33.953557], [133.6129815, 33.9534189], [133.6131369, 33.9531918], [133.6132738, 33.9529524], [133.6134809, 33.9527284], [133.6136696, 33.9525841], [133.6140026, 33.9524859], [133.6141025, 33.9524368], [133.6141358, 33.952357], [133.6141358, 33.9522466], [133.614084, 33.9520931], [133.6139693, 33.951866], [133.6138891, 33.9516455], [133.6139238, 33.9515352], [133.6141897, 33.9512763], [133.6142094, 33.9512159], [133.6142003, 33.9511568], [133.6141724, 33.9510989], [133.6141352, 33.9510399], [133.6141246, 33.9509947], [133.6141246, 33.9509532], [133.6141488, 33.9508388], [133.614164, 33.9507483], [133.6141685, 33.950654], [133.6141488, 33.9505974], [133.6140336, 33.9504717], [133.6139902, 33.9504431], [133.6139208, 33.9503703], [133.6138838, 33.9502744], [133.6136479, 33.9501171], [133.6134028, 33.9501132], [133.613204, 33.9501746], [133.6130884, 33.9502207], [133.613019, 33.9502015], [133.6128988, 33.9500787], [133.6128063, 33.9500212], [133.6127045, 33.9500212], [133.6125935, 33.9500672], [133.6124363, 33.9501669], [133.6121727, 33.9504738], [133.6117334, 33.9508037], [133.6115808, 33.9508421], [133.6114559, 33.9508191], [133.611405, 33.9507539], [133.6113985, 33.9507256], [133.6114097, 33.9506887], [133.6114929, 33.9506004], [133.6118166, 33.9502859], [133.6119507, 33.9497526], [133.6119507, 33.9495723], [133.61189, 33.949496], [133.6117189, 33.9494384], [133.6113072, 33.9493792], [133.6109315, 33.9493767], [133.6107597, 33.9494301], [133.6105579, 33.9495421], [133.6103873, 33.9495985], [133.6102631, 33.9496179], [133.6101146, 33.9496055], [133.6094558, 33.9497099], [133.608269, 33.9499985], [133.6077511, 33.95001], [133.6069973, 33.9500292], [133.6066609, 33.9501535], [133.6066124, 33.950172], [133.6065638, 33.9501803], [133.60651, 33.9501687], [133.6064765, 33.9501369], [133.6064577, 33.9500396], [133.6064777, 33.949954], [133.6065088, 33.9499085], [133.6065278, 33.9498629], [133.6065168, 33.9497996], [133.6064856, 33.9497464], [133.6063814, 33.9496731], [133.6054909, 33.9493439], [133.6051567, 33.9491866], [133.6047955, 33.9488644], [133.6046058, 33.9488344], [133.6042987, 33.9489019], [133.6041722, 33.9489019], [133.6037206, 33.9488194], [133.6033593, 33.948752], [133.6027993, 33.9484598], [133.6025374, 33.9481226], [133.6021671, 33.9478154], [133.60186, 33.9475607], [133.6016793, 33.9473209], [133.6014896, 33.9470886], [133.6012819, 33.9469313], [133.6010957, 33.9468485], [133.6010069, 33.946781], [133.6009699, 33.9467349], [133.6009329, 33.9466582], [133.6009403, 33.9464894], [133.6010157, 33.9463506], [133.6011221, 33.9460822], [133.6014023, 33.9453741], [133.6013914, 33.9451899], [133.6013506, 33.9451395], [133.6011861, 33.9450884], [133.6001235, 33.944758], [133.599979, 33.9447053], [133.5999096, 33.9446142], [133.5998114, 33.9444991], [133.5996611, 33.9444176], [133.5983431, 33.9442641], [133.5975222, 33.9440099], [133.5972332, 33.943986], [133.5968622, 33.9439761], [133.5965742, 33.943986], [133.5963256, 33.9439044], [133.5958805, 33.943727], [133.5955683, 33.9436886], [133.5953313, 33.9437654], [133.5949556, 33.9438133], [133.5947533, 33.9437989], [133.5942041, 33.943775], [133.5939555, 33.9438133], [133.5928745, 33.9442641], [133.5926607, 33.9443169], [133.5924583, 33.9443312], [133.5923138, 33.9443073], [133.5922098, 33.9441586], [133.5920593, 33.9439836], [133.5920263, 33.9439452], [133.5916472, 33.9434988], [133.5915655, 33.943463], [133.5914707, 33.9434518], [133.5912522, 33.9436295], [133.5910584, 33.9438846], [133.5910996, 33.9440998], [133.5913542, 33.9447916], [133.5912386, 33.9449643], [133.590516, 33.9454582], [133.5902386, 33.9455157], [133.5898917, 33.9455637], [133.5891402, 33.9457891], [133.5887761, 33.9458035], [133.588383, 33.9457315], [133.5877124, 33.9454486], [133.5874812, 33.9453143], [133.5870592, 33.9449403], [133.5867759, 33.9447245], [133.5864811, 33.944571], [133.5861516, 33.9445039], [133.5858221, 33.9443936], [133.58551, 33.9442593], [133.5852441, 33.9442257], [133.5849377, 33.9441874], [133.5848221, 33.9440723], [133.5846776, 33.9439812], [133.5845735, 33.9440004], [133.5844059, 33.9440723], [133.5841631, 33.9440915], [133.58377, 33.9441154], [133.583495, 33.944226], [133.5832035, 33.9442018], [133.5826254, 33.9441778], [133.5822901, 33.9441442], [133.5817641, 33.9439716], [133.5810704, 33.9437222], [133.5804008, 33.9435233], [133.5802653, 33.9434333], [133.5801027, 33.9432085], [133.5801027, 33.9429763], [133.5801479, 33.9425192], [133.5801027, 33.9422719], [133.5800124, 33.9420246], [133.5800124, 33.9418373], [133.5801389, 33.94165], [133.5804008, 33.9414177], [133.5803886, 33.9413579], [133.5803146, 33.9412751], [133.5801962, 33.9412597], [133.5800038, 33.9412536], [133.5799039, 33.9412321], [133.5798632, 33.9411554], [133.5798669, 33.9410418], [133.5800186, 33.9408515], [133.5799964, 33.9407134], [133.579915, 33.9406121], [133.5797115, 33.9405231], [133.5796116, 33.9404249], [133.5794156, 33.9400658], [133.5793601, 33.939989], [133.5792861, 33.9399522], [133.5791344, 33.9399215], [133.5787903, 33.939897], [133.5785499, 33.9398325], [133.5778654, 33.9395655], [133.5775251, 33.9393844], [133.5774289, 33.9393721], [133.5767814, 33.939366], [133.576663, 33.9393414], [133.5766002, 33.9392708], [133.5766519, 33.9391941], [133.5768147, 33.9390406], [133.5768924, 33.9388626], [133.5770556, 33.9386722], [133.5772652, 33.9385643], [133.5774386, 33.9385043], [133.5775036, 33.9384084], [133.5775253, 33.9382765], [133.5776915, 33.9381986], [133.577771, 33.9380127], [133.5779805, 33.9377849], [133.5780022, 33.937701], [133.5780022, 33.9374972], [133.5777999, 33.9374852], [133.5776987, 33.9375511], [133.5775975, 33.9375511], [133.5775542, 33.9374972], [133.5775542, 33.9373653], [133.5777132, 33.9368557], [133.5777204, 33.9367538], [133.577677, 33.936544], [133.5777059, 33.9364481], [133.5778288, 33.9361483], [133.5779155, 33.9359924], [133.5779155, 33.9358486], [133.577771, 33.9355728], [133.5775614, 33.9352251], [133.5775181, 33.9349373], [133.5775181, 33.9345237], [133.5775975, 33.9343138], [133.5779299, 33.9339781], [133.5780455, 33.9337743], [133.5780528, 33.9336604], [133.5779516, 33.9336364], [133.5776409, 33.9336903], [133.5774241, 33.9336424], [133.5772868, 33.9335345], [133.5771929, 33.9333666], [133.5771351, 33.9332946], [133.5769255, 33.9333006], [133.5767232, 33.9333486], [133.5762535, 33.9333066], [133.5761452, 33.9333606], [133.5760657, 33.9334685], [133.5753359, 33.9335285], [133.5751913, 33.9334565], [133.5750541, 33.9332167], [133.5749529, 33.9331927], [133.5748662, 33.9332527], [133.5747506, 33.9333306], [133.5746133, 33.9333306], [133.5744688, 33.9332827], [133.5741165, 33.9332302], [133.573421, 33.9331388], [133.5724311, 33.9329289], [133.5722071, 33.932905], [133.5719975, 33.9329529], [133.5718313, 33.9331268], [133.5716362, 33.9332287], [133.5712244, 33.9333606], [133.5710437, 33.9334745], [133.570957, 33.9336244], [133.570957, 33.9340261], [133.5708053, 33.9341759], [133.5706935, 33.9342338], [133.5706607, 33.9342469], [133.5700465, 33.9345057], [133.569902, 33.9344637], [133.5697647, 33.9342539], [133.5695624, 33.93405], [133.569454, 33.9338882], [133.5694324, 33.9337383], [133.5694974, 33.9335704], [133.5698442, 33.9334385], [133.5700393, 33.9332527], [133.5701622, 33.9331687], [133.5701838, 33.9329469], [133.5702127, 33.9327671], [133.5702127, 33.9325512], [133.5701896, 33.9324983], [133.5701639, 33.9324585], [133.569932, 33.9323844], [133.5698753, 33.9323925], [133.5697747, 33.9324268], [133.5696978, 33.9325423], [133.5696622, 33.9327215], [133.5695379, 33.9328443], [133.5692775, 33.9329794], [133.5690727, 33.9331205], [133.5689664, 33.9331205], [133.568897, 33.9330706], [133.5688184, 33.9329363], [133.568675, 33.9329286], [133.5685918, 33.9330246], [133.5685317, 33.9330936], [133.5679675, 33.9334121], [133.5678703, 33.9334044], [133.5677316, 33.9333814], [133.5676576, 33.9333814], [133.5675883, 33.9334236], [133.5675374, 33.9335579], [133.5676067, 33.9339531], [133.5676992, 33.9342102], [133.5677409, 33.9343176], [133.5676391, 33.9344557], [133.5675513, 33.9345056], [133.5671258, 33.9345708], [133.5670564, 33.9346322], [133.5670241, 33.9348279], [133.5668345, 33.9350274], [133.5667882, 33.9351655], [133.5666911, 33.9355262], [133.5665616, 33.935695], [133.566409, 33.9357833], [133.5662471, 33.9358178], [133.5661176, 33.9357909], [133.565965, 33.9358255], [133.565891, 33.9358753], [133.5658032, 33.935837], [133.5656644, 33.9356183], [133.5656182, 33.9355646], [133.565535, 33.9355454], [133.5654193, 33.9356106], [133.5652251, 33.9357833], [133.5650956, 33.936025], [133.5650078, 33.936071], [133.5648505, 33.9360825], [133.563958, 33.9357833], [133.5633106, 33.9356144], [133.5629498, 33.9355761], [133.562566, 33.9355415], [133.5622978, 33.9354802], [133.5615671, 33.9352154], [133.5612573, 33.9350428], [133.5610111, 33.934828], [133.560629, 33.9345774], [133.5605821, 33.9345564], [133.5604665, 33.9345603], [133.5602722, 33.9346216], [133.560263, 33.9347176], [133.5602537, 33.9348096], [133.5601612, 33.9348902], [133.5600364, 33.9348902], [133.5598283, 33.934848], [133.5596895, 33.9348327], [133.5595786, 33.9348941], [133.5595878, 33.9351358], [133.5596895, 33.9353161], [133.5599763, 33.9355041], [133.5601427, 33.9355962], [133.5601982, 33.9357804], [133.5602391, 33.9359716], [133.5602854, 33.9360771], [133.5602796, 33.9361299], [133.5601756, 33.9362354], [133.5600599, 33.9362978], [133.5590946, 33.9362786], [133.5589269, 33.9362786], [133.5588229, 33.936293], [133.5587766, 33.9363553], [133.558898, 33.9366479], [133.5588922, 33.9367965], [133.558794, 33.9370315], [133.5586957, 33.9371946], [133.5585396, 33.9372282], [133.5584009, 33.9372282], [133.5583026, 33.9373289], [133.5581812, 33.9373577], [133.5580598, 33.9373289], [133.5575916, 33.9370363], [133.5574586, 33.936998], [133.5572852, 33.9369788], [133.557106, 33.9369212], [133.556817, 33.9368013], [133.5566609, 33.9368013], [133.5563777, 33.9368781], [133.5561753, 33.9368349], [133.5560886, 33.9367678], [133.5560652, 33.9365716], [133.5558921, 33.9364848], [133.5557822, 33.9365472], [133.5556609, 33.936763], [133.5555337, 33.9369116], [133.5552851, 33.9370987], [133.5550481, 33.9371131], [133.5548631, 33.9370172], [133.5547417, 33.9370028], [133.5545163, 33.9370363], [133.5542851, 33.9370411], [133.5541174, 33.9369932], [133.5539556, 33.9368877], [133.5536896, 33.936787], [133.5535278, 33.9367006], [133.5534064, 33.936504], [133.5532041, 33.9361251], [133.5530422, 33.9358805], [133.5530285, 33.9357812], [133.5530314, 33.935683], [133.5530018, 33.9356265], [133.5528923, 33.9355946], [133.5527118, 33.9355847], [133.5526023, 33.9355283], [133.5518969, 33.9351515], [133.551738, 33.9350666], [133.5516108, 33.9349807], [133.5515013, 33.9348456], [133.5514698, 33.9347912], [133.5516143, 33.9345994], [133.5518976, 33.9344891], [133.552019, 33.93435], [133.5525045, 33.9340382], [133.5526491, 33.9338128], [133.5526524, 33.9337133], [133.5525988, 33.9336354], [133.5524409, 33.9335874], [133.5522444, 33.9336545], [133.5518109, 33.9338368], [133.5513022, 33.9338368], [133.5508397, 33.9339855], [133.5506836, 33.9339327], [133.5505969, 33.9338368], [133.5501634, 33.9334147], [133.5500073, 33.9333764], [133.5499206, 33.9333188], [133.549909, 33.9332085], [133.5499553, 33.9330886], [133.549961, 33.9329207], [133.5497761, 33.9327001], [133.5493772, 33.9324939], [133.5489263, 33.9323068], [133.5483656, 33.9319759], [133.5481401, 33.9317648], [133.5479956, 33.9316353], [133.5477066, 33.9315106], [133.5473424, 33.9313955], [133.5471054, 33.931314], [133.5467643, 33.9312708], [133.5464851, 33.9313184], [133.5463933, 33.9313184], [133.5462128, 33.9312545], [133.5460441, 33.9312423], [133.5456564, 33.9312251], [133.5454196, 33.9311637], [133.5451384, 33.9310753], [133.5449313, 33.9310065], [133.5448306, 33.9309058], [133.5448277, 33.9308027], [133.5449076, 33.9306554], [133.5450556, 33.9304098], [133.545168, 33.9302796], [133.5454403, 33.9301888], [133.5456268, 33.9300635], [133.5457393, 33.9298916], [133.545834, 33.9297517], [133.5459849, 33.9296461], [133.5460175, 33.9295552], [133.5459967, 33.9293808], [133.545908, 33.9290665], [133.5455054, 33.9284968], [133.5453811, 33.9282168], [133.5452805, 33.9278263], [133.5452539, 33.9276569], [133.5452627, 33.9275758], [133.5453456, 33.9274825], [133.5454255, 33.9273941], [133.5455262, 33.9272468], [133.5456061, 33.9269717], [133.5457278, 33.9264383], [133.5457597, 33.9263779], [133.5458426, 33.9263498], [133.5459061, 33.9263052], [133.5459226, 33.9262106], [133.5460234, 33.9260041], [133.5461475, 33.9258657], [133.5461714, 33.9257782], [133.5461595, 33.9255842], [133.54619, 33.9255206], [133.5462754, 33.9254569], [133.5463198, 33.9253985], [133.5463118, 33.9253456], [133.5462826, 33.9252925], [133.5462128, 33.9252597], [133.5461281, 33.9252448], [133.5460333, 33.925241], [133.5456597, 33.9253094], [133.5455096, 33.9253079], [133.5453771, 33.9252943], [133.5452707, 33.925253], [133.5450045, 33.9250964], [133.5448092, 33.9249343], [133.544683, 33.9247832]], [[133.5443839, 33.9260955], [133.5443585, 33.9261503], [133.5441637, 33.926435], [133.544008, 33.9266178], [133.5437442, 33.9268652], [133.5435673, 33.9270129], [133.5434426, 33.9271302], [133.5433825, 33.9272121], [133.54333, 33.9273346], [133.5433066, 33.9274734], [133.5432949, 33.9276314], [133.5432157, 33.9278343], [133.5430838, 33.9281097], [133.5430364, 33.9281774], [133.5429784, 33.9282032], [133.5428939, 33.9282199], [133.5428275, 33.9281958], [133.5427508, 33.9281586], [133.54268, 33.9280772], [133.5426701, 33.9280153], [133.5427144, 33.9278731], [133.5427077, 33.9277513], [133.542608, 33.927447], [133.5424171, 33.927056], [133.542217, 33.926846], [133.5420185, 33.9266184], [133.5418094, 33.926455], [133.5416382, 33.9262953], [133.5415306, 33.9262123], [133.5414275, 33.9261482], [133.5410835, 33.9260011], [133.5408396, 33.9259105], [133.5405395, 33.9258162], [133.5401955, 33.925737], [133.5401122, 33.9257194], [133.5399773, 33.9257081], [133.5397531, 33.9257244], [133.5395061, 33.9257169], [133.5392272, 33.9256779], [133.5388241, 33.9255723], [133.5386287, 33.9254918], [133.5384301, 33.9254327], [133.5383559, 33.9254327], [133.5380392, 33.925522], [133.537927, 33.925566], [133.5377831, 33.9256062], [133.5375603, 33.9256653], [133.5373239, 33.9257282], [133.5372254, 33.9257634], [133.5370208, 33.9257785], [133.5368845, 33.925776], [133.5367799, 33.9257936], [133.5367147, 33.9258175], [133.5365476, 33.9259387], [133.5364204, 33.9260001], [133.5363168, 33.9260001], [133.5361717, 33.9259068], [133.535929, 33.9258552], [133.5358225, 33.925924], [133.5356893, 33.9261573], [133.5355591, 33.9262678], [133.5352631, 33.9262948], [133.5349879, 33.9262973], [133.5347866, 33.9262285], [133.5345824, 33.9262212], [133.5345025, 33.9262678], [133.5345942, 33.9265453], [133.5346061, 33.9266485], [133.534538, 33.9267393], [133.5343071, 33.9267762], [133.5342035, 33.9268646], [133.5341414, 33.9269554], [133.5339372, 33.9270168], [133.5337389, 33.9270242], [133.533585, 33.9270709], [133.5334903, 33.9271323], [133.5333275, 33.9273165], [133.53307, 33.9274245], [133.5328924, 33.9274613], [133.5324366, 33.9274491], [133.5314806, 33.9270856], [133.5313415, 33.9269677], [133.531235, 33.92684], [133.5308976, 33.9266951], [133.5307318, 33.926592], [133.5305454, 33.9264839], [133.5298291, 33.9262433], [133.5296486, 33.9262187], [133.5294562, 33.9262064], [133.5292756, 33.9261794], [133.5291336, 33.9261352], [133.5289412, 33.9261549], [133.5285623, 33.926204], [133.528293, 33.9261745], [133.5280858, 33.9261549], [133.5279615, 33.926172], [133.5278964, 33.9262383], [133.5278668, 33.9263562], [133.5277455, 33.9265404], [133.5276004, 33.9266313], [133.5274495, 33.9266362], [133.5272453, 33.9265404], [133.5270677, 33.9264373], [133.526973, 33.9264299], [133.5268901, 33.9264643], [133.5268487, 33.9266165], [133.5268102, 33.9267713], [133.5267244, 33.9268793], [133.5266267, 33.9269333], [133.5265261, 33.9269407], [133.5264491, 33.9268965], [133.5262656, 33.9262408], [133.5262419, 33.9261327], [133.5262627, 33.9257963], [133.5261164, 33.9251894], [133.526022, 33.9250131], [133.5259293, 33.9248618], [133.5257022, 33.9249977], [133.5242474, 33.9259065], [133.524095, 33.9260102], [133.5239544, 33.9261542], [133.5235779, 33.9270618], [133.5235997, 33.9273113], [133.5236486, 33.9275924], [133.5237508, 33.9281132], [133.5237224, 33.9283455], [133.5235775, 33.9288432], [133.5236522, 33.9290705], [133.5237821, 33.9291744], [133.5242908, 33.9295629], [133.5246607, 33.9299754], [133.5249309, 33.9301024], [133.5251763, 33.9301298], [133.5253933, 33.9301481], [133.5256009, 33.9301886], [133.5257067, 33.9302731], [133.5257484, 33.9303368], [133.5257457, 33.9303977], [133.5257106, 33.930453], [133.525565, 33.9305638], [133.5255145, 33.9306493], [133.5255264, 33.9307367], [133.5257542, 33.9308038], [133.5266402, 33.9308283], [133.5268741, 33.9307273], [133.5272717, 33.930441], [133.5278044, 33.9302242], [133.5280268, 33.9301134], [133.528169, 33.9300559], [133.5284215, 33.9299682], [133.5285301, 33.9299705], [133.5286246, 33.9300022], [133.5286778, 33.9300548], [133.5287168, 33.9301251], [133.5287468, 33.9302645], [133.5287708, 33.931304], [133.5287766, 33.9316109], [133.5288864, 33.9319227], [133.5291465, 33.9321865], [133.5295107, 33.9324311], [133.529661, 33.9326757], [133.5296668, 33.9329251], [133.5297939, 33.9331122], [133.5299732, 33.9331649], [133.530268, 33.9331313], [133.5316648, 33.9328433], [133.5322218, 33.9327285], [133.5324473, 33.9326997], [133.5326554, 33.9326997], [133.5331005, 33.932762], [133.5335051, 33.9327668], [133.5337364, 33.9327381], [133.5340716, 33.9326661], [133.5344879, 33.9326373], [133.5346497, 33.9325702], [133.5347942, 33.9325174], [133.5348809, 33.9325174], [133.5349561, 33.9325702], [133.5349561, 33.9326325], [133.5348983, 33.9327237], [133.5347538, 33.93281], [133.5344011, 33.9329395], [133.5339098, 33.9331889], [133.5335572, 33.9334863], [133.5333953, 33.933587], [133.5328693, 33.9338316], [133.5320426, 33.9343112], [133.5318634, 33.9343496], [133.5317652, 33.93434], [133.5316264, 33.9342968], [133.5314125, 33.933985], [133.5312622, 33.9338795], [133.531164, 33.9338556], [133.5310484, 33.9338556], [133.5308749, 33.9339035], [133.5307767, 33.9340522], [133.5306553, 33.934292], [133.5305512, 33.9343687], [133.5303316, 33.9343879], [133.530187, 33.9344311], [133.5301119, 33.934527], [133.5301119, 33.9346469], [133.5301466, 33.9348004], [133.5304414, 33.9353136], [133.5305801, 33.9355725], [133.5306148, 33.9358363], [133.5305917, 33.9361577], [133.5305281, 33.9363543], [133.5304717, 33.9365359], [133.530372, 33.9367188], [133.5222999, 33.9502071], [133.5222642, 33.9502579], [133.5222345, 33.9503149], [133.522222, 33.950357], [133.5222175, 33.9504356], [133.522222, 33.950488], [133.5222414, 33.9505449], [133.5222687, 33.9505882], [133.5223177, 33.9506452], [133.5223803, 33.9506976], [133.5224749, 33.950767], [133.5229692, 33.9509402], [133.5230968, 33.9510051], [133.5232289, 33.951119], [133.5233223, 33.9513069], [133.5233986, 33.9514083], [133.5236013, 33.9515393], [133.5236765, 33.9516179], [133.5237084, 33.9517158], [133.5237095, 33.9518115], [133.5236059, 33.9519778], [133.5235797, 33.9520393], [133.5235763, 33.9520951], [133.523574, 33.9521418], [133.5235877, 33.9521942], [133.5236116, 33.9522421], [133.5236469, 33.9522922], [133.5238109, 33.9524152], [133.5238701, 33.9524801], [133.5239225, 33.9525667], [133.5240296, 33.9528173], [133.5240467, 33.9528845], [133.5240558, 33.9529665], [133.5240604, 33.9530405], [133.5240524, 33.9531157], [133.5240167, 33.953338], [133.5240159, 33.9534357], [133.5240239, 33.9535291], [133.5240433, 33.9536271], [133.5240683, 33.9537136], [133.5243462, 33.9542661], [133.5244169, 33.9543765], [133.5245228, 33.9544984], [133.5251443, 33.9551686], [133.5252264, 33.9553037], [133.5252634, 33.9554031], [133.5252883, 33.955511], [133.5253392, 33.9559578], [133.5253406, 33.9560907], [133.5253387, 33.9561449], [133.5253257, 33.9562175], [133.5253062, 33.9562904], [133.5252039, 33.9565568], [133.5251765, 33.9566669], [133.5251695, 33.9567482], [133.5251819, 33.95687], [133.5252048, 33.9569595], [133.5252188, 33.9570145], [133.5252619, 33.9570779], [133.5253111, 33.9571332], [133.5253758, 33.9571736], [133.5254442, 33.9571939], [133.5255418, 33.9572072], [133.5256261, 33.9571985], [133.5257052, 33.957168], [133.5257825, 33.9571318], [133.5258745, 33.9570763], [133.5260009, 33.9569988], [133.5261113, 33.9569038], [133.5262458, 33.9567804], [133.5263437, 33.9566383], [133.5264089, 33.9565302], [133.5264795, 33.956392], [133.5265319, 33.9562755], [133.5266315, 33.9559444], [133.5266749, 33.9558527], [133.5267473, 33.9557581], [133.5268689, 33.9556267], [133.5269765, 33.9555263], [133.5270381, 33.9554872], [133.5271275, 33.9554565], [133.5272222, 33.9554494], [133.5273168, 33.9554649], [133.5273954, 33.9555047], [133.527462, 33.9555607], [133.5275018, 33.9556147], [133.5275148, 33.9556826], [133.5275309, 33.9557855], [133.5275694, 33.9558759], [133.5276288, 33.9559757], [133.5278028, 33.9561877], [133.5278876, 33.9563262], [133.5279421, 33.9564586], [133.5279819, 33.9566124], [133.5279875, 33.9567906], [133.5279841, 33.9569077], [133.5279773, 33.956999], [133.5279548, 33.9571328], [133.527911, 33.9573203], [133.5278361, 33.9576261], [133.5277917, 33.9578417], [133.5277915, 33.9579169], [133.5278163, 33.9579897], [133.5278686, 33.9580603], [133.5279293, 33.9581108], [133.5281279, 33.9582306], [133.5282206, 33.9583032], [133.528295, 33.9583767], [133.5283597, 33.958474], [133.5284448, 33.9586038], [133.5285422, 33.9587577], [133.5286924, 33.9590131], [133.5289635, 33.9594326], [133.5290146, 33.9594952], [133.5290793, 33.9595457], [133.5291474, 33.9595758], [133.5292267, 33.9595994], [133.5293058, 33.9596081], [133.5293916, 33.9595955], [133.5294594, 33.9595746], [133.5295161, 33.9595463], [133.529567, 33.9595044], [133.5296128, 33.9594548], [133.5297065, 33.9593423], [133.5298516, 33.9591468], [133.5299656, 33.9590222], [133.5304758, 33.9585083], [133.5305348, 33.9584408], [133.5305737, 33.9583893], [133.5305959, 33.9583323], [133.5306136, 33.9582693], [133.5306167, 33.9582054], [133.5306097, 33.9581201], [133.530537, 33.9577901], [133.5305295, 33.957742], [133.5305226, 33.9576926], [133.5305348, 33.9576488], [133.5305644, 33.9576058], [133.5306131, 33.9575675], [133.5306746, 33.9575509], [133.5307339, 33.9575497], [133.5307899, 33.9575606], [133.5308349, 33.9575897], [133.5308732, 33.9576292], [133.5308858, 33.9576743], [133.5308816, 33.9577291], [133.530823, 33.9579265], [133.5307894, 33.9580428], [133.5307881, 33.9581766], [133.5308035, 33.958339], [133.5308035, 33.9584272], [133.5307925, 33.9585058], [133.5307538, 33.958585], [133.5307088, 33.958659], [133.5302659, 33.959224], [133.5301947, 33.9593238], [133.5301296, 33.9594491], [133.5297653, 33.9602302], [133.529719, 33.9603078], [133.5296713, 33.9603641], [133.5294463, 33.9605545], [133.5294035, 33.9605931], [133.5293774, 33.9606354], [133.529372, 33.9606829], [133.5293884, 33.9607352], [133.529417, 33.9607737], [133.5294556, 33.9608014], [133.5295109, 33.9608172], [133.5295677, 33.9608155], [133.5296337, 33.9608011], [133.5296873, 33.9607645], [133.5297224, 33.9607173], [133.5297597, 33.9606295], [133.5298378, 33.9603928], [133.5298788, 33.9602994], [133.5299366, 33.9602207], [133.5300096, 33.9601576], [133.5302131, 33.9600536], [133.5303008, 33.960005], [133.5303663, 33.9599491], [133.5304186, 33.9598914], [133.5304496, 33.9598142], [133.530469, 33.9597033], [133.5304907, 33.9596173], [133.5305339, 33.9595359], [133.5306032, 33.9594501], [133.5310069, 33.9590363], [133.5313727, 33.9586546], [133.531434, 33.9586073], [133.5314909, 33.9585747], [133.5315493, 33.9585645], [133.5316134, 33.9585671], [133.5316768, 33.9585873], [133.5317255, 33.9586294], [133.5317562, 33.9586674], [133.531774, 33.9587316], [133.5317795, 33.9587857], [133.5317656, 33.9588606], [133.5317327, 33.9589462], [133.5317028, 33.9590441], [133.5316961, 33.9591201], [133.5317129, 33.9592081], [133.5317619, 33.9593657], [133.5318037, 33.9595772], [133.5318094, 33.9597446], [133.531806, 33.9598302], [133.5317758, 33.9600027], [133.5317645, 33.9600945], [133.5317677, 33.9601646], [133.531798, 33.9602244], [133.5318907, 33.9603832], [133.5319222, 33.9604695], [133.5319164, 33.9605405], [133.5319, 33.9605981], [133.5318551, 33.9606783], [133.5317162, 33.9609706], [133.5316844, 33.9610612], [133.5316685, 33.9611829], [133.5316619, 33.9613996], [133.5316442, 33.9616081], [133.5316059, 33.9618788], [133.5315936, 33.961969], [133.531608, 33.9620389], [133.5316435, 33.9621194], [133.531689, 33.9621859], [133.5317704, 33.9622564], [133.5318654, 33.9623103], [133.532107, 33.9623976], [133.535044, 33.9632302], [133.5352675, 33.9632833], [133.5355119, 33.9633332], [133.5357299, 33.9633513], [133.535892, 33.9633613], [133.5359657, 33.9633674], [133.5362049, 33.9633746], [133.536431, 33.9633598], [133.5366636, 33.963334], [133.537048, 33.963272], [133.5375013, 33.9631848], [133.537881, 33.9631195], [133.538144, 33.9630901], [133.5383561, 33.9630786], [133.5384456, 33.9630763], [133.5388071, 33.9630688], [133.5391658, 33.9631058], [133.539532, 33.9631841], [133.5399735, 33.9633522], [133.5402612, 33.9635019], [133.5405346, 33.9637249], [133.5407811, 33.9639245], [133.5409857, 33.9641514], [133.5411399, 33.9643685], [133.5412749, 33.9645896], [133.5414322, 33.9649976], [133.541566, 33.9654651], [133.5416359, 33.9656693], [133.541708, 33.9658326], [133.5417695, 33.965956], [133.5418852, 33.9661392], [133.542003, 33.966295], [133.5421626, 33.9664595], [133.5423345, 33.9666204], [133.5425714, 33.9667916], [133.5428151, 33.9669557], [133.5429564, 33.9670468], [133.5430657, 33.9670992], [133.5432798, 33.9671766], [133.5434553, 33.9672085], [133.543699, 33.9672564], [133.5438197, 33.9673019], [133.543904, 33.9673543], [133.5439473, 33.9674204], [133.5439678, 33.9674956], [133.543978, 33.9676292], [133.5439616, 33.9680493], [133.5439766, 33.9681215], [133.5440145, 33.9681995], [133.5440613, 33.9682649], [133.544147, 33.9683301], [133.5446911, 33.9685822], [133.5447745, 33.9686257], [133.5448471, 33.9686869], [133.5448915, 33.9687541], [133.5449029, 33.9688236], [133.5449041, 33.9688783], [133.5448927, 33.9689273], [133.5448608, 33.9689945], [133.5448141, 33.9690617], [133.5447191, 33.9691477], [133.5446694, 33.9691927], [133.5445772, 33.9692918], [133.5445555, 33.9693521], [133.5445419, 33.9694091], [133.5445464, 33.9694774], [133.5445642, 33.9695417], [133.544611, 33.9696148], [133.5446948, 33.9697195], [133.5447867, 33.9698328], [133.5448904, 33.9699193], [133.5450257, 33.9699832], [133.5451897, 33.9700364], [133.5452624, 33.9700557], [133.5456023, 33.970146], [133.545692, 33.9701889], [133.5457459, 33.9702379], [133.5457809, 33.9702856], [133.5458102, 33.9703484], [133.545815, 33.9703942], [133.5458117, 33.970445], [133.5458028, 33.9705202], [133.5457461, 33.9707632], [133.5457358, 33.9708563], [133.5457303, 33.9709072], [133.5457316, 33.9709613], [133.5457857, 33.9722247], [133.5457811, 33.9723477], [133.545756, 33.9724411], [133.5457105, 33.9725413], [133.5456718, 33.9726279], [133.5456034, 33.9727236], [133.5455123, 33.9728056], [133.5454648, 33.972845], [133.545428, 33.9728694], [133.5450704, 33.9730903], [133.544944, 33.9731603], [133.5436446, 33.9739251], [133.5431299, 33.9742503], [133.542822, 33.9744655], [133.542733, 33.9745469], [133.5426371, 33.9746524], [133.5425624, 33.9747579], [133.5425046, 33.9748453], [133.5422601, 33.9753021], [133.5415692, 33.9766299], [133.54124, 33.9772637], [133.5411207, 33.9774876], [133.540844, 33.9780399], [133.5407004, 33.9783553], [133.5406513, 33.978469], [133.5406013, 33.9786247], [133.5404251, 33.9790734], [133.5403692, 33.9791934], [133.5403403, 33.9792484], [133.5396734, 33.9803461], [133.5393934, 33.9808201], [133.5389645, 33.9815871]], [[133.5443839, 33.9260955], [133.5443464, 33.9260636], [133.5439266, 33.92587], [133.5438363, 33.9258167], [133.5437771, 33.9257652], [133.5437389, 33.9257021], [133.5436102, 33.9253058], [133.5436132, 33.9252393], [133.5436324, 33.925192], [133.543691, 33.925146], [133.5440559, 33.9248664], [133.5440993, 33.9248143], [133.5441217, 33.9247452], [133.5441144, 33.9246976], [133.5440432, 33.9245312], [133.5440125, 33.9244674], [133.544017, 33.9243834], [133.5440542, 33.9243364], [133.5441422, 33.9242955], [133.5442234, 33.9243037], [133.5443067, 33.9243398], [133.544425, 33.9244805], [133.544683, 33.9247832]]]}, "id": "relation/31661"}]}