{"type": "FeatureCollection", "generator": "kokudo-quiz tools/fetch_raw.py (Overpass API)", "copyright": "The data included in this document is from www.openstreetmap.org. The data is made available under ODbL.", "timestamp": "2026-09-30T16:19:51Z", "features": [{"type": "Feature", "properties": {"@id": "relation/9566443", "colour": "red", "from": "福岡県北九州市小倉北区", "name": "国道322号", "name:en": "National Highway Route 322", "name:ja": "国道322号", "name:ja-Hira": "こくどうさんびゃくにじゅうにごう", "name:ja-Latn": "Kokudou 322 Gou", "network": "JP:national", "official_name": "一般国道322号", "ref": "322", "route": "road", "to": "福岡県久留米市", "type": "route", "wikidata": "Q6157233", "wikipedia": "ja:国道322号"}, "geometry": {"type": "MultiLineString", "coordinates": [[[130.8549748, 33.743115], [130.8543513, 33.7427033], [130.8537543, 33.7422103], [130.8532734, 33.7416804], [130.8529046, 33.7411457], [130.8526941, 33.7407938], [130.8524265, 33.7401348], [130.8523783, 33.7400142], [130.8523197, 33.739868], [130.8522261, 33.7396139], [130.8521053, 33.7393017], [130.8519899, 33.7388926], [130.8519235, 33.7386035], [130.851809, 33.737923], [130.851846, 33.737652], [130.851926, 33.737419], [130.85212, 33.737104], [130.8523, 33.736898], [130.852562, 33.736642], [130.853051, 33.736202], [130.853934, 33.735486], [130.85703, 33.7332205], [130.8573352, 33.7328979], [130.8575229, 33.7326367], [130.8576784, 33.7323622], [130.8578067, 33.7320485], [130.8579303, 33.7317151], [130.8580492, 33.7315216], [130.8580173, 33.7317464], [130.8578639, 33.7325227], [130.857739, 33.7328576], [130.8576205, 33.7330977], [130.8574403, 33.7333783], [130.8572119, 33.7336588], [130.857067, 33.7338299], [130.8565751, 33.734267], [130.856251, 33.734556], [130.855839, 33.735033], [130.855314, 33.735573], [130.855196, 33.735701], [130.854517, 33.736443], [130.853904, 33.73709], [130.8531306, 33.7380767], [130.8529273, 33.7383099], [130.8526881, 33.7386083], [130.8525424, 33.7388221], [130.8524472, 33.7390558], [130.8524025, 33.7393041], [130.8523895, 33.739502], [130.8523981, 33.7397179], [130.8524526, 33.7399069], [130.8526221, 33.7403348], [130.8528316, 33.7408165], [130.8530134, 33.741129], [130.8532999, 33.7415364], [130.8533973, 33.7416677], [130.8534786, 33.7417772], [130.8536912, 33.7419976], [130.8539778, 33.742282], [130.8543136, 33.7425535], [130.8547049, 33.7428226], [130.8549351, 33.7429841], [130.8549748, 33.743115], [130.8550732, 33.7434995], [130.8552059, 33.7439445], [130.8552997, 33.7441712], [130.8554396, 33.7444171], [130.8556603, 33.7447314], [130.8558853, 33.7449629], [130.8563152, 33.7455171], [130.8566268, 33.7459225], [130.8571403, 33.7464682], [130.857915, 33.7472035], [130.8581804, 33.7474434], [130.8584632, 33.7476905], [130.8585988, 33.7478177], [130.858707, 33.7479628], [130.8588036, 33.7482003], [130.8589349, 33.7486633], [130.8589782, 33.7487964], [130.8591267, 33.7490843], [130.8592869, 33.7493698], [130.8594585, 33.749702], [130.859535, 33.7498112], [130.85961, 33.7498747], [130.859724, 33.7499503], [130.859812, 33.7499935], [130.859861, 33.7500774], [130.8598826, 33.750207], [130.859907, 33.7506668], [130.8599072, 33.7507443], [130.8599187, 33.7508595], [130.8600067, 33.7510777], [130.8601466, 33.7514232], [130.8604322, 33.7521044], [130.8605448, 33.7523503], [130.8607857, 33.7527485], [130.8613007, 33.7533674], [130.8614449, 33.7535641], [130.862071, 33.7543293], [130.8626148, 33.7550034], [130.8631125, 33.7556882], [130.8636924, 33.7564642], [130.8643026, 33.7572761], [130.864731, 33.7578398], [130.8652778, 33.7585726], [130.8657452, 33.7592046], [130.8659125, 33.7595081], [130.8659875, 33.7597623], [130.8662024, 33.7604303], [130.8662991, 33.7607985], [130.8663438, 33.7610456], [130.8664333, 33.7618023], [130.8664938, 33.7621009], [130.8666612, 33.7625914], [130.8667117, 33.7627497], [130.8669872, 33.7633949], [130.86742, 33.7642932], [130.8678008, 33.7651506], [130.8678484, 33.7652873], [130.8678974, 33.7654972], [130.8680475, 33.7662635], [130.8680821, 33.7664146], [130.8681355, 33.7665777], [130.8682263, 33.7667264], [130.8684139, 33.767001], [130.8685048, 33.7671773], [130.8685653, 33.7673464], [130.8685899, 33.7674699], [130.8686173, 33.7678033], [130.8686259, 33.7683429], [130.8685913, 33.7687422], [130.8685336, 33.7690528], [130.868424, 33.7693622], [130.8683526, 33.7695449], [130.8681102, 33.7701088], [130.868033, 33.7702951], [130.867808, 33.7708959], [130.8675931, 33.7713863], [130.8674878, 33.771631], [130.8673767, 33.7717677], [130.8672541, 33.7719092], [130.8670365, 33.7720716], [130.8667611, 33.7722379], [130.8666265, 33.7723251], [130.8664888, 33.7724455], [130.8664021, 33.7726024], [130.8663439, 33.7727753], [130.8661357, 33.7738145], [130.8659353, 33.7747859], [130.8658076, 33.7753467], [130.8657303, 33.7757161], [130.8656785, 33.7759878], [130.8654578, 33.7769806], [130.865385, 33.7778021], [130.8653442, 33.7785482], [130.8653146, 33.7790018], [130.8652799, 33.7792069], [130.8651993, 33.7794291], [130.8650912, 33.7796707], [130.8647484, 33.7804414], [130.8646747, 33.7806538], [130.8646658, 33.7806796], [130.864574, 33.7808568], [130.8644435, 33.7810281], [130.8642323, 33.7812248], [130.8639885, 33.7814266], [130.8638172, 33.7816233], [130.8637376, 33.781747], [130.8634918, 33.7824219], [130.8634267, 33.782645], [130.8633315, 33.782856], [130.863131, 33.7831749], [130.8627675, 33.78373], [130.8625987, 33.7840238], [130.8625064, 33.7842672], [130.8623564, 33.7847407], [130.8622756, 33.7852383], [130.8621847, 33.7856196], [130.8621486, 33.785839], [130.8621342, 33.7860572], [130.8621616, 33.7862838], [130.8622684, 33.7867729], [130.8623694, 33.7871998], [130.8623968, 33.7873724], [130.8624271, 33.7877369], [130.8624752, 33.7883552], [130.8624781, 33.7887041], [130.862443, 33.7895718], [130.8624213, 33.7899735], [130.8623954, 33.7901701], [130.862345, 33.790464], [130.8622653, 33.7906929], [130.8620474, 33.7910982], [130.8618239, 33.7915945], [130.8616854, 33.7920105], [130.8616435, 33.7922874], [130.8615244, 33.7945982], [130.861509, 33.794973], [130.861555, 33.7962274], [130.8615833, 33.7968148], [130.8616308, 33.7970252], [130.8616842, 33.7970948], [130.8617688, 33.7971389], [130.8618363, 33.7971759], [130.8617509, 33.7974409], [130.8616844, 33.7976323], [130.8614267, 33.7981724], [130.8611108, 33.7987546], [130.8604827, 33.7998829], [130.8599962, 33.8008631], [130.859851, 33.8011926], [130.8596504, 33.8016148], [130.8594761, 33.8020557], [130.859214, 33.8027754], [130.8589734, 33.8034774], [130.8586762, 33.8044898], [130.8582063, 33.8062213], [130.8579212, 33.8072991], [130.8575993, 33.8084503], [130.8574611, 33.8088901], [130.8573149, 33.8094073], [130.8572306, 33.8096652], [130.8571596, 33.8099728], [130.8571417, 33.8102632], [130.8571348, 33.810429], [130.8571415, 33.8106031], [130.857181, 33.8108228], [130.857312, 33.8111146], [130.8578451, 33.8121125], [130.8583005, 33.8129911], [130.8587593, 33.8138427], [130.8589451, 33.8141963], [130.8591033, 33.8144972], [130.8597845, 33.8157863], [130.8608095, 33.8176943], [130.8609657, 33.8180295], [130.8614435, 33.8189122], [130.8618354, 33.8196433], [130.8619829, 33.8198929], [130.8623993, 33.8206989], [130.8625277, 33.820936], [130.8627582, 33.8213312], [130.8631461, 33.8221534], [130.8631782, 33.8222497], [130.863255, 33.822535], [130.863322, 33.8228727], [130.8633835, 33.8234018], [130.8633969, 33.8235156], [130.8634293, 33.8236521], [130.8635094, 33.8239467], [130.8637054, 33.8245014], [130.8639509, 33.8251677], [130.8642568, 33.8258376], [130.864455, 33.8261874], [130.8645752, 33.8263899], [130.8650263, 33.8270267], [130.8653383, 33.8274254], [130.866042, 33.8282905], [130.866443, 33.8287993], [130.8668435, 33.8292691], [130.8671433, 33.8296474], [130.8674676, 33.8301495], [130.8677329, 33.8306136], [130.868044, 33.8312504], [130.8681732, 33.8314668], [130.8682592, 33.8316578], [130.8686248, 33.8323538], [130.8687232, 33.8324974], [130.8689923, 33.8328903], [130.8691804, 33.833137], [130.8694828, 33.8333983], [130.8704666, 33.8342535], [130.8716563, 33.8353073], [130.8717518, 33.8353725], [130.8721002, 33.8356835], [130.8724969, 33.8360338], [130.8728618, 33.8363749], [130.8735034, 33.8371697], [130.874392, 33.8384339], [130.8751193, 33.8394493], [130.8755116, 33.8400738], [130.8757263, 33.8404427], [130.8759376, 33.8408191], [130.8760287, 33.8410193], [130.8762539, 33.84152], [130.8764982, 33.842234], [130.8770382, 33.8443358], [130.8771188, 33.8446492], [130.8773344, 33.8454868], [130.8773581, 33.8455791], [130.8773802, 33.8456649], [130.8774122, 33.8457953], [130.8777208, 33.8470521], [130.8778509, 33.8475308], [130.8778682, 33.8476053], [130.8780467, 33.8483738], [130.8782117, 33.8492277], [130.8783138, 33.8498612], [130.8783364, 33.8500125], [130.8785698, 33.8513858], [130.8785866, 33.8514849], [130.8786091, 33.8516162], [130.8786377, 33.8517683], [130.8788762, 33.8533098], [130.8790748, 33.8543961], [130.8792677, 33.8555013], [130.8793142, 33.8558136], [130.879325, 33.8558778], [130.8794135, 33.856402], [130.8794624, 33.8567218], [130.8794886, 33.8570449], [130.8795068, 33.8572148], [130.8797247, 33.8584267], [130.8799178, 33.8595737], [130.879967, 33.8599102], [130.8800077, 33.8602555], [130.8800248, 33.8605906], [130.88004, 33.8608948], [130.8800419, 33.8610004], [130.8800212, 33.8618306], [130.8800372, 33.8623013], [130.8800623, 33.8629664], [130.8800708, 33.8631315], [130.8800723, 33.8632104], [130.8800748, 33.8633518], [130.8802039, 33.8632715], [130.8805742, 33.8629842], [130.8812305, 33.862485], [130.881953, 33.861871], [130.882019, 33.8618195], [130.8825781, 33.8613837], [130.8829019, 33.8611167], [130.8832072, 33.8608872], [130.883384, 33.8607477], [130.8833745, 33.8606177], [130.8833717, 33.8606059], [130.8832717, 33.8601831], [130.883194, 33.8598445], [130.8831174, 33.8595034], [130.8830818, 33.8593461], [130.8830121, 33.8590832], [130.8829757, 33.8589898], [130.8829006, 33.858882], [130.8826669, 33.8585852], [130.8825109, 33.858408], [130.8823123, 33.8581654], [130.8816054, 33.8573263], [130.8812213, 33.8568399], [130.8809416, 33.8564993], [130.8808857, 33.8564312], [130.8806758, 33.8561756], [130.8805636, 33.8560106], [130.8802104, 33.8554802], [130.8800636, 33.8552628], [130.8798376, 33.8549238], [130.8797929, 33.8548502], [130.8797625, 33.8547725], [130.8797515, 33.8547], [130.8797592, 33.8546186], [130.8797856, 33.8544988], [130.880057, 33.853667], [130.8801136, 33.8534794], [130.8803013, 33.8528876], [130.8805878, 33.8520043], [130.8806232, 33.8518998], [130.8810029, 33.8507274], [130.8813041, 33.8498208], [130.881411, 33.8494669], [130.8814406, 33.8493389], [130.8814667, 33.8492044], [130.8814739, 33.849072], [130.8814566, 33.8489464], [130.8814259, 33.8488184], [130.8813577, 33.8486932], [130.8807921, 33.8478537], [130.8805342, 33.8474162], [130.8803641, 33.8471489], [130.880338, 33.8471062], [130.8800512, 33.8466689], [130.8799827, 33.8465493], [130.8796899, 33.8460887], [130.8796039, 33.8459496], [130.8795732, 33.8459], [130.8795431, 33.8458305], [130.8795255, 33.8457494], [130.879526, 33.8456569], [130.8795506, 33.8455591], [130.8798813, 33.8449], [130.8800703, 33.8446866], [130.8799878, 33.8445516], [130.8793273, 33.8434914], [130.8782223, 33.8418046], [130.8779096, 33.8413026], [130.8774529, 33.8406153], [130.8770338, 33.8399147], [130.8767476, 33.8394933], [130.8765191, 33.8390997], [130.8763908, 33.8389918], [130.8762186, 33.838887], [130.8759446, 33.8386517], [130.8757711, 33.8384881], [130.8755378, 33.8382355], [130.8753166, 33.8379374], [130.8744781, 33.8367522], [130.8742985, 33.8364964], [130.8741096, 33.8362364], [130.8738903, 33.835918], [130.8735811, 33.8355275], [130.8734169, 33.8353505], [130.8732826, 33.8352539], [130.8731552, 33.835171], [130.8730153, 33.8350962], [130.8727663, 33.8349599], [130.8719854, 33.8346425], [130.8713316, 33.8344209], [130.8709925, 33.834287], [130.870772, 33.8341907], [130.8706281, 33.8341249], [130.8704666, 33.8342535], [130.8703692, 33.8343278], [130.8704666, 33.8342535], [130.8706281, 33.8341249], [130.870772, 33.8341907], [130.8709925, 33.834287], [130.8713316, 33.8344209], [130.8719854, 33.8346425], [130.8727663, 33.8349599], [130.8730153, 33.8350962], [130.8731552, 33.835171], [130.8732826, 33.8352539], [130.8734169, 33.8353505], [130.8735811, 33.8355275], [130.8738903, 33.835918], [130.8741096, 33.8362364], [130.8742985, 33.8364964], [130.8744781, 33.8367522], [130.8753166, 33.8379374], [130.8755378, 33.8382355], [130.8757711, 33.8384881], [130.8759446, 33.8386517], [130.8762186, 33.838887], [130.8763908, 33.8389918], [130.8765191, 33.8390997], [130.8767476, 33.8394933], [130.8770338, 33.8399147], [130.8774529, 33.8406153], [130.8779096, 33.8413026], [130.8782223, 33.8418046], [130.8793273, 33.8434914], [130.8799878, 33.8445516], [130.8800703, 33.8446866]], [[130.8019942, 33.6038848], [130.8021447, 33.6040036], [130.8023093, 33.6041364], [130.8024681, 33.6042486], [130.8028463, 33.6045165], [130.803018, 33.6046354], [130.8033043, 33.6048151], [130.8037391, 33.6050933], [130.8040897, 33.6052927], [130.8044301, 33.6054862], [130.8050737, 33.6057717], [130.8054472, 33.6059079], [130.8057845, 33.6060131], [130.8063275, 33.6061943], [130.8064025, 33.6062069], [130.8077659, 33.6064855], [130.8084559, 33.6066778], [130.8087805, 33.6067952], [130.8089092, 33.6068417], [130.8093342, 33.6070553], [130.8097049, 33.6072715], [130.8102041, 33.6075659], [130.810383, 33.6076969], [130.8111165, 33.6082445], [130.8117809, 33.6088756], [130.8121901, 33.6093216], [130.8125118, 33.6096767], [130.8126781, 33.6098529], [130.8129523, 33.6101352], [130.8132427, 33.6103717], [130.8135347, 33.6105991], [130.8138497, 33.6107939], [130.8141852, 33.610968], [130.8149764, 33.6113255], [130.8165243, 33.6120388], [130.8175589, 33.6125049], [130.8191033, 33.613187], [130.819533, 33.6134234], [130.8202509, 33.6138359], [130.8210894, 33.6143865], [130.8217974, 33.6149828], [130.8222422, 33.6154229], [130.823702, 33.6170326], [130.8246678, 33.6180976], [130.8252695, 33.6187293], [130.825454, 33.618923], [130.825702, 33.6191526], [130.8259681, 33.619399], [130.8266375, 33.61993], [130.8270527, 33.6202882], [130.8271364, 33.6203604], [130.8272441, 33.6204719], [130.827607, 33.6208478], [130.8284033, 33.6216815], [130.829078, 33.6224508], [130.8292505, 33.6226475], [130.829406, 33.6228155], [130.8296834, 33.6231154], [130.8302606, 33.6236855], [130.830663, 33.6240612], [130.8310425, 33.6243455], [130.8313916, 33.6245737], [130.8319052, 33.6249065], [130.8323741, 33.6251388], [130.8327184, 33.6253125], [130.833004, 33.6254553], [130.8333965, 33.6256515], [130.8349235, 33.6262263], [130.8353436, 33.6263752], [130.8358846, 33.626613], [130.8363794, 33.6268857], [130.8368944, 33.6271632], [130.8373639, 33.627428], [130.8385113, 33.6280487], [130.8390953, 33.6283254], [130.8396262, 33.6285359], [130.8407893, 33.6289652], [130.8408588, 33.6289887], [130.8421574, 33.6294596], [130.8429696, 33.6297363], [130.8441001, 33.6301415], [130.8449454, 33.630444], [130.8467836, 33.6311018], [130.846866, 33.6311372], [130.8473359, 33.6313391], [130.8478775, 33.6315852], [130.8483732, 33.6318571], [130.8496383, 33.6325978], [130.8505094, 33.6331373], [130.8513125, 33.6336388], [130.8521582, 33.6341997], [130.8534983, 33.6352433], [130.8538161, 33.6355444], [130.854466, 33.6361463], [130.8547856, 33.6364861], [130.855224, 33.6369275], [130.8556424, 33.6376365], [130.8558867, 33.6382788], [130.85599, 33.6388723], [130.8560089, 33.6393247], [130.8561258, 33.6427923], [130.8560947, 33.6434287], [130.8560248, 33.6439764], [130.8558568, 33.6446913], [130.855681, 33.6452529], [130.8554164, 33.6458185], [130.8550211, 33.6464686], [130.8543019, 33.6476299], [130.8540558, 33.6480665], [130.8538828, 33.6484896], [130.8537619, 33.6488793], [130.8536889, 33.649287], [130.8536852, 33.6493076], [130.8536678, 33.6495932], [130.8536824, 33.6500387], [130.8537549, 33.6504894], [130.8539306, 33.6511286], [130.8548639, 33.6546881], [130.854989, 33.6551079], [130.8552803, 33.656239], [130.8554768, 33.6570234], [130.8555345, 33.6573562], [130.8555515, 33.6577038], [130.8555522, 33.6579351], [130.8555185, 33.6582083], [130.8554106, 33.6586146], [130.8551923, 33.6591574], [130.8544908, 33.6607403], [130.8543649, 33.6610061], [130.8540758, 33.6616495], [130.854058, 33.661689], [130.8535097, 33.6629047], [130.8534005, 33.6632213], [130.8532608, 33.663658], [130.8531703, 33.6639097], [130.8530069, 33.6647243], [130.8529286, 33.6653217], [130.8529106, 33.6655931], [130.8528762, 33.6661098], [130.8528399, 33.6666542], [130.852826, 33.6671106], [130.8528863, 33.6675362], [130.8529855, 33.6679235], [130.8531169, 33.6682213], [130.8532704, 33.6685271], [130.8534597, 33.6688019], [130.8536463, 33.6690031], [130.8538955, 33.6692592], [130.8543565, 33.6696328], [130.8548027, 33.6699305], [130.8555184, 33.6704422], [130.8561144, 33.6709086], [130.8565359, 33.6713532], [130.8569585, 33.6719051], [130.8570702, 33.6720725], [130.8571909, 33.6722653], [130.859067, 33.6760311], [130.8592246, 33.6765253], [130.8592947, 33.6768262], [130.859355, 33.6771271], [130.8593685, 33.6772125], [130.8593825, 33.6774162], [130.8594105, 33.6778159], [130.8593925, 33.6784071], [130.8592882, 33.6789911], [130.8592825, 33.6790297], [130.8592253, 33.6794173], [130.859203, 33.6797002], [130.8591987, 33.6799177], [130.8592083, 33.6801528], [130.8592276, 33.6803882], [130.8592556, 33.6806393], [130.8593004, 33.6808527], [130.8593683, 33.6811308], [130.8596746, 33.6820867], [130.8606613, 33.6850523], [130.8608298, 33.6857098], [130.8609486, 33.6864232], [130.8609873, 33.6869887], [130.8609975, 33.6877084], [130.8609333, 33.6883145], [130.8608149, 33.6891235], [130.860768, 33.6897942], [130.8607726, 33.6904132], [130.8608122, 33.6910102], [130.8608986, 33.6916189], [130.8610492, 33.6923443], [130.8612421, 33.6929969], [130.8612813, 33.6931293], [130.8616718, 33.6940717], [130.8622305, 33.6953405], [130.8625138, 33.6959005], [130.8628328, 33.6963832], [130.8632285, 33.6968394], [130.8637036, 33.697284], [130.8641862, 33.6976401], [130.8645457, 33.6978772], [130.8656172, 33.6984995], [130.8659187, 33.6986885], [130.8662044, 33.6989012], [130.8663933, 33.6990936], [130.8665273, 33.6992506], [130.8666427, 33.699428], [130.8667564, 33.6996362], [130.86687, 33.6998714], [130.8669144, 33.6999911], [130.8669654, 33.7001458], [130.8669977, 33.7002785], [130.8670204, 33.700385], [130.8670887, 33.7008562], [130.8671367, 33.7013072], [130.8672818, 33.7028127], [130.8672837, 33.7034062], [130.8672548, 33.7039433], [130.867132, 33.7045461], [130.8668912, 33.7052739], [130.8666291, 33.7057813], [130.8663362, 33.7062426], [130.8660255, 33.7066293], [130.8656901, 33.706993], [130.8653481, 33.7073047], [130.8647679, 33.7077627], [130.8639353, 33.7083021], [130.8630467, 33.7088416], [130.8593298, 33.7111409], [130.8588882, 33.7114207], [130.8583624, 33.7117503], [130.8578008, 33.7121791], [130.8575297, 33.7124993], [130.8573765, 33.7127194], [130.8572037, 33.713036], [130.8570938, 33.7133133], [130.8570331, 33.7135577], [130.8570019, 33.7138014], [130.8569699, 33.7140792], [130.8569447, 33.7144449], [130.856951, 33.714707], [130.8569906, 33.7150062], [130.857041, 33.715213], [130.857106, 33.715465], [130.857261, 33.715914], [130.85778, 33.717579], [130.8578749, 33.7178863], [130.8580817, 33.718437], [130.858223, 33.718935], [130.8585621, 33.7199367], [130.858742, 33.720468], [130.859163, 33.721489], [130.859642, 33.722479], [130.859915, 33.722986], [130.8601065, 33.7233634], [130.8602509, 33.7237402], [130.8603077, 33.7240168], [130.8603275, 33.7242316], [130.8603749, 33.7247126], [130.8603172, 33.7252237], [130.8601989, 33.7255453], [130.8598441, 33.726625], [130.8590709, 33.7287678], [130.8580492, 33.7315216], [130.8579473, 33.7314938], [130.857817, 33.731457], [130.8577177, 33.7313929], [130.8576528, 33.7313209], [130.8576207, 33.7311871], [130.8575827, 33.7309842], [130.8575114, 33.7306398], [130.857293, 33.7298979], [130.8571429, 33.7292981], [130.8570939, 33.7288806], [130.8570997, 33.728547], [130.8571659, 33.7281858], [130.8573005, 33.7278159], [130.8575474, 33.7273969], [130.8578366, 33.7270128], [130.8579664, 33.7267789], [130.8580645, 33.7265341], [130.8581496, 33.7261274], [130.858164, 33.7256317], [130.858089, 33.725147], [130.8579404, 33.7245219], [130.8578339, 33.7240429], [130.857732, 33.7235777], [130.8576517, 33.7232578], [130.8575269, 33.7229291], [130.8573978, 33.7226818], [130.8569257, 33.7218211], [130.8567667, 33.7215028], [130.8565409, 33.7207669], [130.8564943, 33.7205944], [130.8558043, 33.7184345], [130.8556272, 33.7178759], [130.855552, 33.717476], [130.8555395, 33.7172922], [130.8555599, 33.7170215], [130.8556897, 33.7156953], [130.8557604, 33.7149934], [130.8558685, 33.7141342], [130.855882, 33.714027], [130.8558958, 33.7138234], [130.8559095, 33.7136197], [130.8559136, 33.7133219], [130.855884, 33.7130139], [130.8557859, 33.7126334], [130.8556055, 33.711876], [130.8554412, 33.7111082], [130.8553917, 33.7105655], [130.8554122, 33.7092274], [130.8554071, 33.7090475], [130.8554223, 33.7084443], [130.8554415, 33.707951], [130.8554357, 33.7076067], [130.8555301, 33.7069], [130.8556927, 33.7060628], [130.8558052, 33.70547], [130.856129, 33.703949], [130.8562292, 33.7036665], [130.8564024, 33.7032023], [130.856739, 33.702466], [130.8570212, 33.7018405], [130.8575145, 33.7007565], [130.8579471, 33.6997503], [130.8581076, 33.6993346], [130.8583229, 33.6987172], [130.8583202, 33.6986176], [130.8582667, 33.6983072], [130.8582432, 33.6982416], [130.8581875, 33.6981296], [130.8581171, 33.6979842], [130.857667, 33.696942], [130.8568145, 33.6947505], [130.8563876, 33.6937099], [130.8554794, 33.6913609], [130.854634, 33.6893432], [130.8545979, 33.6892484], [130.854181, 33.688539], [130.8533819, 33.6874516], [130.8532521, 33.6871611], [130.853132, 33.686693], [130.8530833, 33.6863317], [130.8530155, 33.6857988], [130.8529232, 33.6853943], [130.8527457, 33.6850486], [130.852213, 33.6843961], [130.8510547, 33.6829713], [130.8509958, 33.6828867], [130.850875, 33.682713], [130.8506793, 33.6824535], [130.8506139, 33.6823667], [130.8501163, 33.6817068], [130.8500204, 33.6815506], [130.8498769, 33.6811262], [130.8498015, 33.6806968], [130.8498219, 33.6803691], [130.8498831, 33.6799464], [130.8499641, 33.6794938], [130.8499936, 33.6793716], [130.850141, 33.6785123], [130.8503372, 33.6773335], [130.850499, 33.6763263], [130.8504765, 33.6759635], [130.8503888, 33.6755986], [130.8501179, 33.6751568], [130.8497121, 33.6746366], [130.8492669, 33.6741223], [130.8492548, 33.6741084], [130.8490269, 33.6737435], [130.8489245, 33.6734529], [130.8488817, 33.6732809], [130.8488336, 33.673088], [130.8488163, 33.6729732], [130.8487597, 33.6725967], [130.8486994, 33.6721956], [130.8485925, 33.6716461], [130.8485074, 33.67131], [130.848323, 33.670924], [130.8481708, 33.6706841], [130.8478808, 33.6702915], [130.8475896, 33.6700028], [130.8472384, 33.6696547], [130.8465571, 33.6691606], [130.8458841, 33.6687425], [130.8457745, 33.6686319], [130.8457423, 33.6685626], [130.8457277, 33.6681601], [130.845726, 33.6680916], [130.8457233, 33.6679865], [130.8457105, 33.6674847], [130.845687, 33.6666595], [130.8456461, 33.6663672], [130.8456405, 33.6663271], [130.8455297, 33.6660398], [130.845515, 33.6660017], [130.8452902, 33.6656394], [130.844889, 33.6649888], [130.8447137, 33.6647109], [130.8445515, 33.6645446], [130.84196, 33.6624754], [130.8416515, 33.6622195], [130.8414281, 33.6620056], [130.8412116, 33.6617522], [130.8407618, 33.661277], [130.8404501, 33.6609371], [130.8399109, 33.6603231], [130.8397505, 33.6601535], [130.8395938, 33.6599605], [130.839413, 33.6597742], [130.8392418, 33.659598], [130.8388982, 33.6592723], [130.8387321, 33.6591149], [130.8385677, 33.6589606], [130.8378666, 33.6583027], [130.8365815, 33.6570911], [130.836522, 33.657035], [130.8363783, 33.656909], [130.8361675, 33.656773], [130.8359451, 33.6566541], [130.8357159, 33.6565462], [130.8355552, 33.6564856], [130.8350451, 33.6562847], [130.8347318, 33.6561536], [130.8344958, 33.6560548], [130.8344433, 33.6560337], [130.8337061, 33.655736], [130.8321422, 33.6551044], [130.832051, 33.6550676], [130.8312733, 33.6547429], [130.8311691, 33.654694], [130.8303033, 33.6543554], [130.8300318, 33.6542632], [130.8296571, 33.6542113], [130.8295431, 33.6542041], [130.82922, 33.6542041], [130.8286387, 33.6542413], [130.8281735, 33.6542725], [130.8278889, 33.6542748], [130.8275466, 33.6542604], [130.8271894, 33.6541753], [130.8269676, 33.6540731], [130.8268351, 33.6539937], [130.8265021, 33.6537394], [130.8261533, 33.653466], [130.8259078, 33.6532736], [130.8255094, 33.653015], [130.8254773, 33.6530017], [130.8251851, 33.6528809], [130.8249281, 33.6527638], [130.824671, 33.6526466], [130.8246398, 33.6526324], [130.8239155, 33.6523464], [130.82366, 33.6522479], [130.8233781, 33.6521392], [130.8223111, 33.6518263], [130.8220638, 33.6517573], [130.8220037, 33.651734], [130.8217985, 33.6516543], [130.8215229, 33.6515071], [130.8212524, 33.6513383], [130.8208762, 33.6509694], [130.8208028, 33.6508527], [130.820585, 33.6506848], [130.8205596, 33.6506652], [130.820192, 33.6503632], [130.8196915, 33.650134], [130.819012, 33.6498349], [130.818504, 33.6496053], [130.8184228, 33.6495686], [130.8178148, 33.6492969], [130.8171806, 33.6490274], [130.8167254, 33.648834], [130.8162347, 33.6486185], [130.8160235, 33.6485258], [130.8153289, 33.6482267], [130.8152562, 33.6481753], [130.8152094, 33.6481539], [130.8147259, 33.6478261], [130.8145281, 33.6476788], [130.8143761, 33.6475321], [130.8143079, 33.6474627], [130.81386, 33.6470315], [130.8138147, 33.6469787], [130.8131757, 33.6463406], [130.8125063, 33.6456817], [130.8122232, 33.6454094], [130.8121418, 33.6453311], [130.8121073, 33.645305], [130.8120222, 33.6452151], [130.8117904, 33.6449702], [130.8116913, 33.6448756], [130.8116249, 33.6448123], [130.8113844, 33.6445829], [130.8111626, 33.6442724], [130.8111416, 33.6442261], [130.8111155, 33.6441688], [130.8110838, 33.6440464], [130.8110067, 33.6437489], [130.8109903, 33.643688], [130.8108864, 33.6429584], [130.8108812, 33.6429218], [130.810857, 33.642752], [130.8108199, 33.6426271], [130.810806, 33.6425804], [130.8107208, 33.6424132], [130.8107091, 33.6423902], [130.8104741, 33.6421167], [130.8104141, 33.6420508], [130.8091847, 33.6405655], [130.8086284, 33.6398738], [130.808521, 33.6397298], [130.8081157, 33.6392395], [130.8073252, 33.6382985], [130.8070995, 33.63811], [130.807006, 33.6380467], [130.8064309, 33.637657], [130.8060976, 33.637428], [130.8060055, 33.6373638], [130.8058127, 33.6372557], [130.8053936, 33.6371293], [130.8045561, 33.6369608], [130.80441, 33.6369314], [130.8041489, 33.6368641], [130.804072, 33.6368211], [130.8039997, 33.6367807], [130.8038243, 33.6366539], [130.8036944, 33.6365158], [130.8036181, 33.636395], [130.803579, 33.6363332], [130.8033209, 33.6359191], [130.8032656, 33.6358304], [130.8027739, 33.6349659], [130.8027292, 33.6348872], [130.8026168, 33.6347268], [130.8025818, 33.6346767], [130.8024806, 33.6345873], [130.8024605, 33.6345696], [130.8023438, 33.6344665], [130.8020596, 33.6343128], [130.8018634, 33.6342491], [130.8015864, 33.6341843], [130.8012412, 33.6341148], [130.8010262, 33.6340784], [130.8003038, 33.63395], [130.7998374, 33.633846], [130.7997926, 33.633836], [130.7992047, 33.6336646], [130.7985251, 33.633469], [130.7981427, 33.6333666], [130.7980136, 33.6333548], [130.7981153, 33.6331887], [130.7983232, 33.6328549], [130.7986356, 33.6323345], [130.7986538, 33.6323041], [130.798713, 33.6321239], [130.7987863, 33.6317763], [130.7988333, 33.6315532], [130.798896, 33.6311813], [130.7989251, 33.6307446], [130.7988721, 33.6304303], [130.7988098, 33.6302657], [130.7987469, 33.6301024], [130.7986102, 33.6297229], [130.7985916, 33.6296711], [130.7985454, 33.6293516], [130.7985454, 33.6290681], [130.798543, 33.6290414], [130.7985128, 33.6287087], [130.7984061, 33.6281777], [130.7982835, 33.6274577], [130.7982728, 33.6273948], [130.7982069, 33.6268868], [130.7981782, 33.6264673], [130.7981624, 33.6263402], [130.7981444, 33.6261947], [130.7980823, 33.6258272], [130.7980247, 33.6256664], [130.7979554, 33.6254668], [130.7979071, 33.6253749], [130.797839, 33.6252454], [130.7978126, 33.6251953], [130.7976321, 33.624802], [130.7975526, 33.6245618], [130.7974808, 33.6243448], [130.7974274, 33.6240469], [130.7973994, 33.6236772], [130.7974238, 33.6231828], [130.7974384, 33.6231054], [130.797481, 33.6228787], [130.7976238, 33.6223674], [130.7977008, 33.6221319], [130.7978304, 33.6217355], [130.7978593, 33.6216471], [130.7980088, 33.6211203], [130.798017, 33.6210914], [130.7983397, 33.6201418], [130.7986838, 33.6190402], [130.798828, 33.6186257], [130.7989101, 33.6183342], [130.7990073, 33.6180721], [130.7990141, 33.618055], [130.7991901, 33.6174772], [130.7993276, 33.617091], [130.7993172, 33.6170175], [130.7992903, 33.6164312], [130.7992495, 33.6162441], [130.7992285, 33.6161478], [130.7992025, 33.6160286], [130.7988647, 33.6153404], [130.7988471, 33.6153072], [130.7986492, 33.614933], [130.7984398, 33.6145353], [130.7984259, 33.6145128], [130.7982827, 33.6142213], [130.7982664, 33.6141875], [130.7980865, 33.613813], [130.7978237, 33.6133027], [130.7972202, 33.6121521], [130.7972127, 33.6121377], [130.7971362, 33.6119902], [130.7971218, 33.6119669], [130.7969986, 33.6117621], [130.7969787, 33.6117186], [130.7969464, 33.6116479], [130.7968062, 33.6113351], [130.7967973, 33.6113176], [130.7967828, 33.6112859], [130.796491, 33.6106495], [130.7961507, 33.6093988], [130.7958508, 33.6081941], [130.795661, 33.6074737], [130.7954988, 33.6068025], [130.7952953, 33.6060386], [130.7952459, 33.6058244], [130.7952096, 33.6056673], [130.7950351, 33.6050666], [130.7950005, 33.6048791], [130.7950062, 33.6047626], [130.7950899, 33.6045041], [130.795105, 33.6044523], [130.7951185, 33.6044061], [130.795484, 33.6035001], [130.7954935, 33.6034725], [130.7956297, 33.6030747], [130.795638, 33.6030189], [130.7956438, 33.6029795], [130.7956629, 33.6028512], [130.7956631, 33.6026369], [130.7956269, 33.6023934], [130.795536, 33.6021135], [130.7953658, 33.6016375], [130.7952907, 33.6014274], [130.7951089, 33.6010032], [130.7948319, 33.6002606], [130.7943583, 33.5990989], [130.7940094, 33.5982042], [130.7938802, 33.5977853], [130.793857, 33.5977101], [130.7937978, 33.5973039], [130.7936849, 33.5956735], [130.7936734, 33.5951591], [130.7937787, 33.594376], [130.7938754, 33.5935901], [130.7939331, 33.5933173], [130.7943106, 33.5922451], [130.7944161, 33.5921539], [130.7946844, 33.5929603], [130.794921, 33.5935691], [130.7950829, 33.5938897], [130.7953068, 33.5943778], [130.795521, 33.594784], [130.7956781, 33.5951098], [130.7959046, 33.5954786], [130.7961984, 33.5959102], [130.7965146, 33.5962875], [130.7969002, 33.5967192], [130.797121, 33.596912], [130.7977392, 33.5973919], [130.7980932, 33.5976387], [130.7986936, 33.5980294], [130.7990275, 33.5982779], [130.799383, 33.598606], [130.7996219, 33.5989403], [130.7997933, 33.5993379], [130.7999381, 33.5997254], [130.8000357, 33.600098], [130.8000565, 33.6001774], [130.8003479, 33.6015799], [130.8003853, 33.601727], [130.8004561, 33.6020053], [130.800687, 33.6024463], [130.8008586, 33.6027323], [130.8010187, 33.602957], [130.8014709, 33.6034384], [130.8019365, 33.6038346], [130.8019942, 33.6038848]], [[130.8519235, 33.7386035], [130.8519899, 33.7388926], [130.8521053, 33.7393017], [130.8522261, 33.7396139], [130.8523197, 33.739868], [130.8523783, 33.7400142], [130.8524265, 33.7401348], [130.8526941, 33.7407938]], [[130.7944161, 33.5921539], [130.7942652, 33.5917612], [130.7940693, 33.5912768], [130.7938959, 33.5909488], [130.7926575, 33.5888873], [130.7922651, 33.588254], [130.792079, 33.5880617], [130.7917443, 33.5878213], [130.791454, 33.587614], [130.7912423, 33.5874019], [130.7911413, 33.5872228], [130.790971, 33.5869031], [130.7906623, 33.5863491], [130.7901444, 33.5854309], [130.7899037, 33.5849965], [130.789664, 33.5846257], [130.7895962, 33.5845079], [130.7892021, 33.5838999], [130.7890941, 33.5837319], [130.7889037, 33.5834851], [130.7887859, 33.5833748], [130.7883108, 33.582984], [130.7875868, 33.5823797], [130.7867761, 33.5817271], [130.7862336, 33.5813445], [130.7854661, 33.5807924], [130.784871, 33.5803611], [130.784521, 33.5801175], [130.7842575, 33.5799499], [130.7842309, 33.5799288], [130.7841166, 33.5798564], [130.7837994, 33.5796728], [130.7832738, 33.5793919], [130.7829512, 33.5792407], [130.782795, 33.5791443], [130.7826912, 33.5790637], [130.7818977, 33.5783198], [130.7815654, 33.5780009], [130.7812296, 33.5777429], [130.780561, 33.5772572], [130.780149, 33.5769582], [130.7799107, 33.5767888], [130.7797219, 33.5766067], [130.7791538, 33.5760026], [130.7788816, 33.5757421], [130.7785688, 33.5754629], [130.7781936, 33.5751376], [130.7779684, 33.5749143], [130.7776528, 33.5746003], [130.7770702, 33.5740109], [130.7763874, 33.5733287], [130.7757245, 33.5726482], [130.7753827, 33.5722816], [130.775107, 33.5719932], [130.7749274, 33.5718356], [130.7748337, 33.5719049], [130.7747171, 33.5719439], [130.7745906, 33.5719489], [130.7744814, 33.5719367], [130.7743935, 33.5719091], [130.7743123, 33.5718649], [130.7742036, 33.5718102], [130.7741015, 33.571771], [130.7739844, 33.5717338], [130.7738597, 33.5716983], [130.7736525, 33.5716606], [130.7730907, 33.5716201], [130.7727402, 33.571582], [130.7721625, 33.5714684], [130.772018, 33.5714396], [130.7718386, 33.5713873], [130.77167, 33.5713151], [130.7708981, 33.5708183], [130.7700189, 33.5702523], [130.7699019, 33.5701899], [130.7689951, 33.5697064], [130.7688549, 33.5696003], [130.7687479, 33.5694791], [130.7686714, 33.569354], [130.7686497, 33.5693184], [130.7684215, 33.5689566], [130.768295, 33.5688085], [130.7677256, 33.5682632], [130.7672364, 33.5678239], [130.7665879, 33.5672447], [130.765186, 33.565909], [130.7645752, 33.5653049], [130.764204, 33.5649416], [130.7640079, 33.564756], [130.7640711, 33.5646436], [130.7641299, 33.5643653], [130.7642632, 33.5636765], [130.7640145, 33.5635587], [130.7638819, 33.5634976], [130.7636337, 33.5633802], [130.7629515, 33.5630515], [130.7623878, 33.5627787], [130.7623579, 33.5627622], [130.7618867, 33.5625417], [130.7607948, 33.5620106], [130.7594038, 33.5613341], [130.7590554, 33.5611675], [130.7588987, 33.5610926], [130.7582482, 33.5607814], [130.757932, 33.5605953], [130.7578564, 33.5605353], [130.7577879, 33.5604653], [130.7577143, 33.5603593], [130.7576261, 33.5602099], [130.7573238, 33.5597186], [130.756751, 33.5588658], [130.7565687, 33.5586761], [130.7563537, 33.5584907], [130.756146, 33.5583544], [130.7559729, 33.5582609], [130.7558535, 33.5582141], [130.7557264, 33.5581762], [130.7555886, 33.558156], [130.755444, 33.5581545], [130.7553264, 33.5581549], [130.7552123, 33.5581619], [130.7549258, 33.5581947], [130.754729, 33.5582303], [130.7545232, 33.5582785], [130.7543742, 33.5583143], [130.7541119, 33.558391], [130.7539, 33.5584758], [130.7538059, 33.5585134], [130.7534814, 33.5586562], [130.7533886, 33.5586846], [130.7533146, 33.5587013], [130.7532169, 33.5587165], [130.7531242, 33.5587241], [130.7530506, 33.5587249], [130.7529879, 33.558721], [130.7528662, 33.558695], [130.7527453, 33.558659], [130.7526079, 33.5586342], [130.7522712, 33.5586189], [130.7520735, 33.5585895], [130.751991, 33.5585619], [130.7519113, 33.5585332], [130.7518616, 33.5585032], [130.751804, 33.558455], [130.7517464, 33.5583913], [130.7516528, 33.5582715], [130.7515834, 33.5581694], [130.7515124, 33.5580799], [130.7514741, 33.5580454], [130.7514238, 33.5580085], [130.7513528, 33.5579745], [130.7512958, 33.5579504], [130.7511724, 33.5579208], [130.7509491, 33.5578738], [130.7508975, 33.5578593], [130.7508582, 33.5578377], [130.7508297, 33.5578073], [130.7508168, 33.5577739], [130.7508089, 33.5577369], [130.7508122, 33.5577053], [130.7508337, 33.557671], [130.7508698, 33.5576421], [130.7509176, 33.5576285], [130.7509773, 33.5576307], [130.7510456, 33.5576598], [130.7511221, 33.5577057], [130.7513957, 33.5578458], [130.75156, 33.5579001], [130.7517613, 33.5579415], [130.7520314, 33.5579962], [130.7521319, 33.5580012], [130.7522065, 33.5579867], [130.7522654, 33.5579565], [130.7523029, 33.5579056], [130.752321, 33.5578459], [130.7523205, 33.5577001], [130.7522909, 33.5575922], [130.7522608, 33.5574306], [130.7522459, 33.557357], [130.7522473, 33.5572882], [130.7522682, 33.5572332], [130.7522996, 33.557177], [130.7523701, 33.5570939], [130.7526562, 33.5568424], [130.7527174, 33.556772], [130.7527301, 33.5567311], [130.7527278, 33.5566959], [130.7526997, 33.5566565], [130.7526327, 33.5566208], [130.7525473, 33.5566092], [130.7524124, 33.5566194], [130.7516909, 33.5567176], [130.7515566, 33.5567227], [130.7514715, 33.5567153], [130.7513715, 33.5566881], [130.7512975, 33.5566566], [130.7512294, 33.5566043], [130.751173, 33.5565388], [130.7509142, 33.5561586], [130.7504286, 33.5554534], [130.7503685, 33.5553527], [130.7503428, 33.5552856], [130.7503349, 33.555186], [130.7503627, 33.5550374], [130.7504207, 33.5548172], [130.7504248, 33.5546356], [130.7504073, 33.554549], [130.7503744, 33.5544632], [130.7501663, 33.5539635], [130.7498975, 33.5533258], [130.7498185, 33.553145], [130.7497877, 33.5530396], [130.7497676, 33.5529189], [130.7497521, 33.552825], [130.7497273, 33.5527161], [130.7494547, 33.5521435], [130.7493898, 33.5519656], [130.7493422, 33.5518105], [130.7493523, 33.5516578], [130.7494367, 33.5512588], [130.7494411, 33.5511241], [130.7494021, 33.5510195], [130.7492824, 33.5508597], [130.748917, 33.550566], [130.7486388, 33.5503449], [130.7485097, 33.5503029], [130.7483387, 33.5502668], [130.7478541, 33.550283], [130.7474441, 33.5503136], [130.7471326, 33.5503322], [130.7470208, 33.5503533], [130.7469162, 33.5503995], [130.7468636, 33.5504446], [130.7468329, 33.5505134], [130.7466512, 33.5512431], [130.7465592, 33.5519188], [130.7465413, 33.552035], [130.7465223, 33.5521086], [130.7464785, 33.5521628], [130.7464386, 33.5521992], [130.746377, 33.5522376], [130.7463139, 33.5522448], [130.7462123, 33.5522418], [130.7461023, 33.5522143], [130.7447582, 33.5517403], [130.7435524, 33.5512229], [130.7434755, 33.5512144], [130.7433718, 33.5512166], [130.7432913, 33.5512364], [130.7432036, 33.5512773], [130.7431485, 33.5513123], [130.743109, 33.5513473], [130.7430728, 33.5513888], [130.7430359, 33.5514413], [130.7430171, 33.5514956], [130.7430154, 33.5515324], [130.7430144, 33.5515816], [130.7430218, 33.5516124], [130.7430479, 33.5516633], [130.7430768, 33.5517135], [130.743287, 33.5519247], [130.7433283, 33.5519644], [130.7433676, 33.552026], [130.7433772, 33.5520779], [130.7433804, 33.5521368], [130.7433712, 33.5521902], [130.7433526, 33.5522307], [130.7433168, 33.5522835], [130.7432726, 33.5523143], [130.7432264, 33.5523402], [130.7431654, 33.5523657], [130.7430947, 33.5523778], [130.743033, 33.5523821], [130.7429621, 33.5523727], [130.7429078, 33.5523545], [130.7428347, 33.5523052], [130.7420596, 33.5516403], [130.741961, 33.551576], [130.7418763, 33.551543], [130.7418121, 33.5515202], [130.7417321, 33.5515153], [130.7416203, 33.5515153], [130.7412027, 33.5516409], [130.740894, 33.5517293], [130.7408176, 33.5517431], [130.7406913, 33.5517427], [130.7405689, 33.5517342], [130.7404577, 33.5517156], [130.7403513, 33.5516871], [130.740234, 33.5516323], [130.7398561, 33.5514352], [130.7397042, 33.551368], [130.7394686, 33.5512866], [130.7393699, 33.5512315], [130.7392888, 33.5511762], [130.7391505, 33.5510571], [130.7389633, 33.5508684], [130.7386599, 33.5505388], [130.7384051, 33.5503036], [130.738322, 33.5502159], [130.7382971, 33.5501927], [130.7377448, 33.5496407], [130.7377227, 33.549614], [130.737418, 33.5492753], [130.7371201, 33.5489356], [130.7368635, 33.54865], [130.7365865, 33.5483588], [130.7360189, 33.547763], [130.7358464, 33.5475967], [130.7354732, 33.5472587], [130.7354089, 33.5472005], [130.7351655, 33.5469896], [130.7350042, 33.5468484], [130.7347575, 33.5466471], [130.7345517, 33.546479], [130.7342761, 33.5462541], [130.7341248, 33.5461234], [130.7340312, 33.5460235], [130.7339575, 33.5459093], [130.7339155, 33.5457972], [130.7338735, 33.5456231], [130.7338354, 33.5455299], [130.7338031, 33.5454829], [130.7337613, 33.5454306], [130.7336884, 33.5453633], [130.733604, 33.5453107], [130.7334731, 33.5452532], [130.7330344, 33.545076], [130.7329354, 33.5450229], [130.7328717, 33.5449749], [130.7327827, 33.5448876], [130.7327127, 33.5448117], [130.7326594, 33.5447425], [130.7325988, 33.5446452], [130.7325562, 33.544547], [130.7322828, 33.5438195], [130.7321818, 33.543675], [130.7320683, 33.543596], [130.7319534, 33.543539], [130.7318531, 33.543505], [130.7317592, 33.5434871], [130.7312718, 33.5434109], [130.7309723, 33.5433386], [130.7307702, 33.5432725], [130.7305974, 33.5431995], [130.7296584, 33.5427493], [130.7293955, 33.5426265], [130.7292757, 33.5425762], [130.7291832, 33.5425374], [130.7288842, 33.5424455], [130.7286458, 33.5423923], [130.7282018, 33.5423234], [130.7277632, 33.5422487], [130.7275329, 33.5422084], [130.7274928, 33.5422014], [130.7273, 33.542152], [130.7271169, 33.5420938], [130.7266997, 33.5419355], [130.7265614, 33.5418823], [130.7261588, 33.5417272], [130.7256825, 33.5415257], [130.7251707, 33.5413039], [130.7251344, 33.5412907], [130.7246635, 33.5410853], [130.7243231, 33.5408972], [130.724081, 33.540735], [130.7237703, 33.540501], [130.7235131, 33.5402884], [130.7233538, 33.5401383], [130.7232117, 33.5399879], [130.7231607, 33.5399271], [130.7229343, 33.5396585], [130.7224353, 33.5389134], [130.7219165, 33.5381244], [130.7216511, 33.5376705], [130.7210324, 33.5366222], [130.7208836, 33.5364024], [130.7203868, 33.5358323], [130.7201517, 33.535566], [130.7201169, 33.5355257], [130.7199013, 33.5352803], [130.7196317, 33.5349768], [130.7191686, 33.5344471], [130.7190156, 33.5343026], [130.7186128, 33.5340008], [130.7183925, 33.533863], [130.7181844, 33.5337414], [130.7178886, 33.5336284], [130.717374, 33.5334196], [130.7169452, 33.5332602], [130.7168287, 33.5332266], [130.7167299, 33.5332058], [130.7166108, 33.5331874], [130.7164849, 33.533174], [130.7163148, 33.5331744], [130.7159516, 33.5332073], [130.7155057, 33.5332402], [130.715326, 33.5332428], [130.7152153, 33.5332347], [130.7150779, 33.533216], [130.7149277, 33.5331829], [130.7146361, 33.5330887], [130.713944, 33.5328561], [130.7135951, 33.5327441], [130.713235, 33.5326095], [130.7130382, 33.5325272], [130.7129607, 33.5324848], [130.7127676, 33.532373], [130.7125691, 33.5322456], [130.7123786, 33.5320868], [130.7122231, 33.5319459], [130.7120943, 33.5318208], [130.7119441, 33.5316329], [130.7117859, 33.5313715], [130.7117101, 33.5312389], [130.7115453, 33.5309508], [130.711456, 33.5307587], [130.7112422, 33.5303283], [130.7100004, 33.5278279], [130.709553, 33.5269283], [130.708923, 33.5256614], [130.7078618, 33.5235472], [130.7070947, 33.5220653], [130.7061666, 33.5203077], [130.705932, 33.5198439], [130.7058146, 33.5195688], [130.7057157, 33.5192942], [130.7056576, 33.519098], [130.7055725, 33.5187906], [130.7055366, 33.5186278], [130.7055042, 33.5184733], [130.7054897, 33.5183338], [130.705495, 33.5182083], [130.7055071, 33.5180867], [130.705536, 33.5179555], [130.7055755, 33.5178411], [130.7057944, 33.5173178], [130.7059434, 33.516977], [130.7061367, 33.5165354], [130.7061927, 33.5163984], [130.7062521, 33.5162194], [130.7062903, 33.5160405], [130.7062973, 33.5158637], [130.7062816, 33.5156926], [130.7062294, 33.5153772], [130.7060507, 33.5145992], [130.7059866, 33.5144473], [130.7058732, 33.514274], [130.705637, 33.5140056], [130.7055594, 33.5139177], [130.7055071, 33.5138478], [130.7054266, 33.5136904], [130.705383, 33.5135527], [130.7053584, 33.5134063], [130.7053264, 33.5131579], [130.7052976, 33.5129322]], [[130.7044045, 33.4918361], [130.7044314, 33.4913635], [130.7044652, 33.4909837], [130.7045373, 33.4901367], [130.7045676, 33.4899466], [130.7046282, 33.4898805], [130.7047724, 33.4898528], [130.705299, 33.4898311], [130.7054245, 33.4898516], [130.7055615, 33.490002], [130.7058327, 33.4903701], [130.7059741, 33.4904844], [130.7060679, 33.490476], [130.70614, 33.4904315], [130.7061631, 33.4903364], [130.7061775, 33.4896759], [130.7062121, 33.4895231], [130.706479, 33.4891887], [130.7065555, 33.4890335], [130.7065627, 33.4888891], [130.7064949, 33.4886786], [130.7064343, 33.4884861], [130.7062655, 33.4882743], [130.7062107, 33.4881047], [130.7062482, 33.4879844], [130.7063405, 33.4879266], [130.7064891, 33.4879062], [130.7065988, 33.487935], [130.7067026, 33.4880144], [130.7067632, 33.4881251], [130.70687, 33.4882094], [130.7069681, 33.4882094], [130.7070719, 33.4881179], [130.7071354, 33.4879567], [130.7070878, 33.4876788], [130.7071051, 33.4875537], [130.7071931, 33.487461], [130.7073518, 33.4873924], [130.7077081, 33.4873948], [130.7079779, 33.4874093], [130.7081683, 33.4873816], [130.708301, 33.4872517], [130.7083356, 33.487082], [130.708262, 33.4869858], [130.7081149, 33.486928], [130.7075234, 33.486999], [130.7068483, 33.487076], [130.7065584, 33.4871013], [130.7062035, 33.4870989], [130.7056842, 33.4870291], [130.7054233, 33.4869416], [130.7053224, 33.4868512], [130.7052846, 33.4867397], [130.7053073, 33.4866219], [130.7054107, 33.4865567], [130.7055918, 33.4864853], [130.7057808, 33.4863975], [130.7058847, 33.4862892], [130.7058775, 33.4861857], [130.7058327, 33.4861159], [130.7057231, 33.4860654], [130.7055861, 33.4860943], [130.7053538, 33.4861448], [130.7049643, 33.4862134], [130.7047999, 33.4862037], [130.7047147, 33.4861267], [130.7046542, 33.4860016], [130.7046859, 33.485903], [130.7047147, 33.4857995], [130.7046614, 33.4857213], [130.704533, 33.485702], [130.7043599, 33.4857538], [130.7041709, 33.4857814], [130.7039848, 33.4857249], [130.7038276, 33.4855757], [130.7037583, 33.4854217], [130.7037468, 33.4852954], [130.7037944, 33.4852051], [130.7038458, 33.485012], [130.7039468, 33.4849123], [130.7040324, 33.4848249], [130.7039141, 33.4846312], [130.7035549, 33.4843148], [130.7034222, 33.4842029], [130.7032924, 33.4841752], [130.7031697, 33.4841825], [130.7030356, 33.4841945], [130.7028221, 33.4842017], [130.702724, 33.4841776], [130.7026432, 33.4840778], [130.7026187, 33.4837337], [130.7026504, 33.483647], [130.7027586, 33.4835628], [130.7030154, 33.4835195], [130.7031625, 33.4834798], [130.7032174, 33.4834184], [130.7032246, 33.483345], [130.7030774, 33.4830623], [130.7030096, 33.4829396], [130.7030038, 33.4828156], [130.7030385, 33.4826484], [130.7030875, 33.4825389], [130.7031856, 33.4824848], [130.7032996, 33.4824475], [130.7034813, 33.4824667], [130.7037208, 33.4824992], [130.7038319, 33.4824812], [130.7039213, 33.4824234], [130.7041276, 33.4822297], [130.704419, 33.4818639], [130.7045258, 33.4817219], [130.7046354, 33.4816919], [130.7048071, 33.4816895], [130.7050191, 33.4816979], [130.7051172, 33.4816594], [130.7051562, 33.481574], [130.7051966, 33.4813249], [130.7052629, 33.4812347], [130.7053726, 33.4811961], [130.7055211, 33.4812322], [130.7057072, 33.4813285], [130.705889, 33.4813899], [130.7061833, 33.4813923], [130.7063593, 33.4813514], [130.7065021, 33.4812563], [130.7065252, 33.4811588], [130.7065007, 33.481006], [130.7062655, 33.4805657], [130.7061862, 33.4803864], [130.7061544, 33.4802444], [130.7061342, 33.4800844], [130.7061119, 33.4794355], [130.7061472, 33.4792651], [130.7062136, 33.4791423], [130.7063362, 33.4791182], [130.7064423, 33.4791073], [130.706606, 33.4791386], [130.7067719, 33.4791579], [130.7069075, 33.4791158], [130.7071397, 33.4790087], [130.707271, 33.478993], [130.7074542, 33.4790135], [130.7076922, 33.4790725], [130.7078303, 33.4791134], [130.7079793, 33.4791236], [130.7081098, 33.479013], [130.708169, 33.478819], [130.7082139, 33.4786982], [130.7082751, 33.4785791], [130.7083852, 33.4784974], [130.7086219, 33.4783953], [130.7088339, 33.4783143], [130.7089461, 33.4783449], [130.7089789, 33.4784413], [130.7089891, 33.4785655], [130.7090177, 33.4787255], [130.7089544, 33.4788769], [130.7088626, 33.4790113], [130.7088137, 33.4791458], [130.7088116, 33.4792751], [130.7088586, 33.4793687], [130.7089463, 33.479418], [130.7090197, 33.4794027], [130.7091482, 33.4793278], [130.7091952, 33.4791373], [130.7091625, 33.478962], [130.7091605, 33.4787884], [130.7091523, 33.4785876], [130.7091482, 33.4784498], [130.7091034, 33.4782082], [130.7090503, 33.4781588], [130.7089381, 33.4781078], [130.7087933, 33.4781061], [130.7082152, 33.4783362], [130.7076425, 33.4786154], [130.7074507, 33.4786427], [130.7069325, 33.4785661], [130.7066224, 33.4784606], [130.7064221, 33.4784151], [130.7062229, 33.4784278], [130.705219, 33.4785456], [130.7050904, 33.4785856], [130.7049491, 33.478655], [130.7048987, 33.4787307], [130.7049151, 33.4790072], [130.704913, 33.4792829], [130.704862, 33.4794071], [130.7047437, 33.4795075], [130.704605, 33.4795806], [130.7044479, 33.4795857], [130.7042826, 33.479516], [130.7039419, 33.4792301], [130.7038065, 33.4791894], [130.7035971, 33.4791894], [130.7033853, 33.4792377], [130.7032617, 33.4793135], [130.7031305, 33.479486], [130.7030347, 33.4797321], [130.7029035, 33.479831], [130.7027774, 33.4798857], [130.7023284, 33.4799236], [130.7021922, 33.4799783], [130.7021115, 33.4800793], [130.7020888, 33.4803275], [130.7019803, 33.4806683], [130.7018946, 33.4808387], [130.7017609, 33.4809187], [130.7015314, 33.4809481], [130.7013018, 33.4808998], [130.7010597, 33.4807378], [130.7009765, 33.4805821], [130.7009815, 33.4804369], [130.7011707, 33.4799573], [130.701549, 33.4794586], [130.7016171, 33.479303], [130.7016146, 33.4791641], [130.7015566, 33.4790232], [130.7013851, 33.4788948], [130.7007822, 33.4786802], [130.7005073, 33.4785561], [130.7003888, 33.4784004], [130.7002525, 33.4781416], [130.7001441, 33.4780364], [130.6999625, 33.4779817], [130.6997683, 33.4779523], [130.6996018, 33.4778892], [130.6995438, 33.4777945], [130.6995614, 33.477683], [130.6995967, 33.4775147], [130.6995917, 33.4773737], [130.6995463, 33.4772685], [130.6994177, 33.4771633], [130.6993092, 33.4771065], [130.6990771, 33.4770603], [130.6989662, 33.4770161], [130.6988653, 33.476873], [130.6989114, 33.4766663], [130.6989104, 33.4765395], [130.6988237, 33.4764272], [130.6986666, 33.4763029], [130.6984157, 33.4762476], [130.698159, 33.4762629], [130.6979925, 33.4763365], [130.6978078, 33.4763438], [130.6977085, 33.476313], [130.6975307, 33.4761429], [130.6974301, 33.4759915], [130.6973086, 33.4751611], [130.6972404, 33.474697], [130.6972157, 33.4744952], [130.6972224, 33.4744196], [130.6972526, 33.4743486], [130.6972969, 33.4743056], [130.6973796, 33.4742515], [130.6974712, 33.4742256], [130.6975562, 33.4742221], [130.6976181, 33.4742323], [130.6976865, 33.4742604], [130.6977434, 33.4743123], [130.6977784, 33.4743704], [130.6978031, 33.4744404], [130.6978025, 33.4745444], [130.6978034, 33.4749542], [130.6977781, 33.4752277], [130.6977529, 33.4755349], [130.6978299, 33.4756272], [130.6979355, 33.4756906], [130.6980559, 33.4757348], [130.6987372, 33.4758504], [130.698984, 33.4759127], [130.6991988, 33.4759901], [130.6995809, 33.4761301], [130.6999347, 33.4762569], [130.7004667, 33.4766654], [130.7006768, 33.4767314], [130.7023003, 33.476834], [130.7026111, 33.4767649], [130.7027444, 33.476672], [130.702813, 33.47658], [130.7028225, 33.4765646], [130.702875, 33.476479], [130.702886, 33.476419], [130.702898, 33.476101], [130.7029003, 33.4759633], [130.702918, 33.47569], [130.702941, 33.475426], [130.7030027, 33.4750047], [130.7030202, 33.4749375], [130.7030341, 33.4748781], [130.703128, 33.474478], [130.703138, 33.474321], [130.703099, 33.474232], [130.703041, 33.474167], [130.702966, 33.474128], [130.702791, 33.474104], [130.7025617, 33.4741558], [130.7019343, 33.4744443], [130.7016792, 33.4746811], [130.7015332, 33.4748167], [130.7013891, 33.4749156], [130.7011591, 33.4749394], [130.701008, 33.474898], [130.700859, 33.474802], [130.700806, 33.474684], [130.7007803, 33.4745339], [130.7007916, 33.4743185], [130.7007995, 33.4741681], [130.7008459, 33.4736208], [130.7008399, 33.4734048], [130.7007879, 33.4731988], [130.7007139, 33.4730918], [130.6999633, 33.472412], [130.699727, 33.472198], [130.6991146, 33.4716925], [130.6988771, 33.4714476], [130.698396, 33.471058], [130.6981273, 33.4708722], [130.6975271, 33.4705603], [130.6966452, 33.4701602], [130.6963623, 33.4700874], [130.6961748, 33.470074], [130.6959609, 33.4700779], [130.695901, 33.470079], [130.6949049, 33.4701641], [130.694599, 33.470153], [130.6937283, 33.4699923], [130.6934178, 33.469937], [130.6917951, 33.4696292], [130.6914844, 33.4693976], [130.691039, 33.4692728], [130.6907339, 33.4691816], [130.6907064, 33.4691734], [130.690533, 33.4691216], [130.6900811, 33.4689865], [130.690004, 33.4689635], [130.6896162, 33.4688679], [130.6889333, 33.4686996], [130.6887903, 33.4686643], [130.6886197, 33.4686222], [130.6879864, 33.4684399], [130.6879615, 33.4684331], [130.6874948, 33.4683054], [130.687465, 33.4682973], [130.6868942, 33.4681283], [130.6868408, 33.4681243], [130.6865986, 33.4681059], [130.6862085, 33.4681318], [130.685698, 33.4681718], [130.6856315, 33.4681716], [130.6855833, 33.4681336], [130.6854802, 33.4680161], [130.6851895, 33.4676555], [130.6851329, 33.4676215], [130.6849535, 33.4675137], [130.6846048, 33.4673179], [130.684509, 33.4672677], [130.684169, 33.4670893], [130.6839733, 33.4669216], [130.6836807, 33.466612], [130.6836643, 33.4665949], [130.6835376, 33.466463], [130.6830687, 33.4659113], [130.6827521, 33.4655819], [130.6823543, 33.4652003], [130.6819444, 33.4648072], [130.6820887, 33.4643023], [130.6820904, 33.464259], [130.6821012, 33.4639917], [130.6820755, 33.4638296], [130.6819277, 33.4635067], [130.6817295, 33.4632636], [130.6812324, 33.4627672], [130.6811426, 33.4626918], [130.6808849, 33.4624296], [130.6807863, 33.4623374], [130.6806431, 33.4622035], [130.6804351, 33.4619354], [130.6802594, 33.4616631], [130.6793408, 33.4600752], [130.6790168, 33.4594951], [130.678691, 33.4589947], [130.6785391, 33.4588142], [130.6784369, 33.4586928], [130.677884, 33.4581516], [130.6771414, 33.4574214], [130.6763472, 33.4566661], [130.6757577, 33.4560286], [130.6745722, 33.4548875], [130.6740574, 33.4542454], [130.6732291, 33.453187], [130.6729429, 33.4528589], [130.672785, 33.4526331], [130.6723384, 33.4511115], [130.6723096, 33.4509625], [130.6720639, 33.4501849], [130.6719129, 33.4499364], [130.671539, 33.4495034], [130.6712385, 33.44902], [130.6707021, 33.4478562], [130.6705787, 33.4475312], [130.6704685, 33.4470494], [130.6702828, 33.4463194], [130.67024, 33.4461739], [130.6700863, 33.4455481], [130.6700754, 33.4454948], [130.6700207, 33.4452758], [130.6699055, 33.4449535], [130.6698086, 33.4448243], [130.6696426, 33.4446513], [130.669037, 33.4442574], [130.6680761, 33.4436718], [130.667513, 33.4433807], [130.6671743, 33.4432581], [130.6662575, 33.4427976], [130.6655852, 33.4423185], [130.6651755, 33.4420043], [130.6649412, 33.4417541], [130.6647413, 33.4414542], [130.66397, 33.4399742], [130.6638905, 33.439844], [130.6636763, 33.4394133], [130.6631775, 33.4386183], [130.6630727, 33.4384191], [130.6629245, 33.4380182], [130.6628337, 33.4378437], [130.6626654, 33.4375934], [130.6624012, 33.4373227], [130.6619136, 33.4368571], [130.6614158, 33.43636], [130.6611384, 33.4360842], [130.660915, 33.4358569], [130.6609053, 33.435844], [130.6607997, 33.4357028], [130.6605728, 33.4353682], [130.6604617, 33.4352358], [130.6602896, 33.4350625], [130.6600766, 33.4348481], [130.6597211, 33.4345298], [130.6583138, 33.4327111], [130.6576844, 33.4319783], [130.6574778, 33.4317379], [130.6573051, 33.4315368], [130.6561981, 33.4302481], [130.6558525, 33.4298132], [130.6556912, 33.429502], [130.6555352, 33.4291029], [130.6554616, 33.4288814], [130.6553824, 33.4286432], [130.6552978, 33.4283691], [130.6552087, 33.4280802], [130.6551553, 33.4279071], [130.6548733, 33.4270816], [130.6545832, 33.4262023], [130.654553, 33.4261109], [130.6545302, 33.4259872], [130.6545067, 33.4258601], [130.654487, 33.4253372], [130.6544998, 33.4250189], [130.6544972, 33.4247104], [130.6544969, 33.4246957], [130.6544913, 33.4244717], [130.6545238, 33.4242672], [130.6545952, 33.4240881], [130.6547041, 33.4238149], [130.6547198, 33.4235839], [130.6547085, 33.4234524], [130.6547031, 33.4233889], [130.6546983, 33.4233397], [130.6546847, 33.4231994], [130.6546602, 33.422946], [130.654632, 33.422562], [130.6545596, 33.4217189], [130.6545107, 33.4209052], [130.6545045, 33.4208016], [130.6544955, 33.4206936], [130.6544668, 33.420348], [130.6544485, 33.4200812], [130.654396, 33.4194032], [130.6543666, 33.4190362], [130.6543597, 33.4189494], [130.654465, 33.418934], [130.65461, 33.4189127], [130.6548193, 33.4188793], [130.6548655, 33.4188719], [130.6550155, 33.4188479], [130.655108, 33.4188331], [130.6554807, 33.4187735], [130.6555969, 33.4187549], [130.6555546, 33.4186856], [130.6555214, 33.4186313], [130.6549489, 33.417829], [130.6546987, 33.4174785], [130.6545942, 33.4173292], [130.6536672, 33.4160449], [130.6531052, 33.4152402], [130.6526763, 33.4145511], [130.6525837, 33.4144023], [130.6525251, 33.4143103], [130.6520576, 33.4135751], [130.651947, 33.4134012], [130.6519074, 33.4133346], [130.6518649, 33.4132689], [130.6516788, 33.4129812], [130.651367, 33.4125786], [130.6506991, 33.4117163], [130.6503151, 33.4112467], [130.6502873, 33.4112028], [130.6501869, 33.4110444], [130.6501077, 33.4109292], [130.6498855, 33.410606], [130.6494851, 33.4099715], [130.6493614, 33.4097755], [130.6489978, 33.4091992], [130.6485879, 33.4085615], [130.6484295, 33.408315], [130.6478718, 33.4074303], [130.647581, 33.4070456], [130.647319, 33.4067071], [130.6472105, 33.4065774], [130.6471672, 33.4065257], [130.6464818, 33.4059011], [130.6454425, 33.4051181], [130.6442939, 33.4042169], [130.643575, 33.4036353], [130.6429563, 33.4031049], [130.6426526, 33.4028653], [130.6421158, 33.402432], [130.6416218, 33.4019709], [130.6414589, 33.4017431], [130.6413777, 33.4016378], [130.6412153, 33.4012887], [130.6411218, 33.401041], [130.6410518, 33.4007944], [130.6410161, 33.4005556], [130.6410201, 33.4002807], [130.6410445, 33.3998123], [130.6410649, 33.3992829], [130.6410732, 33.3990857], [130.6410812, 33.3988935], [130.6410559, 33.3987538], [130.6410527, 33.3987364], [130.6409998, 33.3984717], [130.6409214, 33.398218], [130.6408453, 33.3980202], [130.6407721, 33.3978471], [130.6406746, 33.3976571], [130.6405079, 33.3973788], [130.6398742, 33.3964665], [130.6396745, 33.3961229], [130.6394996, 33.3957767], [130.6393817, 33.395495], [130.6392882, 33.3951522], [130.6392354, 33.3948637], [130.6392199, 33.3946549], [130.6392069, 33.3943613], [130.639229, 33.3938192], [130.6392558, 33.3917234], [130.6392354, 33.3915372], [130.639211, 33.3913879], [130.6391785, 33.3912623], [130.6391256, 33.3911095], [130.6390687, 33.3909873], [130.6390037, 33.3908753], [130.6389345, 33.3907667], [130.6388573, 33.3906717], [130.6387638, 33.3905698], [130.638654, 33.3904612], [130.6385361, 33.3903662], [130.6383898, 33.3902711], [130.6382637, 33.390193], [130.6380767, 33.3901014], [130.6379344, 33.3900437], [130.6377718, 33.3899928], [130.6375848, 33.3899486], [130.6373449, 33.3899079], [130.6371579, 33.3898875], [130.6369059, 33.3898774], [130.6361944, 33.3898672], [130.6360485, 33.3898658], [130.6351474, 33.3898575], [130.6341414, 33.3898298], [130.6328851, 33.3898298], [130.6325822, 33.3898251], [130.6323138, 33.389821], [130.6311481, 33.3898029], [130.6308798, 33.3897961], [130.6299057, 33.3898228], [130.6294092, 33.3898638], [130.6287152, 33.389924], [130.6280212, 33.3899626], [130.6275491, 33.3899592], [130.6271163, 33.3899751], [130.6253863, 33.3899751], [130.6238455, 33.3899686], [130.6237246, 33.3899681], [130.6219153, 33.3899783], [130.6209272, 33.3899528], [130.6205696, 33.3899075], [130.6200866, 33.389734], [130.6196541, 33.3894776], [130.6194987, 33.3893807], [130.6192366, 33.3891181], [130.6189352, 33.3886975], [130.6188228, 33.3883802], [130.6187531, 33.3879593], [130.6187456, 33.3870026], [130.6187588, 33.3855381], [130.6187535, 33.3851689], [130.6187777, 33.3836314], [130.618737, 33.382498], [130.6186855, 33.3822617], [130.6186455, 33.3821324], [130.6185834, 33.3819864], [130.6185075, 33.381825], [130.6184669, 33.3817589], [130.6184093, 33.3816769], [130.6183296, 33.3815771], [130.6182557, 33.3814801], [130.6181315, 33.3813442], [130.6180003, 33.381229], [130.6176217, 33.3809142], [130.6159515, 33.379648], [130.6150852, 33.3791308], [130.613719, 33.3783644], [130.6136802, 33.3783426], [130.613437, 33.3782148], [130.6110201, 33.3768324], [130.6106693, 33.3766664], [130.6091967, 33.3761696], [130.6082691, 33.3758513], [130.6063628, 33.3752394], [130.6060267, 33.3750854], [130.6059395, 33.3750329], [130.6058168, 33.3749601], [130.6057235, 33.3748928], [130.6055189, 33.3747255], [130.6052079, 33.3744503], [130.6049818, 33.3743629], [130.6047564, 33.374266], [130.6046708, 33.3742259], [130.603944, 33.374004], [130.6036242, 33.3739302], [130.603268, 33.3738712], [130.6032137, 33.3738617], [130.6031479, 33.3738561], [130.6030705, 33.3738489], [130.6029218, 33.3738391], [130.6023425, 33.3737994], [130.601942, 33.373768], [130.601345, 33.3737152], [130.6011619, 33.3737012], [130.6006341, 33.3736463], [130.6004302, 33.3736118], [130.5995713, 33.3733393], [130.5990665, 33.3731735], [130.598441, 33.3729783], [130.5982859, 33.3729392], [130.5980037, 33.3729065], [130.5974885, 33.3729017], [130.5968161, 33.3729645], [130.5961549, 33.3730349], [130.596054, 33.37304], [130.5960081, 33.3730287], [130.5948266, 33.3736651], [130.593965, 33.3726486], [130.5928741, 33.3713363], [130.5926281, 33.3710706], [130.5925097, 33.3709521], [130.5923749, 33.3708288], [130.5921879, 33.3706753], [130.5919798, 33.3705346], [130.591783, 33.3704213], [130.5915478, 33.3703067], [130.5913156, 33.3702129], [130.5911996, 33.3701741], [130.5908564, 33.3700663], [130.5900975, 33.3698164], [130.5896969, 33.3696932], [130.5883298, 33.3692689], [130.5878918, 33.3690936], [130.5874976, 33.3689046], [130.5869793, 33.3686532], [130.586419, 33.3683831], [130.585966, 33.3682076], [130.5857787, 33.368157], [130.5855897, 33.3681311], [130.585226, 33.3681134], [130.5847094, 33.3680882], [130.5834721, 33.3680504], [130.5824927, 33.3679996], [130.5820901, 33.3679414], [130.5817907, 33.3678509], [130.5814513, 33.3676925], [130.5811287, 33.3674673], [130.5805136, 33.3669915], [130.5792421, 33.3659682], [130.5789414, 33.3657447], [130.5786458, 33.3655739], [130.5782042, 33.3653804], [130.5776338, 33.3652172], [130.5771426, 33.3650836], [130.5771127, 33.3650737], [130.5758276, 33.364698], [130.5749432, 33.3644471], [130.5748361, 33.3644089], [130.5746481, 33.3643485], [130.5743266, 33.3642451], [130.5742796, 33.36423], [130.5740353, 33.3641029], [130.5737853, 33.3639276], [130.5736725, 33.3638246], [130.5735961, 33.3637462], [130.573517, 33.3636518], [130.5733254, 33.3633713], [130.573212, 33.3631348], [130.5731493, 33.3630042], [130.5727468, 33.3621581], [130.5721883, 33.360989], [130.5710749, 33.3586395], [130.5709908, 33.358438], [130.5709072, 33.3581782], [130.5708272, 33.3578352], [130.5707518, 33.3574821], [130.5707084, 33.3572378], [130.5706656, 33.3570276], [130.570655, 33.356919], [130.5706449, 33.3567966], [130.5706523, 33.3566883], [130.5706716, 33.3565756], [130.570719, 33.3564454], [130.5707529, 33.3563668], [130.5708086, 33.3562792], [130.5709369, 33.3560602], [130.5709948, 33.3559541], [130.571138, 33.3556919], [130.5712522, 33.3554323], [130.5712934, 33.3551403], [130.5712865, 33.3548597], [130.5712568, 33.3546574], [130.5711471, 33.3542146], [130.5710809, 33.3538196], [130.5709963, 33.3534512], [130.5709095, 33.353037], [130.5708089, 33.3526629], [130.5707335, 33.3523671], [130.570665, 33.352159], [130.5706079, 33.352014], [130.5704639, 33.351762], [130.5704268, 33.3517143], [130.57032, 33.3515769], [130.5701623, 33.3514051], [130.5699087, 33.3511818], [130.5696767, 33.3510176], [130.5694085, 33.3508742], [130.5691188, 33.3507666], [130.568754, 33.3506949], [130.5685073, 33.3506501], [130.5681961, 33.3506322], [130.5675095, 33.3506322], [130.5668217, 33.3506302], [130.566664, 33.350634], [130.5659579, 33.3506378], [130.5654388, 33.3506501], [130.5646771, 33.3506501], [130.5640655, 33.350668], [130.5637895, 33.3506455], [130.5627841, 33.3506182], [130.560555, 33.3505188], [130.5602602, 33.3504978], [130.5595199, 33.3504711], [130.5589235, 33.3504329], [130.5585351, 33.3503833], [130.5582152, 33.3502955], [130.5580071, 33.3502314], [130.557797, 33.3501371], [130.5574931, 33.3499462], [130.5572966, 33.3497954], [130.5570727, 33.3495835], [130.5568785, 33.3493698], [130.5567596, 33.3491598], [130.556594, 33.3488372], [130.5565124, 33.3484992], [130.5564911, 33.3483944], [130.5564802, 33.3482034], [130.556491, 33.3479077], [130.5565446, 33.3472534], [130.5565643, 33.3468082], [130.5565848, 33.3465028], [130.5566054, 33.346205], [130.5566519, 33.3455954], [130.5566877, 33.3449223], [130.5567151, 33.344615], [130.5567377, 33.3443137], [130.5567421, 33.3439917], [130.5567722, 33.3435976], [130.5568128, 33.343283], [130.5568128, 33.3429693], [130.5568156, 33.3428818], [130.5567859, 33.3427749], [130.5566304, 33.3423061], [130.5564481, 33.3419565], [130.5562192, 33.3416028], [130.555961, 33.3413012], [130.5557805, 33.341118], [130.5556893, 33.3410176], [130.5556241, 33.3409495], [130.5554035, 33.3406808], [130.5552767, 33.3404894], [130.5551773, 33.3402704], [130.5550788, 33.3399643], [130.5549997, 33.3395186], [130.5549682, 33.3392071], [130.554946, 33.338927], [130.5548924, 33.3384788], [130.5548555, 33.3377727], [130.5548365, 33.3370569], [130.5548177, 33.3365347], [130.5548173, 33.3359243], [130.554828, 33.3355478], [130.5548483, 33.335174], [130.5548665, 33.3349539], [130.5549078, 33.3345867], [130.5549366, 33.3341744], [130.5549306, 33.3340325], [130.5549253, 33.3339061], [130.5548894, 33.333713], [130.5548623, 33.3335694], [130.5547954, 33.3332328], [130.5546769, 33.3327642], [130.5546117, 33.3324706], [130.5545994, 33.3323658], [130.5545491, 33.3318278], [130.5545242, 33.3313336], [130.5545191, 33.3311397], [130.5545108, 33.3310386], [130.5543216, 33.3277979], [130.554316, 33.3277346], [130.5542871, 33.3272861], [130.5542692, 33.3271958], [130.5541861, 33.3269085], [130.5540393, 33.326626], [130.5538781, 33.3263768], [130.5536576, 33.3261096], [130.5534372, 33.3259273], [130.5532479, 33.3256558], [130.5526807, 33.3250531], [130.5525493, 33.3249674], [130.5522993, 33.3247156], [130.5520674, 33.3243734], [130.551944, 33.3241271], [130.5519054, 33.3240389], [130.5517338, 33.3236689], [130.5517061, 33.3235609], [130.5516642, 33.3234358], [130.5516279, 33.3232718], [130.5516186, 33.3232127], [130.5516098, 33.3229603], [130.5516307, 33.3226698], [130.5517602, 33.3219085], [130.5517785, 33.3218037], [130.5518058, 33.3216474], [130.5518279, 33.3215522], [130.5518577, 33.3213651], [130.55208, 33.3199667], [130.5521708, 33.3192553], [130.5522234, 33.3189737], [130.5523646, 33.3178821], [130.5525079, 33.3170046], [130.5525835, 33.3165429], [130.5526647, 33.3158604], [130.552745, 33.3153129], [130.5528332, 33.3147837], [130.5529015, 33.3143929], [130.5529115, 33.3143356], [130.5530188, 33.3140726], [130.5531588, 33.3131742], [130.5531947, 33.3129651], [130.5532137, 33.3128365], [130.5529314, 33.3128099], [130.5525903, 33.3127719], [130.5521251, 33.3126962], [130.5517856, 33.3126205], [130.5513203, 33.3125064], [130.5504088, 33.3122411], [130.5496396, 33.3120071], [130.5486426, 33.3116712], [130.5483475, 33.3115697], [130.5480469, 33.3114729], [130.5477705, 33.3113813], [130.5475417, 33.3113071], [130.5471337, 33.3111823], [130.5467529, 33.311033], [130.5462121, 33.310866], [130.5456858, 33.3106869], [130.5454142, 33.3105982], [130.5451524, 33.3105156], [130.5446884, 33.310407], [130.5442826, 33.3103277], [130.5442461, 33.3103224], [130.5438921, 33.3102715], [130.5442461, 33.3103224], [130.5442826, 33.3103277], [130.5446884, 33.310407], [130.5451524, 33.3105156], [130.5454142, 33.3105982], [130.5456858, 33.3106869], [130.5462121, 33.310866], [130.5467529, 33.311033], [130.5471337, 33.3111823], [130.5475417, 33.3113071], [130.5477705, 33.3113813], [130.5480469, 33.3114729], [130.5483475, 33.3115697], [130.5486426, 33.3116712], [130.5496396, 33.3120071], [130.5504088, 33.3122411], [130.5513203, 33.3125064], [130.5517856, 33.3126205], [130.5521251, 33.3126962], [130.5525903, 33.3127719], [130.5529314, 33.3128099], [130.5532137, 33.3128365]], [[130.6275491, 33.3899592], [130.6279785, 33.3902418], [130.6301152, 33.391757], [130.6311287, 33.3924659], [130.6311795, 33.3924968], [130.6312554, 33.3925503], [130.6313396, 33.3926128], [130.631715, 33.3928821], [130.632512, 33.3934507], [130.6336894, 33.3942791], [130.634074, 33.394534], [130.6345485, 33.3948734], [130.6348397, 33.3950669], [130.6349785, 33.3951796], [130.634986, 33.395184], [130.6350069, 33.3952439], [130.6350917, 33.3953361], [130.635134, 33.395382], [130.635785, 33.396763], [130.636177, 33.3975933], [130.636266, 33.397784], [130.6364586, 33.3981831], [130.6368567, 33.3990079], [130.6369397, 33.399101], [130.6370887, 33.3992032], [130.6371773, 33.3992235], [130.6372892, 33.3992304], [130.6381869, 33.3991694], [130.6382822, 33.3991653], [130.6387126, 33.3991405], [130.6388926, 33.3991379], [130.6389565, 33.3991655], [130.6390054, 33.3992184], [130.6393295, 33.3997228], [130.6396665, 33.4002594], [130.6398566, 33.4005256], [130.6400725, 33.4007931], [130.6402871, 33.4009676], [130.6404432, 33.4010921], [130.6412957, 33.4017828], [130.6413219, 33.4017922], [130.6413606, 33.4017939], [130.6414028, 33.4017813], [130.6414589, 33.4017431]], [[130.5534372, 33.3259273], [130.5531569, 33.3257186], [130.5529442, 33.3255181], [130.5524677, 33.3250598], [130.5521887, 33.3247639], [130.5519527, 33.3244322], [130.5518558, 33.3243069], [130.5516168, 33.3237074], [130.5515794, 33.3236129], [130.5515429, 33.3234964], [130.5515435, 33.3234489], [130.5515008, 33.3232729], [130.5514918, 33.3232059], [130.5515103, 33.3227441], [130.5516081, 33.3220292], [130.5516239, 33.3219133], [130.5516457, 33.3217856], [130.5516744, 33.3216181], [130.5516923, 33.3215281], [130.5517183, 33.3213843], [130.5517234, 33.3213524], [130.5519473, 33.3199594], [130.5520407, 33.3192325], [130.5523207, 33.3174424], [130.552395, 33.3170128], [130.5525013, 33.3163025], [130.5525458, 33.3159273], [130.5526588, 33.3153034], [130.552749, 33.3147702], [130.552806, 33.3143821], [130.5528142, 33.3143261], [130.552766, 33.3140686], [130.5528336, 33.3135566], [130.5529125, 33.3129264], [130.5529314, 33.3128099]], [[130.5438921, 33.3102715], [130.5436675, 33.3102634], [130.5429341, 33.310236], [130.542107, 33.3102202], [130.5419467, 33.3102299], [130.5417783, 33.3102418], [130.5413972, 33.3102959], [130.5411446, 33.3103345], [130.5404259, 33.3104693], [130.5397459, 33.3105918], [130.539611, 33.3106107], [130.5393986, 33.3106533], [130.53911, 33.310707], [130.5387986, 33.3107624], [130.5379106, 33.3109272], [130.5369496, 33.3111057], [130.5364929, 33.3111898], [130.5361754, 33.3112483], [130.5361101, 33.3112613], [130.5357838, 33.3113244], [130.5354669, 33.3114164], [130.5354075, 33.3114402], [130.5346446, 33.3117155], [130.5340316, 33.3119535], [130.5339372, 33.3119901], [130.5338674, 33.3120102], [130.5332269, 33.3122293], [130.5332061, 33.3122372], [130.5331209, 33.3122694], [130.5330507, 33.312296], [130.5327059, 33.3124319], [130.5323865, 33.3125533], [130.5320761, 33.3126782], [130.5318992, 33.3127539], [130.5318424, 33.3127827], [130.5316629, 33.3128777], [130.5314028, 33.3130143], [130.5311874, 33.3131436], [130.5311657, 33.3131552], [130.5311094, 33.3131852], [130.5309179, 33.3132958], [130.53069, 33.3134265], [130.5304045, 33.3135884], [130.5303494, 33.3136196], [130.5300462, 33.3137997], [130.5299409, 33.3138595], [130.5298761, 33.3138962], [130.5294199, 33.3141551], [130.5291944, 33.3142726], [130.5290159, 33.3143537], [130.5290041, 33.3143574], [130.5287536, 33.3144359], [130.5285343, 33.3144785], [130.5285016, 33.3144848], [130.5281955, 33.3145556], [130.5279199, 33.3146046], [130.5276816, 33.3146481], [130.527468, 33.3146657], [130.5272565, 33.3146761], [130.5271376, 33.3146806], [130.5270841, 33.3146773], [130.5269624, 33.3146648], [130.5267781, 33.3146516], [130.5265521, 33.3146255], [130.5264561, 33.3146101], [130.5261394, 33.3145568], [130.5259508, 33.314519], [130.5256688, 33.3144196], [130.5254866, 33.3143632], [130.524498, 33.3140569], [130.5241619, 33.3139526], [130.5231041, 33.3136404], [130.5226918, 33.3135001], [130.5224014, 33.3134013]], [[130.6819444, 33.4648072], [130.6819134, 33.4648701], [130.681853, 33.4650446], [130.6816579, 33.4655173], [130.6815364, 33.4659038], [130.6815495, 33.4663066], [130.6818925, 33.4677032], [130.6819192, 33.4681173], [130.6818926, 33.4682813], [130.6818302, 33.4686663], [130.6817964, 33.4692047], [130.6818593, 33.4694461], [130.682375, 33.4701491], [130.6827525, 33.4705558], [130.6828525, 33.4706586], [130.6829713, 33.4707541], [130.6830879, 33.4708086], [130.6831757, 33.4708354], [130.6832935, 33.470859], [130.6834191, 33.470874], [130.6835566, 33.4708723], [130.683708, 33.4708464], [130.6842636, 33.4707122], [130.6843927, 33.4706861], [130.6845333, 33.4706826], [130.6846683, 33.470695], [130.6848007, 33.4707284], [130.684901, 33.4707666], [130.685013, 33.4708231], [130.6851585, 33.4709251], [130.6855018, 33.4712959], [130.6864677, 33.4722085], [130.68661, 33.472437], [130.6867061, 33.4726358], [130.6867774, 33.4729316], [130.6867719, 33.4731119], [130.6867381, 33.4733051], [130.6866378, 33.4735918], [130.6865305, 33.4738312], [130.6862472, 33.4743893], [130.6862063, 33.4745169], [130.6861891, 33.4746501], [130.6861958, 33.4747521], [130.6862307, 33.4748795], [130.6862858, 33.4749995], [130.6863326, 33.4750831], [130.6864047, 33.4751682], [130.6865262, 33.4752529], [130.6866492, 33.4753017], [130.6867844, 33.4753352], [130.6868946, 33.4753386], [130.6870312, 33.4753301], [130.6871527, 33.475309], [130.687307, 33.4752585], [130.6876878, 33.4750763], [130.6880835, 33.4749163], [130.6883766, 33.4748122], [130.6886145, 33.4747452], [130.6888918, 33.4746873], [130.6898072, 33.474556], [130.6905992, 33.4744254], [130.6920331, 33.4742079], [130.6924622, 33.4741456], [130.6928424, 33.4740724], [130.6932617, 33.4739387], [130.6934774, 33.4738601], [130.6938732, 33.4736507], [130.6946419, 33.4730715], [130.6949626, 33.4728916], [130.6951846, 33.4728012], [130.6953918, 33.4727405], [130.695659, 33.4726897], [130.6958246, 33.4726726], [130.6960001, 33.4726682], [130.6962313, 33.4726664], [130.6965491, 33.4727232], [130.6968695, 33.4728368], [130.6971479, 33.4729573], [130.6973609, 33.4730791], [130.6975549, 33.4732274], [130.6977808, 33.4734603], [130.6980834, 33.4739658], [130.698178, 33.4741948], [130.6982259, 33.4743924], [130.6982466, 33.4745604], [130.6982492, 33.4747725], [130.6982374, 33.4755515], [130.6982726, 33.4771993], [130.6984058, 33.4784486], [130.7016737, 33.5020614], [130.7019814, 33.5033439], [130.702388, 33.5046153], [130.7027359, 33.5055702], [130.7038582, 33.507718], [130.7044544, 33.5091872], [130.7044941, 33.5093115], [130.7046533, 33.5098107], [130.70478, 33.5102267], [130.7048899, 33.5106537], [130.7050908, 33.511557], [130.7052976, 33.5129322]], [[130.7749274, 33.5718356], [130.7747433, 33.5716947], [130.7746, 33.5716039], [130.7744179, 33.5715091], [130.7742108, 33.57142], [130.773992, 33.5713651], [130.7737739, 33.5713205], [130.7735467, 33.5713005], [130.7733812, 33.5713014], [130.7731084, 33.5713186], [130.7728206, 33.5713685], [130.7719584, 33.5715416], [130.7713316, 33.5716786], [130.771153, 33.5717471], [130.7709865, 33.5718217], [130.7707865, 33.5719304], [130.7704767, 33.5721124], [130.7703447, 33.5722011], [130.7695914, 33.5726977], [130.7693531, 33.5728459], [130.7691547, 33.5729496], [130.7689293, 33.5730515], [130.7686904, 33.5731425], [130.7682521, 33.5732712], [130.7678838, 33.5733698], [130.7676102, 33.5734227], [130.7672942, 33.5734675], [130.7670376, 33.5734687], [130.7668506, 33.5734493], [130.7666801, 33.5734172], [130.7664831, 33.5733699], [130.7662777, 33.5733003], [130.7661384, 33.5732381], [130.7659755, 33.5731569], [130.7657285, 33.5730038], [130.76502, 33.5724958], [130.7646108, 33.5722965], [130.7643691, 33.5722196], [130.7641304, 33.5721648], [130.7639356, 33.5721316], [130.7637488, 33.5721229], [130.7635017, 33.5721234], [130.7632166, 33.5721641], [130.7629737, 33.5722207], [130.7624028, 33.5724391], [130.7618251, 33.5726649], [130.7616377, 33.5727051], [130.7614779, 33.5727298], [130.7612407, 33.5727498], [130.7609902, 33.572746], [130.7608102, 33.572733], [130.7606137, 33.5727035], [130.7604508, 33.5726626], [130.7602807, 33.5726093], [130.7600655, 33.5725146], [130.7598741, 33.5724134], [130.7596665, 33.5722774], [130.7589239, 33.5717926], [130.7559063, 33.5697826], [130.7553114, 33.5693896], [130.7551964, 33.5693093], [130.7551122, 33.5692294], [130.7550542, 33.5691439], [130.7550077, 33.5690357], [130.7549939, 33.5689327], [130.7550054, 33.5688348], [130.7550287, 33.5687472], [130.7550674, 33.5686757], [130.7551427, 33.5685807], [130.7552401, 33.5684965], [130.7553667, 33.5683852], [130.7555078, 33.5682838], [130.7556322, 33.5682097], [130.7557607, 33.5681567], [130.7558951, 33.5681248], [130.7560352, 33.5681101], [130.7561807, 33.568108], [130.7563261, 33.5681265], [130.7564208, 33.568155], [130.7565288, 33.5681998], [130.7566166, 33.5682555], [130.7567065, 33.5683279], [130.7567614, 33.568384], [130.7568218, 33.5684662], [130.7568835, 33.5685796], [130.7569065, 33.5686436], [130.7569264, 33.5687818], [130.7569183, 33.5688842], [130.7568915, 33.5689796], [130.7568608, 33.5690602], [130.7567648, 33.5692191], [130.7564486, 33.5696445], [130.7563685, 33.5697786], [130.7563321, 33.5699043], [130.7563242, 33.5699965], [130.7563505, 33.5701338], [130.7563739, 33.5702093], [130.7564409, 33.5703071], [130.7565382, 33.5703918], [130.7568204, 33.570607], [130.75728, 33.5708815], [130.7575901, 33.5710866], [130.7576155, 33.5711059], [130.7582935, 33.5715509], [130.7588039, 33.5710178], [130.7591592, 33.5706217], [130.7594345, 33.5702679], [130.7596638, 33.5698479], [130.759787, 33.5695211], [130.7598295, 33.5693188], [130.7598549, 33.5691065], [130.7598723, 33.5687202], [130.7598929, 33.5680728], [130.75995, 33.567823], [130.7600255, 33.5676148], [130.7601101, 33.5674502], [130.7602695, 33.5672433], [130.7604019, 33.5670743], [130.7606201, 33.5668873], [130.7610454, 33.5666077], [130.7618268, 33.5661106], [130.7620834, 33.5659516], [130.7627572, 33.5655598], [130.7631374, 33.5653258], [130.7633735, 33.5651666], [130.7634561, 33.5651146], [130.7635808, 33.5650239], [130.7637668, 33.5649026], [130.7640079, 33.564756]], [[130.8569699, 33.7140792], [130.85677, 33.7140648], [130.8564319, 33.7140452], [130.8559536, 33.7140294], [130.855882, 33.714027]], [[130.8549351, 33.7429841], [130.8549748, 33.743115], [130.8550732, 33.7434995], [130.8552059, 33.7439445], [130.8552997, 33.7441712], [130.8554396, 33.7444171], [130.8556603, 33.7447314], [130.8558853, 33.7449629], [130.8563152, 33.7455171], [130.8566268, 33.7459225], [130.8571403, 33.7464682], [130.857915, 33.7472035], [130.8581804, 33.7474434], [130.8584632, 33.7476905], [130.8585988, 33.7478177], [130.858707, 33.7479628], [130.8588036, 33.7482003], [130.8589349, 33.7486633], [130.8589782, 33.7487964], [130.8591267, 33.7490843], [130.8592869, 33.7493698], [130.8594585, 33.749702], [130.859535, 33.7498112], [130.85961, 33.7498747], [130.859724, 33.7499503], [130.859812, 33.7499935], [130.859861, 33.7500774], [130.8598826, 33.750207], [130.859907, 33.7506668], [130.8599072, 33.7507443], [130.8599187, 33.7508595], [130.8600067, 33.7510777], [130.8601466, 33.7514232], [130.8604322, 33.7521044], [130.8605448, 33.7523503], [130.8607857, 33.7527485], [130.8613007, 33.7533674], [130.8614449, 33.7535641], [130.862071, 33.7543293], [130.8626148, 33.7550034], [130.8631125, 33.7556882], [130.8636924, 33.7564642], [130.8643026, 33.7572761], [130.864731, 33.7578398], [130.8652778, 33.7585726], [130.8657452, 33.7592046], [130.8659125, 33.7595081], [130.8659875, 33.7597623], [130.8662024, 33.7604303], [130.8662991, 33.7607985], [130.8663438, 33.7610456], [130.8664333, 33.7618023], [130.8664938, 33.7621009], [130.8666612, 33.7625914], [130.8667117, 33.7627497], [130.8669872, 33.7633949], [130.86742, 33.7642932], [130.8678008, 33.7651506], [130.8678484, 33.7652873], [130.8678974, 33.7654972], [130.8680475, 33.7662635], [130.8680821, 33.7664146], [130.8681355, 33.7665777], [130.8682263, 33.7667264], [130.8684139, 33.767001], [130.8685048, 33.7671773], [130.8685653, 33.7673464], [130.8685899, 33.7674699], [130.8686173, 33.7678033], [130.8686259, 33.7683429], [130.8685913, 33.7687422], [130.8685336, 33.7690528], [130.868424, 33.7693622], [130.8683526, 33.7695449], [130.8681102, 33.7701088], [130.868033, 33.7702951], [130.867808, 33.7708959], [130.8675931, 33.7713863], [130.8674878, 33.771631], [130.8673767, 33.7717677], [130.8672541, 33.7719092], [130.8670365, 33.7720716], [130.8667611, 33.7722379], [130.8666265, 33.7723251], [130.8664888, 33.7724455], [130.8664021, 33.7726024], [130.8663439, 33.7727753], [130.8661357, 33.7738145], [130.8659353, 33.7747859], [130.8658076, 33.7753467], [130.8657303, 33.7757161], [130.8656785, 33.7759878], [130.8654578, 33.7769806], [130.865385, 33.7778021], [130.8653442, 33.7785482], [130.8653146, 33.7790018], [130.8652799, 33.7792069], [130.8651993, 33.7794291], [130.8650912, 33.7796707], [130.8647484, 33.7804414], [130.8646747, 33.7806538], [130.8646658, 33.7806796], [130.864574, 33.7808568], [130.8644435, 33.7810281], [130.8642323, 33.7812248], [130.8639885, 33.7814266], [130.8638172, 33.7816233], [130.8637376, 33.781747], [130.8634918, 33.7824219], [130.8634267, 33.782645], [130.8633315, 33.782856], [130.863131, 33.7831749], [130.8627675, 33.78373], [130.8625987, 33.7840238], [130.8625064, 33.7842672], [130.8623564, 33.7847407], [130.8622756, 33.7852383], [130.8621847, 33.7856196], [130.8621486, 33.785839], [130.8621342, 33.7860572], [130.8621616, 33.7862838], [130.8622684, 33.7867729], [130.8623694, 33.7871998], [130.8623968, 33.7873724], [130.8624271, 33.7877369], [130.8624752, 33.7883552], [130.8624781, 33.7887041], [130.862443, 33.7895718], [130.8624213, 33.7899735], [130.8623954, 33.7901701], [130.862345, 33.790464], [130.8622653, 33.7906929], [130.8620474, 33.7910982], [130.8618239, 33.7915945], [130.8616854, 33.7920105], [130.8616435, 33.7922874], [130.8615244, 33.7945982], [130.861509, 33.794973], [130.861555, 33.7962274], [130.8615833, 33.7968148], [130.8616308, 33.7970252], [130.8616842, 33.7970948], [130.8617688, 33.7971389], [130.8618363, 33.7971759]], [[130.8800748, 33.8633518], [130.8799101, 33.8634146], [130.8799042, 33.8632899], [130.8799003, 33.8632063], [130.8798976, 33.8629823], [130.879895, 33.8623626], [130.8798961, 33.8618849], [130.8799064, 33.8610003], [130.8799045, 33.8608915], [130.879892, 33.8605901], [130.8798737, 33.8602608], [130.8798366, 33.8599125], [130.879788, 33.8595889], [130.879578, 33.8584415], [130.8793217, 33.8570732], [130.8792498, 33.8567086], [130.8790867, 33.855814], [130.8789772, 33.8552474], [130.8789234, 33.8549033], [130.8788261, 33.8543397], [130.8784572, 33.852272], [130.8783414, 33.8516128], [130.8783176, 33.8514659], [130.8782876, 33.851281], [130.8781081, 33.8502305], [130.8780766, 33.8500369], [130.8780564, 33.8499264], [130.8779334, 33.8491711], [130.8779064, 33.8490072], [130.8778235, 33.848503], [130.877766, 33.8481951], [130.8776659, 33.84766], [130.8775444, 33.8470877], [130.8772323, 33.8458269], [130.8771995, 33.8456946], [130.87718, 33.8456149], [130.8771558, 33.8455163], [130.876873, 33.8443639], [130.876545, 33.8430755], [130.8764326, 33.8426712], [130.8763433, 33.8422643], [130.8761035, 33.8415587], [130.8759735, 33.8412001], [130.8758299, 33.840872], [130.8756297, 33.8405039], [130.8754033, 33.8401365], [130.8751643, 33.8397831], [130.8749327, 33.839453], [130.8746822, 33.8390902], [130.8742367, 33.8385145], [130.8740326, 33.8382211], [130.8737813, 33.8378598], [130.8733554, 33.8372512], [130.8731025, 33.8369114], [130.872946, 33.8367276], [130.8727657, 33.8365282], [130.8725281, 33.8362586], [130.8724061, 33.8361319], [130.8720021, 33.835761], [130.8716069, 33.8354287], [130.8715182, 33.8353567], [130.8712596, 33.8351302], [130.8709312, 33.8348266], [130.8706115, 33.8345558], [130.8703692, 33.8343278], [130.869367, 33.8334804], [130.869078, 33.833217], [130.8687667, 33.8328389], [130.86865, 33.8326603], [130.8685948, 33.8325813], [130.8684768, 33.8324124], [130.8683785, 33.8322403], [130.8682222, 33.8319352], [130.8681042, 33.8317006], [130.8678833, 33.8311956], [130.8675894, 33.8306733], [130.8671498, 33.8299373], [130.8669148, 33.8296], [130.866708, 33.8293336], [130.8664446, 33.8289879], [130.8662617, 33.8287584], [130.8657812, 33.828162], [130.8654373, 33.8277337], [130.8653722, 33.8276556], [130.8652673, 33.8275299], [130.8652397, 33.8274967], [130.8651146, 33.8273482], [130.864634, 33.8267302], [130.8644366, 33.8264119], [130.8641838, 33.825994], [130.8639581, 33.8255081], [130.8638805, 33.8253412], [130.8638335, 33.8252367], [130.8637282, 33.8250095], [130.8635537, 33.824538], [130.8634439, 33.8242257], [130.8633819, 33.8240218], [130.8633102, 33.8236565], [130.8632746, 33.8235284], [130.8632652, 33.8234175], [130.8632351, 33.8230022], [130.8632282, 33.8229781], [130.8631709, 33.8227773], [130.8630715, 33.8225499], [130.8629673, 33.822317], [130.862912, 33.822226], [130.862629, 33.8215642], [130.8624009, 33.8210418], [130.8623607, 33.8209558], [130.862329, 33.820888], [130.8622617, 33.8207405], [130.8619604, 33.8201149], [130.861868, 33.8199231], [130.8613517, 33.8189368], [130.861086, 33.818418], [130.8608871, 33.8180734], [130.8604349, 33.8172141], [130.8601104, 33.8165973], [130.8596961, 33.8158339], [130.859335, 33.8151473], [130.859011, 33.8145309], [130.8588532, 33.8142364], [130.8586748, 33.8138957], [130.8582058, 33.8129999], [130.8577536, 33.8121579], [130.8572196, 33.8111585], [130.8571366, 33.8109694], [130.8570742, 33.8108393], [130.8570463, 33.810621], [130.8570332, 33.8104455], [130.8570426, 33.8102486], [130.8570684, 33.8099317], [130.8571277, 33.8096546], [130.857209, 33.8093994], [130.8573601, 33.8088637], [130.8575961, 33.8080475], [130.8577928, 33.8072661], [130.8581014, 33.8062396], [130.8585959, 33.8043955], [130.8588849, 33.8034714], [130.8590822, 33.8028258], [130.8593937, 33.8020256], [130.8595367, 33.801636], [130.8597548, 33.8011871], [130.8599332, 33.800796], [130.8603828, 33.799868], [130.8610179, 33.7987423], [130.8613375, 33.7981416], [130.861586, 33.7975912], [130.8616712, 33.7974213], [130.8617688, 33.7971389]]]}, "id": "relation/9566443"}]}