{"type": "FeatureCollection", "generator": "kokudo-quiz tools/fetch_raw.py (Overpass API)", "copyright": "The data included in this document is from www.openstreetmap.org. The data is made available under ODbL.", "timestamp": "2026-09-30T16:21:53Z", "features": [{"type": "Feature", "properties": {"@id": "relation/9600043", "colour": "red", "from": "福岡県久留米市", "name": "国道325号", "name:en": "National Highway Route 325", "name:ja": "国道325号", "name:ja-Hira": "こくどうさんびゃくにじゅうごごう", "name:ja-Latn": "Kokudou 325 Gou", "network": "JP:national", "ref": "325", "route": "road", "to": "宮崎県西臼杵郡高千穂町", "type": "route", "wikidata": "Q6157240", "wikipedia": "ja:国道325号"}, "geometry": {"type": "MultiLineString", "coordinates": [[[130.5224014, 33.3134013], [130.5224742, 33.3132148], [130.5225166, 33.3131061], [130.522651, 33.31266], [130.5229246, 33.3118769], [130.5230387, 33.3115367], [130.5232344, 33.3109521], [130.523513, 33.3100646], [130.5235982, 33.3097997], [130.5237388, 33.3093603], [130.5238753, 33.3089112], [130.523934, 33.3087375], [130.5240359, 33.3084121], [130.5241484, 33.3080806], [130.5243715, 33.3074414], [130.5244105, 33.3073004], [130.5249897, 33.3054734], [130.5253284, 33.3044366], [130.5254223, 33.304143], [130.5255337, 33.303802], [130.5257055, 33.3032688], [130.5258767, 33.3027377], [130.5260758, 33.3021197], [130.5263513, 33.3012648], [130.5264405, 33.3009861], [130.5264816, 33.3008596], [130.5271156, 33.2989039], [130.5271511, 33.2987944], [130.5272427, 33.2984975], [130.5273369, 33.2981921], [130.5275802, 33.2974496], [130.5279051, 33.2964563], [130.5280746, 33.2959839], [130.5281296, 33.2958124], [130.5282462, 33.2954293], [130.5282995, 33.2952581], [130.5283462, 33.295108], [130.5287083, 33.2939447], [130.5290583, 33.292877], [130.5292523, 33.2922853], [130.5293814, 33.2918883], [130.5298355, 33.2903771], [130.5299903, 33.289919], [130.53, 33.2898903], [130.5300445, 33.2897684], [130.5301955, 33.2893193], [130.5302327, 33.2892295], [130.5303349, 33.2888873], [130.5305391, 33.2882682], [130.5307981, 33.2874829], [130.5309449, 33.2870673], [130.53112, 33.2866582], [130.5313798, 33.2862219], [130.5314248, 33.2861487], [130.5315372, 33.285973], [130.5324201, 33.2845904], [130.5330797, 33.2836118], [130.5331336, 33.2835317], [130.5334756, 33.2830243], [130.5338834, 33.282426], [130.5341539, 33.2820031], [130.5341958, 33.2819185], [130.5342731, 33.2817811], [130.5343604, 33.2816364], [130.5345145, 33.2814161], [130.534853, 33.2808989], [130.5351769, 33.2804288], [130.535231, 33.2803409], [130.5356913, 33.2797715], [130.5358282, 33.2796211], [130.5359725, 33.2793518], [130.536037, 33.2792125], [130.5360672, 33.2791122], [130.5360895, 33.2789941], [130.5361118, 33.2788062], [130.5360794, 33.2783297], [130.5360263, 33.277927], [130.5359807, 33.2774481], [130.5359836, 33.2770849], [130.5359881, 33.2769401], [130.5359836, 33.276319], [130.5359866, 33.2755359], [130.5360028, 33.2752884], [130.5359922, 33.2751806], [130.5359873, 33.2746842], [130.5360754, 33.2743079], [130.5361121, 33.2741981], [130.5361943, 33.274008], [130.5362443, 33.2739321], [130.5366699, 33.2733097], [130.5371884, 33.2726214], [130.5373754, 33.2723554], [130.5374959, 33.2721382], [130.5376214, 33.2719047], [130.5378261, 33.2713716], [130.5379189, 33.2710329], [130.5380807, 33.270488], [130.5381704, 33.2701864], [130.5382121, 33.2700079], [130.5384763, 33.2691027], [130.5384839, 33.2690667], [130.5385474, 33.2688577], [130.5386828, 33.2683727], [130.5388432, 33.2678241], [130.5389164, 33.267546], [130.5391431, 33.266781], [130.539168, 33.2666952], [130.539194, 33.2666057], [130.5392371, 33.2664513], [130.5394607, 33.2656812], [130.539516, 33.265466], [130.5395554, 33.2653124], [130.5396263, 33.2650552], [130.5397534, 33.2643629], [130.5398461, 33.2637638], [130.5399213, 33.2631675], [130.5399411, 33.2626102], [130.5399359, 33.2620364], [130.5399286, 33.261875], [130.5399213, 33.2612649], [130.5399121, 33.2607091], [130.5399027, 33.2603231], [130.5399047, 33.2601943], [130.5398929, 33.2595047], [130.5398767, 33.2589308], [130.5398517, 33.2580626], [130.5398502, 33.2576697], [130.539842, 33.2572021], [130.5398805, 33.2568908], [130.5399401, 33.2564962], [130.5400275, 33.2559316], [130.5400371, 33.2558695], [130.5400433, 33.2558293], [130.5401342, 33.2552474], [130.5402293, 33.2549595], [130.5403491, 33.2547051], [130.5403987, 33.2545997], [130.5407752, 33.2539912], [130.5407898, 33.2539651], [130.541065, 33.2535087], [130.5412087, 33.2532503], [130.5413729, 33.252978], [130.5415534, 33.2526788], [130.5416154, 33.2525781], [130.5417492, 33.2523611], [130.5420467, 33.2518561], [130.5420878, 33.2517854], [130.5421471, 33.2516833], [130.5421605, 33.2516602], [130.5425866, 33.2509271], [130.5426582, 33.2507989], [130.5427872, 33.2505926], [130.5430243, 33.2502329], [130.5432599, 33.249973], [130.5434286, 33.2497958], [130.5436281, 33.2495863], [130.543958, 33.2492488], [130.5440537, 33.2491552], [130.5441421, 33.249021], [130.5441819, 33.2488563], [130.5441937, 33.2486318], [130.5441663, 33.2485034], [130.5441354, 33.248379], [130.5440411, 33.2482054], [130.5438327, 33.2478587], [130.5437702, 33.2477546], [130.5437568, 33.2477292], [130.5436435, 33.2475156], [130.5436081, 33.2473259], [130.5436037, 33.2470993], [130.5436965, 33.246853], [130.5438497, 33.2466497], [130.5439986, 33.2464471], [130.5443961, 33.2459784], [130.5445623, 33.2457709], [130.5445769, 33.2457526], [130.5459344, 33.2440692], [130.5461067, 33.2438555], [130.5463912, 33.2435152], [130.5467687, 33.2430379], [130.5472738, 33.2424345], [130.5477358, 33.2418919], [130.5477734, 33.2418498], [130.5481677, 33.2413758], [130.5485766, 33.2408842], [130.5488266, 33.240568], [130.5489933, 33.2403789], [130.5490057, 33.240366], [130.5490875, 33.2402629], [130.5491009, 33.2402414], [130.5495024, 33.2397432], [130.5502335, 33.2388965], [130.5502936, 33.2388164], [130.5508008, 33.2382381], [130.5512246, 33.237689], [130.5514135, 33.2374451], [130.551955, 33.2367939], [130.5522332, 33.2364445], [130.5527129, 33.2358116], [130.55297, 33.2354812], [130.5535621, 33.2347237], [130.5536978, 33.2345712], [130.5537526, 33.2344849], [130.5539239, 33.2342482], [130.5543102, 33.2336972], [130.5543358, 33.2336607], [130.5545798, 33.2332996], [130.554678, 33.2331403], [130.5549509, 33.2327477], [130.5550618, 33.2325685], [130.5551283, 33.2324411], [130.5552469, 33.2321638], [130.5553035, 33.231923], [130.5553089, 33.2318826], [130.5553237, 33.2317705], [130.5553323, 33.2314407], [130.5553182, 33.231093], [130.5553119, 33.2308606], [130.5553136, 33.230826], [130.555322, 33.2306498], [130.5554133, 33.2302038], [130.5554892, 33.2298975], [130.5556485, 33.2293227], [130.5556584, 33.2292933], [130.5557565, 33.22893], [130.5558897, 33.2284352], [130.5560704, 33.2278981], [130.556211, 33.227532], [130.5562344, 33.2274752], [130.5563648, 33.2271646], [130.5565045, 33.2268153], [130.556706, 33.2263117], [130.5569604, 33.2256063], [130.5571874, 33.2249668], [130.5573019, 33.2246576], [130.5574519, 33.2242473], [130.5576873, 33.2235939], [130.5576925, 33.22358], [130.5580373, 33.2226631], [130.5581258, 33.2224348], [130.5584156, 33.2216358], [130.5586254, 33.2210307], [130.5587594, 33.2206874], [130.5588659, 33.2204601], [130.5590025, 33.220117], [130.559049, 33.2200006], [130.5592297, 33.219711], [130.5592715, 33.2196511], [130.5594094, 33.219472], [130.5594803, 33.2193895], [130.5596715, 33.219217], [130.5597128, 33.2191807], [130.5599366, 33.2189841], [130.5601354, 33.2188535], [130.5605177, 33.2186516], [130.5606832, 33.2185643], [130.5607047, 33.218553], [130.5611296, 33.2183286], [130.5621164, 33.2178367], [130.5623549, 33.2177224], [130.5627045, 33.2175482], [130.5628718, 33.2174649], [130.5628961, 33.2174518], [130.5631091, 33.2173483], [130.5632464, 33.2172715], [130.56335, 33.2172218], [130.5634088, 33.2171935], [130.5639439, 33.2169366], [130.5643343, 33.2167491], [130.5645339, 33.2166359], [130.5651862, 33.2163101], [130.5652815, 33.2162625], [130.5654207, 33.2161926], [130.5656372, 33.216081], [130.5665745, 33.2156124], [130.5666362, 33.215581], [130.5675656, 33.2151103], [130.5678987, 33.2149446], [130.5682055, 33.2147822], [130.5686101, 33.2145414], [130.5686627, 33.2145101], [130.5688904, 33.2143746], [130.5694212, 33.2139583], [130.5697821, 33.213628], [130.5699776, 33.2134427], [130.5700905, 33.2133358], [130.5702057, 33.2132266], [130.5702976, 33.213135], [130.5703937, 33.2130392], [130.5705827, 33.2128508], [130.5710136, 33.2124184], [130.5712543, 33.2121768], [130.571519, 33.2119187], [130.5716305, 33.21181], [130.5720003, 33.2114539], [130.5720791, 33.2113747], [130.5722651, 33.2111628], [130.5724804, 33.2108685], [130.5726881, 33.2105205], [130.5730188, 33.2099404], [130.5734777, 33.2091474], [130.5737283, 33.2087145], [130.5737388, 33.2086971], [130.573875, 33.2084436], [130.5739421, 33.2083128], [130.5739856, 33.2082278], [130.5741635, 33.2078805], [130.5744372, 33.2073406], [130.574543, 33.207189], [130.5746791, 33.2069941], [130.5747417, 33.2069385], [130.5749305, 33.2067706], [130.5749933, 33.2067489], [130.5750566, 33.2067271], [130.5759977, 33.2060085], [130.5760579, 33.2059569], [130.5763477, 33.2057517], [130.5764607, 33.2056418], [130.5766055, 33.2055016], [130.5767745, 33.2053344], [130.5769607, 33.2051327], [130.5767262, 33.2053142], [130.5765009, 33.2054892], [130.5762464, 33.2056788], [130.5760408, 33.2058515], [130.5759782, 33.2058962], [130.5759029, 33.2059399], [130.5749952, 33.2066489], [130.5749514, 33.2067026], [130.5749457, 33.2067212], [130.5749305, 33.2067706]], [[130.5769607, 33.2051327], [130.577378, 33.2047857], [130.5775984, 33.2046471], [130.5778799, 33.2044875], [130.5783704, 33.2042717], [130.5787424, 33.2041809], [130.5788693, 33.2041684], [130.5791182, 33.2041331], [130.5793942, 33.2041037], [130.579702, 33.204091], [130.5823294, 33.2044371], [130.582796, 33.2044439], [130.5829847, 33.2044359], [130.5831407, 33.2044255], [130.583315, 33.204412], [130.584234, 33.204236], [130.5853198, 33.2040045], [130.5860158, 33.2038858], [130.5862492, 33.2038372], [130.5867707, 33.2037327], [130.5873115, 33.2036176], [130.5874653, 33.2035849], [130.5883073, 33.2034188], [130.5885803, 33.2033581], [130.5893145, 33.2032131], [130.5895137, 33.2031767], [130.5895879, 33.2031637], [130.590829, 33.2029253], [130.5912378, 33.2028432], [130.5930594, 33.2024888], [130.5942787, 33.2022487], [130.5946187, 33.2021456], [130.594964, 33.202029], [130.5954683, 33.2017132], [130.5960756, 33.2012748], [130.5975518, 33.2002215], [130.5979528, 33.1999446], [130.598288, 33.1997358], [130.598699, 33.1995312], [130.5990074, 33.1994059], [130.5993373, 33.1992896], [130.5997998, 33.1991218], [130.5998873, 33.1990944], [130.6003436, 33.1989356], [130.6010837, 33.1986484], [130.6016943, 33.1984269], [130.6030359, 33.1979468], [130.6033641, 33.1978301], [130.6039658, 33.1976187], [130.604253, 33.1974577], [130.604394, 33.1973369], [130.6045349, 33.1971778], [130.6046152, 33.1970488], [130.6046969, 33.1968292], [130.6047116, 33.196677], [130.6047828, 33.1959901], [130.6047939, 33.1958219], [130.6048211, 33.1956583], [130.6048738, 33.1954991], [130.6049479, 33.1953354], [130.6055419, 33.1943613], [130.6058767, 33.1937836], [130.606186, 33.1933035], [130.6065072, 33.19295], [130.6067236, 33.1927946], [130.6068896, 33.1927013], [130.6071237, 33.1926086], [130.6072632, 33.1925711], [130.6075498, 33.192515], [130.6078094, 33.1924957], [130.6084282, 33.1925043], [130.608618, 33.1924944], [130.6088405, 33.1924665], [130.6093234, 33.192385], [130.6096029, 33.1922966], [130.6098154, 33.192212], [130.610007, 33.1920761], [130.6102285, 33.191855], [130.6104571, 33.1916126], [130.6105625, 33.1914425], [130.6106098, 33.1913056], [130.610637, 33.1911226], [130.61065, 33.1910043], [130.6106822, 33.1897858], [130.610683, 33.1893812], [130.6107101, 33.1889367], [130.6107316, 33.1886198], [130.6107986, 33.1878084], [130.610811, 33.1876145], [130.6108683, 33.1871941], [130.6109348, 33.1868599], [130.611036, 33.1864338], [130.6111604, 33.1858512], [130.6112878, 33.1851923], [130.6113865, 33.1846682], [130.6115481, 33.1838887], [130.6116638, 33.1833107], [130.6117024, 33.1831007], [130.6118096, 33.1825173], [130.6118692, 33.1822588], [130.6119189, 33.1818175], [130.6119432, 33.1812077], [130.6118996, 33.1804682], [130.6118149, 33.1795229], [130.6118068, 33.179258], [130.611847, 33.1789617], [130.6119171, 33.178669], [130.612016, 33.1784342], [130.6121153, 33.1782276], [130.6123783, 33.1778293], [130.6124749, 33.177686], [130.6125471, 33.1775137], [130.6125885, 33.1773448], [130.612612, 33.177126], [130.6126749, 33.1760756], [130.6127149, 33.1754029], [130.6127494, 33.1748229], [130.6128035, 33.1738233], [130.6128228, 33.1736015], [130.6128535, 33.1733841], [130.6129276, 33.1731279], [130.6130641, 33.1728094], [130.6131678, 33.172679], [130.6132846, 33.172553], [130.61351, 33.1723433], [130.6139747, 33.1719416], [130.6148247, 33.1712132], [130.6150066, 33.1710895], [130.6151858, 33.1709855], [130.6154055, 33.1708872], [130.6156461, 33.1707835], [130.61572, 33.1707623], [130.6160037, 33.1706811], [130.6163474, 33.1706251], [130.6172537, 33.1704881], [130.6183589, 33.1702844], [130.6185244, 33.1702443], [130.6186652, 33.1701982], [130.6188181, 33.1701275], [130.6189228, 33.1700562], [130.6190447, 33.1699614], [130.6191418, 33.1698597], [130.6192419, 33.1697043], [130.6192982, 33.169573], [130.6193382, 33.1694196], [130.6194967, 33.168703], [130.6196564, 33.1680578], [130.6196952, 33.1678936], [130.6197207, 33.1677431], [130.6197327, 33.1675792], [130.6197341, 33.1674064], [130.6197221, 33.167282], [130.619718, 33.1672391], [130.6196912, 33.1671044], [130.6196874, 33.1670792], [130.6195961, 33.1668882], [130.6195385, 33.1668001], [130.6194719, 33.1667005], [130.6193542, 33.166555], [130.6193097, 33.1664999], [130.619082, 33.1662765], [130.6188878, 33.1660786], [130.618267, 33.1654643], [130.6176031, 33.1648077], [130.617448, 33.1646185], [130.6173649, 33.1644755], [130.6173002, 33.1643161], [130.6172734, 33.16414], [130.6172685, 33.1640088], [130.6172909, 33.1638338], [130.6173427, 33.1636631], [130.6174175, 33.1634979], [130.6175229, 33.1633502], [130.6176589, 33.1632167], [130.617808, 33.1631007], [130.6181188, 33.1629219], [130.6185653, 33.1626937], [130.6189285, 33.1625428], [130.619358, 33.1623973], [130.6200199, 33.1621908], [130.6202605, 33.1620866], [130.6204854, 33.1619687], [130.6207685, 33.1617632], [130.6214456, 33.1612512], [130.62156, 33.1611186], [130.621649, 33.160996], [130.6217069, 33.1608435], [130.621743, 33.1607201], [130.6217583, 33.1605787], [130.6217614, 33.1603918], [130.6217481, 33.1602833], [130.6217033, 33.1601455], [130.6216563, 33.1600378], [130.6215612, 33.1599157], [130.6214621, 33.15981], [130.6213787, 33.1597349], [130.6212637, 33.1596628], [130.6211169, 33.1595922], [130.620083, 33.1592319], [130.6199476, 33.1591842], [130.6195206, 33.1590458], [130.619118, 33.1589092], [130.6188743, 33.1587722], [130.6187759, 33.1586853], [130.6186913, 33.1585966], [130.6186037, 33.1584336], [130.6185457, 33.1582574], [130.6185372, 33.1580647], [130.6185662, 33.1578935], [130.6186693, 33.1576762], [130.6188169, 33.1574928], [130.6190852, 33.1571991], [130.6196313, 33.1566694], [130.6198193, 33.1564021], [130.6198729, 33.1562592], [130.6199028, 33.1561262], [130.619908, 33.1558737], [130.6198661, 33.155684], [130.6197797, 33.1554719], [130.6194437, 33.1548412], [130.6193011, 33.1544923], [130.6192425, 33.1543054], [130.6191923, 33.1538571], [130.6191297, 33.1529352], [130.6191151, 33.1527209], [130.6190867, 33.15241], [130.6190549, 33.1520288], [130.6190221, 33.1518866], [130.6189251, 33.1516418], [130.6187965, 33.1514086], [130.6183765, 33.150725], [130.6182667, 33.1505317], [130.6181673, 33.1503267], [130.6181289, 33.1500532], [130.6181201, 33.1498102], [130.618148, 33.1495967], [130.6182101, 33.1493774], [130.6183411, 33.1489846], [130.6186218, 33.1482199], [130.6189653, 33.1473149], [130.6190928, 33.1469643], [130.6192263, 33.1465789], [130.6192826, 33.1463826], [130.619287, 33.146145], [130.6192822, 33.1458827], [130.6192842, 33.1447631], [130.6192728, 33.1443739], [130.6192592, 33.1438164], [130.6192445, 33.1434357], [130.6191959, 33.1431743], [130.6191325, 33.1429319], [130.6190322, 33.1426342], [130.6189114, 33.1423479], [130.6187421, 33.1418822], [130.6185882, 33.1414179], [130.6185326, 33.1412159], [130.6184719, 33.1409107], [130.6184757, 33.1405371], [130.618541, 33.1398713], [130.6185592, 33.139755], [130.6186787, 33.1385594], [130.6187642, 33.1382294], [130.6190092, 33.1377447], [130.6195555, 33.1367342], [130.6200623, 33.1358996], [130.6202231, 33.1356453], [130.6204689, 33.1352073], [130.6208188, 33.1346303], [130.6210753, 33.1343563], [130.6213628, 33.1342127], [130.6216822, 33.1340991], [130.6220731, 33.1339447], [130.6223533, 33.133806], [130.6226255, 33.133604], [130.6229284, 33.1332526], [130.6232932, 33.1325765], [130.6234606, 33.1323651], [130.6235931, 33.1321627], [130.6237296, 33.1319314], [130.6239496, 33.1316546], [130.6242468, 33.1313957], [130.6250014, 33.1307584], [130.6256514, 33.1301298], [130.6260989, 33.1298752], [130.626305, 33.1298062], [130.6265636, 33.1297183], [130.6268658, 33.1296607], [130.6271475, 33.1296342], [130.6278902, 33.1295431], [130.6284291, 33.1294712], [130.6291649, 33.1293762], [130.6302627, 33.1292125], [130.6305396, 33.1291784], [130.6309145, 33.1291689], [130.6314035, 33.1291894], [130.6324047, 33.1292498], [130.6327626, 33.1292462], [130.63316, 33.1292269], [130.6335215, 33.1291563], [130.6340492, 33.1290363], [130.6344809, 33.1288875], [130.6348838, 33.1287851], [130.635106, 33.128634], [130.6352865, 33.1284511], [130.6354391, 33.12817], [130.6357561, 33.1275052], [130.6359333, 33.1271102], [130.6360313, 33.1269314], [130.6362354, 33.1267739], [130.6365121, 33.1265972], [130.6372369, 33.1263557], [130.6382328, 33.1260577], [130.6385737, 33.1258844], [130.6387709, 33.1256332], [130.638998, 33.125355], [130.6393198, 33.1250406], [130.6395363, 33.1248355], [130.6397291, 33.1247549], [130.639969, 33.1246945], [130.6401567, 33.1247126], [130.6404637, 33.12471], [130.6408764, 33.1247555], [130.6412349, 33.1248023], [130.6414362, 33.1247861], [130.6415592, 33.1247746], [130.6416713, 33.1247546], [130.6418226, 33.1246597], [130.6420021, 33.1245158], [130.6421826, 33.1242882], [130.6423737, 33.1234638], [130.6424299, 33.123092], [130.6426378, 33.1222416], [130.6427668, 33.1218641], [130.6429106, 33.121667], [130.6430519, 33.1214483], [130.6431917, 33.1212973], [130.6434851, 33.1209219], [130.6436381, 33.1208248], [130.6438596, 33.1206499], [130.6447284, 33.120334], [130.6450615, 33.1202017], [130.6452603, 33.1200669], [130.6454251, 33.1199215], [130.6456188, 33.1197523], [130.6461072, 33.1192814], [130.6465993, 33.1186863], [130.6471144, 33.1181971], [130.6473632, 33.1179562], [130.6477733, 33.1175393], [130.6478825, 33.1173847], [130.6479467, 33.1172693], [130.6480293, 33.1170677], [130.648204, 33.1164312], [130.6484186, 33.1159154], [130.6485868, 33.1156343], [130.6486972, 33.115341], [130.6489209, 33.1150816], [130.6493075, 33.1146785], [130.6496583, 33.1143222], [130.6500806, 33.1139733], [130.6503568, 33.1138085], [130.6507852, 33.1135888], [130.6511539, 33.1134146], [130.6512099, 33.1133876], [130.6516717, 33.1131645], [130.6520501, 33.1129937], [130.6522846, 33.1129268], [130.6523281, 33.1129144], [130.6525892, 33.1128854], [130.6530667, 33.1129119], [130.6534683, 33.1129476], [130.6535503, 33.1129549], [130.6540433, 33.1129751], [130.6545017, 33.112984], [130.6550643, 33.1130064], [130.655443, 33.113045], [130.6556179, 33.1130754], [130.6562667, 33.1132077], [130.6565422, 33.1132403], [130.6568728, 33.1132605], [130.6571564, 33.1132383], [130.6574353, 33.1131982], [130.6577007, 33.1131552], [130.6580585, 33.1130651], [130.6586767, 33.1129081], [130.6590553, 33.112812], [130.6594816, 33.112702], [130.659962, 33.1125806], [130.6601755, 33.1125299], [130.6605419, 33.1124398], [130.6608456, 33.1123583], [130.6610995, 33.1122997], [130.6612791, 33.1122671], [130.661591, 33.112216], [130.6618557, 33.112199], [130.6621774, 33.1121888], [130.6624032, 33.112187], [130.6626196, 33.1122003], [130.6630206, 33.112251], [130.6633639, 33.1122969], [130.6636366, 33.1123295], [130.6639475, 33.112364], [130.6645779, 33.1124419], [130.6649118, 33.1124872], [130.6651528, 33.1125386], [130.6654644, 33.1126099], [130.6659802, 33.1128036], [130.6662322, 33.1129147], [130.666605, 33.113112], [130.6668935, 33.1132739], [130.6674403, 33.1135772], [130.6676566, 33.1136902], [130.6685236, 33.1141505], [130.6687358, 33.1142743], [130.6695915, 33.1147529], [130.6700284, 33.1150333], [130.6702715, 33.1151692], [130.6704886, 33.1153257], [130.6714613, 33.1162619], [130.6718275, 33.1165775], [130.6719251, 33.1166721], [130.6719495, 33.1166878], [130.6721291, 33.1168029], [130.6722974, 33.1168755], [130.6724892, 33.1169413], [130.6727024, 33.1169857], [130.6729523, 33.1170113], [130.6732318, 33.1170054], [130.674174, 33.116994], [130.6755755, 33.116966], [130.6757067, 33.116963], [130.67583, 33.1169495], [130.6759447, 33.1169308], [130.6760825, 33.1168909], [130.6764806, 33.1167423], [130.6772407, 33.1164206], [130.6795666, 33.1154294], [130.680545, 33.114966], [130.680817, 33.1148379], [130.6810752, 33.1147267], [130.6813103, 33.1146427], [130.6815022, 33.1146029], [130.6817215, 33.1145878], [130.6819494, 33.1145999], [130.6824067, 33.1146772], [130.6826443, 33.1147257], [130.683727, 33.1149437], [130.6841578, 33.1150332], [130.6843196, 33.1150668], [130.6850023, 33.1152334], [130.6851653, 33.1152732], [130.6856131, 33.115415], [130.6863965, 33.1156961], [130.6864459, 33.1157129], [130.6870963, 33.1159558], [130.687337, 33.1159994], [130.6875859, 33.1160173], [130.6878603, 33.1159977], [130.6880562, 33.1159353], [130.688222, 33.115855], [130.6882982, 33.1157975], [130.6884315, 33.1156969], [130.6885733, 33.1155218], [130.6886804, 33.1152612], [130.6887932, 33.1147012], [130.6888955, 33.114192], [130.6889188, 33.1140881], [130.6890325, 33.1135805], [130.6890624, 33.1134375], [130.6892344, 33.1126159], [130.6893283, 33.1121485], [130.689445, 33.1118011], [130.6895047, 33.1116043], [130.6896812, 33.1112437], [130.689758, 33.1110856], [130.6898552, 33.1108857], [130.6899403, 33.1107105], [130.6900984, 33.1103859], [130.6902402, 33.1101406], [130.6903341, 33.1100048], [130.6904371, 33.1098732], [130.690467, 33.1098463], [130.6905506, 33.1097711], [130.6906615, 33.1096715], [130.6908961, 33.1095168], [130.6912619, 33.1093228], [130.6913025, 33.1093011], [130.6914487, 33.1092234], [130.6924065, 33.1087141], [130.6926041, 33.1085788], [130.6928162, 33.108383], [130.6929922, 33.108151], [130.6933095, 33.107687], [130.6935711, 33.1073016], [130.6936737, 33.1071649], [130.6938593, 33.1069171], [130.6941239, 33.1066092], [130.6943233, 33.106411], [130.694766, 33.1059958], [130.694927, 33.1058355], [130.6952992, 33.1054549], [130.6957912, 33.1049993], [130.6959687, 33.1048455], [130.6961019, 33.1047414], [130.6962227, 33.104666], [130.6963803, 33.1045807], [130.6966602, 33.1044652], [130.6969588, 33.1043801], [130.6973519, 33.1042894], [130.6976772, 33.1042224], [130.6980234, 33.1041523], [130.6982651, 33.1040961], [130.698581, 33.1040284], [130.698783, 33.1039891], [130.6991692, 33.1039076], [130.6995025, 33.1038279], [130.6996604, 33.1037819], [130.6996727, 33.1037758], [130.6997572, 33.1037338], [130.6997917, 33.1037167], [130.6999288, 33.10362], [130.700042, 33.1034998], [130.7001452, 33.1033469], [130.7002142, 33.1031604], [130.7002286, 33.1030033], [130.7002257, 33.1028226], [130.700196, 33.102649], [130.700163, 33.1025187], [130.7001319, 33.102416], [130.7000591, 33.1022166], [130.6999019, 33.1018583], [130.6996242, 33.1011483], [130.6992909, 33.1002438], [130.6991855, 33.0999538], [130.6990651, 33.0995858], [130.6989929, 33.0993133], [130.6989158, 33.0990341], [130.6988754, 33.0987719], [130.6988371, 33.0985271], [130.6987902, 33.0980238], [130.6987794, 33.0977839], [130.6987664, 33.0974914], [130.6987535, 33.0972244], [130.6987325, 33.0967953], [130.6987174, 33.0966255], [130.6986878, 33.0964702], [130.6986474, 33.0963258], [130.698571, 33.0961379], [130.6984642, 33.0959759], [130.6982738, 33.095759], [130.6981418, 33.0956412], [130.6977992, 33.0953578], [130.6977119, 33.0952816], [130.6972913, 33.094927], [130.6971944, 33.0948476], [130.6970883, 33.0947672], [130.6968741, 33.0945843], [130.6966292, 33.0943664], [130.6964997, 33.0942408], [130.696364, 33.0940519], [130.6962447, 33.0938015], [130.6962061, 33.0936878], [130.6961877, 33.0934793], [130.6961879, 33.0933408], [130.696213, 33.0931836], [130.6962541, 33.0930343], [130.6963471, 33.0928307], [130.6965015, 33.0925696], [130.696754, 33.0921769], [130.6968744, 33.0919901], [130.6970288, 33.0917448], [130.6971489, 33.0915376], [130.6972261, 33.0913715], [130.6972643, 33.0911902], [130.6972874, 33.0910415], [130.6972903, 33.0909388], [130.6972881, 33.0908064], [130.697281, 33.0906454], [130.6972494, 33.0904164], [130.6971744, 33.0901677], [130.6970028, 33.0895966], [130.6968251, 33.0890361], [130.6966874, 33.0886097], [130.6965374, 33.0881456], [130.6964446, 33.0878678], [130.6963426, 33.087573], [130.6960476, 33.0866539], [130.6959823, 33.0864581], [130.6957001, 33.0855606], [130.6955055, 33.0849961], [130.6954033, 33.0846546], [130.695128, 33.0838066], [130.6949347, 33.0832192], [130.694602, 33.082448], [130.694257, 33.081365], [130.694083, 33.080858], [130.694083, 33.080852], [130.693822, 33.079978], [130.693627, 33.07932], [130.69318, 33.077826], [130.692952, 33.077066], [130.692725, 33.076321], [130.692637, 33.076023], [130.692588, 33.0758643], [130.692557, 33.075764], [130.692383, 33.075166], [130.692296, 33.074755], [130.6922881, 33.0746573], [130.692264, 33.074432], [130.692264, 33.074377], [130.6923364, 33.074206], [130.692372, 33.0740434], [130.6927485, 33.0722023], [130.6928607, 33.0717228], [130.6929677, 33.0714361], [130.6931481, 33.071078], [130.6934882, 33.0704532], [130.6936627, 33.0701504], [130.6941446, 33.0693419], [130.694397, 33.0690472], [130.6946238, 33.0688548], [130.6949292, 33.0686069], [130.695194, 33.06838], [130.695368, 33.068222], [130.695602, 33.067907], [130.695669, 33.067794], [130.695729, 33.067654], [130.695769, 33.067507], [130.695769, 33.067293], [130.695736, 33.067051], [130.695669, 33.066797], [130.695589, 33.066605], [130.6951704, 33.0656685], [130.6947773, 33.0648727], [130.6943275, 33.0639851], [130.6938011, 33.0629119], [130.6932905, 33.0619331], [130.6928343, 33.061062], [130.691718, 33.058893], [130.691334, 33.058128], [130.6907172, 33.056956], [130.6906907, 33.0569119], [130.6902858, 33.0560957], [130.690076, 33.055625], [130.689949, 33.055382], [130.6898117, 33.0551902], [130.6896533, 33.0549033], [130.6894937, 33.0546808], [130.6893723, 33.0545282], [130.6892157, 33.0543774], [130.6889313, 33.054159], [130.6885037, 33.0538735], [130.6881021, 33.0536017], [130.6878892, 33.0534028], [130.6876835, 33.0531944], [130.687576, 33.053045], [130.687435, 33.052803], [130.687342, 33.052583], [130.687295, 33.052437], [130.687268, 33.052245], [130.687268, 33.051879], [130.6873, 33.05176], [130.68735, 33.051618], [130.687375, 33.051525], [130.687643, 33.050729], [130.6876733, 33.0506293], [130.68789, 33.049917], [130.6878985, 33.0497695], [130.6878862, 33.0494093], [130.6878699, 33.0492727], [130.6878106, 33.0491265], [130.6876906, 33.0488285], [130.6876466, 33.0487435], [130.6876236, 33.0486985], [130.6874496, 33.0484845], [130.6873296, 33.0483825], [130.687108, 33.048204], [130.686847, 33.048074], [130.686506, 33.047905], [130.686405, 33.04786], [130.685917, 33.047703], [130.685489, 33.047544], [130.685274, 33.047454], [130.6852, 33.047426], [130.684852, 33.047257], [130.684732, 33.047178], [130.684419, 33.046896], [130.6841855, 33.0466626], [130.684037, 33.046491], [130.683864, 33.046259], [130.68367, 33.045949], [130.683429, 33.045488], [130.683369, 33.045347], [130.683307, 33.045239], [130.682498, 33.043621], [130.682359, 33.043249], [130.682279, 33.042956], [130.682245, 33.042748], [130.682225, 33.041875], [130.682232, 33.039508], [130.682232, 33.037958], [130.682232, 33.037642], [130.682245, 33.037231], [130.682245, 33.036121], [130.682258, 33.035552], [130.6822564, 33.0353168], [130.6822561, 33.0352782], [130.682258, 33.03505], [130.682238, 33.034002], [130.6822318, 33.0335995], [130.6822296, 33.0334909], [130.6822302, 33.0334309], [130.682232, 33.033269], [130.682225, 33.032632], [130.682212, 33.03226], [130.6822021, 33.0316829], [130.682193, 33.031148], [130.6821855, 33.0305651], [130.6821593, 33.0296882], [130.6821376, 33.0289632], [130.6821451, 33.0286148], [130.6821564, 33.0283945], [130.6822832, 33.0272826], [130.6823124, 33.0270345], [130.682359, 33.026754], [130.682399, 33.026461], [130.682419, 33.026331], [130.682513, 33.025621], [130.682533, 33.025514], [130.6826862, 33.0241996], [130.6827974, 33.0234173], [130.6830454, 33.0217102], [130.6832016, 33.0206561], [130.6832799, 33.0201711], [130.6833031, 33.0199821], [130.6833491, 33.0196722], [130.6834063, 33.019318], [130.6834299, 33.0192282], [130.6834784, 33.019044], [130.6835415, 33.0187861], [130.683556, 33.018727], [130.6836876, 33.0182966], [130.6837141, 33.0182143], [130.6839951, 33.017342], [130.6839995, 33.0173283], [130.6843785, 33.0161763], [130.6844282, 33.0160115], [130.6844721, 33.0158765], [130.68471, 33.0151491], [130.6848747, 33.0146394], [130.6849835, 33.0142731], [130.6850164, 33.0141622], [130.6851247, 33.0141858], [130.6854882, 33.0142649], [130.6855952, 33.0142882], [130.6866482, 33.0145102], [130.6871618, 33.0146315], [130.6872337, 33.0146425], [130.6874418, 33.0146619], [130.6875296, 33.0146669], [130.6885023, 33.0147257], [130.6886105, 33.0147322], [130.6887173, 33.0147383], [130.6892264, 33.014768], [130.6904351, 33.0148367], [130.6911235, 33.0148758], [130.6916406, 33.0148972], [130.6923044, 33.0149427], [130.6924957, 33.0149549], [130.6932401, 33.0149326], [130.6937837, 33.0148677], [130.6943498, 33.0147738], [130.6948605, 33.014693], [130.6956721, 33.014538], [130.696453, 33.0143732], [130.6979988, 33.01407], [130.698941, 33.013887], [130.699971, 33.013589], [130.700165, 33.013521], [130.700326, 33.01347], [130.70064, 33.013346], [130.700754, 33.013307], [130.701082, 33.013172], [130.701409, 33.013048], [130.701735, 33.0129099], [130.702045, 33.012749], [130.7022382, 33.0126294], [130.702465, 33.012489], [130.7027178, 33.0123023], [130.70284, 33.012212], [130.703121, 33.011987], [130.703796, 33.011424], [130.703953, 33.0112889], [130.7039743, 33.0112706], [130.7043529, 33.010945], [130.704607, 33.0107264], [130.7051713, 33.0102125], [130.7053378, 33.0100619], [130.7054295, 33.0099944], [130.7057331, 33.0097651], [130.7057799, 33.0097288], [130.7061157, 33.0095854], [130.7063194, 33.0095346], [130.7068821, 33.0094326], [130.7069983, 33.0094067], [130.7077624, 33.0092661], [130.708011, 33.0092204], [130.7085425, 33.0091287], [130.709282, 33.009001], [130.709516, 33.008939], [130.7102401, 33.0087586], [130.7102565, 33.0087545], [130.7108707, 33.0085677], [130.7109841, 33.0085332], [130.7111798, 33.0084687], [130.7119002, 33.0081815], [130.712403, 33.0079811], [130.712774, 33.007835], [130.714199, 33.007237], [130.714801, 33.006978], [130.714921, 33.006939], [130.7153375, 33.0067634], [130.715763, 33.006584], [130.716492, 33.006279], [130.7168094, 33.0061527], [130.716833, 33.006144], [130.717723, 33.005772], [130.717863, 33.005721], [130.718412, 33.00549], [130.7190505, 33.0052486], [130.7196407, 33.0050908], [130.7203575, 33.004946], [130.72058, 33.0049067], [130.721918, 33.004683], [130.7222192, 33.0046093], [130.7231002, 33.0043685], [130.7241951, 33.0040944], [130.7242241, 33.0040871], [130.7246946, 33.0039696], [130.725122, 33.0038628], [130.7252794, 33.0038195], [130.7256564, 33.0037225], [130.725737, 33.0037018], [130.7271515, 33.0033159], [130.727796, 33.0032053], [130.7279662, 33.0031783], [130.7302431, 33.0028719], [130.7330446, 33.0024771], [130.7332101, 33.0024543], [130.73479, 33.0022363], [130.7352046, 33.0022004], [130.7374296, 33.0020076], [130.7378171, 33.0019654], [130.7384459, 33.0018969], [130.7386323, 33.0018766], [130.7402402, 33.0017016], [130.7416564, 33.0015474], [130.7422478, 33.0014834], [130.7424355, 33.0014563], [130.7425966, 33.0014272], [130.7427246, 33.001405], [130.743145, 33.001332], [130.74336, 33.001286], [130.7434003, 33.0012742], [130.743667, 33.001196], [130.743947, 33.001089], [130.7444617, 33.0009119], [130.7445967, 33.0008655], [130.74511, 33.000689], [130.745251, 33.000637], [130.745492, 33.00052], [130.745633, 33.000436], [130.745813, 33.000283], [130.745913, 33.000176], [130.746027, 33.000019], [130.7460455, 32.999993], [130.7461279, 32.9998592], [130.7463474, 32.9994654], [130.7465057, 32.9991942], [130.7466161, 32.9990046], [130.7467734, 32.9987403], [130.7469349, 32.9984632], [130.7470719, 32.9982376], [130.7472465, 32.99794], [130.747439, 32.9976165], [130.7475905, 32.9973667], [130.7476598, 32.9972576], [130.7478461, 32.996931], [130.7480302, 32.996615], [130.7480744, 32.9965002], [130.7481365, 32.9962611], [130.7482063, 32.9960961], [130.7482423, 32.9960252], [130.7482901, 32.9959464], [130.7484065, 32.9957504], [130.7485622, 32.9954916], [130.7486691, 32.9953236], [130.748735, 32.9952173], [130.7491128, 32.994597], [130.7495279, 32.9939054], [130.750101, 32.9929474], [130.7505714, 32.9921125], [130.7506478, 32.9919836], [130.7508721, 32.9916022], [130.7512063, 32.991052], [130.7512578, 32.9909677], [130.7513709, 32.9907829], [130.7516506, 32.9903257], [130.7517423, 32.9901796], [130.7519318, 32.9898962], [130.7520521, 32.989716], [130.7526979, 32.9887877], [130.7529827, 32.9884107], [130.753192, 32.9881606], [130.7533392, 32.9880018], [130.75369, 32.9876374], [130.7539987, 32.9873435], [130.7542652, 32.9870941], [130.7545192, 32.9868754], [130.7546718, 32.9867501], [130.7547607, 32.986684], [130.7553484, 32.986233], [130.7555659, 32.9860735], [130.7557311, 32.9859414], [130.7562755, 32.9854767], [130.7563149, 32.9854323], [130.7565648, 32.9852022], [130.7566856, 32.9850757], [130.756845, 32.9849094], [130.7571685, 32.9845677], [130.7573986, 32.9843445], [130.7578451, 32.983988], [130.7580455, 32.9838878], [130.7577767, 32.9841418], [130.7574601, 32.984422], [130.7572528, 32.9846452], [130.7569339, 32.984963], [130.756763, 32.9851395], [130.7566333, 32.9852614], [130.7563798, 32.9854984], [130.7563336, 32.985535], [130.7557864, 32.9859951], [130.7556205, 32.9861283], [130.7553836, 32.9863114], [130.7547965, 32.9867553], [130.7546814, 32.9868441], [130.7545567, 32.9869427], [130.7541577, 32.9873034], [130.7536876, 32.9877729], [130.7532614, 32.9882349], [130.7530763, 32.9884527], [130.7529474, 32.9886135], [130.7527925, 32.9888276], [130.7521261, 32.9897584], [130.7518414, 32.9902001], [130.7514631, 32.9908361], [130.7513585, 32.9910054], [130.7513065, 32.9910884], [130.7510304, 32.9915472], [130.7507313, 32.9920573], [130.750711, 32.992091], [130.7503966, 32.9926136], [130.7501634, 32.9930018], [130.7498718, 32.9934951], [130.7494202, 32.9942515], [130.7491425, 32.9947148], [130.749016, 32.994926], [130.7488255, 32.9952441], [130.7485002, 32.9957804], [130.7483789, 32.9959881], [130.7483348, 32.9960617], [130.7482398, 32.9962201], [130.7481813, 32.9963603], [130.7481593, 32.9964172], [130.7481258, 32.9965038], [130.7480714, 32.9966262], [130.7479884, 32.996768], [130.7478736, 32.9969644], [130.7476598, 32.9972576]], [[130.7580455, 32.9838878], [130.7582086, 32.9837733], [130.7587668, 32.9834113], [130.7600163, 32.9827606], [130.760933, 32.982278], [130.7618663, 32.9817843], [130.7623702, 32.9815182], [130.7627902, 32.9813192], [130.763038, 32.9812285], [130.763416, 32.9811141], [130.7639057, 32.9810203], [130.7642507, 32.9809927], [130.7645058, 32.9809872], [130.7657185, 32.9810092], [130.7676068, 32.9810537], [130.769598, 32.9811176], [130.7699086, 32.981104], [130.7702709, 32.9810389], [130.7710494, 32.9808488], [130.7720661, 32.9805964], [130.7727164, 32.9804249], [130.7732011, 32.9803009], [130.7739512, 32.9801055], [130.774252, 32.9800322], [130.7754067, 32.9797424], [130.7764475, 32.9795058], [130.7770995, 32.9793721], [130.7776679, 32.9792608], [130.777929, 32.9792299], [130.7782132, 32.9792283], [130.7790831, 32.979335], [130.7793387, 32.9793639], [130.7796125, 32.9793828], [130.7798108, 32.979364], [130.7800496, 32.9792987], [130.7802374, 32.9792022], [130.7803262, 32.9791269], [130.780425, 32.9790301], [130.7805109, 32.9789242], [130.7807532, 32.9785636], [130.7808686, 32.9783791], [130.7808924, 32.9783367], [130.7810805, 32.9780614], [130.7812342, 32.9778132], [130.7814267, 32.9775144], [130.7815544, 32.9773802], [130.781703, 32.9772463], [130.7817655, 32.9771969], [130.781832, 32.9771524], [130.7819058, 32.9771107], [130.7819765, 32.9770718], [130.7820842, 32.9770252], [130.7822146, 32.9769805], [130.7823403, 32.9769476], [130.782471, 32.9769233], [130.7826018, 32.9769071], [130.7827306, 32.9769004], [130.782994, 32.9769098], [130.7835253, 32.9769293], [130.7843017, 32.976948], [130.7865919, 32.9769978], [130.7880908, 32.9770355], [130.7886828, 32.9770475], [130.7896187, 32.9770747], [130.7899298, 32.9770815], [130.7901633, 32.9770867], [130.7908122, 32.9771009], [130.7916757, 32.9771186], [130.7917804, 32.977121], [130.7928122, 32.9771446], [130.7931026, 32.9771475], [130.793326, 32.9771381], [130.7935278, 32.977122], [130.7946421, 32.9770247], [130.7950823, 32.9769835], [130.7954942, 32.9769324], [130.7961452, 32.9768692], [130.797328, 32.9767508], [130.7981656, 32.976668], [130.798638, 32.9766256], [130.7990243, 32.9766021], [130.7993291, 32.9765928], [130.7996419, 32.976591], [130.799926, 32.9765923], [130.8003753, 32.9766114], [130.8007684, 32.976633], [130.8012365, 32.9766569], [130.8015674, 32.9766889], [130.8018579, 32.9767352], [130.8021535, 32.9768018], [130.8024377, 32.9768851], [130.8026495, 32.9769527], [130.8028068, 32.9770184], [130.8028656, 32.9770436], [130.8039335, 32.9774972], [130.8046653, 32.9778138], [130.8047208, 32.9778378], [130.8048314, 32.9778856], [130.80506, 32.9779815], [130.805321, 32.9780909], [130.8053779, 32.9781148], [130.8057959, 32.9782906], [130.8064236, 32.9785546], [130.8065329, 32.9785991], [130.8065838, 32.9784995], [130.8067128, 32.9782473], [130.8067653, 32.9780998], [130.806792, 32.9780344], [130.8068856, 32.977824], [130.8069179, 32.9777507], [130.8069585, 32.9776649], [130.8069931, 32.9775917], [130.8070542, 32.9774665], [130.8071432, 32.9772885], [130.8071836, 32.9772032], [130.8072066, 32.9771505], [130.8073158, 32.9769122], [130.8074436, 32.9766452], [130.8075579, 32.9764065], [130.8076632, 32.9761838], [130.8077522, 32.9759957], [130.8077754, 32.9759467], [130.807961, 32.9755505], [130.8080625, 32.9753339], [130.8082761, 32.9748831], [130.8083384, 32.9747534], [130.8084, 32.9746104], [130.8085364, 32.9743281], [130.8087489, 32.9738884], [130.8091041, 32.9731479], [130.8093213, 32.9727027], [130.809425, 32.9724902], [130.8095492, 32.9722874], [130.8100754, 32.9714283], [130.8112288, 32.9695584], [130.8113599, 32.9693424], [130.812015, 32.9683034], [130.812402, 32.9676218], [130.8134207, 32.9659258], [130.8138879, 32.9651623], [130.8140399, 32.9649065], [130.8144617, 32.9642154], [130.8144916, 32.964173], [130.8151833, 32.9633372]], [[130.8161057, 32.9622994], [130.8159975, 32.9622757], [130.815756, 32.9623534], [130.8154128, 32.9628761], [130.815266, 32.9631218]], [[130.81612, 32.9618117], [130.8161994, 32.9616941], [130.8163132, 32.9615374], [130.8166057, 32.9611872], [130.8166819, 32.9611096], [130.8169207, 32.9608727], [130.8171404, 32.9606824], [130.8174168, 32.9604582], [130.8179115, 32.9600969], [130.8181156, 32.9599736], [130.8187521, 32.9596181], [130.8188199, 32.959578], [130.8196521, 32.9591007], [130.8196798, 32.9590861], [130.8197933, 32.9590204], [130.8203099, 32.9587183], [130.8205931, 32.9585423]], [[130.8138879, 32.9651623], [130.8142665, 32.9646052], [130.8145313, 32.9642431], [130.8149189, 32.9637635], [130.8152466, 32.9633925], [130.8157442, 32.9630169], [130.8159652, 32.9628771], [130.816176, 32.9627687], [130.8163474, 32.9626783], [130.8164616, 32.9626375], [130.8167472, 32.9625348], [130.8170464, 32.9624464], [130.8173523, 32.9623722], [130.8177025, 32.9622981], [130.8182635, 32.9621839], [130.8186001, 32.9621041], [130.8188755, 32.9620271], [130.8190931, 32.96195], [130.8193685, 32.9618331], [130.8196711, 32.9616819], [130.8199294, 32.9615136], [130.8201776, 32.9613196], [130.8203986, 32.9611142], [130.8205754, 32.9609317], [130.8207284, 32.9607377], [130.8208882, 32.9604981], [130.821031, 32.9602299], [130.8211398, 32.9599646], [130.8212656, 32.9595966], [130.8215157, 32.9587199]], [[130.9830593, 32.8799106], [130.9836954, 32.880173], [130.984211, 32.8804344], [130.9846006, 32.8806486], [130.9848662, 32.8808155], [130.9850794, 32.8809358], [130.9849081, 32.8807945], [130.9845398, 32.8805535], [130.984169, 32.8803386], [130.9837364, 32.8801203], [130.9831002, 32.8798442], [130.9827481, 32.8797177], [130.9823691, 32.8795537], [130.9816878, 32.8793313], [130.9812371, 32.8792088], [130.9809435, 32.8791356], [130.980251, 32.8790069], [130.9795883, 32.8788929], [130.9789416, 32.8787561], [130.9779064, 32.8785322], [130.9757552, 32.8780732], [130.9751849, 32.8779427], [130.9749021, 32.8778905], [130.9744849, 32.8778261], [130.9737956, 32.8777591], [130.9720607, 32.8775606], [130.9718242, 32.8775399], [130.9715798, 32.8775378], [130.9714546, 32.8775407], [130.9712468, 32.8775684], [130.9710001, 32.8776108], [130.9704488, 32.877732], [130.9697994, 32.8778738], [130.9695601, 32.8779299], [130.9687874, 32.8780914], [130.9683749, 32.8781801], [130.9679248, 32.8782891], [130.9678373, 32.8783103], [130.967166, 32.8784963], [130.9665509, 32.8786799], [130.9659551, 32.8788607], [130.9656697, 32.8789265], [130.9653373, 32.8789801], [130.9650409, 32.8790061], [130.9641231, 32.8790929], [130.9632769, 32.8791583], [130.9630356, 32.8791701], [130.9628121, 32.8791671], [130.9625662, 32.8791465], [130.9623665, 32.8791138], [130.9622284, 32.879087], [130.9620944, 32.8790545], [130.9613526, 32.8788286], [130.9598859, 32.8783639], [130.9591708, 32.8781317], [130.9585403, 32.8779313], [130.9579292, 32.8777506], [130.9572444, 32.877554], [130.9571652, 32.8775313], [130.9564676, 32.8773523], [130.9563347, 32.8773182], [130.9557456, 32.8771759], [130.9549858, 32.8769856], [130.954635, 32.8768929], [130.9543021, 32.876806], [130.9539424, 32.8767416], [130.953389, 32.8766846], [130.9527913, 32.8766402], [130.9520453, 32.8766197], [130.9513445, 32.8766195], [130.9507732, 32.8765997], [130.9503956, 32.8765787], [130.9502316, 32.8765604], [130.9500507, 32.876533], [130.9484301, 32.8762121], [130.9483317, 32.8761932], [130.9476373, 32.8760603], [130.9471426, 32.8760208], [130.9466769, 32.8760454], [130.9462607, 32.8760965], [130.9458477, 32.8761875], [130.944604, 32.8765088], [130.9439884, 32.8766745], [130.9435415, 32.8767797], [130.9432794, 32.8768227], [130.9430057, 32.8768343], [130.9425425, 32.8767837], [130.9414965, 32.8766306], [130.940637, 32.876486], [130.9393794, 32.8762235], [130.9381064, 32.8760179], [130.9376008, 32.8759429], [130.9372702, 32.8759119], [130.9369486, 32.8759047], [130.9365343, 32.875927], [130.9359799, 32.8760078], [130.9355955, 32.8760537], [130.9351803, 32.876065], [130.934933, 32.8760521], [130.9347414, 32.8760281], [130.9345277, 32.8759875], [130.9343017, 32.8759302], [130.9335123, 32.8756677], [130.9329933, 32.8755188], [130.93248, 32.8754209], [130.9319945, 32.8753541], [130.9315736, 32.8753113], [130.9312327, 32.8753132], [130.9309598, 32.8753241], [130.9306879, 32.8753553], [130.9304226, 32.875401], [130.9300713, 32.8754855], [130.9296369, 32.8756321], [130.929199, 32.8757708], [130.9289394, 32.8758311], [130.9285451, 32.8758853], [130.9281506, 32.8759108], [130.9279412, 32.8759084], [130.9275611, 32.8759228], [130.9272111, 32.8759323], [130.9269096, 32.8759565], [130.9266424, 32.8759923], [130.9260648, 32.8761269], [130.9251385, 32.8763783], [130.9245276, 32.8765285], [130.9235335, 32.8767115], [130.9225413, 32.8768941], [130.9216486, 32.8770584], [130.9213605, 32.8771115], [130.9202857, 32.8773049], [130.9186953, 32.877591], [130.9182932, 32.8776597], [130.9179405, 32.8777199], [130.9177652, 32.8777499], [130.9172451, 32.8778619], [130.9157949, 32.878201], [130.9151986, 32.8783441], [130.9146672, 32.8784632], [130.9142212, 32.8785633], [130.9131219, 32.8788234], [130.9106924, 32.8792094], [130.9089606, 32.8794722], [130.9084283, 32.8795219], [130.9079621, 32.8795554], [130.9067531, 32.8796286], [130.9060125, 32.8796385], [130.9053435, 32.8796475], [130.9049398, 32.8796542], [130.9042915, 32.8796753], [130.9040472, 32.8797], [130.9036074, 32.8797585], [130.9024808, 32.8799297], [130.9013844, 32.8801127], [130.9011746, 32.8801448], [130.9008058, 32.880182], [130.9007025, 32.880191], [130.9001339, 32.8802383], [130.8993655, 32.8802654], [130.8982416, 32.8802856], [130.8975389, 32.8803194], [130.8966177, 32.880343], [130.8960865, 32.8803633], [130.8956725, 32.8803808], [130.8953674, 32.8803905], [130.8953033, 32.8803926], [130.8952228, 32.8803927], [130.8951835, 32.8803928], [130.8946649, 32.8803937], [130.8939384, 32.8803734], [130.8933184, 32.8803566], [130.8924525, 32.8803239], [130.8920522, 32.8803052], [130.8917924, 32.8802931], [130.8916085, 32.8802845], [130.8911861, 32.8802485], [130.8907328, 32.8802124], [130.890364, 32.8801572], [130.8901906, 32.8801246], [130.8899751, 32.880084], [130.8897298, 32.8800225], [130.8892698, 32.8798761], [130.8890418, 32.8797916], [130.8886207, 32.8795934], [130.8885599, 32.8795565], [130.8877329, 32.8790855], [130.8866014, 32.8784238], [130.8857038, 32.8779096], [130.8851759, 32.8776031], [130.8845705, 32.8772684], [130.8843526, 32.8771527], [130.88342, 32.8766756], [130.883262, 32.8766031], [130.882921, 32.8764559], [130.8824585, 32.8762684], [130.8823237, 32.876221], [130.8820094, 32.8761103], [130.8815638, 32.8759656], [130.8810059, 32.8758203], [130.8807112, 32.8757569], [130.8804145, 32.875693], [130.879929, 32.8756176], [130.879414, 32.8755624], [130.8788628, 32.8755275], [130.8784187, 32.8755061], [130.8777355, 32.8754938], [130.8771643, 32.8754979], [130.8769005, 32.8754969], [130.8766366, 32.8754959], [130.8762651, 32.8755049], [130.8753572, 32.8754994], [130.8748946, 32.8754966], [130.8745914, 32.8754948], [130.8739479, 32.8754927], [130.8736777, 32.8754918], [130.8731431, 32.87549], [130.8720084, 32.8754869], [130.8703688, 32.8754917], [130.8702886, 32.875491], [130.8693325, 32.875483], [130.865706, 32.8755043], [130.8645801, 32.8754931], [130.863463, 32.8754936], [130.8633172, 32.8754937], [130.8623795, 32.8754941], [130.8615101, 32.875495], [130.860413, 32.875494], [130.8593132, 32.8754974], [130.8579311, 32.8754886], [130.8573245, 32.8754847], [130.8568027, 32.875477], [130.8564527, 32.8754628], [130.8555486, 32.8754533], [130.8555501, 32.8753424], [130.8555505, 32.8753085], [130.8555512, 32.875193], [130.8555485, 32.8750713], [130.8555271, 32.874988], [130.8554976, 32.8749204], [130.8554359, 32.8748325], [130.8553742, 32.8747717], [130.8553125, 32.8747312], [130.855232, 32.8746861], [130.8551301, 32.8746726], [130.8549906, 32.8746523], [130.8548834, 32.8746478], [130.8547931, 32.8746425], [130.8546251, 32.8746325], [130.8545422, 32.8746326], [130.854534, 32.8747242], [130.854534, 32.8749083], [130.854534, 32.8749481], [130.8545242, 32.8753814], [130.854516, 32.875698], [130.8545025, 32.8762], [130.8545018, 32.8764715], [130.8544868, 32.8767369], [130.8544863, 32.8768938], [130.8544754, 32.8771076], [130.8544558, 32.8781329], [130.854454, 32.878238], [130.8544538, 32.8782637], [130.8544505, 32.8787129], [130.8544475, 32.8791192], [130.8544193, 32.8808933], [130.8544084, 32.882315], [130.8543689, 32.8845416], [130.8543734, 32.8852073], [130.8543645, 32.8862989], [130.8543495, 32.8869304], [130.8543229, 32.8877661], [130.8543013, 32.8890323], [130.8542505, 32.8920132], [130.8542454, 32.8921444], [130.8541971, 32.8927889], [130.8540643, 32.8938731], [130.8540511, 32.8939637], [130.8540139, 32.8942861], [130.8539158, 32.8950017], [130.8537541, 32.8959021], [130.8533107, 32.8983544], [130.8532546, 32.8985666], [130.8531559, 32.8990173], [130.8530787, 32.8995175], [130.852874, 32.900705], [130.85272, 32.901474], [130.852562, 32.902275], [130.8523869, 32.9029813], [130.8522244, 32.9034435], [130.8520526, 32.9037876], [130.8519089, 32.9040494], [130.8516533, 32.9044556], [130.8514617, 32.9047319], [130.8512084, 32.9050172], [130.8509696, 32.9052079], [130.8506177, 32.90553], [130.8502393, 32.9058327], [130.8498551, 32.9061577], [130.8490678, 32.9067989], [130.8485156, 32.9072535], [130.8478173, 32.9078207], [130.8475868, 32.9080004], [130.8472888, 32.9082593], [130.8458892, 32.9094395], [130.8453344, 32.9099768], [130.8445964, 32.9106976], [130.843912, 32.9114364], [130.8431243, 32.9123209], [130.8424699, 32.9130722], [130.8418758, 32.9137495], [130.840982, 32.9147758], [130.8404244, 32.9154388], [130.839802, 32.9162047], [130.8396244, 32.9164233], [130.8392666, 32.9168436], [130.8387576, 32.9175254], [130.8381381, 32.9182925], [130.8376577, 32.9189052], [130.8371745, 32.9195107], [130.8366919, 32.92013], [130.836493, 32.9203816], [130.8362859, 32.9206435], [130.8358084, 32.9212544], [130.8357667, 32.9213068], [130.8355956, 32.921522], [130.8351614, 32.922079], [130.8347005, 32.9226656], [130.8342895, 32.923211], [130.8342779, 32.9232263], [130.8339309, 32.9237669], [130.8337247, 32.924109], [130.8335256, 32.924491], [130.8332998, 32.9249687], [130.8331253, 32.925384], [130.8329363, 32.9258592], [130.8327863, 32.9262473], [130.8327509, 32.9263362], [130.8325526, 32.9268345], [130.8323949, 32.9272394], [130.8321357, 32.9278825], [130.8318273, 32.928659], [130.8315464, 32.9293862], [130.8313396, 32.9299324], [130.8311343, 32.9304354], [130.8309748, 32.9308362], [130.8309237, 32.9309644], [130.8305075, 32.9320329], [130.8301831, 32.9328323], [130.8298262, 32.9337424], [130.829478, 32.9346449], [130.8290897, 32.9356012], [130.8289561, 32.9359153], [130.8287116, 32.9365034], [130.8284772, 32.9369562], [130.8283495, 32.9371765], [130.8281703, 32.9374731], [130.8278768, 32.9379053], [130.8276053, 32.9382585], [130.827032, 32.9389516], [130.8268218, 32.9392148], [130.8265868, 32.9394993], [130.8259883, 32.9402395], [130.8257739, 32.9404784], [130.8255097, 32.9408192], [130.8252442, 32.9411428], [130.825103, 32.9413108], [130.8247013, 32.9418736], [130.8244499, 32.9422428], [130.8241724, 32.9426251], [130.8237866, 32.943113], [130.8233724, 32.9436048], [130.8231373, 32.9438941], [130.8227168, 32.9444625], [130.8226403, 32.9445956], [130.8225271, 32.9448529], [130.822442, 32.9451277], [130.8223814, 32.9453688], [130.8223646, 32.9455282], [130.8223524, 32.9457392], [130.8223592, 32.9458508], [130.8223869, 32.946072], [130.8224093, 32.9461891], [130.8224366, 32.9462905], [130.8225034, 32.9465189], [130.8227074, 32.9469847], [130.8229734, 32.9473971], [130.8233364, 32.9479122], [130.8234825, 32.9481829], [130.8236003, 32.9484935], [130.823659, 32.9487376], [130.8237262, 32.9492083], [130.8237873, 32.9495598], [130.8238613, 32.9498536], [130.823989, 32.9501572], [130.8242886, 32.9507985], [130.8243554, 32.9509876], [130.8243867, 32.9511727], [130.8243806, 32.9513736], [130.8243466, 32.9515432], [130.8243071, 32.9517239], [130.8241887, 32.9519726], [130.8240885, 32.9521024], [130.8239751, 32.9522266], [130.823826, 32.9523527], [130.8236347, 32.9524807], [130.8234395, 32.9525935], [130.8229494, 32.9528836], [130.8227628, 32.9529951], [130.8225929, 32.953124], [130.8224477, 32.9532418], [130.8223118, 32.953387], [130.8221289, 32.9536454], [130.8220335, 32.9538419], [130.8219633, 32.954028], [130.8219165, 32.9542219], [130.8218727, 32.9544524], [130.8218564, 32.9547048], [130.8218165, 32.9563296], [130.8217648, 32.9571715], [130.8217089, 32.9574509], [130.8216316, 32.9579285], [130.8214055, 32.9586966], [130.8213614, 32.9588657], [130.8211416, 32.9596635], [130.8210833, 32.9598568], [130.8209986, 32.9600902], [130.8209085, 32.9602835], [130.8207867, 32.9604902], [130.8206516, 32.9606924], [130.8204997, 32.9608886], [130.8204847, 32.960908], [130.8202755, 32.9611124], [130.8200636, 32.961308], [130.8198146, 32.9614902], [130.8195604, 32.9616457], [130.8192902, 32.9617857], [130.8190307, 32.9618924], [130.8186387, 32.9620169], [130.8184844, 32.9620555], [130.8182838, 32.9621058], [130.8178838, 32.9621835], [130.8173779, 32.9622813], [130.8170575, 32.9623613], [130.8167025, 32.9624591], [130.8164377, 32.9625524], [130.8162999, 32.9626097], [130.8160616, 32.9627235], [130.8157967, 32.9628702], [130.8156263, 32.9629907], [130.8154653, 32.9631074], [130.8153311, 32.9632119], [130.8151833, 32.9633372]], [[130.8215157, 32.9587199], [130.8217799, 32.9577889], [130.8218704, 32.9572583], [130.8219322, 32.9567577], [130.8219558, 32.9563987], [130.8219728, 32.9560136], [130.8219592, 32.9551406], [130.821972, 32.9544134], [130.8220127, 32.9541966], [130.8220381, 32.9540752], [130.8220728, 32.9539656], [130.822129, 32.9538417], [130.822204, 32.953706], [130.822275, 32.9535898], [130.8224069, 32.9534264], [130.8226167, 32.9532412], [130.8228377, 32.9530735], [130.8230571, 32.9529275], [130.8235077, 32.9526733], [130.8237354, 32.9525408], [130.8239631, 32.952373], [130.8241609, 32.9521833], [130.8243063, 32.9520052], [130.8244108, 32.9517806], [130.8244773, 32.9515976], [130.8245032, 32.951383], [130.824505, 32.951177], [130.8244726, 32.9509745], [130.8244192, 32.9507899], [130.8241169, 32.9501148], [130.8239892, 32.949818], [130.8239152, 32.94954], [130.8238622, 32.9491862], [130.8237896, 32.9486975], [130.8237014, 32.9484242], [130.8235916, 32.9481451], [130.8234402, 32.9478518], [130.8230931, 32.9473301], [130.8228182, 32.9469397], [130.8226102, 32.9465046], [130.8225335, 32.9463042], [130.8225107, 32.9461812], [130.8224925, 32.9460673], [130.822472, 32.9458429], [130.8224697, 32.9456823], [130.8224776, 32.9455194], [130.8224993, 32.9453315], [130.8225426, 32.9451333], [130.822636, 32.9448531], [130.8227613, 32.9446025], [130.8229002, 32.944377], [130.8231599, 32.9440398], [130.8234879, 32.9436594], [130.8238661, 32.9432061], [130.8241531, 32.9428325], [130.8242556, 32.9426776], [130.8243422, 32.9425569], [130.8245222, 32.9422949], [130.8248008, 32.9418946], [130.8250393, 32.9415591], [130.8253173, 32.9411902], [130.8266883, 32.9395396], [130.8269255, 32.9392498], [130.8271172, 32.9390143], [130.8277, 32.9383094], [130.8279815, 32.9379087], [130.8282467, 32.9375226], [130.8285707, 32.9369759], [130.8288047, 32.9365236], [130.8290617, 32.9359475], [130.8292037, 32.9356209], [130.829564, 32.9346668], [130.8299328, 32.9337721], [130.830299, 32.9328544], [130.8306142, 32.9320625], [130.8310304, 32.930994], [130.8312407, 32.9304656], [130.8314463, 32.929962], [130.8316536, 32.9294145], [130.8319195, 32.9286967], [130.8322411, 32.9278806], [130.8324865, 32.927264], [130.8326863, 32.9267597], [130.8328511, 32.9263623], [130.8330123, 32.9259079], [130.8331991, 32.9254393], [130.8333665, 32.9250428], [130.8335605, 32.9246196], [130.8338014, 32.9241456], [130.8340041, 32.9238114], [130.8343488, 32.923281], [130.8347636, 32.922728], [130.8352328, 32.9221321], [130.8357101, 32.9215224], [130.8362997, 32.920769], [130.8365655, 32.9204289], [130.83672, 32.9202312], [130.8372127, 32.9196122], [130.8376931, 32.9189974], [130.8382072, 32.9183484], [130.8388076, 32.917601], [130.8393702, 32.9168853], [130.839696, 32.9164487], [130.8398674, 32.9162474], [130.8405322, 32.9154664], [130.8411166, 32.9147628], [130.8415407, 32.9142776], [130.8420181, 32.9137439], [130.842686, 32.9129738], [130.8433713, 32.9121993], [130.8439795, 32.9114764], [130.844701, 32.9107005], [130.8454063, 32.9100147], [130.8459479, 32.9094889], [130.8470794, 32.9085441], [130.8473446, 32.9083287], [130.8476683, 32.9080779], [130.8477204, 32.908034], [130.8480906, 32.9077137], [130.8490455, 32.9069256], [130.8499628, 32.9061667], [130.8505475, 32.9056915], [130.8508613, 32.9054573], [130.8512695, 32.9050631], [130.8513736, 32.9049484], [130.8515909, 32.9047007], [130.8517679, 32.9044305], [130.8520227, 32.9040341], [130.8522132, 32.9036626], [130.8523607, 32.9033293], [130.8525002, 32.9028834], [130.8526323, 32.9023371], [130.852645, 32.9022844], [130.8527952, 32.9014781], [130.8529394, 32.9007101], [130.8533268, 32.8985466], [130.8535731, 32.8973659], [130.8539957, 32.8950137], [130.8540961, 32.8945091], [130.8541998, 32.8939668], [130.8542105, 32.8938795], [130.8542503, 32.8935451], [130.8542946, 32.8931352], [130.8543488, 32.8920181], [130.8543958, 32.8890323], [130.8544153, 32.8877939], [130.8544482, 32.8863026], [130.8544592, 32.885218], [130.8544662, 32.8845325], [130.8544904, 32.8831179], [130.8544987, 32.881111], [130.8545012, 32.8808887], [130.8545339, 32.8796875], [130.8545427, 32.8787629], [130.8545491, 32.8783736], [130.8545471, 32.8783122], [130.8545502, 32.8780059], [130.8545508, 32.8779117], [130.8545571, 32.8776842], [130.8545687, 32.8771162], [130.8545725, 32.8768492], [130.8545743, 32.8767319], [130.8545615, 32.8764704], [130.8545656, 32.8761955], [130.8545863, 32.8756978], [130.8545928, 32.875376], [130.8546075, 32.8749102], [130.8546133, 32.8747257], [130.8547399, 32.8747307], [130.8547917, 32.8747327], [130.8548035, 32.8747332], [130.8549942, 32.8747358], [130.855213, 32.8747778], [130.8553147, 32.8748301], [130.8554137, 32.8749255], [130.8554493, 32.875033], [130.85546, 32.8751119], [130.8554573, 32.8752358], [130.8554547, 32.8753033], [130.8554524, 32.8753426], [130.855446, 32.8754538], [130.8554938, 32.8755621], [130.8564438, 32.8755635], [130.856768, 32.8755663], [130.8579317, 32.8755762], [130.8604656, 32.8755695], [130.8615423, 32.8755667], [130.863319, 32.8755604], [130.8634613, 32.8755598], [130.8649783, 32.8755649], [130.8657062, 32.8755673], [130.8702832, 32.8755752], [130.8703391, 32.8755753], [130.8731328, 32.8755702], [130.8746113, 32.8755706], [130.8753585, 32.8755806], [130.8762109, 32.8755793], [130.8767096, 32.8755785], [130.87695, 32.8755795], [130.8772084, 32.8755806], [130.8784189, 32.8755823], [130.8789533, 32.8756114], [130.8795112, 32.8756531], [130.880284, 32.8757642], [130.8808671, 32.8758727], [130.8815283, 32.876036], [130.8822434, 32.8762777], [130.8823856, 32.8763311], [130.8827772, 32.8764843], [130.8831659, 32.8766422], [130.8833336, 32.8767192], [130.8842549, 32.8771854], [130.8844622, 32.8773012], [130.8851877, 32.8777379], [130.8865404, 32.8784911], [130.8883947, 32.8795681], [130.8887461, 32.8797416], [130.8889732, 32.8798568], [130.8892232, 32.8799469], [130.8898175, 32.880132], [130.8904203, 32.8802574], [130.8907038, 32.8802952], [130.8908012, 32.8803082], [130.8914313, 32.8803677], [130.892453, 32.8804167], [130.8932205, 32.8804557], [130.8939425, 32.8804667], [130.8952445, 32.880475], [130.8966606, 32.880431], [130.8982363, 32.8803656], [130.8993677, 32.8803462], [130.9001433, 32.880325], [130.900819, 32.8802709], [130.9013803, 32.8801901], [130.9028175, 32.8799703], [130.9038382, 32.8798158], [130.9042972, 32.8797637], [130.9047757, 32.879734], [130.9061118, 32.8797061], [130.9065493, 32.8796978], [130.9067439, 32.8796938], [130.9079661, 32.8796362], [130.908414, 32.8795922], [130.9088235, 32.87955], [130.90931, 32.8794934], [130.9106192, 32.8793084], [130.9131084, 32.8789154], [130.9140262, 32.8787102], [130.9145124, 32.8785731], [130.9151725, 32.8784097], [130.9158204, 32.8782531], [130.916549, 32.8780789], [130.9167708, 32.8780259], [130.9177415, 32.8778261], [130.9196476, 32.877481], [130.9202011, 32.8773838], [130.9218739, 32.8770899], [130.922555, 32.8769703], [130.9235223, 32.8767907], [130.9243631, 32.8766383], [130.9249599, 32.8765046], [130.9261805, 32.8761733], [130.9265971, 32.876094], [130.9268697, 32.8760581], [130.9272289, 32.8760154], [130.9277363, 32.8759887], [130.9279395, 32.8760043], [130.9281064, 32.8759998], [130.9284776, 32.875981], [130.9288751, 32.875932], [130.9291501, 32.8758652], [130.9301118, 32.8755621], [130.9304029, 32.8754773], [130.9306559, 32.8754354], [130.9309171, 32.8754055], [130.9311946, 32.8753921], [130.931557, 32.8753954], [130.9319163, 32.8754303], [130.9323818, 32.8755243], [130.9328627, 32.8756106], [130.9334556, 32.8757686], [130.9342558, 32.8759987], [130.9344896, 32.8760612], [130.9347125, 32.8761057], [130.934975, 32.8761322], [130.9352299, 32.8761529], [130.9355835, 32.876152], [130.935909, 32.8761446], [130.936236, 32.8760983], [130.9369321, 32.8760318], [130.9373325, 32.8760301], [130.9377651, 32.8760645], [130.938084, 32.8761015], [130.9393353, 32.8762944], [130.9405958, 32.8765493], [130.9412604, 32.8766666], [130.9423575, 32.8768333], [130.9431604, 32.8769477], [130.943638, 32.8769977], [130.9439979, 32.8770067], [130.9442809, 32.8769807], [130.9445362, 32.8769209], [130.944817, 32.8768275], [130.9450433, 32.8767222], [130.9452644, 32.8766082], [130.94553, 32.8764847], [130.9457533, 32.8763872], [130.9460175, 32.8763157], [130.9464259, 32.8762727], [130.9468773, 32.8762386], [130.9473218, 32.8762356], [130.9477278, 32.8762484], [130.9483978, 32.8763797], [130.9488167, 32.876457], [130.9489836, 32.8764867], [130.9497493, 32.8766227], [130.9499442, 32.8766587], [130.950396, 32.8767049], [130.9509215, 32.8767169], [130.9521375, 32.8767563], [130.9531362, 32.8767889], [130.9536773, 32.8768163], [130.9539927, 32.8768526], [130.9542043, 32.8768959], [130.9543756, 32.8769324], [130.9547044, 32.8770136], [130.954941, 32.8770725], [130.9571201, 32.8776085], [130.9576006, 32.8777478], [130.9578949, 32.8778309], [130.9590987, 32.8782096], [130.9596108, 32.8783775], [130.9612777, 32.8788976], [130.9619979, 32.8791177], [130.9622591, 32.8791948], [130.9625253, 32.8792437], [130.9627875, 32.8792591], [130.9630657, 32.8792603], [130.963344, 32.879241], [130.9649992, 32.8790997], [130.9653658, 32.8790574], [130.965745, 32.8790064], [130.9660497, 32.8789282], [130.9667951, 32.8787304], [130.9678031, 32.8784708], [130.9683233, 32.8783119], [130.9688261, 32.8781846], [130.9695934, 32.8780177], [130.969834, 32.8779666], [130.9703659, 32.8778591], [130.9708141, 32.8777598], [130.9710646, 32.8777085], [130.971277, 32.8776686], [130.9714655, 32.8776438], [130.9715771, 32.8776347], [130.9718311, 32.8776298], [130.9721221, 32.8776454], [130.9737818, 32.8778329], [130.9743017, 32.8778893], [130.9748606, 32.8779641], [130.9751278, 32.8780131], [130.9759193, 32.8781822], [130.9777154, 32.8785694], [130.9788709, 32.8788074], [130.97959, 32.8789665], [130.9802162, 32.8790817], [130.9804431, 32.8791234], [130.9810498, 32.8792521], [130.9813548, 32.8793319], [130.9817457, 32.8794413], [130.9823364, 32.8796193], [130.9830593, 32.8799106], [130.9831002, 32.8798442], [130.9831842, 32.8797077], [130.9832536, 32.8796083], [130.9833412, 32.8795179], [130.9834449, 32.8794321], [130.9836041, 32.8793346], [130.9838822, 32.8791852], [130.9843631, 32.8789141], [130.9851452, 32.8784824], [130.986162, 32.877913], [130.9884901, 32.876633], [130.9890818, 32.8763008], [130.9909613, 32.8752348], [130.9910818, 32.8751684], [130.9913104, 32.8750461], [130.9915226, 32.8749313], [130.9916004, 32.8748823], [130.9916935, 32.8748047], [130.9918233, 32.8746787], [130.9919467, 32.874523], [130.9920974, 32.8743146], [130.9922539, 32.8740287], [130.9925456, 32.873559], [130.992675, 32.8733371], [130.9927769, 32.8731625], [130.9929259, 32.8729415], [130.9932465, 32.8725142], [130.9937864, 32.8718613], [130.9939474, 32.8716732], [130.9941054, 32.8715248], [130.9944249, 32.8712636], [130.9948837, 32.8709486], [130.9951087, 32.8707814], [130.9955423, 32.8704875], [130.9962304, 32.8700501], [130.9968739, 32.8696605], [130.9972129, 32.8694679], [130.9974596, 32.8693503], [130.9979133, 32.8691528], [130.9984859, 32.8689167], [130.998792, 32.8687839], [130.9990389, 32.8686802], [130.9994132, 32.868515], [130.9995885, 32.8684193], [130.9997227, 32.8683254], [130.9998677, 32.8681891], [130.9999348, 32.8681054], [131.0000531, 32.8679055], [131.0001803, 32.8667131], [131.0002897, 32.8659088], [131.0004924, 32.864836], [131.000751, 32.8640254], [131.0014034, 32.8629192], [131.0017595, 32.8623041], [131.0022208, 32.8616823], [131.0029719, 32.8609883], [131.0036049, 32.8604476], [131.0040233, 32.8600691], [131.0046348, 32.8596545], [131.0052571, 32.8593391], [131.0058998, 32.8590503], [131.0065446, 32.8586091], [131.0070279, 32.858067], [131.0075413, 32.8575182], [131.0080895, 32.8572843], [131.00909, 32.8569719], [131.0093019, 32.8569058], [131.0099378, 32.8566673], [131.0104488, 32.8564997], [131.0113822, 32.8562744], [131.0119294, 32.8561753], [131.0124658, 32.8561753], [131.0129282, 32.8562839], [131.0134218, 32.856338], [131.0139357, 32.8563646], [131.0143337, 32.8563199], [131.0144036, 32.8563123], [131.0151341, 32.8561337], [131.0160171, 32.85595], [131.0166833, 32.8557702], [131.0170312, 32.8556586], [131.0172841, 32.8555268], [131.0175945, 32.855322], [131.0177766, 32.8552019], [131.0179316, 32.8550803], [131.0180731, 32.8549652], [131.0185376, 32.8546211], [131.0198376, 32.8536161], [131.0200825, 32.8534155], [131.0206959, 32.8529131], [131.0216819, 32.8521556], [131.0225402, 32.8517139], [131.0231082, 32.8514884], [131.0231303, 32.8514796], [131.0231885, 32.851455], [131.0249874, 32.8506959], [131.0255013, 32.850362], [131.0264251, 32.8496504], [131.0270415, 32.8492587], [131.0277441, 32.8489077], [131.0282061, 32.8486769], [131.0283262, 32.8486199], [131.03003, 32.8478117], [131.031178, 32.8472438], [131.0320352, 32.8469459], [131.0326907, 32.8467481], [131.0332057, 32.8466309], [131.034866, 32.8462758], [131.0368282, 32.8458259], [131.0379253, 32.8455578], [131.0385701, 32.8454411], [131.0395669, 32.8453235], [131.0403297, 32.8451527], [131.0411022, 32.8447876], [131.041821, 32.8444124], [131.0425943, 32.8440124], [131.0430557, 32.8438457], [131.0433369, 32.8437762], [131.0436396, 32.8437014], [131.0442097, 32.8435685], [131.0448688, 32.8433634], [131.0455815, 32.8430119], [131.0460895, 32.8426588], [131.0467928, 32.8420733], [131.0470567, 32.8418536], [131.0475996, 32.8414096], [131.0476575, 32.8413623], [131.0481519, 32.8409792], [131.0485113, 32.8407223], [131.0488377, 32.8405691], [131.0490107, 32.8404972], [131.0492186, 32.8404068], [131.0497987, 32.8401724], [131.0505436, 32.839884], [131.0508442, 32.8397654], [131.0511605, 32.8396406], [131.0511809, 32.8396351], [131.0517514, 32.8394828], [131.0522688, 32.8393752], [131.0523576, 32.8393726], [131.0530324, 32.8393296], [131.0540305, 32.8393161], [131.0544592, 32.839338], [131.0549923, 32.8393217], [131.0559432, 32.839118], [131.0560941, 32.839077], [131.0567486, 32.8388135], [131.0580463, 32.8382502], [131.0584641, 32.838065], [131.059942, 32.8374092], [131.0614264, 32.8367641], [131.0615458, 32.8367103], [131.0629985, 32.8360889], [131.0645125, 32.8355976], [131.0650642, 32.835417], [131.0652668, 32.8353391], [131.0662882, 32.8350477], [131.0664613, 32.835006], [131.0668544, 32.8349114], [131.0692351, 32.8343147], [131.0705282, 32.8339907], [131.0720748, 32.8336098], [131.0723596, 32.8335223], [131.0725554, 32.833466], [131.0727297, 32.8334029], [131.0728393, 32.8333492], [131.072877, 32.8333307], [131.0729979, 32.8332654], [131.073156, 32.8331653], [131.0737485, 32.8327422], [131.0743723, 32.8323027], [131.074633, 32.8321246], [131.0751073, 32.831897], [131.0754782, 32.8317753], [131.0756555, 32.8317284], [131.0756874, 32.8317246], [131.0760192, 32.8316851], [131.0769878, 32.8316708], [131.0772423, 32.8316671], [131.0780803, 32.8316619], [131.0783957, 32.8316536], [131.0801125, 32.8316493], [131.08111, 32.8315634], [131.0813241, 32.8315206], [131.0818565, 32.8314327], [131.0831077, 32.8311692], [131.083475, 32.831089], [131.08422, 32.8309326], [131.085332, 32.8306991], [131.0855089, 32.8306619], [131.0878048, 32.8302247], [131.0897489, 32.8299572], [131.0903694, 32.8298737], [131.0910617, 32.8298022], [131.0917735, 32.8296849], [131.0937325, 32.8294494], [131.0958259, 32.8291543], [131.0981484, 32.8288269], [131.0997589, 32.8286177], [131.1015346, 32.8283839], [131.1017134, 32.8283531], [131.10231, 32.8282143], [131.1031586, 32.8278627], [131.1039637, 32.8273928], [131.1048168, 32.8268949], [131.1052711, 32.8266455], [131.1054261, 32.8265401], [131.1066063, 32.825831], [131.1072411, 32.8254765], [131.1075134, 32.8253112], [131.1081582, 32.8250588], [131.1083694, 32.8249844], [131.1089736, 32.8249146], [131.109907, 32.8249007], [131.1115858, 32.8248758], [131.1127073, 32.8248469], [131.1132429, 32.824874], [131.1139311, 32.8249819], [131.1141227, 32.8250119], [131.1146666, 32.8251287], [131.1152626, 32.8252759], [131.1154079, 32.8253146], [131.1158024, 32.8254197], [131.1161721, 32.8255229], [131.1166817, 32.8255973], [131.1169194, 32.8256115], [131.1174345, 32.8256328], [131.1185317, 32.8256865], [131.1192451, 32.8257185], [131.1205634, 32.8257697], [131.1213539, 32.8258416], [131.1220376, 32.825895], [131.1225874, 32.8259687], [131.1230474, 32.8261193], [131.1234726, 32.8262574], [131.1236766, 32.8263341], [131.1238035, 32.8263818], [131.1240844, 32.8264449], [131.1242552, 32.8264833], [131.1246543, 32.8265742], [131.1253112, 32.8266598], [131.1258377, 32.8267154], [131.1270592, 32.8268962], [131.1281829, 32.827021], [131.1286037, 32.8271037], [131.1293064, 32.8272338], [131.1299037, 32.8273547], [131.1303045, 32.8274206], [131.1306234, 32.8274418], [131.1310858, 32.8274452], [131.1316695, 32.8273744], [131.1322375, 32.8272101], [131.1326085, 32.8270467], [131.132973, 32.8268247], [131.1333276, 32.8266095], [131.1335846, 32.8263442], [131.1338809, 32.826018], [131.1344129, 32.8255079], [131.1347092, 32.8252271], [131.135056, 32.8248453], [131.1351997, 32.824649], [131.135259, 32.8245067], [131.1352837, 32.8243907], [131.1352918, 32.8242915], [131.1352891, 32.8241585], [131.1352515, 32.8240233], [131.1351416, 32.8238114], [131.1349672, 32.8235387], [131.1345005, 32.8228152], [131.1341894, 32.8223621], [131.1341465, 32.8222877], [131.134015, 32.822042], [131.1339507, 32.8218933], [131.1338783, 32.8217129], [131.133812, 32.821482], [131.1337871, 32.821323], [131.133771, 32.8211156], [131.1337736, 32.8207956], [131.1338112, 32.8205476], [131.1338327, 32.8203132], [131.1339802, 32.8195581], [131.134057, 32.81893], [131.134247, 32.817988], [131.134363, 32.817338], [131.134527, 32.816538], [131.1348487, 32.8149979], [131.1348517, 32.8145971], [131.1348265, 32.8144497], [131.1347456, 32.8143211], [131.1345781, 32.8139784], [131.1344579, 32.8138393], [131.1343223, 32.8136427], [131.134267, 32.8134924], [131.1342529, 32.813314], [131.1343085, 32.8130931], [131.1343943, 32.8128957], [131.1348479, 32.8123217], [131.1352019, 32.8118979], [131.1353226, 32.8117649], [131.1354757, 32.8116448], [131.1355318, 32.8116026], [131.1357062, 32.8115079], [131.1358593, 32.8114598], [131.1360149, 32.8114129], [131.1361836, 32.8114318], [131.1363382, 32.8114583], [131.1364817, 32.8115083], [131.1366565, 32.8116095], [131.1367821, 32.8117353], [131.1368916, 32.8119183], [131.1369407, 32.8121015], [131.1369282, 32.8122179], [131.1368979, 32.8123554], [131.1368515, 32.8124989], [131.1367923, 32.8127087], [131.1367369, 32.812887], [131.1366902, 32.8130089], [131.1364375, 32.8138153], [131.1364488, 32.8139244], [131.1364988, 32.814092], [131.1365629, 32.8141769], [131.1366127, 32.814249], [131.1366887, 32.8143217], [131.136773, 32.814374], [131.137007, 32.814438], [131.137318, 32.814457], [131.138071, 32.814384], [131.138476, 32.814369], [131.1387515, 32.8144224], [131.1389127, 32.8144817], [131.1390197, 32.8145358], [131.1391921, 32.8146954], [131.1392306, 32.8148457], [131.1392749, 32.8150566], [131.1392679, 32.8151895], [131.1392128, 32.8153158], [131.1390068, 32.8154801], [131.1388713, 32.8155597], [131.138656, 32.8156531], [131.138395, 32.815813], [131.138192, 32.815995], [131.138106, 32.816133], [131.138064, 32.816272], [131.138042, 32.816444], [131.138071, 32.816581], [131.138176, 32.816791], [131.1382916, 32.8168995], [131.138403, 32.817004], [131.1385655, 32.8170634], [131.1386747, 32.8170944], [131.1388559, 32.8171204], [131.1390552, 32.8171234], [131.1392381, 32.817106], [131.139461, 32.8170407], [131.1396897, 32.8169624], [131.1399194, 32.8167984], [131.1401043, 32.8166618], [131.1402381, 32.8165059], [131.140286, 32.816437], [131.140426, 32.816227], [131.140602, 32.815917], [131.140665, 32.81582], [131.1408144, 32.8156196], [131.1408889, 32.81547], [131.1409217, 32.8153948], [131.1409473, 32.8152656], [131.1409437, 32.8151064], [131.1409151, 32.814975], [131.1408123, 32.8147845], [131.1406634, 32.8146362], [131.1401635, 32.8143344], [131.1399938, 32.814166], [131.1398453, 32.8139886], [131.1397975, 32.8138154], [131.1397869, 32.8137111], [131.1398384, 32.8135401], [131.1399028, 32.813386], [131.1404303, 32.8123425], [131.1406351, 32.8119061], [131.1407067, 32.8116648], [131.1407109, 32.8115238], [131.1406995, 32.8113868], [131.1405939, 32.8111763], [131.1404369, 32.8110341], [131.140192, 32.810902], [131.1395212, 32.8106525], [131.1393794, 32.810544], [131.139298, 32.810447], [131.1392172, 32.8103466], [131.1391881, 32.810236], [131.1391495, 32.809785], [131.1391, 32.809188], [131.1390597, 32.80837], [131.1390352, 32.8077932], [131.1390799, 32.8072454], [131.1391138, 32.8070619], [131.1391537, 32.8068597], [131.1392481, 32.8066404], [131.1393514, 32.8064689], [131.1394639, 32.8062779], [131.1396709, 32.8060143], [131.139821, 32.8058559], [131.1400379, 32.8056402], [131.1401709, 32.8055075], [131.1404641, 32.8052702], [131.141208, 32.804552], [131.1417, 32.804215], [131.1421833, 32.803864], [131.143032, 32.803541], [131.145588, 32.802526], [131.1476574, 32.8015071], [131.147804, 32.801622], [131.148154, 32.801912], [131.148387, 32.802044], [131.148592, 32.802141], [131.148887, 32.802192], [131.149133, 32.802153], [131.149322, 32.802094], [131.149417, 32.802047], [131.149598, 32.801894], [131.149878, 32.801467], [131.150161, 32.801159], [131.150451, 32.800934], [131.150597, 32.80085], [131.150752, 32.800803], [131.150987, 32.800803], [131.151183, 32.800841], [131.151505, 32.800979], [131.151781, 32.801118], [131.152591, 32.801611], [131.153111, 32.801896], [131.153731, 32.802208], [131.153911, 32.802253], [131.154014, 32.802269], [131.154287, 32.80226], [131.15465, 32.802185], [131.1552127, 32.8020497], [131.156363, 32.801773], [131.15669, 32.801734], [131.1567994, 32.8017407], [131.156935, 32.801749], [131.15723, 32.801792], [131.157472, 32.801887], [131.157686, 32.80202], [131.15788, 32.802188], [131.158024, 32.802378], [131.158138, 32.802589], [131.158225, 32.803098], [131.158245, 32.803677], [131.158278, 32.804118], [131.158312, 32.804366], [131.158352, 32.804529], [131.158418, 32.80467], [131.158483, 32.804752], [131.158685, 32.804941], [131.158707, 32.804962], [131.158841, 32.805094], [131.158893, 32.805143], [131.159431, 32.805639], [131.159476, 32.805686], [131.159735, 32.805908], [131.159799, 32.805963], [131.159851, 32.806009], [131.159944, 32.806047], [131.16001, 32.806053], [131.160111, 32.806044], [131.160972, 32.806028], [131.162373, 32.806034], [131.162913, 32.806069], [131.163485, 32.806068], [131.163638, 32.806056], [131.163852, 32.806023], [131.164045, 32.80596], [131.16429, 32.805852], [131.164557, 32.805706], [131.165155, 32.805356], [131.165587, 32.805093], [131.166412, 32.804589], [131.166687, 32.804439], [131.16682, 32.804366], [131.16698, 32.804293], [131.167382, 32.804144], [131.167947, 32.804011], [131.168208, 32.803961], [131.168708, 32.803814], [131.169208, 32.803583], [131.169768, 32.803289], [131.169971, 32.80318], [131.170458, 32.802886], [131.171988, 32.801971], [131.173602, 32.801007], [131.175089, 32.800045], [131.175463, 32.799786], [131.176228, 32.799312], [131.176929, 32.798935], [131.177118, 32.798776], [131.177262, 32.79863], [131.177283, 32.798603], [131.177415, 32.798439], [131.177575, 32.798306], [131.178177, 32.797966], [131.179504, 32.797222], [131.179801, 32.797063], [131.180113, 32.796921], [131.180419, 32.796811], [131.180995, 32.796637], [131.181728, 32.796507], [131.182291, 32.796401], [131.182568, 32.796342], [131.183584, 32.796066], [131.184058, 32.795936], [131.185603, 32.795513], [131.186461, 32.795275], [131.186746, 32.795172], [131.187026, 32.795057], [131.187226, 32.794971], [131.187455, 32.794825], [131.187887, 32.794479], [131.188118, 32.794255], [131.188532, 32.793768], [131.189239, 32.79294], [131.189438, 32.792656], [131.189667, 32.792284], [131.19001, 32.791673], [131.190201, 32.791523], [131.190401, 32.791479], [131.190527, 32.791446], [131.191522, 32.791283], [131.191774, 32.791188], [131.192, 32.791053], [131.193477, 32.789907], [131.193662, 32.789805], [131.193778, 32.789768], [131.193924, 32.78973], [131.194185, 32.789709], [131.194582, 32.789692], [131.19482, 32.789652], [131.194983, 32.789595], [131.195175, 32.789497], [131.1954, 32.789343], [131.19551, 32.789185], [131.195618, 32.78898], [131.195665, 32.788795], [131.195898, 32.787852], [131.196001, 32.787639], [131.196178, 32.787413], [131.196535, 32.787182], [131.197388, 32.786654], [131.197566, 32.786581], [131.197782, 32.786533], [131.197922, 32.786541], [131.198041, 32.786573], [131.198201, 32.786674], [131.198375, 32.786855], [131.198379, 32.786861], [131.198415, 32.786906], [131.198481, 32.787018], [131.198485, 32.78711], [131.198475, 32.787199], [131.198448, 32.787291], [131.198425, 32.787332], [131.198348, 32.787416], [131.198231, 32.787492], [131.19816, 32.787538], [131.198056, 32.787574], [131.197987, 32.787593], [131.197859, 32.78763], [131.197718, 32.787667], [131.197546, 32.787727], [131.197347, 32.787831], [131.19734, 32.787835], [131.197247, 32.787932], [131.1972, 32.788052], [131.197106, 32.788577], [131.19708, 32.788681], [131.197039, 32.788755], [131.19645, 32.789413], [131.196407, 32.78953], [131.196408, 32.78972], [131.196419, 32.78977], [131.196513, 32.789904], [131.196621, 32.789994], [131.196718, 32.790045], [131.196805, 32.79006], [131.197053, 32.790065], [131.197386, 32.789944], [131.197547, 32.789857], [131.197728, 32.789717], [131.19844, 32.78901], [131.19862, 32.78883], [131.198727, 32.788752], [131.19888, 32.788681], [131.199133, 32.788616], [131.199363, 32.788638], [131.199652, 32.788737], [131.200392, 32.789147], [131.20361, 32.791155], [131.203697, 32.791212], [131.203884, 32.791344], [131.203994, 32.791447], [131.204115, 32.791587], [131.2041939, 32.7917417], [131.2042405, 32.7920149], [131.2043227, 32.792545], [131.204406, 32.7929518], [131.2044306, 32.7931106], [131.2045187, 32.7932817], [131.2046553, 32.7934762], [131.2047716, 32.7935782], [131.2049947, 32.7937078], [131.2054604, 32.7939174], [131.2060661, 32.7941527], [131.2064057, 32.7942719], [131.2066295, 32.7943408], [131.2067986, 32.7943813], [131.206959, 32.794406], [131.207152, 32.794439], [131.207354, 32.794455], [131.2074961, 32.79447], [131.207674, 32.7944801], [131.2078645, 32.7944823], [131.2081354, 32.7944469], [131.2083633, 32.7943854], [131.2085752, 32.7943222], [131.208704, 32.7942749], [131.2088354, 32.7942298], [131.2093477, 32.7939322], [131.2103801, 32.793133], [131.210679, 32.7929698], [131.211098, 32.792615], [131.2118313, 32.7918276], [131.213146, 32.790366], [131.213391, 32.790181], [131.2136944, 32.7899999], [131.2139847, 32.789888], [131.214221, 32.7898242], [131.214373, 32.7897976], [131.2144797, 32.7897754], [131.215217, 32.7896288], [131.2164272, 32.7893835], [131.216747, 32.789311], [131.2172363, 32.7892199], [131.2184024, 32.7890022], [131.218785, 32.788908], [131.2191394, 32.7888804], [131.2194445, 32.7888831], [131.2198544, 32.788962], [131.2202247, 32.7890851], [131.2207546, 32.789299], [131.2212008, 32.7894348], [131.2215101, 32.7895173], [131.2218834, 32.7896334], [131.2221939, 32.7897239], [131.2224729, 32.7897717], [131.2227681, 32.7897695], [131.222953, 32.789746], [131.223061, 32.7897434], [131.223211, 32.789731], [131.2234257, 32.7896525], [131.2236691, 32.7895663], [131.2240576, 32.7893434], [131.2241456, 32.7892608], [131.2243528, 32.7890663], [131.224533, 32.788792], [131.224645, 32.788628], [131.224919, 32.788111], [131.225229, 32.787503], [131.225701, 32.7865], [131.2258063, 32.7862999], [131.225848, 32.78615], [131.226161, 32.785508], [131.226388, 32.785023], [131.226742, 32.784251], [131.226782, 32.784044], [131.226762, 32.783891], [131.226682, 32.783553], [131.226628, 32.783193], [131.226619, 32.782953], [131.226701, 32.782736], [131.226908, 32.782477], [131.227135, 32.782228], [131.2274418, 32.78197], [131.2278394, 32.7815983], [131.2283699, 32.781094], [131.2287358, 32.7807356], [131.229062, 32.780302], [131.229215, 32.780088], [131.229295, 32.779942], [131.2293791, 32.7797436], [131.2294509, 32.779577], [131.2295074, 32.7794477], [131.2295668, 32.779346], [131.2296534, 32.779175], [131.2300208, 32.7786597], [131.230171, 32.7784764], [131.2302874, 32.7783035], [131.2305533, 32.7779764], [131.2306557, 32.7778381], [131.231154, 32.777094], [131.231956, 32.775999], [131.23228, 32.775516], [131.232506, 32.775179], [131.233124, 32.774156], [131.233357, 32.773743], [131.23359, 32.773245], [131.233692, 32.773071], [131.234271, 32.772508], [131.234521, 32.772223], [131.234807, 32.771854], [131.235064, 32.771466], [131.235455, 32.770823], [131.235684, 32.770512], [131.236387, 32.769888], [131.2383589, 32.7681124], [131.2386663, 32.7678043], [131.2390151, 32.7674439], [131.2395116, 32.7668524], [131.2399165, 32.7662559], [131.2401796, 32.7660348], [131.2404308, 32.7658434], [131.240614, 32.7657315], [131.240812, 32.7656123], [131.2409273, 32.7655852], [131.241013, 32.765565], [131.241211, 32.7655327], [131.2414623, 32.7655452], [131.2417223, 32.7655973], [131.2424521, 32.7657804], [131.2429016, 32.7658633], [131.2431262, 32.765821], [131.2432535, 32.7657603], [131.2433833, 32.7656877], [131.2435617, 32.7655956], [131.2437428, 32.765464], [131.24392, 32.7652674], [131.2442113, 32.7649814], [131.2444734, 32.764683], [131.2447746, 32.7643458], [131.2448514, 32.7642055], [131.2448644, 32.7640301], [131.2448655, 32.7638905], [131.244851, 32.763734], [131.244783, 32.763624], [131.244659, 32.763486], [131.24452, 32.763374], [131.244287, 32.763268], [131.24397, 32.763201], [131.24375, 32.763199], [131.243567, 32.763234], [131.243447, 32.76328], [131.243332, 32.763341], [131.243154, 32.763478], [131.243077, 32.76355], [131.242965, 32.763678], [131.242895, 32.763821], [131.242875, 32.763942], [131.24287, 32.764151], [131.242907, 32.764286], [131.24295, 32.764396], [131.243078, 32.764588], [131.24325, 32.764719], [131.2434266, 32.7647914], [131.243598, 32.7648194], [131.2437458, 32.7648262], [131.2438963, 32.7648172], [131.2441881, 32.7647566], [131.2447641, 32.7645398], [131.2448709, 32.7645161], [131.2452086, 32.764471], [131.2455677, 32.7645181], [131.2458582, 32.7646006], [131.2461817, 32.7647084], [131.246416, 32.7648305], [131.2466681, 32.7650232], [131.2470997, 32.7654811], [131.2476059, 32.7659659], [131.2477937, 32.7661193], [131.2485259, 32.7666572], [131.2489046, 32.7668642], [131.2496102, 32.7672569], [131.250221, 32.767535], [131.250795, 32.768036], [131.2509777, 32.7684549], [131.2514551, 32.770018], [131.2515138, 32.7702404], [131.2516238, 32.7705192], [131.2517472, 32.7707898], [131.2518438, 32.771065], [131.2520044, 32.7716656], [131.2520851, 32.7718768], [131.2521629, 32.7720866], [131.2523131, 32.7723437], [131.2525384, 32.7725602], [131.2527262, 32.7727181], [131.2529536, 32.7728989], [131.2531741, 32.7730225], [131.253504, 32.7731872], [131.253783, 32.7732864], [131.2541236, 32.7733879], [131.2544964, 32.7734758], [131.2549014, 32.7735232], [131.2553064, 32.7735345], [131.2558214, 32.7734984], [131.256205, 32.773433], [131.256559, 32.7733383], [131.2569506, 32.7731804], [131.2572832, 32.7729955], [131.2576003, 32.7728441], [131.2578863, 32.7726913], [131.2581724, 32.7725745], [131.258421, 32.772474], [131.2587553, 32.7724248], [131.2588731, 32.7724074], [131.2592316, 32.7723936], [131.2595498, 32.7724167], [131.2598152, 32.7724612], [131.2600771, 32.7725423], [131.2602839, 32.7725972], [131.2603705, 32.7726258], [131.2605037, 32.7726699], [131.260729, 32.7727578], [131.2610477, 32.7728808], [131.261267, 32.772975], [131.2616956, 32.7731475], [131.2621403, 32.77331], [131.26251, 32.7734484], [131.2628306, 32.773556], [131.2630869, 32.7736515], [131.2634029, 32.7737455], [131.2637023, 32.7738031], [131.263883, 32.7738065], [131.2641326, 32.7737902], [131.2643258, 32.7737771], [131.264562, 32.773728], [131.264673, 32.773705], [131.2649198, 32.7736352], [131.2651282, 32.7735648], [131.2652912, 32.7734785], [131.2654342, 32.7733792], [131.2655919, 32.7732479], [131.2657502, 32.7731138], [131.2658682, 32.7730012], [131.266046, 32.7728204], [131.2663303, 32.7724949], [131.2666925, 32.7721603], [131.266915, 32.7719888], [131.2671372, 32.7718474], [131.2673477, 32.7717432], [131.2675995, 32.7716361], [131.2678514, 32.7715482], [131.2681494, 32.7715017], [131.2685091, 32.7714248], [131.2690251, 32.7713147], [131.2697762, 32.7711133], [131.2713595, 32.7708154], [131.2716084, 32.7707694], [131.2718731, 32.770762], [131.2721177, 32.7708078], [131.2722914, 32.7709097], [131.2725062, 32.7710232], [131.2727674, 32.7714189], [131.2730786, 32.7720449], [131.273298, 32.7723226], [131.2734364, 32.7724843], [131.2735742, 32.7725828], [131.2738722, 32.7726979], [131.2741525, 32.7727405], [131.2744244, 32.772726], [131.2749225, 32.7727187], [131.275658, 32.7727382], [131.2757857, 32.7727373], [131.2769338, 32.772753], [131.2771474, 32.7727473], [131.2773164, 32.7727338], [131.2775267, 32.7727024], [131.2777057, 32.7726398], [131.2778587, 32.7725816], [131.2780665, 32.7724503], [131.2782092, 32.7723301], [131.27837, 32.772177], [131.2784111, 32.7721264], [131.2784844, 32.7720301], [131.2785317, 32.7719233], [131.278603, 32.7717606], [131.278658, 32.771582], [131.278662, 32.771576], [131.2787148, 32.7714029], [131.278769, 32.771244], [131.278829, 32.771041], [131.279042, 32.77041], [131.2792106, 32.7700191], [131.2792754, 32.7698554], [131.2793646, 32.7696362], [131.2795181, 32.7694151], [131.279675, 32.769263], [131.279805, 32.769173], [131.2799584, 32.7691023], [131.2800872, 32.7690877], [131.2804369, 32.7690265], [131.2808655, 32.7689626], [131.2810023, 32.7689281], [131.2813139, 32.7688828], [131.2827605, 32.7685719], [131.2834749, 32.7684253], [131.2837122, 32.7683633], [131.284133, 32.7682506], [131.284356, 32.768122], [131.284516, 32.768032], [131.284676, 32.767914], [131.284876, 32.767722], [131.285064, 32.76749], [131.285256, 32.767225], [131.285551, 32.766825], [131.286116, 32.765917], [131.2863861, 32.7655128], [131.286542, 32.7653089], [131.286727, 32.765132], [131.286931, 32.764859], [131.287069, 32.764686], [131.287457, 32.764315], [131.287915, 32.763954], [131.288409, 32.763665], [131.289154, 32.763337], [131.289779, 32.763133], [131.29028, 32.763024], [131.290578, 32.762971], [131.291033, 32.762959], [131.291489, 32.762983], [131.291775, 32.763021], [131.292699, 32.763218], [131.295058, 32.763766], [131.295376, 32.763823], [131.2968703, 32.7641066], [131.297284, 32.7641857], [131.2976659, 32.7642403], [131.2981447, 32.7642929], [131.2987231, 32.7643162], [131.299338, 32.764318], [131.2995681, 32.7643157], [131.2998194, 32.76432], [131.3000799, 32.7643036], [131.3004344, 32.7642312], [131.3005954, 32.7641533], [131.3008936, 32.7639591], [131.301001, 32.763818], [131.301081, 32.763688], [131.301121, 32.763542], [131.301108, 32.763384], [131.301034, 32.76317], [131.300934, 32.762911], [131.300881, 32.762742], [131.300714, 32.762353], [131.300674, 32.762251], [131.300507, 32.761902], [131.300447, 32.761818], [131.300308, 32.761671], [131.299847, 32.761281], [131.299721, 32.761158], [131.299654, 32.76105], [131.299527, 32.760791], [131.299501, 32.760753], [131.299454, 32.760644], [131.299334, 32.760391], [131.299266, 32.760272], [131.299174, 32.760058], [131.2991, 32.759861], [131.29906, 32.759608], [131.299054, 32.759461], [131.2991, 32.759151], [131.299106, 32.758926], [131.29908, 32.758802], [131.299044, 32.758707], [131.298819, 32.758216], [131.298748, 32.758073], [131.298706, 32.757957], [131.298613, 32.757675], [131.298606, 32.757451], [131.29862, 32.756921], [131.298626, 32.756318], [131.298606, 32.756171], [131.298566, 32.756048], [131.298373, 32.755751], [131.29834, 32.755597], [131.298328, 32.755462], [131.298312, 32.754926], [131.298372, 32.753991], [131.298386, 32.753929], [131.298399, 32.753799], [131.29845, 32.753388], [131.298466, 32.753236], [131.298493, 32.753146], [131.2985, 32.753022], [131.29846, 32.752757], [131.29838, 32.752554], [131.29824, 32.752244], [131.298087, 32.751861], [131.29806, 32.751798], [131.297787, 32.751151], [131.297775, 32.75114], [131.29768, 32.75092], [131.29758, 32.750717], [131.297541, 32.750655], [131.297474, 32.750396], [131.297381, 32.750126], [131.297374, 32.749726], [131.297381, 32.749652], [131.297434, 32.749292], [131.297474, 32.748716], [131.297427, 32.748147], [131.297335, 32.747792], [131.297335, 32.7476], [131.297487, 32.746705], [131.297647, 32.745911], [131.29794, 32.74488], [131.297987, 32.744711], [131.29802, 32.744474], [131.298035, 32.744288], [131.298015, 32.743054], [131.298027, 32.742288], [131.29812, 32.741769], [131.2982, 32.741385], [131.298278, 32.741072], [131.29832, 32.740907], [131.2983058, 32.7407294], [131.298447, 32.740348], [131.29856, 32.739847], [131.298653, 32.73934], [131.298686, 32.739007], [131.298669, 32.738797], [131.298656, 32.738719], [131.298589, 32.738472], [131.298548, 32.738372], [131.298545, 32.73829], [131.298542, 32.738132], [131.298566, 32.737025], [131.298593, 32.736366], [131.298553, 32.736112], [131.298533, 32.735977], [131.298526, 32.735831], [131.298433, 32.735487], [131.298407, 32.73529], [131.298386, 32.735205], [131.298187, 32.733937], [131.29816, 32.733813], [131.298147, 32.733502], [131.2981012, 32.7333366], [131.2981645, 32.7330593], [131.298263, 32.7328077], [131.2983424, 32.732632], [131.2984419, 32.7324039], [131.2984668, 32.7322157], [131.2984545, 32.7319163], [131.2984006, 32.7316433], [131.298247, 32.731096], [131.298127, 32.730781], [131.29801, 32.7305169], [131.2978966, 32.730352], [131.2978357, 32.7302188], [131.2977134, 32.7300846], [131.2975755, 32.7299799], [131.297455, 32.729857], [131.297174, 32.729616], [131.297074, 32.729486], [131.297001, 32.729328], [131.296981, 32.729238], [131.296981, 32.728928], [131.297014, 32.728821], [131.2970345, 32.7286481], [131.2970304, 32.7285165], [131.2969978, 32.72821], [131.296971, 32.7280278], [131.2968944, 32.7278622], [131.2967727, 32.727718], [131.2966523, 32.7275296], [131.2965056, 32.7273845], [131.2963424, 32.7273115], [131.2961161, 32.7272352], [131.295949, 32.727148], [131.295836, 32.727097], [131.2956675, 32.7270574], [131.2955559, 32.7269691], [131.2954529, 32.7269008], [131.2953314, 32.7267106], [131.2952689, 32.7265337], [131.295225, 32.7263597], [131.2951533, 32.7261455], [131.2950865, 32.7258206], [131.295115, 32.7256031], [131.2952048, 32.7251895], [131.2953084, 32.7249036], [131.29545, 32.7244762], [131.2955693, 32.7241605], [131.2956246, 32.7239771], [131.295627, 32.7238523], [131.2955752, 32.7237113], [131.2955168, 32.7235777], [131.2954484, 32.7234858], [131.295366, 32.7233836], [131.2952751, 32.7232897], [131.2951319, 32.7231902], [131.2949189, 32.7230876], [131.2947604, 32.7230237], [131.2945506, 32.7229316], [131.29442, 32.7228759], [131.2943205, 32.7228312], [131.2942312, 32.7227983], [131.2941156, 32.7227373], [131.2939997, 32.7226322], [131.2938688, 32.7225392], [131.293754, 32.7224196], [131.2936744, 32.7223093], [131.2936328, 32.722217], [131.2935934, 32.7221179], [131.2935572, 32.7220114], [131.2935462, 32.7218092], [131.293573, 32.7216233], [131.2936647, 32.7214091], [131.2938275, 32.7211675], [131.2942003, 32.7207491], [131.2949152, 32.7199672], [131.2952593, 32.7195786], [131.2955141, 32.7193771], [131.295693, 32.7192812], [131.2958456, 32.7192004], [131.2962037, 32.7190975], [131.2965151, 32.7190417], [131.2968573, 32.7189937], [131.2975249, 32.7189973], [131.2978004, 32.7190413], [131.2979343, 32.7190869], [131.29807, 32.7191397], [131.2982285, 32.7192385], [131.298353, 32.719338], [131.2985353, 32.7194901], [131.298637, 32.719575], [131.2987236, 32.7196325], [131.298873, 32.7197029], [131.2990002, 32.7197605], [131.2991404, 32.7197945], [131.2993376, 32.7197873], [131.299624, 32.7197311], [131.3003547, 32.7195711], [131.3007323, 32.7194533], [131.3009965, 32.719266], [131.3011328, 32.7191325], [131.3012693, 32.7189558], [131.3014748, 32.7186414], [131.3016472, 32.7184002], [131.3018693, 32.7181497], [131.3022222, 32.7178514], [131.3025226, 32.7176122], [131.3028766, 32.7172827], [131.3031688, 32.7170008], [131.3033345, 32.7167416], [131.3034889, 32.7165137], [131.3035483, 32.7164184], [131.3036046, 32.7162801], [131.3036797, 32.7161311], [131.3037387, 32.7159235], [131.3037508, 32.7156915], [131.3037105, 32.7154243], [131.3036277, 32.7149622], [131.3036142, 32.7147248], [131.3036138, 32.7146212], [131.3036315, 32.7144733], [131.3036881, 32.7143063], [131.3038459, 32.7141189], [131.3039499, 32.7140827]]]}, "id": "relation/9600043"}, {"type": "Feature", "properties": {"@id": "relation/13400454", "description": "2016年の熊本地震による阿蘇大橋崩壊により支線となった区間。", "name": "国道325号支線", "name:en": "National Highway Route 325 Branch Route", "name:ja": "国道325号支線", "ref": "325", "route": "road", "type": "route"}, "geometry": {"type": "MultiLineString", "coordinates": [[[130.9902067, 32.8832947], [130.9903961, 32.8832943], [130.9904247, 32.8832037], [130.9905025, 32.8831428], [130.9905541, 32.8830747], [130.9906027, 32.8829554], [130.990662, 32.8828206], [130.9906931, 32.8827147], [130.990713, 32.882634], [130.9907202, 32.8825387], [130.9907265, 32.8824183], [130.9907224, 32.8823109], [130.9907307, 32.8822676], [130.9907633, 32.8822184], [130.9908149, 32.8821619], [130.9907259, 32.8820894], [130.9906688, 32.8820416], [130.9906181, 32.881984], [130.9905807, 32.8819233], [130.9903214, 32.8813862], [130.9900219, 32.8807866], [130.9897147, 32.8801597], [130.9895666, 32.8798222], [130.989482, 32.8795753], [130.9894369, 32.8793437], [130.9893865, 32.8789473], [130.9892798, 32.8779506], [130.9892246, 32.8774256], [130.9891352, 32.8765265], [130.9890818, 32.8763008]]]}, "id": "relation/13400454"}]}