{"type": "FeatureCollection", "generator": "kokudo-quiz tools/fetch_raw.py (Overpass API)", "copyright": "The data included in this document is from www.openstreetmap.org. The data is made available under ODbL.", "timestamp": "2026-09-30T16:21:53Z", "features": [{"type": "Feature", "properties": {"@id": "relation/9674712", "colour": "red", "from": "鹿児島県鹿児島市", "name": "国道328号", "name:en": "National Highway Route 328", "name:ja": "国道328号", "name:ja-Hira": "こくどうさんびゃくにじゅうはちごう", "name:ja-Latn": "Kokudou 328 Gou", "network": "JP:national", "ref": "328", "route": "road", "to": "鹿児島県出水市", "type": "route", "wikidata": "Q6157248", "wikipedia": "ja:国道328号"}, "geometry": {"type": "MultiLineString", "coordinates": [[[130.4863797, 31.6623189], [130.4863513, 31.6624315], [130.4863373, 31.662487], [130.4862563, 31.6628074], [130.486229, 31.6629136], [130.4862207, 31.6629491], [130.4860602, 31.6634787], [130.4857652, 31.6644764], [130.4857379, 31.6645744], [130.4857117, 31.6647122], [130.4856867, 31.6651614], [130.4856319, 31.6660551], [130.485616, 31.6663364], [130.485603, 31.6665354], [130.4855966, 31.6666338], [130.4855945, 31.6666692], [130.4855912, 31.6667244], [130.4855839, 31.6668139], [130.4855659, 31.6670358], [130.4855511, 31.667152], [130.4855249, 31.6672522], [130.4854668, 31.6673479], [130.4854007, 31.6674401], [130.4851279, 31.6677146], [130.4842452, 31.6685935], [130.4840897, 31.6687318], [130.483998, 31.6688081], [130.4839691, 31.6688309], [130.4839241, 31.6688665], [130.4838732, 31.6689071], [130.4837731, 31.6689618], [130.4836011, 31.6690461], [130.483445, 31.6691088], [130.4833049, 31.6691463], [130.4831341, 31.6691771], [130.4830077, 31.6691908], [130.4828824, 31.6692056], [130.4828395, 31.6692056], [130.4826386, 31.6692056], [130.4823824, 31.6691919], [130.4820043, 31.6691669], [130.481699, 31.6691475], [130.4815133, 31.6691463], [130.4813424, 31.6691566], [130.4811853, 31.6691828], [130.481044, 31.669217], [130.4809039, 31.6692751], [130.4807376, 31.6693571], [130.480601, 31.6694505], [130.4804723, 31.6695644], [130.4802934, 31.6697523], [130.4797877, 31.6703628], [130.4796693, 31.6705086], [130.4795565, 31.670627], [130.4794721, 31.6707039], [130.4794415, 31.6707318], [130.4792968, 31.6708321], [130.479167, 31.6709152], [130.4791242, 31.6709348], [130.4790052, 31.6709892], [130.4788127, 31.6710519], [130.4786225, 31.671094], [130.4784118, 31.6711134], [130.4782113, 31.6711237], [130.477938, 31.6711225], [130.4777125, 31.6711248], [130.4775587, 31.671143], [130.4774402, 31.6711567], [130.477258, 31.6711965], [130.4770501, 31.6712552], [130.4760052, 31.6715562], [130.475865, 31.6716054], [130.4757351, 31.6716533], [130.4756269, 31.6717148], [130.4755279, 31.6717831], [130.475439, 31.6718606], [130.4753629, 31.6719554], [130.4752682, 31.6720827], [130.4752215, 31.6721761], [130.4751702, 31.6723321], [130.4751508, 31.6724449], [130.4751277, 31.6726427], [130.4751172, 31.6727334], [130.4751016, 31.6728378], [130.475095, 31.672882], [130.4750312, 31.6733515], [130.4749128, 31.6741431], [130.4748923, 31.6743049], [130.474849, 31.6746842], [130.4747945, 31.6751174], [130.4747738, 31.6752821], [130.4747567, 31.6754837], [130.4747419, 31.6756614], [130.4747408, 31.6758551], [130.4747442, 31.676092], [130.4747492, 31.6762434], [130.4747647, 31.6765009], [130.4747829, 31.6766672], [130.4748251, 31.6769052], [130.4748706, 31.6770704], [130.4749117, 31.6772162], [130.4749361, 31.6772843], [130.4749493, 31.677321], [130.4749937, 31.6774451], [130.4750408, 31.6775552], [130.4750539, 31.6775858], [130.4754036, 31.6784041], [130.4754171, 31.6784333], [130.475524, 31.6786866], [130.4756452, 31.6789608], [130.4756796, 31.6790385], [130.4757284, 31.679153], [130.4757591, 31.6792251], [130.4757824, 31.6792797], [130.4758353, 31.6794036], [130.4759051, 31.6795996], [130.4759618, 31.6797516], [130.4760153, 31.6799389], [130.476023, 31.6799645], [130.4760685, 31.6801695], [130.4760974, 31.6803632], [130.4761133, 31.6805067], [130.4761179, 31.680738], [130.4761103, 31.6808933], [130.4761077, 31.6809446], [130.4760985, 31.681132], [130.4760761, 31.6812926], [130.47607, 31.6813359], [130.4760686, 31.6813434], [130.476021, 31.6815968], [130.4759761, 31.6818277], [130.4759732, 31.6818428], [130.4758684, 31.6822756], [130.4757557, 31.6827198], [130.4756463, 31.6833269], [130.4754903, 31.6841686], [130.4754253, 31.6845354], [130.4754037, 31.6847153], [130.4753878, 31.6849249], [130.4753832, 31.6851049], [130.4753878, 31.6852791], [130.4754048, 31.6854192], [130.4754241, 31.6855325], [130.4754512, 31.6856686], [130.4754803, 31.6857745], [130.4755247, 31.6859101], [130.4755697, 31.686028], [130.4755939, 31.6860913], [130.4756805, 31.6862541], [130.4757921, 31.6864466], [130.4759128, 31.686622], [130.4760431, 31.686774], [130.4761378, 31.6868769], [130.4762005, 31.6869499], [130.4763559, 31.6871209], [130.4765928, 31.687351], [130.4771768, 31.6879115], [130.4774368, 31.6881733], [130.4775575, 31.6883078], [130.4776703, 31.6884615], [130.477766, 31.6886176], [130.4778389, 31.6887941], [130.4778822, 31.6889501], [130.4779072, 31.6891062], [130.4779084, 31.689277], [130.4778936, 31.6894433], [130.4778696, 31.6895698], [130.4778264, 31.6897281], [130.4777694, 31.6899103], [130.4776965, 31.6900946], [130.4774903, 31.6906558], [130.4774842, 31.6906758], [130.4774616, 31.6907321], [130.4774048, 31.6908737], [130.4769038, 31.6922248], [130.4767613, 31.6926532], [130.4767295, 31.692759], [130.4766703, 31.6930016], [130.4766372, 31.6931804], [130.476611, 31.6933501], [130.4766008, 31.6935517], [130.4766081, 31.6937363], [130.4766236, 31.6939002], [130.4766366, 31.694031], [130.4766623, 31.6941941], [130.4767038, 31.6943876], [130.4767785, 31.6946736], [130.4768764, 31.6949641], [130.4769835, 31.695234], [130.4773206, 31.6960438], [130.4774334, 31.6962944], [130.4775416, 31.6965131], [130.4776692, 31.6967136], [130.4778047, 31.6968844], [130.4779494, 31.6970484], [130.4780553, 31.6971544], [130.4781783, 31.6972717], [130.4783435, 31.6974015], [130.4785485, 31.6975428], [130.4795212, 31.6980644], [130.479774, 31.6982011], [130.4799341, 31.6983197], [130.4800537, 31.6984362], [130.480142, 31.698563], [130.4802113, 31.6986932], [130.4802744, 31.6988599], [130.4803105, 31.699003], [130.4803242, 31.6991317], [130.4803281, 31.6992362], [130.4803299, 31.699665], [130.4803332, 31.7009111], [130.4803337, 31.7018536], [130.4803338, 31.7021355], [130.4803522, 31.7023205], [130.4803868, 31.7024951], [130.4804389, 31.7026421], [130.4805344, 31.7028591], [130.4808863, 31.7034984], [130.4812983, 31.7042737], [130.4813994, 31.7045248], [130.4814969, 31.7048257], [130.4815079, 31.7048594], [130.4815443, 31.7049718], [130.4815727, 31.7050652], [130.4817241, 31.7055639], [130.4817623, 31.7057467], [130.4817686, 31.7059157], [130.4817563, 31.7060836], [130.4817115, 31.7062527], [130.4816434, 31.7064023], [130.4816021, 31.7064862], [130.4815441, 31.7065785], [130.4812783, 31.7069367], [130.4812169, 31.7070111], [130.480719, 31.7076142], [130.4804642, 31.7079328], [130.4801247, 31.7083252], [130.4800722, 31.7083792], [130.4799179, 31.7085151], [130.4797482, 31.7086475], [130.4796819, 31.7086948], [130.4795343, 31.7087884], [130.4793875, 31.7088625], [130.4792916, 31.7089139], [130.4791421, 31.7089715], [130.4789925, 31.709032], [130.4787629, 31.7090967], [130.4786739, 31.7091177], [130.4784279, 31.7091666], [130.4781892, 31.7092197], [130.4780357, 31.7092647], [130.4779056, 31.7093183], [130.4778224, 31.7093557], [130.4777499, 31.7094005], [130.4776383, 31.7094923], [130.477553, 31.7095604], [130.4774214, 31.7096909], [130.4773088, 31.7098275], [130.4769572, 31.7102831], [130.4767372, 31.7105475], [130.4765643, 31.7107825], [130.4764504, 31.7109625], [130.4763867, 31.7111356], [130.4763343, 31.7113383], [130.4763092, 31.7115092], [130.4762705, 31.7120172], [130.476234, 31.712245], [130.4761771, 31.7124865], [130.4761179, 31.7126596], [130.4760085, 31.7129671], [130.4757716, 31.7136163], [130.4755653, 31.7141471], [130.4754969, 31.7143696], [130.4754762, 31.7144694], [130.4754654, 31.7145807], [130.4754674, 31.7146953], [130.4754869, 31.7147894], [130.4755258, 31.7149081], [130.4755606, 31.7149839], [130.4756009, 31.7150541], [130.4756438, 31.7151117], [130.4757142, 31.7151904], [130.4758919, 31.715349], [130.4761702, 31.7155441], [130.4762741, 31.7156251], [130.4763593, 31.7157098], [130.4764532, 31.7158168], [130.476535, 31.7159662], [130.4765765, 31.716098], [130.4765962, 31.7162611], [130.4765926, 31.7163324], [130.4765745, 31.7164847], [130.4765347, 31.7166279], [130.4764659, 31.7168178], [130.4764143, 31.7169901], [130.4764009, 31.7170985], [130.4764009, 31.717216], [130.4764169, 31.7173232], [130.4764545, 31.7174567], [130.4767857, 31.7183397], [130.4768173, 31.7184657], [130.4768327, 31.7186003], [130.4768327, 31.7187013], [130.4768099, 31.7188473], [130.476758, 31.7189719], [130.4767009, 31.7190813], [130.4766197, 31.7191935], [130.4765152, 31.7192926], [130.4761664, 31.7195863], [130.4759611, 31.7197687], [130.4757781, 31.7199442], [130.4756805, 31.720054], [130.475506, 31.7202499], [130.4753805, 31.720407], [130.4752804, 31.7205442], [130.475219, 31.7206366], [130.4751668, 31.7207257], [130.4749482, 31.7211026], [130.4747505, 31.7214656], [130.4745173, 31.7219012], [130.4744241, 31.7220381], [130.4743637, 31.7221116], [130.4742725, 31.7222063], [130.4741411, 31.7223352], [130.474037, 31.7224191], [130.4739641, 31.722471], [130.4738346, 31.722552], [130.4736583, 31.7226461], [130.4735007, 31.7227259], [130.4731406, 31.7228822], [130.4729944, 31.7229609], [130.4728441, 31.7230569], [130.4727403, 31.7231737], [130.4726578, 31.7232832], [130.4725894, 31.7234218], [130.4725619, 31.7234954], [130.4725414, 31.7236008], [130.4725004, 31.7238377], [130.4724895, 31.7239414], [130.4724842, 31.7240846], [130.4724815, 31.7243292], [130.4724888, 31.7244433], [130.4725004, 31.7245804], [130.4725251, 31.7247091], [130.4725532, 31.7248198], [130.4725988, 31.7249709], [130.4726525, 31.7250673], [130.4727162, 31.7251517], [130.4728087, 31.7252367], [130.4729247, 31.7253023], [130.4730394, 31.7253394], [130.4731822, 31.7253593], [130.4733317, 31.7253587], [130.4734685, 31.7253253], [130.4736007, 31.7252524], [130.4737126, 31.7251694], [130.4738025, 31.725069], [130.4738621, 31.7249897], [130.4739769, 31.7248003], [130.4740331, 31.7247291], [130.4741042, 31.7246555], [130.4741572, 31.7246134], [130.4742303, 31.7245671], [130.4743054, 31.7245317], [130.4743785, 31.7245095], [130.4744811, 31.724489], [130.4745783, 31.7244838], [130.4746842, 31.7244935], [130.4747902, 31.7245203], [130.4748968, 31.7245728], [130.4750048, 31.7246412], [130.4750671, 31.724708], [130.4751053, 31.724757], [130.4751384, 31.7248055], [130.4751657, 31.7248774], [130.4751751, 31.7249846], [130.4751784, 31.7250861], [130.4751684, 31.7251871], [130.4751489, 31.7252903], [130.4751342, 31.7253342], [130.4751026, 31.7254278], [130.4749394, 31.7258046], [130.474836, 31.7259868], [130.4747962, 31.726057], [130.4746873, 31.7262228], [130.4745542, 31.7263877], [130.4744082, 31.7265446], [130.4742811, 31.7266801], [130.4741129, 31.7268379], [130.4738854, 31.727036], [130.4733637, 31.7273982], [130.4727549, 31.72778], [130.4724667, 31.7279852], [130.4723507, 31.7280799], [130.4722498, 31.7281796], [130.4720995, 31.7283484], [130.4719719, 31.7284803], [130.4717959, 31.7287306], [130.4716489, 31.7290474], [130.4715152, 31.7293471], [130.4713984, 31.7296652], [130.4712719, 31.7300967], [130.4712221, 31.7303937], [130.4712094, 31.7305477], [130.4711806, 31.7310542], [130.4711702, 31.7312182], [130.471131, 31.7313798], [130.471078, 31.7315218], [130.4709962, 31.7316844], [130.4708819, 31.7318389], [130.4706835, 31.7320661], [130.470433, 31.732398], [130.4703612, 31.7325542], [130.4703196, 31.7327204], [130.4703149, 31.7328501], [130.4703283, 31.7329482], [130.4703518, 31.7330366], [130.47038, 31.7331204], [130.4704292, 31.7332188], [130.4704846, 31.7333138], [130.4706891, 31.7335772], [130.4709605, 31.7339498], [130.4710572, 31.7340666], [130.4712081, 31.7342245], [130.471361, 31.7343437], [130.4715601, 31.7344287], [130.471819, 31.7345108], [130.472227, 31.7346195], [130.4734015, 31.7348941], [130.4736509, 31.7349813], [130.4738427, 31.7350788], [130.4740432, 31.7352054], [130.4743319, 31.7354441], [130.4752891, 31.7362137], [130.4755332, 31.7364675], [130.4756404, 31.7366032], [130.4757129, 31.7367384], [130.4757719, 31.7368604], [130.4758147, 31.7369852], [130.4758438, 31.737094], [130.475879, 31.7372886], [130.4759076, 31.7375547], [130.4759167, 31.7376857], [130.4759509, 31.7379405], [130.4759824, 31.7380632], [130.4760267, 31.7381669], [130.4760709, 31.7382559], [130.4761266, 31.738354], [130.4762339, 31.7384926], [130.4763687, 31.7386209], [130.4775837, 31.7396457], [130.477676, 31.7397382], [130.4778013, 31.7398817], [130.4778755, 31.7399932], [130.4779357, 31.7401346], [130.4779744, 31.7402302], [130.4779995, 31.7403259], [130.4780129, 31.7404338], [130.4780129, 31.7405416], [130.4779954, 31.7406733], [130.4779652, 31.7407885], [130.477923, 31.7408888], [130.4778707, 31.7409835], [130.4778023, 31.7410873], [130.4777011, 31.7412059], [130.477282, 31.7416342], [130.4766667, 31.742253], [130.4763781, 31.7425504], [130.4760877, 31.7428534], [130.4759697, 31.7429908], [130.4758731, 31.7431299], [130.4758014, 31.743264], [130.4757397, 31.7434023], [130.4757078, 31.7435219], [130.4756954, 31.7436825], [130.4756881, 31.7438046], [130.4756995, 31.7443292], [130.4756927, 31.7444934], [130.4756673, 31.7446217], [130.4756223, 31.7447597], [130.4755632, 31.7448967], [130.4754846, 31.7450311], [130.4753765, 31.7451752], [130.4752783, 31.7452845], [130.4751474, 31.7454025], [130.4749848, 31.7455356], [130.4741458, 31.7462651], [130.4740266, 31.746382], [130.4738387, 31.746587], [130.47371, 31.7467419], [130.473563, 31.746954], [130.4733901, 31.7472254], [130.4732814, 31.7474347], [130.4731721, 31.7476679], [130.4729844, 31.7481235], [130.4725391, 31.7492519], [130.4724922, 31.749362], [130.472464, 31.7494709], [130.4724433, 31.7496459], [130.4724345, 31.749764], [130.4724459, 31.7503764], [130.4724372, 31.7505834], [130.4724191, 31.7508325], [130.4723922, 31.751168], [130.4723842, 31.7514425], [130.4723478, 31.751848], [130.4723227, 31.7520895], [130.4722549, 31.7530024], [130.4722294, 31.7533481], [130.4722125, 31.7535799], [130.4721725, 31.7537325], [130.4721199, 31.7538753], [130.4720539, 31.7540212], [130.4720032, 31.7541078], [130.4718602, 31.7542904], [130.4715134, 31.7546991], [130.4713988, 31.7548165], [130.471246, 31.7549561], [130.4710241, 31.7551233], [130.4708537, 31.7552374], [130.4701488, 31.7556878], [130.4699992, 31.7558067], [130.4698285, 31.7559493], [130.4697012, 31.7560922], [130.4696283, 31.7562025], [130.4695474, 31.7563501], [130.4695191, 31.7564336], [130.4694999, 31.7565563], [130.4694985, 31.7566689], [130.4695117, 31.7567924], [130.469608, 31.7572467], [130.4696388, 31.7575133], [130.4696301, 31.7577389], [130.4696024, 31.7579221], [130.4695131, 31.758496], [130.4694832, 31.7587299], [130.4694927, 31.7589111], [130.4695167, 31.7590701], [130.4695868, 31.759247], [130.469664, 31.7593626], [130.4701757, 31.7599338], [130.4702235, 31.7600067], [130.4702771, 31.7601172], [130.4702896, 31.7602091], [130.4702982, 31.760338], [130.4702894, 31.760428], [130.470244, 31.76055], [130.4701661, 31.7606983], [130.4700903, 31.760804], [130.4698989, 31.7610488], [130.4697737, 31.7611834], [130.4696164, 31.761304], [130.4693497, 31.7614658], [130.4692053, 31.7615592], [130.4691069, 31.7616655], [130.4690299, 31.7618229], [130.4689878, 31.761943], [130.4689142, 31.7623509], [130.468867, 31.7625068], [130.4688144, 31.7626194], [130.4687133, 31.7627629], [130.4686176, 31.7628535], [130.4684438, 31.7629828], [130.467993, 31.7632814], [130.4678803, 31.7633997], [130.4677985, 31.7635121], [130.4677476, 31.7636245], [130.4677287, 31.7637555], [130.467731, 31.7638811], [130.4677473, 31.764049], [130.4679102, 31.7648691], [130.4679193, 31.7651151], [130.4678965, 31.7653338], [130.4678442, 31.7655069], [130.4677872, 31.7656322], [130.4677029, 31.7657757], [130.4676352, 31.7658544], [130.4674865, 31.7660218], [130.4672953, 31.7662323], [130.4672109, 31.766368], [130.4671687, 31.7664534], [130.4671403, 31.7665582], [130.4671163, 31.7666687], [130.4670901, 31.7668863], [130.4670719, 31.7672621], [130.4670571, 31.7673715], [130.4670285, 31.767478], [130.4669876, 31.7676437], [130.4669352, 31.7677644], [130.4668697, 31.7678866], [130.4666803, 31.7681655], [130.4665497, 31.7683032], [130.4664609, 31.7683869], [130.4663338, 31.7684877], [130.4662122, 31.7685727], [130.4658406, 31.7687974], [130.4654509, 31.7690327], [130.4652663, 31.7691389], [130.4650139, 31.7692885], [130.4644297, 31.7696374], [130.4639985, 31.7698847], [130.4637748, 31.7700139], [130.4635123, 31.7701529], [130.463344, 31.7702269], [130.4631631, 31.7702989], [130.462968, 31.7703571], [130.4627517, 31.7703978], [130.4625051, 31.7704229], [130.4622692, 31.7704219], [130.4620067, 31.7704038], [130.4617897, 31.7703797], [130.4615067, 31.7703275], [130.4609788, 31.7702183], [130.460788, 31.7701928], [130.4606213, 31.7701795], [130.4604771, 31.7701734], [130.4603065, 31.77019], [130.4601139, 31.7702317], [130.459927, 31.7702907], [130.4597759, 31.7703515], [130.4595205, 31.7704893], [130.4589123, 31.7708533], [130.4584416, 31.7711311], [130.4578011, 31.7715139], [130.4570241, 31.7719753], [130.4563255, 31.7723927], [130.4556027, 31.7728274], [130.4550554, 31.7731535], [130.4542617, 31.7736287], [130.4534595, 31.7740962], [130.4527362, 31.7745244], [130.4523537, 31.7747524], [130.4517945, 31.7751086], [130.4514608, 31.7753045], [130.4512198, 31.7754832], [130.4510781, 31.7756007], [130.4509505, 31.7757374], [130.4508172, 31.7758969], [130.4506623, 31.7761099], [130.4505712, 31.7762648], [130.450493, 31.776421], [130.4503341, 31.7768115], [130.4502338, 31.7771439], [130.4502229, 31.7771801], [130.4499565, 31.7778483], [130.4497943, 31.7781523], [130.4496944, 31.7783596], [130.4495715, 31.7786146], [130.4490908, 31.7793508], [130.4488652, 31.779649], [130.4486316, 31.7799458], [130.4485402, 31.7800619], [130.4483964, 31.7802076], [130.4482588, 31.780322], [130.448196, 31.7803741], [130.4481673, 31.780398], [130.4479131, 31.7805637], [130.4477, 31.7806987], [130.4474883, 31.7808237], [130.4472629, 31.7809838], [130.447052, 31.7811379], [130.446844, 31.7813198], [130.4465677, 31.781632], [130.4463853, 31.7819536], [130.4462704, 31.782292], [130.4461629, 31.782549], [130.4458956, 31.7832434], [130.4456999, 31.7837721], [130.445604, 31.7840268], [130.4454286, 31.7844963], [130.4453141, 31.7847969], [130.4452395, 31.7850032], [130.445094, 31.785371], [130.4449776, 31.7856809], [130.4449058, 31.7858369], [130.4448178, 31.7859929], [130.4447293, 31.7861331], [130.4446324, 31.7862577], [130.4445015, 31.7863962], [130.4443698, 31.7865197], [130.4441461, 31.7867037], [130.4438534, 31.786927], [130.4435584, 31.7871536], [130.4433716, 31.787296], [130.4431451, 31.7874694], [130.4430241, 31.7876099], [130.4428943, 31.7878302], [130.4428217, 31.7879629], [130.4427484, 31.7881365], [130.4427071, 31.7882944], [130.4426695, 31.7884833], [130.4426575, 31.7886691], [130.4426652, 31.7889], [130.4426872, 31.7896176], [130.4427089, 31.7903191], [130.4427113, 31.7903947], [130.4427198, 31.7906594], [130.4427242, 31.7907962], [130.4427488, 31.7917999], [130.4427626, 31.7925052], [130.4427705, 31.7929085], [130.4427839, 31.7935921], [130.4427656, 31.7941118], [130.4427474, 31.7942473], [130.4427303, 31.7943544], [130.4426962, 31.7944811], [130.4426421, 31.7946684], [130.4425948, 31.7947849], [130.4425522, 31.794895], [130.442436, 31.7951259], [130.4423307, 31.7953073], [130.442095, 31.7956013], [130.441597, 31.796221], [130.4413858, 31.7964829], [130.4411118, 31.796826], [130.4407526, 31.79726], [130.4404598, 31.79759], [130.439591, 31.798456], [130.439, 31.799052], [130.438892, 31.799161], [130.438337, 31.799634], [130.437842, 31.800096], [130.437691, 31.800254], [130.437282, 31.800688], [130.437064, 31.800886], [130.436947, 31.800964], [130.4368461, 31.8010321], [130.4367131, 31.8011089], [130.4366143, 31.8011597], [130.4365435, 31.8011931], [130.4363252, 31.8012714], [130.4360985, 31.801329], [130.4353656, 31.8014767], [130.4352057, 31.8015159], [130.4350714, 31.8015565], [130.4349339, 31.8016053], [130.4347471, 31.8016952], [130.4345774, 31.8018035], [130.4344122, 31.8019356], [130.4343382, 31.8020153], [130.4339842, 31.8023418], [130.4335399, 31.8027755], [130.4331342, 31.8031814], [130.4328166, 31.8034933], [130.4325785, 31.8037264], [130.432275, 31.8040213], [130.4321466, 31.8041758], [130.4320986, 31.8042519], [130.4320667, 31.8042986], [130.4320008, 31.8044763], [130.4319757, 31.8046119], [130.4319782, 31.804733], [130.4319918, 31.8048252], [130.4320245, 31.8049311], [130.4321148, 31.805107], [130.4322108, 31.8052252], [130.4323663, 31.8053748], [130.4332801, 31.805924], [130.4337188, 31.8061876], [130.4338874, 31.8063261], [130.4340181, 31.8064859], [130.434132, 31.8066567], [130.4342231, 31.8068504], [130.434271, 31.8070486], [130.4342846, 31.8071943], [130.4342892, 31.8073151], [130.4342687, 31.8074859], [130.4342254, 31.8076704], [130.4341616, 31.8078094], [130.4340773, 31.8079848], [130.433829, 31.8083185], [130.4336466, 31.8085138], [130.4336099, 31.8085531], [130.4334512, 31.8087268], [130.4333246, 31.808856], [130.4332061, 31.8089532], [130.4330443, 31.809076], [130.4327219, 31.8092799], [130.4324304, 31.8094393], [130.4314421, 31.8098623], [130.4297094, 31.8105883], [130.4290781, 31.8108446], [130.4287577, 31.811016], [130.4284517, 31.8112218], [130.4282486, 31.811406], [130.4280976, 31.8115749], [130.4277598, 31.8119292], [130.4275558, 31.8121625], [130.4274301, 31.8123733], [130.4273509, 31.8125332], [130.4272909, 31.8126995], [130.4272593, 31.8128461], [130.4272431, 31.8129813], [130.427232, 31.8131547], [130.4272528, 31.8134062], [130.4273263, 31.813773], [130.4273819, 31.8140653], [130.4274562, 31.8144225], [130.4276288, 31.8153145], [130.4277433, 31.8158474], [130.4278686, 31.8164943], [130.4279521, 31.8169084], [130.4280208, 31.8172336], [130.4282069, 31.8181666], [130.4282559, 31.8183998], [130.4283086, 31.8185907], [130.4283177, 31.8186168], [130.4283801, 31.8187971], [130.4286351, 31.8193074], [130.4287962, 31.8196382], [130.4288639, 31.8197701], [130.4289226, 31.8199253], [130.4289836, 31.8201023], [130.4290168, 31.8202484], [130.4290384, 31.8204102], [130.4290519, 31.8205411], [130.4290646, 31.8209147], [130.4290783, 31.8214455], [130.4290987, 31.8215605], [130.4291407, 31.8217506], [130.4292119, 31.8219003], [130.4293163, 31.8220342], [130.4293858, 31.8221073], [130.4294941, 31.8221921], [130.4296108, 31.8222665], [130.4297233, 31.8223153], [130.4298756, 31.8223704], [130.4300079, 31.8224011], [130.4302829, 31.8224503], [130.4304627, 31.8224836], [130.4306771, 31.8225393], [130.4308084, 31.8225822], [130.4309563, 31.82264], [130.4313183, 31.8228542], [130.4315066, 31.8229695], [130.4316763, 31.8230993], [130.4318324, 31.8232349], [130.4319964, 31.823441], [130.4321183, 31.823613], [130.4322754, 31.8238158], [130.4324224, 31.8239661], [130.432534, 31.8240607], [130.4327948, 31.8242315], [130.4333309, 31.8246322], [130.4339019, 31.825034], [130.4340684, 31.8251635], [130.4342811, 31.8254001], [130.4344375, 31.8256234], [130.434645, 31.8259895], [130.4348042, 31.8262896], [130.4349086, 31.8264815], [130.4349797, 31.8266337], [130.4350913, 31.8269435], [130.4353246, 31.8275402], [130.435379, 31.8276532], [130.4354174, 31.8277976], [130.4354231, 31.8279964], [130.4354239, 31.8280241], [130.4354271, 31.8281018], [130.435375, 31.8283306], [130.4352406, 31.8286593], [130.4349099, 31.8292482], [130.4347707, 31.8294729], [130.434601, 31.829776], [130.4344869, 31.8299664], [130.434402, 31.8300871], [130.4343019, 31.8302207], [130.4342175, 31.8303027], [130.4341353, 31.8303818], [130.4340569, 31.8304541], [130.4339199, 31.8305469], [130.4330699, 31.8310646], [130.4325596, 31.8313916], [130.4323814, 31.831545], [130.4322612, 31.8316626], [130.432157, 31.8318002], [130.43211, 31.8318635], [130.4320146, 31.8320633], [130.431956, 31.83224], [130.431831, 31.832676], [130.4317621, 31.8328416], [130.4316985, 31.8329486], [130.4315066, 31.8332], [130.4313442, 31.833436], [130.4310779, 31.8337783], [130.4307973, 31.8341505], [130.4307019, 31.8343045], [130.4306233, 31.8344498], [130.4305703, 31.8345458], [130.4304986, 31.8347263], [130.430457, 31.8348799], [130.4304276, 31.8350273], [130.4303564, 31.8353967], [130.4303234, 31.8355689], [130.4302307, 31.8360526], [130.4302194, 31.8361126], [130.4300553, 31.8369593], [130.4299678, 31.8374108], [130.4299171, 31.8377278], [130.4299006, 31.8378972], [130.4298881, 31.838043], [130.4298801, 31.838256], [130.4298722, 31.8388176], [130.4298716, 31.8393965], [130.4298494, 31.8406196], [130.4297466, 31.8418377], [130.4297174, 31.8419887], [130.4296762, 31.8421047], [130.42961, 31.8422293], [130.429476, 31.842414], [130.428987, 31.842984], [130.4288677, 31.8431323], [130.4285485, 31.843508], [130.4282184, 31.8439739], [130.4280137, 31.8442837], [130.4276411, 31.8448507], [130.4273595, 31.8451709], [130.4268311, 31.8457039], [130.4267079, 31.8458277], [130.4260276, 31.8465079], [130.4250194, 31.8475333], [130.4248127, 31.8477268], [130.4245927, 31.8479595], [130.424567, 31.8479982], [130.4244961, 31.848105], [130.4244368, 31.8482553], [130.4244089, 31.8483991], [130.4243845, 31.8485993], [130.4243753, 31.8487542], [130.4244005, 31.8489322], [130.4244368, 31.8491232], [130.4245591, 31.8493833], [130.4248841, 31.8499871], [130.425305, 31.8507367], [130.4253728, 31.8508802], [130.4254073, 31.8510026], [130.4254506, 31.8511917], [130.4255082, 31.8516016], [130.4255918, 31.8521963], [130.4256351, 31.8523512], [130.4256989, 31.8524924], [130.4258067, 31.8526227], [130.4259725, 31.8527229], [130.4261148, 31.8527821], [130.4262911, 31.8528181], [130.4265305, 31.8528597], [130.4286732, 31.8530988], [130.4288266, 31.8531393], [130.4289701, 31.8531895], [130.4290999, 31.8532806], [130.4291796, 31.8533854], [130.4292343, 31.8535152], [130.4292765, 31.8537044], [130.4293004, 31.8538114], [130.4292958, 31.8543307], [130.4292753, 31.8549891], [130.4292708, 31.8553376], [130.4292799, 31.8554766], [130.4293038, 31.8556474], [130.4293664, 31.8559458], [130.4294758, 31.8564288], [130.4295145, 31.8565586], [130.4295635, 31.8566657], [130.429659, 31.8568122], [130.4297081, 31.8568536], [130.4298004, 31.8569334], [130.4299416, 31.8570188], [130.4301193, 31.8571053], [130.4303836, 31.8571862], [130.4309064, 31.8573161], [130.4310886, 31.8573844], [130.4312378, 31.8574493], [130.431362, 31.8575461], [130.4314519, 31.8576475], [130.4315328, 31.8577591], [130.4316319, 31.8579254], [130.4316866, 31.8580667], [130.4317435, 31.858291], [130.4317606, 31.8584494], [130.4317834, 31.858881], [130.4317945, 31.858977], [130.4318107, 31.8590826], [130.4318631, 31.8593469], [130.4319312, 31.8595648], [130.4320545, 31.8598982], [130.4323567, 31.8605423], [130.4325488, 31.8609779], [130.4326627, 31.8612609], [130.4327219, 31.8614882], [130.4327679, 31.8616691], [130.4329042, 31.862388], [130.4329697, 31.8627506], [130.432993, 31.8629347], [130.4329987, 31.8630874], [130.4329907, 31.8632092], [130.4329748, 31.8633072], [130.4329543, 31.8634074], [130.43295, 31.8634221], [130.4329167, 31.8635361], [130.4328563, 31.8636774], [130.4328231, 31.863742], [130.4327766, 31.8638323], [130.4326832, 31.8640031], [130.4325955, 31.8641501], [130.4324372, 31.864387], [130.4322698, 31.8645954], [130.4321228, 31.8647663], [130.4317811, 31.8651569], [130.4314565, 31.8655283], [130.4312264, 31.865813], [130.4311604, 31.8659292], [130.4311523, 31.8659446], [130.4311114, 31.8660226], [130.4310738, 31.8661251], [130.4310408, 31.8662675], [130.431026, 31.8663472], [130.4310214, 31.8664212], [130.4310237, 31.8665055], [130.4310362, 31.8665944], [130.4310624, 31.8667026], [130.4311, 31.8668165], [130.4311478, 31.8669235], [130.4312059, 31.8670226], [130.431272, 31.867116], [130.431436, 31.8673085], [130.4315271, 31.8674042], [130.4316968, 31.8675693], [130.4317754, 31.8676616], [130.4318107, 31.867726], [130.4318255, 31.8677778], [130.4318529, 31.8679577], [130.4320568, 31.8680063], [130.4322048, 31.8680741], [130.4323639, 31.8681598], [130.4323807, 31.8681708], [130.4326666, 31.8683572], [130.4331595, 31.8687195], [130.4335565, 31.8690634], [130.434225, 31.8697642], [130.4348762, 31.8704301], [130.4355945, 31.8711071], [130.4364961, 31.8720502], [130.4367599, 31.8723243], [130.4373306, 31.872879], [130.4376222, 31.8731562], [130.4379384, 31.8734386], [130.4382383, 31.873638], [130.4384508, 31.873777], [130.4387794, 31.8739554], [130.4391842, 31.8741213], [130.4394915, 31.8742248], [130.4399657, 31.8743668], [130.440189, 31.8744271], [130.44036, 31.8744717], [130.4406874, 31.8745571], [130.4414832, 31.8747371], [130.4421074, 31.8749092], [130.4432326, 31.8754364], [130.4439115, 31.8757622], [130.4441028, 31.8758875], [130.4442395, 31.8760173], [130.4443508, 31.876179], [130.4450368, 31.8771221], [130.4468444, 31.8796439], [130.4470266, 31.8798922], [130.4472032, 31.8800995], [130.4477248, 31.8805574], [130.4483468, 31.8810765], [130.4488001, 31.8814948], [130.4489208, 31.8816223], [130.4490131, 31.8817408], [130.4490666, 31.8818399], [130.4491224, 31.8819572], [130.4491402, 31.8820279], [130.4491554, 31.8820882], [130.4492078, 31.882275], [130.4492579, 31.8825164], [130.4492671, 31.8826372], [130.4492683, 31.8826542], [130.4492796, 31.882808], [130.449291, 31.8830017], [130.4493206, 31.8836144], [130.4493354, 31.8838149], [130.4493741, 31.8840222], [130.4494527, 31.8844083], [130.4496562, 31.8853482], [130.4496751, 31.885445], [130.4497238, 31.8856943], [130.4497914, 31.8860405], [130.4498173, 31.8862077], [130.4498454, 31.8863782], [130.4500131, 31.887143], [130.4500997, 31.8873264], [130.4501915, 31.8875197], [130.4502101, 31.8875588], [130.4503309, 31.8877866], [130.4505564, 31.8881727], [130.4512763, 31.8893846], [130.4514004, 31.8895931], [130.4518287, 31.8903049], [130.4521237, 31.890781], [130.4521818, 31.890887], [130.4524141, 31.8912765], [130.4525565, 31.8915207], [130.4526358, 31.8917464], [130.452659, 31.8919223], [130.4527832, 31.8923893], [130.4529141, 31.8930135], [130.4529371, 31.8931244], [130.4530527, 31.893681], [130.4531119, 31.8939664], [130.4533754, 31.8952357], [130.4533875, 31.8952921], [130.4535827, 31.8962004], [130.4535985, 31.8962915], [130.4536135, 31.8963781], [130.453634, 31.8965558], [130.4536357, 31.896705], [130.4536294, 31.8968428], [130.4536044, 31.8970991], [130.4535429, 31.8976743], [130.453446, 31.8985718], [130.4533663, 31.8993964], [130.4533743, 31.899483], [130.4533549, 31.8995274], [130.4533458, 31.8995684], [130.4533178, 31.899843], [130.4532991, 31.9000263], [130.4531869, 31.9010451], [130.4531795, 31.9011231], [130.4530679, 31.9021129], [130.452962, 31.9031415], [130.4528071, 31.9047816], [130.4527911, 31.9049001], [130.452757, 31.9050607], [130.4527171, 31.9051746], [130.4526647, 31.905268], [130.4525918, 31.9053614], [130.4523025, 31.9056917], [130.4522057, 31.9058295], [130.4515576, 31.9068195], [130.4515299, 31.9068635], [130.4510063, 31.907677], [130.45075, 31.9080825], [130.4505211, 31.9084287], [130.4504596, 31.9085381], [130.4504054, 31.9086557], [130.450332, 31.9088433], [130.4502967, 31.9089629], [130.4502557, 31.9091634], [130.4502341, 31.9093467], [130.4502184, 31.9095383], [130.450225, 31.9097089], [130.45025, 31.9100427], [130.4502591, 31.9101771], [130.4502603, 31.9103468], [130.45025, 31.9104459], [130.4502341, 31.9105757], [130.4501919, 31.9107557], [130.4500928, 31.9112363], [130.4500222, 31.9115872], [130.449996, 31.9117933], [130.4499801, 31.9121794], [130.4499607, 31.9124653], [130.4499368, 31.9125929], [130.4498776, 31.9127467], [130.4497921, 31.9128765], [130.4496965, 31.9129779], [130.4495757, 31.9130644], [130.4494493, 31.9131248], [130.4492261, 31.9132102], [130.4487944, 31.9133572], [130.4486224, 31.9134312], [130.4484777, 31.9135007], [130.4483194, 31.9135941], [130.4481839, 31.9136875], [130.4480609, 31.9137957], [130.4479538, 31.9138948], [130.4476633, 31.9142], [130.4473262, 31.9145713], [130.4472055, 31.9147194], [130.44712, 31.9148424], [130.4470358, 31.9149928], [130.4469708, 31.9151454], [130.4469219, 31.9152878], [130.44689, 31.9154415], [130.4468672, 31.9156238], [130.4468644, 31.9157206], [130.4468592, 31.9159017], [130.4468421, 31.9170259], [130.4468159, 31.9173972], [130.446784, 31.9175544], [130.4467282, 31.9177275], [130.4466599, 31.9178357], [130.4465756, 31.9179508], [130.4462635, 31.9182788], [130.4460756, 31.9185054], [130.445538, 31.9192914], [130.445178, 31.9198107], [130.4448284, 31.9203233], [130.4447122, 31.9204759], [130.4445926, 31.9206183], [130.4444297, 31.9207664], [130.4437008, 31.9213484], [130.443629, 31.9214133], [130.4431453, 31.9217971], [130.442859, 31.9219919], [130.4426062, 31.9221377], [130.4423009, 31.9222881], [130.4418137, 31.9225085], [130.4412417, 31.9227733], [130.4410549, 31.9228872], [130.4408817, 31.9229931], [130.4407473, 31.923115], [130.4406129, 31.9232539], [130.4404956, 31.9234088], [130.4403863, 31.9235763], [130.4402382, 31.9238485], [130.4395935, 31.9250911], [130.4383486, 31.9275115], [130.4382324, 31.9277188], [130.4381322, 31.9278521], [130.4380251, 31.9279671], [130.4378964, 31.928073], [130.4376675, 31.9282006], [130.4362323, 31.9288214], [130.4339019, 31.9298204], [130.4336035, 31.9299513], [130.4322093, 31.9305525], [130.4319303, 31.9307097], [130.4317185, 31.9308636], [130.4315418, 31.9310202], [130.431362, 31.9312292], [130.4312328, 31.93141], [130.4308796, 31.9319314], [130.4302981, 31.9327395], [130.4301136, 31.9329901], [130.4298912, 31.93324], [130.4296717, 31.933448], [130.4294059, 31.9336135], [130.4284101, 31.9341549], [130.427548, 31.9346209], [130.4271049, 31.9348613], [130.426541, 31.9351662], [130.4236931, 31.9367044], [130.4235803, 31.9367613], [130.4233842, 31.9368709], [130.4231281, 31.9370313], [130.4229106, 31.9371805], [130.4226668, 31.9373844], [130.4224675, 31.9375928], [130.4219481, 31.9381407], [130.4210187, 31.9391339], [130.4207977, 31.9393708], [130.4202681, 31.9399346], [130.4198638, 31.9403526], [130.4195745, 31.9406624], [130.4194711, 31.9408233], [130.4193772, 31.9409354], [130.4191997, 31.9412114], [130.4190844, 31.9414436], [130.4189562, 31.9418863], [130.4189363, 31.9419677], [130.41887, 31.9423604], [130.4187542, 31.9432949], [130.4187205, 31.9435584], [130.4186792, 31.9438049], [130.4186439, 31.9439484], [130.4185687, 31.944133], [130.418526, 31.9442081], [130.4184713, 31.9442913], [130.4183859, 31.9444018], [130.4183039, 31.944486], [130.4182538, 31.9445384], [130.4181587, 31.9446199], [130.4180328, 31.9447144], [130.4176142, 31.945002], [130.4172646, 31.9452458], [130.4170926, 31.9453859], [130.4169923, 31.9454758], [130.4168819, 31.9455966], [130.4167816, 31.945723], [130.4166916, 31.9458585], [130.4166176, 31.9460123], [130.416539, 31.9461945], [130.4155823, 31.9492061], [130.4153476, 31.9499384], [130.4151973, 31.9504237], [130.414826, 31.9515057], [130.4145316, 31.9522374], [130.4142177, 31.953065], [130.4140435, 31.9534682], [130.413925, 31.9536675], [130.4138157, 31.9538213], [130.4136505, 31.9540126], [130.4135321, 31.9541231], [130.4129176, 31.9545671], [130.4124409, 31.9549216], [130.412327, 31.9550412], [130.4122951, 31.9550918], [130.4122678, 31.955146], [130.412245, 31.9552057], [130.4122268, 31.955269], [130.4122182, 31.9553384], [130.4122194, 31.9554051], [130.4122239, 31.9554768], [130.4122387, 31.9555662], [130.4123054, 31.9559461], [130.4123259, 31.956093], [130.4123276, 31.9561802], [130.4123315, 31.9563254], [130.4123241, 31.956474], [130.4122871, 31.9567388], [130.4122262, 31.9570367], [130.4121106, 31.9576107], [130.4120434, 31.9579263], [130.4119739, 31.9581757], [130.4118953, 31.9583978], [130.4117643, 31.9586313], [130.4116481, 31.9588124], [130.4111037, 31.9596086], [130.4107005, 31.9602145], [130.4104647, 31.9605573], [130.4102654, 31.9608751], [130.4102016, 31.9610346], [130.410172, 31.9611485], [130.4101515, 31.9612943], [130.4101538, 31.9614139], [130.4101766, 31.9615289], [130.4102096, 31.9616462], [130.4103292, 31.9619572], [130.4103713, 31.962087], [130.4104055, 31.9622191], [130.4104237, 31.9623422], [130.4104283, 31.9624583], [130.4104203, 31.9625859], [130.4103941, 31.9627249], [130.410199, 31.9634618], [130.410008, 31.9641543], [130.4099453, 31.9643354], [130.4098781, 31.9644778], [130.4097893, 31.9646202], [130.4096663, 31.9647751], [130.4095307, 31.9649197], [130.4091008, 31.9652366], [130.4085956, 31.9656054], [130.4083177, 31.9658662], [130.4081321, 31.966086], [130.4080102, 31.9662626], [130.4079065, 31.9664551], [130.4077904, 31.966733], [130.4072653, 31.9682786], [130.4070603, 31.9688664], [130.4068962, 31.9693607], [130.4067858, 31.9696101], [130.4066867, 31.9697377], [130.4066172, 31.9698174], [130.406509, 31.9698994], [130.4063632, 31.9699905], [130.4062037, 31.9700703], [130.4060431, 31.970142], [130.4054201, 31.9704291], [130.4050602, 31.9706113], [130.4049018, 31.9707218], [130.404772, 31.9708163], [130.4046262, 31.9709541], [130.4044736, 31.9711159], [130.403985, 31.971682], [130.4036467, 31.9720692], [130.4033369, 31.9724041], [130.4031797, 31.9725795], [130.4030533, 31.9727777], [130.4029428, 31.9730021], [130.4028516, 31.9732299], [130.4027856, 31.9734691], [130.402756, 31.9736433], [130.402756, 31.9738164], [130.4027844, 31.9740203], [130.4030407, 31.9748233], [130.4032799, 31.9756104], [130.4033653, 31.9758906], [130.4034678, 31.9761218], [130.4035874, 31.9763086], [130.4037412, 31.9764897], [130.403928, 31.9766469], [130.4044576, 31.9770592], [130.4050055, 31.9774396], [130.4052242, 31.9776184], [130.4053677, 31.9777676], [130.4054896, 31.977943], [130.4056206, 31.9781595], [130.4058643, 31.9786162], [130.4061115, 31.9790513], [130.4062425, 31.9793098], [130.4062846, 31.9794796], [130.4062994, 31.9795946], [130.4062857, 31.97968], [130.4062573, 31.9797586], [130.4062094, 31.9798304], [130.4061331, 31.9799135], [130.4060625, 31.9799625], [130.4059645, 31.9800024], [130.405837, 31.9800251], [130.4057105, 31.9800297], [130.4055807, 31.9800035], [130.4054645, 31.9799545], [130.4053631, 31.9798816], [130.4052743, 31.9798064], [130.4049326, 31.9793588], [130.4046729, 31.9790183], [130.4045624, 31.9789009], [130.4044485, 31.9788121], [130.4043278, 31.9787483], [130.4041854, 31.9787141], [130.4040578, 31.978713], [130.4039303, 31.9787403], [130.4038278, 31.9787836], [130.4037435, 31.9788474], [130.4036763, 31.9789317], [130.4036216, 31.9790183], [130.4035647, 31.9791287], [130.403535, 31.9792472], [130.40342, 31.9796584], [130.4033984, 31.9797791], [130.4034052, 31.9798964], [130.4034132, 31.9799978], [130.4034599, 31.9801106], [130.4035191, 31.9802142], [130.4036011, 31.9803042], [130.403707, 31.9803896], [130.4038107, 31.9804625], [130.4043802, 31.9808315], [130.4052424, 31.9813919], [130.4054474, 31.9815537], [130.405624, 31.9817234], [130.4057288, 31.9818931], [130.405821, 31.9820765], [130.4058951, 31.9822861], [130.4059269, 31.9824922], [130.4059121, 31.9826767], [130.4058814, 31.9828635], [130.4056308, 31.9842315], [130.4055727, 31.9844365], [130.4054816, 31.9846552], [130.4053757, 31.9847896], [130.4052424, 31.9849171], [130.4050978, 31.9850117], [130.4049201, 31.9850869], [130.4047196, 31.9851358], [130.4045169, 31.9851506], [130.4043198, 31.985129], [130.4041353, 31.9850834], [130.4038893, 31.98499], [130.4031318, 31.9846153], [130.4020509, 31.9840576], [130.4018949, 31.9840014], [130.401732, 31.9839775], [130.401596, 31.9839783], [130.4014848, 31.9840025], [130.4013789, 31.9840606], [130.4012821, 31.9841267], [130.4012069, 31.9842144], [130.4011466, 31.9842918], [130.4010156, 31.9844934], [130.400962, 31.9846244], [130.400937, 31.9847247], [130.4009347, 31.9848272], [130.4009541, 31.984916], [130.4010133, 31.9850299], [130.4010851, 31.9851074], [130.4011819, 31.9851916], [130.4013299, 31.9852805], [130.4016978, 31.9855163], [130.4018527, 31.9856336], [130.4019564, 31.9857509], [130.4020464, 31.9858876], [130.4022206, 31.9861871], [130.4024655, 31.9866325], [130.40265, 31.9869651], [130.4026888, 31.9870892], [130.4027047, 31.9872202], [130.4026876, 31.9873671], [130.4026478, 31.9874788], [130.4025601, 31.9876906], [130.4025088, 31.9878318], [130.4024951, 31.9879651], [130.4025179, 31.9880984], [130.4025783, 31.98821], [130.4026683, 31.9883091], [130.4027594, 31.9883854], [130.4029132, 31.9884982], [130.4030544, 31.9885619], [130.4031979, 31.9886086], [130.4033665, 31.9886337], [130.4038016, 31.9886326], [130.4039291, 31.9886348], [130.4040225, 31.9886485], [130.4041911, 31.9887112], [130.4042925, 31.9887829], [130.4043585, 31.9888615], [130.4044098, 31.9889868], [130.4044326, 31.9891246], [130.4044257, 31.9893889], [130.4044303, 31.9894959], [130.4044508, 31.9896292], [130.4045066, 31.9897989], [130.4046057, 31.9899732], [130.4047219, 31.9901611], [130.4048529, 31.9903866], [130.4051457, 31.9911714], [130.4051604, 31.9912181], [130.4052718, 31.9915716], [130.4053091, 31.9917017], [130.4054109, 31.9920703], [130.4054421, 31.9921748], [130.4054893, 31.992359], [130.4055078, 31.9924528], [130.4055135, 31.9925507], [130.4055021, 31.9926179], [130.405485, 31.9926851], [130.4052344, 31.9932079], [130.4050697, 31.9935069], [130.4050385, 31.9935941], [130.4050271, 31.9936806], [130.4050413, 31.9937782], [130.4058757, 31.9965133], [130.4059022, 31.9966319], [130.4059269, 31.9968482], [130.4059383, 31.9970521], [130.405944, 31.9972844], [130.4059429, 31.9974746], [130.4059269, 31.9976181], [130.405903, 31.9977958], [130.4058552, 31.997961], [130.4057846, 31.998133], [130.4057071, 31.998289], [130.4056251, 31.9984234], [130.4055112, 31.9985692], [130.4053848, 31.9987344], [130.4052356, 31.9988995], [130.4050545, 31.9990544], [130.4047857, 31.9992993], [130.4045761, 31.9994964], [130.4045032, 31.9996091], [130.4044542, 31.9997071], [130.4044201, 31.999805], [130.4044098, 31.9998961], [130.4044121, 32.0000009], [130.4044417, 32.0000909], [130.4045089, 32.000231], [130.4046023, 32.00037], [130.4047299, 32.0005385], [130.4047948, 32.0006581], [130.4048506, 32.0007891], [130.4048768, 32.0009053], [130.4048677, 32.0010397], [130.4048369, 32.0011764], [130.4047663, 32.0013677], [130.4044394, 32.0023268], [130.4039622, 32.0036508], [130.4036025, 32.0045923], [130.4034815, 32.0049294], [130.40342, 32.0051777], [130.4033893, 32.005352], [130.4033722, 32.0055729], [130.4033551, 32.0058634], [130.4033198, 32.0060445], [130.4032742, 32.0061903], [130.4032082, 32.0063281], [130.4031136, 32.0064591], [130.4029963, 32.0066094], [130.402363, 32.0073258], [130.4014211, 32.0084409], [130.4008994, 32.0090491], [130.4008037, 32.0092006], [130.4007639, 32.0092769], [130.4007308, 32.0093612], [130.4007046, 32.0094364], [130.4006887, 32.0095264], [130.4006841, 32.0096175], [130.4006864, 32.0096938], [130.400708, 32.0098487], [130.4007297, 32.0100434], [130.4008254, 32.0108089], [130.4009324, 32.0116586], [130.4010008, 32.0121552], [130.4010008, 32.0122497], [130.4010008, 32.01235], [130.400986, 32.0124388], [130.4009507, 32.0125436], [130.4009097, 32.0126541], [130.4008709, 32.0127372], [130.4004859, 32.0132908], [130.4004279, 32.0134035], [130.4003789, 32.0135163], [130.4003288, 32.0136496], [130.4003026, 32.013784], [130.4002946, 32.0138626], [130.4002957, 32.0139503], [130.4003037, 32.0140106], [130.4003481, 32.0141507], [130.4004939, 32.0144218], [130.4006226, 32.014661], [130.4006784, 32.014817], [130.4007012, 32.0150107], [130.4006921, 32.0151963], [130.4006623, 32.0154536], [130.4006272, 32.0158068], [130.4005885, 32.0161018], [130.4005281, 32.016521], [130.4004814, 32.0167146], [130.400413, 32.0168729], [130.4003322, 32.0170085], [130.4001773, 32.0171884], [130.4000087, 32.0173832], [130.3997536, 32.0176634], [130.399413, 32.0179823], [130.3992945, 32.0181327], [130.3991658, 32.0182648], [130.3990656, 32.0183684], [130.3989859, 32.0184334], [130.3988925, 32.0184926], [130.3987911, 32.0185439], [130.3987125, 32.0185678], [130.3986396, 32.0185849], [130.3985326, 32.0185974], [130.3984084, 32.0185883], [130.3982751, 32.0185712], [130.3979858, 32.0185142], [130.397889, 32.0185029], [130.3977717, 32.0185029], [130.3976578, 32.0185165], [130.3975496, 32.018545], [130.397438, 32.0185928], [130.3973343, 32.0186555], [130.3970097, 32.0189197], [130.3962944, 32.01952], [130.3960678, 32.019684], [130.395865, 32.0197899], [130.3952705, 32.0200428], [130.3950267, 32.0201738], [130.3948764, 32.0202808], [130.3947249, 32.0204289], [130.3945996, 32.0205781], [130.3945073, 32.0207239], [130.3943046, 32.0210371], [130.3941987, 32.0211727], [130.3940643, 32.0213105], [130.3936428, 32.0216738], [130.3934936, 32.0218151], [130.3933774, 32.0219574], [130.3932168, 32.0221909], [130.3930403, 32.0225201], [130.392874, 32.0228367], [130.3928159, 32.0229985], [130.3927635, 32.0231921], [130.3927373, 32.0233436], [130.3927305, 32.0234985], [130.3927111, 32.0239029], [130.3926872, 32.0245623], [130.3926713, 32.0246956], [130.3926371, 32.0248585], [130.3924929, 32.0252894], [130.3923502, 32.0256797], [130.3921895, 32.0260954], [130.392079, 32.0263323], [130.39196, 32.0265381], [130.3917359, 32.0268562], [130.3916786, 32.026924], [130.3915288, 32.0270636], [130.3913489, 32.0272105], [130.3911416, 32.0273358], [130.3908947, 32.0274613], [130.3900231, 32.0278609], [130.3896734, 32.0279998], [130.3893522, 32.0281035], [130.3885526, 32.0283096], [130.3880389, 32.0284418], [130.3874114, 32.0285511], [130.3868476, 32.0286012], [130.3866573, 32.0286286], [130.3864478, 32.0286718], [130.3861585, 32.0287539], [130.3859045, 32.0288541], [130.3857006, 32.0289691], [130.3854272, 32.0291445], [130.3852848, 32.0292619], [130.3851675, 32.029386], [130.3850479, 32.029542], [130.3849739, 32.0296708], [130.3849124, 32.0297903], [130.3848606, 32.0299252], [130.3848278, 32.0300117], [130.3845889, 32.0306742], [130.3844317, 32.031115], [130.3842928, 32.0314704], [130.3842392, 32.0315752], [130.3841652, 32.0316913], [130.3840889, 32.0317847], [130.3839864, 32.0318599], [130.3838884, 32.0319191], [130.3837814, 32.031959], [130.3836424, 32.0319955], [130.3833087, 32.0320558], [130.3831561, 32.0321014], [130.3830319, 32.0321435], [130.3829339, 32.0321959], [130.3827973, 32.0322882], [130.382713, 32.0323713], [130.3826412, 32.0324624], [130.3825831, 32.0325729], [130.3825478, 32.032672], [130.3825262, 32.0327734], [130.3825205, 32.0328827], [130.382541, 32.0330832], [130.3825888, 32.0333383], [130.3825991, 32.0334511], [130.3825922, 32.0335661], [130.3825706, 32.0336573], [130.382525, 32.0337643], [130.3824692, 32.0338566], [130.3823815, 32.0339705], [130.382115, 32.0342769], [130.3819897, 32.0344397], [130.3818781, 32.0346186], [130.3817995, 32.0347837], [130.3817346, 32.0349307], [130.3816879, 32.035073], [130.3816594, 32.0352245], [130.3816457, 32.0353988], [130.3816309, 32.0357177], [130.3816081, 32.0358293], [130.3815649, 32.0359318], [130.3814931, 32.036015], [130.3813872, 32.036097], [130.3812995, 32.0361505], [130.3810557, 32.0362792], [130.3809589, 32.0363464], [130.3808986, 32.0364011], [130.3808621, 32.0364489], [130.3808257, 32.036515], [130.3808006, 32.0365765], [130.3807847, 32.036646], [130.3807801, 32.0367086], [130.3807926, 32.0367815], [130.3808211, 32.0368556], [130.3808769, 32.0369319], [130.3809293, 32.0370014], [130.3812118, 32.0372781], [130.3812733, 32.0373533], [130.3813023, 32.0374082], [130.3813382, 32.0374991], [130.3813633, 32.0376028], [130.3813633, 32.0377075], [130.381345, 32.0377964], [130.3812915, 32.0378886], [130.3812243, 32.0379684], [130.3811537, 32.0380242], [130.3810261, 32.0380914], [130.3807721, 32.0381836], [130.3803928, 32.0383226], [130.3803017, 32.0383704], [130.3801924, 32.0384365], [130.3801195, 32.0384991], [130.3800591, 32.0385766], [130.3799612, 32.038752], [130.3798006, 32.0390914], [130.3797459, 32.0392065], [130.3796339, 32.0393614], [130.3795693, 32.0394252], [130.3795044, 32.0394764], [130.3794304, 32.0395208], [130.3793427, 32.0395584], [130.3790238, 32.0396575], [130.3788347, 32.039731], [130.3787367, 32.0398005], [130.3786603, 32.0398689], [130.3786086, 32.0399411], [130.3785727, 32.040018], [130.3785528, 32.0400903], [130.3785437, 32.0401655], [130.378559, 32.0404594], [130.3786035, 32.0410232], [130.3785875, 32.0411633], [130.3785568, 32.0412703], [130.3785158, 32.0413637], [130.3784429, 32.0414492], [130.3783381, 32.0415391], [130.3782048, 32.0416132], [130.3778825, 32.0417533], [130.3777412, 32.0418227], [130.3776039, 32.041908], [130.3775032, 32.0419913], [130.3774109, 32.042095], [130.3773369, 32.0421952], [130.377264, 32.0423433], [130.3771193, 32.0427544], [130.3770419, 32.0428809], [130.3769519, 32.042972], [130.3768357, 32.0430506], [130.376723, 32.0430996], [130.3765817, 32.0431269], [130.3763642, 32.0431531], [130.3760908, 32.0431895], [130.3759792, 32.0432237], [130.3758835, 32.0432716], [130.375797, 32.0433296], [130.3756386, 32.0434606], [130.3753892, 32.0437215], [130.3752468, 32.0438581], [130.3750999, 32.0439732], [130.3749701, 32.0440643], [130.374814, 32.0441486], [130.3746147, 32.0442454], [130.3744404, 32.0443035], [130.3742901, 32.0443479], [130.3741295, 32.0443844], [130.3739404, 32.0444049], [130.3736158, 32.0444322], [130.3732695, 32.044463], [130.3730224, 32.0444994], [130.3728413, 32.0445432], [130.3725918, 32.0446315], [130.3723925, 32.0447033], [130.3722216, 32.0447944], [130.3720394, 32.0449186], [130.371938, 32.0449994], [130.3718674, 32.0450746], [130.3717888, 32.0451703], [130.371725, 32.0452728], [130.3716624, 32.045414], [130.3716123, 32.0455792], [130.3715986, 32.0457227], [130.3716123, 32.0458719], [130.3716339, 32.0460074], [130.3717364, 32.046389], [130.3717569, 32.0465132], [130.3717455, 32.0466271], [130.3717193, 32.0467113], [130.3716613, 32.046799], [130.371569, 32.0468799], [130.3714859, 32.0469323], [130.3713674, 32.0469858], [130.371053, 32.0470678], [130.3706578, 32.0471886], [130.3704744, 32.0472706], [130.3703377, 32.0473435], [130.3701601, 32.0474631], [130.3687033, 32.0484665], [130.3684561, 32.0486476], [130.3683342, 32.0487615], [130.3682602, 32.0488629], [130.3682112, 32.0489609], [130.368193, 32.0490884], [130.3682067, 32.0492194], [130.3682534, 32.0493493], [130.3683115, 32.0494985], [130.3685199, 32.0498948], [130.3686069, 32.0500429], [130.36866, 32.0501773], [130.3687067, 32.0503208], [130.3687329, 32.0504404], [130.3687329, 32.0505851], [130.3687192, 32.0507183], [130.3686873, 32.0508573], [130.3686327, 32.0509746], [130.368558, 32.0510977], [130.3684618, 32.0512229], [130.3683297, 32.0513516], [130.3681884, 32.0514655], [130.3679253, 32.0516717], [130.3677169, 32.0518824], [130.3676144, 32.0520282], [130.3673809, 32.0523551], [130.3672864, 32.0524565], [130.3671952, 32.0525419], [130.367062, 32.0526171], [130.3669264, 32.0526694], [130.3666565, 32.0527367], [130.3662521, 32.0528414], [130.3660911, 32.0529014], [130.3659663, 32.0529793], [130.3658592, 32.0530658], [130.365776, 32.0531786], [130.3657236, 32.053264], [130.3656804, 32.0533631], [130.3656542, 32.0534816], [130.3655676, 32.0538244], [130.3655061, 32.0539622], [130.3654218, 32.0540738], [130.3653147, 32.0541604], [130.365194, 32.0542424], [130.3649503, 32.0543859], [130.3647817, 32.0544736], [130.3646518, 32.054575], [130.3645209, 32.0546809], [130.3644149, 32.054796], [130.364317, 32.0549247], [130.3642168, 32.0550887], [130.364129, 32.0552493], [130.3640243, 32.0554315], [130.3639206, 32.0556195], [130.3636256, 32.0561161], [130.3634286, 32.0564521], [130.3632953, 32.0566981], [130.3632156, 32.0568644], [130.3631318, 32.0570359], [130.362981, 32.0574213], [130.3629287, 32.0575854], [130.3628417, 32.0578388], [130.3627389, 32.0581174], [130.3626586, 32.058315], [130.362552, 32.0585769], [130.3623435, 32.0590785], [130.3623049, 32.0591788], [130.3621734, 32.0594602], [130.362031, 32.0596572], [130.3619433, 32.0597688], [130.3618146, 32.0599089], [130.3616733, 32.0600387], [130.3614855, 32.0601826], [130.3613271, 32.0603082], [130.3611483, 32.0604477], [130.3609638, 32.0605878], [130.3607542, 32.0607393], [130.3606483, 32.0608201], [130.3605161, 32.0609204], [130.3604091, 32.0610206], [130.36031, 32.061122], [130.3601687, 32.0612997], [130.3600435, 32.0614865], [130.359933, 32.061712], [130.3598999, 32.061835], [130.3598624, 32.06204], [130.3597974, 32.0623487], [130.3597553, 32.0626004], [130.3597074, 32.0628419], [130.3596437, 32.0630913], [130.3595662, 32.0633168], [130.3594853, 32.063507], [130.3593965, 32.0637132], [130.3593361, 32.0638335], [130.3592723, 32.0639604], [130.3591698, 32.0641255], [130.3589158, 32.0646119], [130.358786, 32.0648818], [130.3584318, 32.0655094], [130.3581641, 32.0659308], [130.3580775, 32.0660561], [130.358053, 32.0660929], [130.3580042, 32.0661661], [130.357975, 32.0662099], [130.3578395, 32.0663807], [130.3576812, 32.0665858], [130.3575866, 32.0667019], [130.3574374, 32.0668398], [130.357367, 32.0668949], [130.3571811, 32.0670402], [130.3569203, 32.0672054], [130.3566868, 32.0673534], [130.3566719, 32.0673655], [130.3565684, 32.0674491], [130.356451, 32.0675528], [130.3563326, 32.0676803], [130.3562346, 32.0678033], [130.3561538, 32.0679207], [130.3560046, 32.0681633], [130.355961, 32.0682376], [130.3558462, 32.0684332], [130.3556675, 32.0687121], [130.3555535, 32.0689013], [130.355451, 32.0690232], [130.3553212, 32.0691656], [130.3551435, 32.0693137], [130.355033, 32.0693911], [130.3548325, 32.0695141], [130.3545441, 32.0696748], [130.354161, 32.0698883], [130.3535466, 32.0702306], [130.3530147, 32.0705073], [130.351393, 32.0713869], [130.351047, 32.0715741], [130.3496687, 32.0723251], [130.3493509, 32.0725274], [130.349212, 32.0726219], [130.3490111, 32.0727865], [130.3488505, 32.0729425], [130.3486796, 32.0731384], [130.3485475, 32.0733138], [130.3484108, 32.0735325], [130.3482673, 32.0737979], [130.3478715, 32.0745396], [130.3473193, 32.0756056], [130.3466819, 32.0768601], [130.3456341, 32.0788272], [130.3448269, 32.0803661], [130.3447036, 32.0806345], [130.344532, 32.0810135], [130.3444753, 32.0812029], [130.344429, 32.0814394], [130.3443706, 32.0817202], [130.3443481, 32.081878], [130.3443355, 32.0821548], [130.3443281, 32.0825166], [130.3443073, 32.0832821], [130.3442941, 32.0838625], [130.3442765, 32.0840163], [130.3442398, 32.0842425], [130.3441817, 32.0844795], [130.3441009, 32.084746], [130.3436948, 32.0857819], [130.3431487, 32.0871447], [130.342594, 32.0885468], [130.3422899, 32.0893213], [130.3418832, 32.0903248], [130.3415711, 32.0911301], [130.3411634, 32.0921392], [130.34098, 32.0925948], [130.3407966, 32.0929958], [130.3405426, 32.0934969], [130.340308, 32.0939389], [130.3399697, 32.0945596], [130.3397943, 32.0948717], [130.3395961, 32.0951644], [130.3394173, 32.0953729], [130.3392282, 32.095587], [130.3390551, 32.0957453], [130.3386815, 32.0960608], [130.3382954, 32.0963444], [130.3372687, 32.0970095], [130.3366632, 32.0974299], [130.3363602, 32.0976805], [130.3361233, 32.0979311], [130.3359206, 32.0981748], [130.3357315, 32.0984527], [130.335572, 32.0987466], [130.3354376, 32.0990814], [130.3352258, 32.0997785], [130.3351028, 32.100127], [130.3349843, 32.1004186], [130.3348431, 32.1006806], [130.334695, 32.1009335], [130.3344991, 32.1011909], [130.3336507, 32.1023475], [130.3320707, 32.1045016], [130.3316508, 32.1050741], [130.3307869, 32.1062518], [130.3289232, 32.1087926], [130.3287954, 32.1089668], [130.3280069, 32.1100416], [130.3277873, 32.1103411], [130.3276113, 32.110581]], [[130.4414832, 31.8747371], [130.4409578, 31.8745654], [130.4403768, 31.8743991], [130.4402423, 31.8743606], [130.4398061, 31.8742379], [130.4397622, 31.874224], [130.439519, 31.8741468], [130.439138, 31.8740167], [130.4387983, 31.8738634], [130.4385156, 31.8737099], [130.4382478, 31.8735519], [130.4379842, 31.8733552], [130.4376784, 31.8730815], [130.4368532, 31.872247], [130.4366252, 31.8720436], [130.4356815, 31.8710604], [130.4351311, 31.8705074], [130.4345627, 31.8699341], [130.4336515, 31.8690238], [130.4332464, 31.8686646], [130.4327863, 31.8683133], [130.4325629, 31.8681616], [130.4322803, 31.8679922], [130.432117, 31.8679492], [130.4318529, 31.8679577]]]}, "id": "relation/9674712"}, {"type": "Feature", "properties": {"@id": "relation/10992127", "description": "出水市内のバイパス", "name": "国道328号バイパス", "network": "JP:national", "ref": "328", "route": "road", "type": "route"}, "geometry": {"type": "MultiLineString", "coordinates": [[[130.3535466, 32.0702306], [130.3530147, 32.0705073], [130.351393, 32.0713869], [130.351047, 32.0715741], [130.3496687, 32.0723251], [130.3493509, 32.0725274], [130.349212, 32.0726219], [130.3490111, 32.0727865], [130.3488505, 32.0729425], [130.3486796, 32.0731384], [130.3485475, 32.0733138], [130.3484108, 32.0735325], [130.3482673, 32.0737979], [130.3478715, 32.0745396], [130.3473193, 32.0756056], [130.3466819, 32.0768601], [130.3456341, 32.0788272], [130.3448269, 32.0803661], [130.3447036, 32.0806345], [130.344532, 32.0810135], [130.3444753, 32.0812029], [130.344429, 32.0814394], [130.3443706, 32.0817202], [130.3443481, 32.081878], [130.3443355, 32.0821548], [130.3443281, 32.0825166], [130.3443073, 32.0832821], [130.3442941, 32.0838625], [130.3442765, 32.0840163], [130.3442398, 32.0842425], [130.3441817, 32.0844795], [130.3441009, 32.084746], [130.3436948, 32.0857819], [130.3431487, 32.0871447], [130.342594, 32.0885468], [130.3422899, 32.0893213], [130.3418832, 32.0903248], [130.3415711, 32.0911301], [130.3411634, 32.0921392], [130.34098, 32.0925948], [130.3407966, 32.0929958], [130.3405426, 32.0934969], [130.340308, 32.0939389], [130.3399697, 32.0945596], [130.3397943, 32.0948717], [130.3395961, 32.0951644], [130.3394173, 32.0953729], [130.3392282, 32.095587], [130.3390551, 32.0957453], [130.3386815, 32.0960608], [130.3382954, 32.0963444], [130.3372687, 32.0970095], [130.3366632, 32.0974299], [130.3363602, 32.0976805], [130.3361233, 32.0979311], [130.3359206, 32.0981748], [130.3357315, 32.0984527], [130.335572, 32.0987466], [130.3354376, 32.0990814], [130.3352258, 32.0997785], [130.3351028, 32.100127], [130.3349843, 32.1004186], [130.3348431, 32.1006806], [130.334695, 32.1009335], [130.3344991, 32.1011909], [130.3336507, 32.1023475], [130.3320707, 32.1045016], [130.3316508, 32.1050741], [130.3307869, 32.1062518], [130.3289232, 32.1087926], [130.3287954, 32.1089668], [130.3280069, 32.1100416], [130.3277873, 32.1103411], [130.3276113, 32.110581]]]}, "id": "relation/10992127"}]}