{"type": "FeatureCollection", "generator": "kokudo-quiz tools/fetch_raw.py (Overpass API)", "copyright": "The data included in this document is from www.openstreetmap.org. The data is made available under ODbL.", "timestamp": "2026-09-30T16:21:53Z", "features": [{"type": "Feature", "properties": {"@id": "relation/10535240", "colour": "red", "distance": "92.2", "from": "沖縄県名護市", "name": "国道329号", "name:en": "National Highway Route 329", "name:ja": "国道329号", "network": "JP:national", "official_name": "一般国道329号", "ref": "329", "route": "road", "to": "沖縄県那覇市", "type": "route", "wikidata": "Q6157250", "wikipedia": "ja:国道329号"}, "geometry": {"type": "MultiLineString", "coordinates": [[[127.9841314, 26.5756563], [127.9842099, 26.5755787], [127.9843225, 26.5754805], [127.9845704, 26.5752642], [127.9846626, 26.5751898], [127.9847999, 26.5750822], [127.9854114, 26.5746028], [127.9854729, 26.5745497], [127.9857329, 26.5743596], [127.9859355, 26.5742208], [127.9860942, 26.5741061], [127.9863949, 26.5739408], [127.9866269, 26.5738436], [127.9868676, 26.573751], [127.9871326, 26.5736634], [127.9874152, 26.5735793], [127.9876332, 26.573507], [127.9879566, 26.5733957], [127.9880707, 26.5733539], [127.9881101, 26.5733391], [127.9882498, 26.5732902], [127.9883501, 26.5732557], [127.9888745, 26.5730693], [127.9891722, 26.5729691], [127.9896944, 26.5728038], [127.989765, 26.5727825], [127.9905922, 26.5725363], [127.9907554, 26.5724801], [127.9909186, 26.5724239], [127.9910531, 26.5723744], [127.9911003, 26.5723559], [127.9911474, 26.5723374], [127.9913226, 26.5722632], [127.9914961, 26.572171], [127.9916013, 26.5721081], [127.9917054, 26.5720373], [127.9918379, 26.5719375], [127.9919631, 26.5718298], [127.9922758, 26.571523], [127.9924971, 26.5713178], [127.9926786, 26.5711864], [127.9927869, 26.5711221], [127.9929019, 26.5710619], [127.9931292, 26.5709711], [127.9933653, 26.570898], [127.9935667, 26.5708397], [127.9938177, 26.570767], [127.9940623, 26.5706934], [127.9945163, 26.5705622], [127.9948539, 26.5704646], [127.9950817, 26.5704026], [127.9952108, 26.5703602], [127.9953226, 26.5703174], [127.9955077, 26.5702535], [127.995756, 26.570136], [127.996037, 26.5699891], [127.9962183, 26.5698642], [127.9964727, 26.5697012], [127.9966352, 26.5695946], [127.9968268, 26.5694826], [127.9970499, 26.5693736], [127.9972892, 26.5692881], [127.9975658, 26.5692134], [127.9977887, 26.5691754], [127.9985317, 26.5690632], [127.9987529, 26.5690245], [127.9989166, 26.5689813], [127.9991329, 26.5689112], [127.9992698, 26.5688499], [127.9994301, 26.5687573], [127.9995682, 26.5686458], [127.9997049, 26.5685028], [127.9997829, 26.5684098], [127.9998706, 26.5682793], [127.999935, 26.5681383], [127.9999909, 26.5679874], [128.0000982, 26.56762], [128.0001797, 26.5673336], [128.0002653, 26.5671195], [128.000402, 26.5668705], [128.0005246, 26.5666733], [128.0006451, 26.5665097], [128.0007869, 26.5663429], [128.0009535, 26.5661872], [128.0012284, 26.5659704], [128.0018633, 26.5654928], [128.0021658, 26.5652414], [128.0022759, 26.5651194], [128.0023359, 26.5650276], [128.0024066, 26.5648658], [128.0024474, 26.5647674], [128.0025001, 26.5645813], [128.0025378, 26.564364], [128.0025595, 26.564043], [128.0025665, 26.5637896], [128.0026279, 26.5629288], [128.0026332, 26.562696], [128.0026424, 26.5623872], [128.0026183, 26.5619026], [128.0025271, 26.561358], [128.0025236, 26.5612212], [128.0025131, 26.5610308], [128.0025328, 26.5608656], [128.0025962, 26.560685], [128.0026654, 26.5605128], [128.0027733, 26.5603308], [128.0029052, 26.5601848], [128.0030914, 26.5600276], [128.0033854, 26.5598561], [128.0037448, 26.5596618], [128.0039314, 26.5595154], [128.0041203, 26.5593595], [128.0042661, 26.5592016], [128.00437, 26.559039], [128.004457, 26.558909], [128.0046485, 26.5585666], [128.004726, 26.5584], [128.00482, 26.558276], [128.0049711, 26.5580494], [128.0051031, 26.5579004], [128.005226, 26.5577856], [128.005541, 26.5575136], [128.0059765, 26.5571674], [128.006471, 26.5567825], [128.0065796, 26.5567192], [128.0068637, 26.5565724], [128.0071283, 26.5565], [128.0074249, 26.5564462], [128.0077255, 26.5564448], [128.0081861, 26.5565049], [128.0085371, 26.5565743], [128.0087048, 26.5566178], [128.0092233, 26.5567524], [128.009261, 26.5567622], [128.0099407, 26.5569291], [128.0102648, 26.5569724], [128.0104474, 26.556965], [128.0106168, 26.5569484], [128.0108494, 26.556914], [128.0110448, 26.5568598], [128.0113284, 26.556741], [128.012102, 26.5563414], [128.0123441, 26.5562507], [128.012482, 26.5562092], [128.0125605, 26.5561856], [128.0128321, 26.5561326], [128.013213, 26.5561134], [128.0139968, 26.5560731], [128.0141763, 26.5560556], [128.0143525, 26.5560162], [128.0146519, 26.5559288], [128.0148545, 26.5558638], [128.0150826, 26.5557222], [128.0153802, 26.5555256], [128.015686, 26.5552832], [128.0161778, 26.5548724], [128.0164087, 26.55465], [128.0165431, 26.5545094], [128.0167106, 26.5543091], [128.0168697, 26.554048], [128.0172899, 26.5533926], [128.0177027, 26.5527528], [128.0179219, 26.55247], [128.0181052, 26.5522884], [128.0182539, 26.5521554], [128.018459, 26.5519788], [128.0187866, 26.5517515], [128.0191371, 26.5515679], [128.0195084, 26.551366], [128.0199105, 26.5511805], [128.0203101, 26.5509621], [128.020655, 26.5507028], [128.0210745, 26.5502951], [128.0213523, 26.5499648], [128.0214991, 26.5497578], [128.0218084, 26.5492392], [128.0223148, 26.5483684], [128.0224773, 26.5481069], [128.0227616, 26.5477206], [128.022981, 26.5474612], [128.0231155, 26.547348], [128.023484, 26.547106], [128.023762, 26.54696], [128.024151, 26.546819], [128.024527, 26.546683], [128.0248313, 26.5465672], [128.0251777, 26.5464408], [128.0255617, 26.5462494], [128.0257925, 26.546101], [128.0259308, 26.5459929], [128.0260366, 26.5459018], [128.0261614, 26.5457222], [128.0262296, 26.5456254], [128.0263256, 26.5454872], [128.0264611, 26.5452427], [128.0265949, 26.5448836], [128.0267302, 26.5444603], [128.0268358, 26.5439891], [128.027029, 26.543482], [128.0272382, 26.543116], [128.0275082, 26.5428144], [128.0280001, 26.5425279], [128.0294733, 26.5419058], [128.0296378, 26.5418361], [128.0297923, 26.5417706], [128.0299691, 26.5416969], [128.0305788, 26.5414446], [128.0309349, 26.5413083], [128.0313567, 26.5411361], [128.0317325, 26.5409682], [128.0319579, 26.5408586], [128.032093, 26.5407741], [128.0322625, 26.5406269], [128.0323865, 26.5405006], [128.0325244, 26.5403367], [128.0333219, 26.5393935], [128.0338627, 26.5387843], [128.0342296, 26.5383936], [128.0344046, 26.5382259], [128.034671, 26.5380234], [128.0349524, 26.5378337], [128.0351955, 26.5376956], [128.0354206, 26.5375915], [128.0363025, 26.5372337], [128.0366442, 26.5370625], [128.0368736, 26.5368957], [128.0370977, 26.5366861], [128.0372938, 26.5364391], [128.0374137, 26.5362257], [128.0375018, 26.5360329], [128.0375837, 26.5358053], [128.037759, 26.5352195], [128.0378826, 26.5348893], [128.0380199, 26.5345945], [128.0381648, 26.5343514], [128.0383673, 26.5340854], [128.0386183, 26.5338329], [128.0388297, 26.533652], [128.039045, 26.5334864], [128.0393426, 26.5332995], [128.0396253, 26.5331687], [128.0399181, 26.5330581], [128.0401564, 26.5329786], [128.0404767, 26.5329036], [128.0414515, 26.5327223], [128.0417101, 26.5326538], [128.0419825, 26.5325597], [128.0421767, 26.532476], [128.0423759, 26.5323798], [128.0425296, 26.5322904], [128.0426955, 26.5321746], [128.0428273, 26.5320622], [128.0429382, 26.5319574], [128.0430325, 26.5318381], [128.0431353, 26.5316837], [128.0432378, 26.5314877], [128.0432982, 26.5313005], [128.0433451, 26.5310761], [128.0433652, 26.5308434], [128.0433652, 26.5306286], [128.0433169, 26.5304066], [128.0432646, 26.530241], [128.0431574, 26.5300634], [128.0430608, 26.5298955], [128.0429642, 26.5297419], [128.0427968, 26.5295314], [128.0425703, 26.5293388], [128.0423785, 26.5292208], [128.0421388, 26.5290894], [128.0417942, 26.5289286], [128.0415133, 26.5288096], [128.0400441, 26.5282482], [128.0398672, 26.5281778], [128.0397237, 26.5281234], [128.0384028, 26.5276239], [128.0374364, 26.5272319], [128.0373927, 26.5272143], [128.0372883, 26.5271721], [128.0367116, 26.526931], [128.0362323, 26.5267009], [128.0357416, 26.5264554], [128.0355696, 26.5263563], [128.0349161, 26.5260027], [128.0344305, 26.5257384], [128.0340989, 26.5255922], [128.0338602, 26.5255056], [128.0335987, 26.5254155], [128.0332632, 26.5253108], [128.032962, 26.5252465], [128.0327295, 26.5252248], [128.0325736, 26.5252125], [128.0325305, 26.5252102], [128.0322731, 26.5251989], [128.0320046, 26.5251921], [128.0307621, 26.5252211], [128.030228, 26.5252451], [128.0301471, 26.525248], [128.0295534, 26.525256], [128.0292708, 26.5252471], [128.0289943, 26.5252323], [128.0287862, 26.52521], [128.028583, 26.525184], [128.028322, 26.52514], [128.0280399, 26.5250766], [128.0277824, 26.5250068], [128.0275225, 26.5249269], [128.0270895, 26.524772], [128.0264681, 26.5245382], [128.0261243, 26.524413], [128.0256921, 26.524289], [128.0250214, 26.5241215], [128.0247765, 26.5240703], [128.0243826, 26.5240039], [128.023987, 26.5239527], [128.0234879, 26.5238953], [128.0230484, 26.5238535], [128.0226621, 26.5238068], [128.0223259, 26.5237564], [128.0221417, 26.523714], [128.0218732, 26.5236494], [128.0216414, 26.5235782], [128.0214336, 26.5235074], [128.0213034, 26.5234556], [128.0211404, 26.5233874], [128.0210265, 26.5233303], [128.0208623, 26.523245], [128.0201504, 26.5228141], [128.0187988, 26.5219679], [128.0185168, 26.5217914], [128.0184825, 26.5217726], [128.0183245, 26.521686], [128.018185, 26.5216071], [128.0181497, 26.5215871], [128.0178905, 26.5214563], [128.0176332, 26.52134], [128.0173168, 26.5212334], [128.0171046, 26.5211678], [128.0168688, 26.5211096], [128.0163945, 26.52102], [128.0150161, 26.5207853], [128.0136723, 26.5205675], [128.0122872, 26.5203308], [128.0121427, 26.5203069], [128.0111394, 26.5201397], [128.0102065, 26.5199829], [128.0101115, 26.5199673], [128.0096899, 26.519898], [128.0093036, 26.5198295], [128.008867, 26.5197306], [128.0085574, 26.5196503], [128.0081577, 26.5195357], [128.007875, 26.5194412], [128.0074889, 26.5192926], [128.0071265, 26.5191562], [128.0067905, 26.5189992], [128.0064783, 26.5188369], [128.0061899, 26.5186746], [128.005869, 26.518493], [128.0053841, 26.5181266], [128.005061, 26.51785], [128.0046311, 26.5174485], [128.0041035, 26.5169131], [128.003536, 26.5163803], [128.0032494, 26.5161167], [128.0029115, 26.5157716], [128.0023407, 26.5152335], [128.0022942, 26.5151876], [128.0022067, 26.5151014], [128.0021596, 26.5150583], [128.0019556, 26.5148569], [128.0018206, 26.5147237], [128.0014141, 26.5143261], [128.0012961, 26.5142145], [128.001008, 26.5139907], [128.000772, 26.5138411], [128.0005902, 26.5137695], [128.0004548, 26.5137095], [128.0003001, 26.5136484], [127.9997453, 26.5134887], [127.9993219, 26.513366], [127.9986924, 26.5131905], [127.9980455, 26.5129983], [127.9975602, 26.5128511], [127.9965327, 26.512544], [127.9963657, 26.5124867], [127.9962163, 26.512423], [127.9960519, 26.5123415], [127.9958938, 26.5122496], [127.99573, 26.512138], [127.9955663, 26.5120119], [127.9954145, 26.5118806], [127.9952726, 26.5117325], [127.9950778, 26.511489], [127.9949553, 26.5112845], [127.9947852, 26.5109247], [127.9943927, 26.5099346], [127.9940474, 26.5090487], [127.993842, 26.5087028], [127.993659, 26.5084385], [127.9930895, 26.5078165], [127.9928046, 26.5075159], [127.992725, 26.5074394], [127.9925449, 26.5072622], [127.9925041, 26.507222], [127.992255, 26.5069704], [127.9921767, 26.50689], [127.9920408, 26.5067429], [127.9916466, 26.5062866], [127.9915689, 26.5061834], [127.9915001, 26.5060883], [127.9914333, 26.5059843], [127.9913618, 26.505855], [127.9913136, 26.5057534], [127.9912725, 26.5056576], [127.9912321, 26.5055386], [127.9912266, 26.5055134], [127.9912003, 26.5054224], [127.991195, 26.5053664], [127.9911709, 26.5051681], [127.9911728, 26.5050297], [127.991182, 26.5049186], [127.9912011, 26.5048153], [127.9912227, 26.5047323], [127.9912542, 26.5046342], [127.9912576, 26.5046063], [127.9913071, 26.5045087], [127.9913631, 26.5044125], [127.9914553, 26.5042635], [127.9915478, 26.5041391], [127.9916208, 26.5040574], [127.9917033, 26.5039761], [127.991851, 26.5038448], [127.9920074, 26.5037277], [127.992209, 26.5035901], [127.9923338, 26.5035119], [127.992967, 26.5031092], [127.9930707, 26.5030331], [127.9931774, 26.5029453], [127.9932712, 26.5028614], [127.993363, 26.5027712], [127.993456, 26.5026515], [127.9935519, 26.5025228], [127.9936053, 26.5024301], [127.9936565, 26.502333], [127.9937039, 26.5022156], [127.9937468, 26.5021036], [127.993783, 26.5019645], [127.9938098, 26.5018497], [127.9938297, 26.5016995], [127.9938362, 26.5015299], [127.9938341, 26.5013869], [127.9938298, 26.5012247], [127.9937927, 26.5007018], [127.9937469, 26.5003154], [127.9937155, 26.5000744], [127.9936896, 26.4998883], [127.9936186, 26.4993091], [127.9935723, 26.4988343], [127.9934986, 26.4981329], [127.9934549, 26.4978994], [127.9934067, 26.4976827], [127.9933357, 26.4974205], [127.9932407, 26.4971449], [127.9931538, 26.496936], [127.9930563, 26.4967015], [127.9930408, 26.4966642], [127.9929925, 26.4965482], [127.9929451, 26.4964374], [127.9929289, 26.4963995], [127.9927717, 26.4960322], [127.9926869, 26.4958341], [127.9925855, 26.4955958], [127.9925052, 26.4953628], [127.9924411, 26.4951049], [127.9924058, 26.4948537], [127.9923392, 26.4943439], [127.9923112, 26.4942068], [127.9922648, 26.4940378], [127.9921787, 26.4938601], [127.9920979, 26.493717], [127.9919931, 26.4935833], [127.9918826, 26.4934845], [127.99175, 26.4933817], [127.991533, 26.4932263], [127.9914621, 26.4931756], [127.9912103, 26.4929768], [127.9910689, 26.49283], [127.990989, 26.4927316], [127.9909107, 26.4926171], [127.9908384, 26.492477], [127.9907715, 26.4922951], [127.990632, 26.4919914], [127.9905316, 26.4918166], [127.9904368, 26.4916817], [127.9903766, 26.4916199], [127.9902832, 26.4915304], [127.9901687, 26.4914485], [127.9900008, 26.4913331], [127.9896684, 26.4911529], [127.9893427, 26.4909802], [127.9890419, 26.4907919], [127.9889412, 26.4907147], [127.9888587, 26.4906452], [127.9887712, 26.4905555], [127.9885554, 26.490289], [127.9883396, 26.4900633], [127.988219, 26.4899315], [127.9880428, 26.4897692], [127.987929, 26.4896868], [127.9878079, 26.4896162], [127.9875479, 26.4894897], [127.9869029, 26.4891904], [127.9866847, 26.4890618], [127.9864558, 26.4889109], [127.986199, 26.4887071], [127.9859457, 26.4884901], [127.9854754, 26.4880913], [127.985251, 26.487917], [127.9851236, 26.4878299], [127.9848719, 26.4876684], [127.9842846, 26.487352], [127.9834726, 26.4869245], [127.982701, 26.4865222], [127.98225, 26.486297], [127.9809572, 26.4856406], [127.9805073, 26.4854237], [127.9803309, 26.4853285], [127.9801509, 26.4852374], [127.9799429, 26.4851229], [127.9797035, 26.4850181], [127.9794702, 26.4849258], [127.9791463, 26.4848434], [127.9789083, 26.4847963], [127.9786128, 26.4847632], [127.978033, 26.4847494], [127.9776264, 26.4847248], [127.9772123, 26.4846922], [127.9761402, 26.4844994], [127.9759581, 26.4844651], [127.9757754, 26.484437], [127.9756118, 26.4844157], [127.9754523, 26.4844015], [127.9753341, 26.4844001], [127.9752254, 26.484402], [127.9750471, 26.4844189], [127.9749017, 26.4844411], [127.9748468, 26.4844525], [127.9746853, 26.4844964], [127.9744442, 26.4845857], [127.9740026, 26.484752], [127.9736593, 26.4848585], [127.9734821, 26.4848732], [127.9733232, 26.4848833], [127.9731164, 26.484868], [127.9729688, 26.4848468], [127.97278, 26.4848059], [127.9726135, 26.484756], [127.9724747, 26.4847107], [127.9721156, 26.4845555], [127.9716956, 26.484357], [127.9705453, 26.4838047], [127.9702673, 26.4836799], [127.9681899, 26.4827261], [127.9678085, 26.4825417], [127.9674764, 26.4823517], [127.9672826, 26.4822168], [127.9671175, 26.4820745], [127.9669135, 26.48187], [127.9667505, 26.481669], [127.9666183, 26.4814488], [127.9665637, 26.4813553], [127.9665106, 26.4812451], [127.9664704, 26.4811482], [127.9664276, 26.4810331], [127.966363, 26.4808046], [127.966331, 26.4806516], [127.9663115, 26.4805065], [127.9663046, 26.4802458], [127.9663101, 26.4800823], [127.9663412, 26.4797306], [127.9663586, 26.4794961], [127.9663731, 26.4793513], [127.9663925, 26.479085], [127.9663985, 26.4789653], [127.9664005, 26.4787843], [127.9663872, 26.4786573], [127.9663654, 26.4785384], [127.966335, 26.47842], [127.9662855, 26.4782664], [127.9662131, 26.4781073], [127.9659644, 26.4776728], [127.9657915, 26.4773722], [127.965732, 26.4772848], [127.9656026, 26.4771513], [127.9654634, 26.4770281], [127.9653548, 26.4769536], [127.9652184, 26.4768853], [127.9650989, 26.4768279], [127.9649862, 26.4767883], [127.9647153, 26.4767139], [127.9646749, 26.4767061], [127.9645162, 26.4766752], [127.9643384, 26.4766382], [127.9642884, 26.476626], [127.9639166, 26.4765296], [127.963646, 26.4764339], [127.9634124, 26.476323], [127.9628729, 26.4760383], [127.9626711, 26.4759324], [127.9625327, 26.4758693], [127.9623732, 26.4757867], [127.9620374, 26.4756246], [127.9619409, 26.4755969], [127.9618099, 26.4755675], [127.9616463, 26.4755457], [127.9614901, 26.475535], [127.9612827, 26.4755433], [127.9610945, 26.4755704], [127.9605398, 26.4756524], [127.960289, 26.4756845], [127.9601886, 26.4756924], [127.9592668, 26.4756932], [127.959187, 26.4756934], [127.9588042, 26.4756937], [127.9580955, 26.475702], [127.9579667, 26.4756975], [127.9572725, 26.4756733], [127.9565475, 26.4756497], [127.9564075, 26.4756401], [127.9563303, 26.4756319], [127.9562829, 26.4756262], [127.9562443, 26.4756202], [127.9561375, 26.4755996], [127.9560319, 26.4755721], [127.9559141, 26.4755262], [127.9558054, 26.4754817], [127.955681, 26.4754138], [127.9555677, 26.4753469], [127.9553349, 26.4751863], [127.9552111, 26.4751023], [127.9548665, 26.4748617], [127.9539376, 26.4742147], [127.9534783, 26.4739034], [127.9531295, 26.4736537], [127.9527701, 26.4734288], [127.952326, 26.4731802], [127.9520855, 26.4730675], [127.9518613, 26.4729686], [127.9515303, 26.472837], [127.9511598, 26.4727127], [127.9507426, 26.4725943], [127.9500849, 26.4723798], [127.9495466, 26.4722085], [127.9492716, 26.4721284], [127.9487262, 26.4719661], [127.9485201, 26.4719204], [127.9484117, 26.4719042], [127.9482052, 26.4718854], [127.9480018, 26.4718898], [127.9478495, 26.4719052], [127.9476897, 26.4719324], [127.9471202, 26.4720764], [127.9468758, 26.472151], [127.9466692, 26.472183], [127.9465459, 26.4721906], [127.9464147, 26.4721922], [127.9461972, 26.472169], [127.946005, 26.4721316], [127.945823, 26.4720646], [127.9456308, 26.4719701], [127.9454529, 26.4718557], [127.9453132, 26.4717417], [127.9450486, 26.4714974], [127.9449042, 26.471353], [127.9444926, 26.4710022], [127.9443035, 26.4708701], [127.9436845, 26.470437], [127.9433034, 26.4701744], [127.9430001, 26.46996], [127.942537, 26.4696503], [127.9422372, 26.4694988], [127.9420525, 26.4694295], [127.9417722, 26.4693515], [127.9413471, 26.4692598], [127.9408131, 26.4691478], [127.9399844, 26.4689705], [127.9397512, 26.4688941], [127.9394552, 26.4687467], [127.9393595, 26.4686768], [127.939336, 26.4686569], [127.9392756, 26.4686057], [127.9391887, 26.4685171], [127.939098, 26.4684246], [127.9390526, 26.4683714], [127.9388808, 26.4681698], [127.9387577, 26.4680218], [127.9387182, 26.4679759], [127.9384998, 26.4677268], [127.9376315, 26.4666523], [127.937573, 26.4665799], [127.9373021, 26.4662325], [127.9372269, 26.4661315], [127.9368679, 26.465595], [127.9368071, 26.465489], [127.9366758, 26.4652053], [127.9365559, 26.464919], [127.9365044, 26.4647572], [127.9363723, 26.4642285], [127.9363384, 26.4640937], [127.9362876, 26.4640933], [127.9362011, 26.4640852], [127.936116, 26.4640737], [127.9360464, 26.4640546], [127.9359861, 26.4640346], [127.9358452, 26.4639736], [127.9357807, 26.463935], [127.9350765, 26.4634434], [127.9342392, 26.4628334], [127.9337403, 26.4624532], [127.9333463, 26.4621418], [127.9327364, 26.4616448], [127.9325313, 26.4614818], [127.9317297, 26.4608686], [127.9311347, 26.4604126], [127.9309749, 26.4602946], [127.9309401, 26.4602688], [127.9308605, 26.4602101], [127.9307827, 26.4601534], [127.9303863, 26.4598645], [127.9301671, 26.4596956], [127.9299739, 26.4594892], [127.9298021, 26.4592557], [127.929333, 26.4584742], [127.9293007, 26.4584203], [127.9292423, 26.4583608], [127.9291591, 26.458276], [127.9289299, 26.4580897], [127.9282973, 26.4576204], [127.9281352, 26.4574491], [127.9279965, 26.4572833], [127.9278763, 26.4571093], [127.9278389, 26.4570551], [127.9275317, 26.4566431], [127.9273005, 26.4563382], [127.9272312, 26.4562449], [127.926837, 26.4556828], [127.9264078, 26.4551146], [127.9261792, 26.4548188], [127.9260479, 26.45464], [127.9259392, 26.4545451], [127.9258416, 26.4544825], [127.9257407, 26.4544299], [127.9255677, 26.4543722], [127.9255298, 26.4543614], [127.9253318, 26.454305], [127.9251922, 26.4542654], [127.9241871, 26.4539566], [127.9241408, 26.4539423], [127.9234863, 26.4537407], [127.9234128, 26.4537188], [127.9232128, 26.4536614], [127.9230695, 26.4536336], [127.9229257, 26.4536121], [127.9227729, 26.4535965], [127.9225693, 26.4536024], [127.9224231, 26.4536144], [127.9222297, 26.4536422], [127.9217577, 26.4537431], [127.9209129, 26.4539135], [127.9205855, 26.4539796], [127.919982, 26.4540468], [127.9192937, 26.4541154], [127.9190237, 26.4541374], [127.9186656, 26.454153], [127.9176772, 26.4541914], [127.9171099, 26.4542094], [127.9167044, 26.4541849], [127.9163337, 26.4541467], [127.9163013, 26.4541434], [127.9162039, 26.4541314], [127.9156254, 26.4540605], [127.9152386, 26.4540216], [127.9149039, 26.4539837], [127.914737, 26.4539616], [127.9146222, 26.4539296], [127.9144412, 26.4538768], [127.914324, 26.4538091], [127.9142158, 26.4537267], [127.9140429, 26.453561], [127.9138417, 26.4532368], [127.9136445, 26.4529462], [127.9134676, 26.4526569], [127.9133396, 26.4524968], [127.9132034, 26.4523603], [127.9130345, 26.4522061], [127.9129037, 26.4521245], [127.9121587, 26.451703], [127.9119904, 26.451589], [127.9118885, 26.4515002], [127.9117484, 26.451338], [127.9116176, 26.451164], [127.9114956, 26.4510079], [127.9113528, 26.4508625], [127.9111811, 26.4507341], [127.9110684, 26.450674], [127.9109276, 26.4506212], [127.9107411, 26.4505743], [127.9104093, 26.4505468], [127.9101612, 26.4505264], [127.9099728, 26.4504939], [127.9097964, 26.4504375], [127.909659, 26.450381], [127.9095584, 26.4503234], [127.9094101, 26.4502046], [127.9089842, 26.4498124], [127.9088695, 26.449739], [127.9087488, 26.4496795], [127.9086017, 26.449624], [127.9084817, 26.4495976], [127.9083574, 26.4495751], [127.9080852, 26.4495281], [127.9080565, 26.4495229], [127.9078605, 26.4494892], [127.907679, 26.4494657], [127.9075152, 26.4494486], [127.907446, 26.4494464], [127.9073574, 26.4494519], [127.907231, 26.4494707], [127.9071153, 26.4494943], [127.9069921, 26.4495297], [127.906587, 26.4496743], [127.9064267, 26.4497195], [127.9062662, 26.4497566], [127.9060054, 26.4497893], [127.9053797, 26.4497901], [127.904552, 26.4497915], [127.9044145, 26.4497843], [127.9042272, 26.44976], [127.9040753, 26.4497357], [127.9038264, 26.4496815], [127.9036532, 26.4496296], [127.902937, 26.449427], [127.9027765, 26.4493874], [127.9025703, 26.4493562], [127.9024167, 26.4493408], [127.9022447, 26.4493356], [127.9020406, 26.4493477], [127.9017256, 26.4493959], [127.9014239, 26.4494559], [127.9013051, 26.4494845], [127.9004148, 26.4496652], [127.9001757, 26.4497201], [127.8998589, 26.4497998], [127.8995453, 26.449891], [127.8993144, 26.4499687], [127.8990885, 26.4500486], [127.8988248, 26.4501485], [127.8987719, 26.4501695], [127.898657, 26.4502151], [127.8981851, 26.4504134], [127.8973653, 26.4507579], [127.8970986, 26.4508825], [127.8968636, 26.4509998], [127.8966563, 26.4511152], [127.8965299, 26.4511906], [127.8963333, 26.4513118], [127.8961622, 26.4514133], [127.8959304, 26.4515723], [127.8957554, 26.4516922], [127.8953824, 26.451965], [127.8952984, 26.452026], [127.8950903, 26.452171], [127.8947764, 26.4524047], [127.8944361, 26.4526484], [127.8941085, 26.4528831], [127.8938496, 26.4530545], [127.8937603, 26.4531137], [127.8932757, 26.4534238], [127.8928803, 26.4536954], [127.8926872, 26.4538369], [127.8925341, 26.453949], [127.8921443, 26.4542797], [127.891781, 26.454708], [127.8912524, 26.4553363], [127.8911724, 26.4554249], [127.8910899, 26.4555067], [127.8909976, 26.4555875], [127.8908208, 26.4557226], [127.8906397, 26.4558334], [127.8904064, 26.4559369], [127.8901773, 26.4560106], [127.8899315, 26.4560485], [127.889694, 26.4560715], [127.8893539, 26.4560678], [127.8889784, 26.4560547], [127.8886477, 26.4560534], [127.8884712, 26.4560579], [127.8883149, 26.4560791], [127.8880362, 26.456135], [127.887798, 26.456214], [127.8875814, 26.4563158], [127.8873101, 26.4564873], [127.8865338, 26.4570514], [127.8859461, 26.4574738], [127.8856738, 26.4576791], [127.8854724, 26.457824], [127.8852677, 26.4579449], [127.8850782, 26.4580296], [127.8849146, 26.4580822], [127.8847342, 26.4581275], [127.8845587, 26.4581544], [127.8843387, 26.4581617], [127.8841285, 26.4581375], [127.8839233, 26.4580983], [127.8837469, 26.4580382], [127.8835721, 26.457959], [127.8835513, 26.4579477], [127.8834727, 26.4579049], [127.8834325, 26.457883], [127.8832291, 26.4577377], [127.8830719, 26.4576042], [127.882996, 26.4575344], [127.8827899, 26.4573543], [127.8825947, 26.4572118], [127.882411, 26.4571182], [127.8822064, 26.4570384], [127.8820137, 26.456987], [127.8817791, 26.456935], [127.8801536, 26.456577], [127.8797853, 26.456468], [127.878947, 26.4562341], [127.8771874, 26.4557464], [127.8768276, 26.4556414], [127.8761547, 26.4554793], [127.875945, 26.4554564], [127.8756799, 26.4554552], [127.8754623, 26.455474], [127.8752231, 26.4555179], [127.8750669, 26.4555574], [127.8748842, 26.4556222], [127.8746933, 26.455719], [127.8745225, 26.4558154], [127.8740655, 26.4561019], [127.8735931, 26.4564036], [127.8727346, 26.4569445], [127.8720038, 26.4574005], [127.8714826, 26.4577191], [127.8713096, 26.4578181], [127.8712021, 26.4578654], [127.8710058, 26.4579399], [127.8708089, 26.4579891], [127.8706145, 26.4580253], [127.8704415, 26.4580509], [127.8701391, 26.4580459], [127.8698303, 26.4579954], [127.8695848, 26.4579349], [127.8686842, 26.4576728], [127.8669247, 26.4571486], [127.8651865, 26.4566395], [127.863552, 26.456113], [127.8631116, 26.455954], [127.863032, 26.4559252], [127.8630115, 26.4559169], [127.8629396, 26.4558894], [127.8628488, 26.4558555], [127.8616268, 26.4553784], [127.8602186, 26.4548665], [127.8589997, 26.4544231], [127.8589571, 26.4544076], [127.8582172, 26.4541381], [127.8581539, 26.4541151], [127.8577222, 26.4539578], [127.8574777, 26.4538468], [127.8574391, 26.4538243], [127.8572995, 26.4537428], [127.857043, 26.4535874], [127.8565112, 26.4532635], [127.8564809, 26.453245], [127.8564449, 26.4532239], [127.856329, 26.453162], [127.8559398, 26.452966], [127.8555218, 26.4528016], [127.8554802, 26.4527881], [127.8547384, 26.4525482], [127.8539327, 26.4522749], [127.8538976, 26.4522632], [127.8538355, 26.4522425], [127.8531309, 26.4520077], [127.8531124, 26.4519985], [127.852379, 26.4516507], [127.8521969, 26.4515446], [127.8520089, 26.4514109], [127.8519157, 26.4513446], [127.8518415, 26.4512918], [127.851805, 26.4512521], [127.8516426, 26.4511104], [127.8514921, 26.4509321], [127.8513519, 26.4507661], [127.8512804, 26.4506814], [127.851206, 26.4505923], [127.851074, 26.4504341], [127.850943, 26.4502771], [127.8508224, 26.4501325], [127.8507273, 26.4500185], [127.8507062, 26.4499932], [127.8505864, 26.4498492], [127.850378, 26.4495987], [127.85011, 26.4492705], [127.8498238, 26.44892], [127.849795, 26.448883], [127.8496794, 26.4487167], [127.8496579, 26.4486781], [127.8496056, 26.4485842], [127.8495013, 26.4483706], [127.8493753, 26.4480749], [127.849344, 26.4479973], [127.8491228, 26.4474489], [127.8487952, 26.4466392], [127.8484479, 26.445781], [127.8480174, 26.4447472], [127.8479314, 26.4445397], [127.8477838, 26.4441633], [127.8476414, 26.4438074], [127.8476179, 26.4437488], [127.8475945, 26.4436903], [127.847532, 26.4435389], [127.8474112, 26.4432463], [127.8472936, 26.442944], [127.8470993, 26.4424838], [127.846721, 26.441609], [127.8465303, 26.4413434], [127.8463725, 26.4411876], [127.8461917, 26.4410409], [127.8457571, 26.4407992], [127.8451826, 26.4405257], [127.844918, 26.4403874], [127.8448984, 26.4403763], [127.8446754, 26.4402287], [127.8443216, 26.4399156], [127.8439846, 26.4395115], [127.8434347, 26.43882], [127.8434156, 26.4387931], [127.8433826, 26.4387487], [127.8429071, 26.4381288], [127.8415434, 26.4363636], [127.8411588, 26.4358576], [127.8411132, 26.4357975], [127.8410921, 26.4357017], [127.840915, 26.4354959], [127.840728, 26.4352934], [127.8404892, 26.4350664], [127.8402023, 26.4348659], [127.8399002, 26.4347155], [127.8396376, 26.4346196], [127.8394127, 26.4345405], [127.8392086, 26.4344859], [127.8389998, 26.4344422], [127.8386981, 26.4344065], [127.8386171, 26.4344025], [127.838494, 26.4343999], [127.838305, 26.4344024], [127.8380682, 26.4344199], [127.837877, 26.4344432], [127.8377065, 26.4344744], [127.8369844, 26.4346546], [127.8368253, 26.4346908], [127.8366631, 26.4347197], [127.8365272, 26.4347357], [127.8364117, 26.4347417], [127.8363119, 26.4347411], [127.8362271, 26.434739], [127.8361307, 26.4347302], [127.8359963, 26.4347137], [127.8358506, 26.4346885], [127.8357012, 26.4346525], [127.8356296, 26.4346291], [127.8355605, 26.434602], [127.8353926, 26.4345244], [127.8352326, 26.4344348], [127.8347958, 26.4341603], [127.8346039, 26.4340397], [127.8343348, 26.4338705], [127.8342927, 26.4338442], [127.8342262, 26.4337989], [127.8340719, 26.4336939], [127.8338207, 26.4335446], [127.8336729, 26.4334626], [127.8336252, 26.4334357], [127.8335066, 26.433374], [127.8333171, 26.433287], [127.833179, 26.4332307], [127.8330315, 26.4331797], [127.8328892, 26.433142], [127.832736, 26.433107], [127.8323741, 26.4330452], [127.8321339, 26.433016], [127.8320286, 26.4330079], [127.8319198, 26.4330038], [127.8318305, 26.4330028], [127.8317341, 26.4330083], [127.8315684, 26.4330258], [127.8314264, 26.4330465], [127.8312171, 26.4330918], [127.8310567, 26.4331355], [127.8308524, 26.4331948], [127.8306498, 26.4332666], [127.8305367, 26.4333134], [127.830429, 26.4333601], [127.8301974, 26.4334576], [127.8300244, 26.4335387], [127.8292836, 26.4338918], [127.8290389, 26.4340085], [127.8289985, 26.434025], [127.8288138, 26.4341003], [127.8287211, 26.4341334], [127.8286822, 26.4341478], [127.8284554, 26.4342266], [127.8283149, 26.4342642], [127.8281583, 26.4342964], [127.8279928, 26.4343203], [127.8278252, 26.4343356], [127.8276493, 26.4343443], [127.8274689, 26.4343409], [127.8273009, 26.434335], [127.8271148, 26.4343115], [127.8269548, 26.4342811], [127.8267024, 26.4342237], [127.8264676, 26.4341506], [127.8260747, 26.4339871], [127.8258633, 26.4338991], [127.8256461, 26.4338045], [127.8242195, 26.4331816], [127.8238897, 26.4330376], [127.8236617, 26.4329309], [127.8234702, 26.4328353], [127.8232024, 26.4326887], [127.823128, 26.4326489], [127.8229813, 26.432559], [127.8228591, 26.4324773], [127.822446, 26.4321735], [127.822045, 26.4318312], [127.8217862, 26.4315574], [127.8215636, 26.4312956], [127.8212228, 26.4308499], [127.821195, 26.4308115], [127.8211157, 26.4307018], [127.8210425, 26.4305994], [127.8207841, 26.4302384], [127.8203727, 26.4296614], [127.8201909, 26.4294064], [127.8201093, 26.4292919], [127.8195129, 26.4284396], [127.8163283, 26.4239521], [127.8162212, 26.4238017], [127.8155654, 26.4228469], [127.8153699, 26.4225441], [127.8153267, 26.4224508], [127.8152608, 26.4222971], [127.8152068, 26.4221455], [127.8151625, 26.4219991], [127.8151296, 26.4218507], [127.8150947, 26.4216137], [127.8150929, 26.4214579], [127.8150953, 26.4212539], [127.8151169, 26.4210871], [127.8151376, 26.420901], [127.8151655, 26.4207132], [127.8152175, 26.4204796], [127.8152318, 26.4204238], [127.8152856, 26.4201964], [127.8153257, 26.4200212], [127.8153354, 26.4199831], [127.815487, 26.4192642], [127.8156523, 26.4186118], [127.81577, 26.4182108], [127.8158397, 26.4180041], [127.8158711, 26.4179274], [127.8159157, 26.4178186], [127.8159605, 26.4177096], [127.8162304, 26.4170535], [127.8166101, 26.4163197], [127.8170042, 26.4156423], [127.8171832, 26.4153273], [127.8173273, 26.4150514], [127.8174758, 26.4147792], [127.8174952, 26.414742], [127.8175642, 26.4146098], [127.8176264, 26.4144917], [127.8177999, 26.4141508], [127.8183041, 26.4130758], [127.8188089, 26.4119789], [127.8189114, 26.4117563], [127.8189716, 26.4116254], [127.8190233, 26.4115207], [127.8190436, 26.4114794], [127.8201245, 26.4091009], [127.820246, 26.4088337], [127.8202709, 26.4087733], [127.8203278, 26.4086539], [127.8203922, 26.4085195], [127.8206496, 26.40799], [127.8209051, 26.4074622], [127.8211421, 26.40702], [127.8214103, 26.4065766], [127.821677, 26.406178], [127.8219565, 26.4058117], [127.8224643, 26.4052308], [127.8227086, 26.4049849], [127.8230368, 26.4046804], [127.8236034, 26.4042094], [127.8241267, 26.4038301], [127.8244084, 26.4036328], [127.8245716, 26.4035185], [127.8246969, 26.4034364], [127.824847, 26.403338], [127.825146, 26.4031518], [127.8278124, 26.4014071], [127.8282007, 26.4011391], [127.8284823, 26.4009036], [127.8286059, 26.4007719], [127.8287322, 26.4006248], [127.8288317, 26.4004796], [127.8289009, 26.4003685], [127.828942, 26.400278], [127.82896, 26.4002437], [127.8290363, 26.4000814], [127.8290853, 26.3999492], [127.8290969, 26.3999183], [127.8291441, 26.3997631], [127.829165, 26.3996248], [127.8291857, 26.3994131], [127.8291878, 26.3992531], [127.829175, 26.3990657], [127.8291543, 26.3988166], [127.8290721, 26.3982757], [127.828897, 26.3971441], [127.8288478, 26.3968324], [127.8288353, 26.3967505], [127.8287957, 26.3964909], [127.8287754, 26.3963579], [127.8287559, 26.3962311], [127.8283694, 26.3937312], [127.828326, 26.3934504], [127.8283115, 26.3933566], [127.8282927, 26.3932369], [127.8281125, 26.3920924], [127.8280447, 26.3916592], [127.8279298, 26.3908537], [127.8279214, 26.3905795], [127.8279304, 26.3902582], [127.8279659, 26.3900166], [127.8280043, 26.3898195], [127.8280417, 26.3896731], [127.828121, 26.389429], [127.8282194, 26.3891822], [127.8283441, 26.3888995], [127.8284716, 26.3886384], [127.828557, 26.3884608], [127.8285906, 26.3883695], [127.8286109, 26.3882943], [127.8286206, 26.3882627], [127.8286339, 26.3881844], [127.8285927, 26.3881009], [127.8285439, 26.3881686], [127.8285251, 26.3882417], [127.8284995, 26.3883385], [127.8284737, 26.3884109], [127.8284379, 26.3884939], [127.8283488, 26.3886686], [127.8282469, 26.3888538], [127.8281036, 26.3891614], [127.8280092, 26.3893949], [127.8279243, 26.3896579], [127.827885, 26.3898191], [127.8278489, 26.3900103], [127.8278226, 26.3901736], [127.8278045, 26.3903404], [127.827801, 26.3905146], [127.8278043, 26.3906725], [127.8278048, 26.3906953], [127.8278132, 26.3908658], [127.827854, 26.3911767], [127.8278969, 26.3914632], [127.8279291, 26.3916899], [127.8279556, 26.3918452], [127.8281224, 26.3929421], [127.8281695, 26.393252], [127.8281871, 26.3933677], [127.8282034, 26.3934709], [127.8282126, 26.3935309], [127.8285164, 26.3954675], [127.8285364, 26.3955866], [127.8285946, 26.3959322], [127.8286333, 26.3962107], [127.8286388, 26.3962501], [127.8286553, 26.3963705], [127.828688, 26.3965558], [127.8289568, 26.3982461], [127.8290365, 26.3988094], [127.8290638, 26.3990584], [127.829064, 26.3992472], [127.8290412, 26.3995991], [127.8290177, 26.3997412], [127.8289777, 26.3998825], [127.8289659, 26.3999169], [127.8289194, 26.400053], [127.8288547, 26.400199], [127.8288284, 26.4002521], [127.8287706, 26.4003537], [127.8286814, 26.4004904], [127.8285789, 26.4006318], [127.8284945, 26.4007191], [127.8284026, 26.4008233], [127.8282956, 26.4009133], [127.8281212, 26.4010576], [127.8277357, 26.4013243], [127.8263972, 26.4022027], [127.825262, 26.40294], [127.8249404, 26.4031428], [127.8246611, 26.4033269], [127.8246267, 26.4033497], [127.8244988, 26.4034344], [127.8243313, 26.4035463], [127.8243032, 26.4035652], [127.8235002, 26.4041414], [127.8229533, 26.4046106], [127.8226367, 26.4049091], [127.8224016, 26.4051471], [127.8221316, 26.4054318], [127.8218892, 26.405727], [127.8215911, 26.4061219], [127.821311, 26.4065293], [127.8210429, 26.4069744], [127.8207913, 26.407432], [127.8205236, 26.4079766], [127.8204712, 26.4080875], [127.8203059, 26.4084486], [127.8202914, 26.4084802], [127.8202286, 26.4086174], [127.8201719, 26.4087363], [127.81906, 26.4111584], [127.8189117, 26.4114812], [127.8188619, 26.4115895], [127.8177915, 26.4139019], [127.8176507, 26.4141832], [127.8175288, 26.4144306], [127.8174587, 26.4145645], [127.8173879, 26.4146973], [127.8169081, 26.4155875], [127.8164304, 26.4164056], [127.8162606, 26.4167348], [127.8161104, 26.4170379], [127.815965, 26.4173725], [127.8158613, 26.4176125], [127.8158408, 26.4176635], [127.815792, 26.4177847], [127.8157557, 26.4178843], [127.8157433, 26.4179185], [127.8156298, 26.4182523], [127.8155241, 26.4186084], [127.8153761, 26.4191534], [127.8153126, 26.4194764], [127.8152058, 26.4199804], [127.8151958, 26.4200277], [127.8151519, 26.4202347], [127.8151144, 26.4204241], [127.8151079, 26.4204521], [127.8149921, 26.4210743], [127.8149778, 26.4212557], [127.814972, 26.4214399], [127.8149821, 26.4216286], [127.8150059, 26.4218077], [127.8150406, 26.4219934], [127.8150648, 26.4220936], [127.8150912, 26.4221791], [127.8151264, 26.4222878], [127.8151679, 26.4223902], [127.8152629, 26.4225902], [127.8154915, 26.4229328], [127.8161331, 26.4238532], [127.8162362, 26.4240011], [127.8167935, 26.4248039], [127.8194148, 26.4284927], [127.8197348, 26.4289577], [127.8198894, 26.4291786], [127.8200108, 26.4293488], [127.82009, 26.4294626], [127.8207137, 26.4303342], [127.8207703, 26.4304147], [127.8209097, 26.4306131], [127.820942, 26.4306565], [127.8210159, 26.4307559], [127.821095, 26.4308666], [127.8211213, 26.4309034], [127.8214611, 26.4313582], [127.821708, 26.4316366], [127.8219899, 26.4319257], [127.8223723, 26.43226], [127.8227814, 26.4325631], [127.8229401, 26.4326617], [127.8230859, 26.4327448], [127.8231947, 26.4328073], [127.8233605, 26.4328979], [127.8234128, 26.4329259], [127.8236566, 26.4330443], [127.823837, 26.4331285], [127.8251649, 26.4337106], [127.8256017, 26.4338873], [127.8258446, 26.4339947], [127.8260336, 26.4340779], [127.826226, 26.4341585], [127.8264545, 26.4342543], [127.8265939, 26.4343028], [127.8266985, 26.4343299], [127.8268208, 26.4343603], [127.8269238, 26.4343811], [127.8270969, 26.4344079], [127.8271656, 26.4344161], [127.8272718, 26.4344289], [127.8274605, 26.4344389], [127.8276371, 26.43444], [127.8278346, 26.4344354], [127.8280154, 26.4344178], [127.8281919, 26.4343893], [127.8283693, 26.4343526], [127.8285509, 26.4343031], [127.8287191, 26.4342446], [127.8287561, 26.4342312], [127.8288338, 26.4342035], [127.8289058, 26.4341742], [127.8290473, 26.4341115], [127.829087, 26.4340939], [127.8297037, 26.4338024], [127.8300732, 26.4336354], [127.8304899, 26.4334422], [127.8306932, 26.4333562], [127.8308523, 26.4333024], [127.831023, 26.4332454], [127.831182, 26.4331999], [127.8312432, 26.4331847], [127.8313851, 26.4331541], [127.8315735, 26.4331301], [127.8317607, 26.4331192], [127.8320223, 26.4331142], [127.8323713, 26.4331407], [127.8327277, 26.4332033], [127.8327798, 26.4332144], [127.8328867, 26.4332407], [127.8329984, 26.4332748], [127.8332321, 26.4333579], [127.8332661, 26.4333726], [127.8334103, 26.4334377], [127.8335779, 26.4335211], [127.8338015, 26.4336518], [127.8338387, 26.4336735], [127.8340346, 26.4337955], [127.8341556, 26.4338728], [127.8342379, 26.4339252], [127.8347353, 26.4342444], [127.8350298, 26.4344321], [127.8351721, 26.4345183], [127.8353332, 26.434609], [127.8354899, 26.4346784], [127.8356575, 26.4347388], [127.8359279, 26.4348061], [127.8359713, 26.4348139], [127.8361209, 26.4348325], [127.8363174, 26.4348423], [127.836482, 26.4348384], [127.8365769, 26.4348307], [127.8366676, 26.4348185], [127.8367967, 26.4347969], [127.836931, 26.4347677], [127.8376811, 26.434583], [127.8378723, 26.4345436], [127.8380783, 26.4345159], [127.8382416, 26.4344996], [127.8384119, 26.4344911], [127.8384917, 26.4344924], [127.8386152, 26.4344973], [127.8387911, 26.4345103], [127.8389671, 26.4345332], [127.8391287, 26.43456], [127.8392921, 26.4345966], [127.8393831, 26.4346185], [127.8395506, 26.4346755], [127.8398544, 26.434798], [127.8401095, 26.4349359], [127.8404031, 26.4351301], [127.8406482, 26.4353409], [127.8409704, 26.4357058], [127.8410135, 26.4357559], [127.8411132, 26.4357975]], [[127.8285927, 26.3881009], [127.8285953, 26.3879444], [127.8285922, 26.3878636], [127.8285827, 26.3877729], [127.8285671, 26.3876796], [127.828543, 26.3875863], [127.8284776, 26.3874211], [127.8278044, 26.3861343], [127.8277601, 26.3860056], [127.8277178, 26.3858521], [127.8276857, 26.3856931], [127.8276707, 26.385596], [127.8276604, 26.3854923], [127.8276649, 26.384812], [127.8276659, 26.3839228], [127.827675, 26.3831801], [127.8276719, 26.3818545], [127.8276512, 26.3816577], [127.8276144, 26.381477], [127.8275806, 26.3813576], [127.8275362, 26.3812479], [127.8275072, 26.3811762], [127.8274302, 26.3810238], [127.8272544, 26.380703], [127.8271849, 26.3806015], [127.8271072, 26.3805056], [127.8269752, 26.3803523], [127.8268268, 26.3801972], [127.8266808, 26.3800716], [127.826517, 26.3799535], [127.8261839, 26.3797521], [127.8255436, 26.3794075], [127.8254478, 26.379356], [127.8250865, 26.3791604], [127.8250315, 26.3791302], [127.8249624, 26.3790943], [127.8248984, 26.3790611], [127.8247919, 26.3790066], [127.8246327, 26.3789197], [127.8244645, 26.3788224], [127.8241984, 26.378647], [127.8239382, 26.3784701], [127.823448, 26.3781139], [127.8226356, 26.3775622], [127.8222542, 26.3772806], [127.8221469, 26.3771853], [127.8220385, 26.3770788], [127.821862, 26.3768687], [127.8217084, 26.3766531], [127.8215841, 26.3764115], [127.8215244, 26.3762673], [127.8214754, 26.3761136], [127.8214289, 26.3759406], [127.821399, 26.3758244], [127.8213609, 26.3756659], [127.8213564, 26.3756408], [127.8213062, 26.3754326], [127.8211999, 26.3749866], [127.8211876, 26.3749394], [127.821146, 26.3747654], [127.8211157, 26.3746317], [127.8211033, 26.3745731], [127.8211017, 26.3745644], [127.8209738, 26.3738914], [127.8209121, 26.373544], [127.8207926, 26.3728722], [127.8206958, 26.3724646], [127.8206566, 26.3722867], [127.8206191, 26.372117], [127.8205882, 26.3719767], [127.8205477, 26.3717934], [127.8205446, 26.3717792], [127.8204543, 26.3714432], [127.8203498, 26.3711517], [127.8202329, 26.3709001], [127.8200877, 26.3706423], [127.8196801, 26.3700797], [127.8195676, 26.3699339], [127.8195543, 26.3699175], [127.8195306, 26.3698865], [127.8194593, 26.3697935], [127.8190833, 26.3693061], [127.8186874, 26.368781], [127.8183032, 26.3683018], [127.8181934, 26.3681648], [127.8179489, 26.3678446], [127.8177146, 26.3676144], [127.8175543, 26.3674568], [127.817469, 26.367388], [127.8174174, 26.3673446], [127.8172089, 26.3671809], [127.817175, 26.3671524], [127.8170765, 26.367075], [127.8169522, 26.3669864], [127.816851, 26.3669125], [127.8167065, 26.366807], [127.8166126, 26.366739], [127.8164138, 26.3665949], [127.8161719, 26.3664195], [127.8159952, 26.3662743], [127.8158198, 26.3661475], [127.8157285, 26.3660706], [127.8156435, 26.3659945], [127.8156292, 26.3659796], [127.8152492, 26.3655827], [127.8149296, 26.3651289], [127.8141397, 26.363845], [127.8136349, 26.3630125], [127.813369, 26.3626113], [127.8132869, 26.3624487], [127.8132186, 26.3622873], [127.8131686, 26.3621385], [127.8131387, 26.3619873], [127.8131369, 26.3619677], [127.8131258, 26.3618463], [127.8131259, 26.3617083], [127.8131527, 26.3614188], [127.8131853, 26.3611352], [127.8132123, 26.3609468], [127.8132253, 26.3608564], [127.8132275, 26.3608378], [127.8132498, 26.3606754], [127.8132677, 26.3605163], [127.8132697, 26.3604836], [127.8132731, 26.3604287], [127.8132897, 26.3601094], [127.8132882, 26.3600615], [127.8132785, 26.3597645], [127.8132743, 26.3596331], [127.813273, 26.3596], [127.8132706, 26.3595398], [127.8132648, 26.3594385], [127.8132414, 26.3590996], [127.8132213, 26.3588085], [127.813218, 26.3587719], [127.8131946, 26.3583369], [127.8131895, 26.358271], [127.8131725, 26.3580063], [127.8131681, 26.3579383], [127.8131283, 26.3573875], [127.8131195, 26.3572599], [127.8130905, 26.3568419], [127.8130796, 26.3566544], [127.8130581, 26.3563986], [127.8130167, 26.3559003], [127.8129964, 26.3556933], [127.8129786, 26.3555113], [127.8129667, 26.3553902], [127.8129399, 26.3550454], [127.8129246, 26.3548243], [127.812897, 26.3541533], [127.8128936, 26.3540718], [127.8128899, 26.3540243], [127.8128815, 26.3539122], [127.8128575, 26.3535896], [127.8128449, 26.3533846], [127.8128326, 26.3531796], [127.8128292, 26.3531328], [127.8128234, 26.3530542], [127.8128142, 26.3529273], [127.8128056, 26.3528199], [127.8128004, 26.3526994], [127.8127987, 26.3526588], [127.8127885, 26.3524204], [127.8127054, 26.351775], [127.8126522, 26.3515129], [127.8125776, 26.3511816], [127.8124792, 26.3508772], [127.8124041, 26.350659], [127.8122165, 26.3502071], [127.812149, 26.3500393], [127.8119805, 26.3495933], [127.8118038, 26.3491328], [127.8117684, 26.3490375], [127.8117372, 26.3489283], [127.8117081, 26.3488022], [127.811693, 26.3486969], [127.8116818, 26.3485941], [127.8116714, 26.3484715], [127.8116687, 26.3483499], [127.8116747, 26.3481569], [127.811699, 26.3480109], [127.8117345, 26.3478715], [127.8118319, 26.3475704], [127.8118936, 26.3474302], [127.8119878, 26.3472356], [127.8120624, 26.3471102], [127.8121567, 26.3469639], [127.8122951, 26.3467929], [127.8124089, 26.3466628], [127.8126376, 26.3464169], [127.8129353, 26.3460951], [127.8130168, 26.3459839], [127.8131033, 26.3458459], [127.8131928, 26.3456876], [127.8132371, 26.3455856], [127.8133167, 26.3453923], [127.813388, 26.345196], [127.8134181, 26.3450975], [127.813435, 26.3450204], [127.8134439, 26.3449796], [127.8134632, 26.3448915], [127.813486, 26.344754], [127.8135063, 26.3445982], [127.8135129, 26.3445349], [127.8135195, 26.3444715], [127.8135233, 26.3444236], [127.8135635, 26.3439099], [127.8135676, 26.3438427], [127.8136359, 26.342844], [127.8136494, 26.3427207], [127.8136508, 26.3426633], [127.8136622, 26.3425911], [127.8136901, 26.3425242], [127.8137609, 26.342368], [127.8141911, 26.3415825], [127.8144993, 26.3410355], [127.8146316, 26.3408036], [127.8148119, 26.3404808], [127.8150558, 26.3400448], [127.815268, 26.3396559], [127.8153919, 26.3394289], [127.8154077, 26.3393975], [127.8154273, 26.3393588], [127.8154788, 26.3392564], [127.8155224, 26.3391786], [127.8155644, 26.3390989], [127.8155833, 26.3390639], [127.8157268, 26.3387934], [127.816165, 26.3379674], [127.8165038, 26.3373372], [127.8168592, 26.3366781], [127.8170779, 26.3362826], [127.8173578, 26.3357756], [127.817404, 26.3356931], [127.8175488, 26.3354343], [127.8176742, 26.3352086], [127.8177558, 26.3350841], [127.8178315, 26.3349689], [127.8178976, 26.3348666], [127.8179023, 26.3348593], [127.8179949, 26.334725], [127.8180229, 26.3346903], [127.8180508, 26.3346555], [127.8180997, 26.3346037], [127.8182008, 26.3345241], [127.8182511, 26.3344872], [127.8182764, 26.3344686], [127.8183014, 26.3344502], [127.8184239, 26.334354], [127.8185447, 26.334261], [127.8186966, 26.334156], [127.8192672, 26.3337803], [127.8194075, 26.3336946], [127.8196659, 26.3335327], [127.8199215, 26.3333604], [127.8199648, 26.3333338], [127.8203268, 26.3331119], [127.8205954, 26.3329291], [127.8208514, 26.3327375], [127.8209967, 26.3326123], [127.8212217, 26.3324086], [127.8214411, 26.332199], [127.8218703, 26.3317852], [127.8220498, 26.331585], [127.8221314, 26.3314809], [127.8221967, 26.3313749], [127.8222396, 26.33129], [127.8222825, 26.3311972], [127.8223162, 26.3311123], [127.8223379, 26.3310293], [127.822379, 26.3308479], [127.822389, 26.3307131], [127.8223933, 26.3305789], [127.8223823, 26.3303412], [127.8223391, 26.3298355], [127.8222944, 26.3293491], [127.8222725, 26.3288675], [127.8222741, 26.3286895], [127.8222829, 26.3285216], [127.8222877, 26.3284463], [127.822294, 26.3283797], [127.8223147, 26.328244], [127.8223815, 26.3279586], [127.8224565, 26.3276794], [127.8226198, 26.3271232], [127.822697, 26.3268688], [127.8227704, 26.3266123], [127.8228186, 26.3264667], [127.8228593, 26.3263244], [127.8228975, 26.3261715], [127.8229296, 26.3260189], [127.8229361, 26.3259787], [127.8229407, 26.3259368], [127.8229479, 26.3258551], [127.8229502, 26.3257689], [127.8229498, 26.3256888], [127.8229467, 26.3256335], [127.8229424, 26.3255835], [127.8229356, 26.3255383], [127.8229288, 26.3254931], [127.8229202, 26.3254293], [127.8228935, 26.3253106], [127.8228358, 26.3251254], [127.8228227, 26.3250832], [127.8227957, 26.3249967], [127.8227369, 26.3248055], [127.8225928, 26.3244048], [127.8225248, 26.3242227], [127.8222039, 26.3234114], [127.8221557, 26.3233178], [127.821887, 26.3227898], [127.8216737, 26.3223933], [127.8216297, 26.3221359], [127.8216256, 26.321965], [127.8216457, 26.3218284], [127.8217331, 26.3213154], [127.8217458, 26.32109], [127.8217118, 26.3208752], [127.8216184, 26.3205701], [127.821452, 26.3200267], [127.8214169, 26.3199142], [127.8214042, 26.3198734], [127.8213583, 26.3197259], [127.8213104, 26.3195694], [127.8212988, 26.3195316], [127.8212056, 26.3192271], [127.8211034, 26.319031], [127.8209602, 26.3188251], [127.8207028, 26.3185686], [127.82066, 26.3185238], [127.8205777, 26.3184375], [127.8205515, 26.3184089], [127.8204703, 26.318325], [127.8203817, 26.3182471], [127.8202585, 26.3181532], [127.8202346, 26.3181316], [127.8201651, 26.3180863], [127.8200863, 26.3180336], [127.8198553, 26.3178874], [127.8197356, 26.317821], [127.8196061, 26.3177472]], [[127.8191834, 26.3174633], [127.8191156, 26.3173952], [127.8190432, 26.3173115], [127.8189903, 26.3172392], [127.8189216, 26.3171384], [127.8188693, 26.3170085], [127.8188192, 26.3168222], [127.8187892, 26.3166226], [127.8187668, 26.316414], [127.8187593, 26.3162675], [127.818772, 26.3161148], [127.8188447, 26.3158241], [127.8188888, 26.3156996], [127.8189471, 26.3155348], [127.8190122, 26.3152939], [127.8190249, 26.3152399], [127.8190418, 26.3151595], [127.819061, 26.3149673], [127.8190634, 26.3147942], [127.819042, 26.3144297], [127.8190316, 26.3143227], [127.8190002, 26.3141987], [127.8189613, 26.314094], [127.8189181, 26.3140037], [127.8188798, 26.3139359], [127.8188056, 26.3138381], [127.8187321, 26.3137438], [127.8186522, 26.3136576], [127.8185616, 26.3135748], [127.818219, 26.3132848], [127.8180922, 26.3131735], [127.8179283, 26.3130297], [127.8178314, 26.3129449], [127.8177655, 26.3128879], [127.8177539, 26.3128778], [127.8177178, 26.3128463], [127.8176637, 26.3128009], [127.817145, 26.312366], [127.8169065, 26.3121468], [127.8168348, 26.312081], [127.8164471, 26.3116407], [127.8156458, 26.3105783], [127.8153871, 26.3102504], [127.8151759, 26.3099662], [127.8151463, 26.3099279], [127.8149067, 26.3096162], [127.8147417, 26.3093859], [127.8146991, 26.3093276], [127.8146087, 26.3091935], [127.8145069, 26.3090227], [127.8144122, 26.308836], [127.8143178, 26.3086348], [127.8142157, 26.3084169], [127.8141906, 26.3083648], [127.8141057, 26.3081842], [127.8140045, 26.3080068], [127.8139072, 26.3078459], [127.8137962, 26.3076746], [127.8136675, 26.3074898], [127.8135068, 26.3072882], [127.8133533, 26.3071073], [127.8131589, 26.3068846], [127.8126251, 26.3063217], [127.8125231, 26.3062141], [127.8124787, 26.306165], [127.8124474, 26.306131], [127.8119215, 26.3055534], [127.8114978, 26.3050872], [127.8114302, 26.3050156], [127.8113907, 26.3049737], [127.8110046, 26.3045485], [127.8106145, 26.3041192], [127.8104858, 26.3039716], [127.8103121, 26.3037638], [127.8102651, 26.3037081], [127.810248, 26.3036837], [127.8099531, 26.3032355], [127.8098538, 26.3030648], [127.8098176, 26.3030027], [127.8097164, 26.3028182], [127.809697, 26.3027796], [127.8096379, 26.30266], [127.8096014, 26.302579], [127.8095631, 26.3024824], [127.8095391, 26.3024233], [127.8094649, 26.3022178], [127.8093897, 26.3020092], [127.8092667, 26.3016696], [127.8089682, 26.3008564], [127.8089054, 26.3006559], [127.8088808, 26.3005711], [127.8088645, 26.3005078], [127.8088291, 26.3003521], [127.8087838, 26.3001151], [127.8087534, 26.2998585], [127.8087296, 26.2996018], [127.8087178, 26.2993532], [127.8087231, 26.2990525], [127.8087324, 26.2989326], [127.8087495, 26.2988623], [127.8088908, 26.2983101], [127.8089232, 26.2981669], [127.8089447, 26.2980475], [127.8089557, 26.2979195], [127.8089592, 26.2977077], [127.8089319, 26.2975283], [127.8089092, 26.2973261], [127.8088877, 26.2971338], [127.808871, 26.296985], [127.8088678, 26.2967967], [127.8088696, 26.2965902], [127.808875, 26.2964763], [127.8088866, 26.2963845], [127.8088944, 26.2963212], [127.8089062, 26.2962417], [127.808941, 26.2960069], [127.8089628, 26.2958461], [127.8090512, 26.2953875], [127.8091175, 26.2950408], [127.8091271, 26.294988], [127.80915, 26.2948485], [127.8091751, 26.2947109], [127.8091825, 26.2946686], [127.8092178, 26.2944444], [127.8092485, 26.2943202], [127.8092763, 26.2942096], [127.8093388, 26.2940474], [127.8093936, 26.2939282], [127.8096663, 26.2934406], [127.8102841, 26.2923359], [127.8103596, 26.2922116], [127.8104436, 26.2920923], [127.8105306, 26.2919795], [127.8108928, 26.2915661], [127.8112921, 26.291171], [127.8124362, 26.2900634], [127.8125079, 26.2899861], [127.8125702, 26.2899191], [127.8130776, 26.2893329], [127.8134356, 26.2889188], [127.8138975, 26.2883508], [127.8141242, 26.2880194], [127.8142355, 26.2878506], [127.8142937, 26.2877578], [127.8143243, 26.2877073], [127.8144079, 26.2875696], [127.8146617, 26.2870827], [127.8147962, 26.2867967], [127.8148893, 26.286533], [127.8150444, 26.286052], [127.8151367, 26.2856901], [127.8152111, 26.2853575], [127.8152216, 26.2853104], [127.81525, 26.2851841], [127.8154157, 26.2844478], [127.815487, 26.2840808], [127.8155059, 26.2838298], [127.8155142, 26.2835795], [127.8155108, 26.2835037], [127.8155073, 26.2834258], [127.8155019, 26.2833412], [127.8154914, 26.283239], [127.8154864, 26.2831905], [127.8154814, 26.2831378], [127.815471, 26.283056], [127.8154633, 26.2830106], [127.8153975, 26.2826244], [127.8153287, 26.2823367], [127.8151599, 26.2818947], [127.8150013, 26.2816071], [127.8148219, 26.2813879], [127.8145565, 26.2811121], [127.8143108, 26.2808539], [127.8142997, 26.2808422]], [[127.8196061, 26.3177472], [127.8194916, 26.3176823], [127.8194474, 26.3176564], [127.819361, 26.3176035], [127.8192899, 26.317554], [127.8191834, 26.3174633]], [[127.8142997, 26.2808422], [127.8141703, 26.2807159], [127.8141316, 26.2806781], [127.8135636, 26.2801239], [127.8134309, 26.2799988], [127.8132915, 26.2798801], [127.8131829, 26.2797961], [127.8130475, 26.2797045], [127.8129201, 26.2796265], [127.8118916, 26.2790713], [127.8117869, 26.2790179], [127.8112805, 26.2787951], [127.810829, 26.2786012], [127.8099718, 26.2782379], [127.8086418, 26.2776806], [127.8085423, 26.2776401], [127.8084498, 26.2776006], [127.8084013, 26.27758], [127.8080856, 26.2774455], [127.8077696, 26.2773237], [127.8074976, 26.2772271], [127.8073131, 26.2771775], [127.8070252, 26.2771483], [127.8068452, 26.277146], [127.8066953, 26.2771668], [127.8063874, 26.2772778], [127.8063477, 26.277294], [127.8062909, 26.2773218], [127.8060979, 26.2774364], [127.8059001, 26.2775597], [127.8054864, 26.277817], [127.805277, 26.2779324], [127.805007, 26.2780511], [127.8048067, 26.2781239], [127.8045957, 26.2781828], [127.8044669, 26.2782117], [127.804183, 26.2782611], [127.8038682, 26.2782997], [127.8035826, 26.2783173], [127.803326, 26.2783228], [127.8030089, 26.27832], [127.8027779, 26.2782934], [127.8025202, 26.2782314], [127.8022764, 26.2781411], [127.8019224, 26.2779672], [127.8013147, 26.2776055], [127.8011639, 26.2775139], [127.8002989, 26.2769674], [127.8001158, 26.2768467], [127.8000416, 26.2767885], [127.7998983, 26.2766701], [127.7998632, 26.2766341], [127.7997289, 26.2764964], [127.7996347, 26.2763999], [127.7994352, 26.2761772], [127.7992005, 26.2758797], [127.7989276, 26.2755404], [127.7987825, 26.2753779], [127.7985496, 26.2751126], [127.7981216, 26.2746075], [127.7980829, 26.2745636], [127.7980557, 26.2745322], [127.7979861, 26.2744519], [127.7979043, 26.2743549], [127.7974459, 26.2738114], [127.7971367, 26.2734995], [127.7969919, 26.2733686], [127.7968934, 26.2732811], [127.7967221, 26.2731308], [127.7966874, 26.2731033], [127.7966283, 26.2730513], [127.7961748, 26.2727501], [127.7958518, 26.2725781], [127.7956905, 26.2725062], [127.7956478, 26.2724872], [127.7955959, 26.2724654], [127.7954832, 26.2724182], [127.7947137, 26.2721514], [127.7939576, 26.2718774], [127.7933648, 26.271669], [127.7927223, 26.2714401], [127.7925335, 26.2713604], [127.79238, 26.2712749], [127.7923064, 26.2712273], [127.7922605, 26.2711999], [127.7921977, 26.271151], [127.7920384, 26.2710003], [127.7919047, 26.2708503], [127.7917898, 26.2706798], [127.791696, 26.2705003], [127.7916236, 26.2703039], [127.7913385, 26.2694291], [127.7912353, 26.2691087], [127.791056, 26.2685519], [127.7907427, 26.2676064], [127.7906921, 26.2674533], [127.790677, 26.2674079], [127.7906621, 26.2673624], [127.7904388, 26.2666827], [127.7903041, 26.2662804], [127.7902923, 26.2662449], [127.7902634, 26.2661486], [127.7902473, 26.266099], [127.7899598, 26.2652112], [127.7898643, 26.2649173], [127.7897263, 26.2645629], [127.7895207, 26.2641083], [127.7894933, 26.2640589], [127.7894594, 26.2639911], [127.7894107, 26.2639082], [127.7891194, 26.263413], [127.7888023, 26.2629099], [127.7887642, 26.2628494], [127.7886979, 26.2627456], [127.78867, 26.2627012], [127.7880266, 26.2616921], [127.7879987, 26.2616484], [127.7879194, 26.2615212], [127.7878878, 26.2614705], [127.7876853, 26.26115], [127.7876061, 26.2610248], [127.7873455, 26.26059], [127.7870788, 26.2601082], [127.7870433, 26.260044], [127.7870065, 26.2599753], [127.7869852, 26.2599355], [127.7868358, 26.2596567], [127.7865646, 26.2591507], [127.7862746, 26.2586085], [127.7859864, 26.2580741], [127.7855719, 26.2573073], [127.7854053, 26.2569651], [127.7852563, 26.2566197], [127.784959, 26.25572], [127.7848925, 26.2554867], [127.78488, 26.2554418], [127.7848357, 26.2552821], [127.7848085, 26.2551927], [127.784796, 26.2551513], [127.7846735, 26.2547355], [127.7846081, 26.2545285], [127.7845428, 26.2543356], [127.7844815, 26.2541608], [127.7844651, 26.254114], [127.7844022, 26.2539756], [127.7843242, 26.2538065], [127.7842462, 26.2536375], [127.7841991, 26.2535355], [127.7840902, 26.2532994], [127.783503, 26.2520743], [127.7832229, 26.2514911], [127.7831686, 26.2513832], [127.7828481, 26.2506866], [127.7826848, 26.2502946], [127.7825105, 26.2497902], [127.7824011, 26.2493822], [127.7822513, 26.2487209], [127.7821218, 26.2481604], [127.7820216, 26.2477358], [127.7819826, 26.2475329], [127.7818182, 26.2468336], [127.781665, 26.2462104], [127.7814933, 26.2456231], [127.7813926, 26.245329], [127.7812526, 26.2450232], [127.7810927, 26.2447298], [127.7809492, 26.2445447], [127.7806938, 26.2441958], [127.7802615, 26.2436084], [127.779602, 26.2427215], [127.779101, 26.2420548], [127.7786063, 26.2413881], [127.7784946, 26.2412257], [127.7781614, 26.2407819], [127.7773443, 26.2396861], [127.7766061, 26.2387098], [127.7764134, 26.2384816], [127.7761808, 26.2382591], [127.7759702, 26.238098], [127.7757533, 26.2379572], [127.7755686, 26.2378499], [127.7755211, 26.237822], [127.7754026, 26.2377628], [127.7753201, 26.2377238], [127.7752263, 26.2376834], [127.775207, 26.2376748], [127.7749799, 26.2375945], [127.7747331, 26.2375237], [127.7741481, 26.2374241], [127.7732971, 26.237291], [127.7721444, 26.2371255], [127.7718192, 26.2370775], [127.7717699, 26.2370703], [127.7716125, 26.2370422], [127.7715302, 26.2370282], [127.7714542, 26.2370141], [127.7713365, 26.2369932], [127.771313, 26.236989], [127.7708464, 26.2368905], [127.7706812, 26.2368441], [127.7705207, 26.2367851], [127.7703717, 26.2367146], [127.770252, 26.2366398], [127.7700864, 26.2365068], [127.7699511, 26.236378], [127.7698437, 26.2362466], [127.7697503, 26.2361015], [127.7696917, 26.235984], [127.7696447, 26.2358591], [127.7695952, 26.2356786], [127.7695721, 26.2354969], [127.7695673, 26.2352734], [127.7695712, 26.2351999], [127.7695785, 26.2350638], [127.7695805, 26.2350274], [127.7696138, 26.2346532], [127.7696842, 26.2338512], [127.7696822, 26.2336882], [127.7696786, 26.2334201], [127.7696395, 26.2331445], [127.769608, 26.2329615], [127.769598, 26.2329154], [127.7695925, 26.2328918], [127.7695599, 26.2327641], [127.7695149, 26.2326425], [127.7694998, 26.2326014], [127.7693292, 26.2321664], [127.7691538, 26.2317344], [127.7691026, 26.2316047], [127.7689647, 26.2312929], [127.7684741, 26.2303262], [127.7683257, 26.2300336], [127.7681605, 26.2297124], [127.7680132, 26.2294258], [127.7679784, 26.2293581], [127.7678658, 26.2291391], [127.7678399, 26.2290905], [127.7677871, 26.2289924], [127.7677507, 26.2289177], [127.7675984, 26.2286054], [127.7670963, 26.2275756], [127.7670593, 26.2275018], [127.7670178, 26.2274213], [127.7669418, 26.2272729], [127.7663947, 26.2261559], [127.7663717, 26.2261004], [127.7661975, 26.22568], [127.7661686, 26.2255903], [127.7661105, 26.2254379], [127.766097, 26.2253987], [127.7660584, 26.2252545], [127.766025, 26.2251049], [127.7660152, 26.2250541], [127.7659779, 26.2247849], [127.7658538, 26.2238777], [127.7657235, 26.2229477], [127.7656609, 26.2224485], [127.7656389, 26.2222814], [127.7655936, 26.221965], [127.7655869, 26.2219181], [127.7655661, 26.2217726], [127.7655527, 26.2216602], [127.7655419, 26.2215855], [127.7655244, 26.2214636], [127.7655181, 26.2214149], [127.7655112, 26.22136], [127.7654762, 26.2210817], [127.7654304, 26.2207292], [127.7654063, 26.2205471], [127.7653821, 26.2203942], [127.7653571, 26.2202942], [127.7653101, 26.2201362], [127.7652507, 26.2199999], [127.7651863, 26.2198651], [127.765044, 26.2196335], [127.7649941, 26.2195522], [127.7649573, 26.2194925], [127.7649412, 26.2194665], [127.7647485, 26.2191555], [127.7647046, 26.2190829], [127.7646127, 26.2189294], [127.7645583, 26.2188268], [127.7643459, 26.2184126], [127.7642282, 26.2181734], [127.7641099, 26.2179351], [127.7640743, 26.2178608], [127.7640535, 26.2178182], [127.7640252, 26.2177611], [127.7639945, 26.2177013], [127.7639722, 26.2176577], [127.763916, 26.2175483], [127.7638789, 26.2174652], [127.7638451, 26.2173806], [127.7638114, 26.2172611], [127.7637927, 26.2171519], [127.763779, 26.2170367], [127.7637688, 26.2167837], [127.7637613, 26.216598], [127.7637586, 26.2165372], [127.7637504, 26.2164882], [127.7637281, 26.2163895], [127.7637067, 26.2163175], [127.7636835, 26.2162489], [127.7636463, 26.2161654], [127.7636101, 26.216099], [127.7635641, 26.2160341], [127.7635182, 26.2159758], [127.763428, 26.2158709], [127.7632766, 26.2157112], [127.7629535, 26.2153936], [127.7629091, 26.2153487], [127.7625023, 26.2149524], [127.762386, 26.2148391], [127.7619707, 26.2144272], [127.7618049, 26.2142512], [127.7616577, 26.2140652], [127.7615222, 26.2138822], [127.7613681, 26.2136456], [127.761253, 26.2134647], [127.7609691, 26.2130183], [127.7609393, 26.2129772], [127.7608558, 26.2128624], [127.7608123, 26.2127905], [127.7607945, 26.212761], [127.7607854, 26.2127481], [127.7605754, 26.2124509], [127.760473, 26.212306], [127.7604482, 26.2122708], [127.7603628, 26.2121622], [127.7602712, 26.2120451], [127.7601701, 26.2119021], [127.7601098, 26.2118124], [127.7600819, 26.2117724], [127.7597126, 26.2112432], [127.7596563, 26.2111612], [127.7595868, 26.2110605], [127.759577, 26.2110463], [127.7594963, 26.2109294], [127.7594714, 26.2108934], [127.7591302, 26.2103991], [127.7588139, 26.2099465], [127.7585699, 26.209596], [127.7584611, 26.2094397], [127.7579902, 26.2087593], [127.7577908, 26.2084678], [127.7576847, 26.2083097], [127.757587, 26.2081642], [127.7575651, 26.2081316], [127.7574823, 26.2080082], [127.7574106, 26.2079107], [127.7573701, 26.2078557], [127.7573484, 26.2078262], [127.7571218, 26.2075181], [127.7568188, 26.207079], [127.7565249, 26.2066329], [127.7563801, 26.2064035], [127.7563636, 26.2063743], [127.7563356, 26.2063231], [127.7563024, 26.2062611], [127.7561476, 26.2059486], [127.7559818, 26.2055931], [127.7559036, 26.2054255], [127.7558839, 26.2053816], [127.7558266, 26.2052538], [127.7558065, 26.2052079], [127.7555758, 26.2047138], [127.7552454, 26.2040016], [127.7549932, 26.203458], [127.7549376, 26.2033371], [127.7548648, 26.2031793], [127.7547582, 26.2029433], [127.7547452, 26.2029158], [127.7547249, 26.2028731], [127.754702, 26.2028198], [127.7546697, 26.2027518], [127.7546334, 26.2026704], [127.7546082, 26.2026154], [127.7545402, 26.2024668], [127.7545105, 26.2024012], [127.7544173, 26.2021957], [127.7543971, 26.2021519], [127.7542901, 26.2019212], [127.7542626, 26.2018593], [127.7542163, 26.2017532], [127.7542033, 26.2017283], [127.7541373, 26.2016064], [127.7540036, 26.201609], [127.7539135, 26.201606], [127.7538845, 26.2016043], [127.7535823, 26.2015864], [127.7532812, 26.2015563], [127.7531046, 26.2015148], [127.7530365, 26.2014898], [127.7529563, 26.2014509], [127.7529023, 26.2014128], [127.752859, 26.201378], [127.7527336, 26.2012706], [127.752692, 26.2012313], [127.7523473, 26.2009056], [127.7521183, 26.2006806], [127.7518128, 26.2004079], [127.751686, 26.2003191], [127.7515448, 26.2002488], [127.7514327, 26.2002104], [127.7512976, 26.200176], [127.7508837, 26.2001081], [127.7504859, 26.2000457], [127.7498158, 26.199951], [127.7497793, 26.1999459], [127.749673, 26.1999293], [127.7495774, 26.1999156], [127.7495294, 26.1999085], [127.7493684, 26.1998804], [127.749187, 26.1998553], [127.7490164, 26.1998447], [127.7488948, 26.1998373], [127.7487207, 26.1998434], [127.7485942, 26.1998563], [127.7483961, 26.1998864], [127.7472461, 26.2000837], [127.7471333, 26.2001039], [127.7469915, 26.2001295], [127.7464913, 26.2002196], [127.7458486, 26.200342], [127.7457837, 26.2003544], [127.7449124, 26.2005176], [127.7443319, 26.2006349], [127.7441126, 26.200676], [127.7438461, 26.2007303], [127.7435151, 26.2007887], [127.7432576, 26.2008103], [127.7430824, 26.2008118], [127.7429201, 26.2007993], [127.7427302, 26.2007744], [127.741378, 26.2005749], [127.7402718, 26.2003974], [127.7398972, 26.2003282], [127.739854, 26.2003208], [127.7396343, 26.2002827], [127.7393883, 26.200239], [127.7392509, 26.2002199], [127.739215, 26.2002129], [127.7390327, 26.2001827], [127.7389689, 26.200166], [127.7387029, 26.2000923], [127.7385782, 26.2000484], [127.7384264, 26.1999826], [127.73832, 26.1999283], [127.7382142, 26.1998642], [127.7380537, 26.1997571], [127.7375892, 26.1994395], [127.7375193, 26.1993924], [127.7371503, 26.1991446], [127.7367619, 26.1988793], [127.7367049, 26.1988441], [127.7366081, 26.1987849], [127.7363735, 26.1986615], [127.7362162, 26.1985972], [127.7360682, 26.1985444], [127.7358467, 26.198486], [127.7355239, 26.1984078], [127.7338289, 26.1979896], [127.7334905, 26.1978814], [127.7333586, 26.1978297], [127.733263, 26.1977805], [127.7331645, 26.1977223], [127.733127, 26.1976991], [127.732968, 26.1975861], [127.7327833, 26.1974601], [127.7327519, 26.1974374], [127.7325296, 26.1972865], [127.7314643, 26.1965632], [127.7312509, 26.1964475], [127.7310281, 26.1963612], [127.730881, 26.1963176], [127.7307578, 26.196285], [127.7301625, 26.1961454], [127.7297976, 26.1960699], [127.7297378, 26.1960579], [127.7286707, 26.1958284], [127.7282769, 26.1957437], [127.7279294, 26.1956723], [127.7273884, 26.1955611], [127.7273605, 26.1955556], [127.7273111, 26.1955459], [127.7271452, 26.1955134], [127.7270387, 26.1954978], [127.7268937, 26.1954763], [127.7268381, 26.1954681], [127.7267259, 26.1954549], [127.7266451, 26.1954492], [127.7264693, 26.1954523], [127.7263377, 26.1954585], [127.7262006, 26.1954692], [127.7260137, 26.1954929], [127.7257703, 26.1955236], [127.7251208, 26.195605], [127.7250666, 26.1956114], [127.7249595, 26.1956205], [127.7248546, 26.1956221], [127.7247236, 26.1956187], [127.7246011, 26.195609], [127.7244903, 26.1955945], [127.7243897, 26.1955749], [127.7242689, 26.1955464], [127.7241302, 26.1955045], [127.7237839, 26.1953733], [127.7236581, 26.1953251], [127.7235174, 26.1952792], [127.7234153, 26.1952514], [127.7233469, 26.195237], [127.7232363, 26.1952201], [127.7231231, 26.1952112], [127.7230083, 26.1952104], [127.7228222, 26.1952203], [127.7223384, 26.1953034], [127.7221362, 26.1953362], [127.7219401, 26.1953705], [127.7218274, 26.1953904], [127.7215371, 26.1954334], [127.7210851, 26.1955068], [127.720041, 26.1956655], [127.7199935, 26.1956727], [127.7197886, 26.1957078], [127.7196432, 26.1957369], [127.7194689, 26.1957778], [127.7194302, 26.1957883], [127.7192823, 26.1958278], [127.719151, 26.1958637], [127.7188374, 26.1959516], [127.7186575, 26.196002], [127.7185072, 26.1960533], [127.7184077, 26.1961037], [127.7183647, 26.1961255], [127.71822, 26.1962279], [127.7180885, 26.1963686], [127.7174085, 26.1971921], [127.7171833, 26.1974183], [127.7170411, 26.197528], [127.7169687, 26.1975799], [127.7168754, 26.1976369], [127.7167376, 26.1977103], [127.7166793, 26.197739], [127.716619, 26.197766], [127.7165279, 26.1978041], [127.7164175, 26.1978459], [127.7163295, 26.1978727], [127.7162246, 26.1979016], [127.7160678, 26.1979352], [127.7157034, 26.1980029], [127.7155937, 26.1980243], [127.7154152, 26.1980572], [127.7149214, 26.1981481], [127.7147391, 26.1981827], [127.7144522, 26.1982376], [127.7142864, 26.198267], [127.7142372, 26.1982746], [127.7140717, 26.1982897], [127.7140006, 26.1982956], [127.7137468, 26.198306], [127.7136928, 26.1981654], [127.7136398, 26.198031], [127.713433, 26.1974689], [127.7132613, 26.1969849], [127.7131082, 26.1965978], [127.712949, 26.1962724], [127.7127821, 26.1959967], [127.7126641, 26.1958396], [127.7126259, 26.195791], [127.7125045, 26.195645], [127.7124078, 26.1955362], [127.7122873, 26.1954102], [127.71217, 26.1952984], [127.7120616, 26.1952081], [127.7120107, 26.1951671], [127.7118088, 26.1950042], [127.7116591, 26.1949128], [127.7115055, 26.194819], [127.7108789, 26.1944843], [127.7101079, 26.1940954], [127.7093556, 26.1936892], [127.7084342, 26.1931891], [127.7080601, 26.1929701], [127.7078295, 26.1928342], [127.7072607, 26.1925047], [127.7072124, 26.1924767], [127.7070933, 26.1924104], [127.7069876, 26.1923475], [127.7062234, 26.191925], [127.705799, 26.1917385], [127.7054201, 26.1916129], [127.7051368, 26.1915447], [127.7047689, 26.1914919], [127.7044678, 26.1914696], [127.7042234, 26.1914584], [127.7040482, 26.1914503], [127.7038785, 26.1914498], [127.703573, 26.1914622], [127.7034641, 26.1914677], [127.7033653, 26.1914781], [127.7033095, 26.1914862], [127.7031399, 26.1915066], [127.7029546, 26.1915394], [127.7027563, 26.1915833], [127.7025393, 26.1916365], [127.7023262, 26.1917015], [127.7020933, 26.1917879], [127.7018142, 26.1919096], [127.7012078, 26.1921984], [127.7002687, 26.1926239], [127.6999117, 26.1927857], [127.6994802, 26.1929592], [127.6990762, 26.1930745], [127.6985717, 26.1932099], [127.6978963, 26.1933624], [127.6975021, 26.1934331], [127.6971664, 26.1934885], [127.6966355, 26.1935517], [127.6965178, 26.1935664], [127.6963496, 26.1935873], [127.6961527, 26.1935921], [127.6955781, 26.1935901], [127.6954989, 26.1935891], [127.695421, 26.193587], [127.6952938, 26.1935841], [127.6951474, 26.1935819], [127.6949369, 26.1935782], [127.6947669, 26.1935745], [127.6946466, 26.1935719], [127.6935855, 26.1935621], [127.6919679, 26.1935737], [127.691493, 26.1935847], [127.6908053, 26.1936334], [127.6903382, 26.1936398], [127.690188, 26.1936396], [127.6900231, 26.1936404], [127.6879263, 26.193611], [127.6873871, 26.193599], [127.6871548, 26.1935956], [127.6868427, 26.1935973], [127.686789, 26.1935976], [127.6866152, 26.1936042], [127.6864721, 26.1936178], [127.6864108, 26.1936251], [127.6861274, 26.1936686], [127.6858391, 26.1937314], [127.6856368, 26.1937818], [127.6854404, 26.1938449], [127.6840429, 26.1943646], [127.6830847, 26.1947245], [127.6827898, 26.1948333], [127.6822526, 26.1950241], [127.682157, 26.1950615], [127.6821086, 26.1950804], [127.6819877, 26.1951273], [127.6818597, 26.1951811], [127.681629, 26.1952877], [127.681298, 26.195457], [127.6809533, 26.1956953], [127.6806565, 26.1959488], [127.6803935, 26.1962093], [127.6803333, 26.1962767], [127.6802744, 26.1963493], [127.6801668, 26.1964903], [127.6800679, 26.1966339], [127.6799725, 26.1967783], [127.6799, 26.1969024], [127.6798335, 26.1970298], [127.679768, 26.1971768], [127.6797088, 26.197327], [127.679664, 26.1974533], [127.6796081, 26.1976535], [127.6795707, 26.1978206], [127.6795394, 26.1979874], [127.6795174, 26.1981279], [127.6795031, 26.1982633], [127.6794963, 26.1983856], [127.6794924, 26.1985176], [127.679496, 26.1986878], [127.6795075, 26.1988509], [127.6795466, 26.1990921], [127.6795928, 26.1992855], [127.6796161, 26.1993765], [127.6796427, 26.1994665], [127.6796987, 26.1996441], [127.6797622, 26.1998449], [127.679829, 26.2000437], [127.6799225, 26.2003011], [127.6800062, 26.2005532], [127.6800569, 26.2007363], [127.6800851, 26.2008831], [127.6801061, 26.2010808], [127.6801125, 26.2012783], [127.6801092, 26.201434], [127.6801023, 26.201534], [127.6800896, 26.2016336], [127.680076, 26.2017272], [127.6800562, 26.2018198], [127.6800353, 26.2018996], [127.6800118, 26.2019783], [127.6799745, 26.2020974], [127.6799317, 26.2022138], [127.679879, 26.202345], [127.6798218, 26.2024755], [127.6796123, 26.2029653], [127.6790171, 26.204393], [127.6787355, 26.2050057], [127.6784989, 26.2054849], [127.6783823, 26.2056981], [127.6781315, 26.2061568], [127.6781164, 26.2061862], [127.6780561, 26.2062978], [127.6779785, 26.2064435], [127.6777705, 26.2068537], [127.6775631, 26.2072092], [127.6774514, 26.2073735], [127.6773389, 26.2075273], [127.6771947, 26.2076984], [127.6770696, 26.2078428], [127.6770491, 26.2078638], [127.6769581, 26.2079551], [127.676878, 26.2080351], [127.6767723, 26.2081377], [127.6766627, 26.2082328], [127.6764096, 26.2084203], [127.6763758, 26.2084434], [127.6760687, 26.2086531], [127.6759094, 26.2087619], [127.6757429, 26.2088616], [127.675663, 26.2089063], [127.6755583, 26.2089621], [127.6754313, 26.2090227], [127.6752983, 26.2090797], [127.6751825, 26.2091271], [127.6749666, 26.2091994], [127.6749181, 26.2092149], [127.6748901, 26.2092232], [127.6747718, 26.2092506], [127.67464, 26.2092792]], [[127.7137468, 26.198306], [127.7136065, 26.1983068], [127.7135486, 26.198158], [127.7135182, 26.1980788], [127.7133923, 26.1977969], [127.7131026, 26.1971115], [127.7130338, 26.1969566], [127.7129551, 26.1967794], [127.7128598, 26.1966053], [127.7127951, 26.1964949], [127.7126527, 26.1962637], [127.7125288, 26.1960845], [127.7124027, 26.1959271], [127.7123116, 26.1958168], [127.7122193, 26.1957086], [127.7121279, 26.1956237], [127.7119759, 26.1954773], [127.7118716, 26.1953897], [127.711664, 26.1952082], [127.7115149, 26.1951084], [127.7114942, 26.1950946], [127.7111232, 26.1948769], [127.7109505, 26.1947874], [127.7107517, 26.1946827], [127.7097552, 26.1941898], [127.7088969, 26.1937156], [127.7079045, 26.1931524], [127.7070944, 26.1926656], [127.7069785, 26.1925958], [127.7068733, 26.1925373], [127.7068473, 26.1925216], [127.7064296, 26.1922825], [127.7060633, 26.1920729], [127.7056878, 26.1919047], [127.7052783, 26.1917559], [127.7048126, 26.1916366], [127.7045188, 26.1915855], [127.7041734, 26.1915576], [127.7039473, 26.1915542], [127.703677, 26.1915577], [127.703467, 26.19157], [127.7033001, 26.191589], [127.7031278, 26.1916157], [127.7029418, 26.1916498], [127.7028792, 26.1916626], [127.7025676, 26.1917377], [127.7023284, 26.191813], [127.7020983, 26.1919012], [127.7018845, 26.1919904], [127.7007533, 26.1925107], [127.7004421, 26.1926581], [127.7000685, 26.1928648], [127.6995734, 26.1930884], [127.6993267, 26.193184], [127.6990735, 26.1932743], [127.6985592, 26.1934271], [127.6980066, 26.1935727], [127.6976045, 26.1936514], [127.697194, 26.1937222], [127.6968471, 26.1937585], [127.696682, 26.1937752], [127.6962086, 26.1938059], [127.6956203, 26.1938117], [127.6955033, 26.193813], [127.6953853, 26.1938137], [127.6952284, 26.193813], [127.6949844, 26.1938113], [127.6949309, 26.1938112], [127.6945673, 26.1938097], [127.6942015, 26.193802], [127.6932003, 26.1937903], [127.692412, 26.1937733], [127.6915072, 26.1937289], [127.6906057, 26.1937406], [127.690186, 26.1937413], [127.6900229, 26.1937414], [127.6899751, 26.1937411], [127.6897111, 26.1937382], [127.6873643, 26.1937038], [127.6867925, 26.1936976], [127.6866118, 26.1937039], [127.6864837, 26.1937104], [127.6864366, 26.1937145], [127.6864234, 26.1937163], [127.6862938, 26.1937346], [127.6861719, 26.1937539], [127.6860097, 26.1937839], [127.6858705, 26.1938144], [127.6857607, 26.1938436], [127.6856687, 26.1938697], [127.6854565, 26.1939357], [127.6850803, 26.1940723], [127.6839707, 26.1944865], [127.6831208, 26.1948028], [127.6822951, 26.1951027], [127.6821467, 26.1951619], [127.68203, 26.1952115], [127.6819099, 26.1952662], [127.6818617, 26.1952884], [127.6816768, 26.1953734], [127.6813564, 26.1955464], [127.6810231, 26.1957542], [127.6807252, 26.1960004], [127.6804695, 26.1962619], [127.6803558, 26.1963966], [127.6802491, 26.1965332], [127.6801487, 26.1966803], [127.6800537, 26.1968293], [127.6799845, 26.1969487], [127.6799207, 26.1970689], [127.6798581, 26.1972083], [127.6797986, 26.1973517], [127.6796934, 26.1976778], [127.6796569, 26.1978416], [127.6796264, 26.1980076], [127.6796099, 26.1981402], [127.6795986, 26.1982707], [127.6795939, 26.1983903], [127.6795907, 26.1985102], [127.6795947, 26.198678], [127.6796058, 26.1988427], [127.6796375, 26.1990797], [127.6796571, 26.1991712], [127.6796786, 26.1992653], [127.6797278, 26.199445], [127.6797819, 26.1996236], [127.6798454, 26.1998093], [127.6799119, 26.1999942], [127.6800192, 26.2002722], [127.6801028, 26.2005302], [127.6801289, 26.2006261], [127.6801522, 26.2007239], [127.680176, 26.2008644], [127.6802016, 26.2010707], [127.6802086, 26.2011751], [127.6802114, 26.2012776], [127.680207, 26.2014478], [127.6801997, 26.2015498], [127.6801886, 26.2016525], [127.680172, 26.2017494], [127.6801505, 26.2018444], [127.6801062, 26.2020046], [127.6800677, 26.2021211], [127.680024, 26.2022367], [127.679918, 26.2025054], [127.6797164, 26.2030004], [127.6791206, 26.2044267], [127.6790987, 26.2044795], [127.6788398, 26.2050433], [127.6785635, 26.2055995], [127.6782312, 26.2062337], [127.6781668, 26.2063525], [127.6780967, 26.2064796], [127.6779202, 26.2068045], [127.6778691, 26.2068987], [127.6775338, 26.2074646], [127.6773173, 26.2077348], [127.6771441, 26.2079367], [127.6770571, 26.2080312], [127.6769751, 26.2081167], [127.6769434, 26.2081488], [127.6768572, 26.2082333], [127.6767159, 26.2083607], [127.676511, 26.208527], [127.6763511, 26.2086436], [127.6761835, 26.2087533], [127.6759884, 26.2088724], [127.6757887, 26.2089848], [127.6756284, 26.2090636], [127.6754675, 26.2091376], [127.6753344, 26.2091943], [127.6751996, 26.2092456], [127.674945, 26.2093362], [127.6749185, 26.209346], [127.6747944, 26.2093789], [127.6746626, 26.2094116]]]}, "id": "relation/10535240"}]}