{"type": "FeatureCollection", "generator": "kokudo-quiz tools/fetch_raw.py (Overpass API)", "copyright": "The data included in this document is from www.openstreetmap.org. The data is made available under ODbL.", "timestamp": "2026-09-30T16:22:31Z", "features": [{"type": "Feature", "properties": {"@id": "relation/6649827", "colour": "red", "from": "秋田県湯沢市", "name": "国道344号", "name:en": "National Highway Route 344", "name:ja": "国道344号", "name:ja-Hira": "こくどうさんびゃくよんじゅうよんごう", "name:ja-Latn": "Kokudou 344 Gou", "network": "JP:national", "official_name": "一般国道344号", "ref": "344", "route": "road", "to": "山形県酒田市", "type": "route", "wikidata": "Q6157293", "wikipedia": "ja:国道344号"}, "geometry": {"type": "MultiLineString", "coordinates": [[[140.4889431, 39.1637108], [140.4889548, 39.1636353], [140.4889847, 39.1633028], [140.4890065, 39.1630683], [140.4890324, 39.1627645], [140.4890807, 39.1620073], [140.4890903, 39.1618562], [140.4891251, 39.1613098], [140.4891309, 39.161219], [140.4891759, 39.160717], [140.4891945, 39.1604353], [140.4892357, 39.1598366], [140.4892585, 39.1595059], [140.4892728, 39.1592987], [140.4892805, 39.1591876], [140.4892866, 39.1589767], [140.4893057, 39.1584713], [140.4893238, 39.1579665], [140.4893258, 39.1579104], [140.4893288, 39.1578215], [140.4893443, 39.1573533], [140.4893647, 39.1567838], [140.4893815, 39.1559745], [140.4893898, 39.1558683], [140.4894137, 39.15508], [140.4894489, 39.153889], [140.4894618, 39.1537275], [140.4894706, 39.1536222], [140.4894796, 39.1535351], [140.489537, 39.153078], [140.4896182, 39.1528559], [140.4897232, 39.1525801], [140.4898123, 39.1523769], [140.4899085, 39.1521575], [140.4899897, 39.151995], [140.4900597, 39.1518547], [140.490078, 39.1518189], [140.4902193, 39.1515414], [140.4905488, 39.1508946], [140.4907182, 39.1505289], [140.4912257, 39.1495505], [140.4914383, 39.149086], [140.4914509, 39.1490585], [140.4915032, 39.1489242], [140.491534, 39.1488089], [140.4915866, 39.1485177], [140.4916184, 39.1483336], [140.4916286, 39.1481288], [140.491628, 39.1479549], [140.4916269, 39.1476397], [140.4915222, 39.1468674], [140.4914936, 39.1466903], [140.4914642, 39.1465086], [140.4914387, 39.1463502], [140.4914035, 39.1461313], [140.4913873, 39.1460477], [140.4913654, 39.1459346], [140.4912912, 39.1456504], [140.4912794, 39.1455991], [140.4912193, 39.1453979], [140.4912166, 39.1453888], [140.4911082, 39.1450284], [140.4910409, 39.1448923], [140.4909843, 39.1447937], [140.4908892, 39.1446573], [140.4907244, 39.1444044], [140.4904145, 39.1440038], [140.4900749, 39.1436489], [140.489822, 39.1434044], [140.489507, 39.1431123], [140.488989, 39.142668], [140.4883597, 39.142211], [140.4883085, 39.1421738], [140.4877184, 39.1418048], [140.4872173, 39.1415023], [140.4864471, 39.1410979], [140.4856969, 39.1406943], [140.4854606, 39.1405734], [140.484654, 39.14018], [140.484194, 39.139903], [140.484157, 39.139878], [140.483172, 39.139197], [140.482792, 39.13886], [140.482553, 39.13862], [140.4822984, 39.1383036], [140.482133, 39.138043], [140.481901, 39.1376997], [140.4817056, 39.137286], [140.481573, 39.1368104], [140.4814966, 39.1362448], [140.481511, 39.1359094], [140.4815413, 39.1356695], [140.481605, 39.1353142], [140.4817676, 39.1347011], [140.4820693, 39.1337316], [140.4824329, 39.1325488], [140.4825576, 39.1318927], [140.4826126, 39.1314193], [140.4826433, 39.1307483], [140.4826061, 39.1301252], [140.4825738, 39.1296141], [140.4825569, 39.1294951], [140.4824949, 39.1290706], [140.4824778, 39.1289603], [140.48227, 39.127699], [140.482018, 39.126303], [140.481698, 39.124553], [140.4816645, 39.124333], [140.4812226, 39.1220169], [140.481194, 39.121832], [140.481079, 39.121273], [140.480955, 39.120164], [140.480901, 39.119457], [140.480862, 39.119002], [140.480813, 39.118551], [140.480699, 39.118048], [140.4805614, 39.1176032], [140.4802365, 39.1169067], [140.479837, 39.116116], [140.4796087, 39.1155876], [140.4795233, 39.1153154], [140.479439, 39.114931], [140.4794133, 39.1144767], [140.479421, 39.113049], [140.4794557, 39.1107239], [140.4794368, 39.1076821], [140.4794009, 39.1068133], [140.4793981, 39.1060395], [140.4794041, 39.1046895], [140.4794145, 39.1030912], [140.479379, 39.1023813], [140.4793605, 39.1021968], [140.4790016, 39.1004955], [140.4786035, 39.0985287], [140.4783451, 39.0973956], [140.4780704, 39.0959864], [140.4777811, 39.0945759], [140.4776536, 39.0939911], [140.4776051, 39.0935633], [140.4775851, 39.0929255], [140.4776285, 39.0923461], [140.4777111, 39.0918406], [140.4777927, 39.0914319], [140.4778212, 39.0911927], [140.4777949, 39.0910644], [140.4776825, 39.0907231], [140.4775318, 39.0904461], [140.4773088, 39.0901812], [140.4771173, 39.0900259], [140.4766779, 39.0897693], [140.476188, 39.0895697], [140.475484, 39.0892752], [140.4753049, 39.0892002], [140.4749626, 39.0889533], [140.4747174, 39.0886908], [140.4745498, 39.0884643], [140.4741212, 39.0878057], [140.4736357, 39.0870629], [140.4731844, 39.086394], [140.4730718, 39.0862272], [140.47277, 39.0858719], [140.4722972, 39.0853151], [140.4720613, 39.0850831], [140.4716477, 39.0847214], [140.4713569, 39.0844672], [140.4698273, 39.0832769], [140.4696559, 39.0831503], [140.4686397, 39.0823922], [140.4676885, 39.0817366], [140.4659733, 39.0805834], [140.4658004, 39.0804741], [140.4649491, 39.0798751], [140.464428, 39.079498], [140.4639999, 39.0791579], [140.4636625, 39.0788899], [140.4635202, 39.0787698], [140.4634508, 39.0787113], [140.4627426, 39.0781229], [140.4625496, 39.0779626], [140.4620211, 39.0774724], [140.4618325, 39.0772902], [140.4616216, 39.0770872], [140.4614138, 39.0768484], [140.4612827, 39.0766892], [140.4611645, 39.0764967], [140.4610376, 39.0762616], [140.4609718, 39.0760982], [140.4608991, 39.0758612], [140.4608796, 39.0757702], [140.4608452, 39.0756098], [140.4608185, 39.075368], [140.4607946, 39.0750596], [140.4608006, 39.0746622], [140.4608734, 39.073931], [140.4609979, 39.072872], [140.461026, 39.072599], [140.4610491, 39.0724187], [140.4611043, 39.0719874], [140.4611453, 39.0715513], [140.4611692, 39.0711734], [140.461185, 39.0707766], [140.4611928, 39.07029], [140.4611905, 39.069857], [140.4611827, 39.0688559], [140.4611818, 39.0687341], [140.4611806, 39.0685873], [140.4611782, 39.0682887], [140.4611741, 39.0677788], [140.4611538, 39.0666628], [140.4611468, 39.0656093], [140.4611363, 39.0653261], [140.4611299, 39.0651526], [140.4611044, 39.0648988], [140.4610726, 39.0647093], [140.4610283, 39.0644844], [140.4609631, 39.0642138], [140.4609026, 39.0640342], [140.4608336, 39.0638652], [140.4607295, 39.0636269], [140.4606094, 39.0633929], [140.4605187, 39.0632495], [140.4604321, 39.0631247], [140.4603498, 39.0630204], [140.4599357, 39.0625125], [140.4593271, 39.0618269], [140.4586375, 39.060987], [140.4584964, 39.060824], [140.4580295, 39.0602845], [140.457947, 39.0601871], [140.4567757, 39.0588024], [140.4556482, 39.0574728], [140.4555963, 39.0574156], [140.4550687, 39.0567434], [140.4545405, 39.0561169], [140.4537843, 39.0552369], [140.4533804, 39.0547817], [140.4533582, 39.0547567], [140.4532472, 39.0546327], [140.452998, 39.054317], [140.452821, 39.054152], [140.452575, 39.053912], [140.452408, 39.053753], [140.452192, 39.053565], [140.4518125, 39.0532972], [140.4513056, 39.0529691], [140.4510795, 39.052838], [140.4508534, 39.0527068], [140.450721, 39.052622], [140.45027, 39.052376], [140.4501184, 39.0523022], [140.4498461, 39.0521689], [140.4497161, 39.0521065], [140.4492608, 39.051882], [140.4490782, 39.05181], [140.4486781, 39.0516785], [140.4483443, 39.0515659], [140.4481073, 39.0515046], [140.4478136, 39.0514445], [140.4475941, 39.0514113], [140.4473641, 39.0513714], [140.4470313, 39.0513417], [140.446748, 39.051326], [140.44644, 39.0513167], [140.4461159, 39.0513222], [140.445791, 39.0513481], [140.4454355, 39.0513991], [140.4449521, 39.0514985], [140.4446516, 39.051568], [140.444368, 39.051653], [140.444177, 39.051708], [140.443981, 39.051775], [140.443766, 39.051853], [140.443609, 39.051916], [140.443398, 39.052], [140.443197, 39.0521], [140.4426927, 39.0523887], [140.4425756, 39.0524607], [140.442091, 39.052737], [140.4416353, 39.0529878], [140.4413267, 39.053141], [140.440963, 39.0532937], [140.4406456, 39.0534069], [140.440334, 39.0535127], [140.4400008, 39.0536097], [140.439667, 39.0536835], [140.4393028, 39.0537363], [140.4389539, 39.0537649], [140.4385684, 39.0537773], [140.4381859, 39.0537688], [140.437786, 39.0537407], [140.4373797, 39.0536928], [140.4369817, 39.053632], [140.4366432, 39.0535622], [140.4363166, 39.0534761], [140.4359719, 39.0533687], [140.4356068, 39.0532468], [140.4347514, 39.0529527], [140.4343924, 39.0528342], [140.4340475, 39.0527335], [140.433681, 39.0526402], [140.4333218, 39.052556], [140.432924, 39.052477], [140.4325108, 39.0524102], [140.4321027, 39.0523578], [140.4316717, 39.0523115], [140.4312037, 39.0522828], [140.4310949, 39.0522787], [140.4305601, 39.0522574], [140.4301615, 39.052236], [140.4296663, 39.0521859], [140.4294278, 39.0521486], [140.4292509, 39.0521162], [140.4290931, 39.0520831], [140.4286254, 39.0519578], [140.4283752, 39.0518792], [140.4279597, 39.0517229], [140.4276205, 39.0515605], [140.4273229, 39.0514016], [140.426878, 39.0511438], [140.4264922, 39.0508851], [140.4261347, 39.0506169], [140.4256152, 39.0501945], [140.4252972, 39.0499051], [140.424673, 39.049274], [140.423906, 39.048549], [140.423379, 39.048079], [140.423164, 39.047929], [140.422715, 39.04767], [140.422376, 39.047498], [140.4221461, 39.047403], [140.4218797, 39.0473166], [140.421566, 39.0472415], [140.421183, 39.047158], [140.4208252, 39.0471294], [140.4203785, 39.0471464], [140.4198518, 39.047195], [140.4192149, 39.0472884], [140.4188042, 39.0473338], [140.4183194, 39.0474196], [140.4178612, 39.0475116], [140.4175539, 39.0475852], [140.4172194, 39.0476789], [140.4171021, 39.0477206], [140.4167744, 39.0478418], [140.4167244, 39.0478603], [140.4162994, 39.0480263], [140.4162325, 39.0480558], [140.4155566, 39.0483536], [140.414681, 39.0487482], [140.4137754, 39.0491538], [140.4127137, 39.0495626], [140.4115024, 39.0499786], [140.4099768, 39.0504277], [140.4089941, 39.05067], [140.408576, 39.0507769], [140.4084311, 39.050814], [140.406545, 39.0512149], [140.4052497, 39.0514768], [140.404735, 39.0515605], [140.4044256, 39.0515933], [140.4040973, 39.0515817], [140.4039053, 39.0515514], [140.4035976, 39.0514999], [140.4033031, 39.0514142], [140.4032106, 39.0513678], [140.4030357, 39.0512801], [140.402969, 39.0512441], [140.4027716, 39.0511256], [140.4026333, 39.0510262], [140.4025217, 39.0509281], [140.4022444, 39.0506791], [140.4017429, 39.0501579], [140.4016023, 39.0500227], [140.4014133, 39.0498427], [140.4012242, 39.0496628], [140.3995995, 39.0480549], [140.3991006, 39.0475682], [140.3982076, 39.0466972], [140.3979063, 39.0464033], [140.3971018, 39.0456177], [140.3960912, 39.0445769], [140.3954818, 39.0439513], [140.394507, 39.0431563], [140.3941986, 39.042907], [140.3939839, 39.0426782], [140.393868, 39.0425143], [140.3937898, 39.0423575], [140.3937359, 39.0421985], [140.393704, 39.0420455], [140.3936188, 39.0414997], [140.3936019, 39.0413643], [140.393575, 39.041258], [140.3935206, 39.0411296], [140.3929567, 39.0398158], [140.39288, 39.0396284], [140.3928053, 39.039459], [140.3927094, 39.0392822], [140.3926133, 39.039129], [140.3924984, 39.0389708], [140.3923753, 39.0388248], [140.3922425, 39.0386834], [140.3920893, 39.038542], [140.3919212, 39.0384067], [140.3917305, 39.0382677], [140.3915237, 39.0381312], [140.3913093, 39.0379936], [140.3907374, 39.0376347], [140.3905386, 39.0375052], [140.3903642, 39.0373845], [140.3902469, 39.0373007], [140.3900672, 39.0371608], [140.3898951, 39.037018], [140.3897134, 39.0368579], [140.3895204, 39.0366752], [140.3888342, 39.0360389], [140.3884882, 39.0357526], [140.3881318, 39.0354769], [140.3876089, 39.0350981], [140.38735, 39.0348993], [140.3871284, 39.0347058], [140.3869132, 39.0344941], [140.386699, 39.0342752], [140.3858958, 39.0334551], [140.3851239, 39.0326765], [140.3845552, 39.032106], [140.3843865, 39.0319308], [140.3842465, 39.0317703], [140.384112, 39.0315967], [140.3839965, 39.0314164], [140.3839053, 39.0312463], [140.3838318, 39.0310804], [140.3837651, 39.0309069], [140.3835685, 39.030411], [140.3834991, 39.0302626], [140.3834217, 39.0301094], [140.3833324, 39.0299644], [140.3832275, 39.0298289], [140.3830661, 39.0296227], [140.38297, 39.0295128], [140.3825028, 39.0289657], [140.3823642, 39.0287973], [140.3822424, 39.0286248], [140.38213, 39.0284499], [140.3820318, 39.0282808], [140.3819336, 39.0281197], [140.3818192, 39.0279563], [140.3816903, 39.0278002], [140.3815102, 39.0275935], [140.3813383, 39.0273837], [140.3812203, 39.0272184], [140.3811098, 39.0270334], [140.3810188, 39.0268576], [140.380935, 39.026685], [140.3807293, 39.0262574], [140.3806338, 39.026064], [140.380529, 39.0258682], [140.380433, 39.0256985], [140.3803103, 39.0255244], [140.3801823, 39.0253619], [140.3800559, 39.0252151], [140.3798991, 39.0250364], [140.3797609, 39.024861], [140.3796502, 39.024683], [140.3795278, 39.0244419], [140.3794102, 39.0242309], [140.3793431, 39.0241327], [140.3792613, 39.0240229], [140.3791527, 39.0239], [140.3790313, 39.0237861], [140.3788963, 39.0236773], [140.3787417, 39.0235737], [140.3785695, 39.0234762], [140.3777854, 39.0231047], [140.3775792, 39.0229951], [140.3773692, 39.0228706], [140.3771869, 39.0227398], [140.3770067, 39.0225932], [140.3768408, 39.0224414], [140.3767026, 39.022295], [140.3765684, 39.0221274], [140.3764393, 39.0219517], [140.3763172, 39.0217676], [140.3760359, 39.0213394], [140.3755225, 39.0205982], [140.3744316, 39.0189949], [140.3737476, 39.0179964], [140.3731928, 39.017185], [140.3730495, 39.0169536], [140.3729175, 39.0167183], [140.3727522, 39.0164103], [140.3724423, 39.0157622], [140.3723042, 39.015484], [140.3722322, 39.0153025], [140.3721803, 39.0151439], [140.3721398, 39.0149619], [140.3721184, 39.0147291], [140.3720628, 39.0136255], [140.3719767, 39.0123587], [140.3719584, 39.0120116], [140.3719602, 39.0117127], [140.371984, 39.011045], [140.3720152, 39.0104416], [140.372026, 39.0103047], [140.3720353, 39.0101372], [140.3720319, 39.0098325], [140.3720092, 39.0094179], [140.3719681, 39.0088666], [140.3718907, 39.0081923], [140.3717814, 39.0075863], [140.3716629, 39.0070943], [140.3714989, 39.0066114], [140.371312, 39.006219], [140.371085, 39.005797], [140.370823, 39.005384], [140.370565, 39.004979], [140.3703627, 39.0046581], [140.370028, 39.00424], [140.369681, 39.003846], [140.369358, 39.003523], [140.369024, 39.003207], [140.368629, 39.002871], [140.368502, 39.002774], [140.368114, 39.002492], [140.366973, 39.001782], [140.366041, 39.001277], [140.365572, 39.001012], [140.365144, 39.000713], [140.364771, 39.000387], [140.3646046, 39.0002351], [140.3644929, 39.0001113], [140.364347, 38.999906], [140.3642141, 38.9996579], [140.3640989, 38.9993748], [140.3640082, 38.9990788], [140.36396, 38.9987683], [140.3639311, 38.9983417], [140.3639485, 38.9979398], [140.3639532, 38.9978325], [140.3639508, 38.9977042], [140.3639185, 38.997306], [140.3638271, 38.9969412], [140.3637161, 38.9966711], [140.3634727, 38.9961815], [140.3633586, 38.995962], [140.3632822, 38.9957593], [140.3632138, 38.9955213], [140.3631506, 38.9951959], [140.3631428, 38.9949006], [140.3631692, 38.9946258], [140.3632119, 38.9943464], [140.3632803, 38.9941428], [140.3635337, 38.993446], [140.3636046, 38.993152], [140.3636378, 38.992883], [140.3636428, 38.9926565], [140.3636357, 38.9924619], [140.3636167, 38.9922306], [140.3635624, 38.9919768], [140.363512, 38.991818], [140.3632729, 38.9911419], [140.363064, 38.9905583], [140.362855, 38.9899991], [140.3626751, 38.9893848], [140.3625423, 38.9888832], [140.3624888, 38.9886159], [140.3624578, 38.988419], [140.3624427, 38.9881654], [140.3624545, 38.98794], [140.362503, 38.9875613], [140.3626092, 38.9871028], [140.3627112, 38.986786], [140.3627983, 38.9865274], [140.3629218, 38.9861863], [140.3630113, 38.985916], [140.3630637, 38.985638], [140.363067, 38.9852407], [140.3630042, 38.9848472], [140.362831, 38.984393], [140.3625166, 38.9836219], [140.362273, 38.9830807], [140.3621819, 38.9828393], [140.3621126, 38.9826138], [140.362085, 38.9824725], [140.3620725, 38.9823256], [140.3620847, 38.9822043], [140.3621034, 38.9820645], [140.361997, 38.9820232], [140.3619307, 38.9819996], [140.3618706, 38.981946], [140.3618282, 38.9818898], [140.3618139, 38.9818222], [140.3618162, 38.9817447], [140.361843, 38.9816735], [140.3618791, 38.9815971], [140.3619782, 38.9814277], [140.3620304, 38.9813255], [140.3620744, 38.9812108], [140.362093, 38.9810807], [140.3620897, 38.9809679], [140.362065, 38.9808353], [140.3620304, 38.9807105], [140.3619586, 38.980567], [140.3618891, 38.980467], [140.3617839, 38.980345], [140.3608498, 38.979619], [140.360433, 38.9792034], [140.3602059, 38.9789233], [140.3599459, 38.978612], [140.3597373, 38.9783469], [140.3596712, 38.9782415], [140.3594129, 38.9779236], [140.3592263, 38.9776886], [140.3588547, 38.977243], [140.3585914, 38.9768496], [140.3580545, 38.9762301], [140.3578226, 38.9759486], [140.3576511, 38.9757458], [140.3575193, 38.9754955], [140.357464, 38.9751978], [140.3574776, 38.9751213], [140.3575356, 38.9749106], [140.3575926, 38.9747069], [140.3577084, 38.9744462], [140.3577537, 38.9742502], [140.3577419, 38.9740027], [140.357649, 38.9738335], [140.357508, 38.973743], [140.3573853, 38.9736967], [140.3572159, 38.9736654], [140.3567844, 38.9736691], [140.3561958, 38.9737097], [140.3559847, 38.9737241], [140.3557538, 38.9736833], [140.3555391, 38.9735947], [140.3553481, 38.9734217], [140.3552734, 38.9732493], [140.355247, 38.9727256], [140.3551853, 38.9725211], [140.3551222, 38.9724358], [140.3549956, 38.9723877], [140.3548328, 38.9723691], [140.3546844, 38.9723872], [140.3542718, 38.9724364], [140.3540895, 38.9724688], [140.3539268, 38.9724522], [140.3537161, 38.9723436], [140.3536034, 38.9722425], [140.3535093, 38.972087], [140.353507, 38.9718934], [140.3535603, 38.9713714], [140.3536416, 38.9710062], [140.3537684, 38.9703559], [140.3538356, 38.9698918], [140.3538532, 38.9696762], [140.3538569, 38.9695637], [140.3538249, 38.9694458], [140.3535125, 38.9686535], [140.353394, 38.9683168], [140.3531633, 38.9677787], [140.3529301, 38.9670897], [140.3528048, 38.966656], [140.3526997, 38.9662348], [140.3526576, 38.9659027], [140.3526911, 38.9657533], [140.3527453, 38.9655981], [140.3528324, 38.9654515], [140.3529082, 38.9653506], [140.352984, 38.9652497], [140.3530379, 38.9651759], [140.353264, 38.964913], [140.353918, 38.964138], [140.354859, 38.963003], [140.3551919, 38.9625987], [140.35608, 38.96152], [140.357343, 38.959965], [140.357909, 38.959278], [140.3581276, 38.9590702], [140.3582263, 38.9589579], [140.3582757, 38.958903], [140.3584, 38.958756], [140.358413, 38.958736], [140.3585294, 38.9585553], [140.3586012, 38.9583769], [140.3585891, 38.9581633], [140.3584303, 38.9577569], [140.358155, 38.9572239], [140.3579974, 38.9569783], [140.3579369, 38.9567547], [140.3579342, 38.9565036], [140.3579729, 38.9560931], [140.358044, 38.955458], [140.3581179, 38.95525], [140.358355, 38.954825], [140.3587922, 38.9540227], [140.3588722, 38.9537915], [140.3588811, 38.9536097], [140.3588602, 38.9534028], [140.3588048, 38.9531891], [140.3587216, 38.9529955], [140.358407, 38.952512], [140.3577635, 38.9515931], [140.3572737, 38.9509261], [140.3567699, 38.9501651], [140.356592, 38.9499829], [140.3564142, 38.9498511], [140.3561035, 38.9496638], [140.3558747, 38.9495026], [140.3556991, 38.9493207], [140.3554549, 38.948993], [140.3552401, 38.9485519], [140.3550001, 38.9480443], [140.354639, 38.9471454], [140.3541792, 38.9460733], [140.3539166, 38.9454669], [140.3535987, 38.9447302], [140.3534408, 38.9444013], [140.3532158, 38.9440613], [140.3529863, 38.9437663], [140.3528915, 38.9436157], [140.3528443, 38.9435012], [140.352846, 38.943435], [140.3528705, 38.9434071], [140.3529068, 38.9433923], [140.3528808, 38.9433012], [140.3528671, 38.9432089], [140.3528808, 38.943087], [140.352907, 38.943005], [140.3529457, 38.9429219], [140.3531006, 38.9426656], [140.3532619, 38.9422993], [140.3533726, 38.9420184], [140.3534563, 38.9417627], [140.3535027, 38.9415072], [140.3535118, 38.941325], [140.3534993, 38.9411302], [140.3534788, 38.9409491], [140.3534434, 38.9407999], [140.3534121, 38.9406775], [140.3533444, 38.9404935], [140.3532515, 38.9403085], [140.3531553, 38.9401541], [140.3530311, 38.9399821], [140.3528785, 38.9397953], [140.3526575, 38.93958], [140.3524867, 38.9394479], [140.3522862, 38.9393067], [140.3520607, 38.9391504], [140.351539, 38.9387907], [140.3510219, 38.9384331], [140.3506597, 38.9381848], [140.3504718, 38.9380412], [140.3503636, 38.9379365], [140.3502429, 38.9378043], [140.3501677, 38.9377018], [140.35008, 38.9375754], [140.3500219, 38.9374638], [140.3499706, 38.9373408], [140.3499182, 38.9372098], [140.3497838, 38.9368043], [140.3495219, 38.9360172], [140.3492371, 38.9351402], [140.3489751, 38.9343589], [140.3488852, 38.9341618], [140.3488077, 38.9340229], [140.3487223, 38.9338919], [140.34863, 38.9337666], [140.3485116, 38.9336265], [140.348359, 38.9334659], [140.3480879, 38.9332199], [140.3477462, 38.9329351], [140.3473817, 38.9326196], [140.3472256, 38.9324567], [140.3470901, 38.9323007], [140.3469785, 38.9321481], [140.3468976, 38.9320182], [140.3468407, 38.9319134], [140.3467883, 38.9318212], [140.3467085, 38.9316446], [140.3466003, 38.9314088], [140.3462757, 38.9307163], [140.345803, 38.9296901], [140.3449864, 38.9279201], [140.3449021, 38.9277584], [140.3448269, 38.9276285], [140.3447119, 38.9274725], [140.3446082, 38.9273597], [140.3444943, 38.9272583], [140.344385, 38.9271684], [140.3442392, 38.9270715], [140.3434783, 38.9266182], [140.3423633, 38.9259781], [140.3421241, 38.9258369], [140.3419407, 38.9257047], [140.3417903, 38.9255794], [140.3416377, 38.9254405], [140.3415079, 38.9253015], [140.3413905, 38.9251455], [140.3412778, 38.9249849], [140.3411924, 38.924814], [140.3411206, 38.9246455], [140.3409782, 38.9242707], [140.3409076, 38.9241249], [140.3407926, 38.9239404], [140.3407208, 38.9238447], [140.3406194, 38.9237331], [140.3405169, 38.9236397], [140.3403905, 38.9235304], [140.3402197, 38.9234142], [140.3400408, 38.9233117], [140.3398039, 38.923208], [140.3395249, 38.9231021], [140.3390203, 38.9229073], [140.3388358, 38.9228493], [140.3386057, 38.9227934], [140.3383654, 38.922757], [140.3381797, 38.9227365], [140.3379872, 38.9227319], [140.3377742, 38.9227422], [140.3375043, 38.9227729], [140.3368118, 38.9228732], [140.336068, 38.9229837], [140.335511, 38.9230645], [140.3353026, 38.9230907], [140.3351374, 38.923109], [140.3350224, 38.9231135], [140.33488, 38.9231044], [140.3347376, 38.9230862], [140.3345702, 38.9230452], [140.3344267, 38.9230019], [140.3342558, 38.922921], [140.3341169, 38.9228379], [140.3339927, 38.9227433], [140.3338891, 38.9226385], [140.3338059, 38.9225212], [140.3337353, 38.9223982], [140.3336852, 38.9222604], [140.3336442, 38.9220736], [140.3335448, 38.9214953], [140.3334084, 38.9206977], [140.3333731, 38.9205177], [140.3333503, 38.9203583], [140.3333424, 38.9202409], [140.3333401, 38.9201612], [140.3333492, 38.9200724], [140.3333754, 38.9199813], [140.3334141, 38.9198958], [140.3334711, 38.9198161], [140.3335451, 38.9197455], [140.3336305, 38.9196897], [140.3337308, 38.9196396], [140.3338709, 38.9195929], [140.3340634, 38.9195507], [140.334331, 38.9195052], [140.3344574, 38.9194744], [140.3345679, 38.9194368], [140.3346621, 38.9193923], [140.3347559, 38.9193366], [140.33481, 38.9192825], [140.3348396, 38.9192449], [140.3348732, 38.9191862], [140.3348908, 38.9191156], [140.3348908, 38.9190518], [140.3348772, 38.9189852], [140.3348481, 38.9189243], [140.3348066, 38.9188605], [140.3347661, 38.9188223], [140.3347251, 38.9187938], [140.3346619, 38.9187637], [140.3345776, 38.9187386], [140.3344939, 38.9187266], [140.3343931, 38.918721], [140.3342781, 38.9187301], [140.3342006, 38.9187403], [140.3341089, 38.9187659], [140.333913, 38.9188274], [140.3335992, 38.9189567], [140.333241, 38.9191225], [140.3330565, 38.9192147], [140.3328739, 38.9193226], [140.3323025, 38.9196794], [140.3321749, 38.9197523], [140.3320337, 38.9198138], [140.3318788, 38.9198548], [140.3315815, 38.9199072], [140.3314778, 38.9199391], [140.3313765, 38.9199881], [140.3312922, 38.9200496], [140.331119, 38.9202011], [140.3310268, 38.9202637], [140.33093, 38.9203161], [140.3308126, 38.9203628], [140.3306908, 38.9203924], [140.3305678, 38.9204061], [140.3304163, 38.9204129], [140.3302967, 38.9204038], [140.3301441, 38.9203902], [140.329955, 38.920348], [140.3298058, 38.9203082], [140.3296076, 38.9202284], [140.3294561, 38.9201555], [140.3293319, 38.9200747], [140.3291645, 38.9199471], [140.3290233, 38.9198013], [140.3289344, 38.919684], [140.3288843, 38.9196031], [140.3288114, 38.9194755], [140.3287385, 38.9193275], [140.3285745, 38.9189949], [140.32848, 38.9188297], [140.3283695, 38.9186589], [140.3282396, 38.9185074], [140.328087, 38.9183513], [140.3279367, 38.9182215], [140.3269993, 38.917447], [140.3262669, 38.9168376], [140.3260448, 38.9166428], [140.3259113, 38.9165008], [140.3258853, 38.9164731], [140.3257487, 38.9163], [140.3256177, 38.9160927], [140.3255698, 38.9160346], [140.3255288, 38.9160016], [140.3253306, 38.9159492], [140.3253909, 38.9157364], [140.3254149, 38.9156166], [140.3254343, 38.9155016], [140.3254377, 38.9154048], [140.3254286, 38.9152225], [140.3253853, 38.9150426], [140.3253192, 38.9148785], [140.3252589, 38.9147407], [140.3251848, 38.9146302], [140.3250687, 38.9144822], [140.3248226, 38.9142134], [140.3244935, 38.9138808], [140.3243238, 38.9136746], [140.3242053, 38.9135072], [140.324113, 38.9133477], [140.3240231, 38.91317], [140.3239547, 38.9130026], [140.3238875, 38.9128192], [140.3238329, 38.9126563], [140.3231438, 38.9101027], [140.3231039, 38.9098977], [140.3230788, 38.9097428], [140.3230572, 38.9095685], [140.3230538, 38.9094409], [140.3230561, 38.9092655], [140.3230663, 38.9091254], [140.3230834, 38.9089797], [140.3231141, 38.9088077], [140.3231551, 38.9086539], [140.3232292, 38.9084614], [140.3232816, 38.9083304], [140.3233647, 38.9081584], [140.3234729, 38.9079842], [140.3236787, 38.907688], [140.3238909, 38.9074454], [140.3240982, 38.9072427], [140.3243215, 38.9070627], [140.3245014, 38.9069306], [140.3249935, 38.9065798], [140.3256108, 38.9061629], [140.3259161, 38.9059533], [140.3262806, 38.9056549], [140.3264788, 38.9054613], [140.3266291, 38.9052973], [140.3268125, 38.9050717], [140.3269605, 38.9048667], [140.327095, 38.9046253], [140.3272453, 38.9042915], [140.3273091, 38.904115], [140.3273626, 38.9039157], [140.3274036, 38.9037129], [140.3274344, 38.9034373], [140.327464, 38.9028701], [140.3275528, 38.9008512], [140.3275597, 38.9006285], [140.3276052, 38.8995225], [140.3276622, 38.8980521], [140.3276508, 38.8978459], [140.3276269, 38.8976762], [140.3275799, 38.8974997], [140.3274944, 38.8972854], [140.3273338, 38.897043], [140.3271637, 38.8968528], [140.3269732, 38.8966821], [140.3267518, 38.8965316], [140.3263434, 38.8962823], [140.3259976, 38.8960678], [140.3257553, 38.8958573], [140.3256059, 38.8957025], [140.3254656, 38.8955483], [140.3253693, 38.8954087], [140.3252699, 38.8952449], [140.3250318, 38.8948247], [140.3247777, 38.8943522], [140.3245277, 38.893871], [140.3243134, 38.8935163], [140.3239891, 38.8930161], [140.3237037, 38.8925867], [140.3235708, 38.8923379], [140.3234982, 38.8921455], [140.3234424, 38.8919152], [140.3234121, 38.8917309], [140.3234199, 38.8915657], [140.3234467, 38.8913446], [140.3235135, 38.8911524], [140.3236205, 38.8908861], [140.3237285, 38.890782], [140.323888, 38.8906194], [140.3240583, 38.8904929], [140.3243431, 38.8903209], [140.3246786, 38.8901038], [140.3254734, 38.8896607], [140.3261891, 38.8892761], [140.3264471, 38.8891548], [140.3266517, 38.8890815], [140.3268734, 38.8890217], [140.3271883, 38.8889851], [140.3273775, 38.8889814], [140.3276493, 38.8889871], [140.3288843, 38.8890568], [140.3297447, 38.8891025], [140.330099, 38.8891028], [140.3303902, 38.8890867], [140.3305483, 38.8890563], [140.3307253, 38.8890166], [140.330933, 38.888954], [140.3310843, 38.8889021], [140.3311999, 38.8888311], [140.3313272, 38.8887373], [140.3316976, 38.8884365], [140.3321702, 38.8879508], [140.3302643, 38.8868174], [140.3299322, 38.8866263], [140.3297329, 38.8865313], [140.3294561, 38.8864241], [140.3291765, 38.8863271], [140.3288144, 38.8862248], [140.3281143, 38.8860368], [140.3277391, 38.8859469], [140.3273794, 38.8858656], [140.3271031, 38.8858135], [140.326802, 38.8857722], [140.3265242, 38.8857384], [140.326265, 38.8857222], [140.3259744, 38.8857113], [140.3255719, 38.8857166], [140.324965, 38.885764], [140.323076, 38.8859886], [140.3226101, 38.8859978], [140.3221341, 38.8859704], [140.321728, 38.8859178], [140.3212391, 38.8858159], [140.3203199, 38.8855923], [140.3195424, 38.8854113], [140.3179847, 38.8850589], [140.3169248, 38.8847995], [140.3164257, 38.8846639], [140.3160427, 38.8845601], [140.3158366, 38.8844676], [140.3156134, 38.8843693], [140.3151738, 38.8841083], [140.3150043, 38.8839655], [140.314832, 38.8837888], [140.3146195, 38.8835253], [140.3139692, 38.8826457], [140.3137325, 38.8823884], [140.3134832, 38.8821741], [140.3131679, 38.8819085], [140.3125084, 38.8815382], [140.3113228, 38.8808376], [140.3109039, 38.880585], [140.3105067, 38.8803482], [140.3100743, 38.8800587], [140.309657, 38.8797582], [140.3092936, 38.8794524], [140.3089264, 38.8790749], [140.3086893, 38.8787914], [140.3079469, 38.8778306], [140.3074792, 38.8772386], [140.3068424, 38.8763091], [140.3066439, 38.8759915], [140.3063073, 38.8753885], [140.3059783, 38.8747625], [140.3052181, 38.8732561], [140.3045314, 38.8718137], [140.3039994, 38.8706056], [140.3035438, 38.869462], [140.3030768, 38.8682205], [140.3023354, 38.8662626], [140.3020335, 38.865471], [140.3019105, 38.8651885], [140.3018171, 38.8650245], [140.3017146, 38.8648673], [140.3015722, 38.864709], [140.3013342, 38.8645051], [140.3011483, 38.8643854], [140.3009332, 38.8642693], [140.300711, 38.864177], [140.2999081, 38.8638433], [140.2985097, 38.8632761], [140.2983386, 38.8632066], [140.2977213, 38.8629629], [140.2975231, 38.8629048], [140.2972941, 38.8628558], [140.2971119, 38.8628274], [140.2969422, 38.8628103], [140.2968055, 38.8628063], [140.2966774, 38.8628103], [140.2965116, 38.8628228], [140.2962747, 38.8628479], [140.2958658, 38.8629094], [140.2951699, 38.863005], [140.294917, 38.8630415], [140.2946813, 38.8630449], [140.2943134, 38.8630654], [140.2939238, 38.863054], [140.2930423, 38.8629971], [140.2924636, 38.8629766], [140.2921789, 38.862972], [140.2918554, 38.862988], [140.2913793, 38.8630176], [140.2901583, 38.8631861], [140.2893792, 38.863316], [140.2887391, 38.8634754], [140.2881856, 38.8636395], [140.287509, 38.8638992], [140.2853403, 38.864832], [140.2850146, 38.8649596], [140.2846262, 38.8650917], [140.2839576, 38.8652568], [140.2833835, 38.865389], [140.2825247, 38.8655883], [140.2809791, 38.8659289], [140.2807331, 38.8659824], [140.2804973, 38.8660188], [140.2802262, 38.8660314], [140.279987, 38.8660234], [140.2797535, 38.8659869], [140.2794893, 38.8659106], [140.279274, 38.8658298], [140.2790884, 38.8657204], [140.2789164, 38.865594], [140.2787808, 38.8654755], [140.2786521, 38.8653491], [140.278528, 38.8651817], [140.2777831, 38.8641563], [140.2776369, 38.8639633], [140.277545, 38.8638627], [140.277496, 38.8638001], [140.2773833, 38.8636953], [140.2772411, 38.8635746], [140.2770894, 38.863472], [140.2768878, 38.8633604], [140.2766315, 38.8632454], [140.2764151, 38.8631577], [140.2761224, 38.8630517], [140.2758462, 38.8629712], [140.2754515, 38.8628775], [140.2748604, 38.8627602], [140.2747212, 38.8627363], [140.2744686, 38.8627021], [140.2742499, 38.8626851], [140.2739549, 38.8626813], [140.2735436, 38.8626927], [140.2734401, 38.8626956], [140.2722488, 38.8627056], [140.2716418, 38.8626786], [140.2712565, 38.8626744], [140.2708779, 38.8627049], [140.2706666, 38.8627294], [140.2704547, 38.8627465], [140.2701472, 38.862751], [140.2697399, 38.8627257], [140.2688296, 38.8626691], [140.2685139, 38.8626599], [140.2683589, 38.8626397], [140.2681756, 38.8625978], [140.2679341, 38.8625175], [140.2677656, 38.8624367], [140.2675833, 38.8623273], [140.2674011, 38.8621907], [140.2671311, 38.8620027], [140.2669603, 38.8619013], [140.2667644, 38.8617988], [140.2665639, 38.8616975], [140.2660935, 38.8614845], [140.2656598, 38.8612965], [140.265514, 38.8612404], [140.2653199, 38.8611731], [140.265207, 38.8611436], [140.2650778, 38.8611098], [140.2646364, 38.8610327], [140.2640262, 38.8609685], [140.2632984, 38.8608876], [140.2631953, 38.8608774], [140.262753, 38.8608297], [140.2622753, 38.8607781], [140.2617812, 38.8607248], [140.260542, 38.8606006], [140.2599771, 38.8605573], [140.2592201, 38.8605455], [140.2586661, 38.8605368], [140.2582463, 38.8605339], [140.2565562, 38.8605199], [140.2564333, 38.8605184], [140.2556903, 38.8605074], [140.2546212, 38.8604982], [140.2543709, 38.8604958], [140.2542957, 38.8604878], [140.2542058, 38.8604696], [140.2541316, 38.8604367], [140.2540907, 38.8604036], [140.2540399, 38.8603652], [140.2528876, 38.8592475], [140.2512699, 38.8601344], [140.2510196, 38.8602683], [140.2509405, 38.8603081], [140.2498889, 38.8608626], [140.2496566, 38.8609936], [140.2495074, 38.8610983], [140.2493718, 38.8612054], [140.2492557, 38.861317], [140.249162, 38.8614288], [140.2490959, 38.8615035], [140.2489572, 38.8617339], [140.2487944, 38.8620585], [140.248234, 38.8632089], [140.2477955, 38.8641133], [140.2475859, 38.8645233], [140.2474743, 38.8646714], [140.2473364, 38.8648263], [140.247143, 38.8649966], [140.2469446, 38.8651304], [140.2467806, 38.8652227], [140.2466508, 38.8652865], [140.2465357, 38.8653252], [140.2464116, 38.8653525], [140.2462624, 38.8653696], [140.245899, 38.8654026], [140.2457589, 38.8654391], [140.2456302, 38.8654824], [140.245522, 38.865537], [140.2454195, 38.8655997], [140.2451723, 38.8657557], [140.2446416, 38.8661145], [140.2444878, 38.8662079], [140.2443807, 38.866258], [140.2442623, 38.8663036], [140.244137, 38.8663332], [140.2440436, 38.8663503], [140.2439377, 38.8663537], [140.2438215, 38.866348], [140.2437377, 38.8663322], [140.2428214, 38.8660097], [140.2426973, 38.865979], [140.2425338, 38.8659488], [140.2424137, 38.8659334], [140.2421358, 38.8659129], [140.2419718, 38.8658952], [140.2418003, 38.8658696], [140.2415127, 38.8658115], [140.2411374, 38.8657364], [140.2401938, 38.8655872], [140.2398543, 38.865545], [140.2396869, 38.8655256], [140.2395229, 38.8655177], [140.2393566, 38.8655245], [140.2392233, 38.8655416], [140.2390365, 38.8655655], [140.2384376, 38.8656938], [140.2381949, 38.8657438], [140.2380234, 38.8657808], [140.2378423, 38.8658121], [140.2376982, 38.8658292], [140.2376008, 38.8658366], [140.2374858, 38.865836], [140.237385, 38.8658298], [140.237229, 38.8658127], [140.2371099, 38.8657779], [140.2369414, 38.8657107], [140.2368229, 38.8656498], [140.2367198, 38.865578], [140.2366173, 38.8654841], [140.2365376, 38.8653912], [140.2364715, 38.8652944], [140.2364237, 38.8651896], [140.2363453, 38.8649839], [140.2357642, 38.8633046], [140.235484, 38.8624708], [140.2353094, 38.8619886], [140.2352334, 38.861833], [140.2351594, 38.8617271], [140.2350512, 38.8615984], [140.2348803, 38.8614435], [140.2347528, 38.8613523], [140.2346093, 38.8612692], [140.2343364, 38.8611432], [140.2340411, 38.8610615], [140.2336924, 38.8610176], [140.2333786, 38.8610156], [140.2330408, 38.8610534], [140.2326504, 38.8611703], [140.232295, 38.8613623], [140.2320162, 38.8615818], [140.231788, 38.8618572], [140.2310614, 38.8629435], [140.2308037, 38.8632524], [140.2304121, 38.8636011], [140.2299214, 38.8639585], [140.2295119, 38.864278], [140.2293311, 38.8644687], [140.229232, 38.8645939], [140.2291762, 38.8646942], [140.2291329, 38.8647967], [140.2290862, 38.8649243], [140.2290692, 38.8650313], [140.2290692, 38.8651486], [140.2290805, 38.8652557], [140.229101, 38.8653594], [140.2291432, 38.8654858], [140.2291979, 38.8656077], [140.2292673, 38.8657067], [140.2293448, 38.8658104], [140.2295099, 38.8659755], [140.2299405, 38.8664061], [140.2300362, 38.8665337], [140.230125, 38.8666612], [140.2301808, 38.866782], [140.2302264, 38.8668993], [140.2302628, 38.8670348], [140.2302754, 38.8671624], [140.2302719, 38.8672774], [140.2302526, 38.8674306], [140.2302309, 38.8675348], [140.2301865, 38.8676487], [140.2301387, 38.8677467], [140.2300931, 38.8678276], [140.2300271, 38.8679198], [140.2299325, 38.8680314], [140.2298585, 38.8681066], [140.2296033, 38.8683663], [140.229076, 38.8688766], [140.2287532, 38.8691955], [140.2286101, 38.8693447], [140.2284928, 38.8694894], [140.2283937, 38.869634], [140.2282946, 38.8697855], [140.2282035, 38.8699598], [140.2280974, 38.8701896], [140.2280338, 38.8703476], [140.2279763, 38.8705179], [140.2279347, 38.8706933], [140.22788, 38.8709074], [140.2278481, 38.8710919], [140.2278037, 38.8714222], [140.2277821, 38.8716854], [140.2277775, 38.8718141], [140.2277764, 38.8719712], [140.2277923, 38.8722549], [140.2277946, 38.8722549], [140.2278071, 38.8724587], [140.2278493, 38.8727708], [140.2278641, 38.8729257], [140.2278607, 38.8730225], [140.2278561, 38.873133], [140.2278402, 38.8732481], [140.2278156, 38.8733443], [140.2277821, 38.873436], [140.2277274, 38.8735522], [140.227667, 38.8736558], [140.2275634, 38.8738005], [140.2272843, 38.8741479], [140.2271693, 38.8743062], [140.2270622, 38.8744896], [140.2269996, 38.8746285], [140.2269369, 38.8747948], [140.2268686, 38.8749862], [140.2267889, 38.8751525], [140.2267, 38.8753119], [140.2265975, 38.8754418], [140.2264836, 38.8755602], [140.2260941, 38.8758997], [140.2259756, 38.8760181], [140.2258572, 38.8761594], [140.2257797, 38.8762846], [140.2257182, 38.8764168], [140.2256476, 38.8765967], [140.2253048, 38.8784601], [140.2252706, 38.878598], [140.2252273, 38.8787301], [140.225159, 38.8789055], [140.2247478, 38.8797996], [140.2245794, 38.8801499], [140.2244505, 38.8804181], [140.224315, 38.8807051], [140.2242409, 38.8808349], [140.2241692, 38.8809432], [140.2240792, 38.8810719], [140.2240143, 38.8811505], [140.223717, 38.8814341], [140.223594, 38.8815297], [140.2234664, 38.881622], [140.2233377, 38.8817006], [140.2230917, 38.8818293], [140.2229504, 38.8818908], [140.2226839, 38.881991], [140.2224254, 38.8820753], [140.2222101, 38.882138], [140.2211531, 38.8824022], [140.2203547, 38.8826015], [140.2194788, 38.8827781], [140.2190391, 38.8828533], [140.2184195, 38.8829125], [140.2179753, 38.8829603], [140.217727, 38.8830025], [140.217547, 38.8830526], [140.2173682, 38.8831232], [140.2172304, 38.8831893], [140.2170686, 38.8832895], [140.2169627, 38.8833726], [140.2168465, 38.8834774], [140.2167019, 38.883654], [140.2164718, 38.8839854], [140.2162349, 38.8843135], [140.2160925, 38.8845128], [140.2156631, 38.8851518], [140.2155697, 38.8853272], [140.2155321, 38.8854035], [140.2154968, 38.8854878], [140.2154649, 38.8855869], [140.2154467, 38.8856711], [140.2154239, 38.8858044], [140.215416, 38.8859024], [140.2154171, 38.8864058], [140.2154073, 38.8865354], [140.2153789, 38.886882], [140.2152493, 38.8872978], [140.2150776, 38.8876485], [140.2149957, 38.8878159], [140.214884, 38.8880277], [140.2148057, 38.888133], [140.2147314, 38.8882328], [140.2145013, 38.8884514], [140.2138544, 38.8889708], [140.212937, 38.889742], [140.2128019, 38.8899014], [140.2127199, 38.8900267], [140.2126413, 38.8901816], [140.2125855, 38.8903217], [140.2125559, 38.8904333], [140.2125377, 38.8905916], [140.2125343, 38.8907363], [140.212581, 38.8911486], [140.2126425, 38.8916008], [140.2127347, 38.8922318], [140.2127655, 38.8924004], [140.2128794, 38.8928412], [140.2129705, 38.8931088], [140.2132086, 38.8938196], [140.2135184, 38.8947581], [140.2135719, 38.8949403], [140.2136061, 38.8951533], [140.2136175, 38.8953128], [140.2136186, 38.8955497], [140.2136027, 38.895724], [140.2135582, 38.8959233], [140.2134876, 38.8961556], [140.2134204, 38.8963231], [140.2133122, 38.8965475], [140.2123636, 38.8984059], [140.2118743, 38.8993867], [140.2117324, 38.8996706], [140.2116402, 38.8998346], [140.2115365, 38.8999895], [140.2114101, 38.9001444], [140.2112814, 38.9002857], [140.2111333, 38.9004246], [140.2109739, 38.900559], [140.2108212, 38.9006604], [140.210631, 38.9007686], [140.2104169, 38.9008677], [140.2101686, 38.9009588], [140.2099533, 38.9010226], [140.2097312, 38.9010761], [140.2092198, 38.9011559], [140.2088257, 38.9012219], [140.2074874, 38.9014304], [140.2072129, 38.9014941], [140.2070284, 38.9015579], [140.2068621, 38.9016228], [140.206698, 38.9017208], [140.2065101, 38.9018689], [140.2058062, 38.9026776], [140.2056035, 38.9029224], [140.2052322, 38.9033826], [140.2051638, 38.9034783], [140.2051023, 38.9035865], [140.2050454, 38.9036981], [140.204993, 38.9038223], [140.204936, 38.9040068], [140.204813, 38.9045], [140.2047674, 38.9046332], [140.204723, 38.9047426], [140.204674, 38.9048382], [140.2045804, 38.9049715], [140.2040647, 38.9056139], [140.2039474, 38.9057791], [140.2038585, 38.9059271], [140.2038016, 38.9060479], [140.2037378, 38.9062187], [140.2037025, 38.906344], [140.2036751, 38.9064909], [140.2036558, 38.9066196], [140.2036512, 38.9067421], [140.2036575, 38.9068338], [140.2036729, 38.9069807], [140.2037013, 38.9071208], [140.2037275, 38.9072336], [140.2037697, 38.9073645], [140.2040887, 38.9081837], [140.204223, 38.9085306], [140.20437, 38.9088922], [140.2049474, 38.9103829], [140.205018, 38.9105686], [140.2052094, 38.9110595], [140.2054497, 38.9116768], [140.2054691, 38.9117497], [140.2054827, 38.9118192], [140.2054827, 38.9119012], [140.2054793, 38.912006], [140.2054709, 38.9120833], [140.2054324, 38.9121974], [140.2054051, 38.9122601], [140.2053258, 38.9123722], [140.2052378, 38.9124787], [140.2051524, 38.9125641], [140.2046508, 38.9129862], [140.204526, 38.9130766], [140.204362, 38.913178], [140.2041706, 38.9132805], [140.2039644, 38.9133762], [140.2034268, 38.9136142], [140.2016638, 38.9144173], [140.201519, 38.9145118], [140.2014097, 38.9146075], [140.2012715, 38.9147451], [140.2011699, 38.9149022], [140.2010825, 38.9150662], [140.2010125, 38.9152415], [140.2009952, 38.9154275], [140.2010029, 38.9156112], [140.2010406, 38.9157715], [140.2010976, 38.9159481], [140.2012092, 38.9161952], [140.2015082, 38.9168644], [140.2020475, 38.9180655], [140.2020965, 38.9182021], [140.2021352, 38.9183331], [140.2021637, 38.9184459], [140.2021785, 38.9185678], [140.2021909, 38.9187088], [140.202191, 38.9190723], [140.202183, 38.9192455], [140.2021694, 38.9194015], [140.2021443, 38.919512], [140.202084, 38.9197626], [140.2020088, 38.9199707], [140.2019404, 38.9201122], [140.2018869, 38.9202034], [140.2017274, 38.9204545], [140.2016659, 38.9205348], [140.2014484, 38.9207934], [140.201265, 38.9210348], [140.2011955, 38.9211282], [140.2011431, 38.9212228], [140.2010737, 38.9213765], [140.2010247, 38.9215337], [140.2009951, 38.9216693], [140.2009746, 38.9217968], [140.20097, 38.9219426], [140.2009951, 38.9228607], [140.2010133, 38.9238299], [140.2010275, 38.9246307], [140.2010146, 38.9249439], [140.200958, 38.9252591], [140.200873, 38.9255686], [140.2007701, 38.9257606], [140.2006055, 38.9259707], [140.2004537, 38.9261522], [140.2002997, 38.9263039], [140.2002797, 38.9263214], [140.2000467, 38.9265252], [140.1997831, 38.9267326], [140.1994677, 38.9269575], [140.198995, 38.9273096], [140.1986556, 38.9275397], [140.1983099, 38.9277568], [140.1980451, 38.9279167], [140.1978491, 38.9280602], [140.1977728, 38.9281262], [140.1977056, 38.928198], [140.1976327, 38.9282868], [140.1975314, 38.9284315], [140.1972853, 38.9288381], [140.1971976, 38.9289577], [140.1971122, 38.9290591], [140.1970245, 38.9291308], [140.1969118, 38.9292106], [140.1968343, 38.9292516], [140.1967363, 38.929304], [140.1966327, 38.9293438], [140.195963, 38.9296001], [140.19584, 38.9296297], [140.1957169, 38.929648], [140.1955506, 38.9296639], [140.1953866, 38.9296673], [140.1949732, 38.9296548], [140.194808, 38.9296639], [140.1946964, 38.9296912], [140.1945984, 38.9297254], [140.1944971, 38.9297744], [140.1944128, 38.9298382], [140.1943274, 38.9299133], [140.1940984, 38.9301468], [140.1939914, 38.9302357], [140.1938797, 38.9302972], [140.1937863, 38.9303382], [140.1936804, 38.9303689], [140.1935608, 38.9303929], [140.1934412, 38.930402], [140.1932316, 38.9304043], [140.1922616, 38.9303265], [140.1919345, 38.9303031], [140.1916861, 38.9302536], [140.1915159, 38.9301831], [140.191341, 38.9300664], [140.1911501, 38.9298814], [140.1909816, 38.9297503], [140.1907996, 38.9296968], [140.1906577, 38.9296858], [140.1903626, 38.9297323], [140.1901852, 38.9297559], [140.1900135, 38.9297268], [140.1898084, 38.9296773], [140.1896594, 38.9296618], [140.1894827, 38.9296839], [140.1892959, 38.9297464], [140.1891301, 38.9298661], [140.1889638, 38.9299828], [140.1889308, 38.9300063], [140.1884786, 38.9303279], [140.1884, 38.9303974], [140.1881198, 38.9306799], [140.1880162, 38.9307744], [140.1879273, 38.9308393], [140.1878373, 38.9308895], [140.1877212, 38.930951], [140.1874706, 38.9310785], [140.187318, 38.9311628], [140.1872314, 38.9312209], [140.1871482, 38.9312938], [140.1870788, 38.931377], [140.1870212, 38.9314624], [140.1869819, 38.9315358], [140.1869461, 38.9316304], [140.1869187, 38.931746], [140.1869045, 38.9318405], [140.1869068, 38.9319322], [140.186925, 38.9320262], [140.1869757, 38.9321543], [140.1871995, 38.9324909], [140.1872416, 38.9325934], [140.1872735, 38.9327153], [140.1872883, 38.9328155], [140.1872849, 38.9328975], [140.1872621, 38.9329784], [140.1872177, 38.9330593], [140.1871744, 38.9331299], [140.1871198, 38.933188], [140.1870503, 38.9332609], [140.186974, 38.933319], [140.1868829, 38.9333679], [140.1867701, 38.9334124], [140.1864751, 38.9334864], [140.1862963, 38.9335388], [140.186081, 38.9336219], [140.1859466, 38.9336982], [140.1858042, 38.9338053], [140.1856243, 38.9339522], [140.1854773, 38.9340912], [140.1854147, 38.9341436], [140.1853293, 38.9341971], [140.184935, 38.9343989], [140.1843241, 38.9347324], [140.1841338, 38.9348937], [140.1839416, 38.9350656], [140.1834992, 38.9355282], [140.1833916, 38.9356483], [140.1824522, 38.9366558], [140.1812988, 38.9378873], [140.1811654, 38.93806], [140.1810567, 38.9382395], [140.1809857, 38.9383844], [140.1808186, 38.938792], [140.1806907, 38.9391039], [140.1805984, 38.9394169], [140.180592, 38.9395014], [140.1806067, 38.9396306], [140.1806679, 38.9397739], [140.1808225, 38.9400456], [140.1808849, 38.9401593], [140.1810074, 38.9403823], [140.181059, 38.9405511], [140.1810743, 38.9406957], [140.181069, 38.9408437], [140.1809327, 38.9416166], [140.1809122, 38.9417191], [140.1808826, 38.9418125], [140.1808496, 38.9418854], [140.1807824, 38.9420118], [140.1807334, 38.9420915], [140.1806594, 38.9421918], [140.1805318, 38.9423387], [140.1803974, 38.9424834], [140.180247, 38.9426383], [140.1796855, 38.9432078], [140.1790796, 38.9438251], [140.1783568, 38.944557], [140.1781387, 38.9447864], [140.1779964, 38.9449242], [140.177854, 38.9450336], [140.1776974, 38.9451266], [140.1774859, 38.9452229], [140.1773278, 38.9452807], [140.1763528, 38.9455233], [140.1761489, 38.9456054], [140.1760225, 38.9456737], [140.1758902, 38.9457667], [140.1757722, 38.9458892], [140.1757072, 38.9459757], [140.1756535, 38.9460896], [140.1756313, 38.9462341], [140.1756181, 38.9463241], [140.1756113, 38.9464323], [140.1755976, 38.9469346], [140.1755851, 38.9472683], [140.1755714, 38.947602], [140.1755316, 38.9489529], [140.1755361, 38.9491465], [140.1755492, 38.9492513], [140.1755703, 38.9493481], [140.1755942, 38.9494518], [140.175748, 38.9499222], [140.1757685, 38.9500338], [140.1757833, 38.9501602], [140.1757947, 38.9503049], [140.1758106, 38.9508197], [140.1758095, 38.9509905], [140.1757992, 38.9511147], [140.1757708, 38.9512332], [140.1756318, 38.9516352], [140.1754211, 38.9521546], [140.1751295, 38.9529246], [140.1750908, 38.9530294], [140.1750498, 38.9531079], [140.1750065, 38.953166], [140.1749347, 38.9532435], [140.1748596, 38.9533061], [140.1747719, 38.9533642], [140.1743641, 38.9536319], [140.1739449, 38.9539087], [140.1738459, 38.9539633], [140.1737513, 38.9540089], [140.1736511, 38.9540442], [140.1735919, 38.9540613], [140.173503, 38.9540807], [140.1734236, 38.9540958], [140.1730295, 38.9541221], [140.1718253, 38.9541581], [140.171438, 38.9541627], [140.1707008, 38.9541282], [140.1701544, 38.9540932], [140.169668, 38.9540419], [140.1695188, 38.9540089], [140.1693935, 38.9539645], [140.1691143, 38.9538334], [140.1689948, 38.9537959], [140.168914, 38.9537743], [140.1688183, 38.9537617], [140.168668, 38.9537583], [140.1685552, 38.9537754], [140.1684231, 38.9538084], [140.1682807, 38.9538825], [140.1681292, 38.9539702], [140.1678513, 38.9541524], [140.1676212, 38.9543586], [140.1673023, 38.9546205], [140.1671702, 38.9547515], [140.1670802, 38.9548563], [140.1670187, 38.9549577], [140.166972, 38.9550682], [140.1669401, 38.9551821], [140.1668961, 38.9555125], [140.1668545, 38.9558792], [140.1668444, 38.9560033], [140.1668444, 38.9560921], [140.1668638, 38.9561912], [140.1669869, 38.9566961], [140.1670005, 38.956796], [140.167005, 38.956894], [140.1669982, 38.9569885], [140.1669811, 38.9570819], [140.1668888, 38.9572983], [140.1667544, 38.9576639], [140.1667305, 38.9577243], [140.16671, 38.9578189], [140.1666975, 38.9579715], [140.1666998, 38.9580615], [140.1667396, 38.9583132], [140.166874, 38.9589579], [140.1668729, 38.9590273], [140.1668604, 38.9591025], [140.1668273, 38.9591857], [140.1667909, 38.959246], [140.1667123, 38.9593223], [140.1662396, 38.9597119], [140.1661519, 38.9597825], [140.1660904, 38.9598258], [140.1659366, 38.9599294], [140.1658239, 38.9599921], [140.1656861, 38.9600456], [140.1654218, 38.9601515], [140.1651735, 38.9602438], [140.1650961, 38.9602871], [140.1650357, 38.960344], [140.1649992, 38.960401], [140.1649662, 38.9604648], [140.1648785, 38.9607563], [140.1648227, 38.9608839], [140.1647395, 38.961032], [140.1646701, 38.9611459], [140.1646063, 38.9612393], [140.1645391, 38.9613315], [140.1644388, 38.9614352], [140.1642065, 38.9616299], [140.1641382, 38.9617074], [140.1640687, 38.9618019], [140.164022, 38.9618919], [140.1639867, 38.9619785], [140.1639627, 38.9620514], [140.1639365, 38.9621858], [140.1639274, 38.9622359], [140.1639081, 38.9622883], [140.163883, 38.962327], [140.1638477, 38.9623612], [140.1637794, 38.9623954], [140.163137, 38.9626197], [140.162965, 38.9626699], [140.1628591, 38.9626926], [140.1627406, 38.9627097], [140.1623533, 38.9627803], [140.1622098, 38.962835], [140.1620344, 38.9629261], [140.1616312, 38.9631722], [140.1614991, 38.9632257], [140.1613761, 38.9632371], [140.1612713, 38.9632211], [140.1610412, 38.963138], [140.1609182, 38.963105], [140.1607747, 38.9630833], [140.1605013, 38.9630788], [140.160204, 38.9630856], [140.1600298, 38.9630776], [140.1599136, 38.9630548], [140.1597963, 38.9630173], [140.159671, 38.9629444], [140.1592348, 38.9626619], [140.1590605, 38.9626049], [140.1589323, 38.9625717], [140.158794, 38.9625594], [140.158434, 38.9625491], [140.1580126, 38.962532], [140.1579249, 38.9625389], [140.157844, 38.9625662], [140.1577347, 38.9626129], [140.1576538, 38.9626676], [140.1575786, 38.9627325], [140.1565194, 38.963908], [140.1564431, 38.9639968], [140.1564066, 38.9640629], [140.156385, 38.9641266], [140.1563781, 38.9641973], [140.1563907, 38.9643658], [140.156533, 38.9650253], [140.1565319, 38.965146], [140.1565034, 38.9652303], [140.1564522, 38.9653158], [140.1563656, 38.9653761], [140.1562779, 38.9653921], [140.1562005, 38.9653921], [140.1560934, 38.965367], [140.1557995, 38.9652827], [140.1557301, 38.9652759], [140.1556469, 38.9652907], [140.1555467, 38.9653214], [140.1554897, 38.9653727], [140.1554499, 38.9654319], [140.1554385, 38.9655196], [140.1554453, 38.9655914], [140.1556162, 38.9662418], [140.1556207, 38.9663169], [140.1556059, 38.966383], [140.1555683, 38.9664525], [140.1555205, 38.9664935], [140.1554658, 38.9665242], [140.1553975, 38.966547], [140.1553086, 38.9665595], [140.1552266, 38.9665573], [140.1551571, 38.9665413], [140.1550899, 38.966522], [140.1542778, 38.9660686], [140.1541856, 38.966006], [140.1541184, 38.9659365], [140.154066, 38.9658568], [140.1540455, 38.9657964], [140.1540341, 38.9657326], [140.1540352, 38.9656575], [140.1540477, 38.9655834], [140.1542368, 38.9651085], [140.1542505, 38.9650264], [140.1542573, 38.9649353], [140.1542437, 38.9648362], [140.1542175, 38.9647519], [140.1541787, 38.9646654], [140.1541024, 38.9645606], [140.1540421, 38.9645002], [140.1539566, 38.9644558], [140.1538575, 38.9644159], [140.1537334, 38.9643954], [140.1530352, 38.9643977], [140.1529087, 38.9643863], [140.1527926, 38.9643533], [140.1527106, 38.9643112], [140.1526365, 38.9642553], [140.1525921, 38.964203], [140.1525591, 38.964138], [140.1525386, 38.9640731], [140.1525329, 38.9640093], [140.1525625, 38.9637895], [140.1525568, 38.96372], [140.1525374, 38.9636517], [140.152498, 38.963607], [140.1524463, 38.9635731], [140.1523723, 38.9635583], [140.1522982, 38.9635719], [140.152214, 38.9636073], [140.1520932, 38.9637098], [140.1513005, 38.9644353], [140.1512766, 38.9644638], [140.1511376, 38.9646597], [140.1510579, 38.9647406], [140.1509713, 38.9647986], [140.1508711, 38.9648499], [140.1506547, 38.9649376], [140.1502606, 38.9650868], [140.1493414, 38.9653978], [140.1492617, 38.9654376], [140.1491922, 38.9654934], [140.1491409, 38.9655538], [140.1490988, 38.9656267], [140.1487844, 38.9663716], [140.148732, 38.9664491], [140.1486762, 38.9665106], [140.148617, 38.9665459], [140.1485316, 38.9665687], [140.1484484, 38.9665778], [140.1483664, 38.9665698], [140.148289, 38.9665459], [140.1482263, 38.9665049], [140.1481785, 38.9664513], [140.1481409, 38.9663853], [140.1481215, 38.9662782], [140.1480714, 38.9653784], [140.1480577, 38.9652816], [140.1480304, 38.9652224], [140.1479837, 38.9651814], [140.1479006, 38.9651415], [140.147773, 38.9651073], [140.1473413, 38.965023], [140.147044, 38.9649581], [140.146372, 38.9648226], [140.1462262, 38.9647998], [140.1461271, 38.9647952], [140.1459973, 38.9647918], [140.1458674, 38.9647998], [140.1455793, 38.9648408], [140.1454506, 38.964851], [140.137817, 38.9653511], [140.1374599, 38.9653761], [140.1371211, 38.9653978], [140.1370003, 38.9654205], [140.1368807, 38.9654604], [140.136686, 38.9655367], [140.1364616, 38.965654], [140.1362805, 38.96576], [140.1360413, 38.9659274], [140.1359297, 38.9660276], [140.1357918, 38.9661825], [140.1357133, 38.9662839], [140.1355845, 38.9665106], [140.1354422, 38.966768], [140.1353681, 38.9668591], [140.1352793, 38.9669559], [140.135154, 38.9670527], [140.1349262, 38.9671837], [140.1347793, 38.9672953], [140.1346859, 38.9673876], [140.1345253, 38.9675812], [140.1342417, 38.9679628], [140.1341631, 38.9680334], [140.1340697, 38.9680915], [140.1339831, 38.9681268], [140.1338453, 38.9681519], [140.1336653, 38.9681769], [140.1335104, 38.9681746], [140.133351, 38.9681746], [140.1331585, 38.9681667], [140.1330662, 38.9681541], [140.1330059, 38.9681416], [140.1329204, 38.9680961], [140.1328669, 38.9680482], [140.132745, 38.9678956], [140.1326926, 38.9678455], [140.1326231, 38.9678136], [140.1325514, 38.9677976], [140.132458, 38.967813], [140.1323794, 38.9678421], [140.1321835, 38.967948], [140.1320696, 38.9679799], [140.1319671, 38.9680004], [140.131819, 38.9679924], [140.1316299, 38.9679617], [140.1310479, 38.9677954], [140.1309522, 38.9677862], [140.1308679, 38.9677931], [140.1307996, 38.9678102], [140.1305149, 38.9679503], [140.1303793, 38.9680095], [140.1302574, 38.9680368], [140.1301686, 38.9680482], [140.1300228, 38.9680448], [140.1298554, 38.9680289], [140.1294886, 38.9679878], [140.129377, 38.9679844], [140.1292836, 38.9680118], [140.1290649, 38.9681405], [140.1286537, 38.9683945], [140.1281833, 38.9686633], [140.1279407, 38.9687965], [140.1277619, 38.9689139], [140.1276696, 38.9690232], [140.1275945, 38.9691394], [140.1274714, 38.9693763], [140.1273906, 38.9694777], [140.1273063, 38.9695733], [140.1271742, 38.9696679], [140.1270625, 38.969726], [140.1269373, 38.9697909], [140.1268234, 38.9698251], [140.1266274, 38.9698661], [140.12646, 38.9698866], [140.1262949, 38.9698831], [140.1261081, 38.9698569], [140.1255055, 38.9697465], [140.1253609, 38.9697089], [140.1251764, 38.96962], [140.1248745, 38.9694594], [140.1248164, 38.9694469], [140.1247401, 38.9694469], [140.124649, 38.9694526], [140.1244633, 38.9694993], [140.1241752, 38.9696007], [140.1239667, 38.9696394], [140.1237708, 38.9696451], [140.1234724, 38.9696622], [140.1234007, 38.9696827], [140.123354, 38.9697089], [140.1233221, 38.9697396], [140.1233038, 38.9697829], [140.1232982, 38.9698273], [140.1233038, 38.9698706], [140.1234348, 38.9702613], [140.123436, 38.9703308], [140.1234155, 38.97039], [140.1233779, 38.9704378], [140.1233289, 38.9704777], [140.1232196, 38.9705449], [140.1230909, 38.9706076], [140.1229394, 38.9706588], [140.1228084, 38.970693], [140.122625, 38.970726], [140.1224131, 38.9707351], [140.1221717, 38.9707317], [140.1212992, 38.970726], [140.1209495, 38.9707101], [140.1197843, 38.9705665], [140.1195383, 38.9705483], [140.119421, 38.9705495], [140.1193242, 38.9705654], [140.1192091, 38.9705973], [140.1190212, 38.9706508], [140.1189403, 38.9706691], [140.1188469, 38.9706816], [140.1187068, 38.9706896], [140.1185986, 38.9706884], [140.1184904, 38.9706759], [140.1183321, 38.9706474], [140.1182091, 38.9706189], [140.118028, 38.9705688], [140.117774, 38.9704777], [140.1176692, 38.9704276], [140.1176225, 38.9703946], [140.1175724, 38.9703456], [140.1175394, 38.9703023], [140.1174915, 38.970218], [140.1174095, 38.9700324], [140.1173617, 38.9699572], [140.1173218, 38.9699002], [140.1172637, 38.9698478], [140.1171908, 38.9698046], [140.1171168, 38.9697704], [140.117004, 38.9697374], [140.1168708, 38.9697271], [140.1166225, 38.9697351], [140.1161771, 38.969767], [140.1157215, 38.9697954], [140.1156076, 38.9698114], [140.1155062, 38.9698342], [140.1153923, 38.9698729], [140.1148627, 38.9700859], [140.1142579, 38.9703376], [140.1137624, 38.9705529], [140.1135848, 38.9706201], [140.1132123, 38.9707283], [140.1128979, 38.9707989], [140.1126895, 38.9708297], [140.1124788, 38.9708342], [140.1122487, 38.9708046], [140.111899, 38.9707317], [140.1118045, 38.9706964], [140.1117179, 38.9706429], [140.111669, 38.9705905], [140.1116302, 38.9705233], [140.1115881, 38.9704253], [140.1115562, 38.9703034], [140.1114799, 38.9697875], [140.111432, 38.9694651], [140.1113888, 38.9694002], [140.1113421, 38.9693558], [140.111284, 38.969325], [140.1112156, 38.969308], [140.1111405, 38.969308], [140.1110391, 38.9693364], [140.1109434, 38.9693831], [140.1107304, 38.9694742], [140.1105846, 38.9695244], [140.1104707, 38.9695392], [140.1103568, 38.969546], [140.1101951, 38.9695335], [140.1100117, 38.9695084], [140.1098978, 38.9694822], [140.1097794, 38.9694367], [140.1094684, 38.9692726], [140.1091552, 38.9691007], [140.1087668, 38.9688751], [140.108564, 38.9687567], [140.1084057, 38.9686804], [140.1082861, 38.9686405], [140.1078271, 38.9685198], [140.1070617, 38.9683261], [140.106876, 38.9682783], [140.1067257, 38.9682498], [140.1065953, 38.9682506], [140.106462, 38.968275], [140.1063612, 38.9683045], [140.1059899, 38.9684605], [140.1053953, 38.9687179], [140.1052883, 38.9687487], [140.1049637, 38.9688113], [140.10481, 38.968808], [140.104648, 38.968801], [140.1037176, 38.9687111], [140.1034708, 38.9686508], [140.1033725, 38.9686211], [140.1032996, 38.9686075], [140.1032244, 38.9686211], [140.1031515, 38.9686405], [140.1030877, 38.9686815], [140.1030387, 38.9687179], [140.1029135, 38.9688546], [140.1028576, 38.9689013], [140.1027882, 38.9689309], [140.1026959, 38.968964], [140.1022437, 38.9690631], [140.1021686, 38.9690733], [140.1020911, 38.969071], [140.101992, 38.9690551], [140.1010751, 38.968833], [140.100812, 38.9687681], [140.1003648, 38.96867], [140.1002277, 38.9686428], [140.0993917, 38.9685209], [140.0989383, 38.968489], [140.0978956, 38.9684805], [140.0974559, 38.9685129], [140.0971273, 38.9685414], [140.0967551, 38.9685776], [140.096248, 38.9686223], [140.0961045, 38.9686211], [140.0959246, 38.9686063], [140.0957378, 38.9685767], [140.0955145, 38.9685346], [140.0944097, 38.9682396], [140.0941261, 38.9681553], [140.0940566, 38.9681393], [140.0911706, 38.9672875], [140.0881329, 38.9665519], [140.0879092, 38.9664899], [140.0876649, 38.9664295], [140.0867243, 38.9661786], [140.0863318, 38.9660709], [140.0861872, 38.9660288], [140.0859891, 38.965957], [140.0858193, 38.965883], [140.0856644, 38.9658078], [140.0855175, 38.9657064], [140.0853751, 38.9656028], [140.0852179, 38.965465], [140.0850801, 38.9653203], [140.0847885, 38.9649365], [140.084645, 38.9647725], [140.0844878, 38.9646107], [140.0843683, 38.9645173], [140.0842862, 38.9644592], [140.084178, 38.9643886], [140.0840471, 38.9643203], [140.0839058, 38.9642519], [140.0837327, 38.9641836], [140.0835812, 38.9641335], [140.0833842, 38.9640868], [140.0832053, 38.964048], [140.0830185, 38.9640287], [140.0828169, 38.9640196], [140.0824183, 38.9640287], [140.0820208, 38.9640606], [140.0815891, 38.9640834], [140.0814228, 38.9640822], [140.0812941, 38.9640822], [140.0811756, 38.964072], [140.0810589, 38.9640537], [140.0809495, 38.9640361], [140.0808214, 38.9640082], [140.0806847, 38.9639638], [140.0804797, 38.963884], [140.0802861, 38.9637781], [140.0794637, 38.9632769], [140.0792439, 38.9631448], [140.0791277, 38.9630879], [140.0788878, 38.9629983], [140.078753, 38.9629671], [140.0786163, 38.9629341], [140.0784921, 38.9629147], [140.0783691, 38.9629011], [140.0781208, 38.9628942], [140.0776698, 38.9628863], [140.0774876, 38.9628737], [140.0773167, 38.9628453], [140.0771846, 38.9628179], [140.0770342, 38.9627758], [140.0768816, 38.9627211], [140.0767483, 38.962663], [140.0764932, 38.9625206], [140.0760604, 38.9622541], [140.0758656, 38.962155], [140.0756834, 38.9620787], [140.0754977, 38.9620115], [140.0752904, 38.9619625], [140.0751002, 38.9619284], [140.0748098, 38.9618953], [140.0746104, 38.9618919], [140.0735591, 38.9619079], [140.0692309, 38.9619773], [140.0688938, 38.9619842], [140.0678892, 38.9619887], [140.0676751, 38.9619716], [140.0674689, 38.9619352], [140.0672377, 38.9618691], [140.0665987, 38.9616072], [140.0664256, 38.9615548], [140.0662468, 38.9615126], [140.0660537, 38.9614886], [140.0658584, 38.961475], [140.0656465, 38.9614819], [140.0654916, 38.9614967], [140.0652968, 38.9615343], [140.0651374, 38.9615832], [140.0650349, 38.9616186], [140.0648219, 38.9617049], [140.0645863, 38.961833], [140.0642895, 38.962004], [140.0641168, 38.9620884], [140.0640075, 38.9621311], [140.0638987, 38.9621681], [140.0637814, 38.9621989], [140.0636572, 38.9622154], [140.063553, 38.9622336], [140.0634539, 38.9622473], [140.0633457, 38.9622564], [140.0632233, 38.9622633], [140.0625727, 38.9622154], [140.0623423, 38.9622023], [140.0613274, 38.962126], [140.0607989, 38.962073], [140.0606816, 38.9620742], [140.0591234, 38.9619443], [140.0588683, 38.9619466], [140.0586883, 38.9619716], [140.058538, 38.962007], [140.058399, 38.9620594], [140.0582362, 38.9621436], [140.0580892, 38.9622507], [140.0561461, 38.9641881], [140.0559411, 38.9643727], [140.0557497, 38.9645162], [140.0555333, 38.9646415], [140.0552713, 38.9647759], [140.0550048, 38.9648875], [140.0545652, 38.9650048], [140.0543349, 38.9650412], [140.0533783, 38.9651392], [140.0531426, 38.9651745], [140.0526835, 38.9652736], [140.0524421, 38.965359], [140.0522439, 38.9654593], [140.0520673, 38.9655561], [140.051901, 38.9656597], [140.0515605, 38.9659012], [140.0513464, 38.9660265], [140.0512063, 38.9661051], [140.0510548, 38.9661677], [140.0509124, 38.9662235], [140.0507871, 38.9662657], [140.0506049, 38.9663112], [140.0504477, 38.9663477], [140.0502768, 38.9663727], [140.0500991, 38.966391], [140.0499397, 38.9663989], [140.0497779, 38.9663967], [140.0495513, 38.9663819], [140.0492882, 38.9663545], [140.0470204, 38.9660504], [140.0467051, 38.9660046], [140.0463776, 38.9659687], [140.0461558, 38.9659618], [140.0458273, 38.9659806], [140.0453266, 38.9660534], [140.0441387, 38.9662198], [140.043293, 38.9663618], [140.0427884, 38.966495], [140.0418348, 38.9667882], [140.0415054, 38.9668622], [140.0405488, 38.9669915], [140.0401648, 38.967074], [140.0398069, 38.9671952], [140.0382688, 38.9677616], [140.0376975, 38.9679826], [140.0373898, 38.9680838], [140.0371546, 38.9681387], [140.0369403, 38.968167], [140.0367095, 38.9681749], [140.0364712, 38.9681616], [140.0362577, 38.9681416], [140.0360355, 38.9680806], [140.0354379, 38.9678642], [140.0352536, 38.9678232], [140.0350925, 38.9678079], [140.034893, 38.9678187], [140.034709, 38.9678613], [140.0344404, 38.9679592], [140.0338551, 38.9681684], [140.0334094, 38.9683466], [140.0327971, 38.9685603], [140.032546, 38.9686234], [140.0322966, 38.9686633], [140.032054, 38.9686872], [140.031833, 38.9686838], [140.0315733, 38.9686644], [140.0312191, 38.9686109], [140.0310736, 38.9685758], [140.0306646, 38.9685143], [140.0275664, 38.9680285], [140.0272523, 38.9679813], [140.0266046, 38.9678861], [140.0248497, 38.9675936], [140.0246169, 38.9675393], [140.0243837, 38.9674604], [140.0241611, 38.9673823], [140.0238761, 38.9672486], [140.0236006, 38.9670839], [140.0233222, 38.9668714], [140.0219188, 38.965548], [140.0216754, 38.9653372], [140.0213842, 38.9651282], [140.0208379, 38.9648349], [140.020478, 38.9647196], [140.020045, 38.9646245], [140.0195243, 38.9645973], [140.0191217, 38.9646367], [140.0186973, 38.9647127], [140.0180905, 38.964905], [140.0174106, 38.9651338], [140.0170139, 38.9652353], [140.01676, 38.9653022], [140.0162481, 38.9654125], [140.0157506, 38.9654851], [140.0153656, 38.9655341], [140.0148319, 38.9655559], [140.0141259, 38.9655689], [140.0122897, 38.9655897], [140.0093841, 38.9655969], [140.0072539, 38.9656386], [140.0060556, 38.9655485], [140.0047213, 38.9653853], [140.004099, 38.965333], [140.0036813, 38.9653552], [140.0022556, 38.9655158], [140.0013777, 38.9655864], [140.0003681, 38.965565], [139.9986377, 38.9654939], [139.9983438, 38.9654516], [139.998095, 38.9654004], [139.99787, 38.965329], [139.9962324, 38.9646855], [139.9953864, 38.9644281], [139.9951148, 38.9643377], [139.9940536, 38.9639788], [139.993093, 38.963779], [139.9923762, 38.9636949], [139.9919971, 38.9636904], [139.9913158, 38.9637229], [139.9908506, 38.9637726], [139.990535, 38.9637547], [139.9900588, 38.9636928], [139.9892394, 38.9635321], [139.9880191, 38.9633077], [139.9875988, 38.9632473], [139.9871101, 38.9631972], [139.986781, 38.9631687], [139.9864484, 38.9631312], [139.9857365, 38.9630708], [139.9854495, 38.9630403], [139.9851921, 38.9629865], [139.9849312, 38.9629159], [139.9845821, 38.9627971], [139.9840815, 38.9626482], [139.9837917, 38.9626106], [139.9836447, 38.9625992], [139.9834562, 38.9626032], [139.9832672, 38.9626266], [139.9829608, 38.9626847], [139.9827392, 38.9627443], [139.9827068, 38.962753], [139.9822979, 38.9628589], [139.9819163, 38.9630036], [139.9815609, 38.9632006], [139.9807659, 38.9637223], [139.9802488, 38.9641141], [139.97897, 38.9651333], [139.9785118, 38.9654855], [139.9783649, 38.9655846], [139.9782191, 38.9656472], [139.978071, 38.9656905], [139.9778763, 38.9657349], [139.9776576, 38.9657565], [139.9772054, 38.9657759], [139.9770323, 38.9657759], [139.9768626, 38.9657611], [139.9766894, 38.9657281], [139.97617, 38.9655971], [139.9758534, 38.9655185], [139.9753965, 38.9654376], [139.974822, 38.9653556], [139.9744, 38.9652987], [139.97349, 38.9651734], [139.9730913, 38.965121], [139.9728578, 38.9651016], [139.9724926, 38.9651005], [139.9718826, 38.9651683], [139.9705357, 38.9653898], [139.9704519, 38.9654008], [139.9700193, 38.9654693], [139.9692911, 38.9656055], [139.9686704, 38.9657045], [139.9676871, 38.9658665], [139.9665707, 38.9660578], [139.965536, 38.966246], [139.965085, 38.9663454], [139.9641384, 38.9665703], [139.9632573, 38.966836], [139.9626308, 38.9670134], [139.9620941, 38.9671276], [139.9617483, 38.9671334], [139.9612389, 38.9671008], [139.9583229, 38.9668398], [139.9578562, 38.966821], [139.9572065, 38.9668061], [139.9570106, 38.966821], [139.9567421, 38.9668466], [139.9564172, 38.96687], [139.9561508, 38.9669111], [139.9556031, 38.9669889], [139.9548329, 38.9671498], [139.9540862, 38.9673343], [139.9512979, 38.967964], [139.9499315, 38.9683184], [139.9496808, 38.9684417], [139.9494741, 38.9685502], [139.9493445, 38.9686373], [139.9487256, 38.9692819], [139.948418, 38.9695647], [139.94816, 38.9697062], [139.9479392, 38.9697935], [139.9479052, 38.9698069], [139.9474942, 38.9699037], [139.9465918, 38.9700759], [139.9457971, 38.9702396], [139.9456623, 38.9702608], [139.9450623, 38.9703552], [139.9445063, 38.9704426], [139.9433517, 38.9706242], [139.9416377, 38.9707842], [139.9399846, 38.9709154], [139.9399145, 38.9709209], [139.9395671, 38.9709482], [139.9393584, 38.9709545], [139.9388741, 38.9709287], [139.9384203, 38.9708928], [139.9379473, 38.9708349], [139.9377652, 38.9708126], [139.9377174, 38.9706076], [139.9376103, 38.9702909], [139.9375329, 38.9700608], [139.9372777, 38.9693957], [139.9371365, 38.9690266], [139.9369812, 38.9686141], [139.9369412, 38.9684527], [139.9368849, 38.9679959], [139.9367939, 38.9667788], [139.9367893, 38.9667313], [139.936739, 38.9660476], [139.9367334, 38.9659836], [139.936706, 38.9656688], [139.9361696, 38.9657066], [139.9356357, 38.9657214], [139.9353129, 38.9656954], [139.9349171, 38.9656387], [139.9341425, 38.9655043], [139.9336777, 38.9654324], [139.9332535, 38.9653744], [139.9328331, 38.9653284], [139.9320506, 38.9652812], [139.9315922, 38.9652823], [139.9306321, 38.9652846], [139.929465, 38.9652903], [139.9292002, 38.9653056], [139.9284065, 38.9653025], [139.9278394, 38.9652894], [139.9274768, 38.9652637], [139.927144, 38.965207], [139.9267467, 38.9651154], [139.9263273, 38.9649616], [139.9247802, 38.9643015], [139.9243027, 38.9640942], [139.9220462, 38.9631085], [139.9209294, 38.9626858], [139.9195831, 38.9622352], [139.9178278, 38.9617949], [139.9170185, 38.9616079], [139.9166603, 38.9615353], [139.9155506, 38.9612669], [139.9151054, 38.9611142], [139.9147484, 38.9609668], [139.9143179, 38.9607625], [139.9140212, 38.9605845], [139.9118895, 38.9590342], [139.9118389, 38.9589945], [139.9111798, 38.9585061], [139.9104645, 38.9579635], [139.9092754, 38.9570831], [139.9083249, 38.9563862], [139.9081714, 38.956273], [139.9062434, 38.9548324], [139.9059446, 38.9546186], [139.9056154, 38.954426], [139.9052553, 38.9542413], [139.9046941, 38.9539848], [139.9046382, 38.9539535], [139.9041697, 38.9537424], [139.9036252, 38.953497], [139.902662, 38.9530693], [139.9021067, 38.9528309], [139.9009274, 38.9523042], [139.8988323, 38.951381], [139.8984307, 38.9512179], [139.8980382, 38.9510867], [139.897618, 38.9509876], [139.8972024, 38.9509081], [139.8963851, 38.9508181], [139.8954138, 38.9507187], [139.8910588, 38.9502768], [139.8906678, 38.9501952], [139.890282, 38.9500607], [139.8899751, 38.9499177], [139.8896547, 38.9497148], [139.8893656, 38.9495053], [139.8891432, 38.9493093], [139.888964, 38.949082], [139.8888183, 38.9488682], [139.8886712, 38.9485944], [139.8885938, 38.9483205], [139.8885618, 38.9481127], [139.8885431, 38.9479303], [139.8885496, 38.9477571], [139.8885757, 38.947493], [139.888627, 38.9471059], [139.888645, 38.9468368], [139.8886195, 38.946574], [139.8885382, 38.9462692], [139.8884657, 38.9460736], [139.8883352, 38.9458402], [139.8881444, 38.9455695], [139.8879369, 38.9453478], [139.8876496, 38.9451031], [139.8874621, 38.9449729], [139.8872979, 38.9448619], [139.8869118, 38.9446848], [139.8866043, 38.9445322], [139.8862237, 38.9442991], [139.8858698, 38.9440407], [139.8855804, 38.9437727], [139.885332, 38.9435011], [139.8849223, 38.9430015], [139.883703, 38.9415785], [139.8829113, 38.9406174], [139.8820815, 38.93964], [139.8819286, 38.9394617], [139.8805594, 38.9377985], [139.8801201, 38.9372668], [139.879185, 38.9361468], [139.878794, 38.9356767], [139.8783263, 38.9351201], [139.8781021, 38.9348874], [139.8779483, 38.9347359], [139.8778458, 38.934647], [139.8776921, 38.9345263], [139.8775189, 38.9343964], [139.8772012, 38.934196], [139.8768162, 38.933975], [139.875233, 38.9331834], [139.8742533, 38.9327057], [139.8731326, 38.9321389], [139.8722385, 38.9316936], [139.8716144, 38.9313758], [139.8711132, 38.9311355], [139.8708991, 38.931025], [139.8705631, 38.9308747], [139.8700983, 38.9307118], [139.8699332, 38.9306651], [139.8697475, 38.9306104], [139.8694263, 38.9305364], [139.869137, 38.9304771], [139.8687019, 38.9304248], [139.8674547, 38.9303063], [139.8653255, 38.9301026], [139.8645884, 38.9300369], [139.8634022, 38.9299259], [139.862991, 38.9298997], [139.8626493, 38.929886], [139.862016, 38.929894], [139.8603166, 38.9299458], [139.8591599, 38.9299722], [139.8590039, 38.9299782]]]}, "id": "relation/6649827"}]}