{"type": "FeatureCollection", "generator": "kokudo-quiz tools/fetch_raw.py (Overpass API)", "copyright": "The data included in this document is from www.openstreetmap.org. The data is made available under ODbL.", "timestamp": "2026-09-30T23:38:19Z", "features": [{"type": "Feature", "properties": {"@id": "relation/13970524", "colour": "red", "from": "千葉県香取市", "name": "国道355号", "name:en": "National Highway Route 355", "name:ja": "国道355号", "network": "JP:national", "ref": "355", "route": "road", "to": "茨城県笠間市", "type": "route", "wikidata": "Q11421446", "wikipedia": "ja:国道355号"}, "geometry": {"type": "MultiLineString", "coordinates": [[[140.4880343, 35.9016536], [140.4883347, 35.9019414], [140.4889824, 35.9025677], [140.4892103, 35.9027952], [140.4892554, 35.9028388], [140.4895822, 35.9031805], [140.4896915, 35.9033069], [140.4897517, 35.9033765], [140.4898663, 35.9035481], [140.4899447, 35.9036839], [140.4899976, 35.9037756], [140.4901121, 35.9039759], [140.4901856, 35.9041227], [140.4902475, 35.9042646], [140.4903035, 35.9044194], [140.4903431, 35.904559], [140.4903776, 35.9047315], [140.4904043, 35.904888], [140.4904584, 35.905434], [140.4905422, 35.9062976], [140.4908144, 35.9086264], [140.490955, 35.9097393], [140.491086, 35.9107295], [140.491107, 35.9109476], [140.491113, 35.9111125], [140.4911192, 35.9113321], [140.4911124, 35.9115985], [140.4911019, 35.9117204], [140.4910917, 35.9118366], [140.4910712, 35.9119721], [140.4910507, 35.9120678], [140.4909994, 35.9123047], [140.4909208, 35.9125701], [140.4908388, 35.9127945], [140.4907488, 35.9130257], [140.4906326, 35.9132703], [140.4904308, 35.9136322], [140.49024, 35.913923], [140.4901275, 35.9140789], [140.4900471, 35.9141903], [140.4898687, 35.9144064], [140.4897978, 35.9144843], [140.4897288, 35.9145606], [140.4894822, 35.9148102], [140.4890601, 35.9151947], [140.4887503, 35.9154234], [140.4884042, 35.9156456], [140.4880127, 35.9158493], [140.4878764, 35.9159223], [140.4875994, 35.9160465], [140.4874033, 35.9161202], [140.4869945, 35.9162909], [140.4865698, 35.9164518], [140.4863044, 35.91656], [140.4860368, 35.9166864], [140.4858124, 35.9167969], [140.4856062, 35.9169063], [140.4854217, 35.9170236], [140.4852896, 35.9171136], [140.485162, 35.9172047], [140.485055, 35.917289], [140.4849376, 35.9173915], [140.4847656, 35.9175455], [140.4847224, 35.9175885], [140.4846113, 35.9177013], [140.4844889, 35.9178471], [140.4843966, 35.9179667], [140.4843157, 35.9180783], [140.4842258, 35.9182036], [140.4841392, 35.9183608], [140.4840629, 35.9184883], [140.483998, 35.9186341], [140.4839376, 35.9187731], [140.4838875, 35.9189189], [140.4838339, 35.9190852], [140.4837968, 35.9192186], [140.4837723, 35.9193152], [140.4837373, 35.9194537], [140.4836339, 35.9199082], [140.4834901, 35.9205603], [140.4833453, 35.9211959], [140.4830645, 35.9223263], [140.4829052, 35.9229693], [140.4828822, 35.9230616], [140.4826483, 35.9240072], [140.4825916, 35.9242566], [140.4825076, 35.924618], [140.4824651, 35.9248], [140.4824534, 35.9248499], [140.4824146, 35.9250225], [140.4823827, 35.9251696], [140.4823245, 35.9254329], [140.4822977, 35.9255731], [140.4822644, 35.9257768], [140.4822348, 35.9259738], [140.4822186, 35.9261542], [140.4822086, 35.9263064], [140.4822063, 35.9265046], [140.4822131, 35.9267039], [140.4822336, 35.9269976], [140.4822836, 35.9272827], [140.4823259, 35.9274842], [140.4823829, 35.927704], [140.4824637, 35.9279546], [140.4825492, 35.9281744], [140.4826539, 35.9284216], [140.4827781, 35.928663], [140.4828886, 35.9288669], [140.483017, 35.9290686], [140.4832838, 35.9294659], [140.4835104, 35.9298002], [140.4837162, 35.9300939], [140.4837873, 35.9301969], [140.4838521, 35.9302883], [140.4839048, 35.9303612], [140.4843021, 35.9309114], [140.4846174, 35.93134], [140.4850986, 35.9320238], [140.4854465, 35.9324794], [140.4858022, 35.9329881], [140.486917, 35.9345502], [140.4869816, 35.9346342], [140.4870358, 35.9347126], [140.4873517, 35.9351479], [140.4876069, 35.935501], [140.4881639, 35.9362826], [140.4887788, 35.9371346], [140.4889851, 35.9374197], [140.4893466, 35.9379232], [140.4895336, 35.9381839], [140.4901444, 35.9390286], [140.4905282, 35.9395655], [140.4911875, 35.9404849], [140.4917176, 35.9412152], [140.492296, 35.9420227], [140.492647, 35.9425046], [140.4929438, 35.9429226], [140.4933429, 35.9434762], [140.4937216, 35.9440071], [140.4941345, 35.944574], [140.4942909, 35.9447769], [140.4945363, 35.9450834], [140.4947279, 35.9453055], [140.4948988, 35.9454878], [140.4951048, 35.9457004], [140.4953415, 35.9459176], [140.4955498, 35.9461135], [140.4959462, 35.9464448], [140.4963193, 35.9467309], [140.4967238, 35.9470126], [140.4973595, 35.9474298], [140.4974378, 35.9474812], [140.4978932, 35.9477824], [140.4986955, 35.9483078], [140.4993972, 35.9487714], [140.4999219, 35.9491164], [140.5009917, 35.9498124], [140.5010538, 35.9498495], [140.5012274, 35.94996], [140.5012803, 35.9499922], [140.5022563, 35.9506219], [140.5024099, 35.9507243], [140.5025039, 35.950788], [140.5026639, 35.9508963], [140.5029118, 35.951075], [140.5029578, 35.9511082], [140.503127, 35.9512447], [140.5032026, 35.9513071], [140.5033416, 35.9514296], [140.5035804, 35.9516456], [140.5037528, 35.9518155], [140.5039114, 35.9519579], [140.5037809, 35.9517415], [140.5036481, 35.9515946], [140.5034882, 35.9514344], [140.503326, 35.9512819], [140.5032832, 35.951245], [140.5031887, 35.9511677], [140.5030365, 35.9510439], [140.5028397, 35.9509028], [140.5014111, 35.9499542], [140.5013516, 35.9499168]], [[140.4894513, 35.9378724], [140.4895789, 35.9380466], [140.4896895, 35.9381976], [140.4899432, 35.9385545], [140.4902497, 35.9389786], [140.4906369, 35.9395158], [140.4911185, 35.9401873], [140.4912927, 35.9404348], [140.4918249, 35.9411636], [140.4923875, 35.9419501], [140.4927524, 35.9424548], [140.4930484, 35.9428676], [140.4934486, 35.9434268], [140.4938268, 35.943957], [140.4942353, 35.9445179], [140.4943945, 35.9447246], [140.4946371, 35.9450276], [140.4948008, 35.9452212], [140.4949728, 35.9454058], [140.4951989, 35.9456374], [140.4954267, 35.9458534], [140.4956557, 35.9460609], [140.4961092, 35.9464314], [140.4964011, 35.9466576], [140.4968022, 35.9469369], [140.4975503, 35.9474219], [140.4976382, 35.94748], [140.4981854, 35.9478417], [140.4987724, 35.948231], [140.49952, 35.9487226], [140.5011473, 35.9497838], [140.501181, 35.9498052], [140.5013516, 35.9499168]], [[140.4837401, 35.920014], [140.4837593, 35.9199269], [140.4838621, 35.9194714], [140.4838949, 35.9193296]], [[140.4912062, 35.9116046], [140.491193, 35.9117363], [140.4911805, 35.9118491], [140.491152, 35.9119994], [140.4911349, 35.912102], [140.491103, 35.9122534], [140.4910438, 35.9124733], [140.4909857, 35.9126726], [140.4909379, 35.9128172], [140.4908479, 35.9130473], [140.4907374, 35.9133036], [140.4906504, 35.9134853], [140.4905404, 35.9136818], [140.4903812, 35.9139448], [140.4901684, 35.9142379], [140.4900944, 35.9143295], [140.4899828, 35.9144655], [140.4898275, 35.9146238], [140.4897868, 35.9146653], [140.4896222, 35.91483], [140.4893653, 35.915075], [140.4892738, 35.9151625], [140.4891405, 35.9152707], [140.4889777, 35.9153948], [140.4888174, 35.915506], [140.4885335, 35.9156774], [140.4881758, 35.9158893], [140.4879256, 35.9160158], [140.4876415, 35.916141], [140.487452, 35.9162151], [140.4870471, 35.9163692], [140.4865926, 35.9165441], [140.4864115, 35.9166181], [140.4862407, 35.9166944], [140.4860778, 35.9167707], [140.4859058, 35.9168539], [140.4857452, 35.916937], [140.4855709, 35.9170395], [140.4854172, 35.917142], [140.4852623, 35.9172514], [140.4850903, 35.9173869], [140.4849502, 35.9175111], [140.4848075, 35.9176435], [140.4846677, 35.9177867], [140.484523, 35.9179781], [140.4844376, 35.9180999], [140.4843294, 35.9182628], [140.484236, 35.9184371], [140.4841813, 35.9185441], [140.4841213, 35.9186672], [140.4840636, 35.9187927], [140.4840048, 35.9189633], [140.4839547, 35.9191136], [140.4839148, 35.9192435], [140.4838949, 35.9193296]], [[140.4837401, 35.920014], [140.4836039, 35.9205852], [140.4834586, 35.921214], [140.4831896, 35.9223466], [140.4830422, 35.9229858], [140.4830201, 35.9230847], [140.4827943, 35.9240342], [140.4826859, 35.9244899], [140.4825943, 35.9248725], [140.4825508, 35.9250541], [140.4825228, 35.9251899], [140.4825122, 35.9252413], [140.4824847, 35.9253751], [140.4824561, 35.9255198], [140.4824287, 35.9256662], [140.4823715, 35.9260695], [140.4823544, 35.926221], [140.4823396, 35.9263577], [140.4823339, 35.9265388], [140.4823405, 35.9267861], [140.4823584, 35.9270286], [140.4823954, 35.9272495], [140.4824375, 35.9274716], [140.482482, 35.9276527], [140.4825628, 35.9279193], [140.482646, 35.9281345], [140.4827587, 35.9283885], [140.4828419, 35.9285582], [140.4829413, 35.9287402], [140.4830435, 35.9289147], [140.4831558, 35.9290903], [140.4832922, 35.9292953], [140.4836118, 35.9297496], [140.483858, 35.9300945], [140.483927, 35.9301921], [140.4839878, 35.9302648], [140.4840659, 35.9303651], [140.4844543, 35.9309167], [140.4845086, 35.9309922], [140.484722, 35.931292], [140.4852223, 35.9319821], [140.4855516, 35.9324291], [140.4859124, 35.9329353], [140.4870234, 35.9344995], [140.4870855, 35.934584], [140.4871416, 35.9346612], [140.4873159, 35.9348968], [140.4874793, 35.9351263], [140.4877242, 35.9354686], [140.4882725, 35.9362326], [140.4890339, 35.9372836], [140.4894513, 35.9378724]], [[140.4881108, 35.9015993], [140.4884125, 35.9018904], [140.4890508, 35.902517], [140.4892799, 35.9027369], [140.4893286, 35.9027815], [140.489531, 35.9029616], [140.489699, 35.9031265], [140.4898619, 35.9033236], [140.4900076, 35.9035307], [140.490129, 35.9037187], [140.4902465, 35.9039276], [140.4902708, 35.9039759], [140.4903209, 35.9040995], [140.4903629, 35.904233], [140.4904101, 35.904377], [140.4904367, 35.9044684], [140.490465, 35.904583], [140.4904843, 35.9047104], [140.4905055, 35.9048775], [140.4906728, 35.9062794], [140.490944, 35.9086165], [140.4911805, 35.9107192], [140.4912, 35.9109414], [140.4912068, 35.9111038], [140.4912135, 35.9113479], [140.4912062, 35.9116046]], [[140.5039114, 35.9519579], [140.5041942, 35.9522984], [140.5044909, 35.9526572], [140.5047323, 35.952961], [140.5048892, 35.9531742], [140.5050128, 35.9533649], [140.5051155, 35.9535312], [140.5052368, 35.953765], [140.5053677, 35.9540885], [140.505459, 35.9544003], [140.5055385, 35.9547402], [140.5059759, 35.9567485], [140.5060421, 35.956999], [140.5060923, 35.9571426], [140.506146, 35.957289], [140.5062335, 35.957474], [140.5063269, 35.957654], [140.5064351, 35.957826], [140.5065559, 35.9579991], [140.5066903, 35.9581711], [140.5074216, 35.9590038], [140.5074706, 35.9590603], [140.5093028, 35.9611193], [140.5093247, 35.9611471], [140.5093908, 35.9613318], [140.5094774, 35.9615551], [140.5095106, 35.9616143], [140.5095583, 35.9616826], [140.5096448, 35.9617795], [140.5097724, 35.9619207], [140.5099136, 35.9620483], [140.5101221, 35.9622191], [140.5101755, 35.9622548], [140.5102799, 35.9623245]], [[140.5093247, 35.9611471], [140.5095313, 35.9613058], [140.5096509, 35.9613977], [140.5099182, 35.9615949], [140.5101623, 35.9617568], [140.5104941, 35.9619321], [140.5106175, 35.9619993], [140.5102799, 35.9623245], [140.5101512, 35.9624657], [140.5101095, 35.9625114], [140.5100607, 35.9625612], [140.5093628, 35.9632735], [140.5087887, 35.9638946], [140.5077739, 35.964931], [140.5075684, 35.9651532], [140.5073087, 35.9654243], [140.5071914, 35.9655524], [140.5071003, 35.96566], [140.5070325, 35.9657432], [140.5069652, 35.9658308], [140.5067954, 35.9660562], [140.5067734, 35.966085], [140.5067246, 35.966149], [140.5066692, 35.9662216], [140.5064482, 35.9665109], [140.5063201, 35.9666709], [140.5060198, 35.9670247], [140.5059659, 35.9670849], [140.5057644, 35.9673135], [140.5049248, 35.9682279], [140.5046334, 35.9685623], [140.5041378, 35.9692274], [140.5038818, 35.9695791], [140.503222, 35.970486], [140.5031161, 35.9706397], [140.5030147, 35.9708095], [140.5029133, 35.9710031], [140.5028097, 35.9712297], [140.5024824, 35.9719393], [140.5020531, 35.972859], [140.5014153, 35.9742457], [140.5014042, 35.9742697], [140.501059, 35.9750146], [140.5010127, 35.9751159], [140.500813, 35.9755523], [140.5007538, 35.9756935], [140.5007253, 35.9758028], [140.5007048, 35.9759464], [140.5006775, 35.976402], [140.5006638, 35.976517], [140.5006422, 35.976648], [140.5006103, 35.9767801], [140.5005693, 35.9768894], [140.5005146, 35.9770216], [140.5004622, 35.9771229], [140.5004007, 35.9772141], [140.5003208, 35.9773278], [140.5000403, 35.9776652], [140.4999087, 35.9778155], [140.4998672, 35.9778668], [140.4998141, 35.9779328], [140.499588, 35.9782234], [140.4995499, 35.9782688], [140.499491, 35.9783461], [140.499228, 35.9786729], [140.4991769, 35.9787272], [140.4986939, 35.9792264], [140.4980071, 35.979934], [140.4978135, 35.9801282], [140.4976403, 35.9802905], [140.497457, 35.9804465], [140.497012, 35.9807988], [140.4961888, 35.981453], [140.4953185, 35.9820913], [140.4949637, 35.9823379], [140.4945924, 35.9825678], [140.4943395, 35.9827035], [140.4941749, 35.9827826], [140.4919448, 35.9838772], [140.4912493, 35.9842018], [140.4909482, 35.9843312], [140.4902365, 35.9846139], [140.4893769, 35.9849522], [140.4893034, 35.9849775], [140.4889245, 35.9850905], [140.4885033, 35.98521], [140.4879619, 35.9853636], [140.4875229, 35.9854881], [140.487243, 35.9855584], [140.4870871, 35.9855903], [140.4868466, 35.9856233], [140.4867225, 35.985629], [140.4866198, 35.9856355], [140.4863625, 35.9856518], [140.4858545, 35.9856734], [140.4857919, 35.9856734], [140.4853974, 35.9856872], [140.4845411, 35.9857294], [140.4842475, 35.98574], [140.4840264, 35.9857588], [140.4838907, 35.9857821], [140.4837571, 35.9858061], [140.4836169, 35.9858357], [140.4833902, 35.9858951], [140.4832701, 35.985932], [140.4831562, 35.9859718], [140.4829114, 35.9860652], [140.4826884, 35.9861693], [140.4824059, 35.9862925], [140.4822988, 35.9863417], [140.4822012, 35.9863847], [140.4820645, 35.9864453], [140.4820467, 35.9864532], [140.4820245, 35.9864631], [140.4818362, 35.9865424], [140.4817984, 35.9865576], [140.481211, 35.9868196], [140.4809705, 35.9869377], [140.4807256, 35.9870755], [140.4805479, 35.9871928], [140.480409, 35.9873022], [140.4799536, 35.9876875], [140.4798715, 35.9877595], [140.4794409, 35.9881375], [140.4789726, 35.9885421], [140.4785776, 35.9888933], [140.4780041, 35.989401], [140.4779514, 35.9894464], [140.4779158, 35.9894789], [140.4777407, 35.9896363], [140.4775011, 35.9898467], [140.4773754, 35.9899623], [140.4770979, 35.9902534], [140.476931, 35.990447], [140.4768012, 35.9906047], [140.4767772, 35.990638], [140.4762053, 35.9914458], [140.4759432, 35.9918036], [140.4758243, 35.9919428], [140.4757225, 35.9920448], [140.4750678, 35.9926989], [140.4741201, 35.9936356], [140.4739335, 35.9938454], [140.4738142, 35.9939927], [140.4736957, 35.9941692], [140.473575, 35.9943788], [140.4735203, 35.9945007], [140.4733711, 35.9949529], [140.4733265, 35.9951031], [140.4732375, 35.9954183], [140.4730023, 35.9962518], [140.4729018, 35.9966078], [140.4727683, 35.9970889], [140.4725746, 35.9977872], [140.4724464, 35.9982492], [140.4723086, 35.9987234], [140.4721865, 35.9992004], [140.4721419, 35.9994116], [140.4721108, 35.9995996], [140.4720829, 35.9997936], [140.4720557, 36.0001057], [140.4720483, 36.0001899], [140.4720395, 36.0002858], [140.4720088, 36.0006205], [140.4719616, 36.0011962], [140.4719505, 36.0013593], [140.4719268, 36.0016616], [140.4718919, 36.0020667], [140.4718451, 36.0025717], [140.4718289, 36.0026798], [140.4718084, 36.0028211], [140.4717469, 36.0030409], [140.4716945, 36.0032163], [140.4716383, 36.0034166], [140.4716193, 36.0034771], [140.4715265, 36.0037936], [140.4714258, 36.0041183], [140.4713366, 36.0044235], [140.4711552, 36.0050092], [140.470972, 36.005632], [140.4708171, 36.00617], [140.4707131, 36.0065051], [140.4705173, 36.0071419], [140.4704417, 36.0074237], [140.4703473, 36.0077933], [140.4702736, 36.008161], [140.4702643, 36.0082097], [140.4702079, 36.0086073], [140.4701763, 36.0087935], [140.469983, 36.0099327], [140.4698119, 36.010991], [140.4697229, 36.0115356], [140.4696249, 36.0121415], [140.4695611, 36.0124874], [140.4694267, 36.0130595], [140.4694005, 36.01317], [140.4692888, 36.013671], [140.4691909, 36.0141019], [140.4691509, 36.0142712], [140.4691179, 36.014371], [140.469056, 36.0145089], [140.4689928, 36.014641], [140.468968, 36.0146878], [140.4689351, 36.0147497], [140.4685512, 36.0154788], [140.4683412, 36.0158777], [140.4682915, 36.0159721], [140.4682222, 36.0161075], [140.4680945, 36.0163569], [140.4678771, 36.01688], [140.467708, 36.0173249], [140.4676151, 36.0176222], [140.4675091, 36.0179487], [140.4673298, 36.0185074], [140.4672809, 36.0186418], [140.46715, 36.0189165], [140.4670415, 36.0191489], [140.4669582, 36.0193003], [140.4667972, 36.0195552], [140.4666158, 36.0198462], [140.4664722, 36.0200785], [140.4660968, 36.0206632], [140.4656489, 36.0213696], [140.4652122, 36.0220685], [140.4651931, 36.0220952], [140.4649372, 36.0224939], [140.4647254, 36.0228787], [140.4644049, 36.0235292], [140.4643001, 36.0237273], [140.4641753, 36.0239515], [140.4641426, 36.0240007], [140.4640465, 36.0241521], [140.4639387, 36.0243065], [140.4637864, 36.0244871], [140.4636155, 36.0246944], [140.4632795, 36.0250578], [140.463015, 36.0253533], [140.4627266, 36.0256711], [140.4622949, 36.0261355], [140.4620531, 36.0264235], [140.4619389, 36.0265715], [140.4618258, 36.0267359], [140.4617476, 36.0268733], [140.4616701, 36.0270169], [140.4616098, 36.0271444], [140.4615879, 36.0272025], [140.4615773, 36.0272284], [140.4615323, 36.0273551], [140.4614594, 36.0275841], [140.4613706, 36.0279372], [140.4612396, 36.028493], [140.4611735, 36.0287128], [140.4611189, 36.0288882], [140.4610744, 36.0290101], [140.4610218, 36.0291551], [140.4609532, 36.0293056], [140.4608937, 36.0294145], [140.4608176, 36.0295455], [140.460739, 36.0296329], [140.4605432, 36.0298126], [140.4603803, 36.0299506], [140.4600197, 36.0302419], [140.4598625, 36.0303758], [140.4596997, 36.0305227], [140.4596308, 36.0305933], [140.4595658, 36.0306748], [140.4594868, 36.0307869], [140.4594138, 36.0309248], [140.4591757, 36.0314624], [140.4589766, 36.0319147], [140.4588443, 36.0322275], [140.4587714, 36.0324088], [140.4587305, 36.0325302], [140.45848, 36.033926], [140.4584183, 36.0342552], [140.4583636, 36.0344466], [140.4583089, 36.0345718], [140.4582292, 36.0347199], [140.4581233, 36.0348873], [140.4580481, 36.0350115], [140.4579866, 36.0351197], [140.4579354, 36.0352393], [140.4578716, 36.03545], [140.4578363, 36.0356095], [140.4578146, 36.0357985], [140.4577861, 36.0360742], [140.4577656, 36.0363544], [140.4577406, 36.0365286], [140.4577121, 36.0366471], [140.4576708, 36.0367513], [140.4576039, 36.036892], [140.4572781, 36.0374171], [140.4570082, 36.0378191], [140.4568749, 36.0380014], [140.4566494, 36.0382884], [140.4559486, 36.0392051], [140.4558373, 36.0393397], [140.4557254, 36.0394993], [140.4556135, 36.0396754], [140.4552584, 36.0403125], [140.4545735, 36.0415308], [140.4545327, 36.041607], [140.4543359, 36.0419615], [140.4538834, 36.0427766], [140.4537591, 36.0429816], [140.4536835, 36.0430916], [140.4534015, 36.0434437], [140.4531527, 36.0436668], [140.4530115, 36.0438194], [140.4528509, 36.0439994], [140.4526268, 36.0442773], [140.452344, 36.0446196], [140.4521978, 36.044792], [140.4520422, 36.0449675], [140.4519237, 36.0450768], [140.4517927, 36.0451668], [140.4516652, 36.0452477], [140.4514499, 36.0453616], [140.4513257, 36.0454151], [140.4511446, 36.0454925], [140.4506947, 36.0457124], [140.4504681, 36.0458434], [140.4502334, 36.0459892], [140.450115, 36.0460712], [140.4491639, 36.0467557], [140.4482345, 36.0474186], [140.4473848, 36.048028], [140.446917, 36.0483626], [140.4464147, 36.0487219], [140.4452674, 36.0495424], [140.4445207, 36.0501008], [140.4443597, 36.0502211], [140.4429529, 36.0512867], [140.4421588, 36.0518803], [140.4419099, 36.0520632], [140.4404409, 36.0531893], [140.4386954, 36.0544884], [140.4370472, 36.0557219], [140.4354096, 36.0569538], [140.4348615, 36.057402], [140.4343364, 36.0578655], [140.4338364, 36.058361], [140.4335596, 36.0586583], [140.4332532, 36.0590023], [140.4329457, 36.0593702], [140.432505, 36.0599359], [140.4321564, 36.0603822], [140.43192, 36.0606829], [140.4316375, 36.0610439], [140.431244, 36.0615529], [140.4300213, 36.0631669], [140.4291528, 36.0642337], [140.4287165, 36.0647912], [140.4286032, 36.0649394], [140.4274543, 36.0664088], [140.4273484, 36.0665466], [140.4262097, 36.0680129], [140.4255456, 36.0688637], [140.4249775, 36.0696287], [140.4243722, 36.070517], [140.4243559, 36.0705409], [140.4242858, 36.0706429], [140.4242744, 36.0706614], [140.4237093, 36.0715764], [140.4233977, 36.0721352], [140.423162, 36.072565], [140.4228665, 36.0731361], [140.422627, 36.0736419], [140.4221481, 36.0746958], [140.4217558, 36.0755547], [140.4216983, 36.0756936], [140.4216438, 36.0758325], [140.4215893, 36.0759891], [140.421524, 36.0761925], [140.4214726, 36.0763691], [140.4214335, 36.0765218], [140.4214043, 36.07666], [140.4213897, 36.0767344], [140.4213778, 36.0767935], [140.4213613, 36.0768891], [140.4213441, 36.0769942], [140.4213241, 36.0771508], [140.4213076, 36.0773047], [140.4212945, 36.077482], [140.4212899, 36.0776401], [140.4212942, 36.0789047], [140.4213064, 36.0808056], [140.4213217, 36.0827191], [140.421326, 36.0841253], [140.4213214, 36.0842573], [140.4213118, 36.0843678], [140.4212995, 36.0844572], [140.4212873, 36.0845275], [140.4212769, 36.0846031], [140.4212542, 36.0846994], [140.4212262, 36.0848092], [140.4211967, 36.0849155], [140.4211575, 36.0850329], [140.4211134, 36.0851496], [140.4210704, 36.085249], [140.4210128, 36.0853737], [140.420966, 36.0854639], [140.4209023, 36.0855748], [140.4208517, 36.0856611], [140.4207787, 36.0857732], [140.4207361, 36.0858327], [140.4206621, 36.0859313], [140.4205903, 36.0860215], [140.420504, 36.0861259], [140.4203155, 36.0863527], [140.4197187, 36.0870788], [140.419447, 36.0874135], [140.419282, 36.0876276], [140.4191699, 36.0877842], [140.4190134, 36.0880176], [140.4189435, 36.0881319], [140.4188552, 36.0882732], [140.4187125, 36.0885403], [140.4186194, 36.0887284], [140.4186058, 36.088756], [140.418559, 36.0888611], [140.418539, 36.0889056], [140.4182939, 36.0895011], [140.4179127, 36.0904369], [140.417796, 36.0907224], [140.4175581, 36.0913058], [140.4173976, 36.0917034], [140.4169907, 36.0926999], [140.4168139, 36.093133], [140.4165932, 36.0936759], [140.4162586, 36.0944988], [140.4161001, 36.0949387], [140.4160682, 36.0950281], [140.4160571, 36.0950634], [140.4158934, 36.0955924], [140.4156023, 36.0966104], [140.4153154, 36.0976098], [140.4150754, 36.0984456], [140.4150255, 36.098623], [140.4148107, 36.099373], [140.4147645, 36.0995341], [140.4147516, 36.0995791], [140.414718, 36.0996964], [140.4147089, 36.0997282], [140.4146683, 36.0998554], [140.4146529, 36.0999006], [140.4146133, 36.1000153], [140.4145887, 36.1000788], [140.4145458, 36.1001898], [140.414474, 36.1003373], [140.4143926, 36.1004954], [140.414324, 36.1006201], [140.4142386, 36.1007684], [140.414162, 36.1008934], [140.4140764, 36.1010204], [140.4140112, 36.1011133], [140.4138953, 36.1012707], [140.413802, 36.1013904], [140.4137364, 36.101466], [140.4136427, 36.10157], [140.4135291, 36.1016936], [140.4134405, 36.1017822], [140.4133384, 36.101887], [140.4131477, 36.102082], [140.4128314, 36.1024036], [140.4110744, 36.104179], [140.4108007, 36.1044573], [140.4107741, 36.1044831], [140.4105541, 36.1047093], [140.4105165, 36.1047497], [140.4098868, 36.1054379], [140.4097031, 36.1056325], [140.4096058, 36.1057273], [140.4095033, 36.1058199], [140.4093799, 36.1059153], [140.4092326, 36.1060152], [140.4091023, 36.1061006], [140.4089483, 36.1061874], [140.4088019, 36.1062577], [140.4086664, 36.1063194], [140.4085369, 36.1063687], [140.4083781, 36.1064267], [140.4082294, 36.1064712], [140.4079558, 36.1065372], [140.407742, 36.1065798], [140.4074519, 36.1066151], [140.407271, 36.1066354], [140.4068401, 36.1066761], [140.4061214, 36.1067531], [140.4055798, 36.1068129], [140.4051788, 36.1068627], [140.4049878, 36.1068984], [140.4047953, 36.1069417], [140.4046388, 36.1069856], [140.4044972, 36.1070263], [140.4043078, 36.1071017], [140.4041815, 36.1071592], [140.4039336, 36.1072873], [140.4037975, 36.1073648], [140.4036682, 36.1074491], [140.4035338, 36.1075476], [140.4034194, 36.1076387], [140.4032975, 36.1077441], [140.4032132, 36.1078255], [140.4031261, 36.1079144], [140.4030486, 36.1080043], [140.4030082, 36.1080505], [140.4028977, 36.1082094], [140.402828, 36.1083141], [140.402736, 36.1084759], [140.4026648, 36.108612], [140.4026169, 36.1087356], [140.402572, 36.108866], [140.4025406, 36.109001], [140.4025116, 36.1091297], [140.4024968, 36.1092413], [140.4024825, 36.1093939], [140.4024769, 36.1095209], [140.4024786, 36.1096226], [140.4024849, 36.1097966], [140.4025592, 36.1109434], [140.4025909, 36.1113853], [140.4026281, 36.1119706], [140.402648, 36.1122381], [140.4026855, 36.1128206], [140.4026911, 36.1129125], [140.4027099, 36.113234], [140.402716, 36.1136282], [140.4027137, 36.1137576], [140.4027311, 36.1141296], [140.4027298, 36.1142843], [140.4027297, 36.1144243], [140.4027103, 36.1145496], [140.4026864, 36.1146709], [140.4026449, 36.1148235], [140.4025918, 36.1149864], [140.4025577, 36.1150838], [140.4025116, 36.1152034], [140.4024603, 36.1153127], [140.4024022, 36.1154283], [140.4023391, 36.1155407], [140.4021072, 36.1159568], [140.4020378, 36.1160912], [140.4019666, 36.1162473], [140.4019222, 36.1163498], [140.4018812, 36.116454], [140.4018384, 36.1165833], [140.4018094, 36.116704], [140.4017878, 36.1168213], [140.4017724, 36.1169392], [140.4017616, 36.1170543], [140.4017553, 36.1171881], [140.4017422, 36.1175651], [140.4017041, 36.1184231], [140.4016846, 36.1188503], [140.4016753, 36.1189381], [140.4016605, 36.1190345], [140.4016417, 36.1191277], [140.4016115, 36.1192495], [140.4015639, 36.1193962], [140.4015417, 36.1194644], [140.4015104, 36.1195436], [140.4014768, 36.1196125], [140.4014307, 36.1197064], [140.4013071, 36.1199337], [140.4010252, 36.1204456], [140.400737, 36.120965], [140.4006704, 36.1210966], [140.4006362, 36.1211632], [140.4005884, 36.1212726], [140.4005212, 36.1214315], [140.4003467, 36.1218743], [140.4001681, 36.1223244], [140.4000417, 36.1226422], [140.3999169, 36.1229583], [140.3998594, 36.1230967], [140.3997962, 36.1232362], [140.3997091, 36.1234088], [140.3996316, 36.1235494], [140.3995621, 36.1236702], [140.3994841, 36.123792], [140.3994221, 36.1238888], [140.3993298, 36.1240204], [140.3992364, 36.1241463], [140.3991356, 36.1242733], [140.3990268, 36.124402], [140.3989334, 36.1245062], [140.3984955, 36.1249755], [140.3981125, 36.1253806], [140.397705, 36.1258126], [140.3973084, 36.1262321], [140.3972179, 36.1263268], [140.3971281, 36.1264208], [140.3969772, 36.1265814], [140.3968137, 36.1267694], [140.39672, 36.1268846], [140.3966421, 36.1269906], [140.3965752, 36.1270939], [140.3965201, 36.1271901], [140.3964646, 36.1272984], [140.3964117, 36.1274186], [140.3963638, 36.1275354], [140.3963143, 36.1276897], [140.3961366, 36.128397], [140.3956326, 36.1304278], [140.3956018, 36.1305412], [140.3955648, 36.1306705], [140.395525, 36.1307787], [140.3954617, 36.130925], [140.3953923, 36.1310606], [140.3953211, 36.131183], [140.3952735, 36.1312565], [140.3951912, 36.1313732], [140.3950961, 36.131486], [140.3949908, 36.1316027], [140.3948922, 36.131703], [140.3947899, 36.1317933], [140.3946741, 36.131892], [140.3945545, 36.131982], [140.394411, 36.1320754], [140.3942926, 36.1321455], [140.3940784, 36.1322605], [140.3937282, 36.1324234], [140.3925379, 36.1329821], [140.392346, 36.1330743], [140.3921917, 36.1331512], [140.392055, 36.1332258], [140.3918454, 36.133346], [140.3917087, 36.1334371], [140.3915618, 36.1335373], [140.3914257, 36.1336319], [140.3913027, 36.1337281], [140.3911637, 36.1338448], [140.391035, 36.1339593], [140.3908291, 36.1341596], [140.3906849, 36.1343157], [140.390532, 36.1344998], [140.3903915, 36.1346799], [140.3900384, 36.1351376], [140.3895629, 36.1357504], [140.3887263, 36.1368176], [140.3884727, 36.1371406], [140.3884017, 36.1372328], [140.3871453, 36.1388456], [140.3865166, 36.1396486], [140.3863572, 36.1398264], [140.3862298, 36.1399717], [140.3861685, 36.1400453], [140.3860959, 36.1401133], [140.3860164, 36.1401796], [140.3858799, 36.1402944], [140.3857016, 36.1404279], [140.3854921, 36.140565], [140.3850837, 36.1408264], [140.384873, 36.140963], [140.3847136, 36.1410616], [140.3845473, 36.1411595], [140.3837608, 36.1415929], [140.3836248, 36.1416684], [140.383342, 36.1418186], [140.3831291, 36.1419253], [140.3829226, 36.1420293], [140.3828184, 36.1420745], [140.382702, 36.1421188], [140.382443, 36.1422119], [140.3822722, 36.1422643], [140.3821139, 36.1423087], [140.381986, 36.142337], [140.3815082, 36.1424372], [140.3809173, 36.1425435], [140.3807293, 36.1425804], [140.380518, 36.1426243], [140.3804713, 36.1426359], [140.3802297, 36.1427026], [140.3800848, 36.1427473], [140.379956, 36.1427951], [140.3797243, 36.1428896], [140.3792153, 36.1431221], [140.3790965, 36.143183], [140.3789686, 36.1432594], [140.3784001, 36.1436163], [140.3772812, 36.1443015], [140.3771076, 36.1444162], [140.3769693, 36.144521], [140.3768805, 36.1445991], [140.3768265, 36.1446465], [140.37674, 36.1447246], [140.3766489, 36.144818], [140.3765629, 36.1449228], [140.3764803, 36.1450315], [140.3764046, 36.145138], [140.3763322, 36.1452502], [140.3762684, 36.1453573], [140.3761995, 36.1454974], [140.3760754, 36.1457406], [140.3759786, 36.1459359], [140.3759023, 36.1460937], [140.3758544, 36.1461717], [140.375798, 36.1462622], [140.3757405, 36.1463465], [140.3756399, 36.1464719], [140.3755611, 36.1465686], [140.3754677, 36.1466569], [140.3753686, 36.1467452], [140.3752627, 36.1468317], [140.3751574, 36.1469069], [140.3750332, 36.1469844], [140.3749254, 36.147053], [140.3747314, 36.1471803], [140.3744791, 36.1473392], [140.3741989, 36.1475254], [140.3738743, 36.147752], [140.3727939, 36.1485357], [140.3721544, 36.1490049], [140.3716014, 36.1494085], [140.3710418, 36.1498069], [140.3709345, 36.149874], [140.3708081, 36.1499475], [140.3704994, 36.1501243], [140.3699328, 36.1504093], [140.3695466, 36.1505995], [140.3694213, 36.150669], [140.3691548, 36.1508353], [140.3690455, 36.1509173], [140.3689498, 36.1509902], [140.3688268, 36.1511007], [140.3687338, 36.1512008], [140.3685192, 36.1514442], [140.3680427, 36.1519416], [140.3679167, 36.1520779], [140.367785, 36.1522204], [140.3675017, 36.1525267], [140.3670657, 36.1529981], [140.3667157, 36.1533474], [140.3658033, 36.1542062], [140.3653027, 36.1546772], [140.3648059, 36.1551499], [140.363786, 36.1561347], [140.3631752, 36.156693], [140.3631572, 36.1567099], [140.36307, 36.1567879], [140.363058, 36.1567993], [140.3621403, 36.1576728], [140.3617811, 36.1580257], [140.3608585, 36.1589027], [140.3598765, 36.1598431], [140.3589984, 36.1606917], [140.3587361, 36.1609363], [140.3584211, 36.1612293], [140.358115, 36.1615012], [140.3576648, 36.1618746], [140.3573888, 36.1620899], [140.3566452, 36.1626153], [140.3561759, 36.1629224], [140.3552465, 36.1635124], [140.3548753, 36.1637499], [140.3543765, 36.1640672], [140.35424, 36.164154], [140.3541941, 36.1641818], [140.35378, 36.1644423], [140.3537112, 36.1644818], [140.3528738, 36.1650141], [140.3526987, 36.1651304], [140.3525338, 36.1652569], [140.3523949, 36.1653769], [140.3523674, 36.1654006], [140.35234, 36.1654243], [140.3522, 36.1655561], [140.3521, 36.1656727], [140.3520679, 36.1657102], [140.3520024, 36.1657866], [140.3519062, 36.1659069], [140.3518189, 36.1660225], [140.3517258, 36.1661596], [140.3514028, 36.1667105], [140.3508006, 36.1676937], [140.3505532, 36.16809], [140.3505154, 36.1681514], [140.3504137, 36.1683164], [140.3503585, 36.1684061], [140.3503364, 36.1684425], [140.350283, 36.1685303], [140.3501741, 36.1686967], [140.3500731, 36.1688372], [140.3499387, 36.169011], [140.3497381, 36.169265], [140.3495653, 36.1694697], [140.3493826, 36.1696597], [140.349242, 36.1697943], [140.3491088, 36.1699094], [140.3490705, 36.1699445], [140.3489682, 36.1700405], [140.3488445, 36.1701461], [140.3488076, 36.170178], [140.3484236, 36.1705066], [140.3482439, 36.1706604], [140.3479911, 36.1708743], [140.3457894, 36.1727947], [140.3453032, 36.173218], [140.3451291, 36.1733702], [140.3446031, 36.1738299], [140.3445755, 36.1738537], [140.3444021, 36.1740037], [140.3442244, 36.1741552], [140.3440911, 36.1742611], [140.3439522, 36.1743648], [140.3438098, 36.174457], [140.3436218, 36.1745721], [140.3434601, 36.1746575], [140.3433132, 36.1747315], [140.3431492, 36.174801], [140.343, 36.1748614], [140.3428496, 36.1749195], [140.3427072, 36.1749662], [140.3425603, 36.17501], [140.3423792, 36.175059], [140.3422425, 36.1750881], [140.3420819, 36.1751199], [140.3419151, 36.1751467], [140.3412083, 36.1752299], [140.3405648, 36.1753096], [140.339444, 36.1754496], [140.3393906, 36.1754561], [140.3385212, 36.1755826], [140.337376, 36.1757493], [140.3371861, 36.1757766], [140.3364823, 36.1758811], [140.3339095, 36.1762631], [140.3329062, 36.1764089], [140.3323209, 36.176507], [140.3319253, 36.1765816], [140.3295389, 36.1770317], [140.3280221, 36.1773154], [140.3270353, 36.1775039], [140.325727, 36.1777545], [140.3244282, 36.17799], [140.3237926, 36.1781228], [140.3216839, 36.1785219], [140.3211652, 36.1786171], [140.3196887, 36.1789011], [140.318853, 36.1790601], [140.3182535, 36.1791691], [140.3170529, 36.179402], [140.3168855, 36.1794345], [140.3161636, 36.1795728], [140.3154323, 36.1797122], [140.3152305, 36.1797508], [140.313955, 36.1799843], [140.313862, 36.1800026], [140.3113284, 36.1804908], [140.3107752, 36.1805948], [140.3106408, 36.1806201], [140.3093995, 36.1808534], [140.309052, 36.1809266], [140.3087513, 36.1809961], [140.308437, 36.181086], [140.3081727, 36.1811783], [140.3079472, 36.1812751], [140.3077855, 36.1813537], [140.3075873, 36.1814573], [140.307257, 36.181651], [140.3064221, 36.1821818], [140.305971, 36.1824699], [140.3053645, 36.1828661], [140.3051869, 36.1829842], [140.3049548, 36.1831275], [140.3048261, 36.183213], [140.304687, 36.1833079], [140.3041408, 36.1836582], [140.3031333, 36.1843332], [140.3029618, 36.1844482], [140.3026036, 36.1846777], [140.3014873, 36.1853978], [140.3011558, 36.1855909], [140.3009265, 36.1856997], [140.3006932, 36.1857914], [140.300474, 36.1858604], [140.3002254, 36.1859199], [140.2997047, 36.1860043], [140.2991883, 36.1860828], [140.2986934, 36.1861606], [140.2982877, 36.1862254], [140.2978349, 36.186292], [140.297411, 36.1863573], [140.2972204, 36.1863865], [140.2967106, 36.1864633], [140.2959889, 36.1865738], [140.2955063, 36.1866496], [140.2944205, 36.1868111], [140.2937076, 36.1869245], [140.2928804, 36.1870584], [140.2903799, 36.1874423], [140.2901613, 36.1874799], [140.2890923, 36.1876499], [140.2885429, 36.1877278], [140.2865635, 36.1880355], [140.2864713, 36.1880484], [140.2864338, 36.1880539], [140.2863046, 36.1880728], [140.2862368, 36.1880823], [140.285375, 36.188209], [140.2850527, 36.1882475], [140.2849659, 36.1882641], [140.2849281, 36.1882714], [140.2848844, 36.1882824], [140.2848255, 36.1882982], [140.2847511, 36.1883212], [140.2846625, 36.1883652], [140.2844322, 36.1882629], [140.2844116, 36.1882538], [140.2830493, 36.1876566], [140.2827287, 36.187516], [140.2822159, 36.1872892], [140.2818528, 36.1871379], [140.2816939, 36.1870717], [140.2815522, 36.1870088], [140.2814719, 36.1869736], [140.2813867, 36.186936], [140.2811679, 36.186841], [140.2797893, 36.1862423], [140.2780579, 36.1854818], [140.2776372, 36.1853008], [140.2775523, 36.1852642], [140.2774813, 36.1852337], [140.277328, 36.1851684], [140.2768839, 36.1849738], [140.2759742, 36.1845863], [140.2757968, 36.1845097], [140.274862, 36.1840878], [140.2747796, 36.1840517], [140.2735895, 36.1835388], [140.2735405, 36.1835176], [140.2733985, 36.1834538], [140.2728739, 36.1832157], [140.2725538, 36.1830525], [140.2723227, 36.1829278], [140.2720858, 36.1827991], [140.2716958, 36.1825586], [140.2716795, 36.1825488], [140.27164, 36.182523], [140.2715228, 36.1824463], [140.2714663, 36.1824074], [140.2713305, 36.1823142], [140.2711696, 36.1822037], [140.271104, 36.1821587], [140.2707462, 36.181877], [140.2703107, 36.1815145], [140.2701168, 36.181342], [140.2699634, 36.1812056], [140.2699293, 36.1811753], [140.2697918, 36.181053], [140.2697047, 36.1811276], [140.2696676, 36.1811595], [140.2696304, 36.1811914], [140.2692572, 36.1815501], [140.2683145, 36.1824564], [140.2668012, 36.1839199], [140.2655655, 36.1851085], [140.2654536, 36.1852162], [140.2654117, 36.1852564], [140.2653185, 36.1853472], [140.2652198, 36.1854427], [140.2651786, 36.1854833], [140.2650492, 36.1856034], [140.2647344, 36.1859202], [140.264361, 36.1862554], [140.2641346, 36.1864488], [140.2638967, 36.1866409], [140.2635996, 36.1868639], [140.2633497, 36.1870371], [140.2632827, 36.1870776], [140.2630405, 36.1872285], [140.262743, 36.1874056], [140.2625645, 36.1875064], [140.2623932, 36.1876], [140.2623435, 36.187626], [140.2622106, 36.1876957], [140.261994, 36.1878023], [140.2618148, 36.1878904], [140.2613219, 36.18812], [140.2603581, 36.1885735], [140.2592943, 36.1890542], [140.2590101, 36.1891855], [140.2587914, 36.1892994], [140.2585408, 36.1894429], [140.2583241, 36.1895806], [140.2581194, 36.1897265], [140.2578779, 36.1899144], [140.2576467, 36.1901172], [140.2574812, 36.1902844], [140.2573031, 36.1904861], [140.2570904, 36.1907512], [140.2569488, 36.1909489], [140.2568963, 36.1910277], [140.2567634, 36.1912688], [140.2566896, 36.1914184], [140.256599, 36.1916139], [140.2565145, 36.1918154], [140.2564514, 36.1920346], [140.2563995, 36.1922297], [140.2563635, 36.1924153], [140.2563387, 36.1925706], [140.2563098, 36.1928623], [140.2562992, 36.193087], [140.2563065, 36.1932894], [140.2563323, 36.1935395], [140.2563787, 36.1938347], [140.2564917, 36.1942278], [140.25659, 36.1945021], [140.2570282, 36.1956926], [140.2576568, 36.1973726], [140.2587301, 36.2002468], [140.2589706, 36.2008929], [140.2591422, 36.2013534], [140.2592981, 36.2017738], [140.2595752, 36.202521], [140.2598291, 36.203202], [140.2598976, 36.2033847], [140.2599169, 36.2034437], [140.2599607, 36.2035778], [140.2600002, 36.2037274], [140.2600118, 36.2037817], [140.2600455, 36.2039606], [140.2602694, 36.2051502], [140.2602715, 36.2051613], [140.2602897, 36.2052566], [140.2602995, 36.2053065], [140.2605577, 36.2066475], [140.2605836, 36.2067796], [140.2606785, 36.2072681], [140.2608971, 36.2083308], [140.2610162, 36.2088101], [140.2613718, 36.2101188], [140.2613997, 36.2102272], [140.2615204, 36.2106898], [140.2619514, 36.2124154], [140.2620135, 36.2126564], [140.2620282, 36.2127132], [140.2620488, 36.2127934], [140.262076, 36.2128991], [140.2620964, 36.2129785], [140.2621558, 36.2131961], [140.2625415, 36.2146074], [140.2629353, 36.2160328], [140.2630014, 36.2162721], [140.2630144, 36.216319], [140.2630465, 36.2164352], [140.2630707, 36.2165262], [140.26309, 36.2165986], [140.2631436, 36.2167999], [140.2633279, 36.2174492], [140.2636648, 36.218672], [140.2641675, 36.2205219], [140.2645905, 36.2220788], [140.2647982, 36.2228207], [140.2648467, 36.2229991], [140.2651051, 36.223949], [140.2652489, 36.2244717], [140.2652853, 36.2246042], [140.265415, 36.2253312], [140.2654687, 36.2256284], [140.2655145, 36.2259944], [140.2655352, 36.2262551], [140.2655411, 36.226381], [140.2655443, 36.2264346], [140.2655507, 36.2265705], [140.2655541, 36.2267534], [140.2655747, 36.2281999], [140.2655787, 36.2292703], [140.2655798, 36.2295978], [140.2655823, 36.2299103], [140.2655842, 36.2299733], [140.265598, 36.230153], [140.2656133, 36.2302874], [140.2656403, 36.2305313], [140.265694, 36.2308147], [140.2657642, 36.2310984], [140.2658199, 36.2312915], [140.2658854, 36.231475], [140.2659549, 36.2316576], [140.266025, 36.2318416], [140.2660963, 36.2320211], [140.2661889, 36.2322248], [140.2664683, 36.232685], [140.2666737, 36.2329762], [140.2667821, 36.2331231], [140.2669904, 36.2333933], [140.2673796, 36.2338067], [140.2676913, 36.2341007], [140.2680652, 36.2344153], [140.2684021, 36.2346498], [140.2687389, 36.2348842], [140.2696749, 36.2355191], [140.2712735, 36.2366562], [140.2727785, 36.2377655], [140.2734231, 36.2382242], [140.2739178, 36.2386123], [140.2740933, 36.2387596], [140.2742668, 36.2389034], [140.2745756, 36.2391985], [140.2747368, 36.2393585], [140.2749255, 36.2395909], [140.2752953, 36.2400475], [140.2754362, 36.2402336], [140.2756509, 36.2405689], [140.2758901, 36.2409815], [140.2759567, 36.2410998], [140.2761532, 36.2414765], [140.2763779, 36.2419583], [140.2766306, 36.242536], [140.2769739, 36.2433106], [140.2770897, 36.2435716], [140.2771129, 36.2436215], [140.2771942, 36.2437966], [140.277262, 36.243942], [140.277892, 36.2452846], [140.2785422, 36.2467286], [140.278858, 36.2474304], [140.2789937, 36.247737], [140.2791113, 36.2480026], [140.2791323, 36.2480491], [140.2791937, 36.248185], [140.2791323, 36.2480491], [140.2791113, 36.2480026], [140.2789937, 36.247737], [140.278858, 36.2474304], [140.2785422, 36.2467286], [140.277892, 36.2452846], [140.277262, 36.243942], [140.2771942, 36.2437966]], [[140.2791937, 36.248185], [140.2792607, 36.2483274], [140.2795479, 36.2489379], [140.2797954, 36.2494815], [140.2800135, 36.2500111], [140.280081, 36.2501979], [140.2801475, 36.2504136], [140.280224, 36.2506782], [140.2802812, 36.2508548], [140.2803166, 36.2509935], [140.2803488, 36.2511886], [140.2803879, 36.2514176], [140.2804161, 36.2516259], [140.2804458, 36.2518516], [140.2804677, 36.2520916], [140.2804865, 36.2524029], [140.2804637, 36.2530319], [140.2804495, 36.2532613], [140.2804377, 36.2534487], [140.2804156, 36.2536326], [140.2803789, 36.2539116], [140.2802989, 36.2542623], [140.2802169, 36.2546574], [140.2801027, 36.2551774], [140.2800456, 36.255454], [140.2798925, 36.2561315], [140.2796709, 36.2571367], [140.2795536, 36.2576771], [140.2794335, 36.2582274], [140.2793127, 36.2587799], [140.2792672, 36.25905], [140.2792508, 36.2591514], [140.2792247, 36.2593354], [140.2792179, 36.2593952], [140.2791998, 36.2595634], [140.2792179, 36.2593952], [140.2792247, 36.2593354], [140.2792508, 36.2591514], [140.2792672, 36.25905], [140.2793127, 36.2587799], [140.2794335, 36.2582274], [140.2795536, 36.2576771], [140.2796709, 36.2571367], [140.2798925, 36.2561315], [140.2800456, 36.255454], [140.2801027, 36.2551774], [140.2802169, 36.2546574], [140.2802989, 36.2542623], [140.2803789, 36.2539116], [140.2804156, 36.2536326], [140.2804377, 36.2534487], [140.2804495, 36.2532613], [140.2804637, 36.2530319], [140.2804865, 36.2524029], [140.2804677, 36.2520916], [140.2804458, 36.2518516], [140.2804161, 36.2516259], [140.2803879, 36.2514176], [140.2803488, 36.2511886], [140.2803166, 36.2509935], [140.2802812, 36.2508548], [140.280224, 36.2506782], [140.2801475, 36.2504136], [140.280081, 36.2501979], [140.2800135, 36.2500111], [140.2797954, 36.2494815], [140.2795479, 36.2489379], [140.2792607, 36.2483274], [140.2791937, 36.248185]], [[140.2791998, 36.2595634], [140.2791817, 36.259753], [140.2791801, 36.2597797], [140.2791744, 36.2600195], [140.279164, 36.2603009], [140.2791731, 36.2605401], [140.2792135, 36.2609749], [140.2791731, 36.2605401], [140.279164, 36.2603009], [140.2791744, 36.2600195], [140.2791801, 36.2597797], [140.2791817, 36.259753], [140.2791998, 36.2595634]], [[140.2845388, 36.2703369], [140.2846715, 36.2706034], [140.2847736, 36.270823], [140.284884, 36.2710809], [140.285203, 36.2719408], [140.285501, 36.2728796], [140.2859714, 36.2741889], [140.2862981, 36.2753216], [140.2863643, 36.2755113], [140.286736, 36.2766405]], [[140.2843835, 36.2698631], [140.2842103, 36.2695243], [140.2840128, 36.2691483], [140.2838174, 36.2688176], [140.2836763, 36.2685988], [140.2828509, 36.2673706], [140.2814768, 36.2653088]], [[140.2868988, 36.2771133], [140.2869601, 36.2772959], [140.2873884, 36.2785639], [140.2873951, 36.2785853], [140.2874313, 36.27869], [140.2874415, 36.2787148], [140.2880234, 36.2804695], [140.2881422, 36.280797], [140.2884464, 36.2817006], [140.2884701, 36.2817699], [140.2888412, 36.2828542], [140.2889296, 36.2831241], [140.2889463, 36.2831737], [140.2889969, 36.283322], [140.2890476, 36.2834663], [140.2894608, 36.2846481], [140.2896121, 36.2851194], [140.2899048, 36.2859519], [140.2901198, 36.2865835], [140.2904344, 36.2875661], [140.2905225, 36.2878245], [140.2905402, 36.2878763], [140.2905969, 36.2880424], [140.2906471, 36.2881902], [140.2908121, 36.288701], [140.2910262, 36.2892637], [140.2911428, 36.2894803], [140.2911163, 36.2892785], [140.2910027, 36.2888456], [140.2908906, 36.2885277], [140.2908619, 36.2884462], [140.2907963, 36.2882603], [140.2907772, 36.288204], [140.2907282, 36.2880583], [140.2906672, 36.2878886], [140.2902459, 36.2866648], [140.2899897, 36.2859034], [140.2895582, 36.2846086], [140.2892737, 36.2837654], [140.2891806, 36.2834894], [140.2891598, 36.2834276], [140.2891119, 36.2832858], [140.2890607, 36.2831366], [140.2886623, 36.2820165], [140.2885763, 36.2817584], [140.2885061, 36.2815684], [140.2882548, 36.2808121], [140.2882041, 36.2806717], [140.288099, 36.2803691], [140.2879813, 36.2800137], [140.287533, 36.2786921], [140.2875237, 36.2786671], [140.2874878, 36.2785698], [140.287481, 36.2785494], [140.2874593, 36.278477], [140.2871846, 36.2776225], [140.2870787, 36.2772919], [140.2870196, 36.277109], [140.2869627, 36.2769554], [140.2868555, 36.2766663], [140.2865953, 36.2758738], [140.2864484, 36.2754607], [140.2864055, 36.2753403], [140.2860477, 36.2741748], [140.2856189, 36.2728445], [140.2853097, 36.2719358], [140.2850791, 36.2713293], [140.2848457, 36.2707948], [140.2846897, 36.2704383], [140.2843835, 36.2698631]], [[140.2845388, 36.2703369], [140.2846715, 36.2706034], [140.2847736, 36.270823], [140.284884, 36.2710809], [140.285203, 36.2719408], [140.285501, 36.2728796], [140.2859714, 36.2741889], [140.2862981, 36.2753216], [140.2863643, 36.2755113], [140.286736, 36.2766405], [140.2868459, 36.2769593], [140.2868988, 36.2771133]], [[140.2814768, 36.2653088], [140.280819, 36.2643177], [140.2806422, 36.2640342], [140.280356, 36.2635919], [140.2801271, 36.2632297], [140.280045, 36.2630841], [140.2799602, 36.2629396], [140.2798335, 36.2627071], [140.2797466, 36.2625162], [140.2796524, 36.2622648], [140.2795611, 36.2619944], [140.2795035, 36.2617735], [140.2794497, 36.2615002], [140.2793943, 36.2612482], [140.2793501, 36.2609872], [140.279295, 36.2605374], [140.2792793, 36.2602966], [140.2792721, 36.2601151], [140.2792721, 36.2600309], [140.2792838, 36.2598071], [140.2792906, 36.2597378], [140.2793147, 36.2595379], [140.2793396, 36.2593747], [140.2793518, 36.2592909], [140.2795602, 36.2582189], [140.279592, 36.2580444], [140.2797186, 36.2574215], [140.2798023, 36.2570616], [140.2799912, 36.2562587], [140.2800233, 36.2561194], [140.2800984, 36.2557413], [140.2801679, 36.2554038], [140.2802272, 36.2551063], [140.280313, 36.2546755], [140.2804139, 36.2542584], [140.280534, 36.2536346], [140.2805598, 36.2533915], [140.280563, 36.2531632], [140.2805641, 36.2530887], [140.2805834, 36.2525973], [140.2805748, 36.252208], [140.2805383, 36.2518048], [140.2804847, 36.2514085], [140.2804074, 36.2510659], [140.2803087, 36.2506298], [140.2802572, 36.2504429], [140.2802462, 36.2503953], [140.2801414, 36.2501038], [140.2799954, 36.2497127], [140.2798929, 36.2494606], [140.2796626, 36.2489174], [140.2795134, 36.2485998], [140.2793898, 36.2483369], [140.2793705, 36.2482959], [140.279305, 36.2481564], [140.2792813, 36.2481043], [140.2792414, 36.2480169], [140.278747, 36.2469346], [140.2786352, 36.2467069], [140.2783691, 36.2461475], [140.2779767, 36.2452542], [140.2778412, 36.2449552], [140.277514, 36.244211], [140.2773933, 36.2439527], [140.2773697, 36.2439061], [140.2772961, 36.2437467], [140.2772242, 36.2435884], [140.2770194, 36.2431294], [140.2767187, 36.2424853], [140.2763864, 36.2417744], [140.2761654, 36.241288], [140.2760428, 36.2410739], [140.2759594, 36.2409281], [140.2757105, 36.2405075], [140.2755109, 36.2402116], [140.2753724, 36.2400213], [140.2752577, 36.2398637], [140.2749594, 36.2394899], [140.274629, 36.2391334], [140.2742836, 36.2388098], [140.2740164, 36.2385744], [140.2737299, 36.2383546], [140.2734869, 36.2381629], [140.2732139, 36.2379643], [140.2726463, 36.2375636], [140.2722515, 36.2372781], [140.2713824, 36.2366256], [140.2706786, 36.2361219], [140.2699834, 36.2356321], [140.2697691, 36.2354901], [140.2695831, 36.2353716], [140.2691212, 36.235053], [140.268763, 36.2348021], [140.268505, 36.2346092], [140.2681209, 36.2343358], [140.267857, 36.2341281], [140.2677264, 36.2340104], [140.2674615, 36.2337679], [140.2673273, 36.23364], [140.2670784, 36.2333648], [140.2667995, 36.2329944], [140.2665162, 36.2325911], [140.2663746, 36.2323678], [140.2662759, 36.2322051], [140.2661579, 36.2319334], [140.2660692, 36.2317091], [140.265983, 36.2314956], [140.2659032, 36.2311868], [140.265811, 36.2308227], [140.2657771, 36.2306493], [140.2657564, 36.2305192], [140.265735, 36.2303378], [140.2657286, 36.2302826], [140.2657154, 36.23015], [140.2657041, 36.2299722], [140.2656743, 36.2288523], [140.2656722, 36.2287009], [140.2656742, 36.2270914], [140.2656691, 36.2268076], [140.2656681, 36.2267468], [140.2656675, 36.2265904], [140.2656621, 36.2264302], [140.2656564, 36.2262645], [140.265628, 36.2259592], [140.2655759, 36.2256327], [140.265512, 36.2253288], [140.2652853, 36.2246042]], [[140.2911428, 36.2894803], [140.2914887, 36.2904729], [140.2915059, 36.2905222], [140.2915241, 36.2905744], [140.2915464, 36.2906392], [140.2917397, 36.2912015], [140.2918349, 36.2914298], [140.2919367, 36.2916439], [140.2919792, 36.2917324], [140.2920598, 36.2919004], [140.2921352, 36.2920516], [140.2921618, 36.2921049], [140.2922021, 36.2921855], [140.2922661, 36.2923023], [140.2922862, 36.2923389], [140.2923377, 36.2924244], [140.2924391, 36.2925832], [140.2924643, 36.2926226], [140.2926141, 36.2928446], [140.2928191, 36.2931335], [140.2930958, 36.2934723], [140.2932684, 36.2936686], [140.2936375, 36.2940588], [140.2937105, 36.2941347], [140.2944902, 36.2949077], [140.2953265, 36.2957263], [140.2963656, 36.2967618], [140.2966016, 36.2969884], [140.2970598, 36.2974328], [140.2978917, 36.298257], [140.2989018, 36.2992593], [140.2989853, 36.2993472], [140.2990525, 36.2994317], [140.2991305, 36.2995318], [140.2991963, 36.299627], [140.2992933, 36.2997914], [140.2993541, 36.2999104], [140.299415, 36.3000622], [140.2994793, 36.3002344], [140.2995254, 36.3004196], [140.2995488, 36.3005693], [140.2995615, 36.3007071], [140.2995676, 36.3008361], [140.2995676, 36.3009309], [140.2995498, 36.3011254], [140.2995409, 36.3012036], [140.2995244, 36.3013484], [140.299503, 36.3014815], [140.2994913, 36.3015605], [140.2994467, 36.3018463], [140.2993168, 36.3026791], [140.2992818, 36.3029265], [140.2992326, 36.3032559], [140.2991775, 36.3036046], [140.2991411, 36.303834], [140.2990916, 36.3040784], [140.2989708, 36.3044875], [140.298861, 36.3047565], [140.2987663, 36.3049689], [140.2985265, 36.3054079], [140.298383, 36.30563], [140.2982099, 36.3058647], [140.2979411, 36.3061973], [140.2976791, 36.3064718], [140.2974388, 36.3066984], [140.2971903, 36.3069006], [140.2962269, 36.3076643], [140.295384, 36.3083466], [140.2948731, 36.308732], [140.294493, 36.3089751], [140.2942621, 36.309133], [140.2940258, 36.3092737], [140.2933259, 36.3096382], [140.2929462, 36.3098168], [140.2923497, 36.3100585], [140.2916442, 36.3103125], [140.2890334, 36.3112249], [140.2887869, 36.3113056], [140.2860624, 36.3122579], [140.2858575, 36.3123244], [140.2856228, 36.3124003], [140.2854064, 36.3124845], [140.2852264, 36.3125654], [140.2850191, 36.3126759], [140.2848312, 36.3127944], [140.2846626, 36.3129162], [140.2845066, 36.3130438], [140.2843585, 36.3131862], [140.2842355, 36.3133149], [140.2841626, 36.3134049], [140.2840943, 36.313496], [140.2839986, 36.3136372], [140.283928, 36.3137591], [140.2838585, 36.3138821], [140.2838004, 36.3140154], [140.283752, 36.314135], [140.2837093, 36.3142711], [140.2836808, 36.3143958], [140.2836512, 36.3145587], [140.2836469, 36.3146044], [140.2836364, 36.314717], [140.2836347, 36.3147654], [140.2836341, 36.3148258], [140.2836393, 36.3150076], [140.2836404, 36.3150462], [140.2836529, 36.3152016], [140.2836614, 36.3152628], [140.2836699, 36.3153239], [140.2837104, 36.3154926], [140.283756, 36.3156282], [140.283802, 36.3157515], [140.2843881, 36.3170371], [140.2848027, 36.317954], [140.2849978, 36.3183566], [140.2852, 36.3187616], [140.2852902, 36.3189549], [140.2853342, 36.3190448], [140.2853741, 36.3191515], [140.2853906, 36.3191997], [140.2854007, 36.3192274], [140.2854528, 36.3193862], [140.2855228, 36.3196798], [140.2855476, 36.3198459], [140.2855641, 36.3200006], [140.285575, 36.3201295], [140.2855772, 36.3202673], [140.2855659, 36.3204359], [140.2855499, 36.3205885], [140.2855226, 36.3207753], [140.2854907, 36.3209234], [140.2853632, 36.321507], [140.285311, 36.3217607], [140.28501, 36.3232219], [140.2848769, 36.3238901], [140.2846566, 36.3249298], [140.2846476, 36.3249784], [140.2844371, 36.3259885], [140.2843323, 36.3265159], [140.2842833, 36.3268143], [140.2842606, 36.3270034], [140.2842426, 36.3271791], [140.2842304, 36.32734], [140.2842184, 36.3276572], [140.284215, 36.3280535], [140.2842173, 36.3285615], [140.2842184, 36.3294887], [140.2842184, 36.3298087], [140.2842161, 36.3304227], [140.2842025, 36.3306482], [140.2841877, 36.3308361], [140.284166, 36.3310491], [140.2841371, 36.3312903], [140.2840829, 36.3315469], [140.28401, 36.3318681], [140.2839109, 36.3322451], [140.2838118, 36.3325412], [140.2836444, 36.3330036], [140.2835043, 36.3333328], [140.2833494, 36.3336449], [140.2823887, 36.3354171], [140.2818379, 36.336405], [140.2815019, 36.3369484], [140.2813243, 36.3372332], [140.2813017, 36.3372695], [140.2810139, 36.3377311], [140.2804911, 36.3385773], [140.2802281, 36.3389944], [140.2799536, 36.3394389], [140.2799074, 36.3395095], [140.2798787, 36.3395534], [140.2798183, 36.3396459], [140.2797688, 36.3397279], [140.2797381, 36.3397786], [140.2795622, 36.34007], [140.2792268, 36.3406123], [140.2792061, 36.3406478], [140.2791378, 36.3407652], [140.2790416, 36.3409549], [140.278985, 36.3411022], [140.2789441, 36.3412416], [140.2789203, 36.3413389], [140.2788905, 36.3414883], [140.2788723, 36.3416444], [140.2788587, 36.3418068], [140.2788582, 36.3419416], [140.2788683, 36.3421025], [140.2788813, 36.3422193], [140.2788998, 36.3423359], [140.2789142, 36.342411], [140.2789286, 36.3424698], [140.2789473, 36.3425394], [140.278963, 36.3425868], [140.2790407, 36.3427733], [140.2790971, 36.3429108], [140.2791156, 36.3429574], [140.2793231, 36.3434811], [140.2794462, 36.3437944], [140.2795411, 36.3440257], [140.2795807, 36.344124], [140.2797342, 36.3445053], [140.2798207, 36.3447308], [140.2798868, 36.3449267], [140.2799415, 36.3451408], [140.2799802, 36.3453333], [140.2800098, 36.3455361], [140.280028, 36.3457194], [140.2800349, 36.3458914], [140.2800337, 36.3460873], [140.2800269, 36.3462536], [140.2800064, 36.3464393], [140.2799668, 36.3466988], [140.2798127, 36.3473065], [140.2794357, 36.3487742], [140.2790263, 36.3503556], [140.2788276, 36.3511011], [140.2787968, 36.3512157], [140.278766, 36.3513085], [140.2787205, 36.351427], [140.2786789, 36.3515261], [140.2786191, 36.351632], [140.2785644, 36.3517208], [140.2785029, 36.3518131], [140.2784505, 36.351886], [140.2783759, 36.351976], [140.2782956, 36.3520603], [140.2782165, 36.3521411], [140.278123, 36.3522248], [140.2780354, 36.3522937], [140.2779496, 36.3523571], [140.2777654, 36.3524743], [140.2775515, 36.3525948], [140.2772797, 36.3527478], [140.2770791, 36.3528608], [140.2769768, 36.3529177], [140.2769307, 36.3529434], [140.2767195, 36.353061], [140.2766429, 36.3531036], [140.2764003, 36.353263], [140.2762329, 36.3533781], [140.2760848, 36.3535034], [140.2758684, 36.3536924], [140.2746031, 36.3548671], [140.2743763, 36.3550776], [140.2743406, 36.355111], [140.2742378, 36.3552071], [140.2741301, 36.3553057], [140.2740967, 36.3553362], [140.2738719, 36.3555419], [140.2736649, 36.3557314], [140.2729954, 36.3563468], [140.2729594, 36.3563799], [140.2723793, 36.3569052], [140.2720891, 36.3571681], [140.2711833, 36.358007], [140.2709921, 36.3582138], [140.2709052, 36.3583365], [140.2708223, 36.3584641], [140.2706951, 36.3587041], [140.2705742, 36.3589903], [140.2704619, 36.3592616], [140.2704217, 36.359392], [140.2703443, 36.3595754], [140.2702884, 36.3596927], [140.2701928, 36.3598692], [140.270072, 36.3600731], [140.2698511, 36.3604034], [140.2689057, 36.3618067], [140.2686221, 36.3622304], [140.268548, 36.362342], [140.2684296, 36.3624924], [140.2682994, 36.3626411], [140.2681551, 36.3627965], [140.2680218, 36.3629286], [140.2678555, 36.3630687], [140.2676865, 36.3632076], [140.2674626, 36.3633705], [140.2673122, 36.3634708], [140.2671585, 36.363563], [140.267048, 36.3636222], [140.2667642, 36.3637597], [140.2665633, 36.363853], [140.2663156, 36.3639503], [140.2644611, 36.3646029], [140.2641128, 36.3647271], [140.2638152, 36.3648323], [140.2633764, 36.3649855], [140.2627302, 36.3652112], [140.2626599, 36.3652358], [140.2624954, 36.3652932], [140.2625432, 36.3653831], [140.2625615, 36.3654207], [140.262574, 36.3654811], [140.2625763, 36.3655358], [140.2625751, 36.3655961], [140.2625626, 36.3656554], [140.2625455, 36.3656964], [140.2625227, 36.3657499], [140.262476, 36.3658125], [140.2624248, 36.3658712], [140.2623582, 36.365939], [140.2618369, 36.3664448], [140.2616972, 36.3665813], [140.2616263, 36.3666505], [140.2615892, 36.3666867], [140.2614772, 36.3667961], [140.2613693, 36.3669064], [140.2613339, 36.3669426], [140.2611328, 36.3671482], [140.2609304, 36.3673354], [140.2605396, 36.3677188], [140.2600111, 36.3682416], [140.259747, 36.3684938], [140.2595932, 36.3686327], [140.2594567, 36.3687427], [140.2587378, 36.3693309], [140.2584798, 36.3695377], [140.2581496, 36.3697876], [140.2580711, 36.3698377], [140.2579343, 36.3699251], [140.25764, 36.3700646], [140.2576231, 36.3700701], [140.257444, 36.3701281], [140.2572782, 36.3701677], [140.2569278, 36.3702472], [140.2562756, 36.3703777], [140.2559567, 36.3704653], [140.2557225, 36.3705387], [140.2555238, 36.3706082], [140.255359, 36.3706732], [140.2551591, 36.3707604], [140.2549799, 36.3708415], [140.2546674, 36.371005], [140.25453, 36.3710947], [140.2544199, 36.3711663], [140.2541272, 36.3713823], [140.2538417, 36.371598], [140.2532889, 36.3720209], [140.2531562, 36.3721172], [140.2530127, 36.372244], [140.2529258, 36.3723459], [140.2528904, 36.3723962], [140.2528572, 36.372443], [140.252829, 36.3724889], [140.2527968, 36.3725879], [140.2527769, 36.3726762], [140.2527672, 36.3727365], [140.2527615, 36.3728151], [140.2527604, 36.3728812], [140.2527752, 36.3729803], [140.2528481, 36.3734231], [140.2528562, 36.3734721], [140.2528737, 36.3735783], [140.2528253, 36.3735956], [140.2527107, 36.3736365], [140.2522771, 36.3737912], [140.2517424, 36.3740034], [140.2509259, 36.3743241], [140.2505045, 36.3744872], [140.2499424, 36.3747048], [140.2485941, 36.3752388], [140.2476616, 36.3756072], [140.2475271, 36.3756588], [140.2473843, 36.3757132], [140.2467986, 36.3759365], [140.2465278, 36.3760471], [140.2462111, 36.3761765], [140.246151, 36.376201], [140.2460013, 36.3762622], [140.2460437, 36.3763951], [140.2460682, 36.3764498], [140.2461508, 36.3766267], [140.2462281, 36.3767664], [140.2466224, 36.3774255], [140.2470395, 36.3781355], [140.2473532, 36.3786707], [140.2480461, 36.3798355], [140.2481673, 36.3800391], [140.2485, 36.3806069], [140.2486886, 36.3809287], [140.2487166, 36.3809765], [140.2487923, 36.3811057], [140.2488642, 36.3812291], [140.248891, 36.3812752], [140.2489951, 36.3814541], [140.2493112, 36.381997], [140.2501812, 36.3834567], [140.2502332, 36.383549], [140.2502653, 36.3836031], [140.2506162, 36.3841938], [140.250798, 36.3845099], [140.2509812, 36.3848234], [140.2511231, 36.3850639], [140.2511618, 36.3851293], [140.2512354, 36.3852541], [140.2512972, 36.3853746], [140.2513212, 36.3854215], [140.2514406, 36.3856543], [140.2519715, 36.3866872], [140.2522953, 36.3873305], [140.2524535, 36.3876447], [140.2524976, 36.3877312], [140.2531886, 36.3890868], [140.2532287, 36.3891653], [140.2533396, 36.3894038], [140.2533579, 36.3894514], [140.2534146, 36.389599], [140.2534661, 36.389728], [140.2534825, 36.3897691], [140.2535584, 36.3899647], [140.2535991, 36.3900761], [140.2537399, 36.3904616], [140.2538305, 36.3907294], [140.2540389, 36.3913055], [140.2542364, 36.3918446], [140.2545566, 36.3927184], [140.2546225, 36.3929161], [140.2546918, 36.3930991], [140.2547105, 36.3931862], [140.2547255, 36.3932677], [140.2547373, 36.39337], [140.2547571, 36.3935443], [140.254766, 36.3936091], [140.2547753, 36.3937283], [140.254785, 36.3938287]]]}, "id": "relation/13970524"}, {"type": "Feature", "properties": {"@id": "relation/15435077", "description": "宍戸パイパスの旧道区間", "name": "国道355号旧道", "network": "JP:national", "ref": "355", "route": "road", "type": "route"}, "geometry": {"type": "MultiLineString", "coordinates": [[[140.2853342, 36.3190448], [140.2853665, 36.3190384], [140.2854309, 36.3190466], [140.2854611, 36.3190595], [140.2854999, 36.3190847], [140.2855387, 36.3191099], [140.2856328, 36.3192108], [140.2857118, 36.3192921], [140.2857569, 36.3193384], [140.2866797, 36.3204833], [140.2872368, 36.3211561], [140.2876686, 36.3216982], [140.2879917, 36.3221492], [140.2880738, 36.3222596], [140.2882627, 36.3225743], [140.2883805, 36.3227758], [140.2884422, 36.3228814], [140.2886342, 36.3232196], [140.2888377, 36.3236123], [140.2892353, 36.324393], [140.2897688, 36.3254714], [140.2898391, 36.3256327], [140.2898707, 36.3257328], [140.2898854, 36.3258123], [140.2898868, 36.3259079], [140.2898647, 36.3260692], [140.2897459, 36.3264826], [140.2894785, 36.327413], [140.2894173, 36.3276574], [140.2893986, 36.3277663], [140.2893906, 36.32787], [140.2893959, 36.3279586], [140.2894138, 36.3280676], [140.2896674, 36.3291905], [140.2899992, 36.3306252], [140.290064, 36.3309312], [140.2900833, 36.3310044], [140.2901771, 36.3313912], [140.2902112, 36.3315295], [140.2906887, 36.3335168], [140.2907103, 36.3336121], [140.2908715, 36.3342804], [140.2909295, 36.334521], [140.2910454, 36.3349649], [140.2910699, 36.3350581], [140.2910804, 36.3350979], [140.2910964, 36.3351383], [140.2911114, 36.3351661], [140.2910439, 36.3352175], [140.2904854, 36.3355888], [140.2901389, 36.3358185], [140.2899022, 36.3359752], [140.2897735, 36.3360692], [140.2896415, 36.3361743], [140.2892054, 36.3365488], [140.2880818, 36.3375148], [140.2873651, 36.3381292], [140.2873203, 36.3381676], [140.2872375, 36.3382386], [140.2872617, 36.338303], [140.2873381, 36.3385061], [140.2876237, 36.3392657], [140.2877495, 36.3396282], [140.2878302, 36.3398823], [140.2878563, 36.3399507], [140.2879097, 36.3400902]]]}, "id": "relation/15435077"}, {"type": "Feature", "properties": {"@id": "relation/15435078", "description": "石岡岩間バイパスおよぼ岩間バイパスの旧道区間", "name": "国道355号", "network": "JP:national", "ref": "355", "route": "road", "type": "route"}, "geometry": {"type": "MultiLineString", "coordinates": [[[140.2836341, 36.3148258], [140.2835293, 36.3148206], [140.2834962, 36.3148161], [140.2834515, 36.3148027], [140.2833727, 36.3147658], [140.2833164, 36.3147118], [140.2832833, 36.3146464], [140.2831351, 36.3143172], [140.2828393, 36.3136868], [140.2826633, 36.3133018], [140.281703, 36.3112348], [140.281634, 36.311083], [140.2811993, 36.3100678], [140.2808549, 36.3092862], [140.2806748, 36.308875], [140.2806385, 36.3087914], [140.2805916, 36.3087002], [140.2803612, 36.3083348], [140.2801681, 36.3080721], [140.2800838, 36.3079604], [140.2796555, 36.3074274], [140.2792934, 36.3069778], [140.2789929, 36.3065757], [140.2786683, 36.306164], [140.2782096, 36.305578], [140.2781622, 36.3055172], [140.2774223, 36.3045695], [140.2773459, 36.3044719], [140.2770114, 36.3040473], [140.27698, 36.3040075], [140.276918, 36.3039288], [140.2768568, 36.3038506], [140.2768253, 36.3038103], [140.2764778, 36.3033662], [140.275742, 36.3024306], [140.2756782, 36.3023497], [140.2750421, 36.301548], [140.2738609, 36.3000307], [140.2736998, 36.2998116], [140.2736428, 36.2997317], [140.2735699, 36.2996178], [140.2734492, 36.2993991], [140.2734332, 36.2993678], [140.2730704, 36.2987072], [140.2728734, 36.2983484], [140.2726877, 36.2979976], [140.2724177, 36.2975136], [140.2720767, 36.2969178], [140.2717538, 36.2963506], [140.2715698, 36.2960009], [140.271391, 36.2956961], [140.2712532, 36.2954944], [140.2712242, 36.2954519], [140.271178, 36.2953842], [140.2711376, 36.295326], [140.2710971, 36.2952677], [140.2710458, 36.2951938], [140.2709886, 36.2950993], [140.2709792, 36.2950694], [140.2709751, 36.2950384], [140.2709806, 36.294997], [140.270994, 36.2949577], [140.2710251, 36.2948898], [140.2710849, 36.2948118], [140.271728, 36.2941409], [140.2721205, 36.2937193], [140.272355, 36.2934507], [140.2725795, 36.2931415], [140.2726712, 36.2930116], [140.2727532, 36.2928926], [140.272987, 36.2925374], [140.2735915, 36.2916192], [140.2737937, 36.2913168], [140.2739469, 36.2910827], [140.2741366, 36.2907575], [140.2743268, 36.2904398], [140.2747004, 36.2898219], [140.2748145, 36.2896323], [140.2748901, 36.2895066], [140.2749162, 36.2894568], [140.2749556, 36.2893826], [140.2749932, 36.2892918], [140.2750194, 36.2892004], [140.2750294, 36.2890788], [140.2750317, 36.2889774], [140.2749686, 36.2868257], [140.2749659, 36.2866726], [140.2749524, 36.2857596], [140.2749434, 36.2850189], [140.2749424, 36.2849189], [140.2749368, 36.2844172], [140.2749375, 36.2841459], [140.2749376, 36.2840991], [140.2749379, 36.283969], [140.2749351, 36.2838235], [140.2749343, 36.2837854], [140.274929, 36.2835109], [140.2749235, 36.283225], [140.2749234, 36.283197], [140.2749238, 36.2830889], [140.2749221, 36.2826674], [140.2748982, 36.2810672], [140.2749025, 36.2807383], [140.2748929, 36.2805296], [140.2748732, 36.2803259], [140.2748572, 36.2801761], [140.2748339, 36.2800515], [140.2748068, 36.2799266], [140.2747451, 36.2797191], [140.2744221, 36.2791255], [140.2742552, 36.2788532], [140.2728441, 36.2764939], [140.2725728, 36.2760288], [140.2725423, 36.275975], [140.2717099, 36.2745592], [140.271506, 36.2742321], [140.2712421, 36.273803], [140.2710362, 36.2734641], [140.2704263, 36.2725005], [140.2703272, 36.2723353], [140.2700293, 36.2718313], [140.2697115, 36.2713], [140.2696534, 36.2712009], [140.2692285, 36.27048], [140.2686265, 36.2693959], [140.2681169, 36.2684747], [140.2680885, 36.2684217], [140.2680583, 36.26835], [140.2680252, 36.2682685], [140.2680036, 36.2681922], [140.2679899, 36.2681108], [140.2679837, 36.2680463]]]}, "id": "relation/15435078"}, {"type": "Feature", "properties": {"@id": "relation/15435084", "description": "石岡道路の旧道区間", "name": "国道355号", "name:en": "National Highway Route 355", "name:ja": "国道355号", "network": "JP:national", "route": "road", "type": "route", "wikidata": "Q11421446", "wikipedia": "ja:国道355号"}, "geometry": {"type": "MultiLineString", "coordinates": [[[140.271104, 36.1821587], [140.2712771, 36.1823699], [140.2713169, 36.1824038], [140.2713758, 36.1824618], [140.2714801, 36.1825403], [140.2715281, 36.1825796], [140.2715923, 36.1826329], [140.2716363, 36.1826716], [140.2720492, 36.1830199], [140.2729415, 36.1838052], [140.2729858, 36.1838433], [140.2730767, 36.1839218], [140.2731589, 36.1839985], [140.2731894, 36.1840298], [140.2732454, 36.1840873], [140.2733085, 36.1841474], [140.2733624, 36.1842013], [140.2734376, 36.1842862], [140.273543, 36.1844228], [140.2736158, 36.1845289], [140.273693, 36.1846488], [140.2737647, 36.1847783], [140.2738047, 36.1848718], [140.2738598, 36.1849947], [140.273928, 36.1851792], [140.2739706, 36.1853432], [140.2740053, 36.18555], [140.2740096, 36.1855759], [140.274036, 36.1858203], [140.2740524, 36.18608], [140.2740559, 36.1861289], [140.2740642, 36.1862428], [140.2740691, 36.1863506], [140.2740713, 36.1863969], [140.2741038, 36.1869831], [140.2741121, 36.1871487], [140.2741141, 36.1871905], [140.274141, 36.1877413], [140.2741423, 36.1877683], [140.2741445, 36.1878619], [140.274146, 36.1879207], [140.2741461, 36.1879696], [140.2741461, 36.188017], [140.2741471, 36.1885159], [140.2741477, 36.1890298], [140.2741478, 36.1890711], [140.2741482, 36.1890989], [140.274149, 36.1891732], [140.2741497, 36.1892585], [140.2741501, 36.1893042], [140.2741558, 36.1900202], [140.2741549, 36.1903045], [140.2741547, 36.190379], [140.2741539, 36.1906325], [140.2741538, 36.1906843], [140.2741534, 36.1907954], [140.2741534, 36.1909133], [140.2741533, 36.1909604], [140.2741528, 36.1919777], [140.2741548, 36.1922854], [140.2741554, 36.1923909], [140.2741557, 36.1924811], [140.2741574, 36.1930508], [140.2741584, 36.1932644], [140.2741588, 36.1933566], [140.2741592, 36.1934489], [140.2741624, 36.1936061], [140.2741637, 36.193668], [140.2741654, 36.1937533], [140.2741813, 36.1939629], [140.2741868, 36.194035], [140.2742193, 36.1942658], [140.2742931, 36.1947144], [140.274353, 36.1951041], [140.2744447, 36.1957027], [140.2745058, 36.1960791], [140.2745633, 36.1964285], [140.274602, 36.1966364], [140.2746292, 36.1967632], [140.2746557, 36.1968709], [140.274689, 36.1970096], [140.2748298, 36.197727], [140.2749037, 36.1980879], [140.2749697, 36.1983715], [140.2750198, 36.1985651], [140.2750893, 36.1987633], [140.2751907, 36.1989695], [140.2752738, 36.1991073], [140.2754145, 36.1993145], [140.2754373, 36.1993419], [140.2755483, 36.1994649], [140.2756554, 36.199576], [140.2758433, 36.1997525], [140.2759902, 36.1998797], [140.2764047, 36.2002156], [140.2769937, 36.200682], [140.2770609, 36.2007396], [140.2772498, 36.2008987], [140.2773599, 36.201006], [140.2774471, 36.2011], [140.2775632, 36.2012412], [140.2776555, 36.2013557], [140.2777426, 36.2014815], [140.2777967, 36.2015664], [140.2778446, 36.2016592], [140.2779095, 36.2017908], [140.2779596, 36.2019178], [140.2780035, 36.2020374], [140.2781413, 36.2024708], [140.2783229, 36.2030329], [140.2783571, 36.2031388], [140.2783772, 36.2032015], [140.2784212, 36.2033391], [140.2787451, 36.2043507], [140.2790251, 36.2052009], [140.2790952, 36.2054105], [140.2793127, 36.2060837], [140.2798344, 36.2077113], [140.2799107, 36.2079676], [140.2805332, 36.2100804], [140.2806454, 36.2104711], [140.2807331, 36.2108206], [140.2808134, 36.2111734], [140.2808362, 36.2112734], [140.2808611, 36.211383], [140.2809096, 36.211614], [140.2809178, 36.211654], [140.2809379, 36.2117516], [140.2810611, 36.2123493], [140.2810839, 36.2124544], [140.28119, 36.2129448], [140.2812293, 36.2131265], [140.2814108, 36.213933], [140.2814871, 36.2142321], [140.28159, 36.2146031], [140.2816454, 36.2147902], [140.2817178, 36.2149952], [140.2818665, 36.2154], [140.2818795, 36.2154352], [140.2820236, 36.21578], [140.2820691, 36.2158757], [140.2821386, 36.2160237], [140.2822276, 36.2162035], [140.2824256, 36.2166012], [140.2825405, 36.2168413], [140.2826022, 36.217009], [140.2826659, 36.2172024], [140.2827539, 36.2175595], [140.2828083, 36.2178154], [140.2828146, 36.2178564], [140.2828164, 36.2178997], [140.2828038, 36.2179462], [140.2827523, 36.2179918], [140.2826826, 36.2180169], [140.2823003, 36.2181275], [140.2821306, 36.2181799], [140.2819689, 36.2182368], [140.2818163, 36.2182979], [140.2812964, 36.218544], [140.2809883, 36.2186776], [140.2809262, 36.2187045], [140.2807482, 36.2187817], [140.2808518, 36.2188446], [140.2809554, 36.2189075], [140.2814541, 36.2192103], [140.2821518, 36.2196398], [140.282401, 36.219811], [140.2824497, 36.2198445], [140.2825668, 36.2199359], [140.2826152, 36.2199736], [140.2827356, 36.2200677]]]}, "id": "relation/15435084"}]}