{"type": "FeatureCollection", "generator": "kokudo-quiz tools/fetch_raw.py (Overpass API)", "copyright": "The data included in this document is from www.openstreetmap.org. The data is made available under ODbL.", "timestamp": "2026-09-30T23:38:19Z", "features": [{"type": "Feature", "properties": {"@id": "relation/8250033", "colour": "red", "from": "富山県富山市", "name": "国道359号", "name:en": "National Highway Route 359", "name:ja": "国道359号", "name:ja-Hira": "こくどうさんびゃくごじゅうきゅうごう", "name:ja-Latn": "kokudou 359 gou", "name:ko": "국도 359호선", "network": "JP:national", "ref": "359", "route": "road", "to": "石川県金沢市", "type": "route", "wikidata": "Q6157333", "wikipedia": "ja:国道359号"}, "geometry": {"type": "MultiLineString", "coordinates": [[[137.2101653, 36.6667086], [137.2100496, 36.6667145], [137.2098988, 36.6667284], [137.209733, 36.6667437], [137.2092171, 36.6667515], [137.2086382, 36.6667601], [137.2081492, 36.6667657], [137.2076239, 36.6667732], [137.2070277, 36.6667777], [137.206776, 36.6667843], [137.2065986, 36.666789], [137.2064382, 36.666789], [137.2058693, 36.6667891], [137.2048701, 36.6668106], [137.2040554, 36.6668234], [137.2039194, 36.6668255], [137.2032417, 36.666836], [137.2028863, 36.6668402], [137.2020993, 36.6668632], [137.2016861, 36.6668703], [137.2016185, 36.6668715], [137.2014924, 36.6668758], [137.2012993, 36.6668758], [137.2010444, 36.6668759], [137.2007535, 36.6668759], [137.2000849, 36.666876], [137.1995887, 36.6668761], [137.1991583, 36.6668757], [137.1982699, 36.6668654], [137.1955439, 36.6668556], [137.194646, 36.666865], [137.1941277, 36.6668743], [137.1930519, 36.6669039], [137.1869698, 36.6671096], [137.1859428, 36.6671084], [137.1857969, 36.6671078], [137.1856978, 36.6671072], [137.1855645, 36.6671024], [137.1849627, 36.6670805], [137.184332, 36.6670678], [137.1835923, 36.6670195], [137.182956, 36.6669623], [137.1828588, 36.6669536], [137.1827768, 36.6669357], [137.1823196, 36.666836], [137.1817301, 36.6666916], [137.1812302, 36.6665186], [137.1810263, 36.6664248], [137.1807917, 36.6663169], [137.180612, 36.6662152], [137.1797443, 36.6657244], [137.1787986, 36.6651962], [137.178448, 36.6650039], [137.1777475, 36.6646209], [137.1776433, 36.6645639], [137.1775225, 36.664489], [137.1764861, 36.6638465], [137.1758397, 36.6634608], [137.1747275, 36.6627818], [137.1737137, 36.6621685], [137.1735947, 36.6620965], [137.1734597, 36.6620181], [137.1731557, 36.6618415], [137.1721346, 36.6612174], [137.171436, 36.6607995], [137.1713448, 36.6607449], [137.171168, 36.6606717], [137.1710838, 36.6606368], [137.170432, 36.6603924], [137.1700326, 36.6602593], [137.1698672, 36.6602176], [137.1688261, 36.6600103], [137.1682086, 36.6598869], [137.1675693, 36.6597591], [137.167104, 36.6596598], [137.1669486, 36.6596267], [137.1667671, 36.6595897], [137.1661702, 36.6594681], [137.1656565, 36.6593675], [137.16339, 36.6589552], [137.1633348, 36.6589464], [137.1632058, 36.6589257], [137.1617845, 36.6587723], [137.1615942, 36.6587518], [137.1614066, 36.6587321], [137.1609848, 36.6586877], [137.1604769, 36.6586363], [137.1591487, 36.6584846], [137.1590391, 36.658475], [137.1588724, 36.6584577], [137.1558515, 36.6581664], [137.1547223, 36.658045], [137.1543631, 36.6580207], [137.1540754, 36.6580277], [137.1537976, 36.6580467], [137.1534881, 36.6580835], [137.1533455, 36.6581005], [137.1532375, 36.6581168], [137.1525783, 36.6582162], [137.1524396, 36.6582371], [137.1522684, 36.6582551], [137.1519219, 36.6582916], [137.1509848, 36.6583901], [137.150055, 36.6583993], [137.1492412, 36.658364], [137.1471589, 36.6581568], [137.1466202, 36.6581032], [137.1456901, 36.6580175], [137.1446082, 36.6579051], [137.1445757, 36.6579032], [137.1428225, 36.6577769], [137.1423761, 36.6577598], [137.1422562, 36.6577552], [137.142149, 36.657756], [137.1410806, 36.6577636], [137.1404797, 36.6577809], [137.1394673, 36.6578476], [137.139088, 36.657861], [137.1388572, 36.6578691], [137.1387206, 36.6578643], [137.1383274, 36.6578503], [137.1376643, 36.6577785], [137.1367409, 36.6576161], [137.1345936, 36.6572338], [137.1341178, 36.6571616], [137.1331412, 36.6570134], [137.1317477, 36.6569353], [137.1308908, 36.656888], [137.1302273, 36.6568543], [137.1301863, 36.6568665], [137.1299118, 36.6569482]], [[137.2101699, 36.6667977], [137.210054, 36.6668043], [137.2099038, 36.6668085], [137.209444, 36.6668213], [137.208641, 36.6668284], [137.2072456, 36.6668546], [137.2067781, 36.6668656], [137.2066066, 36.6668696], [137.2064419, 36.666872], [137.2048747, 36.6668945], [137.2039209, 36.6669032], [137.2035841, 36.6669063], [137.2030091, 36.666913], [137.2021761, 36.6669291], [137.2016874, 36.6669374], [137.2014888, 36.6669408], [137.2013042, 36.6669418], [137.2007606, 36.6669448], [137.2001026, 36.6669484], [137.199594, 36.6669511], [137.1991597, 36.6669436], [137.1982866, 36.6669415], [137.1959791, 36.6669347], [137.1947936, 36.6669387], [137.1941531, 36.6669514], [137.1934914, 36.6669568], [137.1932007, 36.6669754], [137.1878162, 36.6671595], [137.1869758, 36.66721], [137.1859431, 36.6672172], [137.1857942, 36.6672168], [137.185689, 36.6672145], [137.1855589, 36.6672056], [137.184838, 36.6671605], [137.1843734, 36.6671275], [137.1835695, 36.667077], [137.1829437, 36.6670164], [137.1828406, 36.6670064], [137.1827619, 36.6669923], [137.1822646, 36.6669031], [137.1816867, 36.6667662], [137.1811734, 36.6665921], [137.1809781, 36.6664983], [137.1807384, 36.6663831], [137.1805603, 36.6662841], [137.1796906, 36.6658009], [137.178774, 36.6652831], [137.1784241, 36.6650801], [137.1777251, 36.6646864], [137.17763, 36.6646328], [137.1775016, 36.6645542], [137.1764662, 36.6639208], [137.1758215, 36.6635263], [137.1746268, 36.6628037], [137.1736589, 36.6622282], [137.173534, 36.6621539], [137.1734085, 36.6620766], [137.1719804, 36.6611963], [137.1713791, 36.6608666], [137.1712811, 36.6608129], [137.1711173, 36.6607453], [137.1702129, 36.6603722], [137.1698427, 36.6602625], [137.168819, 36.6600566], [137.1681921, 36.6599348], [137.1675462, 36.6598065], [137.1670848, 36.6597194], [137.1669303, 36.6596903], [137.1667506, 36.6596575], [137.1658334, 36.6594899], [137.1657021, 36.6594659], [137.1633733, 36.6590352], [137.1633243, 36.6590261], [137.1632999, 36.6590216], [137.1632416, 36.6590148], [137.1628469, 36.6589688], [137.1622492, 36.6588991], [137.161769, 36.6588475], [137.16158, 36.6588271], [137.161394, 36.6588063], [137.1609523, 36.6587567], [137.1597012, 36.658627], [137.1593834, 36.6585958], [137.1590223, 36.6585604], [137.1588633, 36.658542], [137.156615, 36.6583106], [137.1558408, 36.6582298], [137.1546153, 36.6581029], [137.1540671, 36.658097], [137.1538156, 36.6581097], [137.1535025, 36.6581442], [137.153381, 36.6581576], [137.1532537, 36.6581776], [137.1525924, 36.6582814], [137.152457, 36.6583027], [137.1522814, 36.6583255], [137.1520484, 36.6583558], [137.1519117, 36.6583736], [137.1509945, 36.6584624], [137.150076, 36.6584814], [137.1492676, 36.6584601], [137.1479259, 36.6583201], [137.1471589, 36.6582427], [137.1446495, 36.6579924], [137.1446197, 36.6579904], [137.1438961, 36.6579146], [137.1428465, 36.6578723], [137.1423436, 36.6578486], [137.1422215, 36.6578428], [137.1421174, 36.657842], [137.141133, 36.6578347], [137.1405531, 36.6578473], [137.1400375, 36.6578709], [137.1394364, 36.657912], [137.1390924, 36.6579264], [137.1388569, 36.6579362], [137.1387204, 36.6579313], [137.1382896, 36.6579159], [137.1377536, 36.6578634], [137.1376476, 36.6578451], [137.13673, 36.6576933], [137.1357386, 36.6575173], [137.1346845, 36.6573236], [137.1341052, 36.6572225], [137.1331378, 36.6570762], [137.1317791, 36.657005], [137.1312221, 36.6569758], [137.1306797, 36.6569583], [137.1301931, 36.6569426], [137.1301831, 36.6569428], [137.1299118, 36.6569482], [137.1297499, 36.657002], [137.1293728, 36.6571177], [137.1289674, 36.6572433], [137.1281842, 36.6574808], [137.1279349, 36.6575586], [137.1276004, 36.6576333], [137.1273355, 36.6576727], [137.1270742, 36.6576867], [137.1267379, 36.6576746], [137.1264023, 36.6576323], [137.1261132, 36.6575692], [137.1258787, 36.6575007], [137.1256233, 36.65738], [137.1253456, 36.6572319], [137.1251368, 36.6570976], [137.1249607, 36.6569598], [137.1247326, 36.6567332], [137.1245379, 36.6564761], [137.1234941, 36.6548543], [137.1232133, 36.6544248], [137.1228847, 36.6538891], [137.1224127, 36.6530149], [137.122097, 36.6526234], [137.1218821, 36.6523683], [137.1209445, 36.6515376], [137.1190777, 36.6502465], [137.1177885, 36.6496868], [137.1171307, 36.6495272], [137.1159853, 36.6492296], [137.1151572, 36.6490199], [137.1144698, 36.6487654], [137.113324, 36.6481672], [137.1121594, 36.6474427], [137.1113911, 36.6469577], [137.1102, 36.6461545], [137.1101606, 36.6461279], [137.1081968, 36.6448496], [137.1078862, 36.6446242], [137.1076131, 36.6443924], [137.1074102, 36.6441739], [137.1066038, 36.6431485], [137.1063749, 36.6429096], [137.1061089, 36.6427074], [137.1058724, 36.6425353], [137.1056779, 36.6424344], [137.1054525, 36.6423253], [137.1047066, 36.6419838], [137.1044113, 36.6418302], [137.1041508, 36.6416866], [137.1025443, 36.64078], [137.1019224, 36.6405086], [137.1002652, 36.6398001], [137.0996525, 36.6395336], [137.0990885, 36.6393256], [137.0986837, 36.639199], [137.0982235, 36.6390895], [137.0962121, 36.6386731], [137.0958519, 36.6385456], [137.0954972, 36.6383347], [137.0952657, 36.6381706], [137.0945044, 36.6375827], [137.0939118, 36.6371744], [137.0936032, 36.6369824], [137.093387, 36.6368703], [137.0930868, 36.6367621], [137.0926889, 36.6366924], [137.0918402, 36.6366236], [137.0916079, 36.6366028], [137.0902915, 36.6364961], [137.0898095, 36.6364384], [137.0891554, 36.6362676], [137.0877786, 36.6358066], [137.0857007, 36.6351504], [137.0852988, 36.6350678], [137.0840037, 36.6350829], [137.083436, 36.634943], [137.0818218, 36.634398], [137.0810344, 36.6339617], [137.0790723, 36.6327398], [137.0787595, 36.6325567], [137.078284, 36.6321511], [137.0776155, 36.63138], [137.0772762, 36.631012], [137.0769317, 36.6307256], [137.0761726, 36.6302973], [137.0756778, 36.630001], [137.0755455, 36.6299083], [137.0743805, 36.6289716], [137.0741621, 36.6288234], [137.0740153, 36.628753], [137.0738633, 36.6287055], [137.0736297, 36.628667], [137.0732054, 36.6286719], [137.0727842, 36.62869], [137.0724365, 36.6287198], [137.0722916, 36.6287284], [137.0719958, 36.6287252], [137.0711049, 36.6285111], [137.0705611, 36.6283695], [137.0704134, 36.6283506], [137.0702757, 36.6283596], [137.0700472, 36.6284112], [137.069782, 36.628534], [137.0695138, 36.6286895], [137.0692211, 36.6288434], [137.0689936, 36.6289342], [137.0686836, 36.6290202], [137.0684663, 36.6290628], [137.0682919, 36.6290783], [137.0678023, 36.629111], [137.0675086, 36.6291372], [137.0672699, 36.6291888], [137.0670208, 36.6292789], [137.0668198, 36.629405], [137.0665944, 36.6296194], [137.066289, 36.629975], [137.0650437, 36.6313865], [137.0644679, 36.6318583], [137.0635238, 36.6321855], [137.0603276, 36.633248], [137.0597174, 36.6334112], [137.0587926, 36.6336451], [137.0579761, 36.6338384], [137.0573947, 36.6339994], [137.0571465, 36.6341059], [137.0565132, 36.63443], [137.0555351, 36.6349243], [137.0551167, 36.6350829], [137.0547584, 36.635166], [137.0547373, 36.6351709], [137.0540535, 36.6352925], [137.053726, 36.6353469], [137.0532773, 36.6354754], [137.0530782, 36.6355657], [137.0529325, 36.6356768], [137.0521809, 36.6363865], [137.0519356, 36.6365717], [137.0517063, 36.6366817], [137.0513543, 36.6368021], [137.0506632, 36.6370035], [137.0497168, 36.6373299], [137.0486389, 36.6377128], [137.0468113, 36.6384112], [137.0464564, 36.6384968], [137.0456485, 36.6385767], [137.0451883, 36.6385795], [137.0448969, 36.6385373], [137.0446774, 36.6384915], [137.0445694, 36.638469], [137.0445328, 36.6384568], [137.044239, 36.6383591], [137.044215, 36.6383499], [137.0422684, 36.6376066], [137.0417505, 36.6374538], [137.0412253, 36.6373751], [137.0406237, 36.6373705], [137.0389762, 36.6373438], [137.0383905, 36.6373056], [137.0376689, 36.6372446], [137.0355739, 36.6370718], [137.0350724, 36.6370313], [137.0344015, 36.6369803], [137.0334393, 36.6368981], [137.0329719, 36.6369062], [137.0325708, 36.6369421], [137.0322058, 36.6370174], [137.0306997, 36.6374607], [137.0305098, 36.6375098], [137.0299985, 36.6376418], [137.0297807, 36.6376981], [137.0295614, 36.6377363], [137.0294738, 36.63774], [137.0292613, 36.637749], [137.0289427, 36.6377269], [137.028662, 36.6376906], [137.0283628, 36.6376008], [137.0279914, 36.6374366], [137.0269185, 36.6368555], [137.025792, 36.6362314], [137.02429, 36.635435], [137.0237133, 36.6351509], [137.0234425, 36.6350601], [137.0232144, 36.6350067], [137.0229006, 36.6349852], [137.0225573, 36.6349873], [137.0223045, 36.6350164], [137.0214459, 36.6351797], [137.0202532, 36.6353984], [137.019859, 36.6354651], [137.0150274, 36.6363582], [137.0142752, 36.6364856], [137.0140799, 36.6365204], [137.0134655, 36.6366298], [137.0119541, 36.6369265], [137.0093657, 36.6373488], [137.0060567, 36.6379669], [137.0012278, 36.6388424], [137.0006006, 36.6389496], [137.000171, 36.6389853], [136.9993819, 36.638974], [136.9989203, 36.6389239], [136.9980228, 36.6387319], [136.9974529, 36.6386089], [136.9952985, 36.638087], [136.9943026, 36.637855], [136.9924037, 36.6373866], [136.9902722, 36.6368798], [136.9890442, 36.6365763], [136.988538, 36.6364805], [136.9868628, 36.636053], [136.9861551, 36.6359008], [136.9857956, 36.6358621], [136.9847106, 36.6357749], [136.9833926, 36.6357307], [136.9811776, 36.6358447], [136.9788513, 36.6359664], [136.9776719, 36.6360236], [136.9767323, 36.6361194], [136.9758079, 36.636336], [136.9749457, 36.6365513], [136.9740352, 36.6367897], [136.9736439, 36.636883], [136.9732423, 36.6369553], [136.972921, 36.6369996], [136.9725793, 36.6370355], [136.9721961, 36.6370596], [136.9718321, 36.6370615], [136.9714533, 36.6370551], [136.9703204, 36.637035], [136.9691123, 36.637014], [136.9667334, 36.6369966], [136.9653127, 36.6369887], [136.9646927, 36.6369818], [136.9641693, 36.6370498], [136.963991, 36.6370922], [136.9637891, 36.637155], [136.9636643, 36.6371903], [136.9634167, 36.6372938], [136.9626503, 36.6376158], [136.9624266, 36.6377111], [136.9623433, 36.6377466], [136.9619177, 36.6379279], [136.9606801, 36.6384581], [136.9605933, 36.6384922], [136.9601193, 36.6386945], [136.9595033, 36.6389639], [136.9590749, 36.6391402], [136.9588873, 36.6392257], [136.9582708, 36.6371954], [136.9582213, 36.6370649], [136.9580233, 36.6364054], [136.9576009, 36.6350584], [136.9575608, 36.6349231], [136.9575204, 36.6347936], [136.9571257, 36.6335307], [136.9567895, 36.6324174], [136.9567543, 36.6322903], [136.9567143, 36.6321494], [136.9565186, 36.6315026], [136.9564465, 36.631201], [136.9564058, 36.6309068], [136.9564006, 36.6305124], [136.9564225, 36.6304137], [136.9564489, 36.6303015], [136.9565827, 36.6298522], [136.9567747, 36.6293952], [136.9572079, 36.6286204], [136.9573854, 36.6283142], [136.9578126, 36.6276428]], [[136.9548702, 36.6270328], [136.955036, 36.6270373], [136.9552492, 36.6270432], [136.9553027, 36.6270459], [136.95565, 36.6270913], [136.9560206, 36.627152], [136.956449, 36.6272279], [136.9569655, 36.6273486], [136.9573867, 36.6274679], [136.9575176, 36.6275048], [136.9577236, 36.6275707], [136.9578126, 36.6276428]], [[136.9588873, 36.6392257], [136.9587961, 36.6392644], [136.9581576, 36.6371884], [136.958117, 36.6370698], [136.9578967, 36.6363999], [136.9574889, 36.6350872], [136.9574515, 36.6349527], [136.9574147, 36.6348137], [136.9570294, 36.6335505], [136.9568035, 36.6328342], [136.9566811, 36.6324474], [136.9566385, 36.6322965], [136.9565979, 36.6321726], [136.9563859, 36.6315338], [136.9563224, 36.6312148], [136.9563006, 36.6310118], [136.9562856, 36.6305211], [136.9563089, 36.6304018], [136.9563306, 36.6302873], [136.9564567, 36.629823], [136.956654, 36.6293596], [136.9571117, 36.6285865], [136.9572944, 36.6282779], [136.9576795, 36.6276507], [136.9574817, 36.6275768], [136.9570576, 36.6274446], [136.9564235, 36.6273008], [136.955993, 36.6272189], [136.9552815, 36.6270961], [136.9548702, 36.6270328], [136.9545081, 36.6270035], [136.9541535, 36.6269826], [136.953703, 36.6269644], [136.9532682, 36.6269727], [136.9528589, 36.626993], [136.9524518, 36.6270274], [136.95206, 36.627072], [136.9512555, 36.6271992], [136.9507339, 36.6272832], [136.9503835, 36.6273353], [136.9501812, 36.627357], [136.9499516, 36.6273739], [136.9497348, 36.627385], [136.9494924, 36.6273885], [136.9492316, 36.6273857], [136.9489534, 36.6273738], [136.9485979, 36.6273403], [136.9482702, 36.6272947], [136.9479363, 36.627232], [136.9476248, 36.6271546], [136.9473003, 36.6270624], [136.9469995, 36.6269611], [136.9467076, 36.6268418], [136.9464038, 36.6267042], [136.9460913, 36.6265437], [136.9458907, 36.6264301], [136.9453426, 36.6260775], [136.9447008, 36.6255293], [136.9439445, 36.6245616], [136.9438408, 36.6244465], [136.9431962, 36.623747], [136.9430066, 36.623569], [136.9429027, 36.623472], [136.9427771, 36.6233694], [136.9425472, 36.6231759], [136.9424452, 36.623076], [136.9419728, 36.6226911], [136.9409334, 36.6218734], [136.938975, 36.6205717], [136.9383824, 36.6201466], [136.938211, 36.6200104], [136.9373159, 36.6194808], [136.9365373, 36.6190976], [136.9363269, 36.6190112], [136.9357512, 36.6188422], [136.9349279, 36.6186843], [136.934363, 36.6186326], [136.9337947, 36.6186209], [136.9334779, 36.6186229], [136.9327966, 36.6186918], [136.932095, 36.618812], [136.931608, 36.618957], [136.9310722, 36.6191507], [136.9310188, 36.6191695], [136.9295212, 36.619696], [136.9265922, 36.6207372], [136.9245431, 36.6214804], [136.9227219, 36.6218863], [136.9205134, 36.622368], [136.9173995, 36.6230311], [136.9160196, 36.6232671], [136.9144121, 36.6236184], [136.9131055, 36.6239541], [136.9127382, 36.6240636], [136.9125793, 36.6241109], [136.9122837, 36.624199], [136.911471, 36.624539], [136.9109633, 36.6247599], [136.9103006, 36.6250103], [136.9096718, 36.6252335], [136.9088651, 36.6254351], [136.9084118, 36.6255266], [136.9078079, 36.6256097], [136.905626, 36.6258484], [136.9043776, 36.6260028], [136.904324, 36.6260094], [136.9032446, 36.626158], [136.9031422, 36.6261765], [136.9030896, 36.6261809], [136.9021204, 36.626322], [136.9014173, 36.6264303], [136.901204, 36.6264585], [136.8997312, 36.6266867], [136.8992805, 36.6267345], [136.8985232, 36.6268612], [136.8981048, 36.6269312], [136.8979582, 36.6269487], [136.8973853, 36.6270442], [136.8955021, 36.6273412], [136.8944026, 36.6275067], [136.8941213, 36.6275476], [136.8933042, 36.6276179], [136.8927119, 36.6276007], [136.892076, 36.6274852], [136.8918687, 36.6274279], [136.8917332, 36.6273905], [136.8916159, 36.6273607], [136.8900469, 36.6269746], [136.8900188, 36.6269677], [136.8899008, 36.6269421], [136.8892547, 36.6267939], [136.8889042, 36.6267446], [136.8882419, 36.6267191], [136.888074, 36.6267259], [136.8879596, 36.6267305], [136.8873221, 36.6267826], [136.8858437, 36.6269085], [136.8846123, 36.6270134], [136.883988, 36.6270624], [136.8833498, 36.6272103], [136.8830893, 36.6272863], [136.8820401, 36.6276178], [136.8808672, 36.6279915], [136.8806127, 36.6280603], [136.879989, 36.6282463], [136.8795256, 36.6283805], [136.8787146, 36.6286571], [136.8780979, 36.6288318], [136.8769982, 36.6291464], [136.8750311, 36.6297584], [136.8735976, 36.6301098], [136.8729111, 36.6303094], [136.8722879, 36.6305109], [136.8714322, 36.6309294], [136.8707234, 36.631276], [136.8705893, 36.631315], [136.8697973, 36.6314113], [136.8693328, 36.6314414], [136.8675976, 36.6315629], [136.8666254, 36.6316301], [136.8660384, 36.6316717], [136.8654758, 36.6316891], [136.8627006, 36.6318573], [136.8620773, 36.6318955], [136.8617384, 36.6319227], [136.8611315, 36.6319597], [136.8601849, 36.6320295], [136.859856, 36.6320527], [136.8594301, 36.6320754], [136.8580361, 36.6320229], [136.856422, 36.632001], [136.8562633, 36.6319929], [136.8552309, 36.6319756], [136.8546335, 36.6319688], [136.8530773, 36.6319721], [136.8529109, 36.6319744], [136.8515618, 36.6319865], [136.8503451, 36.6319813], [136.8492359, 36.6319616], [136.8485248, 36.6319475], [136.8471336, 36.6319769], [136.8455264, 36.6320031], [136.8439822, 36.6320175], [136.8433959, 36.6320229], [136.8428239, 36.6320909], [136.8418972, 36.6323096], [136.8412055, 36.6324663], [136.8403415, 36.6325902], [136.8398584, 36.6326132], [136.8395555, 36.6326127], [136.8390015, 36.632589], [136.8383121, 36.6325879], [136.8375476, 36.6325809], [136.8371013, 36.6325289], [136.8367469, 36.6324798], [136.8362033, 36.6325045], [136.8355327, 36.6326227], [136.8354547, 36.6326365], [136.8351921, 36.6326724], [136.8347219, 36.6326874], [136.8343469, 36.6326747], [136.8339185, 36.6326214], [136.8336661, 36.6325624], [136.8330027, 36.6323508], [136.8327844, 36.6323017], [136.8324009, 36.6322362], [136.8321745, 36.6322296], [136.8317563, 36.6322165], [136.8312443, 36.6322362], [136.8303275, 36.6322637], [136.8298484, 36.6322313], [136.8280917, 36.6321027], [136.826689, 36.6320066], [136.8252646, 36.6318911], [136.8246311, 36.6317971], [136.8244751, 36.6317739], [136.8238807, 36.6316858], [136.8233262, 36.6315884], [136.8231819, 36.6315631], [136.822236, 36.6314089], [136.8214632, 36.6312557], [136.8207593, 36.6310772], [136.8204313, 36.6310476], [136.8196399, 36.6310749], [136.818922, 36.6311006], [136.8185581, 36.6310763], [136.8183233, 36.6310193], [136.8181337, 36.6309282], [136.8180793, 36.6308969], [136.8178859, 36.630788], [136.817717, 36.6306269], [136.8176046, 36.6304844], [136.8174329, 36.6301406], [136.8171202, 36.6298369], [136.816946, 36.629726], [136.8165646, 36.6296186], [136.8159112, 36.6295098], [136.8155766, 36.629475], [136.8151914, 36.629482], [136.8143188, 36.629585], [136.8140736, 36.6296001], [136.8136524, 36.6295422], [136.813147, 36.629451], [136.81287, 36.629479], [136.8122489, 36.6296707], [136.8120354, 36.6297158], [136.811757, 36.6297251], [136.8115335, 36.629688], [136.811237, 36.629582], [136.8110618, 36.6295063], [136.81043, 36.629107], [136.8103074, 36.6290491], [136.8100759, 36.6289859], [136.8099234, 36.6289817], [136.809116, 36.6289761], [136.8085621, 36.6289483], [136.8078236, 36.6288662], [136.8072582, 36.6287631], [136.8070735, 36.6286902], [136.8068774, 36.6285756], [136.806511, 36.6283175], [136.8062716, 36.6281635], [136.8059888, 36.6280825], [136.8055749, 36.6279945], [136.8052345, 36.6279089], [136.8049763, 36.6278776], [136.8045666, 36.6278845], [136.8041353, 36.6279181], [136.8037517, 36.6278915], [136.8034661, 36.6278382], [136.8032252, 36.6277676], [136.8029707, 36.6276618], [136.8023468, 36.6272664], [136.801959, 36.6270339], [136.799481, 36.625955], [136.7987257, 36.6256665], [136.7977547, 36.6253556], [136.7954002, 36.6248146], [136.7951034, 36.6247419], [136.79455, 36.624643], [136.793979, 36.6246067], [136.7933375, 36.6246309], [136.792925, 36.6246834], [136.7928243, 36.624705], [136.7920697, 36.6248671], [136.7917326, 36.6248994], [136.7913352, 36.6248893], [136.7909377, 36.6248186], [136.7906334, 36.6247116], [136.7902183, 36.6245239], [136.7898083, 36.6244169], [136.7890939, 36.6243846], [136.7888474, 36.6243644], [136.788631, 36.6242857], [136.788385, 36.62408], [136.7878786, 36.6235172], [136.7876877, 36.6232399], [136.7874689, 36.6226443], [136.787401, 36.6225232], [136.787275, 36.622385], [136.7871016, 36.6222405], [136.7868219, 36.6221119], [136.7866161, 36.6220669], [136.7848955, 36.621968], [136.7846314, 36.6219882], [136.784161, 36.6221194], [136.7839447, 36.6221275], [136.7837535, 36.622075], [136.7835605, 36.6219684], [136.7831649, 36.6217499], [136.7829209, 36.6215662], [136.7825335, 36.6211099], [136.782219, 36.6207849], [136.7818445, 36.6204618], [136.7811449, 36.6198582], [136.7809336, 36.619733], [136.7806418, 36.6196213], [136.78034, 36.6195836], [136.7799375, 36.6195735], [136.7796432, 36.619624], [136.7793388, 36.6197209], [136.7782043, 36.6202963], [136.7778245, 36.6204275], [136.7774547, 36.6204558], [136.7750901, 36.6204074], [136.773611, 36.620371], [136.7733016, 36.6203266], [136.7730173, 36.6202337], [136.7725168, 36.6200238], [136.7721143, 36.6198481], [136.7716061, 36.6197048], [136.7705018, 36.6194201], [136.7700893, 36.6192646], [136.7697573, 36.6190829], [136.7694428, 36.6188568], [136.7690705, 36.6185055], [136.7682706, 36.6177504], [136.7678958, 36.617498], [136.7674265, 36.6173152], [136.7668379, 36.6172021], [136.7659323, 36.6170688], [136.7652705, 36.6169732], [136.7639378, 36.6167804], [136.7608771, 36.6163377], [136.7582097, 36.6159406], [136.7575749, 36.615752], [136.7566344, 36.615275], [136.7551763, 36.6145007], [136.7541744, 36.6139969], [136.7538923, 36.6138667], [136.7531157, 36.6135724], [136.7513502, 36.6128798], [136.7498172, 36.6122846], [136.7493692, 36.6119675], [136.749023, 36.6116665], [136.7486076, 36.6111918], [136.7482643, 36.6107124], [136.7465611, 36.6081262], [136.746151, 36.607479], [136.7456826, 36.6066278], [136.7452278, 36.6057911], [136.7450401, 36.605552], [136.7447729, 36.6052753], [136.7444036, 36.604987], [136.7440977, 36.6048086], [136.7437223, 36.6046333], [136.7430655, 36.604445], [136.7422822, 36.6043664], [136.7420965, 36.604373], [136.7419762, 36.6043762], [136.7415662, 36.6044139], [136.7412112, 36.604481], [136.7405556, 36.6046071], [136.740323, 36.6046333], [136.7401514, 36.6046206], [136.7399596, 36.6045801], [136.7397605, 36.6044909], [136.7395614, 36.6043624], [136.7391618, 36.6039697], [136.7390582, 36.6038761], [136.7389654, 36.6038261], [136.738845, 36.603795], [136.7387012, 36.6037696], [136.7375885, 36.6038376], [136.7374018, 36.6038205], [136.7367277, 36.6036411], [136.7365624, 36.60361], [136.7363379, 36.6035956], [136.7358913, 36.6036116], [136.7356445, 36.6036034], [136.7354527, 36.6035854], [136.7352883, 36.6035384], [136.734955, 36.6033692], [136.7341227, 36.6027977], [136.7334292, 36.6021656], [136.7331803, 36.6020035], [136.7329498, 36.6019036], [136.7326132, 36.601825], [136.7316708, 36.6017251], [136.7313465, 36.6016776], [136.7310038, 36.6016055], [136.7306998, 36.601468], [136.7305468, 36.6013845], [136.7304448, 36.6013091], [136.7302123, 36.6010602], [136.7297784, 36.6006743], [136.7294689, 36.6004056], [136.7292144, 36.600186], [136.7290611, 36.6002972], [136.7286918, 36.6005376], [136.7280535, 36.6009584], [136.7271933, 36.6015005], [136.7268996, 36.6016622], [136.7267399, 36.6017333], [136.7265874, 36.6017916], [136.7263458, 36.6018602], [136.7260962, 36.6019197], [136.7258647, 36.6019539], [136.724632, 36.602089], [136.724343, 36.6021244], [136.7241041, 36.6021664], [136.7239081, 36.602212], [136.7237215, 36.6022703], [136.7235541, 36.6023426], [136.7233432, 36.6024491], [136.7231183, 36.6025948], [136.7227979, 36.6028339], [136.7225411, 36.6030488], [136.7221641, 36.6033856], [136.7219908, 36.603491], [136.7217501, 36.6035958], [136.7214482, 36.603658], [136.7212014, 36.603682], [136.7206853, 36.6036056], [136.7202426, 36.6035712], [136.719953, 36.6035679], [136.7188117, 36.6035924], [136.716233, 36.6043229], [136.7142976, 36.6050522], [136.7134875, 36.6051948], [136.712632, 36.6053045], [136.7124825, 36.6052929], [136.7117278, 36.6053312], [136.7110535, 36.6052921], [136.7108819, 36.6052665], [136.7102429, 36.605139], [136.7091471, 36.6047772], [136.7084931, 36.6045615], [136.7082309, 36.604475], [136.70757, 36.6042514], [136.7074266, 36.6042182], [136.7073326, 36.6041918], [136.707216, 36.6041653], [136.7070132, 36.6041436], [136.7067344, 36.6041268], [136.7064481, 36.6041272], [136.7061618, 36.6041469], [136.7058682, 36.6041889], [136.705553, 36.6042535], [136.7052915, 36.6043313], [136.7050488, 36.6044241], [136.7048277, 36.6045235], [136.7047002, 36.6045864], [136.7044407, 36.6047381], [136.7042129, 36.6049008], [136.7034077, 36.6055446], [136.7033411, 36.6055993], [136.7018828, 36.6067559], [136.7013457, 36.6072208], [136.7010974, 36.6074634], [136.7008556, 36.6077747], [136.7007674, 36.6079646], [136.700532, 36.6083524], [136.7003301, 36.6087909], [136.700131, 36.6091243], [136.6998643, 36.6095242], [136.6996804, 36.6096444], [136.6995262, 36.609769], [136.699326, 36.6098996], [136.6990665, 36.6100588], [136.697988, 36.6106983], [136.6976402, 36.6108563], [136.6972102, 36.6110056], [136.6964049, 36.6112822], [136.6956233, 36.6115463], [136.6954595, 36.6116221], [136.695067, 36.611733], [136.6946372, 36.6118722], [136.6937866, 36.6121475], [136.6926604, 36.6125135], [136.6921832, 36.6126686], [136.6918732, 36.6127734], [136.6916949, 36.6128323], [136.6915784, 36.6128708], [136.6914235, 36.612918], [136.6913385, 36.6129569], [136.6912808, 36.6129833], [136.690715, 36.6123545], [136.690515, 36.612136], [136.6904841, 36.6121108], [136.6904203, 36.6120643], [136.6898552, 36.6116147], [136.6897403, 36.6115233], [136.6891836, 36.6111902], [136.6886118, 36.6107352], [136.6880613, 36.6102121], [136.6879687, 36.6101241], [136.6876687, 36.609792], [136.6874134, 36.6095118], [136.6868216, 36.6087848], [136.686422, 36.6083242], [136.6863887, 36.6082858], [136.6859529, 36.6077499], [136.6855198, 36.6072173], [136.6852806, 36.6068765], [136.684761, 36.606056], [136.6842812, 36.6053085], [136.6840351, 36.6049251], [136.683275, 36.6037267], [136.6832345, 36.6036629], [136.6827011, 36.6028486], [136.6821795, 36.6020216], [136.681869, 36.6015327], [136.6815359, 36.6010157], [136.6815183, 36.6009824], [136.6813072, 36.6005827], [136.6812404, 36.6004299], [136.6810971, 36.6001026], [136.6808047, 36.5993715], [136.6806853, 36.5990996], [136.6806554, 36.5990169], [136.6805235, 36.5987055], [136.6801728, 36.5978532], [136.6800058, 36.5974455], [136.679648, 36.5965718], [136.6792318, 36.5955555], [136.6790304, 36.5950638], [136.6788252, 36.5945628], [136.6784176, 36.5935588], [136.6780557, 36.5928718], [136.6774614, 36.5918462], [136.6773901, 36.591726], [136.6770795, 36.5911966], [136.6769596, 36.5909795], [136.67694, 36.5909441], [136.6768692, 36.5907601], [136.676765, 36.5904908], [136.6767442, 36.5904335], [136.6765946, 36.5900207], [136.6763854, 36.5894435], [136.6762229, 36.5888516], [136.6761341, 36.5885281], [136.6760266, 36.5883555], [136.6757379, 36.587899], [136.6756783, 36.5878106], [136.6754969, 36.5875377], [136.6751632, 36.5870359], [136.6751081, 36.586953], [136.6750134, 36.5868052], [136.6750035, 36.5867898], [136.6749798, 36.5867528], [136.6746108, 36.586177], [136.6744082, 36.5858608], [136.6742918, 36.5856943], [136.6742124, 36.5855808], [136.6740193, 36.5852836], [136.6739469, 36.5851652], [136.6737227, 36.584845], [136.6736844, 36.5847903], [136.6735714, 36.5846289], [136.6733421, 36.5842762], [136.6732599, 36.5841496], [136.6731259, 36.5839435], [136.673093, 36.583893], [136.6730296, 36.5837954], [136.6729001, 36.5835994], [136.6728296, 36.5834929], [136.6727748, 36.5834099], [136.6726247, 36.5831913], [136.6724125, 36.5828822], [136.6723797, 36.5828348], [136.6723268, 36.5827573], [136.6719138, 36.5821326], [136.6717272, 36.5818484], [136.6715517, 36.5815813], [136.6714663, 36.5814487], [136.6713154, 36.5812145], [136.6712565, 36.581123], [136.6712298, 36.5810816], [136.6709669, 36.5806788], [136.6708167, 36.5804268], [136.6706236, 36.5801403], [136.6705875, 36.5800869], [136.670519, 36.5799853], [136.6704493, 36.5798689], [136.6704144, 36.5797893], [136.6703885, 36.5794058], [136.6703791, 36.5792673], [136.6703373, 36.5791358], [136.6702979, 36.5790693], [136.6702144, 36.5789668], [136.6701279, 36.5788467], [136.6699654, 36.5786386], [136.6699235, 36.5785854], [136.6696464, 36.5782334], [136.6695068, 36.5780635], [136.6691014, 36.5777885], [136.6690625, 36.5777558], [136.6689668, 36.5776755], [136.6688807, 36.577586], [136.6685232, 36.5771566], [136.6684259, 36.5770364], [136.6682251, 36.5767883], [136.6681948, 36.5767445], [136.6679136, 36.5764091], [136.6677889, 36.57626], [136.667386, 36.5757994], [136.6669482, 36.575236], [136.6664487, 36.5746479], [136.6662636, 36.5744223], [136.6661788, 36.5743189], [136.6656459, 36.5736801], [136.6650703, 36.5729914], [136.6647708, 36.5725998], [136.6647417, 36.5725543], [136.664728, 36.5725328], [136.6646301, 36.5723515], [136.66461, 36.5723133], [136.6643448, 36.5718724], [136.6643164, 36.5718229], [136.6642607, 36.5717241], [136.6641909, 36.5715941], [136.6640677, 36.5713369], [136.6640097, 36.5712058], [136.6638878, 36.5709829], [136.6635551, 36.5710034], [136.6634563, 36.571015], [136.6634376, 36.5710172], [136.6629373, 36.5710759], [136.6628412, 36.5710872], [136.661514, 36.5712429], [136.6608394, 36.5713398], [136.6598237, 36.5714487], [136.6587508, 36.5715827], [136.6583608, 36.5716498], [136.6579413, 36.5717333], [136.6571676, 36.5718909], [136.6570265, 36.5719197], [136.6562003, 36.5720589], [136.6561128, 36.5720689], [136.6558536, 36.5720765]], [[136.712632, 36.6053045], [136.7126202, 36.6054343], [136.7125921, 36.6055125], [136.712535, 36.6055907], [136.7119638, 36.6058866], [136.7111405, 36.6062782], [136.7104134, 36.6066718], [136.7100193, 36.6068709], [136.7093654, 36.6071977], [136.7084727, 36.6076386], [136.7084085, 36.6076721], [136.7081258, 36.6078208], [136.7076859, 36.6080496], [136.7074161, 36.6081955], [136.7070084, 36.6083659], [136.7066096, 36.6085206], [136.7062985, 36.6086189], [136.7059781, 36.6086879], [136.705612, 36.608774], [136.7051859, 36.6088318], [136.704928, 36.608867], [136.7039928, 36.608941], [136.702667, 36.609046], [136.701741, 36.6092121], [136.7013161, 36.6093208], [136.7010319, 36.6093807], [136.7004858, 36.6095109], [136.700192, 36.609581], [136.6998643, 36.6095242]]]}, "id": "relation/8250033"}, {"type": "Feature", "properties": {"@id": "relation/15466328", "name": "国道359号旧道", "network": "JP:national", "ref": "359", "route": "road", "type": "route"}, "geometry": {"type": "MultiLineString", "coordinates": [[[137.0269185, 36.6368555], [137.0266121, 36.6372546], [137.026476, 36.6373983], [137.0263213, 36.6374478], [137.0252338, 36.6376704], [137.0249686, 36.6376491], [137.0247421, 36.637546], [137.0239628, 36.636937], [137.0232297, 36.636328], [137.0229167, 36.636085], [137.0227246, 36.63591], [137.0225845, 36.6357272], [137.0225106, 36.6355541], [137.0223045, 36.6350164], [137.0222177, 36.6347683], [137.0221495, 36.6345735], [137.0219757, 36.6341149], [137.021338, 36.6322543], [137.021307, 36.6321169], [137.02118, 36.6317292], [137.0210069, 36.6315208], [137.020805, 36.6312916], [137.0206728, 36.6311523], [137.0203744, 36.6309746], [137.0203391, 36.6309536], [137.0198602, 36.6307638], [137.0192703, 36.6305635], [137.0191347, 36.6305277], [137.0182635, 36.6302186], [137.0176952, 36.6300241], [137.0172163, 36.6298459], [137.0170374, 36.6297093], [137.0168557, 36.6295125], [137.0165499, 36.6290437], [137.0163151, 36.6286781], [137.0158293, 36.6279579], [137.0156712, 36.6277304], [137.0154529, 36.6275511], [137.0151908, 36.627439], [137.0147412, 36.6272215], [137.0145095, 36.6271363], [137.0141351, 36.6270641], [137.0139995, 36.6270539], [137.0139064, 36.6270614], [137.0138075, 36.6270694], [137.0131499, 36.6271337], [137.0127439, 36.6271836], [137.0122268, 36.6272253], [137.0119408, 36.6272504], [137.0114354, 36.6272548], [137.0109366, 36.6272302], [137.0106011, 36.6272212], [137.0101941, 36.6272212], [137.0099867, 36.6272481], [137.0093164, 36.6273965], [137.0090036, 36.6274617], [137.0087993, 36.6274734], [137.0084956, 36.6274874], [137.0081269, 36.6275141], [137.0080579, 36.6275208], [137.0079829, 36.6275281], [137.0077182, 36.6275687], [137.0067869, 36.6277244], [137.0063855, 36.6278246], [137.005641, 36.6280791], [137.0036616, 36.628507], [137.003545, 36.6285309], [136.9987738, 36.629602], [136.9986648, 36.6296249], [136.9981018, 36.6297552], [136.9975542, 36.6298474], [136.9970025, 36.6299257]], [[137.005641, 36.6280791], [137.0041357, 36.628596], [137.0037089, 36.6286948], [137.0035804, 36.6287155], [136.9988086, 36.629784], [136.9987274, 36.6297986], [136.9985111, 36.6298307], [136.9975274, 36.6299267], [136.9970025, 36.6299257], [136.9968694, 36.6299261], [136.9966565, 36.6299227], [136.9964866, 36.6299199], [136.9958424, 36.629856], [136.9953998, 36.6298059], [136.9952896, 36.6297952], [136.9950012, 36.6297969], [136.9943807, 36.6298089], [136.9940797, 36.629817], [136.9934912, 36.6298537], [136.9926529, 36.6299705], [136.9920951, 36.6300477], [136.9920125, 36.6300636], [136.9916482, 36.6300992], [136.9915522, 36.6301037], [136.9910519, 36.6301272], [136.9904449, 36.6301184], [136.989407, 36.6300575], [136.9891471, 36.6300436], [136.9884352, 36.6300112], [136.9880949, 36.6300026], [136.9881109, 36.6305543], [136.9881228, 36.6306615], [136.9881415, 36.6308309], [136.9882312, 36.6311289], [136.9883495, 36.6314071], [136.9885127, 36.6316756], [136.9885274, 36.6316995], [136.9886045, 36.6318246], [136.9888799, 36.6321863], [136.9890084, 36.6324024], [136.9891179, 36.6327394], [136.9892141, 36.6330354], [136.9893246, 36.6334611], [136.9893812, 36.6337047], [136.9894732, 36.6340157], [136.9898045, 36.6352787], [136.9898662, 36.6354977], [136.9899251, 36.6356659], [136.9901032, 36.6360832], [136.9902506, 36.6364777], [136.9902722, 36.6368798]]]}, "id": "relation/15466328"}]}