{"type": "FeatureCollection", "generator": "kokudo-quiz tools/fetch_raw.py (Overpass API)", "copyright": "The data included in this document is from www.openstreetmap.org. The data is made available under ODbL.", "timestamp": "2026-09-30T23:38:19Z", "features": [{"type": "Feature", "properties": {"@id": "relation/6518158", "colour": "red", "from": "岐阜県高山市", "name": "国道361号", "name:en": "National Highway Route 361", "name:ja": "国道361号", "name:ja-Hira": "こくどうさんびゃくごじゅうにごう", "name:ja-Latn": "Kokudou 361 Gou", "network": "JP:national", "ref": "361", "route": "road", "to": "長野県伊那市", "type": "route", "wikidata": "Q6157341", "wikipedia": "ja:国道361号"}, "geometry": {"type": "MultiLineString", "coordinates": [[[137.2794789, 36.149622], [137.2795502, 36.149493], [137.2803605, 36.1480284], [137.2805437, 36.147703], [137.2810749, 36.1466126], [137.2813172, 36.146118], [137.281497, 36.1458173], [137.2816746, 36.1455477], [137.2818269, 36.1453563], [137.2820085, 36.1451587], [137.282251, 36.1449309], [137.2825937, 36.1446287], [137.2829916, 36.1442895], [137.2833775, 36.143959], [137.2835221, 36.1438318], [137.2836174, 36.1437329], [137.2836895, 36.1436193], [137.2837545, 36.1434961], [137.2837895, 36.1433489], [137.2838199, 36.1431789], [137.2838812, 36.1427073], [137.2839181, 36.1425755], [137.2839732, 36.1424593], [137.2840512, 36.1423441], [137.2841154, 36.1422725], [137.2846246, 36.141796], [137.2847839, 36.1416468], [137.2848739, 36.1415508], [137.2849385, 36.1414607], [137.2849665, 36.1414018], [137.2849975, 36.1413365], [137.2850289, 36.1412077], [137.2850373, 36.1410823], [137.2850303, 36.1409434], [137.2850058, 36.1408232], [137.2849109, 36.140447], [137.2848791, 36.1403077], [137.2848667, 36.140175], [137.2848779, 36.1400762], [137.2849167, 36.1399722], [137.2849821, 36.1398527], [137.2856244, 36.1389764], [137.2858299, 36.1386926], [137.2859028, 36.1386083], [137.285978, 36.1385392], [137.2860789, 36.1384869], [137.2861943, 36.1384463], [137.2863374, 36.1384123], [137.2864822, 36.1383931], [137.2866712, 36.1383813], [137.286887, 36.138365], [137.2870567, 36.1383374], [137.2871986, 36.1383037], [137.2873371, 36.1382607], [137.2880448, 36.1380215], [137.2890452, 36.1376719], [137.2892001, 36.1376114], [137.2893222, 36.1375546], [137.2894391, 36.1374848], [137.2895411, 36.1374014], [137.2896457, 36.1373056], [137.289751, 36.1371966], [137.2905417, 36.136341], [137.2906938, 36.1361881], [137.2913976, 36.1358128], [137.2916784, 36.1356407], [137.2918593, 36.135523], [137.2919752, 36.1354309], [137.2921128, 36.1352997], [137.2922166, 36.1351606], [137.2923151, 36.1349725], [137.2924124, 36.1347825], [137.2924625, 36.1346811], [137.29251, 36.134517], [137.2925154, 36.1343804], [137.2925119, 36.1343056], [137.2924933, 36.134235], [137.2924395, 36.1340387], [137.2923778, 36.1338237], [137.2923323, 36.1336324], [137.2923179, 36.1334826], [137.2923145, 36.1333247], [137.2923349, 36.1331664], [137.2923796, 36.1330209], [137.2924474, 36.13286], [137.2925461, 36.132713], [137.2926713, 36.1325532], [137.2928038, 36.1324172], [137.2930012, 36.1322822], [137.2932595, 36.1321457], [137.293602, 36.1319708], [137.2937645, 36.1318821], [137.2939065, 36.131789], [137.2940276, 36.1316999], [137.2941323, 36.1316114], [137.2941957, 36.1315428], [137.294231, 36.1315046], [137.2942969, 36.1314005], [137.294363, 36.1312834], [137.2944524, 36.1310928], [137.2945331, 36.1308865], [137.2945939, 36.1306906], [137.2946249, 36.1304999], [137.2946269, 36.1303232], [137.2946033, 36.1301655], [137.2945622, 36.130019], [137.2944269, 36.1296522], [137.2943595, 36.1294532], [137.2943096, 36.129281], [137.2942743, 36.1291208], [137.2942587, 36.1289649], [137.294261, 36.1288172], [137.294304, 36.1282669], [137.2943255, 36.1278452], [137.2943237, 36.1276744], [137.294309, 36.1275171], [137.294278, 36.1273683], [137.2942296, 36.1272193], [137.2940163, 36.1267648], [137.2938946, 36.126525], [137.2937775, 36.1263038], [137.2936506, 36.126093], [137.29305, 36.1252934], [137.292817, 36.1249891], [137.2926154, 36.1246999], [137.2924006, 36.124387], [137.2921319, 36.1239589], [137.2919695, 36.123694], [137.2918476, 36.1235142], [137.2917517, 36.1233901], [137.2916354, 36.1232638], [137.2914868, 36.1231376], [137.2913116, 36.1230252], [137.2903292, 36.122612], [137.2901384, 36.1225187], [137.2899814, 36.1224257], [137.2898525, 36.1223231], [137.2897081, 36.1221848], [137.2896202, 36.1220792], [137.289537, 36.1219506], [137.2894749, 36.1218259], [137.2894163, 36.1216822], [137.2893803, 36.1215179], [137.2893613, 36.1213601], [137.2893561, 36.1209633], [137.2893535, 36.1204107], [137.289378, 36.1201317], [137.289414, 36.1199052], [137.2894651, 36.1196279], [137.2895401, 36.1193362], [137.2896291, 36.1190562], [137.2897409, 36.1187638], [137.2898687, 36.1184994], [137.2900198, 36.1182271], [137.2901242, 36.1179947], [137.2902193, 36.117738], [137.2902785, 36.1174787], [137.2903106, 36.1172412], [137.2903131, 36.1170349], [137.2903047, 36.1164806], [137.2903292, 36.1161692], [137.2903851, 36.11585], [137.2904701, 36.1155184], [137.2905869, 36.1151538], [137.2906262, 36.1150395], [137.2906981, 36.1148423], [137.2907824, 36.1146442], [137.290893, 36.114415], [137.290991, 36.114231], [137.29104, 36.114132], [137.291131, 36.113953], [137.291223, 36.113795], [137.29137, 36.11357], [137.291517, 36.113377], [137.292128, 36.112633], [137.292623, 36.112079], [137.293791, 36.110828], [137.294825, 36.109762], [137.29651, 36.107955], [137.297165, 36.107295], [137.297819, 36.106555], [137.298858, 36.105486], [137.299575, 36.104756], [137.300205, 36.104071], [137.300926, 36.103302], [137.301085, 36.103124], [137.301158, 36.103029], [137.301231, 36.10293], [137.301309, 36.102813], [137.301421, 36.102632], [137.30158, 36.102369], [137.301691, 36.102175], [137.301745, 36.102075], [137.301815, 36.101932], [137.301893, 36.101756], [137.301961, 36.101595], [137.302032, 36.101405], [137.302116, 36.10114], [137.302171, 36.100915], [137.302214, 36.100681], [137.302235, 36.10049], [137.3024129, 36.099569], [137.3024019, 36.0994729], [137.30225, 36.0985156], [137.3021996, 36.0981856], [137.302272, 36.0976102], [137.302311, 36.0972242], [137.3023102, 36.09699], [137.3021152, 36.0964827], [137.3019456, 36.0962], [137.3015659, 36.0958407], [137.3012181, 36.0955585], [137.3003549, 36.0948715], [137.2992113, 36.0940759], [137.2988664, 36.0938004], [137.2986655, 36.0934802], [137.2985106, 36.0931274], [137.2984428, 36.0927388], [137.2984338, 36.0923933], [137.2985499, 36.0915642], [137.2985077, 36.0912035], [137.2983196, 36.0908524], [137.2980177, 36.0905537], [137.2970325, 36.0899216], [137.2953159, 36.088465], [137.2949407, 36.0881443], [137.294674, 36.0880105], [137.2944382, 36.0879222], [137.2942037, 36.0878668], [137.2939648, 36.0878221], [137.2937546, 36.0877774], [137.2936218, 36.0877333], [137.2934361, 36.087658], [137.2931972, 36.0875218], [137.2930792, 36.0874266], [137.2928877, 36.0871787], [137.292757, 36.086945], [137.2926599, 36.0865848], [137.2926478, 36.0862173], [137.2928039, 36.0858132], [137.2929769, 36.0855163], [137.2932848, 36.0852976], [137.2939408, 36.0848474], [137.294787, 36.085648], [137.2958629, 36.0866005], [137.2961506, 36.0867908], [137.2964072, 36.0869043], [137.296717, 36.0869932], [137.2976243, 36.0872085], [137.2989667, 36.0875547], [137.2991186, 36.0876106], [137.2992863, 36.087653], [137.3008244, 36.0880794], [137.3010229, 36.0881418], [137.3018193, 36.0883921], [137.303487, 36.0889428], [137.3038544, 36.089058], [137.3043382, 36.0891367], [137.305057, 36.0891882], [137.3056227, 36.0892125], [137.3058593, 36.089238], [137.3062082, 36.0892667], [137.3066274, 36.0893227], [137.3073274, 36.0894833], [137.3080588, 36.0896174], [137.3087691, 36.089725], [137.3103518, 36.0899564], [137.3118654, 36.0902232], [137.3132538, 36.0904832], [137.3135888, 36.090526], [137.3137866, 36.0905254], [137.3140989, 36.0904665], [137.31445, 36.0903758], [137.3145434, 36.0903273], [137.315206, 36.0900193], [137.316091, 36.0895809], [137.316635, 36.089461], [137.316981, 36.089484], [137.317329, 36.089577], [137.317417, 36.089604], [137.318111, 36.089836], [137.319106, 36.090203], [137.319363, 36.090355], [137.32001, 36.090712], [137.3211001, 36.0912444], [137.3216709, 36.0913969], [137.3222994, 36.0914407], [137.3229698, 36.091474], [137.3236313, 36.0914402], [137.3239199, 36.0914046], [137.3245842, 36.0913149], [137.3255841, 36.0911664], [137.3259397, 36.0911038], [137.3264946, 36.0911105], [137.326675, 36.0906133], [137.3268262, 36.0903231], [137.3270861, 36.090076], [137.3274362, 36.0898996], [137.327938, 36.089809], [137.3291633, 36.0897061], [137.3302394, 36.0896201], [137.3309256, 36.0895548], [137.3311356, 36.089518], [137.3315159, 36.0894369], [137.3323878, 36.0891368], [137.3331873, 36.0888735], [137.333491, 36.0888008], [137.3341308, 36.0888133], [137.3355371, 36.089269], [137.3358831, 36.0893948], [137.337556, 36.0899026], [137.338277, 36.0900983], [137.33867, 36.0901587], [137.3390412, 36.0901602], [137.3394463, 36.0900909], [137.3403382, 36.0899074], [137.340698, 36.0897787], [137.3429269, 36.0885304], [137.3434017, 36.0883293], [137.3438067, 36.0882035], [137.3441118, 36.0881517], [137.3445094, 36.0881159], [137.344901, 36.088112], [137.345623, 36.0881094], [137.3460135, 36.0880906], [137.3465203, 36.088107], [137.3471113, 36.0881721], [137.3474542, 36.0882666], [137.347947, 36.0884084], [137.3483235, 36.0885239], [137.3488723, 36.0886159], [137.3492736, 36.088617], [137.3493671, 36.0886172], [137.350424, 36.088587], [137.352206, 36.088498], [137.3556418, 36.088359], [137.3559837, 36.0883331], [137.3562203, 36.0882565], [137.356369, 36.0881678], [137.3565082, 36.0880566], [137.3565654, 36.0879654], [137.3572579, 36.0868021], [137.3575015, 36.0865556], [137.3582011, 36.0860086], [137.3584932, 36.085794], [137.3586612, 36.0856504], [137.3588113, 36.0854273], [137.3588811, 36.0852363], [137.3589659, 36.0842726], [137.359026, 36.0840051], [137.3598974, 36.0826181], [137.3603054, 36.0821453], [137.3607255, 36.08172], [137.361508, 36.0810931], [137.361837, 36.0809583], [137.3621812, 36.0808846], [137.3626258, 36.0809168], [137.363542, 36.0809733], [137.3639747, 36.0809595], [137.3678646, 36.0806307], [137.3691145, 36.08052], [137.3708678, 36.0803303], [137.3735715, 36.0797753], [137.3756314, 36.0794285], [137.3770476, 36.0793591], [137.377763, 36.0792227], [137.378421, 36.078992], [137.3786565, 36.0788164], [137.378805, 36.078613], [137.3789639, 36.07833], [137.3792257, 36.0779366], [137.379424, 36.0777224], [137.379849, 36.0773761], [137.380449, 36.076852], [137.3811651, 36.0762723], [137.381315, 36.0761312], [137.3816853, 36.0758316], [137.3818248, 36.0756994], [137.3820072, 36.0754436], [137.3822209, 36.0751343], [137.3823611, 36.0749757], [137.3826187, 36.0748301], [137.3834977, 36.0745387], [137.3837681, 36.0744288], [137.3844139, 36.0742098], [137.3845623, 36.0741264], [137.3847409, 36.0740024], [137.3848644, 36.0738402], [137.3849709, 36.0736034], [137.3849807, 36.0733409], [137.3849634, 36.0730316], [137.3849465, 36.0727256], [137.385015, 36.0724934], [137.3851607, 36.0722706], [137.3860893, 36.0710212], [137.3867894, 36.0705488], [137.3871323, 36.0702938], [137.3873146, 36.0700654], [137.3874331, 36.0698551], [137.387672, 36.0694005], [137.3878503, 36.0691497], [137.3881762, 36.0689213], [137.3884406, 36.0688089], [137.3887305, 36.0686722], [137.3890765, 36.0684312], [137.389293, 36.068212], [137.389578, 36.0679338], [137.3899936, 36.0676675], [137.3903484, 36.0674768], [137.3909387, 36.0673037], [137.3916817, 36.0671493], [137.3924549, 36.0671382], [137.3928031, 36.0671876], [137.3933365, 36.0673368], [137.39478, 36.0681142], [137.3955495, 36.0683626], [137.3961377, 36.0684683], [137.396595, 36.068499], [137.3973556, 36.0684044], [137.3978631, 36.0682161], [137.3982633, 36.0679584], [137.3988077, 36.067469], [137.3991809, 36.0668007], [137.3994879, 36.0663787], [137.4001446, 36.0656971], [137.4003589, 36.0654483], [137.4005093, 36.0649896], [137.4005853, 36.06466], [137.4005982, 36.0643889], [137.4003999, 36.0637091], [137.4003795, 36.0633754], [137.4006031, 36.0627554], [137.4007099, 36.0620287], [137.4008682, 36.0617315], [137.4010883, 36.0615018], [137.4013321, 36.0612899], [137.4015739, 36.0608263], [137.4018701, 36.0605455], [137.4034905, 36.0597778], [137.4039229, 36.0595695], [137.4045915, 36.0593036], [137.4053326, 36.059136], [137.4061019, 36.0590002], [137.4062835, 36.0589973], [137.4064572, 36.0589934], [137.406667, 36.0589881], [137.4068767, 36.0589958], [137.4073064, 36.0590165], [137.4081555, 36.0590995], [137.4085748, 36.0591323], [137.4089886, 36.0591565], [137.4094334, 36.0591821], [137.409872, 36.0591982], [137.4107264, 36.059223], [137.4124585, 36.059249], [137.413689, 36.0592425], [137.4141254, 36.0592304], [137.4150983, 36.0591749], [137.4156708, 36.0591463], [137.4167811, 36.0590915], [137.4178431, 36.0589846], [137.4189381, 36.0588882], [137.4199786, 36.0587754], [137.420582, 36.0586925], [137.4216992, 36.0585151], [137.4224301, 36.0583876], [137.4241418, 36.0580766], [137.4278569, 36.0573213], [137.4280821, 36.0572815], [137.4292661, 36.0570478], [137.4296143, 36.056991], [137.4298362, 36.0569453], [137.4300188, 36.056878], [137.4301984, 36.0567619], [137.4308609, 36.0559781], [137.430995, 36.0557297], [137.4310889, 36.0554933], [137.4311425, 36.0551768], [137.4312873, 36.054586], [137.4315932, 36.0537933], [137.4317568, 36.0533977], [137.4319365, 36.0531189], [137.4327491, 36.0521486], [137.4330737, 36.051846], [137.4343799, 36.0509494], [137.435405, 36.050238], [137.4357507, 36.0498034], [137.4359758, 36.0495095], [137.4361155, 36.0493761], [137.436365, 36.0491983], [137.4370407, 36.0488676], [137.4375141, 36.0486131], [137.4377686, 36.0485062], [137.4380638, 36.0483568], [137.4383623, 36.0482023], [137.4387251, 36.0480521], [137.4393831, 36.0479017], [137.4397577, 36.0477963], [137.4400081, 36.0476501], [137.4408763, 36.0469223], [137.4412009, 36.0465316], [137.4415557, 36.0457786], [137.4419116, 36.0452155], [137.4421968, 36.0448704], [137.4423578, 36.0446487], [137.4424133, 36.0444685], [137.4424077, 36.0442732], [137.4423006, 36.0440329], [137.4420095, 36.0435761], [137.4419479, 36.0433677], [137.4419815, 36.0430696], [137.4421342, 36.0427628], [137.4422898, 36.0424981], [137.4423658, 36.0423476], [137.4424462, 36.0420722], [137.4424784, 36.0418056], [137.4424894, 36.0411649], [137.4424902, 36.0410965], [137.4424939, 36.040958], [137.4428264, 36.0365459], [137.4428492, 36.0364257], [137.4428798, 36.0359981], [137.4428599, 36.0357833], [137.4428164, 36.0356003], [137.4427779, 36.0354838], [137.4427055, 36.0352649], [137.4422719, 36.0341318], [137.4422189, 36.0339505], [137.4422209, 36.0337848], [137.4423219, 36.0332412], [137.4423584, 36.0331089], [137.44276, 36.0325788], [137.4435235, 36.0314217], [137.4438856, 36.0309008], [137.4442379, 36.0304878], [137.4444129, 36.0303], [137.444716, 36.0301351], [137.4449299, 36.0300084], [137.4450728, 36.0298661], [137.4451625, 36.0297251], [137.4453463, 36.0295646], [137.4455227, 36.0294683], [137.4458232, 36.0294228], [137.4461269, 36.0292718], [137.4468736, 36.0287685], [137.4491669, 36.0283391], [137.4495219, 36.0284119], [137.4502372, 36.028647], [137.4506475, 36.0287078], [137.4510293, 36.0286592], [137.45126, 36.0285898], [137.4521692, 36.0282037], [137.4523882, 36.0281373], [137.4528022, 36.0280475], [137.4534111, 36.0280041], [137.4539985, 36.0280237], [137.4544643, 36.0280809], [137.4562534, 36.0284128], [137.4565375, 36.0284998], [137.4567478, 36.0286354], [137.4568846, 36.0287937], [137.4569913, 36.0290804], [137.4572725, 36.029866], [137.4573405, 36.0299455], [137.4574612, 36.0299932], [137.4578537, 36.0300123], [137.4580692, 36.0300592], [137.4585923, 36.0301828], [137.4593093, 36.0302145], [137.4595068, 36.0302956], [137.4596687, 36.0303099], [137.460071, 36.030247], [137.4606718, 36.0301126], [137.4614658, 36.0300909], [137.462012, 36.0301026], [137.462154, 36.0301237], [137.4623562, 36.0301868], [137.4626236, 36.0302848], [137.4629732, 36.0304639], [137.4632789, 36.0305203], [137.4636759, 36.0306722], [137.4640974, 36.0309322], [137.4646439, 36.0309402], [137.4653347, 36.0307604], [137.4657922, 36.0307596], [137.4660899, 36.030824], [137.4664845, 36.0310429], [137.4668302, 36.0311841], [137.4672057, 36.0312361], [137.4676205, 36.0313663], [137.4683734, 36.0316586], [137.4687989, 36.0317264], [137.4697958, 36.0315775], [137.4701874, 36.0315516], [137.4706336, 36.0316309], [137.4714312, 36.0319773], [137.471744, 36.0320387], [137.4721141, 36.0319693], [137.472596, 36.0318465], [137.4736097, 36.0319082], [137.4744691, 36.0317654], [137.4751495, 36.0317251], [137.4754885, 36.031753], [137.4757512, 36.0318392], [137.4759112, 36.032007], [137.4761055, 36.0328584], [137.4763114, 36.033117], [137.476572, 36.0333185], [137.47698, 36.0333989], [137.4778363, 36.033441], [137.4781223, 36.0334963], [137.478352, 36.033627], [137.4785649, 36.0337306], [137.4787554, 36.0337763], [137.479222, 36.0337479], [137.479404, 36.0337495], [137.4796377, 36.0338455], [137.4803074, 36.0342065], [137.480547, 36.0343704], [137.4809332, 36.0344377], [137.4813361, 36.0345675], [137.4814502, 36.0346105], [137.4820603, 36.0349327], [137.4823494, 36.035071], [137.4828376, 36.0352098], [137.483239, 36.035401], [137.4842136, 36.0357738], [137.484454, 36.035904], [137.4846787, 36.036148], [137.4849857, 36.0363377], [137.4852614, 36.0364449], [137.4874617, 36.0370252], [137.4879419, 36.037086], [137.488572, 36.037103], [137.4888028, 36.0370881], [137.4890178, 36.0370555], [137.4893411, 36.0369177], [137.4896907, 36.0366869], [137.4902044, 36.0362177], [137.490481, 36.0360566], [137.4907448, 36.0359364], [137.4911203, 36.0358518], [137.4918436, 36.0358202], [137.4925982, 36.0358453], [137.4930452, 36.0359178], [137.4935128, 36.0361013], [137.4966504, 36.0377485], [137.497208, 36.0380412], [137.4973497, 36.0381151], [137.4977005, 36.0382629], [137.4979216, 36.0383213], [137.4982631, 36.038407], [137.4987244, 36.0384678], [137.4990249, 36.0384721], [137.4993521, 36.0384504], [137.4998027, 36.0383897], [137.5001567, 36.0383116], [137.5005269, 36.0381598], [137.5009131, 36.0379689], [137.5012779, 36.0377347], [137.5015998, 36.0374397], [137.5018895, 36.0371014], [137.5020826, 36.036789], [137.5022328, 36.0364593], [137.5023186, 36.0360776], [137.5023293, 36.0357132], [137.5022757, 36.0353055], [137.5021362, 36.0348717], [137.4985099, 36.0239869], [137.4984455, 36.0237222], [137.4984455, 36.0234359], [137.4985045, 36.0231322], [137.4986064, 36.0228458], [137.4987459, 36.022591], [137.4987938, 36.0225346], [137.4989148, 36.0223961], [137.4991783, 36.0221313], [137.499259, 36.0220255], [137.4993123, 36.0219316], [137.4993585, 36.0217965], [137.4994595, 36.0215011], [137.4995832, 36.0211549], [137.4997003, 36.0209936], [137.4999538, 36.0207983], [137.500174, 36.0206888], [137.5003737, 36.0206115], [137.5019573, 36.0199383], [137.5020704, 36.0198902], [137.502795, 36.0195765], [137.5036895, 36.0192159], [137.5043541, 36.0188581], [137.5049505, 36.0184701], [137.5054238, 36.0180732], [137.5059917, 36.017526], [137.5064962, 36.0168238], [137.5068486, 36.0162364], [137.5071026, 36.0156904], [137.5073025, 36.0151444], [137.5075416, 36.0144705], [137.5076175, 36.0142566], [137.5078957, 36.0135021], [137.5079886, 36.0133103], [137.5081207, 36.0131464], [137.508296, 36.0130022], [137.5089074, 36.0124812], [137.5093695, 36.0120161], [137.5100745, 36.0112284], [137.5102703, 36.0110072], [137.510403, 36.0108837], [137.5105552, 36.0107806], [137.5107037, 36.0107096], [137.5114665, 36.0106255], [137.5116403, 36.0105844], [137.5117795, 36.0105183], [137.5118839, 36.0104543], [137.5119256, 36.0104094], [137.5120456, 36.0102688], [137.5122954, 36.0098424], [137.5123534, 36.0097337], [137.5123791, 36.009688], [137.5132147, 36.0081614], [137.5136272, 36.0074786], [137.5137465, 36.0073185], [137.5138703, 36.007181], [137.5140539, 36.0070276], [137.5149129, 36.0063439], [137.5151297, 36.0061415], [137.515167, 36.0060786], [137.5153443, 36.0058457], [137.5155053, 36.0056431], [137.515677, 36.0054578], [137.5158635, 36.0053413], [137.516042, 36.005252], [137.5162374, 36.0051869], [137.5163354, 36.0051604], [137.5165831, 36.0051435], [137.5167758, 36.005158], [137.5170856, 36.0051811], [137.5172301, 36.0051529], [137.5173555, 36.0050971], [137.5174465, 36.0050096], [137.5175133, 36.0048901], [137.5175317, 36.004777], [137.517514, 36.0046242], [137.5175308, 36.0045047], [137.5175967, 36.0043916], [137.5178776, 36.0041269], [137.5179861, 36.0040168], [137.5180648, 36.0038171], [137.5180967, 36.0036748], [137.5181324, 36.00312], [137.5182223, 36.0029737], [137.518344, 36.0028696], [137.5185028, 36.002793], [137.5186734, 36.0027765], [137.5190502, 36.002817], [137.5193217, 36.0028018], [137.5195586, 36.0027476], [137.5197901, 36.0026805], [137.5199826, 36.0025803], [137.5201442, 36.0024156], [137.5203616, 36.0020705], [137.5204899, 36.001908], [137.520656, 36.0017856], [137.5208785, 36.0017048], [137.5211144, 36.0016631], [137.5217035, 36.0015875], [137.5219106, 36.0015287], [137.5220412, 36.0014073], [137.5220722, 36.0012853], [137.5220464, 36.0010807], [137.5219844, 36.000945], [137.5213976, 36.0001249], [137.5212835, 35.9998939], [137.5211494, 35.999653], [137.5211145, 35.9995315], [137.5211319, 35.999398], [137.5215169, 35.9989261], [137.5216442, 35.9988371], [137.5218528, 35.9987948], [137.5228472, 35.9987851], [137.5230283, 35.9987872], [137.5231929, 35.9988238], [137.5233521, 35.9988952], [137.5236962, 35.9991185], [137.5239688, 35.9992345], [137.5242414, 35.9992985], [137.524699, 35.9993119], [137.5252792, 35.9992796], [137.5254784, 35.9992928], [137.5256982, 35.9993332], [137.5258708, 35.9994183], [137.5265836, 35.9998397], [137.5267662, 35.9999221], [137.526942, 35.9999759], [137.5274633, 36.0000849], [137.527616, 36.0000969], [137.5277829, 36.0000642], [137.528089, 35.9999198], [137.5282555, 35.9998237], [137.5283468, 35.9997407], [137.5283653, 35.9996748], [137.5284731, 35.9994421], [137.5284984, 35.9993832], [137.5285248, 35.9992699], [137.528463, 35.9988575], [137.5284119, 35.9987011], [137.5284225, 35.9985298], [137.5284814, 35.9983314], [137.528602, 35.9980331], [137.5286923, 35.9978912], [137.5288206, 35.9977986], [137.528973, 35.9977602], [137.5293753, 35.9977074], [137.5296918, 35.9976416], [137.5299894, 35.9975027], [137.5303996, 35.997253], [137.5306218, 35.9971684], [137.5308387, 35.9971249], [137.5311273, 35.9971242], [137.5314695, 35.9971711], [137.5316873, 35.9971605], [137.5318917, 35.9971282], [137.5323847, 35.9968624], [137.5326853, 35.9966894], [137.5329279, 35.9964872], [137.5330245, 35.9963472], [137.5330701, 35.996168], [137.533068, 35.9960361], [137.533031, 35.9958651], [137.532959, 35.9957319], [137.5327025, 35.9954664], [137.5321692, 35.9949434], [137.5319478, 35.9948255], [137.5316656, 35.9947349], [137.5310681, 35.9945763], [137.5306464, 35.9944368], [137.5305076, 35.9943593], [137.5303688, 35.9942489], [137.5298024, 35.993421], [137.5297453, 35.9932602], [137.5296949, 35.9930886], [137.5297378, 35.9919775], [137.5296481, 35.9915713], [137.5294803, 35.9913178], [137.528622, 35.9907275], [137.52833, 35.99048], [137.5280641, 35.9901719], [137.5278924, 35.9891996], [137.528201, 35.98827], [137.5282358, 35.9877759], [137.52825, 35.987624], [137.5283487, 35.9872806], [137.528622, 35.9869773], [137.5292228, 35.98663], [137.5295232, 35.9861786], [137.5295463, 35.9859117], [137.5294374, 35.9856577], [137.5291618, 35.9853736], [137.5285504, 35.9850141], [137.5283216, 35.9847548], [137.5282933, 35.9844857], [137.5284301, 35.9841871], [137.5294803, 35.9833658], [137.5300404, 35.9829333], [137.5302099, 35.9825671], [137.5301769, 35.9818888], [137.530343, 35.9814929], [137.5307249, 35.9811432], [137.5313489, 35.9808483], [137.5315832, 35.9805876], [137.5317548, 35.979511], [137.5320122, 35.9784917], [137.5328, 35.9781891], [137.5330103, 35.9778166], [137.5329994, 35.9775908], [137.5325702, 35.9767327], [137.532521, 35.976592], [137.5328277, 35.9756561], [137.5332139, 35.9747531], [137.5336431, 35.9738501], [137.5340723, 35.973086], [137.5341487, 35.9729903], [137.5342591, 35.9729323], [137.5342949, 35.9729095], [137.5345117, 35.9728459], [137.5347214, 35.9728209], [137.5348685, 35.9728426], [137.5350021, 35.972878], [137.5360464, 35.973225], [137.5363384, 35.9733067], [137.5364441, 35.9733045], [137.5365352, 35.9732876], [137.5366282, 35.9732662], [137.5367248, 35.9732301], [137.537242, 35.972977], [137.5377312, 35.9728012], [137.5391396, 35.9727982], [137.5402884, 35.9727958], [137.5407241, 35.9728777], [137.5415908, 35.9732352], [137.5420709, 35.9732601], [137.5424066, 35.9730923], [137.5430285, 35.97278], [137.543288, 35.9725705], [137.54348, 35.9718911], [137.543949, 35.9712259], [137.5441374, 35.9708639], [137.544374, 35.9705816], [137.5445404, 35.9700679], [137.5449563, 35.9699672], [137.5452937, 35.9701003], [137.5455755, 35.9700407], [137.5460128, 35.9698393], [137.5463373, 35.9700436], [137.5466779, 35.9701404], [137.546808, 35.9701696], [137.5469251, 35.9701732], [137.5470443, 35.9701613], [137.5471753, 35.9701054], [137.5472713, 35.9700582], [137.5473715, 35.9700163], [137.5474903, 35.9700116], [137.5475902, 35.9700333], [137.5476753, 35.9700833], [137.5477425, 35.9701536], [137.5479078, 35.9703409], [137.5479665, 35.9704158], [137.5479933, 35.9704932], [137.5479944, 35.9705837], [137.5479623, 35.9706757], [137.5478849, 35.9707561], [137.5478047, 35.9707907], [137.5477064, 35.9708052], [137.5475544, 35.9707846], [137.5473734, 35.9707333], [137.5469962, 35.9706068], [137.5469228, 35.9705877], [137.5468268, 35.9705643], [137.5467355, 35.9705555], [137.546638, 35.9705633], [137.5465664, 35.9706013], [137.5465129, 35.9706693], [137.546518, 35.9707599], [137.5466001, 35.9708554], [137.5468593, 35.9710305], [137.5470161, 35.9711554], [137.5471999, 35.9713454], [137.5472336, 35.9713915], [137.5472677, 35.9714547], [137.5472837, 35.9715107], [137.5472716, 35.971551], [137.547239, 35.9715893], [137.5472085, 35.9716118], [137.547155, 35.9716343], [137.5471013, 35.9716508], [137.546983, 35.9716603], [137.5467585, 35.9717138], [137.5465997, 35.9718828], [137.5467109, 35.9719631], [137.5470065, 35.9719858], [137.5476316, 35.972], [137.5479207, 35.9719664], [137.548128, 35.9718982], [137.5484012, 35.9718099], [137.5486952, 35.9717925], [137.5488564, 35.9718687], [137.5489148, 35.9719818], [137.5489417, 35.9722012], [137.5489997, 35.9727817], [137.5490187, 35.9728459], [137.5490423, 35.9728829], [137.5490823, 35.9729161], [137.5491275, 35.972927], [137.5491713, 35.9729234], [137.549217, 35.9729036], [137.5492533, 35.972879], [137.5492726, 35.9728489], [137.5492818, 35.9728188], [137.5492921, 35.9727635], [137.5492987, 35.9726692], [137.5493289, 35.9724432], [137.5493916, 35.971835], [137.5493927, 35.9717129], [137.5493529, 35.9714552], [137.5493505, 35.9713689], [137.5493532, 35.9713226], [137.5493721, 35.9712666], [137.5494119, 35.9712084], [137.549683, 35.9709079], [137.5497636, 35.9707942], [137.5497925, 35.9707415], [137.5498174, 35.9706839], [137.5498491, 35.9706096], [137.5498761, 35.9705424], [137.5499202, 35.9704015], [137.5499846, 35.9701881], [137.5500228, 35.9700765], [137.550057, 35.9699975], [137.5501192, 35.9699248], [137.5501817, 35.9698788], [137.5502392, 35.969846], [137.5503203, 35.9698166], [137.5503982, 35.969788], [137.550463, 35.9697602], [137.5505291, 35.9697123], [137.5506106, 35.9696451], [137.5507108, 35.9695421], [137.5507861, 35.9694727], [137.5508523, 35.9694221], [137.5509397, 35.9693761], [137.5510389, 35.969345], [137.5511842, 35.9693131], [137.551283, 35.969289], [137.5513617, 35.9692698], [137.5514286, 35.9692442], [137.5515003, 35.9692077], [137.5515906, 35.9691528], [137.5517111, 35.9690808], [137.5517877, 35.9690199], [137.5518583, 35.9689519], [137.5518936, 35.9689044], [137.5519127, 35.9688557], [137.5519172, 35.9688012], [137.5519086, 35.9687427], [137.5518961, 35.9686909], [137.5518666, 35.9686372], [137.5518362, 35.9685934], [137.5517806, 35.9685433], [137.5517172, 35.968505], [137.5516159, 35.9684598], [137.5515098, 35.9684208], [137.551438, 35.9683917], [137.55138, 35.9683606], [137.5513349, 35.9683239], [137.5513022, 35.9682867], [137.5512839, 35.9682551], [137.5512615, 35.9681925], [137.5512534, 35.9681326], [137.5512755, 35.9680612], [137.5513067, 35.9680062], [137.5513702, 35.967943], [137.5514639, 35.9678633], [137.5516376, 35.9677319], [137.5520713, 35.967426], [137.5522767, 35.9672837], [137.5523905, 35.9672077], [137.5524665, 35.9671558], [137.5525207, 35.9671266], [137.5525849, 35.9671007], [137.5526702, 35.967066], [137.5527724, 35.967038], [137.5528523, 35.9670182], [137.5535551, 35.966895], [137.554457, 35.9664869], [137.5549716, 35.9662213], [137.5563038, 35.9653592], [137.5564431, 35.9652046], [137.5564813, 35.9643592], [137.5567329, 35.9637211], [137.5571635, 35.9621763], [137.5572173, 35.9619787], [137.557234, 35.9618646], [137.557097, 35.961333], [137.5570749, 35.9607555], [137.5567291, 35.9597151], [137.5569922, 35.9591408], [137.5567532, 35.9578243], [137.5566991, 35.957334], [137.5570746, 35.9555829], [137.5571233, 35.9553369], [137.557129, 35.9552483], [137.5571255, 35.9551769], [137.5571166, 35.9551129], [137.5570212, 35.9545908], [137.5569936, 35.9544217], [137.5569862, 35.9543507], [137.5569838, 35.9542934], [137.5569959, 35.9542404], [137.5570172, 35.9541877], [137.5570546, 35.9541157], [137.5576151, 35.9532189], [137.5577143, 35.9530837], [137.5577774, 35.9530052], [137.5578321, 35.9529473], [137.557906, 35.9528924], [137.5580406, 35.9528069], [137.5594352, 35.9522446], [137.5595454, 35.9522065], [137.5596652, 35.9521623], [137.5598933, 35.9520616], [137.560299, 35.9518301], [137.5611029, 35.9513732], [137.5630401, 35.9504381], [137.5645776, 35.9497243], [137.5651078, 35.9495879], [137.565477, 35.9495152], [137.5662588, 35.9493612], [137.5686191, 35.9487011], [137.5700353, 35.948041], [137.5720523, 35.946686], [137.5726144, 35.9465558], [137.5731681, 35.9466165], [137.5738978, 35.9469913], [137.5744809, 35.9472514], [137.5746647, 35.9473334], [137.5748494, 35.9474213], [137.5750055, 35.9475091], [137.5751633, 35.9476223], [137.575308, 35.9477445], [137.5755397, 35.9479666], [137.5755845, 35.9480095], [137.5756601, 35.9480788], [137.5757287, 35.9481286], [137.5757907, 35.9481579], [137.5758468, 35.9481833], [137.5759039, 35.9481999], [137.5759831, 35.9482151], [137.5765318, 35.9483487], [137.5765895, 35.9483684], [137.5766516, 35.9483889], [137.5769674, 35.9486677], [137.5772731, 35.9489826], [137.5775079, 35.9492165], [137.5777746, 35.9494813], [137.5779117, 35.9496135], [137.5779839, 35.9496832], [137.578332, 35.9500098], [137.5787536, 35.9504151], [137.5793852, 35.9509846], [137.5809201, 35.9523341], [137.5813274, 35.9526723], [137.5814372, 35.9527444], [137.5815351, 35.9527705], [137.5816061, 35.9527618], [137.5816591, 35.9527493], [137.5816908, 35.9527418], [137.5822217, 35.9525534], [137.5827261, 35.9523879], [137.5830038, 35.9522869], [137.5831175, 35.9522449], [137.5832189, 35.9521936], [137.5833067, 35.9521376], [137.5833692, 35.9520786], [137.5834262, 35.952016], [137.5834663, 35.9519389], [137.5834922, 35.9518656], [137.5835116, 35.951779], [137.5835082, 35.9516856], [137.58349, 35.9515843], [137.5834524, 35.9514544], [137.583212, 35.9507334], [137.5831722, 35.95064], [137.5831186, 35.9505558], [137.5829911, 35.9503803], [137.5829148, 35.9502835], [137.5827576, 35.9500421], [137.5822507, 35.9492812], [137.5818942, 35.948763], [137.5816061, 35.9483438], [137.5814944, 35.948173], [137.5814215, 35.9480431], [137.5813623, 35.9478996], [137.5813293, 35.9478119], [137.5813054, 35.9477083], [137.5813065, 35.947608], [137.5813213, 35.9475192], [137.58136, 35.9473927], [137.581524, 35.9470385], [137.5815468, 35.9469474], [137.5815559, 35.9468472], [137.5815252, 35.9466797], [137.5814432, 35.9464474], [137.5813589, 35.946141], [137.5812438, 35.945453], [137.5812404, 35.9453642], [137.5812495, 35.9453095], [137.5812666, 35.9452605], [137.5813076, 35.9452013], [137.5814375, 35.9450464], [137.5814682, 35.9450008], [137.5814773, 35.9449462], [137.5814785, 35.9448938], [137.5814546, 35.9447879], [137.581442, 35.9447366], [137.581442, 35.9446967], [137.5814511, 35.9446523], [137.5815263, 35.9444837], [137.58154, 35.9444496], [137.5816505, 35.9441045], [137.5816721, 35.9440373], [137.581704, 35.9439723], [137.5817496, 35.9438926], [137.5817632, 35.9438208], [137.5817598, 35.9437468], [137.5816733, 35.9435213], [137.5816186, 35.9434279], [137.5814956, 35.9432388], [137.5814318, 35.9431409], [137.5813703, 35.9430452], [137.5812917, 35.9429074], [137.5812564, 35.9428276], [137.5811937, 35.9426386], [137.5811607, 35.9425099], [137.5811436, 35.942372], [137.5810946, 35.9420155], [137.5810764, 35.9419517], [137.5810297, 35.941888], [137.580868, 35.9417444], [137.5808463, 35.9417148], [137.5808349, 35.9416807], [137.5808247, 35.9416351], [137.5808042, 35.941372], [137.5808031, 35.9411077], [137.5808122, 35.9409995], [137.5808646, 35.9407991], [137.5809067, 35.9407125], [137.5809192, 35.9406464], [137.5809261, 35.9405599], [137.5809249, 35.9404574], [137.5809135, 35.9403811], [137.5808577, 35.9401669], [137.5807415, 35.9398526], [137.5807199, 35.9397649], [137.5807062, 35.9397352], [137.5806641, 35.9396954], [137.5805058, 35.9395621], [137.5803759, 35.9394471], [137.580335, 35.9393897], [137.5803258, 35.939356], [137.5803281, 35.9393195], [137.5803497, 35.9392762], [137.5803919, 35.9392159], [137.5804796, 35.9391304], [137.5805912, 35.9390632], [137.5807689, 35.9389903], [137.5808236, 35.9389562], [137.5808543, 35.9389186], [137.5808805, 35.9388673], [137.5809283, 35.9386999], [137.5809557, 35.9386441], [137.5809864, 35.938594], [137.5810297, 35.9385495], [137.5811584, 35.938422], [137.581188, 35.9383628], [137.5812017, 35.9383126], [137.5812057, 35.9382688], [137.5811972, 35.9382261], [137.5811715, 35.9381332], [137.5811704, 35.9381036], [137.5811732, 35.938066], [137.5811869, 35.9380364], [137.5812068, 35.9380097], [137.5812364, 35.9379772], [137.5813515, 35.9378872], [137.5815787, 35.9377238], [137.5816169, 35.9377021], [137.5816516, 35.9376942], [137.5816858, 35.9376902], [137.581716, 35.9376924], [137.5817484, 35.9377004], [137.5817746, 35.9377124], [137.5818122, 35.9377414], [137.5820298, 35.9379379], [137.582048, 35.9379652], [137.5820605, 35.9380011], [137.5820685, 35.9380438], [137.5820719, 35.9381492], [137.5820748, 35.9381885], [137.582085, 35.9382335], [137.5821328, 35.93834], [137.5821539, 35.9383679], [137.5822074, 35.9384038], [137.5823396, 35.9384704], [137.5824016, 35.9385068], [137.5824438, 35.9385444], [137.5824734, 35.9385945], [137.5825497, 35.9387967], [137.5825884, 35.9388582], [137.5826397, 35.9389066], [137.5827382, 35.9389641], [137.5830412, 35.9391236], [137.5830754, 35.9391344], [137.5831181, 35.9391407], [137.5831579, 35.9391395], [137.5831921, 35.9391299], [137.5832348, 35.9391111], [137.5833892, 35.9390228], [137.5834672, 35.9389693], [137.5835105, 35.9389351], [137.5835327, 35.9389055], [137.583552, 35.9388685], [137.5835629, 35.9388326], [137.5835879, 35.9386879], [137.5836044, 35.9386572], [137.5836375, 35.938619], [137.5836745, 35.9385934], [137.5837246, 35.9385752], [137.5837702, 35.9385683], [137.5838761, 35.9385649], [137.5839216, 35.9385564], [137.5839695, 35.938541], [137.5840247, 35.9385108], [137.5840851, 35.9384687], [137.5841278, 35.9384248], [137.5841677, 35.9383878], [137.5842098, 35.9383713], [137.5842548, 35.9383582], [137.5843078, 35.9383514], [137.5843727, 35.9383508], [137.5844496, 35.9383656], [137.5847998, 35.9384453], [137.5848459, 35.9384607], [137.5848932, 35.9384789], [137.5849399, 35.9385114], [137.5849969, 35.9385541], [137.5852093, 35.9387437], [137.5852771, 35.9387836], [137.5853249, 35.9388041], [137.5854063, 35.938824], [137.58549, 35.9388218], [137.5855618, 35.9388229], [137.5856119, 35.9388286], [137.58567, 35.9388497], [137.5857418, 35.9389055], [137.5858198, 35.9389812], [137.586014, 35.9392045], [137.5860749, 35.9392933], [137.5861444, 35.9393839], [137.5861723, 35.9394095], [137.5862133, 35.9394254], [137.58626, 35.9394294], [137.586301, 35.9394249], [137.5863477, 35.9394095], [137.586375, 35.939385], [137.58642, 35.9393241], [137.5864753, 35.9392273], [137.5865487, 35.9391031], [137.5865789, 35.9390729], [137.5866216, 35.9390518], [137.5867708, 35.9389966], [137.5868477, 35.9389573], [137.5869064, 35.9389129], [137.5869394, 35.9388639], [137.5869451, 35.9388292], [137.5869474, 35.9388001], [137.5869343, 35.9387671], [137.5868961, 35.9386993], [137.5868346, 35.9386122], [137.5867896, 35.9385325], [137.58676, 35.9384664], [137.5867441, 35.9384186], [137.5867367, 35.9383707], [137.5867333, 35.9383149], [137.5867338, 35.9382494], [137.5867429, 35.9382016], [137.5867686, 35.938107], [137.5867868, 35.938037], [137.5867914, 35.9379755], [137.5867862, 35.9379072], [137.5867817, 35.937836], [137.5867726, 35.937791], [137.58676, 35.937746], [137.5867424, 35.9377107], [137.5867139, 35.9376771], [137.586678, 35.9376418], [137.5865624, 35.9375512], [137.586428, 35.9374527], [137.5864052, 35.9374214], [137.586391, 35.9373764], [137.5863876, 35.9373308], [137.5863887, 35.9372847], [137.5864012, 35.9372431], [137.5864297, 35.9371981], [137.5866023, 35.9370176], [137.5867076, 35.9369282], [137.58676, 35.9368957], [137.5868301, 35.9368621], [137.5868791, 35.9368445], [137.5869144, 35.9368428], [137.5869633, 35.9368462], [137.587075, 35.936861], [137.5872598, 35.9368906], [137.5874121, 35.936898], [137.5877088, 35.9369225], [137.5879178, 35.9369532], [137.5883598, 35.9370005], [137.5885266, 35.937033], [137.5886519, 35.93707], [137.5887869, 35.9371321], [137.5888991, 35.937197], [137.5891047, 35.937365], [137.5891702, 35.9374094], [137.5892727, 35.9374555], [137.5895039, 35.9375592], [137.5897095, 35.93766], [137.5897795, 35.9377061], [137.5898325, 35.9377522], [137.5898883, 35.9378155], [137.5899566, 35.9379134], [137.5899971, 35.9379499], [137.5900398, 35.9379761], [137.5900865, 35.9379949], [137.5901514, 35.9380108], [137.5902135, 35.9380182], [137.5902761, 35.9380211], [137.5903473, 35.9380188], [137.5904088, 35.9380108], [137.5904715, 35.9379937], [137.5905438, 35.9379681], [137.5906509, 35.9379197], [137.5908126, 35.9378325], [137.5909994, 35.9377209], [137.5910563, 35.9376816], [137.591103, 35.9376395], [137.5911161, 35.9376013], [137.5911218, 35.937562], [137.5911173, 35.9374982], [137.5911133, 35.9374561], [137.5910729, 35.9373126], [137.5909749, 35.9369498], [137.5909407, 35.9367795], [137.5908997, 35.9366252], [137.5908775, 35.9365614], [137.5908468, 35.9365159], [137.5906452, 35.9362459], [137.5906252, 35.9362066], [137.590615, 35.9361673], [137.5906155, 35.9361258], [137.5906281, 35.9360916], [137.590648, 35.9360608], [137.5906759, 35.9360289], [137.5907198, 35.935997], [137.5907847, 35.9359674], [137.5910837, 35.9358376], [137.5911344, 35.9357989], [137.5911668, 35.9357596], [137.5911845, 35.9357066], [137.5911902, 35.9356553], [137.5911776, 35.9356109], [137.591156, 35.9355779], [137.5911144, 35.9355352], [137.5909624, 35.9354253], [137.5909305, 35.9354002], [137.5908906, 35.9353592], [137.5908399, 35.9352988], [137.5906514, 35.9350397], [137.5906087, 35.934997], [137.5905649, 35.9349674], [137.5904948, 35.9349355], [137.5903097, 35.9348683], [137.5902687, 35.9348472], [137.5902254, 35.9348096], [137.5901804, 35.9347658], [137.5901468, 35.9347168], [137.5901292, 35.934673], [137.5901197, 35.9346294], [137.590115, 35.934567], [137.5901195, 35.9345015], [137.5901406, 35.9343426], [137.5901423, 35.9342811], [137.5901366, 35.9342327], [137.5901178, 35.9341832], [137.5900876, 35.9341393], [137.590013, 35.9340704], [137.5897602, 35.9338552], [137.5896884, 35.9337783], [137.5896383, 35.9337042], [137.5896159, 35.9336491], [137.5896087, 35.9335955], [137.5896092, 35.9335334], [137.5896292, 35.9334685], [137.5896668, 35.9334144], [137.5897294, 35.933358], [137.5897972, 35.9333153], [137.5898951, 35.9332731], [137.5899441, 35.9332435], [137.5899988, 35.9331945], [137.5900415, 35.9331421], [137.5901252, 35.9330448], [137.5901662, 35.9329787], [137.5902084, 35.9328711], [137.5902391, 35.9327606], [137.5902562, 35.9327116], [137.5902972, 35.9326615], [137.5903405, 35.9326307], [137.5904567, 35.9325573], [137.5905415, 35.9324844], [137.5905751, 35.9324479], [137.5906081, 35.9324052], [137.5906947, 35.9322754], [137.590742, 35.9322087], [137.5907864, 35.9321575], [137.5908428, 35.9321113], [137.5909003, 35.9320703], [137.5909783, 35.9320305], [137.5910324, 35.9320123], [137.5910951, 35.9320043], [137.5911651, 35.9320043], [137.5912391, 35.9320197], [137.5913092, 35.9320493], [137.5913855, 35.9321153], [137.5914521, 35.9321791], [137.5915199, 35.9322252], [137.5915894, 35.9322606], [137.5916611, 35.9322885], [137.5917489, 35.9323021], [137.592098, 35.9323454], [137.5921834, 35.9323505], [137.5922973, 35.9323522], [137.5925894, 35.9323431], [137.5929385, 35.9323386], [137.5930376, 35.9323431], [137.593217, 35.9323528], [137.5934989, 35.9323534], [137.5938281, 35.9323528], [137.5941127, 35.9323623], [137.5943677, 35.9323844], [137.594718, 35.9324255], [137.5951902, 35.9324815], [137.5953253, 35.9324935], [137.5954415, 35.9325015], [137.5956847, 35.9325026], [137.5959728, 35.9324832], [137.5965657, 35.9324411], [137.5971676, 35.9324035], [137.5972451, 35.9324046], [137.5973271, 35.9324126], [137.5974268, 35.9324451], [137.5974945, 35.9324741], [137.5975857, 35.9325197], [137.5976455, 35.9325533], [137.5976768, 35.9325909], [137.5977081, 35.9326324], [137.5977161, 35.9326837], [137.5977178, 35.9327406], [137.5977092, 35.9327999], [137.5976791, 35.9329223], [137.597576, 35.9332538], [137.597418, 35.9337976], [137.5973903, 35.9339178], [137.5973707, 35.9340488], [137.5973732, 35.9341564], [137.5973869, 35.9342692], [137.5974148, 35.9343751], [137.5976882, 35.9351024], [137.5977747, 35.9353188], [137.5978357, 35.9354344], [137.5978949, 35.9355397], [137.5982372, 35.9360847], [137.5984147, 35.936368], [137.5984704, 35.9364812], [137.5985225, 35.9366298], [137.5985658, 35.9368638], [137.5986387, 35.9371543], [137.5986728, 35.9372545], [137.5987184, 35.9373678], [137.5989177, 35.9377443], [137.599088, 35.9380831], [137.5991854, 35.9382722], [137.5998596, 35.9398099], [137.5999292, 35.9399585], [137.5999593, 35.9400075], [137.5999941, 35.9400405], [137.6000334, 35.9400678], [137.6000898, 35.9400855], [137.6001296, 35.9400849], [137.6001683, 35.9400764], [137.6002948, 35.9400149], [137.6003779, 35.9399625], [137.600489, 35.9398879], [137.6006023, 35.9398184], [137.600788, 35.9396931], [137.6008831, 35.9396222], [137.6009905, 35.9395097], [137.6014048, 35.9390915], [137.601487, 35.9390149], [137.6016073, 35.9389449], [137.6019258, 35.9388833], [137.6023422, 35.9388027], [137.6026627, 35.9386887], [137.6029206, 35.9385819], [137.603061, 35.9384758], [137.6031429, 35.9383955], [137.6032071, 35.9382893], [137.6034741, 35.9377082], [137.6035991, 35.937534], [137.6037437, 35.9373824], [137.6044512, 35.9368496], [137.6045939, 35.9366951], [137.6046462, 35.9365626], [137.6046595, 35.9364325], [137.604516, 35.935374], [137.6045738, 35.9351966], [137.6046883, 35.9350565], [137.6048394, 35.9349642], [137.6058613, 35.9345896], [137.6059632, 35.9345809], [137.6061021, 35.9345889], [137.6062556, 35.9346233], [137.6076292, 35.9351158], [137.6078729, 35.9351901], [137.608095, 35.9352213], [137.6083061, 35.9351977], [137.6084648, 35.9351632], [137.6085918, 35.9351184], [137.6087158, 35.935044], [137.6088037, 35.9349827], [137.6091071, 35.9346166], [137.6092207, 35.9345179], [137.6093432, 35.9344451], [137.6094742, 35.9344028], [137.610105, 35.9342733], [137.6101944, 35.934255], [137.6106021, 35.9341759], [137.6107185, 35.9341763], [137.6108354, 35.9342172], [137.6109307, 35.9342638], [137.6115552, 35.9347846], [137.6116294, 35.9348296], [137.6117648, 35.9348828], [137.6119792, 35.9349257], [137.6144503, 35.9351693], [137.614734, 35.9352411], [137.61524, 35.9354731], [137.6154676, 35.9355224], [137.615658, 35.9355278], [137.6158405, 35.9354868], [137.6165348, 35.9353078], [137.6170808, 35.935167], [137.6174122, 35.9350815], [137.6174624, 35.9350645], [137.6176317, 35.9350041], [137.6177703, 35.9349317], [137.6178157, 35.9349062], [137.6183009, 35.9346232], [137.6184838, 35.9345635], [137.6186269, 35.9345335], [137.618815, 35.9345082], [137.620177, 35.9343774], [137.6206836, 35.9343658], [137.6207542, 35.9343855], [137.6208803, 35.9344213], [137.6213698, 35.9346526], [137.6215093, 35.934696], [137.6216802, 35.9347352], [137.6223564, 35.9348635], [137.622591, 35.934908], [137.6228155, 35.934974], [137.6230975, 35.935105], [137.6242026, 35.9357923], [137.6245321, 35.9360012], [137.6247101, 35.936092], [137.6249417, 35.9361504], [137.6255456, 35.9362585], [137.6256613, 35.9362803], [137.6258183, 35.9363183], [137.626627, 35.9365953], [137.6270883, 35.9367568], [137.6272868, 35.936782], [137.6274366, 35.9367699], [137.6280964, 35.9366154], [137.6282349, 35.9366137], [137.6285343, 35.936643], [137.6288693, 35.9366973], [137.6292089, 35.9367851], [137.629401, 35.936856], [137.629821, 35.9371394], [137.6305887, 35.9376141], [137.6308654, 35.9377278], [137.6310955, 35.9377853], [137.6313047, 35.9378178], [137.6320147, 35.9378906], [137.6324607, 35.9379753], [137.6326047, 35.9380158], [137.6327156, 35.938047], [137.6330086, 35.9381464], [137.6332453, 35.9382815], [137.633479, 35.938432], [137.6337217, 35.93866], [137.6351205, 35.9403659], [137.6354983, 35.9408961], [137.6357752, 35.9413727], [137.6363972, 35.9425721], [137.6368046, 35.9434531], [137.6374553, 35.9448099], [137.6376522, 35.9451751], [137.6378642, 35.9454965], [137.6380415, 35.9456991], [137.6387122, 35.946435], [137.6390254, 35.946732], [137.6393644, 35.9470253], [137.639409, 35.947064], [137.6395999, 35.9472293], [137.6402608, 35.9478011], [137.640391, 35.9479134], [137.6411229, 35.9485449], [137.6419095, 35.9492235], [137.6423138, 35.9495798], [137.642598, 35.9499179], [137.6428063, 35.9502373], [137.6429843, 35.9506182], [137.643316, 35.951328], [137.643498, 35.9517174], [137.6435959, 35.951915], [137.6437062, 35.9520567], [137.643895, 35.9522016], [137.6441239, 35.9523169], [137.644406, 35.9523862], [137.6446291, 35.9523778], [137.645247, 35.952331], [137.6460819, 35.9522677], [137.6464246, 35.9522446], [137.6468951, 35.9522167], [137.6471861, 35.9522407], [137.6473688, 35.9522794], [137.6476836, 35.9523916], [137.6479807, 35.952537], [137.6482798, 35.9527771], [137.6485625, 35.9531458], [137.6487114, 35.9533401], [137.6489389, 35.9536368], [137.6491854, 35.9538893], [137.6494391, 35.954057], [137.6496875, 35.954189], [137.6500225, 35.9542904], [137.650413, 35.9543366], [137.6523925, 35.9542401], [137.6531258, 35.9542111], [137.6539198, 35.9541796], [137.6542014, 35.9541536], [137.6545678, 35.9541032], [137.6549346, 35.9540214], [137.6554758, 35.953847], [137.6558858, 35.953664], [137.6561879, 35.9534953], [137.6564625, 35.953322], [137.6567924, 35.9530697], [137.6570566, 35.9528107], [137.6572953, 35.9525555], [137.6574418, 35.9523499], [137.6606573, 35.9470714], [137.6635432, 35.9422763], [137.6638026, 35.9418766], [137.6640852, 35.9415135], [137.6644616, 35.9411403], [137.6648375, 35.9407998], [137.6652602, 35.9405009], [137.6657232, 35.9402281], [137.6661861, 35.9399903], [137.6666819, 35.9397955], [137.6672099, 35.9395758], [137.6674732, 35.9394707], [137.6681918, 35.9391643], [137.6685521, 35.9389773], [137.6689419, 35.9387335], [137.6693849, 35.938369], [137.6698209, 35.9378972], [137.67033, 35.9373291], [137.6706474, 35.936871], [137.6708175, 35.9365572], [137.670929, 35.9362369], [137.6709875, 35.9359246], [137.6710242, 35.9356527], [137.6710486, 35.9352299], [137.6711124, 35.934419], [137.6711878, 35.9340065], [137.6712844, 35.9336312], [137.6716256, 35.9326998], [137.6718072, 35.9322507], [137.6719314, 35.9320019], [137.6721989, 35.9315707], [137.6724793, 35.9312168], [137.6727693, 35.9309155], [137.6729343, 35.9307516], [137.6731784, 35.9305516], [137.6735077, 35.9302818], [137.6747303, 35.92928], [137.6749922, 35.9290288], [137.6754351, 35.9285193], [137.6759959, 35.9277655], [137.6764419, 35.9271165], [137.6765804, 35.9268708], [137.6766595, 35.9267102], [137.6767172, 35.9265396], [137.6767538, 35.9263649], [137.6767765, 35.9261678], [137.6767805, 35.9258847], [137.6767617, 35.9256422], [137.6766622, 35.9253113], [137.6762746, 35.924552], [137.6760681, 35.9240298], [137.6756782, 35.9227544], [137.6753627, 35.9214679], [137.6752538, 35.9208582], [137.6752165, 35.9200723], [137.6752273, 35.9197122], [137.6755391, 35.9167399], [137.6756135, 35.9164599], [137.6757283, 35.9162278], [137.6762572, 35.915313], [137.6763709, 35.9150753], [137.6768788, 35.9137795], [137.676895, 35.9137373], [137.6769685, 35.9135459], [137.6769995, 35.9134685], [137.6771034, 35.9132092], [137.6771145, 35.9131815], [137.6773468, 35.9126905], [137.6774843, 35.9124911], [137.6776241, 35.912318], [137.6785378, 35.911369], [137.6789474, 35.9109878], [137.6791253, 35.9108449], [137.6795876, 35.9104955], [137.6803867, 35.9098916], [137.6804645, 35.9098328], [137.680719, 35.9096181], [137.680898, 35.9094033], [137.6810382, 35.9091239], [137.6810515, 35.909069], [137.6811037, 35.9088533], [137.6811254, 35.9086329], [137.6811183, 35.9079787], [137.6811442, 35.9076846], [137.6812035, 35.9074572], [137.6812649, 35.9072686], [137.6813519, 35.9070689], [137.6814741, 35.9068852], [137.6823488, 35.905755], [137.6824544, 35.9055892], [137.6825456, 35.9053894], [137.682641, 35.9051103], [137.6827732, 35.9047234], [137.6827989, 35.9046482], [137.6830856, 35.9036416], [137.6833278, 35.9028318], [137.6833516, 35.9026378], [137.683353, 35.902489], [137.6833321, 35.9022845], [137.6833007, 35.9021576], [137.6832512, 35.9020243], [137.6831759, 35.9018654], [137.6830626, 35.9016931], [137.6829699, 35.9015459], [137.6824865, 35.9009838], [137.6822577, 35.9007178], [137.6820334, 35.900373], [137.6817426, 35.8997325], [137.6813035, 35.8988515], [137.6807703, 35.8977054], [137.6805916, 35.8973885], [137.6799965, 35.8964555], [137.6799077, 35.8962619], [137.6798688, 35.8961435], [137.6798411, 35.8959951], [137.6798246, 35.8957743], [137.6797108, 35.8942491], [137.679677, 35.8940076], [137.6796381, 35.8938534], [137.6795826, 35.8937052], [137.6794571, 35.8934992], [137.6793355, 35.8932884], [137.6787668, 35.8921906], [137.6779193, 35.8897461], [137.6777574, 35.889279], [137.6776827, 35.888878], [137.6774979, 35.8878355], [137.6774226, 35.8875648], [137.6773495, 35.8873576], [137.6772791, 35.8871954], [137.6765038, 35.8860667], [137.6763497, 35.8857807], [137.6763367, 35.8857489], [137.6762775, 35.8856033], [137.6762277, 35.8853548], [137.6762253, 35.8851479], [137.6764275, 35.8842835], [137.6764503, 35.8841129], [137.6764405, 35.8839132], [137.6763873, 35.8836706], [137.6761959, 35.8832337], [137.6757137, 35.8822682], [137.6756563, 35.8820896], [137.6755976, 35.8818611], [137.6755156, 35.8815181], [137.6754382, 35.8808518], [137.6754498, 35.8803815], [137.6754783, 35.8800388], [137.6757006, 35.8784223], [137.6757516, 35.8780767], [137.6758066, 35.8777247], [137.6758817, 35.877315], [137.6760822, 35.8763765], [137.6761338, 35.876136], [137.6761875, 35.8759436], [137.6762702, 35.8757517], [137.6763728, 35.8755488], [137.6766957, 35.8750281], [137.676746, 35.8749406], [137.6767829, 35.8748493], [137.6768164, 35.8747521], [137.6768392, 35.8746602], [137.67685, 35.8745728], [137.6768573, 35.8744869], [137.6768567, 35.8744016], [137.6768473, 35.8742962], [137.6768285, 35.8741745], [137.6767628, 35.8738648], [137.6767413, 35.8737561], [137.6767306, 35.873654], [137.6767252, 35.8735312], [137.6767346, 35.8734084], [137.6767601, 35.8732356], [137.6768194, 35.8729911], [137.6768513, 35.8728596], [137.6769586, 35.8724651], [137.6769975, 35.8723412], [137.6770417, 35.8722054], [137.6770914, 35.8720847], [137.6771665, 35.8719456], [137.6772536, 35.8717902], [137.6773207, 35.8716815], [137.6773733, 35.8716148], [137.6774454, 35.8715294], [137.6775272, 35.8714555], [137.6776211, 35.871374], [137.677715, 35.871299], [137.6778088, 35.8712403], [137.6779054, 35.8711827], [137.6780234, 35.8711208], [137.6781213, 35.8710806], [137.6782849, 35.8710262], [137.6785196, 35.8709599], [137.6790802, 35.8708274], [137.6793404, 35.87076], [137.6795603, 35.8706948], [137.6797561, 35.8706361], [137.6798768, 35.8705926], [137.6799855, 35.8705459], [137.6800789, 35.8705008], [137.680144, 35.8704694], [137.6802872, 35.8703872], [137.6803824, 35.8703199], [137.6805018, 35.8702362], [137.6805903, 35.8701601], [137.6806708, 35.8700873], [137.6807566, 35.8699797], [137.6808438, 35.8698754], [137.6809055, 35.8697797], [137.6809631, 35.8696797], [137.6810114, 35.8695776], [137.681061, 35.8694526], [137.6810946, 35.8693602], [137.6811321, 35.8692363], [137.6811723, 35.8690722], [137.6812743, 35.8685658], [137.6813197, 35.8684182], [137.6813722, 35.8682822], [137.6817271, 35.8675427], [137.6821555, 35.8667506], [137.6823646, 35.8664498], [137.6825086, 35.8662836], [137.6826975, 35.8660657], [137.6832961, 35.865486], [137.6833098, 35.8654728], [137.6835377, 35.8652499], [137.6838921, 35.8649033], [137.6839769, 35.8648267], [137.6839969, 35.8648116], [137.6841992, 35.8646685], [137.6843145, 35.8645946], [137.6845094, 35.8644778], [137.6846793, 35.8643979], [137.6848389, 35.8643338], [137.6850481, 35.8642631], [137.6852131, 35.8642142], [137.6855095, 35.8641436], [137.6862122, 35.8639903], [137.6865193, 35.8639295], [137.6867138, 35.8638871], [137.6868318, 35.8638512], [137.6869149, 35.8638164], [137.6869941, 35.8637653], [137.6870571, 35.8637164], [137.6871148, 35.8636577], [137.6872288, 35.8635023], [137.6873173, 35.8633795], [137.687391, 35.8633013], [137.6874541, 35.8632491], [137.6875359, 35.8632045], [137.6876177, 35.863173], [137.6876982, 35.8631534], [137.6877974, 35.8631469], [137.6879154, 35.86316], [137.6880254, 35.8631817], [137.6884532, 35.8633339], [137.6885685, 35.863361], [137.6886731, 35.8633784], [137.6887952, 35.8633806], [137.6892471, 35.8633436], [137.6895154, 35.8633045], [137.6896843, 35.8632741], [137.689864, 35.8632284], [137.6899552, 35.863198], [137.6900464, 35.8631589], [137.6901671, 35.8630915], [137.6902664, 35.8630361], [137.6904353, 35.8629024], [137.6908793, 35.862497], [137.6910603, 35.8623383], [137.6911783, 35.8622492], [137.6913567, 35.8621277], [137.6913714, 35.8621177], [137.6914693, 35.8620546], [137.6915672, 35.8619992], [137.6917376, 35.8619025], [137.6918811, 35.8618177], [137.6920138, 35.8617405], [137.6921493, 35.8616699], [137.6921793, 35.8616547], [137.6922566, 35.8616155], [137.6923893, 35.8615568], [137.6925006, 35.8615155], [137.6926039, 35.8614971], [137.6927005, 35.8614927], [137.6928614, 35.8615036], [137.6932731, 35.8615536], [137.6934944, 35.8615558], [137.6937188, 35.8615429], [137.6948968, 35.861402], [137.6955792, 35.8613073], [137.6961219, 35.8612391], [137.6962839, 35.8612003], [137.6964784, 35.8611286], [137.6966339, 35.8610406], [137.696783, 35.8609434], [137.6970644, 35.8607406], [137.6972254, 35.860646], [137.6973984, 35.8605743], [137.6974868, 35.8605447], [137.6975606, 35.86052], [137.6977444, 35.8604808], [137.697919, 35.8604576], [137.6980193, 35.8604504], [137.6981966, 35.8604501], [137.6984321, 35.8604498], [137.6986992, 35.8604482], [137.6992129, 35.8604362], [137.6997163, 35.8604225], [137.7000578, 35.8604156], [137.700161, 35.860408], [137.7002589, 35.8603928], [137.7003394, 35.8603754], [137.700444, 35.860345], [137.7005553, 35.8602993], [137.7007179, 35.8602076], [137.7013466, 35.8597548], [137.7015933, 35.8595896], [137.7017972, 35.8594765], [137.702, 35.8594011], [137.7023685, 35.8593287], [137.7027842, 35.859257], [137.703159, 35.859161], [137.7041994, 35.8587642], [137.704694, 35.8585244], [137.7051875, 35.8582374], [137.706565, 35.857447], [137.706677, 35.857384], [137.707572, 35.8567527], [137.7082785, 35.8562198], [137.7092323, 35.8555016], [137.7097405, 35.8551179], [137.7099927, 35.8549179], [137.7102531, 35.8547088], [137.7104662, 35.8545339], [137.7107035, 35.8547081], [137.7108215, 35.8547994], [137.7108801, 35.8548455], [137.7111186, 35.8550778], [137.7114, 35.8554101], [137.7114616, 35.8554879], [137.711582, 35.8556324], [137.7118301, 35.8559407], [137.7120457, 35.8561416], [137.7122221, 35.8563055], [137.7122466, 35.8563282], [137.7127454, 35.8566953], [137.7128662, 35.8567842], [137.7136227, 35.8573117], [137.713898, 35.8574875], [137.7139489, 35.8575168], [137.7140816, 35.857583], [137.7142011, 35.8576299], [137.714442, 35.8577231], [137.7147227, 35.8578179], [137.7151445, 35.8578946], [137.7171463, 35.8582196], [137.7176321, 35.8582945], [137.7187963, 35.8584694], [137.7192065, 35.858542], [137.719635, 35.8586611], [137.7199147, 35.8587785], [137.7201073, 35.8588803], [137.7202998, 35.8590015], [137.7204911, 35.8591685], [137.7206709, 35.859379], [137.7208506, 35.8596331], [137.7211829, 35.8601118], [137.7214731, 35.8605556], [137.7215992, 35.860707], [137.7217467, 35.8608454], [137.7218587, 35.8609377], [137.722043, 35.8610398], [137.7222171, 35.8611126], [137.7223789, 35.861169], [137.7225547, 35.8612073], [137.7227452, 35.8612335], [137.7229593, 35.861251], [137.7231759, 35.8612626], [137.7238469, 35.8613057], [137.7239044, 35.8613078], [137.7243358, 35.8613433], [137.7244973, 35.8613535], [137.7246033, 35.8613623], [137.7247743, 35.8613726], [137.7253711, 35.8614172], [137.7259744, 35.8614722], [137.7273537, 35.8615708], [137.7277011, 35.8616062], [137.7280486, 35.8616676], [137.728388, 35.8617487], [137.7287274, 35.8618602], [137.7292139, 35.8620729], [137.7297004, 35.8623465], [137.730102, 35.8625786], [137.730384, 35.8627453], [137.7304284, 35.862772], [137.7310279, 35.8631324], [137.7310676, 35.8631563], [137.7316051, 35.8634619], [137.7319335, 35.863652], [137.7321922, 35.8637855], [137.7325903, 35.8639142], [137.7328427, 35.863929], [137.7338113, 35.8639438], [137.7341114, 35.8639857], [137.734225, 35.8640016], [137.7344715, 35.8640461], [137.7347127, 35.8641233], [137.7349368, 35.8642391], [137.7352792, 35.8644522], [137.7354748, 35.8645636], [137.7368059, 35.8654], [137.738742, 35.8666182], [137.7392379, 35.8669239], [137.7396115, 35.8671542], [137.7397832, 35.86726], [137.740313, 35.867618], [137.740926, 35.8680976], [137.7412693, 35.868366], [137.7424689, 35.8693053], [137.7438467, 35.8703749], [137.7445041, 35.8708158], [137.744859, 35.871016], [137.7452138, 35.8711813], [137.7453281, 35.8712252], [137.746623, 35.8717647], [137.7467189, 35.8718046], [137.7482147, 35.872395], [137.7493336, 35.8728478], [137.7509016, 35.8734682], [137.7518359, 35.8738576], [137.7520729, 35.8739819], [137.7522647, 35.8740827], [137.7525691, 35.8742704], [137.7530653, 35.874585], [137.7532673, 35.8747121], [137.7542692, 35.8753496], [137.75466, 35.8756555], [137.7563041, 35.8771611], [137.7571323, 35.8779224], [137.7572546, 35.8780345], [137.7575556, 35.8783104], [137.7580161, 35.8787322], [137.7583517, 35.8790396], [137.7589408, 35.879594], [137.7592005, 35.8798421], [137.7594816, 35.8801512], [137.7599284, 35.8807033], [137.7603117, 35.881177], [137.7605714, 35.8815032], [137.7606663, 35.8816061], [137.7612338, 35.8823203], [137.7617664, 35.8829745], [137.7618775, 35.883111], [137.7621551, 35.8834909], [137.7622683, 35.8836646], [137.7628107, 35.8845989], [137.7630618, 35.88504], [137.7634523, 35.8857104], [137.7640975, 35.8868285], [137.7644438, 35.8874261], [137.7647385, 35.8879337], [137.7653561, 35.8890076], [137.7653824, 35.8890533], [137.7658045, 35.8897812], [137.7659112, 35.8899606], [137.7660318, 35.8901636], [137.7662128, 35.8904775], [137.7663536, 35.8907217], [137.7664871, 35.8909534], [137.766872, 35.891621], [137.7668887, 35.8916499], [137.7670864, 35.8920146], [137.7671875, 35.8922294], [137.7672453, 35.8923927], [137.7672962, 35.8925528], [137.767311, 35.8925992], [137.7673573, 35.8927448], [137.7674211, 35.8930404], [137.7674536, 35.8932549], [137.7674754, 35.8935043], [137.7674584, 35.8948505], [137.7674638, 35.8950972], [137.7675175, 35.895377], [137.7676007, 35.895622], [137.7677048, 35.8958421], [137.7678385, 35.8960449], [137.7680095, 35.8962442], [137.7680262, 35.8962637], [137.7685546, 35.8967454], [137.7689612, 35.8971124], [137.7692683, 35.8973871], [137.7696558, 35.8976662], [137.7697486, 35.897719], [137.7701535, 35.8979495], [137.7706566, 35.8981894], [137.7708929, 35.8983165], [137.7712838, 35.8985358], [137.7714277, 35.898615], [137.7715266, 35.8986726], [137.7715614, 35.8986933], [137.7718434, 35.8988611], [137.7724953, 35.8992738], [137.7727095, 35.8994166], [137.7728757, 35.8995319], [137.7730119, 35.8996379], [137.7731712, 35.8997974], [137.7733077, 35.8999841], [137.7734118, 35.9001688], [137.7734724, 35.9003611], [137.7738954, 35.9020116], [137.7739634, 35.902277], [137.7740237, 35.9025378], [137.7740743, 35.9027644], [137.7742058, 35.902746], [137.7742598, 35.9027385], [137.7743239, 35.902744], [137.774413, 35.9027517], [137.7746944, 35.9028851], [137.7752456, 35.9031512], [137.7754178, 35.903233], [137.7755898, 35.9032761], [137.7757296, 35.9032714], [137.7760301, 35.903241], [137.7762246, 35.9032226], [137.7763346, 35.9032272], [137.7764445, 35.9032535], [137.7765739, 35.903312], [137.7767043, 35.903389], [137.7767797, 35.903462], [137.776837, 35.9035273], [137.7772361, 35.9040173], [137.7773779, 35.9042257], [137.7774463, 35.9043906], [137.7775147, 35.904499], [137.7776502, 35.9046246], [137.7777546, 35.9047289], [137.7778691, 35.9048322], [137.7779608, 35.9049575], [137.7780733, 35.9051965], [137.7781766, 35.9053411], [137.7784956, 35.9057353], [137.7786457, 35.90601], [137.7788284, 35.9064829], [137.7789739, 35.9068537], [137.7791809, 35.9075505], [137.7792562, 35.9077922], [137.7793262, 35.907947], [137.7795393, 35.9083367], [137.7799182, 35.9088336], [137.780061, 35.9090654], [137.7801844, 35.9092807], [137.780405, 35.9095025], [137.7809113, 35.9099668], [137.7811483, 35.9102285], [137.781372, 35.9103752], [137.7815286, 35.9104892], [137.7816637, 35.9106337], [137.7817904, 35.9108575], [137.7820127, 35.9113489], [137.7821447, 35.9117647], [137.7822045, 35.9119377], [137.782275, 35.9120629], [137.7824689, 35.9122969], [137.7826305, 35.9124832], [137.7827477, 35.9126528], [137.7829185, 35.9129049], [137.783169, 35.913344], [137.783342, 35.9136391], [137.7835794, 35.9139254], [137.784034, 35.91433], [137.784316, 35.914583], [137.7846782, 35.9148765], [137.78487, 35.9149931], [137.785064, 35.9150843], [137.7852531, 35.9151577], [137.785451, 35.915207], [137.785666, 35.91523], [137.786184, 35.915224], [137.786917, 35.9151483], [137.7871555, 35.9151278], [137.787394, 35.915129], [137.78833, 35.915119], [137.788739, 35.915121], [137.7890999, 35.9150744], [137.789383, 35.9150149], [137.7896826, 35.9149353], [137.7897696, 35.9149101], [137.7900873, 35.914807], [137.7905562, 35.9146018], [137.790795, 35.9144984], [137.7911092, 35.9143622], [137.7914063, 35.9142654], [137.791921, 35.914162], [137.7921386, 35.9140748], [137.792185, 35.9140293], [137.7922154, 35.9139815], [137.7922121, 35.9139547], [137.7922021, 35.9138942], [137.792184, 35.9138576], [137.7921255, 35.9138018], [137.7920573, 35.9137553], [137.7920076, 35.9137456], [137.7919418, 35.9137446], [137.7918895, 35.9137593], [137.7918027, 35.9138209], [137.7917573, 35.9138636], [137.7917252, 35.9139151], [137.7917052, 35.9139742], [137.7916538, 35.9141671], [137.7916254, 35.9141884], [137.7915642, 35.9142751], [137.7915165, 35.9143248], [137.7914692, 35.9143643], [137.791368, 35.9143905], [137.7912734, 35.9143886], [137.7911819, 35.9143628], [137.7911066, 35.9143172], [137.7910601, 35.9142591], [137.791038, 35.9141896], [137.7910377, 35.9141342], [137.7910548, 35.9140767], [137.7910968, 35.9140157], [137.7911654, 35.9139625], [137.7912412, 35.913925], [137.7913211, 35.9138973], [137.7914943, 35.9138564], [137.7917612, 35.9138029], [137.7919146, 35.9137643], [137.7920694, 35.9137181], [137.7923523, 35.9136278], [137.7926553, 35.9135267], [137.7930456, 35.9133683], [137.7932764, 35.9132678], [137.7938396, 35.9129773], [137.7938815, 35.9129587], [137.793992, 35.9129133], [137.7941699, 35.9128411], [137.7941859, 35.9128159]], [[137.7916538, 35.9141671], [137.791672, 35.9142047], [137.7916526, 35.914264], [137.7915952, 35.9143479], [137.7915372, 35.9143946], [137.7914696, 35.9144258], [137.7913681, 35.9144547], [137.7912338, 35.9144537], [137.7911466, 35.9144195], [137.7910755, 35.9143765], [137.7909979, 35.9143027], [137.7909679, 35.9142472], [137.7909567, 35.9141873], [137.790969, 35.9141065], [137.7910021, 35.9140085], [137.7910599, 35.9139269], [137.7911953, 35.9138211], [137.791329, 35.9137457], [137.791505, 35.9136916], [137.7920523, 35.9135469], [137.7926103, 35.913374], [137.793218, 35.913127], [137.7935556, 35.9130264], [137.7937043, 35.9129815], [137.7938189, 35.9129362], [137.7938597, 35.9129215], [137.7939995, 35.9128663], [137.7941546, 35.9128099], [137.7941859, 35.9128159], [137.7942553, 35.9127856], [137.795667, 35.912376], [137.796603, 35.912191], [137.797241, 35.912122], [137.798263, 35.912122], [137.799313, 35.912191], [137.801951, 35.912514], [137.806459, 35.913034], [137.806659, 35.913057], [137.8069028, 35.9130822], [137.807752, 35.913184], [137.808361, 35.913195], [137.809157, 35.913114], [137.810065, 35.912929], [137.810859, 35.912687], [137.811809, 35.91226], [137.81249, 35.911856], [137.813128, 35.911338], [137.813526, 35.910946], [137.813972, 35.910449], [137.814306, 35.9099977], [137.8144741, 35.9097435], [137.8146848, 35.9093299], [137.8148486, 35.9089669], [137.8149442, 35.9086975], [137.8151411, 35.9078867], [137.8152418, 35.9074556], [137.8153734, 35.9070058], [137.8154669, 35.9067085], [137.8155, 35.906625], [137.815588, 35.90644], [137.815651, 35.90632], [137.815718, 35.9062], [137.815789, 35.906077], [137.815863, 35.905954], [137.815941, 35.905827], [137.816022, 35.905697], [137.816122, 35.905547], [137.816251, 35.90537], [137.816467, 35.905093], [137.8165865, 35.9049367], [137.8167305, 35.9047401], [137.817488, 35.903809], [137.8179118, 35.9032521], [137.8184586, 35.9025209], [137.8186396, 35.9022361], [137.8188435, 35.9018131], [137.819105, 35.9012034], [137.8191415, 35.9011], [137.8192495, 35.9006995], [137.8193125, 35.9003428], [137.8194048, 35.899625], [137.8194132, 35.8995612], [137.8195032, 35.8990175], [137.8195968, 35.8984505], [137.8198087, 35.8974671], [137.8199746, 35.8968417], [137.8201141, 35.8964512], [137.8203499, 35.8958081], [137.8206757, 35.8950647], [137.8211194, 35.8941563], [137.821652, 35.8933808], [137.8218873, 35.8930834], [137.8220816, 35.8928141], [137.8222917, 35.892529], [137.8225429, 35.8921656], [137.8231211, 35.8914406], [137.8233923, 35.8911079], [137.8235017, 35.89097], [137.8236758, 35.8907509], [137.8241309, 35.8904162], [137.8243125, 35.890283], [137.8246035, 35.890094], [137.8247996, 35.8899775], [137.825005, 35.889877], [137.825194, 35.889773], [137.825526, 35.889614], [137.825922, 35.889447], [137.8267762, 35.8891978], [137.8398386, 35.8859085], [137.8418014, 35.885399], [137.8438501, 35.8849069], [137.8478616, 35.8839923], [137.853728, 35.8826222], [137.8639728, 35.880223], [137.8691005, 35.8789734], [137.8743785, 35.8776803], [137.8744985, 35.8776535], [137.875677, 35.8773909], [137.8762702, 35.8772362], [137.8770373, 35.8769798], [137.87746, 35.8768072], [137.8784521, 35.8763575], [137.8793181, 35.875878], [137.8797128, 35.8756334], [137.880104, 35.8753521], [137.880642, 35.8749187], [137.8809536, 35.8745447], [137.8813067, 35.874131], [137.881557, 35.873787], [137.8819492, 35.873265], [137.8821811, 35.8727974], [137.882715, 35.872118], [137.883347, 35.871512], [137.8837467, 35.8712241], [137.884282, 35.870907], [137.884771, 35.870663], [137.8858694, 35.8702798], [137.8877346, 35.8697068], [137.8894279, 35.8691979], [137.8898281, 35.8690603], [137.8903592, 35.8688169], [137.8907595, 35.8685861], [137.8911409, 35.8682815], [137.89134, 35.868084], [137.891438, 35.867969], [137.891528, 35.867857], [137.8917, 35.867579], [137.891772, 35.867339], [137.891829, 35.866991], [137.891808, 35.866721], [137.891751, 35.866437], [137.891696, 35.866221], [137.8916399, 35.8660488], [137.89154, 35.865719], [137.891438, 35.865302], [137.891403, 35.865021], [137.89141, 35.864654], [137.891444, 35.864424], [137.891472, 35.864305], [137.891548, 35.864069], [137.8915643, 35.8640312], [137.891645, 35.863844], [137.891769, 35.863619], [137.891928, 35.863399], [137.892088, 35.863219], [137.892301, 35.863016], [137.892522, 35.862847], [137.89257, 35.862814], [137.8928287, 35.8626843], [137.893117, 35.8625421], [137.8934125, 35.862425], [137.894086, 35.8622389], [137.8952518, 35.8619579], [137.8959639, 35.861776], [137.8968406, 35.861552], [137.8978086, 35.8613498], [137.8980406, 35.861293], [137.8988452, 35.8610958], [137.9010305, 35.8605551], [137.9012261, 35.8605067], [137.9020964, 35.8602914], [137.9027747, 35.8601208], [137.9041717, 35.8597695], [137.905704, 35.8593841], [137.905738, 35.8593783], [137.9060876, 35.8592961], [137.9066511, 35.8591837], [137.9080316, 35.8589252], [137.908722, 35.8588072], [137.9100963, 35.8585465], [137.9111249, 35.8583609], [137.9123444, 35.8581415], [137.9149233, 35.8576575], [137.9173221, 35.8572122], [137.9197016, 35.8567669], [137.9198383, 35.8567419], [137.9202609, 35.8566616], [137.9214863, 35.8564288], [137.9226807, 35.8562091], [137.9231919, 35.8561069], [137.9238745, 35.8559828], [137.9251273, 35.8557603], [137.926293, 35.8555289], [137.9271985, 35.8553652], [137.9275548, 35.8553008], [137.9291774, 35.8550074], [137.929557, 35.8549343], [137.9304801, 35.8547566], [137.9309838, 35.8546528], [137.9319297, 35.8544605], [137.9334339, 35.8541672], [137.9336408, 35.8541269], [137.9348277, 35.8538992], [137.9352407, 35.8538135], [137.935582, 35.8537284], [137.936167, 35.8535712], [137.9362169, 35.8535599], [137.9363359, 35.8535252], [137.9366715, 35.8534437], [137.9374757, 35.8532292], [137.9396398, 35.8526647], [137.9407648, 35.8523603], [137.9427, 35.851837], [137.9436023, 35.8515912], [137.9448285, 35.8512198], [137.9450853, 35.851108], [137.9462143, 35.850525], [137.9465175, 35.8503674], [137.9468694, 35.8501704], [137.9471036, 35.8500019], [137.947464, 35.8496007], [137.9476195, 35.8494931], [137.9478454, 35.8493748], [137.9480629, 35.8492832], [137.948475, 35.8490839], [137.9487024, 35.8489632], [137.9489806, 35.8487843], [137.9493, 35.848566], [137.9494593, 35.8484654], [137.9495962, 35.8483769], [137.9499415, 35.8481537], [137.9504066, 35.8478596], [137.9506043, 35.8477668], [137.9510001, 35.8476056], [137.951235, 35.8475018], [137.9514522, 35.8474095], [137.9518486, 35.8472367], [137.9520133, 35.8471737], [137.9521779, 35.8471367], [137.9524911, 35.8470855], [137.952645, 35.8470563], [137.9527821, 35.8470064], [137.952922, 35.8469282], [137.9530467, 35.8468408], [137.9531656, 35.8467129], [137.9533435, 35.8464438], [137.953466, 35.8463381], [137.9538214, 35.8461178], [137.9539661, 35.8460164], [137.9541717, 35.8458739], [137.9542776, 35.8458087], [137.9551351, 35.845376], [137.9552468, 35.8453179], [137.9553579, 35.8452459], [137.9554518, 35.8451579], [137.9555341, 35.8450413], [137.9555654, 35.844987], [137.955601, 35.844899], [137.955627, 35.8447691], [137.955637, 35.8446107], [137.9556555, 35.8444129], [137.9556757, 35.8443257], [137.9557887, 35.8442526], [137.9558199, 35.8442351], [137.9559228, 35.8441513], [137.9567725, 35.8432888], [137.9567835, 35.8432777], [137.9575091, 35.8426176], [137.958363, 35.8418239], [137.9583875, 35.841803], [137.9584761, 35.841737], [137.9585462, 35.8417036], [137.9586224, 35.8416867], [137.9590035, 35.8416393], [137.9589329, 35.8413583], [137.9589316, 35.8413259], [137.9589347, 35.8413093], [137.9589496, 35.841294], [137.9589745, 35.8412837], [137.9591175, 35.8412533], [137.9592232, 35.8412419], [137.9593358, 35.8412489], [137.959422, 35.8412592], [137.9594546, 35.8412631], [137.9595313, 35.8412733], [137.959585, 35.8412769], [137.9596647, 35.8412798], [137.9597854, 35.8412781], [137.9599924, 35.8412689], [137.9603436, 35.8412438], [137.9605298, 35.8412045], [137.9607875, 35.8411294], [137.9608586, 35.8411087], [137.9609463, 35.8410824], [137.9609699, 35.8410752], [137.9611563, 35.8410424], [137.9612937, 35.8410474], [137.9614404, 35.841072], [137.9614764, 35.8410759], [137.9616202, 35.8410958], [137.9617858, 35.8411205], [137.9618964, 35.8411285], [137.9620095, 35.8411169], [137.9620917, 35.8410988], [137.9621678, 35.8410798], [137.9622717, 35.8410529], [137.9632626, 35.8407733], [137.9633304, 35.8407581], [137.9639393, 35.8406083], [137.9639684, 35.8406011], [137.9645994, 35.8404347], [137.9652838, 35.840267], [137.9660379, 35.8400677], [137.966745, 35.83989], [137.9674475, 35.839746], [137.9675018, 35.8397331], [137.967601, 35.8397096], [137.968028, 35.839643], [137.9690672, 35.839429], [137.9698023, 35.8391658], [137.9700496, 35.8390933], [137.970289, 35.8390227], [137.9706843, 35.838894], [137.9707467, 35.8388764], [137.9709717, 35.8388289], [137.9711179, 35.8388022], [137.9713541, 35.8387685], [137.9722003, 35.8386992], [137.9727814, 35.83864], [137.9727925, 35.8386389], [137.9728798, 35.83863], [137.9730637, 35.8386149], [137.9745884, 35.8384897], [137.9755067, 35.8384037], [137.9759984, 35.8383579], [137.9760985, 35.8383508], [137.9771406, 35.8382608], [137.9774827, 35.8382269], [137.978188, 35.8381687], [137.978638, 35.8381446], [137.9805583, 35.8381007], [137.9814066, 35.8380839], [137.981439, 35.8380803], [137.9819393, 35.8380724], [137.9819674, 35.838072], [137.9820072, 35.8380673], [137.9822327, 35.8380408], [137.9826412, 35.8379853], [137.984321, 35.8377572], [137.984913, 35.837662], [137.9860683, 35.8374998], [137.9861281, 35.8374914], [137.9861758, 35.8374842], [137.9868745, 35.8373793], [137.9872218, 35.8373473], [137.9876841, 35.8373345], [137.9887283, 35.8373375], [137.990091, 35.8373415], [137.9911645, 35.8373466], [137.9923899, 35.8373433], [137.992457, 35.8373435], [137.9945623, 35.8373488], [137.9957713, 35.8373511], [137.9961441, 35.8373518], [137.9961805, 35.8373511], [137.9981774, 35.8373533], [137.9998128, 35.8373543], [137.9998734, 35.8373546], [138.0009876, 35.8373598], [138.0025649, 35.837375], [138.003004, 35.837386], [138.0044773, 35.837279], [138.0048118, 35.8372493], [138.0051183, 35.8372485], [138.0062279, 35.8373201], [138.0066663, 35.8373253], [138.0074515, 35.8372822], [138.0088074, 35.837132], [138.0094388, 35.8370763], [138.0100146, 35.8370599], [138.010461, 35.837115], [138.0107181, 35.8372159], [138.0109048, 35.8372869], [138.0111303, 35.8374177], [138.011268, 35.8375345], [138.011839, 35.8382266], [138.0120308, 35.8384724], [138.0125882, 35.8391581], [138.0127591, 35.8393712], [138.0128676, 35.8394909], [138.0129642, 35.8395837], [138.0130716, 35.8396576], [138.0131987, 35.839735], [138.0133197, 35.8397967], [138.0134763, 35.8398608], [138.0136549, 35.8399131], [138.0143584, 35.8400427], [138.0146244, 35.8400938], [138.0147598, 35.8401177], [138.0158605, 35.8403231], [138.0164969, 35.8404449], [138.0167316, 35.8404868], [138.0169643, 35.8405132], [138.0172545, 35.840536], [138.0183199, 35.8405578], [138.0185652, 35.8405621], [138.0200629, 35.8405935], [138.0202673, 35.8405971], [138.0207364, 35.8405865], [138.0208123, 35.8405873], [138.0226984, 35.8405242], [138.0239691, 35.8404797], [138.0240182, 35.8404782], [138.0248676, 35.8404504], [138.0266601, 35.840315], [138.0272366, 35.840271], [138.027892, 35.8401947], [138.0287748, 35.8400835], [138.0293189, 35.8400151], [138.029542, 35.839987], [138.0301331, 35.8399126], [138.0304711, 35.8398761], [138.0307023, 35.8398728], [138.0309176, 35.8398826], [138.032365, 35.8400035], [138.032539, 35.8400316], [138.0327635, 35.8400827], [138.0336512, 35.8403664], [138.0337258, 35.840391], [138.0339418, 35.8404479], [138.0341749, 35.8404918], [138.0342669, 35.8404992], [138.0345722, 35.8405197], [138.0349203, 35.8405299], [138.035052, 35.8405242], [138.0351391, 35.8405204], [138.0353584, 35.8404985], [138.0359266, 35.8404352], [138.0362451, 35.8404001], [138.0366903, 35.8403511], [138.0369008, 35.8403223], [138.0370384, 35.8403034], [138.037379, 35.8402383], [138.0378477, 35.8401176], [138.0381395, 35.8400424], [138.0383474, 35.8399903], [138.0385469, 35.8399514], [138.0386759, 35.8399359], [138.0388127, 35.8399228], [138.0390874, 35.8399096], [138.0391398, 35.8399081], [138.0402692, 35.8398752], [138.0403204, 35.8398709], [138.0409963, 35.8398604], [138.0410768, 35.8398571], [138.0421712, 35.839812], [138.0425034, 35.8398087], [138.0427631, 35.8397854], [138.0429554, 35.8397565], [138.0431385, 35.8397202], [138.0435063, 35.8396242], [138.043746, 35.8395617], [138.0441261, 35.83947], [138.0446655, 35.8393382], [138.0468789, 35.8387803], [138.0469921, 35.8387628], [138.0471007, 35.8387523], [138.0472912, 35.8387427], [138.0474933, 35.838757], [138.047774, 35.8388058], [138.047945, 35.8388396], [138.0482245, 35.8389102], [138.0488425, 35.8391237], [138.0489844, 35.8391515], [138.0490997, 35.8391586], [138.0492293, 35.8391557], [138.0497766, 35.8390987], [138.0499251, 35.8390901], [138.0500162, 35.8390951], [138.0502872, 35.8391423], [138.0504074, 35.8391524], [138.0505188, 35.8391466], [138.0515946, 35.8389448], [138.0516806, 35.8389129], [138.0517678, 35.8388639], [138.0520153, 35.8386973], [138.0521004, 35.8386541], [138.0522075, 35.8386191], [138.0523123, 35.8385954], [138.0529147, 35.8385111], [138.0531845, 35.838464], [138.0533771, 35.8384053], [138.0536686, 35.8382769], [138.0538807, 35.8381781], [138.0540634, 35.8380711], [138.0542288, 35.8379176], [138.0544992, 35.8376236], [138.0546284, 35.8375038], [138.0547473, 35.8374252], [138.0551113, 35.8372218], [138.0556171, 35.8369928], [138.0558115, 35.8369194], [138.0560982, 35.8368332], [138.0562237, 35.8368002], [138.0575572, 35.8364922], [138.0576991, 35.836453], [138.0581198, 35.8363434], [138.058233, 35.8363145], [138.0583515, 35.8362853], [138.0589299, 35.8361427], [138.0592048, 35.8360839], [138.0594485, 35.8360405], [138.0595663, 35.8360205], [138.0596576, 35.8360098], [138.0598861, 35.8359813], [138.0599572, 35.8359665], [138.0600245, 35.8359428], [138.0600455, 35.8359327], [138.0600716, 35.83592], [138.0601525, 35.8358647], [138.0602579, 35.8357818]], [[137.4567478, 36.0286354], [137.4584441, 36.0295657], [137.4588196, 36.0299084], [137.4590127, 36.0299735], [137.4593093, 36.0302145]]]}, "id": "relation/6518158"}]}