{"type": "FeatureCollection", "generator": "kokudo-quiz tools/fetch_raw.py (Overpass API)", "copyright": "The data included in this document is from www.openstreetmap.org. The data is made available under ODbL.", "timestamp": "2026-09-30T23:38:34Z", "features": [{"type": "Feature", "properties": {"@id": "relation/8428316", "colour": "red", "from": "兵庫県赤穂市", "name": "国道373号", "name:en": "National Highway Route 373", "name:ja": "国道373号", "name:ja-Hira": "こくどうさんびゃくななじゅうさんごう", "name:ja-Latn": "Kokudou 373 Gou", "network": "JP:national", "official_name": "一般国道373号", "ref": "373", "route": "road", "to": "鳥取県鳥取市", "type": "route", "wikidata": "Q6157368", "wikipedia": "ja:国道373号"}, "geometry": {"type": "MultiLineString", "coordinates": [[[134.3861983, 34.8284441], [134.3862011, 34.828562], [134.3862136, 34.8290844], [134.3862297, 34.8297679], [134.3862341, 34.8298395], [134.3862892, 34.8309169], [134.3863013, 34.8312548], [134.3863029, 34.8313019], [134.3863114, 34.8315276], [134.3863141, 34.8318812], [134.3863026, 34.8320832], [134.3862658, 34.8322508], [134.3862187, 34.8324108], [134.386186, 34.8324953], [134.3859533, 34.8329974], [134.3854509, 34.8340076], [134.3849608, 34.8350116], [134.3847837, 34.8353527], [134.3845733, 34.8357882], [134.3843416, 34.8362508], [134.3842656, 34.8364164], [134.3841926, 34.8366277], [134.3841378, 34.8368522], [134.3840954, 34.8371455], [134.3840889, 34.8374468], [134.3841081, 34.8377982], [134.3841313, 34.8380408], [134.3841747, 34.8382948], [134.3842963, 34.8388431], [134.3843248, 34.8390085], [134.3843461, 34.8392468], [134.3843412, 34.8395712], [134.3843202, 34.839806], [134.3842231, 34.8404218], [134.3841901, 34.8407384], [134.3841289, 34.8417802], [134.3840693, 34.8427578], [134.3840307, 34.8430955], [134.3839975, 34.8432926], [134.3839659, 34.8434145], [134.3839368, 34.8434886], [134.3839127, 34.8435382], [134.3838865, 34.8435807], [134.3834445, 34.8441641], [134.3827053, 34.8451271], [134.3819709, 34.8460628], [134.3809475, 34.8473893], [134.3807583, 34.8476641], [134.3807367, 34.8476955], [134.3805286, 34.8480391], [134.3801067, 34.8488883], [134.3797274, 34.8496269], [134.3796514, 34.8497735], [134.3795313, 34.8499406], [134.3794143, 34.8500862], [134.3793055, 34.8501972], [134.3791805, 34.8503298], [134.3786994, 34.8508072], [134.3783538, 34.8512013], [134.378127, 34.8515085], [134.3778255, 34.8518948], [134.3774801, 34.8523983], [134.3761963, 34.854256], [134.3760489, 34.8544645], [134.3759294, 34.8546078], [134.3752886, 34.8552983], [134.3748241, 34.8557855], [134.3745736, 34.8560274], [134.3738602, 34.8566358], [134.3731745, 34.8572189], [134.3730157, 34.8573406], [134.3727481, 34.8575269], [134.3725375, 34.8576599], [134.3714915, 34.8582605], [134.3713676, 34.8583359], [134.3712328, 34.8584367], [134.3710957, 34.8585626], [134.3702281, 34.8593681], [134.3696067, 34.8599437], [134.3692255, 34.8603281], [134.3690469, 34.8605434], [134.3688378, 34.8608525], [134.3685117, 34.8613927], [134.368282, 34.8616234], [134.3680269, 34.8618056], [134.3674133, 34.8622437], [134.3673089, 34.8623214], [134.3671737, 34.8624206], [134.3662985, 34.8631347], [134.3659583, 34.8634172], [134.3655363, 34.8637789], [134.3653204, 34.8639959], [134.365103, 34.8642371], [134.3649686, 34.8644302], [134.3649471, 34.864462], [134.3647895, 34.8647145], [134.3642544, 34.8654337], [134.3636379, 34.8663006], [134.363364, 34.8667026], [134.3632046, 34.8669306], [134.3631291, 34.86702], [134.362729, 34.8677074], [134.3622614, 34.868557], [134.3620036, 34.8690412], [134.3617182, 34.8694792], [134.3616119, 34.8696236], [134.361451, 34.8698112], [134.3612744, 34.869977], [134.361043, 34.8701871], [134.3606097, 34.8705704], [134.360486, 34.8706868], [134.3603824, 34.8708031], [134.360268, 34.8709362], [134.3601939, 34.8710541], [134.3601293, 34.8711414], [134.360054, 34.8712639], [134.3599539, 34.8714704], [134.3597689, 34.871848], [134.3594505, 34.8724598], [134.3594134, 34.872531], [134.3592638, 34.8728424], [134.3589692, 34.8734183], [134.3589282, 34.8735017], [134.3585812, 34.8742082], [134.3583623, 34.8746316], [134.3581956, 34.874954], [134.3581359, 34.8750666], [134.3578645, 34.8755785], [134.3577193, 34.8759877], [134.3575556, 34.8764228], [134.3574941, 34.8766302], [134.3571975, 34.8775678], [134.3571794, 34.8776222], [134.3571455, 34.8779194], [134.3572568, 34.8783504], [134.3573317, 34.8787256], [134.3573763, 34.8791879], [134.3574359, 34.8798103], [134.3574713, 34.8800425], [134.3575379, 34.8802234], [134.3576388, 34.8805228], [134.3577142, 34.8807675], [134.3577476, 34.8809188], [134.3577324, 34.8812075], [134.3576497, 34.8815644], [134.3575307, 34.8821023], [134.3575414, 34.8823214], [134.3575997, 34.8825659], [134.357736, 34.8830419], [134.3577655, 34.883516], [134.3577044, 34.8840626], [134.3576678, 34.884422], [134.3576083, 34.8846306], [134.3575167, 34.8848684], [134.3574258, 34.8850576], [134.3572794, 34.8853316], [134.3571561, 34.8855826], [134.3571189, 34.8856582], [134.3569709, 34.8859593], [134.3567267, 34.8864639], [134.3564835, 34.8869381], [134.356446, 34.8870113], [134.3563423, 34.8871762], [134.3562117, 34.8873333], [134.356066, 34.8874627], [134.3559319, 34.8875925], [134.3558471, 34.8876849], [134.3556031, 34.88807], [134.3550396, 34.8890255], [134.3549608, 34.8892132], [134.3549167, 34.8893501], [134.354898, 34.8895084], [134.3548836, 34.8897412], [134.3548522, 34.8902517], [134.3548305, 34.8907923], [134.3548451, 34.8910348], [134.3548885, 34.8913102], [134.3549338, 34.891559], [134.3549946, 34.8917771], [134.3550681, 34.8919927], [134.355356, 34.8926604], [134.3554944, 34.8929552], [134.3556616, 34.8932658], [134.3557781, 34.8934503], [134.3558527, 34.8935534], [134.3559748, 34.8936621], [134.3561498, 34.8937493], [134.3563309, 34.8938184], [134.3564764, 34.8938733], [134.3566056, 34.8939298], [134.3567982, 34.8940493], [134.3569441, 34.8941859], [134.3570921, 34.8943703], [134.3573366, 34.8946901], [134.3574554, 34.8948413], [134.3575358, 34.8950218], [134.3576171, 34.8953412], [134.3576965, 34.8957209], [134.3578111, 34.8960339], [134.3578797, 34.8962618], [134.3579244, 34.896491], [134.3580039, 34.8971245], [134.3580269, 34.8976612], [134.3579463, 34.897939], [134.3577944, 34.8982667], [134.3572409, 34.8993333], [134.3567053, 34.9003514], [134.3564656, 34.9007367], [134.3562713, 34.901118], [134.3561719, 34.9013822], [134.3561349, 34.9016132], [134.3561329, 34.9018273], [134.3561606, 34.9019934], [134.356328, 34.9025305], [134.356572, 34.9033132], [134.3570741, 34.9051027], [134.3571273, 34.9052345], [134.3572004, 34.9053503], [134.3573059, 34.9054752], [134.3574127, 34.905556], [134.3575486, 34.9056381], [134.3576845, 34.9057025], [134.3579287, 34.9057733], [134.358956, 34.9060085], [134.3594175, 34.9060808], [134.3601984, 34.9061622], [134.3604809, 34.9061841], [134.3607112, 34.9061795], [134.3608953, 34.9061456], [134.3611553, 34.9060768], [134.3613337, 34.9060138], [134.3615113, 34.9059659], [134.3617224, 34.9059379], [134.3619587, 34.9059246], [134.3621284, 34.9059442], [134.3623176, 34.9059867], [134.3625033, 34.9060757], [134.3627256, 34.9062416], [134.3627505, 34.9062756], [134.3628724, 34.9064417], [134.363087, 34.9069203], [134.363268, 34.907347], [134.3633255, 34.9076033], [134.3632909, 34.9079743], [134.3631383, 34.9083859], [134.3629153, 34.9088771], [134.3627041, 34.9094478], [134.3626253, 34.9096247], [134.3625291, 34.9097761], [134.362369, 34.9099394], [134.3621653, 34.9101152], [134.3619633, 34.9102663], [134.3609909, 34.9109834], [134.360827, 34.9110784], [134.3606995, 34.9111578], [134.3605363, 34.9112444], [134.3604162, 34.911281], [134.3590184, 34.9118274], [134.3571119, 34.9126084], [134.3561035, 34.913036], [134.355929, 34.9131486], [134.3557802, 34.9132684], [134.3556477, 34.9134151], [134.3555234, 34.9135887], [134.3554727, 34.9136863], [134.3554221, 34.9138688], [134.355399, 34.9140498], [134.3554067, 34.9142832], [134.3554889, 34.914616], [134.3556523, 34.91523], [134.3558341, 34.9159272], [134.3559928, 34.9163446], [134.3561069, 34.9165894], [134.3562498, 34.916831], [134.3564336, 34.9171043], [134.3565514, 34.9173276], [134.3566002, 34.9175014], [134.3566194, 34.9176111], [134.3566349, 34.9177328], [134.3566175, 34.9178782], [134.3565666, 34.9180803], [134.3565804, 34.9182743], [134.3565849, 34.9184148], [134.3565861, 34.9184527], [134.3566585, 34.9189728], [134.3566591, 34.9191375], [134.356634, 34.9192973], [134.3565997, 34.9194264], [134.3565432, 34.9195778], [134.356468, 34.9197216], [134.3561387, 34.9202383], [134.3558912, 34.9206444], [134.3558436, 34.9207076], [134.3557173, 34.9208725], [134.3555409, 34.9210595], [134.3547185, 34.9220383], [134.3540147, 34.922728], [134.353711, 34.9230003], [134.3534844, 34.9231828], [134.3534079, 34.9232444], [134.3530753, 34.9234951], [134.352736, 34.9237203], [134.3524735, 34.9239024], [134.3518442, 34.9243396], [134.3509313, 34.9249418], [134.3501384, 34.9254527], [134.3498889, 34.9256437], [134.3496421, 34.925857], [134.3483177, 34.927068], [134.348206, 34.9271714], [134.3466424, 34.9285504], [134.3461499, 34.9290017], [134.345961, 34.9291936], [134.3456134, 34.9296196], [134.3452755, 34.9301122], [134.3449216, 34.9306481], [134.3446988, 34.931016], [134.3445566, 34.9312777], [134.3444295, 34.9315512], [134.3443796, 34.9317504], [134.3443628, 34.9319328], [134.3443903, 34.9321748], [134.3444445, 34.9324673], [134.3444574, 34.9326476], [134.3444445, 34.9327769], [134.3443796, 34.9330258], [134.3442729, 34.9333257], [134.3441436, 34.9336569], [134.3439757, 34.9339961], [134.3437016, 34.9345211], [134.343473, 34.9349059], [134.343154, 34.9353815], [134.342873, 34.9357833], [134.3426156, 34.9360969], [134.3415686, 34.9373799], [134.3410805, 34.9380942], [134.3405754, 34.9389606], [134.3404947, 34.9391141], [134.3404596, 34.9392332], [134.3404296, 34.9393614], [134.3402574, 34.9403208], [134.3401819, 34.9407525], [134.3401703, 34.940871], [134.3401766, 34.9409614], [134.3402004, 34.9410687], [134.340241, 34.9411582], [134.3402886, 34.9412439], [134.3410054, 34.9425708], [134.3416991, 34.9437054], [134.34181, 34.9438615], [134.3419629, 34.9440549], [134.3421614, 34.9442528], [134.3423722, 34.9444507], [134.3429768, 34.9450478], [134.3431243, 34.9451696], [134.3432858, 34.945273], [134.3436293, 34.9454337], [134.3438083, 34.9455236], [134.3439239, 34.9456142], [134.3440573, 34.945722], [134.3441431, 34.945852], [134.344303, 34.9460449], [134.3444377, 34.9461886], [134.3448453, 34.9466234], [134.3450287, 34.946801], [134.3453425, 34.9470099], [134.3457175, 34.9472423], [134.3459085, 34.947388], [134.3460091, 34.9475191], [134.3461177, 34.9477112], [134.3462652, 34.9480296], [134.346402, 34.9482816], [134.346442, 34.9483738], [134.3465227, 34.9485598], [134.3465737, 34.9486879], [134.3466121, 34.9488046], [134.3466325, 34.9489115], [134.3466429, 34.9490216], [134.3466305, 34.9491144], [134.3466072, 34.9492181], [134.346556, 34.9493379], [134.3464775, 34.9494601], [134.3463698, 34.9495832], [134.3462759, 34.9496679], [134.3461713, 34.949747], [134.3458189, 34.9500259], [134.3456537, 34.9501625], [134.3454935, 34.9503479], [134.345364, 34.9505143], [134.3452357, 34.9507143], [134.3452209, 34.9507373], [134.3449698, 34.9511969], [134.344854, 34.9514074], [134.3446675, 34.951658], [134.3445054, 34.9518493], [134.3442098, 34.952153], [134.343468, 34.9527978], [134.3432787, 34.9529633], [134.3432027, 34.9530723], [134.343127, 34.953181], [134.3430331, 34.9533568], [134.3429717, 34.9535406], [134.3429393, 34.953702], [134.3428977, 34.9540217], [134.3428712, 34.9546019], [134.3428578, 34.9548987], [134.3428293, 34.9550694], [134.3427629, 34.9552148], [134.3426926, 34.9553495], [134.3425903, 34.9554456], [134.3424933, 34.9555368], [134.341834, 34.9561995], [134.3418154, 34.9562186], [134.3416952, 34.9563678], [134.341633, 34.9564411], [134.3415741, 34.9565628], [134.3415445, 34.9566917], [134.3415416, 34.956818], [134.3415445, 34.9569995], [134.3416021, 34.957171], [134.34162, 34.957214], [134.3416549, 34.9572978], [134.3417323, 34.9574611], [134.3418334, 34.9576565], [134.3418744, 34.9578107], [134.3418999, 34.9579776], [134.3419044, 34.9580269], [134.3419297, 34.9583017], [134.3419137, 34.9584578], [134.3419057, 34.9585353], [134.3419009, 34.958582], [134.3418009, 34.9590263], [134.3416558, 34.9597941], [134.3416372, 34.9601649], [134.3416075, 34.9609695], [134.3415992, 34.961268], [134.3414255, 34.9626359], [134.341328, 34.962978], [134.3412575, 34.9631765], [134.3411847, 34.9633518], [134.3409692, 34.9637304], [134.3408377, 34.9639205], [134.3407072, 34.9640687], [134.3404488, 34.9643382], [134.3398013, 34.9649813], [134.3395069, 34.9654565], [134.3392964, 34.9659696], [134.3391608, 34.9664755], [134.3390973, 34.967355], [134.3390486, 34.9675303], [134.3388319, 34.9678231], [134.3384338, 34.9681187], [134.3380068, 34.9683456], [134.3375567, 34.9684615], [134.337072, 34.9685395], [134.3363412, 34.9685591], [134.3362787, 34.9685608], [134.3357045, 34.9686624], [134.3353875, 34.9687791], [134.3351957, 34.9688848], [134.3349647, 34.9690408], [134.3348068, 34.9691903], [134.3347521, 34.9692717], [134.334663, 34.9694042], [134.334607, 34.9695057], [134.3345547, 34.9696211], [134.3344718, 34.9698211], [134.3344005, 34.9700667], [134.3343798, 34.9701192], [134.3342553, 34.9704358], [134.3342478, 34.9704549], [134.3342423, 34.9704715], [134.3341531, 34.970722], [134.3340093, 34.9710975], [134.333948, 34.9711929], [134.3338905, 34.9712656], [134.333742, 34.971463], [134.3334736, 34.971692], [134.332814, 34.9722291], [134.3315889, 34.9731739], [134.3315055, 34.973234], [134.3313477, 34.9733693], [134.3307717, 34.9739086], [134.3302109, 34.9744067], [134.3298356, 34.9747427], [134.3296844, 34.9749324], [134.3291757, 34.9755115], [134.3285738, 34.9761114], [134.3282142, 34.9764703], [134.3279737, 34.9767275], [134.3275855, 34.9772096], [134.3271412, 34.9778231], [134.3267914, 34.9784736], [134.3265822, 34.9788694], [134.3263972, 34.9792017], [134.3261378, 34.979595], [134.3259179, 34.9799283], [134.3255317, 34.9806033], [134.3251576, 34.9812565], [134.3250187, 34.9814883], [134.3248793, 34.9817209], [134.3248115, 34.9818496], [134.3247566, 34.9819859], [134.3247512, 34.9820935], [134.3247646, 34.9822001], [134.3247865, 34.9822934], [134.3248223, 34.9823649], [134.3249038, 34.9824752], [134.3249579, 34.9825452], [134.3252571, 34.9829322], [134.3252903, 34.9829704], [134.325502, 34.9832426], [134.3255249, 34.9832719], [134.3255422, 34.9832942], [134.3258354, 34.9836794], [134.3262639, 34.9842772], [134.3263761, 34.9844167], [134.3264258, 34.9844713], [134.3265352, 34.9845914], [134.3267921, 34.9847591], [134.327076, 34.9848791], [134.3273624, 34.9850117], [134.3275219, 34.9851218], [134.327825, 34.9853613], [134.3280846, 34.9855399], [134.3282944, 34.985669], [134.3284762, 34.9857411], [134.3289373, 34.9858488], [134.3290217, 34.9858685], [134.3295273, 34.9859742], [134.3304028, 34.9860429], [134.3307406, 34.9860689], [134.3310383, 34.9860689], [134.331204, 34.9860552], [134.3313425, 34.9860438], [134.3316077, 34.9859761], [134.3316872, 34.9859457], [134.3319555, 34.9858432], [134.332337, 34.985621], [134.3332415, 34.984916], [134.3333328, 34.9848537], [134.3337185, 34.9845914], [134.3342765, 34.9842503], [134.3343303, 34.9842149], [134.3346751, 34.9839886], [134.3352311, 34.9837143], [134.3358773, 34.9834173], [134.3361243, 34.9833037], [134.3365523, 34.9831102], [134.3376234, 34.982626], [134.3381917, 34.9823902], [134.3385311, 34.9822833], [134.3388264, 34.9822032], [134.3394738, 34.9820276], [134.34046, 34.9817805], [134.3407023, 34.9817375], [134.3408852, 34.9817272], [134.3411207, 34.9817232], [134.3414615, 34.9817332], [134.3424913, 34.9817911], [134.3427218, 34.9818605], [134.3429206, 34.9819595], [134.3432114, 34.9821872], [134.3435409, 34.9825407], [134.3437969, 34.9828458], [134.3441539, 34.9833397], [134.3444808, 34.9837934], [134.3445468, 34.98388], [134.3450421, 34.9845305], [134.345685, 34.9854106], [134.3458743, 34.9856697], [134.3465934, 34.9866542], [134.3466246, 34.9866914], [134.3466986, 34.9867941], [134.3485189, 34.9893211], [134.3486531, 34.9894855], [134.3490073, 34.989906], [134.3496428, 34.9905571], [134.3497077, 34.9906365], [134.3503842, 34.991307], [134.3506077, 34.9915285], [134.3515238, 34.9924391], [134.3518671, 34.9927392], [134.3521154, 34.9929975], [134.3522829, 34.9931719], [134.3523619, 34.9933028], [134.3524535, 34.9934489], [134.3525134, 34.9936169], [134.3525442, 34.993795], [134.3525497, 34.9938335], [134.3525724, 34.9939939], [134.3525992, 34.9942532], [134.3526482, 34.9946016], [134.3526623, 34.9947926], [134.3526717, 34.9949969], [134.3526489, 34.995337], [134.3526222, 34.9955435], [134.3525308, 34.9963922], [134.3524852, 34.996802], [134.3524504, 34.9970612], [134.3524069, 34.9972934], [134.3521291, 34.9987324], [134.3520257, 34.9994438], [134.3520448, 35.0000707], [134.3520707, 35.0008214], [134.3521459, 35.0013164], [134.3521847, 35.0015018], [134.35247, 35.0024379], [134.352552, 35.0029882], [134.3525592, 35.0030512], [134.3526489, 35.0038397], [134.352654, 35.003885], [134.3526752, 35.0040235], [134.352691, 35.0041307], [134.3527276, 35.0043796], [134.3528021, 35.0046367], [134.3528908, 35.0048477], [134.3529226, 35.0049279], [134.3530092, 35.0051139], [134.3531144, 35.0053224], [134.3532312, 35.0055167], [134.3533637, 35.0057586], [134.3537098, 35.006187], [134.354142, 35.0067049], [134.3542195, 35.0067979], [134.3543399, 35.0068984], [134.35447, 35.007007], [134.354756, 35.0071983], [134.3549676, 35.0073083], [134.3552, 35.0074003], [134.3553929, 35.0074677], [134.3555767, 35.0075205], [134.3558025, 35.007565], [134.356011, 35.0075958], [134.3561719, 35.0075894], [134.3575197, 35.0077079], [134.3576122, 35.0077145], [134.3595303, 35.0078522], [134.3596472, 35.0078608], [134.3597807, 35.0078724], [134.3601698, 35.0079059], [134.3605678, 35.0079329], [134.3606853, 35.0079438], [134.3611988, 35.0079916], [134.3616499, 35.0080208], [134.361748, 35.0080255], [134.3618684, 35.008019], [134.3620022, 35.0079991], [134.3620357, 35.0079941], [134.3622065, 35.0079481], [134.3623382, 35.0078728], [134.3624271, 35.0078016], [134.3624539, 35.0077801], [134.3625352, 35.0076984], [134.3625974, 35.0076137], [134.3628129, 35.0073039], [134.3628361, 35.0072773], [134.363115, 35.0068717], [134.3632592, 35.0066621], [134.3634017, 35.0068262], [134.363713, 35.0070448], [134.3640134, 35.0072315], [134.3643527, 35.0074754], [134.3644451, 35.0075413], [134.3650903, 35.0080015], [134.3656147, 35.0083849], [134.3658842, 35.0086496], [134.3663521, 35.0091546], [134.3673447, 35.0102259], [134.3675324, 35.0104621], [134.3677765, 35.0108015], [134.368262, 35.01151], [134.3685128, 35.0118417], [134.3689795, 35.0125271], [134.3692343, 35.0129126], [134.3693764, 35.0131784], [134.3694569, 35.0134168], [134.3694926, 35.0135891], [134.3694949, 35.0137366], [134.3695592, 35.0144883], [134.3696171, 35.0151116], [134.3696329, 35.0152822], [134.3697432, 35.0163631], [134.369807, 35.0167078], [134.3698981, 35.0169557], [134.3700274, 35.0172006], [134.3700657, 35.0172633], [134.3702039, 35.0174961], [134.3704489, 35.0178013], [134.3706314, 35.0180212], [134.3708536, 35.0184612], [134.3709738, 35.0188176], [134.3710969, 35.0193558], [134.3711984, 35.0199523], [134.3712566, 35.0201765], [134.3713559, 35.0205254], [134.3713926, 35.0206666], [134.3714104, 35.0207351], [134.3714367, 35.0208409], [134.3714402, 35.0208652], [134.3714849, 35.0210607], [134.3714962, 35.0212604], [134.3714801, 35.0215358], [134.3713397, 35.0228527], [134.3712833, 35.0232486], [134.3712352, 35.0235982], [134.371151, 35.0243381], [134.3711408, 35.02451], [134.3711126, 35.0249174], [134.3710066, 35.0254552], [134.3709741, 35.0256203], [134.3708354, 35.0261565], [134.3706936, 35.0264634], [134.3706076, 35.0266494], [134.3703473, 35.0271689], [134.3702046, 35.0274483], [134.3700018, 35.0278692], [134.3699081, 35.0281281], [134.3697099, 35.0285219], [134.3696706, 35.0286001], [134.3695803, 35.0287203], [134.3694949, 35.0288173], [134.3693884, 35.0289071], [134.3691462, 35.02906], [134.3685925, 35.0293308], [134.3683882, 35.0294108], [134.3681871, 35.0294524], [134.367903, 35.0294943], [134.3675064, 35.0295444], [134.3670121, 35.0296304], [134.3666473, 35.0297262], [134.3665767, 35.0297556], [134.3664078, 35.029817], [134.3662637, 35.0299063], [134.3661505, 35.0300102], [134.3660733, 35.0301128], [134.3660299, 35.0302324], [134.3659848, 35.0303676], [134.3659779, 35.0305119], [134.3659888, 35.0306179], [134.3660421, 35.0307791], [134.3661082, 35.0309298], [134.3665482, 35.0316482], [134.3668091, 35.0320651], [134.3668443, 35.032113], [134.3669673, 35.0322803], [134.3670882, 35.0324217], [134.3676085, 35.0330101], [134.3676834, 35.0331613], [134.3677344, 35.0333079], [134.3677602, 35.0334686], [134.367743, 35.033617], [134.3676148, 35.0341948], [134.3675519, 35.0344814], [134.3674274, 35.0351379], [134.3674103, 35.0353343], [134.3673984, 35.0354716], [134.3674079, 35.0357664], [134.3674146, 35.0358394], [134.3674616, 35.0361378], [134.3676838, 35.0369764], [134.3676932, 35.037014], [134.3678889, 35.0377958], [134.367975, 35.0380512], [134.3680814, 35.0382812], [134.3686277, 35.039293], [134.369188, 35.0402493], [134.3692652, 35.0404692], [134.3692871, 35.0406288], [134.3693132, 35.0410045], [134.3693162, 35.041046], [134.3694791, 35.042647], [134.369526, 35.0429009], [134.3695441, 35.0430009], [134.3695698, 35.0431228], [134.3698154, 35.0439867], [134.3698475, 35.0442014], [134.3698498, 35.044384], [134.3698498, 35.0445666], [134.3698274, 35.0447324], [134.3698107, 35.0448556], [134.3697937, 35.04498], [134.3697639, 35.0451972], [134.3696827, 35.0456289], [134.3696703, 35.0456946], [134.3696086, 35.0460228], [134.3694007, 35.0472371], [134.3692365, 35.0479396], [134.3691123, 35.0483057], [134.3689733, 35.0485718], [134.3688146, 35.0488437], [134.3686052, 35.0491132], [134.3684426, 35.0493045], [134.3682946, 35.0494561], [134.3681003, 35.0496225], [134.3678832, 35.0497967], [134.3672051, 35.0502572], [134.3671298, 35.0503061], [134.3665586, 35.050677], [134.3663568, 35.050832], [134.3662183, 35.0509762], [134.3660562, 35.0511669], [134.3659281, 35.0513565], [134.3657256, 35.0517854], [134.3656813, 35.0518813], [134.3653787, 35.0525367], [134.3653033, 35.0527464], [134.3652674, 35.0528865], [134.3652584, 35.0530266], [134.3652899, 35.0531473], [134.3653056, 35.0532072], [134.3653719, 35.0533715], [134.3654631, 35.0535212], [134.3656028, 35.0537355], [134.3656807, 35.0539108], [134.3657246, 35.0540427], [134.3657631, 35.0541849], [134.3662, 35.0561725], [134.3663998, 35.0570435], [134.3664477, 35.0572704], [134.3664693, 35.0574629], [134.3664692, 35.0576162], [134.3664558, 35.0577843], [134.3664265, 35.0579032], [134.3664109, 35.0579615], [134.3663901, 35.0580141], [134.36634, 35.0581457], [134.3661549, 35.0585197], [134.3655228, 35.0598565], [134.3654895, 35.059927], [134.3645588, 35.0618476], [134.3644229, 35.062128], [134.3642025, 35.0625799], [134.3640399, 35.0629133], [134.3638547, 35.063293], [134.3636981, 35.0635628], [134.3635106, 35.0638709], [134.3628674, 35.0648517], [134.3627119, 35.0650304], [134.3624045, 35.0653983], [134.3622814, 35.0656101], [134.3621675, 35.0659116], [134.3621049, 35.0661832], [134.3620349, 35.0663394], [134.3618455, 35.0666223], [134.3613126, 35.0672336], [134.3607029, 35.067925], [134.3605324, 35.0681099], [134.3602262, 35.0684411], [134.3597817, 35.0689311], [134.3597126, 35.0690722], [134.3596861, 35.0691968], [134.3596911, 35.0693253], [134.3597185, 35.0694423], [134.3597818, 35.0695848], [134.3598702, 35.0697045], [134.3600854, 35.0699043], [134.3604058, 35.0701728], [134.3606409, 35.0703977], [134.3607357, 35.0705196], [134.3607889, 35.0706251], [134.3608189, 35.0707369], [134.3608183, 35.0708394], [134.3608034, 35.0709371], [134.3607464, 35.0710443], [134.3606901, 35.0711257], [134.360556, 35.0712199], [134.3604524, 35.0712746], [134.3603441, 35.0713132], [134.3601242, 35.071367], [134.3598358, 35.0714372], [134.3597438, 35.0714646], [134.3595459, 35.0715235], [134.3588269, 35.0718006], [134.3577283, 35.072205], [134.3575788, 35.0722681], [134.3574453, 35.0723491], [134.3573441, 35.0724174], [134.357244, 35.0725091], [134.3571697, 35.0726292], [134.3571275, 35.0727326], [134.3570879, 35.0728685], [134.3570683, 35.0730263], [134.3570316, 35.073525], [134.357045, 35.073639], [134.3570926, 35.0737395], [134.357155, 35.0738431], [134.3572354, 35.0739222], [134.3573708, 35.0739957], [134.3575063, 35.0740297], [134.3576509, 35.0740504], [134.3578671, 35.0740583], [134.3581286, 35.0740649], [134.3582802, 35.0740813], [134.3584901, 35.0741208], [134.3586624, 35.0741439], [134.3588541, 35.0741559], [134.3589976, 35.0741549], [134.3591119, 35.0741629], [134.359239, 35.074201], [134.3593249, 35.0742449], [134.3594017, 35.0743045], [134.3594509, 35.0743755], [134.3594831, 35.0744603], [134.3595126, 35.0745686], [134.3595209, 35.0746207], [134.3595247, 35.0746444], [134.3595242, 35.0747441], [134.3595073, 35.0749627], [134.3594945, 35.0751054], [134.3594341, 35.0757551], [134.3593866, 35.0760273], [134.3593091, 35.0763564], [134.3592389, 35.0766544], [134.3589583, 35.0775063], [134.358799, 35.077904], [134.3587905, 35.0780437], [134.3588032, 35.0781247], [134.3588486, 35.0781987], [134.3589266, 35.0782728], [134.3590583, 35.0783348], [134.3592571, 35.0784083], [134.3597648, 35.0785505], [134.359872, 35.0785878], [134.3599717, 35.0786415], [134.360045, 35.0786932], [134.3600987, 35.0787568], [134.3601267, 35.0788089], [134.3601644, 35.0789083], [134.3601871, 35.079014], [134.3602154, 35.0791476], [134.3602435, 35.0793023], [134.3602347, 35.0794491], [134.360206, 35.0796228], [134.3601644, 35.0797446], [134.3601067, 35.0798731], [134.3600174, 35.080044], [134.3599329, 35.0801869], [134.35986, 35.0802714], [134.3597308, 35.0803943], [134.3589359, 35.081156], [134.3585777, 35.0814874], [134.3581578, 35.0818915], [134.3580857, 35.0819977], [134.3580358, 35.0821284], [134.3579793, 35.082314], [134.35793, 35.0826158], [134.3579254, 35.0828731], [134.3579502, 35.0831018], [134.3579893, 35.0833012], [134.3581368, 35.0836978], [134.3582036, 35.083879], [134.3586459, 35.0850788], [134.3588737, 35.0856552], [134.3591357, 35.0863786], [134.3594395, 35.0872177], [134.3595632, 35.0874777], [134.3596819, 35.0876451], [134.3598326, 35.0877752], [134.3604073, 35.0881818], [134.3605145, 35.088294], [134.3605581, 35.0883694], [134.3606066, 35.0884723], [134.3606715, 35.0886455], [134.3609144, 35.0892576], [134.3611488, 35.0899068], [134.3612733, 35.0902529], [134.3614434, 35.0906848], [134.3618149, 35.0912871], [134.3620157, 35.0921056], [134.3621401, 35.0924747], [134.3623458, 35.0929787], [134.3623723, 35.0931093], [134.3623636, 35.0932267], [134.3622966, 35.0934048], [134.362159, 35.0935672], [134.3618895, 35.0937064], [134.3616743, 35.0937646], [134.3612294, 35.0938713], [134.3610798, 35.0939448], [134.3608969, 35.0941098], [134.3608155, 35.0942944], [134.3608117, 35.0944173], [134.3608376, 35.0945216], [134.3610954, 35.0948945], [134.3612395, 35.0951825], [134.3612877, 35.0953344], [134.3613707, 35.0955667], [134.3614337, 35.0957326], [134.3615669, 35.0959402], [134.3618515, 35.0962641], [134.3621881, 35.096765], [134.3625676, 35.0976341], [134.3628255, 35.0983339], [134.3628603, 35.0986129], [134.3627679, 35.0992403], [134.3627828, 35.099936], [134.3628125, 35.1005556], [134.3628243, 35.1011006], [134.3627684, 35.1015272], [134.3626008, 35.102004], [134.3624024, 35.1025302], [134.3623201, 35.1027317], [134.3622098, 35.1030164], [134.3621646, 35.1033342], [134.3620819, 35.1035282], [134.3618877, 35.1037774], [134.3616061, 35.1039597], [134.3611331, 35.1043682], [134.3608521, 35.1045228], [134.3603194, 35.1047921], [134.3601553, 35.1049646], [134.3599051, 35.1054878], [134.3598028, 35.1056808], [134.359736, 35.1058091], [134.3596594, 35.1059189], [134.3595853, 35.1059837], [134.359493, 35.1060486], [134.3593392, 35.1060987], [134.3584287, 35.1063576], [134.3582906, 35.1064892], [134.3582461, 35.1069411], [134.3581802, 35.1070302], [134.3577142, 35.1072755], [134.3572384, 35.107443], [134.3569692, 35.1076031], [134.356773, 35.1076686], [134.3565952, 35.1076732], [134.3563243, 35.1076427], [134.3559227, 35.1075313], [134.3555873, 35.1075108], [134.3552354, 35.1075596], [134.3548433, 35.1077525], [134.3544211, 35.1078265], [134.3537176, 35.1077994], [134.3527524, 35.1076748], [134.3522807, 35.1076458], [134.3518554, 35.1076836], [134.3507387, 35.107794], [134.3500395, 35.1078643], [134.3496836, 35.1079212], [134.3491939, 35.108107], [134.3489818, 35.1082295], [134.3487292, 35.1084755], [134.3484598, 35.1089874], [134.3484171, 35.1090938], [134.3483838, 35.1091768], [134.3483223, 35.1093301], [134.3482411, 35.1095201], [134.3481191, 35.1097108], [134.3479745, 35.1098471], [134.3478616, 35.1099167], [134.3477268, 35.1099854], [134.3475621, 35.1100349], [134.3474044, 35.1100601], [134.347154, 35.1100664], [134.3468836, 35.1100259], [134.3460599, 35.1098637], [134.3458084, 35.1098273], [134.345608, 35.1098279], [134.3454047, 35.1098445], [134.3446243, 35.1099618], [134.3443708, 35.1099912], [134.3441153, 35.1099937], [134.3438603, 35.1099749], [134.3433351, 35.1099275], [134.3431619, 35.1099194], [134.3429709, 35.1099349], [134.342781, 35.1099739], [134.3412475, 35.1104245], [134.3410445, 35.1105174], [134.3409124, 35.1106089], [134.3407988, 35.1107015], [134.3406924, 35.1108262], [134.3405635, 35.1110663], [134.3404959, 35.1111752], [134.3403881, 35.1112927], [134.3402286, 35.1113792], [134.3400511, 35.111424], [134.3399033, 35.1114654], [134.339371, 35.1115488], [134.3381968, 35.1117066], [134.3370566, 35.1120115], [134.3364489, 35.1121844], [134.3350944, 35.1125185], [134.3333169, 35.1130571], [134.3319536, 35.113442], [134.3312914, 35.1135812], [134.3311324, 35.1135845], [134.3310455, 35.1135746], [134.3308793, 35.1135195], [134.330713, 35.1134384], [134.3299328, 35.1130059], [134.3294503, 35.1127147], [134.3291568, 35.1124927], [134.3288297, 35.1121135], [134.3284358, 35.1115888], [134.3281845, 35.1111447], [134.3280906, 35.1110182], [134.3280442, 35.1109557], [134.3279242, 35.1108275], [134.3277799, 35.1107136], [134.3274204, 35.1105101], [134.3271822, 35.1104235], [134.3270057, 35.1103878], [134.326841, 35.1103884], [134.3264387, 35.110383], [134.3263739, 35.1106388], [134.3263386, 35.1108085], [134.326331, 35.111071], [134.3263684, 35.111452], [134.3264249, 35.1121302], [134.3266841, 35.1153066], [134.3266916, 35.1153988], [134.3267137, 35.1157688], [134.3267289, 35.115938], [134.3267329, 35.1159833], [134.3267354, 35.1160221], [134.3267483, 35.1163234], [134.3267534, 35.11638], [134.3267736, 35.1168031], [134.3268101, 35.1175329], [134.3267367, 35.1188301], [134.3267333, 35.1189242], [134.3267311, 35.1192521], [134.3267051, 35.1195644], [134.3266874, 35.1197205], [134.3266779, 35.1198761], [134.3266649, 35.1200154], [134.3266302, 35.1205054], [134.3266105, 35.120766], [134.32661, 35.1210274], [134.3266005, 35.1216308], [134.3266154, 35.1223042], [134.3266054, 35.122853], [134.3266066, 35.122896], [134.3266116, 35.1237484], [134.3266129, 35.1238435], [134.3266129, 35.1240261], [134.3266127, 35.124973], [134.3266127, 35.1253164], [134.3266126, 35.1257741], [134.3266089, 35.1259395], [134.3265924, 35.1263343], [134.3265638, 35.1266426], [134.3265365, 35.1269366], [134.3264166, 35.1279245], [134.3264021, 35.1280436], [134.3263283, 35.1284802], [134.3262792, 35.1289041], [134.3262398, 35.1292409], [134.326232, 35.129903], [134.326234, 35.1300854], [134.3262363, 35.1304415], [134.3262077, 35.1308817], [134.326036, 35.1320662], [134.3259769, 35.1329661], [134.3259069, 35.133807], [134.3258826, 35.1340312], [134.3258161, 35.1343782], [134.3254333, 35.1353901], [134.3251342, 35.1362104], [134.3250715, 35.1363665], [134.3245594, 35.1375619], [134.3241803, 35.1383604], [134.3238443, 35.1391765], [134.3236899, 35.1395729], [134.3234628, 35.1400792], [134.3233489, 35.1403291], [134.3232315, 35.1405405], [134.3230946, 35.1407869], [134.3229792, 35.1409198], [134.3226725, 35.1413446], [134.3226244, 35.1414169], [134.3222736, 35.1418399], [134.322261, 35.1418542], [134.3218598, 35.1423864], [134.3216714, 35.1426859], [134.3215695, 35.142922], [134.3215683, 35.1429248], [134.321546, 35.1429764], [134.3214709, 35.1434677], [134.3214818, 35.1435976], [134.3214896, 35.1437134], [134.3215094, 35.143872], [134.3215584, 35.1440626], [134.3216524, 35.1444283], [134.3219912, 35.1455136], [134.3222217, 35.1461653], [134.322373, 35.146373], [134.3225813, 35.1466182], [134.3227701, 35.1468214], [134.3233726, 35.1473051], [134.3235531, 35.147514], [134.3239613, 35.1481349], [134.3248177, 35.1494766], [134.3251071, 35.1498728], [134.325285, 35.1500715], [134.3254621, 35.1502218], [134.3256712, 35.1503237], [134.3259447, 35.1504232], [134.3262434, 35.1504668], [134.3264517, 35.1504586], [134.3266851, 35.150429], [134.3268611, 35.1503848], [134.3281153, 35.1500781], [134.3283724, 35.1500684], [134.3286393, 35.1501114], [134.3289955, 35.1502159], [134.329465, 35.1503712], [134.3295604, 35.150418], [134.3296476, 35.1504783], [134.3297803, 35.1505902], [134.3298783, 35.1507081], [134.3299386, 35.1508281], [134.3301202, 35.1512439], [134.3301959, 35.1514399], [134.3302841, 35.1516466], [134.330858, 35.1530813], [134.3311026, 35.1535396], [134.3313874, 35.1538251], [134.3316547, 35.1540718], [134.3318671, 35.1542865], [134.3319949, 35.154468], [134.3320844, 35.1546374], [134.3321702, 35.1548479], [134.3322473, 35.1550614], [134.3323741, 35.1554845], [134.3325168, 35.1559673], [134.3326568, 35.156438], [134.3329552, 35.1574471], [134.3333519, 35.1587884], [134.3337266, 35.1600411], [134.3339174, 35.1606789], [134.3339553, 35.1608055], [134.3341275, 35.1614139], [134.3342986, 35.1619813], [134.3343522, 35.162131], [134.3345599, 35.1628093], [134.3349007, 35.1638803], [134.3351886, 35.1648017], [134.3352061, 35.1648813], [134.3352726, 35.1651844], [134.3354227, 35.1656873], [134.335529, 35.165894], [134.3357442, 35.1661486], [134.3358215, 35.1662555], [134.3358555, 35.1663273], [134.3358962, 35.1665053], [134.3359913, 35.1670397], [134.3359974, 35.1671107], [134.3360031, 35.1671759], [134.3359457, 35.1688157], [134.335928, 35.1693202], [134.3359269, 35.1695188], [134.3359455, 35.1701674], [134.3359655, 35.1705678], [134.3360136, 35.1710513], [134.3361321, 35.1721664], [134.3361588, 35.1726673], [134.3361452, 35.1730607], [134.3360452, 35.1736853], [134.3358975, 35.1746494], [134.3358913, 35.1750688], [134.3359427, 35.1753628], [134.3362596, 35.1761775], [134.3362954, 35.1764524], [134.3363026, 35.1766291], [134.3363045, 35.1766758], [134.3362981, 35.1768514], [134.3362719, 35.1770007], [134.3361542, 35.1776727], [134.3360888, 35.178008], [134.3359292, 35.1788529], [134.3358678, 35.1791771], [134.3356643, 35.1798328], [134.3356034, 35.1800341], [134.3355327, 35.1802764], [134.3353894, 35.1807675], [134.3353848, 35.1807833], [134.3353503, 35.1809969], [134.3353526, 35.1812141], [134.3353577, 35.1812439], [134.3353784, 35.1813643], [134.3353984, 35.1814253], [134.3354223, 35.1814984], [134.3354398, 35.1815517], [134.3356001, 35.1819283], [134.3358196, 35.1826115], [134.3358475, 35.1826983], [134.336059, 35.1832068], [134.3361466, 35.1833054], [134.3361927, 35.1833571], [134.3365182, 35.1837982], [134.3369338, 35.1843612], [134.3373209, 35.1848856], [134.3373736, 35.1850193], [134.3374005, 35.1851513], [134.3374129, 35.1852744], [134.3374112, 35.1854407], [134.3373818, 35.1857053], [134.3373412, 35.1860575], [134.3373749, 35.1862163], [134.3375051, 35.1864993], [134.3376079, 35.186717], [134.3376312, 35.1868261], [134.3376322, 35.1868732], [134.3376338, 35.1869467], [134.3376147, 35.1870566], [134.3374207, 35.1875522], [134.3373369, 35.1877662], [134.3372798, 35.1879572], [134.3372498, 35.1881762], [134.3372013, 35.1888476], [134.3371981, 35.1889537], [134.3371938, 35.1890966], [134.3371947, 35.1892097], [134.3371724, 35.1901282], [134.3371537, 35.1902676], [134.3370046, 35.1908174], [134.3368159, 35.1915272], [134.3366589, 35.192007], [134.3365805, 35.1922023], [134.3365434, 35.1922828], [134.3357136, 35.1940819], [134.3354729, 35.1945737], [134.3353872, 35.1947489], [134.3352878, 35.1949628], [134.33526, 35.1950227], [134.3352331, 35.1951172], [134.3351945, 35.1952518], [134.3351655, 35.1954459], [134.3350368, 35.1972281], [134.335016, 35.197618], [134.334965, 35.1984959], [134.3348792, 35.1999733], [134.3348514, 35.2012992], [134.3348493, 35.2018647], [134.3348432, 35.202108], [134.3348651, 35.2026255], [134.3348937, 35.2032997], [134.3349066, 35.2040863], [134.3348941, 35.2042764], [134.3348756, 35.2043948], [134.3348417, 35.2045103], [134.3347899, 35.2046208], [134.33473, 35.2047044], [134.3347929, 35.2047411], [134.3348289, 35.2047728], [134.3348445, 35.2048072], [134.3348569, 35.2048656], [134.3348582, 35.2049927], [134.3348398, 35.2052076], [134.334817, 35.205293], [134.3347824, 35.205371], [134.3347012, 35.2054931], [134.3345654, 35.2057692]], [[134.33473, 35.2047044], [134.3346733, 35.2047889], [134.3346377, 35.204893], [134.3346358, 35.2049929], [134.3346475, 35.2050829], [134.3346827, 35.2051677], [134.3347584, 35.2052771], [134.3349531, 35.2054882], [134.335011, 35.205546], [134.3351379, 35.2056647], [134.3352933, 35.2057945], [134.3355017, 35.2059304], [134.3357492, 35.2060913], [134.3357945, 35.2060027], [134.3357995, 35.2059488], [134.3357779, 35.2059134], [134.335725, 35.2058816], [134.3356128, 35.2058438], [134.3354755, 35.2057871], [134.3353309, 35.2056843], [134.3351156, 35.2054718], [134.3350468, 35.2054363], [134.334999, 35.2054228], [134.334937, 35.2054205], [134.334883, 35.2054372], [134.3348364, 35.2054677], [134.3347666, 35.2055317], [134.3345654, 35.2057692], [134.334338, 35.2061006], [134.3320708, 35.2099594], [134.3312474, 35.2112369], [134.3303597, 35.2124858], [134.3294613, 35.2136997], [134.3276109, 35.2160618], [134.3270219, 35.2167425], [134.3265883, 35.2172086], [134.3263612, 35.2174558], [134.3260501, 35.2177837], [134.3258435, 35.2180089], [134.3254597, 35.2183692], [134.3253242, 35.2184805], [134.3251916, 35.2185701], [134.3251507, 35.2185973], [134.3249932, 35.2186828], [134.3248179, 35.2187706], [134.3246473, 35.2188494], [134.3244147, 35.2189534], [134.3238734, 35.2191768], [134.3232817, 35.2193248], [134.3231915, 35.2193369], [134.3231083, 35.2193405], [134.3230355, 35.2193317], [134.3229742, 35.2193096], [134.3229321, 35.2192749], [134.322895, 35.2192312], [134.3228569, 35.2191837], [134.3228186, 35.2191399], [134.3227791, 35.2191071], [134.3227218, 35.2190748], [134.3226695, 35.2190572], [134.3226069, 35.2190488], [134.3225476, 35.2190492], [134.3224768, 35.2190569], [134.3224043, 35.2190702], [134.322, 35.2192605], [134.3216177, 35.219501], [134.3215328, 35.2195708], [134.321468, 35.2196409], [134.3214151, 35.2197208], [134.3213483, 35.219832], [134.321333, 35.2200296], [134.3213402, 35.2202337], [134.3213802, 35.2202927]], [[134.3238734, 35.2191768], [134.323503, 35.2193667], [134.323406, 35.2194164], [134.3233412, 35.2194618], [134.3232992, 35.2195084], [134.3232682, 35.2195626], [134.3232536, 35.2196192], [134.3232597, 35.2196736], [134.3232759, 35.2197231], [134.3232976, 35.2197784], [134.3233061, 35.2198378], [134.3233026, 35.2198947], [134.3232903, 35.2199418], [134.3232665, 35.2200105], [134.3232207, 35.2200625], [134.3231551, 35.220102], [134.3230919, 35.220129], [134.3230139, 35.2201483], [134.322923, 35.2201606], [134.3223974, 35.2201484], [134.3222408, 35.2201531], [134.3220719, 35.2201639], [134.3217866, 35.2202246], [134.3216872, 35.2202176], [134.3213802, 35.2202927], [134.3212732, 35.2203328], [134.3206762, 35.2205565], [134.3212732, 35.2203328], [134.3213802, 35.2202927], [134.3216872, 35.2202176]], [[134.3206762, 35.2205565], [134.320345, 35.2206945], [134.3201202, 35.220796], [134.3199363, 35.2209211], [134.3196364, 35.2211982], [134.3194113, 35.2213389], [134.3192726, 35.2214041], [134.3180951, 35.2218284], [134.3173724, 35.2220928], [134.3171557, 35.2221954], [134.3166275, 35.2224455], [134.3163708, 35.2225534], [134.3162089, 35.2226013], [134.3160444, 35.222643], [134.315854, 35.2226658], [134.3156724, 35.2226729], [134.3153386, 35.2226499], [134.3151839, 35.2226452], [134.3150335, 35.2226693], [134.3148907, 35.2227225], [134.3146646, 35.2228431], [134.3142347, 35.2230873], [134.3129004, 35.2238269], [134.3126889, 35.2239553], [134.3122712, 35.2243356], [134.3117314, 35.2247719], [134.3115807, 35.2249085], [134.3114893, 35.2250328], [134.3113367, 35.2252355], [134.3112546, 35.2253136], [134.3111509, 35.2253733], [134.3109753, 35.2254152], [134.3104638, 35.2254631], [134.3103205, 35.2255069], [134.3102168, 35.2255614], [134.3097936, 35.225877], [134.3096745, 35.226], [134.309348, 35.2264478], [134.3092727, 35.2265826], [134.3091547, 35.2267163], [134.3088846, 35.2268627], [134.3086761, 35.2269633], [134.3084996, 35.2270377], [134.3083396, 35.2270902], [134.3081496, 35.2271272], [134.307578, 35.2271528], [134.3070875, 35.2271945], [134.3068346, 35.2272282], [134.3065822, 35.2272856], [134.3060472, 35.2274244], [134.3057116, 35.2275119], [134.3054704, 35.2275575], [134.3052501, 35.2275965], [134.3049967, 35.2276526], [134.3048062, 35.2277288], [134.3045588, 35.2278191], [134.3044644, 35.2278514], [134.3043796, 35.2278969], [134.3042991, 35.2279738], [134.304181, 35.2281616], [134.3041246, 35.2282451], [134.303945, 35.2284076], [134.3034935, 35.2286932], [134.3023051, 35.2293977], [134.3017348, 35.2297972], [134.3015416, 35.2299098], [134.3013523, 35.2299862], [134.3011993, 35.2300256], [134.3010222, 35.2300418], [134.3002769, 35.230078], [134.2997871, 35.2301137], [134.2996139, 35.2301397], [134.2991917, 35.2302776], [134.2987961, 35.2304189], [134.2969803, 35.2309805], [134.2953789, 35.2315094], [134.2951733, 35.2315261], [134.2950206, 35.2314954], [134.2948664, 35.2314451], [134.294719, 35.2313822], [134.2941743, 35.2311433], [134.2936127, 35.2309398], [134.2930517, 35.2307343], [134.2928616, 35.2306782], [134.292681, 35.2306625], [134.2925226, 35.2306805], [134.2923788, 35.2307387], [134.2922808, 35.2308161], [134.292189, 35.2309315], [134.292116, 35.2310755], [134.2919768, 35.2314018], [134.2917856, 35.2318353], [134.2917007, 35.2319527], [134.2916312, 35.2320089], [134.2915083, 35.232066], [134.2913677, 35.2321196], [134.2912067, 35.2321714], [134.2909493, 35.2322469], [134.2907457, 35.2323164], [134.2906371, 35.2323677], [134.2905472, 35.2324261], [134.2904381, 35.2325345], [134.2901863, 35.2328747], [134.2900872, 35.2329957], [134.2899849, 35.2330999], [134.2898644, 35.233182], [134.2895259, 35.233354], [134.2893197, 35.2334456], [134.2889801, 35.233528], [134.2887207, 35.2336128], [134.2885044, 35.2337172], [134.288318, 35.233864], [134.2881412, 35.2340396], [134.2879711, 35.2342392], [134.2877672, 35.2344818], [134.2873622, 35.2349561], [134.2872054, 35.23525], [134.2870633, 35.2355792], [134.2869325, 35.2361164], [134.2869043, 35.2366068], [134.2869535, 35.2368716], [134.2870298, 35.2371167], [134.2871758, 35.2374276], [134.2872664, 35.2377385], [134.2873161, 35.2380527], [134.2873492, 35.2383431], [134.2873313, 35.2386156], [134.2872982, 35.2388681], [134.2872337, 35.2392329], [134.2872064, 35.2395341], [134.2871906, 35.2398246], [134.2871871, 35.2403471], [134.2871658, 35.240619], [134.2870844, 35.2409686], [134.2870102, 35.2411332], [134.2867939, 35.2414256], [134.2861665, 35.2422201], [134.2860674, 35.2424837], [134.2858678, 35.243298], [134.2857931, 35.2435633], [134.2855761, 35.2441648], [134.2853925, 35.2446754], [134.2853409, 35.2449288], [134.2853366, 35.2451602], [134.2853708, 35.2454169], [134.2854061, 35.2457149], [134.2854656, 35.2459694], [134.2856056, 35.2463865], [134.2858097, 35.2468826], [134.2859553, 35.2471653], [134.286121, 35.2474993], [134.286239, 35.2477801], [134.2863173, 35.2480826], [134.2863475, 35.248389], [134.2863973, 35.2487776], [134.286421, 35.2491305], [134.2864196, 35.2492249], [134.2864304, 35.2494936], [134.2864143, 35.2495567], [134.2863907, 35.2496151], [134.2863621, 35.2496697], [134.2863181, 35.2497234], [134.286263, 35.2497812], [134.2861917, 35.249838], [134.2860531, 35.249918], [134.2858687, 35.2499656], [134.2851906, 35.2501495], [134.2850615, 35.2501978], [134.2849371, 35.2502623], [134.2847893, 35.2503585], [134.2846401, 35.2505043], [134.2843219, 35.2508976], [134.2841683, 35.2511373], [134.2836425, 35.2521024], [134.2835473, 35.2522928], [134.2834668, 35.252493], [134.2832256, 35.2532624], [134.2831733, 35.2534044], [134.283098, 35.2535619], [134.283016, 35.2536988], [134.2823843, 35.254623], [134.2818771, 35.2553815], [134.2817236, 35.2555857], [134.2814199, 35.2558836], [134.2813679, 35.2559295], [134.2812339, 35.2560485], [134.2803532, 35.2568073], [134.2801108, 35.2570254], [134.2796818, 35.2573711], [134.2788699, 35.2579231], [134.2784681, 35.2581854], [134.2778231, 35.2586036], [134.2776855, 35.2587092], [134.2775479, 35.2588212], [134.276698, 35.2595823], [134.2764647, 35.2597513], [134.2755655, 35.2604034], [134.274921, 35.2609212], [134.2747978, 35.2610187], [134.2745841, 35.2611873], [134.2744819, 35.2612482], [134.2743335, 35.2613291], [134.2741496, 35.2613787], [134.2739562, 35.2614036], [134.2736607, 35.2614245], [134.2730231, 35.261473], [134.2728814, 35.2614832], [134.2724363, 35.2615092], [134.2719218, 35.2615405], [134.271223, 35.2615877], [134.2711285, 35.2615892], [134.2710157, 35.2615801], [134.2708813, 35.261555], [134.270731, 35.2615049], [134.2689798, 35.2607253], [134.2677965, 35.2601888], [134.2677464, 35.2601657], [134.2676558, 35.260123], [134.2671084, 35.2598685], [134.2668981, 35.2597772], [134.2666609, 35.2597051], [134.2664855, 35.2596622], [134.2663128, 35.2596426], [134.2660707, 35.2596402], [134.2658515, 35.2596495], [134.2656345, 35.2596933], [134.2654847, 35.2597417], [134.2653144, 35.2598033], [134.2649232, 35.2600003], [134.2645205, 35.2602468], [134.263686, 35.2606586], [134.2636461, 35.2606812], [134.2630758, 35.2609282], [134.262959, 35.2609624], [134.262664, 35.2609968], [134.2622303, 35.2609877], [134.261789, 35.2608844], [134.2614333, 35.2607408], [134.2610452, 35.2604775], [134.2606267, 35.2601787], [134.2603464, 35.2600359], [134.2589543, 35.259495], [134.2586396, 35.2594105], [134.2583587, 35.2593724], [134.2581438, 35.2593801], [134.2579329, 35.2594028], [134.2576784, 35.2594563], [134.2574486, 35.2595241], [134.2572311, 35.2596168], [134.2570151, 35.2597286], [134.2561628, 35.2602088], [134.2560579, 35.2602708], [134.2541491, 35.2613868], [134.2539438, 35.261457], [134.2537717, 35.2614915], [134.2535742, 35.261492], [134.2533811, 35.2614683], [134.2531301, 35.2613846], [134.2518656, 35.260867], [134.2516709, 35.2608135], [134.2514875, 35.2607932], [134.2512962, 35.2607873], [134.2511467, 35.2607936], [134.2508788, 35.2608253], [134.250477, 35.2609382], [134.2496084, 35.2612417], [134.2472489, 35.2620672], [134.246979, 35.2621688], [134.2466067, 35.2623034], [134.2464532, 35.2623739], [134.2463032, 35.2624565], [134.2458564, 35.2627373], [134.2454936, 35.2629586], [134.2449641, 35.2632808], [134.2446827, 35.2634116], [134.2444018, 35.2635129], [134.2442866, 35.2635508], [134.2438937, 35.2636697], [134.2432925, 35.2638227], [134.2429479, 35.2639011], [134.2416892, 35.2640648], [134.2412554, 35.2641075], [134.2409911, 35.2641371], [134.2402653, 35.264218], [134.2393744, 35.2643129], [134.2388444, 35.2643679], [134.2382582, 35.2644478], [134.237754, 35.2645338], [134.2373514, 35.2646337], [134.237009, 35.2647198], [134.2369538, 35.2647369], [134.2363412, 35.264903], [134.2359949, 35.2650039], [134.2353233, 35.2652338], [134.2352822, 35.265251], [134.2344816, 35.2655859], [134.2344506, 35.2656005], [134.2335638, 35.2660275], [134.2329159, 35.2663476], [134.2325436, 35.2665294], [134.2322112, 35.2666904], [134.2319252, 35.2668331], [134.2314264, 35.2670821], [134.2310294, 35.2672654], [134.2306439, 35.2674595], [134.2304428, 35.2675679], [134.2303488, 35.2676171], [134.2302394, 35.2676786], [134.2301306, 35.2677517], [134.2299549, 35.267914], [134.2299161, 35.2679515], [134.2295473, 35.2683075], [134.2294677, 35.2683844], [134.2288795, 35.2689521], [134.2286119, 35.2691873], [134.228537, 35.2692508], [134.2281927, 35.2695123], [134.2272493, 35.2702565], [134.2271989, 35.2702963], [134.2271004, 35.2703697], [134.2267784, 35.270603], [134.2260224, 35.2711709], [134.2252163, 35.2717763], [134.2250176, 35.2719287], [134.2243699, 35.2724226], [134.2242894, 35.2725167], [134.2242284, 35.272608], [134.2241834, 35.2727024], [134.2241481, 35.2728174], [134.224125, 35.2729674], [134.2241129, 35.2730844], [134.2240518, 35.2738262], [134.2240336, 35.2741209], [134.2240228, 35.274275], [134.2240194, 35.2743699], [134.2240263, 35.2745145], [134.2240751, 35.2750102], [134.2241049, 35.2752424], [134.224154, 35.2754394], [134.2242484, 35.2756068], [134.2243775, 35.2757854], [134.2244477, 35.2758813], [134.2245821, 35.2760444], [134.2251082, 35.2766371], [134.2255677, 35.2771368], [134.2261236, 35.2775849], [134.2266158, 35.2779167], [134.2267563, 35.278003], [134.2274553, 35.2784669], [134.2280365, 35.278882], [134.2289086, 35.279474], [134.2294292, 35.2798274], [134.2295916, 35.2799382], [134.2296131, 35.2799531], [134.2297641, 35.2800493], [134.2299319, 35.2801739], [134.2300922, 35.2803612], [134.2301737, 35.2804545], [134.2302696, 35.2806254], [134.2302806, 35.2806501], [134.2302855, 35.280661], [134.2303338, 35.2807691], [134.2303848, 35.2809197], [134.2304987, 35.2812815], [134.2306143, 35.2817188], [134.2307025, 35.2821272], [134.2307154, 35.282259], [134.2307096, 35.282365], [134.2306958, 35.2825038], [134.2306585, 35.2826626], [134.2304239, 35.2832847], [134.2303754, 35.2834281], [134.2303537, 35.2837379], [134.2303499, 35.2839145], [134.2303341, 35.2840547], [134.2302876, 35.2845624], [134.2302662, 35.2847577], [134.2301515, 35.2850257], [134.2301399, 35.2850567], [134.2301089, 35.2851271], [134.2300265, 35.2852877], [134.2297991, 35.2857231], [134.2292652, 35.2866872], [134.2286269, 35.2878605], [134.2282342, 35.288623], [134.2274282, 35.2902497], [134.2271558, 35.290488], [134.2268419, 35.2906925], [134.2265495, 35.2908651], [134.2257082, 35.2911892], [134.2253606, 35.2913507], [134.219006, 35.293857], [134.218391, 35.294167], [134.217672, 35.294821], [134.2176315, 35.294872], [134.217557, 35.294966], [134.217434, 35.295096], [134.217138, 35.2954147], [134.216809, 35.295659], [134.21672, 35.29571], [134.216479, 35.295828], [134.216287, 35.29589], [134.216032, 35.295935], [134.215398, 35.2960392], [134.2152315, 35.2960632], [134.2145897, 35.2961751], [134.2143798, 35.2962177], [134.2140404, 35.2963092], [134.2138598, 35.2963669], [134.2137108, 35.2964175], [134.2135161, 35.2964929], [134.2131429, 35.2966439], [134.211911, 35.2972249], [134.2117027, 35.2973231], [134.2114138, 35.2974565], [134.2113252, 35.2974974], [134.2112005, 35.2975549], [134.211035, 35.2976441], [134.2109757, 35.297688], [134.2108672, 35.2977682], [134.2105585, 35.2980029], [134.2103473, 35.2982133], [134.2101712, 35.2984769], [134.210022, 35.298769], [134.2098858, 35.2989756], [134.2097447, 35.2992778], [134.2096479, 35.2994413], [134.2093972, 35.2999793], [134.2092073, 35.3002759], [134.2090966, 35.3004347], [134.2089713, 35.3006729], [134.2087746, 35.3009961], [134.2085736, 35.3013263], [134.208332, 35.301661], [134.208146, 35.3018282], [134.2079647, 35.3019723], [134.2076515, 35.3021664], [134.2071006, 35.302445], [134.2067615, 35.3026045], [134.2063048, 35.3027486], [134.2059233, 35.3028331], [134.2054807, 35.3030253], [134.2036818, 35.3039764], [134.2033781, 35.3041801], [134.2032805, 35.3042515], [134.2027082, 35.3046399], [134.2022335, 35.3050202], [134.2020027, 35.3052315], [134.2018948, 35.3053636], [134.2018684, 35.3054012], [134.2016716, 35.305682], [134.2014289, 35.3062121], [134.2013603, 35.3065141], [134.2013165, 35.3067475], [134.2012892, 35.3071382], [134.2012932, 35.3072827], [134.2012875, 35.3074564], [134.2012794, 35.3078483], [134.2012353, 35.3081323], [134.2011715, 35.3082983], [134.2010441, 35.3085064], [134.2009174, 35.3086512], [134.200875, 35.3086802], [134.2007795, 35.3087661], [134.2001636, 35.3091725], [134.199806, 35.3094203], [134.1997007, 35.3095262], [134.1995007, 35.3097554], [134.1992795, 35.3100647], [134.1988127, 35.3106633], [134.1984645, 35.3111158], [134.1984354, 35.3111526], [134.1982865, 35.311341], [134.198262, 35.3113719], [134.1982419, 35.3113969], [134.1979004, 35.3118229], [134.197487, 35.3123387], [134.197181, 35.3127257], [134.1970807, 35.3128496], [134.1968645, 35.3131169], [134.1967781, 35.3132237], [134.1963661, 35.3137269], [134.1957287, 35.3145053], [134.1955288, 35.3147495], [134.1952249, 35.3151131], [134.1950419, 35.3153714], [134.1949162, 35.3154938], [134.1947811, 35.3156587], [134.1946491, 35.315845], [134.1945876, 35.3159656], [134.1945501, 35.3160958], [134.1945353, 35.3163001], [134.1946343, 35.316113], [134.1946867, 35.3160055], [134.1947364, 35.3159088], [134.1948635, 35.3156968], [134.1949604, 35.3155096], [134.1950419, 35.3153714]], [[134.1945353, 35.3163001], [134.1945084, 35.316435], [134.1943747, 35.3171149], [134.1943027, 35.3176515], [134.1942857, 35.3177783], [134.1942836, 35.3193445], [134.1943222, 35.3197674], [134.1943664, 35.3199702], [134.194523, 35.32043], [134.1946056, 35.3205743], [134.194797, 35.320909], [134.1956958, 35.3223821], [134.1965665, 35.3238725], [134.1970785, 35.3248053], [134.1973122, 35.3253186], [134.1975668, 35.3261119], [134.1975977, 35.3262042], [134.1980198, 35.3274642], [134.198345, 35.3284841], [134.1986525, 35.3294092], [134.1989665, 35.3303232], [134.1991002, 35.3307351], [134.1992655, 35.3312618], [134.1993151, 35.3315205], [134.1993265, 35.3317068], [134.1993271, 35.3319236], [134.1993166, 35.3321319], [134.1993203, 35.3324497], [134.1993277, 35.3325173], [134.1993375, 35.3325724], [134.1993522, 35.3326727], [134.1993791, 35.3327345], [134.1994218, 35.3328363], [134.1994666, 35.3329102], [134.1994833, 35.3329377], [134.1995689, 35.3330395], [134.199693, 35.3331664], [134.199757, 35.3332179], [134.2003249, 35.3336513], [134.2004401, 35.3337322], [134.2006012, 35.3338826], [134.2006753, 35.3339775], [134.2007599, 35.3341545], [134.2008076, 35.3343617], [134.2008171, 35.3346623], [134.20078, 35.335138], [134.2007806, 35.3353888], [134.200776, 35.3358742], [134.2007639, 35.3360573], [134.2007414, 35.3361718], [134.2007129, 35.3362655], [134.2006615, 35.3363612], [134.2005324, 35.3365312], [134.2004983, 35.3365837], [134.2004687, 35.3366247], [134.200297, 35.3368715], [134.2000541, 35.3372233], [134.1999986, 35.3373352], [134.1999417, 35.3374808], [134.199913, 35.3376218], [134.199892, 35.3377742], [134.1998965, 35.3378944], [134.199922, 35.3380428], [134.1999717, 35.3381923], [134.2000247, 35.338316], [134.2001325, 35.3384963], [134.2013013, 35.3399736], [134.2016981, 35.3404885], [134.2018435, 35.3407618], [134.2020528, 35.3409946], [134.2025045, 35.3416942], [134.2029492, 35.3421736], [134.2030071, 35.3422273], [134.2031162, 35.3423285], [134.2033553, 35.3425662], [134.2034138, 35.3426201], [134.2036683, 35.3428545], [134.2042427, 35.3433835], [134.2044749, 35.3436034], [134.2046392, 35.3437743], [134.204744, 35.3438833], [134.2048412, 35.3439865], [134.2052275, 35.3443969], [134.205634, 35.3448593], [134.2058287, 35.3452843], [134.2059232, 35.345753], [134.2059319, 35.3457962], [134.206019, 35.346361], [134.2060363, 35.3465618], [134.2060392, 35.3467392], [134.2060236, 35.3469796], [134.2059935, 35.3473827], [134.2059345, 35.347663], [134.205831, 35.3479442], [134.2056697, 35.3483284], [134.2054923, 35.3486734], [134.2053633, 35.3488458], [134.204413, 35.3499543], [134.2042975, 35.3501366], [134.2042047, 35.3503494], [134.2041481, 35.3505287], [134.2041281, 35.3506391], [134.2040886, 35.3508675], [134.2040647, 35.3510578], [134.2040538, 35.351294], [134.2040814, 35.3515257], [134.2041234, 35.3517395], [134.2042314, 35.3520952], [134.2042476, 35.3521471], [134.2044152, 35.3524368], [134.2045153, 35.3526217], [134.2048323, 35.3530129], [134.2054051, 35.3536433], [134.2056578, 35.3539381], [134.2060446, 35.3543736], [134.2064374, 35.3548795], [134.2066654, 35.3551991], [134.2069704, 35.3555864], [134.207322, 35.356033], [134.207595, 35.356404], [134.207866, 35.3567645], [134.207883, 35.356787], [134.2079703, 35.3569071], [134.208502, 35.357638], [134.208936, 35.3581729], [134.2092964, 35.3586671], [134.2095532, 35.3590276], [134.2097218, 35.3591922], [134.2098478, 35.3593139], [134.2099354, 35.3593712], [134.2099709, 35.3593944], [134.2101414, 35.3594771], [134.210176, 35.3594902], [134.2105352, 35.3596695], [134.2109612, 35.3598075], [134.2111035, 35.3598514], [134.2113225, 35.3599353], [134.2117319, 35.3601047], [134.2121413, 35.360344], [134.2124775, 35.360623], [134.2127156, 35.3609122], [134.2129092, 35.3612268], [134.2130425, 35.3615784], [134.2131392, 35.3620002], [134.2132167, 35.3623297], [134.213436, 35.362998], [134.2135879, 35.363983], [134.2137909, 35.3646304], [134.2139571, 35.364965], [134.2140987, 35.3651886], [134.2145012, 35.3657645], [134.2147101, 35.3661733], [134.2150035, 35.3669914], [134.2151591, 35.3674996], [134.2151958, 35.3676193], [134.215365, 35.367969], [134.2154498, 35.3683612], [134.215492, 35.3684702], [134.2155064, 35.3689419], [134.215464, 35.3696071], [134.2154553, 35.3698753], [134.2154481, 35.370192], [134.2154455, 35.3702575], [134.2154124, 35.3712228], [134.2153178, 35.3723602], [134.2152784, 35.3726311], [134.2152188, 35.3729408], [134.2151897, 35.3731358], [134.2150632, 35.3736714], [134.2149123, 35.3740905], [134.2148338, 35.3742768], [134.2146435, 35.3745788], [134.2145245, 35.3747911], [134.2143511, 35.3750056], [134.2141606, 35.3751649], [134.2139838, 35.3753465], [134.2137667, 35.3755478], [134.2132996, 35.375963], [134.2127567, 35.3764427], [134.2122904, 35.376905], [134.2121018, 35.3770703], [134.2120066, 35.3771466], [134.2118283, 35.3772895], [134.2115135, 35.3775013], [134.2113426, 35.3776163], [134.2098478, 35.3785698], [134.2092395, 35.3789274], [134.2091139, 35.3789976], [134.208999, 35.3790619], [134.2089073, 35.3790968], [134.2085133, 35.3792465], [134.2079238, 35.3794195], [134.2073863, 35.3795771], [134.2069383, 35.379754], [134.2062404, 35.3800885], [134.2054388, 35.3804845], [134.2045711, 35.3811804], [134.2041231, 35.3815418], [134.2038308, 35.3817109], [134.2034441, 35.3818455], [134.2029998, 35.3820999], [134.2026133, 35.382413], [134.2022583, 35.3828547], [134.2019034, 35.3833443], [134.2013746, 35.3842202], [134.2011333, 35.3846683], [134.2009541, 35.3850661], [134.2007671, 35.3855517], [134.2006551, 35.3858397], [134.2004574, 35.3864506], [134.2003888, 35.3867816], [134.2003402, 35.3871685], [134.2003173, 35.3874924], [134.2003373, 35.3877441], [134.2003574, 35.3879889], [134.2003831, 35.3881893], [134.2004172, 35.3885154], [134.2004662, 35.3887471], [134.2005696, 35.3891055], [134.2007013, 35.3895165], [134.2007526, 35.3896577], [134.2008374, 35.3898622], [134.2010848, 35.390394], [134.2013829, 35.3911155], [134.2017842, 35.3920319], [134.2022457, 35.3929842], [134.202492, 35.393523], [134.2029438, 35.394672], [134.20298, 35.394764], [134.2032316, 35.395533], [134.203592, 35.3965104], [134.2039846, 35.3976072], [134.2041951, 35.3983374], [134.2042816, 35.3985612], [134.2043986, 35.3988668], [134.2045306, 35.3994631], [134.204599, 35.399683], [134.2047706, 35.4005652], [134.2050016, 35.4024899], [134.2052213, 35.4035951], [134.205623, 35.4049312], [134.206011, 35.406168], [134.206305, 35.4070574], [134.206357, 35.4072397], [134.2064031, 35.4073696], [134.2065578, 35.4078941], [134.2067206, 35.4083641], [134.2068023, 35.4086578], [134.2068783, 35.4090342], [134.2068982, 35.4093457], [134.2068504, 35.4098487], [134.2067469, 35.4102317], [134.2065876, 35.410712], [134.2063168, 35.4115492], [134.2062777, 35.4121019], [134.2064193, 35.4135383], [134.2064611, 35.4145718], [134.2064254, 35.4148924], [134.2063059, 35.4154932], [134.20621, 35.4159011], [134.2061995, 35.4159405], [134.2061233, 35.4161263], [134.2052739, 35.418744], [134.2051835, 35.4192902], [134.205181, 35.4195036], [134.2051794, 35.4197203], [134.2051905, 35.4199411], [134.2052127, 35.4201529], [134.2052505, 35.420372], [134.2052971, 35.4206145], [134.2053704, 35.4208897], [134.2054482, 35.4210816], [134.2055304, 35.4212626], [134.205619, 35.421433], [134.2059253, 35.4219392], [134.206272, 35.422512], [134.2066541, 35.4231144], [134.206793, 35.4233938], [134.2068775, 35.4236029], [134.2069387, 35.4238117], [134.2070122, 35.4241454], [134.207077, 35.424591], [134.2070836, 35.4246986], [134.2070912, 35.424854], [134.2070973, 35.4251474], [134.2071227, 35.4254357], [134.2071315, 35.4255612], [134.207141, 35.4258437], [134.2071167, 35.4260836], [134.2070789, 35.4262643], [134.2070301, 35.4264499], [134.2064465, 35.4283899], [134.2062175, 35.4291534], [134.2058272, 35.4304006], [134.2057294, 35.430662], [134.2055746, 35.4309726], [134.2052559, 35.431779], [134.2050924, 35.4322176], [134.2048504, 35.4330693], [134.2046041, 35.4339072], [134.2045749, 35.4340311], [134.2045414, 35.4344697], [134.2045414, 35.4347254], [134.2046283, 35.4351464], [134.2048025, 35.4355116], [134.2050556, 35.4360066], [134.2052932, 35.4364372], [134.2051228, 35.4359989], [134.2050097, 35.4355699], [134.2050027, 35.4354399], [134.2049888, 35.4351742], [134.2050073, 35.4349632], [134.2050731, 35.4346532], [134.2051545, 35.4343622], [134.2052123, 35.4341587], [134.2057453, 35.4323462], [134.2058094, 35.4321353], [134.205902, 35.4317663], [134.2059446, 35.4315195], [134.2060491, 35.4309637], [134.2061055, 35.4307223], [134.2061738, 35.4304615], [134.2061871, 35.4304188], [134.2064413, 35.4295934], [134.2067906, 35.428447], [134.207324, 35.4266622], [134.2073399, 35.4265825], [134.2073502, 35.4265199], [134.207357, 35.4263251], [134.2073602, 35.4261641], [134.2073386, 35.4259839], [134.2072376, 35.425598], [134.2072145, 35.4254772], [134.2070912, 35.424854]], [[134.2052932, 35.4364372], [134.205356, 35.4365645], [134.205484, 35.4368294], [134.2056284, 35.437049], [134.2060101, 35.4375176], [134.2063264, 35.437794], [134.2065463, 35.4379585], [134.2082431, 35.4389396], [134.2086776, 35.4392543], [134.2089565, 35.4395034], [134.2091657, 35.4397219], [134.2093428, 35.4399142], [134.2095627, 35.4402639], [134.2096539, 35.4404125], [134.209782, 35.4407124], [134.2099425, 35.4412782], [134.2103516, 35.4436485], [134.2104255, 35.4440094], [134.2105893, 35.4444342], [134.2107894, 35.4448889], [134.2115463, 35.4461808], [134.2127453, 35.4476217], [134.2132885, 35.4483259], [134.2136374, 35.4488588], [134.2139785, 35.4495081], [134.2142124, 35.450067], [134.2144027, 35.4505547], [134.2144351, 35.4506868], [134.2144535, 35.4507477], [134.2144771, 35.4508272], [134.2147214, 35.4518056], [134.2149164, 35.4527206], [134.2149373, 35.4528373], [134.2151774, 35.4548299], [134.215225, 35.4555937], [134.2152656, 35.4568853], [134.215265, 35.4587078], [134.215228, 35.4602312], [134.2151487, 35.4610273], [134.215, 35.4620884], [134.214993, 35.4621944], [134.2148146, 35.4635027], [134.2147007, 35.4646711], [134.2146352, 35.4648509], [134.2146374, 35.4651673], [134.214647, 35.4654836], [134.2146609, 35.4656309], [134.2146945, 35.4658437], [134.214773, 35.46626], [134.2148514, 35.4665447], [134.2149893, 35.466901], [134.2151938, 35.4672844], [134.2153616, 35.4675819], [134.2155076, 35.4677994], [134.2158948, 35.4683193], [134.2162966, 35.4687818], [134.2166719, 35.4692801], [134.2168892, 35.4696298], [134.2170492, 35.4699885], [134.2172379, 35.4705454], [134.2173039, 35.4708948], [134.2173264, 35.4712302], [134.2173157, 35.4716783], [134.2172803, 35.4720201], [134.2171907, 35.4725212], [134.2170209, 35.4733488], [134.2169697, 35.4736738], [134.2169289, 35.4738511], [134.2169192, 35.4738984], [134.2168674, 35.474119], [134.2168245, 35.4746744], [134.2168304, 35.4750607], [134.2168625, 35.4753782], [134.2169043, 35.4756372], [134.2169785, 35.475906], [134.2171437, 35.4763947], [134.2171802, 35.4765027], [134.2172039, 35.4765623], [134.217417, 35.4772303], [134.2176319, 35.4778057], [134.2176517, 35.4778345], [134.2177219, 35.4779288], [134.2177301, 35.4778197], [134.2177349, 35.4777802], [134.2176904, 35.4776282], [134.2175834, 35.4772711], [134.2172895, 35.4764334], [134.2172708, 35.4763703], [134.2171001, 35.4757948], [134.2170364, 35.475549], [134.21697, 35.4752374], [134.216952, 35.4749978], [134.2169414, 35.4746476], [134.2169557, 35.4744049], [134.216977, 35.4742207], [134.2170007, 35.4740864], [134.2170334, 35.4739123], [134.2170683, 35.4737412], [134.2171101, 35.4735511], [134.2173596, 35.4722449], [134.2174034, 35.4720022], [134.2174548, 35.4716318], [134.2174591, 35.4712719], [134.2174512, 35.4711417], [134.2173993, 35.4707659], [134.2173928, 35.4707346], [134.2173078, 35.4703284], [134.2171517, 35.4699001], [134.2169886, 35.4695772], [134.2168614, 35.4693509], [134.2167818, 35.4692365], [134.2166463, 35.4690418], [134.2160179, 35.4682555], [134.2158995, 35.4681127], [134.215463, 35.4675361], [134.2152878, 35.467242], [134.2151014, 35.4668774], [134.2150765, 35.4668135], [134.215011, 35.4666451], [134.2149721, 35.4665177], [134.2148993, 35.466298], [134.2148423, 35.4660478], [134.2148114, 35.4658523], [134.2147963, 35.4657362], [134.2147828, 35.465643], [134.2147774, 35.4654977], [134.2147577, 35.4651774], [134.2147488, 35.4648638], [134.2147007, 35.4646711]], [[134.2177219, 35.4779288], [134.2177791, 35.4780953], [134.2178021, 35.478164], [134.2178721, 35.4783791], [134.2179501, 35.4785935], [134.2180615, 35.4788587], [134.218297, 35.4794193], [134.2183444, 35.4795321], [134.2184171, 35.4796931], [134.2185646, 35.4800199], [134.2188583, 35.4806716], [134.2188781, 35.4807156], [134.2190169, 35.4810634], [134.2193318, 35.481772], [134.2197077, 35.4826174], [134.219983, 35.48324], [134.2201208, 35.4835777], [134.220136, 35.4836147], [134.2202879, 35.4839465], [134.2203117, 35.4840084], [134.220577, 35.4847241], [134.2205853, 35.4847464], [134.2206216, 35.484838], [134.2206473, 35.4849412], [134.2206726, 35.4850425], [134.2207695, 35.4854305], [134.220795, 35.485538], [134.22094, 35.48612], [134.2210122, 35.4864507], [134.2210438, 35.4865912], [134.22118, 35.4871966], [134.2211964, 35.4872656], [134.2214161, 35.4881894], [134.2214331, 35.4882542], [134.2216558, 35.4891033], [134.2218073, 35.4892986], [134.2218684, 35.4893637], [134.2219458, 35.489446], [134.2220382, 35.4895347], [134.2220636, 35.4895592], [134.2225251, 35.4899933], [134.2225585, 35.4900301], [134.2227521, 35.490233], [134.2228273, 35.4903119], [134.2228848, 35.4904472], [134.2229089, 35.4905935], [134.2229143, 35.4907464], [134.2229143, 35.4910456], [134.2229053, 35.4915139], [134.2229022, 35.4917575], [134.2229074, 35.4919533], [134.2229089, 35.4919847], [134.2229065, 35.4926516], [134.2229108, 35.4927771], [134.2229041, 35.4934651], [134.222902, 35.4939694], [134.2228974, 35.4941303], [134.2228998, 35.4944647], [134.2229055, 35.494585], [134.2229226, 35.4947073], [134.2229488, 35.4948259], [134.2229899, 35.4949333], [134.2230023, 35.4949658], [134.2230835, 35.4951385], [134.2231967, 35.4952848], [134.2233259, 35.4954079], [134.2234009, 35.4954723], [134.2236204, 35.4956588], [134.2236373, 35.4956741], [134.223999, 35.4959833], [134.2240492, 35.4960273], [134.2247511, 35.4966309], [134.2248641, 35.4965874], [134.2249153, 35.4965684], [134.2249629, 35.4965528], [134.2249777, 35.4965485], [134.2250089, 35.4965393], [134.2250522, 35.4965285], [134.2251172, 35.496515], [134.2251904, 35.4965028], [134.2254348, 35.4964693], [134.2260428, 35.4964041], [134.2265636, 35.4963489], [134.2273042, 35.49629], [134.2276342, 35.496256], [134.227948, 35.4961884], [134.2281401, 35.4961114], [134.2283205, 35.4960366], [134.2284203, 35.4961354], [134.2287969, 35.4964989], [134.2292462, 35.4969543], [134.2297097, 35.4974165], [134.2301543, 35.4978749], [134.2303801, 35.4980702], [134.2304135, 35.4980949], [134.2307019, 35.4983363], [134.2307302, 35.49836], [134.23103, 35.4985985], [134.2314207, 35.4989326], [134.2320115, 35.4994318], [134.2326764, 35.4999823], [134.2333876, 35.5005755], [134.2340599, 35.501129], [134.2344949, 35.5014538], [134.2346669, 35.5015796], [134.2353423, 35.5020417], [134.2358031, 35.5023423], [134.236104, 35.5025416], [134.2372357, 35.5032981]]]}, "id": "relation/8428316"}, {"type": "Feature", "properties": {"@id": "relation/10001382", "name": "国道373号別線", "name:en": "National Route 373", "name:ja": "国道373号別線", "name:ja-Hira": "こくどうさんびゃくななごうべつせん", "name:ja-Latn": "Kokudou 373 Gou", "network": "JP:national", "ref": "373", "route": "road", "type": "route"}, "geometry": {"type": "MultiLineString", "coordinates": [[[134.2177219, 35.4779288], [134.2175704, 35.4779391], [134.2174248, 35.4779387], [134.2171162, 35.4779979], [134.216088, 35.4781738], [134.2153265, 35.4782992], [134.2132816, 35.4786857], [134.2131476, 35.4787529], [134.211491, 35.4790413], [134.2106845, 35.4791638], [134.2098754, 35.4793366], [134.2094461, 35.4794464], [134.2088783, 35.4796212], [134.2087286, 35.4796886], [134.2082996, 35.4798693], [134.2079467, 35.4800414], [134.2077222, 35.4801708], [134.2075941, 35.4802413], [134.2074568, 35.4803222], [134.2071436, 35.4805649], [134.2069613, 35.4807126], [134.2069195, 35.4807598], [134.2065582, 35.4811434], [134.2065064, 35.4812139], [134.2062451, 35.4815686], [134.2061078, 35.4817816], [134.2059894, 35.4820101], [134.205832, 35.4823402], [134.2056631, 35.4827481], [134.2055685, 35.483075], [134.2055211, 35.4832681], [134.205486, 35.4834111], [134.2051696, 35.4847303], [134.205148, 35.4848976], [134.2047336, 35.4869399], [134.2042743, 35.4888913], [134.2038789, 35.4907386], [134.2038244, 35.4909932], [134.2037909, 35.4911498], [134.2037365, 35.4913813], [134.2036411, 35.4917869], [134.2028991, 35.4952133], [134.2028666, 35.4953625], [134.2025465, 35.4966864], [134.2024937, 35.4968799], [134.2024775, 35.4969497], [134.2024194, 35.4971957], [134.2024077, 35.497241], [134.2023417, 35.4974858], [134.2022391, 35.4978669], [134.2021298, 35.4982042], [134.202072, 35.4984215], [134.202024, 35.4985789], [134.2019965, 35.4986678], [134.2019058, 35.4989891], [134.2018975, 35.4990183], [134.2017634, 35.4995062], [134.2017454, 35.4995759], [134.2016298, 35.4999999], [134.2014132, 35.5009188], [134.2013444, 35.5013593], [134.2013305, 35.5014807], [134.2013181, 35.5016006], [134.2013108, 35.5016706], [134.2012987, 35.5018408], [134.2012906, 35.5019899], [134.2012837, 35.5021614], [134.2012816, 35.5023229], [134.2012801, 35.5024876], [134.2012812, 35.5026551], [134.2012849, 35.5028278], [134.2012896, 35.5030234], [134.2012972, 35.5032172], [134.2015237, 35.5066742], [134.2016092, 35.5080222], [134.2016305, 35.5083565], [134.2016613, 35.508842], [134.2017248, 35.5098427], [134.2019581, 35.5133994], [134.2020136, 35.514205], [134.2020701, 35.5150106], [134.2021777, 35.5166677], [134.2023272, 35.5189176], [134.2023416, 35.5191101], [134.2023418, 35.5191369], [134.2023591, 35.519398], [134.2023658, 35.5194984], [134.2024877, 35.5194924], [134.2027437, 35.5194805], [134.2028813, 35.5194746], [134.2040055, 35.5194267], [134.2047967, 35.5193903], [134.2053267, 35.519373], [134.2057457, 35.519361], [134.2059761, 35.5193562], [134.2061769, 35.5193531], [134.2063312, 35.5193516], [134.2064663, 35.5193538], [134.2065996, 35.5193579], [134.2067254, 35.5193656], [134.2068343, 35.5193758], [134.2069408, 35.5193887], [134.2070712, 35.5194066], [134.2071148, 35.5194158], [134.2072298, 35.5194401], [134.2073371, 35.5194654], [134.2074452, 35.5194913], [134.2075431, 35.5195181], [134.2078234, 35.5195961], [134.2078354, 35.5195992], [134.2079696, 35.5196341], [134.2080714, 35.5196593], [134.2090462, 35.5199388], [134.2112501, 35.520575], [134.2113833, 35.5206112], [134.211492, 35.520644], [134.2116251, 35.520684], [134.2121781, 35.520842], [134.2129454, 35.5211183], [134.2134706, 35.5212982], [134.2136032, 35.5213397], [134.2141471, 35.5215126], [134.2147585, 35.5217036], [134.2159876, 35.5220867], [134.216057, 35.5221096], [134.2161912, 35.5221531], [134.2163394, 35.52183]], [[134.2177791, 35.4780953], [134.2176419, 35.4781239], [134.2173661, 35.4781837], [134.2163895, 35.4783475], [134.2154953, 35.4785067], [134.2139883, 35.4786842], [134.2115077, 35.479121], [134.2106963, 35.4792595], [134.2098343, 35.4794293], [134.2094886, 35.4795087], [134.2088972, 35.4797074], [134.2085938, 35.4798414], [134.2081579, 35.4800491], [134.2077942, 35.480244], [134.207614, 35.4803535], [134.2073608, 35.4805436], [134.2072491, 35.4806252], [134.2070825, 35.4807684], [134.2070316, 35.4808126], [134.2066625, 35.4811781], [134.2066055, 35.4812498], [134.206432, 35.4814683], [134.2062995, 35.4816561], [134.2061734, 35.4818748], [134.2060693, 35.4820548], [134.205918, 35.482395], [134.2057856, 35.4827487], [134.2057338, 35.4829074], [134.2056779, 35.4831031], [134.2052547, 35.4848963], [134.2048232, 35.4869392], [134.2043824, 35.4888873], [134.2039377, 35.4910083], [134.2038912, 35.4912299], [134.2038516, 35.491394], [134.2038084, 35.4915728], [134.2037545, 35.4917957], [134.2035019, 35.4929543], [134.2029892, 35.4952978], [134.202945, 35.4954931], [134.2028234, 35.4960298], [134.2027996, 35.4961261], [134.2026258, 35.4968279], [134.2026093, 35.4968928], [134.2025498, 35.4971262], [134.2024903, 35.4973596], [134.2023964, 35.4977106], [134.2022381, 35.49825], [134.202146, 35.498564], [134.2021247, 35.4986539], [134.2020259, 35.4989816], [134.2020104, 35.4990383], [134.2018666, 35.4995304], [134.2018514, 35.4995908], [134.2015976, 35.5005994], [134.2015307, 35.5009142], [134.2014957, 35.5011118], [134.2014644, 35.5012913], [134.2014426, 35.5014501], [134.2014237, 35.5016115], [134.2014106, 35.5017705], [134.2013975, 35.5019406], [134.2013889, 35.502164], [134.2013848, 35.5022826], [134.2013833, 35.5023934], [134.2013828, 35.5024971], [134.2013836, 35.502604], [134.2013862, 35.5027312], [134.2013878, 35.5028376], [134.2013919, 35.5029591], [134.2013974, 35.5030889], [134.2014039, 35.5032291], [134.2016239, 35.506671], [134.2017369, 35.508243], [134.2018381, 35.5096507], [134.2018443, 35.5098375], [134.201859, 35.5100326], [134.2019498, 35.5113833], [134.2020675, 35.5131561], [134.2020823, 35.5133857], [134.2021668, 35.5146419], [134.2022995, 35.5166626], [134.2024491, 35.5189112], [134.2024625, 35.519113], [134.2024638, 35.519132], [134.2024811, 35.5193926], [134.2027381, 35.519383], [134.2028821, 35.5193778], [134.2053358, 35.5192881], [134.205613, 35.5192795], [134.2058203, 35.5192752], [134.2060248, 35.5192719], [134.2062403, 35.5192683], [134.2064355, 35.5192687], [134.2065899, 35.5192725], [134.2067198, 35.5192783], [134.2068351, 35.5192872], [134.2069321, 35.5192982], [134.2070334, 35.5193116], [134.2071396, 35.519329], [134.2072369, 35.5193474], [134.207333, 35.5193664], [134.2074301, 35.5193874], [134.2075392, 35.5194142], [134.2075871, 35.5194268], [134.2076728, 35.5194494], [134.2078722, 35.5195052], [134.208004, 35.5195407], [134.2081111, 35.5195713], [134.2107736, 35.520341], [134.2112892, 35.5204899], [134.211532, 35.5205555], [134.2116631, 35.5205924], [134.2121333, 35.5207255], [134.2131646, 35.5209786], [134.2134216, 35.5210416], [134.2138836, 35.5211535], [134.2142082, 35.5212462], [134.2147539, 35.5213908], [134.2151687, 35.5214849], [134.2153302, 35.5215292], [134.2155937, 35.5215956], [134.2159908, 35.5217087], [134.2160459, 35.5217348], [134.2160925, 35.5217548], [134.2161328, 35.5217699], [134.2161646, 35.5217793], [134.2163394, 35.52183], [134.2164155, 35.521777], [134.2166013, 35.5213832], [134.216684, 35.5211952], [134.2167566, 35.5210181], [134.2168591, 35.5207844], [134.2170155, 35.520412], [134.2171265, 35.5201917], [134.2171688, 35.5201138], [134.217275, 35.519917], [134.2173572, 35.5197964], [134.2173781, 35.5197626], [134.217536, 35.5195305], [134.2177049, 35.519334], [134.2178947, 35.5191519], [134.2180856, 35.5189984], [134.2182863, 35.5188502], [134.2183968, 35.5187796], [134.2184848, 35.5187234], [134.2188512, 35.5185189], [134.2192666, 35.5182903], [134.2193775, 35.5182322], [134.2194517, 35.5181868], [134.219591, 35.5181036], [134.220111, 35.5178333], [134.2202684, 35.5177485], [134.2208055, 35.5174492], [134.2211822, 35.5172583], [134.2213759, 35.5171481], [134.2214988, 35.5170883], [134.2216832, 35.5169839], [134.2218034, 35.5168902]], [[134.2163394, 35.52183], [134.2163375, 35.5217556], [134.2164369, 35.5215235], [134.2165122, 35.5213453], [134.2166464, 35.5210615], [134.2167771, 35.5207075], [134.2168724, 35.5204792], [134.2169768, 35.5202634], [134.2170548, 35.5200782], [134.2173111, 35.5196916], [134.2173475, 35.5196417], [134.2175049, 35.5194412], [134.2175245, 35.5194177], [134.2176166, 35.5193073], [134.2178518, 35.5190812], [134.2181542, 35.5188493], [134.2183426, 35.518728], [134.2184879, 35.5186376], [134.2185493, 35.5185993], [134.2189535, 35.5183555], [134.2192143, 35.518227], [134.2193341, 35.5181633], [134.2194126, 35.5181246], [134.220088, 35.5177594], [134.2205776, 35.5174944], [134.221191, 35.5171573], [134.221515, 35.5169858], [134.2218034, 35.5168902], [134.2221577, 35.5166173], [134.222314, 35.5164982], [134.2226474, 35.5162441], [134.2235637, 35.5155192], [134.2240785, 35.5150845], [134.2241959, 35.5149854], [134.2243502, 35.5148583], [134.2246008, 35.5146519], [134.225027, 35.5143007], [134.2253307, 35.5140507], [134.2257493, 35.5137058], [134.2259429, 35.5135537], [134.2262658, 35.5132881], [134.226471, 35.5131303], [134.2269622, 35.5127407], [134.227393, 35.5123685], [134.2278177, 35.5120296], [134.2282997, 35.5116198], [134.228812, 35.511205], [134.228908, 35.511138], [134.2294718, 35.5107139], [134.2295907, 35.510634], [134.2297677, 35.5104526], [134.229878, 35.510354], [134.230462, 35.5098306], [134.2307664, 35.509557], [134.2309582, 35.5093846], [134.2311928, 35.5091738], [134.2317627, 35.5086479], [134.2320084, 35.508435], [134.2322295, 35.5082272], [134.232859, 35.5076573], [134.2329991, 35.5075111], [134.2333138, 35.5072045], [134.2339051, 35.5066283], [134.2341791, 35.5063477], [134.2345754, 35.505967], [134.2346495, 35.5058902], [134.2348569, 35.5056854], [134.2350276, 35.5055221], [134.2354525, 35.5051006], [134.2358972, 35.5046407], [134.2359399, 35.5045973], [134.2361737, 35.5043601], [134.236287, 35.504247], [134.236652, 35.503887], [134.2368037, 35.5037285], [134.2372357, 35.5032981]]]}, "id": "relation/10001382"}]}