{"type": "FeatureCollection", "generator": "kokudo-quiz tools/fetch_raw.py (Overpass API)", "copyright": "The data included in this document is from www.openstreetmap.org. The data is made available under ODbL.", "timestamp": "2026-09-30T23:38:34Z", "features": [{"type": "Feature", "properties": {"@id": "relation/9760336", "colour": "red", "from": "愛媛県松山市", "name": "国道379号", "name:en": "National Highway Route 379", "name:ja": "国道379号", "name:ja-Hira": "こくどうさんびゃくななじゅうきゅうごう", "name:ja-Latn": "Kokudou 379 Gou", "network": "JP:national", "ref": "379", "route": "road", "to": "愛媛県喜多郡内子町", "type": "route", "wikidata": "Q6157388", "wikipedia": "ja:国道379号"}, "geometry": {"type": "MultiLineString", "coordinates": [[[132.7646248, 33.8394548], [132.7646895, 33.8395048], [132.7647424, 33.8395649], [132.7647799, 33.8396575], [132.7648053, 33.8397671], [132.764809, 33.8398824], [132.7648104, 33.8399263], [132.76482, 33.8402227], [132.7648574, 33.8408409], [132.7648668, 33.8409002], [132.7648789, 33.840943], [132.7648976, 33.8409911], [132.7649091, 33.8410062], [132.7649331, 33.8410376], [132.7649503, 33.841052], [132.7649706, 33.8410692], [132.7649958, 33.8410864], [132.7650305, 33.8411077], [132.7650879, 33.8411323], [132.7651493, 33.8411492], [132.7652131, 33.8411578], [132.7652781, 33.8411562], [132.7659369, 33.8411401], [132.7664053, 33.8411287], [132.7669715, 33.8411149], [132.7679163, 33.8411425], [132.7680408, 33.8411461], [132.7681491, 33.8411504], [132.7688008, 33.8411761], [132.7690731, 33.8411876], [132.7691727, 33.8411916], [132.7695559, 33.8412208], [132.7700922, 33.8412633], [132.7701333, 33.8412665], [132.7701837, 33.8412705], [132.7702275, 33.8412735], [132.7702926, 33.841278], [132.7707039, 33.8413063], [132.7709302, 33.8413258], [132.7722892, 33.8414245], [132.7730724, 33.8415289], [132.7734242, 33.8415764], [132.774185, 33.8416822], [132.7743286, 33.841702], [132.7749825, 33.8417961], [132.775006, 33.8418], [132.7751003, 33.8418142], [132.775204, 33.8418194], [132.7753289, 33.8418038], [132.7754357, 33.8417829], [132.7754352, 33.8417479], [132.7754326, 33.8415589], [132.7754323, 33.8415369], [132.7754245, 33.8410424], [132.7754126, 33.8404572], [132.7754051, 33.8399412], [132.7753952, 33.8394746], [132.7753782, 33.8390646], [132.7753608, 33.838546], [132.7753552, 33.8381661], [132.7753542, 33.8381021], [132.7753541, 33.8380253], [132.7753536, 33.8377298], [132.7753529, 33.8376065], [132.7753432, 33.837355], [132.7753274, 33.8369413], [132.7753247, 33.8368232], [132.7753328, 33.836649], [132.7753461, 33.8365878], [132.7753618, 33.8365278], [132.7754321, 33.8363839], [132.7757423, 33.836049], [132.7760212, 33.8357779], [132.7760892, 33.8357082], [132.7761241, 33.835672], [132.7769447, 33.8348083], [132.7769885, 33.834762], [132.7770826, 33.8346592], [132.7773511, 33.8343702], [132.7775816, 33.8341206], [132.7779861, 33.8336259], [132.7782215, 33.8333141], [132.7784996, 33.8329318], [132.7786678, 33.8327092], [132.7787123, 33.8326524], [132.7790023, 33.8322849], [132.7791539, 33.8320764], [132.7794289, 33.8316984], [132.7802526, 33.8306387], [132.7805523, 33.8302149], [132.7807412, 33.8299568], [132.7809134, 33.8297272], [132.780942, 33.8296909], [132.7814734, 33.8289845], [132.7816497, 33.8287559], [132.7817887, 33.8286329], [132.7819778, 33.8284119], [132.7822574, 33.8280799], [132.7825025, 33.8277342], [132.7827259, 33.8274188], [132.7829608, 33.8270986], [132.7832644, 33.826674], [132.7833217, 33.8265966], [132.7831552, 33.8264669], [132.782969, 33.8263361], [132.7824672, 33.8260084], [132.7813422, 33.8252498], [132.7804886, 33.8246861], [132.7794047, 33.8240109], [132.7790538, 33.8237794], [132.7786207, 33.8234956], [132.7784759, 33.8233969], [132.7780371, 33.8231094], [132.777808, 33.8229732], [132.7776978, 33.8229078], [132.7772333, 33.8227079], [132.7766578, 33.8225182], [132.7758255, 33.822305], [132.7760314, 33.8217122], [132.7764062, 33.8206143], [132.776477, 33.8204195], [132.7767786, 33.8196141], [132.7769232, 33.8192281], [132.7769679, 33.8190546], [132.7770259, 33.8188565], [132.7770893, 33.818582], [132.7771197, 33.8183804], [132.7771289, 33.8182334], [132.777142, 33.8180233], [132.777143, 33.8179606], [132.7771436, 33.8179178], [132.7771413, 33.817634], [132.7771412, 33.8175857], [132.7771571, 33.8166503], [132.7771594, 33.816517], [132.7771777, 33.8161629], [132.7772229, 33.8159029], [132.7772959, 33.8156316], [132.7773853, 33.8153817], [132.7775577, 33.8149624], [132.7776962, 33.814661], [132.7779081, 33.814223], [132.7781408, 33.8136944], [132.7783327, 33.8132914], [132.7785394, 33.8128575], [132.7787887, 33.8123182], [132.7790277, 33.8118013], [132.7791494, 33.8115471], [132.7792817, 33.8112483], [132.7795198, 33.8107106], [132.7795815, 33.8105786], [132.7799839, 33.8097174], [132.7802018, 33.8092647], [132.7803698, 33.8088812], [132.7804832, 33.8086273], [132.7807989, 33.8079625], [132.7813206, 33.806817], [132.781448, 33.8065333], [132.7818339, 33.8057111], [132.7821431, 33.80503], [132.7822784, 33.8047374], [132.782716, 33.8037589], [132.7830942, 33.8029368], [132.783107, 33.8029082], [132.7831493, 33.802826], [132.7832105, 33.8027136], [132.783247, 33.802636], [132.7832827, 33.8025539], [132.7834316, 33.8022113], [132.7835096, 33.8020411], [132.7835886, 33.8018648], [132.7837164, 33.8015998], [132.7838032, 33.8014437], [132.7838174, 33.801366], [132.7838798, 33.8012286], [132.784125, 33.8006977], [132.7842384, 33.8004516], [132.7845132, 33.7998551], [132.7845269, 33.7998254], [132.7854664, 33.7977871], [132.7856254, 33.7974491], [132.7859189, 33.7968086], [132.7860195, 33.7965785], [132.7860759, 33.7964495], [132.7862051, 33.7961848], [132.7863809, 33.7958041], [132.7864183, 33.795723], [132.7866036, 33.7953125], [132.7868066, 33.7949116], [132.7869632, 33.7946168], [132.7870373, 33.7944581], [132.7871054, 33.7943122], [132.7871797, 33.7941286], [132.7871896, 33.7941043], [132.7872646, 33.7938896], [132.7873129, 33.793646], [132.7873315, 33.7934357], [132.7873302, 33.7930961], [132.7873204, 33.7928711], [132.7873131, 33.7927573], [132.7872738, 33.7921193], [132.7872348, 33.7914861], [132.7872236, 33.7913802], [132.7871796, 33.7909823], [132.7871519, 33.7908327], [132.7870919, 33.7898811], [132.7870639, 33.7894579], [132.7870047, 33.7883961], [132.7868385, 33.7859059], [132.7868353, 33.7856992], [132.7868104, 33.7853876], [132.7868097, 33.7850441], [132.7868278, 33.7847006], [132.7868639, 33.7844347], [132.78691, 33.7841898], [132.7870007, 33.7838402], [132.7872855, 33.7829141], [132.7873596, 33.782586], [132.7874162, 33.7821972], [132.7874384, 33.7817976], [132.7874327, 33.7813572], [132.7873967, 33.7807396], [132.7873232, 33.7794035], [132.7873069, 33.7791579], [132.7873074, 33.7789096], [132.7873091, 33.778769], [132.7873072, 33.7774628], [132.7873117, 33.7772661], [132.7873345, 33.7768686], [132.7873691, 33.7762641], [132.7873998, 33.7757865], [132.787425, 33.7752971], [132.7874733, 33.7744452], [132.7875105, 33.7737144], [132.7875592, 33.7729335], [132.7876603, 33.7722013], [132.787722, 33.7718814], [132.7878322, 33.7714525], [132.7879546, 33.7709669], [132.7881079, 33.7702327], [132.7881455, 33.7700154], [132.7882143, 33.769466], [132.788262, 33.7685965], [132.788277, 33.7681079], [132.7883119, 33.7674761], [132.7883169, 33.7672369], [132.7883482, 33.7666656], [132.7883856, 33.7663691], [132.7884017, 33.7662857], [132.7884575, 33.7660089], [132.7885361, 33.765649], [132.7885851, 33.7654493], [132.7888966, 33.7638706], [132.7889715, 33.7635241], [132.7890245, 33.7631551], [132.7890497, 33.7629799], [132.7890888, 33.762349], [132.7890874, 33.7616045], [132.7890792, 33.761148], [132.7890749, 33.7609036], [132.7891181, 33.7603509], [132.789173, 33.7598989], [132.7891995, 33.7597796], [132.7896025, 33.7583937], [132.7897174, 33.757821], [132.7897727, 33.7575404], [132.7898097, 33.7572669], [132.789828, 33.7571315], [132.789876, 33.7567145], [132.7899648, 33.7559429], [132.7900853, 33.7547677], [132.7901392, 33.7543306], [132.7901544, 33.7541346], [132.7901658, 33.7539886], [132.7901836, 33.7538468], [132.7902514, 33.7533056], [132.7903437, 33.7525683], [132.7903912, 33.752279], [132.7905414, 33.7517053], [132.79094, 33.7503172], [132.7911233, 33.7496848], [132.7913815, 33.7487939], [132.7918366, 33.7471837], [132.7920118, 33.7465637], [132.7922041, 33.7459081], [132.7924801, 33.7449675], [132.7926401, 33.7444569], [132.7930045, 33.743759], [132.7932991, 33.7433815], [132.7935774, 33.7430307], [132.7938071, 33.7428158], [132.7941363, 33.7425476], [132.7946245, 33.7422445], [132.7946011, 33.7421951], [132.7945723, 33.7421342], [132.794187, 33.7423735], [132.7938867, 33.7426008], [132.7934736, 33.7429572], [132.7931687, 33.7433117], [132.7929125, 33.7436571], [132.7926849, 33.7440839], [132.7925153, 33.7444289], [132.7923412, 33.7449679], [132.7920855, 33.7459168], [132.7919158, 33.7465468], [132.7912518, 33.7488438], [132.7909816, 33.7497827], [132.7908325, 33.7503009], [132.7904446, 33.7516872], [132.7902983, 33.7522642], [132.7902469, 33.7525699], [132.79015, 33.753359], [132.7900709, 33.753982], [132.7900431, 33.7543265], [132.7899778, 33.7547596], [132.7899492, 33.7550382], [132.7899182, 33.7553405], [132.789828, 33.7559375], [132.7897659, 33.7567099], [132.7897434, 33.7569883], [132.7897206, 33.7572723], [132.7896685, 33.7575648], [132.7895056, 33.7583933], [132.7891116, 33.7597336], [132.7890745, 33.7599188], [132.7890204, 33.7603319], [132.7889837, 33.7609009], [132.7889876, 33.7610956], [132.7889927, 33.7615175], [132.7889878, 33.7623896], [132.7889552, 33.7630015], [132.7889316, 33.7631554], [132.7888738, 33.7635322], [132.7887859, 33.7639383], [132.7884653, 33.7654138], [132.7884179, 33.7656275], [132.7883501, 33.7659823], [132.7883026, 33.7662737], [132.7882562, 33.7666587], [132.7882197, 33.7672299], [132.7882104, 33.7674666], [132.7881817, 33.7680997], [132.7881632, 33.768592], [132.7881238, 33.7694211], [132.7880828, 33.7697922], [132.7880484, 33.7700137], [132.7880108, 33.7702122], [132.7878583, 33.7709614], [132.7877328, 33.7714425], [132.7876344, 33.7718578], [132.7875667, 33.7721678], [132.7874585, 33.7729216], [132.7874363, 33.7733329], [132.7874204, 33.7735485], [132.7874139, 33.7736866], [132.7873727, 33.7744255], [132.7873239, 33.7752777], [132.7872963, 33.7757727], [132.7872159, 33.7772314], [132.7872064, 33.7774595], [132.7872129, 33.778767], [132.7872136, 33.7788032], [132.7872178, 33.7790091], [132.7872265, 33.7792221]], [[132.7647482, 33.8393842], [132.7648195, 33.8394583], [132.7648729, 33.8395326], [132.7649187, 33.839619], [132.7649411, 33.8397011], [132.7649449, 33.8398171], [132.7649465, 33.8398451], [132.7649484, 33.8398802], [132.7649672, 33.8402171], [132.765003, 33.8408241], [132.7650143, 33.8408634], [132.7650335, 33.8409006], [132.7650599, 33.8409346], [132.7650928, 33.8409644], [132.765103, 33.840971], [132.7651313, 33.8409891], [132.7651743, 33.8410081], [132.7652206, 33.8410208], [132.7652687, 33.8410268], [132.7652753, 33.8410269], [132.7653969, 33.8410288], [132.7659334, 33.8410207], [132.7663985, 33.8410047], [132.7669729, 33.8409849], [132.76792, 33.8410193], [132.7680416, 33.8410235], [132.7681523, 33.8410279], [132.7687955, 33.8410533], [132.7690751, 33.8410651], [132.7692481, 33.8410773], [132.7695528, 33.8410988], [132.7700861, 33.8411339], [132.7701239, 33.8411364], [132.7701713, 33.8411395], [132.770217, 33.8411422], [132.7702866, 33.8411462], [132.7704202, 33.841154], [132.7706808, 33.8411734], [132.7709088, 33.8411957], [132.7722771, 33.8412999], [132.7730051, 33.8413942], [132.7734454, 33.8414537], [132.7741847, 33.8415514], [132.7743307, 33.8415753], [132.7750425, 33.841681], [132.7751671, 33.8416875], [132.7753191, 33.8417241], [132.7753234, 33.8415594], [132.7753131, 33.8410435], [132.7752879, 33.8404411], [132.7752771, 33.8399226], [132.7752669, 33.8394792], [132.7752636, 33.8390723], [132.775251, 33.8385483], [132.7752483, 33.8381675], [132.7752478, 33.8381042], [132.7752445, 33.8380259], [132.7752323, 33.8377318], [132.775235, 33.837608], [132.7752305, 33.8373525], [132.7752262, 33.8371087], [132.7752233, 33.8369403], [132.7752215, 33.836697], [132.7752314, 33.8366028], [132.7752449, 33.8365403], [132.7752742, 33.8364767], [132.775365, 33.8363181], [132.7756393, 33.8359938], [132.775912, 33.8357163], [132.7759774, 33.8356424], [132.7760105, 33.8356067], [132.7768209, 33.8347493], [132.7768797, 33.8346956], [132.7769856, 33.8345859], [132.7772454, 33.8343035], [132.7774872, 33.8340441], [132.777799, 33.8336597], [132.7783864, 33.8328816], [132.7792823, 33.8317017], [132.7795772, 33.8312962], [132.7800704, 33.8306414], [132.7804695, 33.8301123], [132.7808047, 33.8296741], [132.7808961, 33.8295408], [132.7814503, 33.828827], [132.7815384, 33.8287137], [132.781623, 33.8285274], [132.7818132, 33.8282491], [132.7821691, 33.8277213], [132.7825022, 33.827299], [132.7826742, 33.8270966], [132.782763, 33.8269757], [132.7830802, 33.8265595], [132.7827354, 33.8263212], [132.7825534, 33.8261992], [132.7823955, 33.8260887], [132.7812537, 33.8253402], [132.779331, 33.8240922], [132.7789826, 33.8238468], [132.7786344, 33.8236242], [132.7785666, 33.823578], [132.7782461, 33.8233791], [132.7779054, 33.8231867], [132.7775881, 33.8230393], [132.777277, 33.8229112], [132.7771369, 33.8228573], [132.7771103, 33.8228493], [132.7761296, 33.8225561], [132.7757726, 33.8224493], [132.7756406, 33.8224124], [132.7756963, 33.8222704], [132.7759119, 33.8217105], [132.7763021, 33.8205991], [132.7763906, 33.8203967], [132.776684, 33.8196019], [132.7768295, 33.8192077], [132.7768715, 33.8190383], [132.7769903, 33.8185593], [132.7770041, 33.8184363], [132.7770205, 33.8183135], [132.7770407, 33.8180186], [132.7770442, 33.8179401], [132.7770431, 33.8176665], [132.7770423, 33.8176213], [132.7770359, 33.8166421], [132.7770351, 33.8165129], [132.7770738, 33.8161321], [132.7772208, 33.8156122], [132.7773071, 33.8153073], [132.7775116, 33.8148434], [132.7775942, 33.8146548], [132.7780395, 33.8137131], [132.7781482, 33.813494], [132.7781966, 33.8133843], [132.7782365, 33.8132707], [132.7784485, 33.8128222], [132.7787255, 33.8122152], [132.7789117, 33.8118011], [132.7790464, 33.811518], [132.7791632, 33.811267], [132.7794362, 33.8106802], [132.7796124, 33.8102832], [132.7798731, 33.8096959], [132.7799754, 33.8094799], [132.7800904, 33.8092687], [132.780341, 33.8087407], [132.7804029, 33.8085855], [132.7804918, 33.8083922], [132.7806882, 33.8079647], [132.781229, 33.8067934], [132.7813588, 33.8065189], [132.7817218, 33.805707], [132.7819387, 33.8052519], [132.7821689, 33.8047344], [132.7824208, 33.8041817], [132.7825071, 33.8039924], [132.7826141, 33.8037575], [132.7830124, 33.8028778], [132.7830861, 33.8027286], [132.7831064, 33.8026873], [132.7831388, 33.8026197], [132.7831821, 33.802524], [132.7831981, 33.8024903], [132.7833267, 33.8022156], [132.7834225, 33.8020124], [132.783478, 33.8018734], [132.7836202, 33.8015763], [132.7836912, 33.8014278], [132.7837147, 33.8013787], [132.7837996, 33.8012007], [132.7840332, 33.8006692], [132.7844202, 33.7998214], [132.7853774, 33.7977698], [132.7855395, 33.7974193], [132.7857964, 33.7968054], [132.7859063, 33.7965643], [132.7859653, 33.7964347], [132.7861092, 33.7961579], [132.7863196, 33.795694], [132.7867112, 33.794888], [132.7869235, 33.7944203], [132.7869898, 33.7942742], [132.7870698, 33.7940972], [132.7870768, 33.7940817], [132.7871429, 33.7938682], [132.7871891, 33.7936384], [132.7872153, 33.7934262], [132.7872144, 33.7930902], [132.7871914, 33.792873], [132.7871525, 33.7921286], [132.7871362, 33.7918653], [132.7871164, 33.7915467], [132.7871023, 33.7913954], [132.7870683, 33.7909917], [132.7869945, 33.7898907], [132.7869653, 33.7894521], [132.7869022, 33.7884422], [132.7867448, 33.7859436], [132.7867446, 33.7857431], [132.7867277, 33.7855995], [132.7867093, 33.7853909], [132.7867017, 33.7850031], [132.7867092, 33.7846963], [132.7867541, 33.7844352], [132.7868102, 33.7841688], [132.7869128, 33.7838001], [132.7871894, 33.7829197], [132.7872673, 33.7825837], [132.7873203, 33.7821976], [132.7873415, 33.78181], [132.7873401, 33.7813481], [132.7873028, 33.7807366], [132.7872265, 33.7792221]], [[132.7945723, 33.7421342], [132.7945235, 33.7419939], [132.7944255, 33.7415896], [132.7943413, 33.741064], [132.794283, 33.740474], [132.7942666, 33.7397855], [132.7942916, 33.7391694], [132.7943494, 33.7384666], [132.7943635, 33.7382957], [132.7943938, 33.7379267], [132.7944154, 33.7377624], [132.7944393, 33.7374888], [132.7944991, 33.7365353], [132.7945413, 33.7358841], [132.7945618, 33.7357501], [132.7945852, 33.7353561], [132.7945965, 33.7351873], [132.7946354, 33.7349121], [132.7946797, 33.7347024], [132.7947738, 33.73437], [132.7948289, 33.7342162], [132.7949184, 33.733992], [132.7950329, 33.733756], [132.7951087, 33.7336312], [132.7952483, 33.7333953], [132.7954268, 33.733154], [132.7957995, 33.7326844], [132.7963926, 33.7319724], [132.7964835, 33.7318205], [132.7965532, 33.7316866], [132.7966128, 33.7315222], [132.7966525, 33.7313844], [132.7966755, 33.7312715], [132.7966868, 33.7311329], [132.7966911, 33.7309809], [132.7966536, 33.7306881], [132.7965652, 33.7304364], [132.7964724, 33.7302727], [132.796432, 33.7302014], [132.7962986, 33.7300456], [132.7961884, 33.7299434], [132.795829, 33.729621], [132.7957633, 33.7295564], [132.7956551, 33.7294113], [132.7955711, 33.7292423], [132.7955424, 33.7290696], [132.795538, 33.728906], [132.7955911, 33.7285728], [132.7956143, 33.7284421], [132.7960109, 33.7262037], [132.7960507, 33.7259708], [132.7960744, 33.7258198], [132.7960778, 33.7256754], [132.7960727, 33.7255435], [132.7960449, 33.7254227], [132.7960074, 33.725296], [132.7959315, 33.7251348], [132.7958652, 33.7250379], [132.7957869, 33.7249333], [132.7956828, 33.7248293], [132.7955604, 33.7247356], [132.7952943, 33.7245722], [132.7949459, 33.724422], [132.7947336, 33.7243035], [132.7946354, 33.7242271], [132.7945499, 33.7241296], [132.794496, 33.7240586], [132.7944454, 33.7239718], [132.7943987, 33.7238527], [132.7943781, 33.7237419], [132.7943672, 33.7236325], [132.7943655, 33.7235071], [132.794365, 33.7232424], [132.7943726, 33.7231462], [132.7943915, 33.7230336], [132.7944359, 33.7228808], [132.7944929, 33.7227464], [132.7945607, 33.7226206], [132.7946328, 33.7225282], [132.7946988, 33.7224487], [132.7948223, 33.7223265], [132.7950916, 33.722122], [132.7953891, 33.7219114], [132.7956871, 33.7216969], [132.7960862, 33.7214027], [132.7963445, 33.7212217], [132.7966089, 33.7210286], [132.796951, 33.7207599], [132.7972732, 33.7204896], [132.7976075, 33.7201682], [132.7980463, 33.7197496], [132.7983867, 33.7194201], [132.7989027, 33.7189255], [132.7990431, 33.7188071], [132.7992104, 33.7187112], [132.7993758, 33.7186232], [132.7994065, 33.718612], [132.7995777, 33.7185496], [132.7997758, 33.7184984], [132.8001006, 33.7184424], [132.800276, 33.7184161], [132.8003966, 33.718398], [132.8006532, 33.7183894], [132.8008809, 33.7184072], [132.8010888, 33.7184549], [132.8012573, 33.7185109], [132.8016749, 33.7186951], [132.8021104, 33.7188913], [132.8023526, 33.7189876], [132.8025922, 33.7190476], [132.8028573, 33.7190844], [132.8031119, 33.7190963], [132.8033296, 33.7190851], [132.8035311, 33.719046], [132.8036999, 33.7189638], [132.8038086, 33.7188739], [132.8038746, 33.7188047], [132.8039277, 33.7187335], [132.8039616, 33.7186785], [132.8039917, 33.718617], [132.804018, 33.7185223], [132.8040311, 33.7184532], [132.804029, 33.7183692], [132.8040232, 33.7183086], [132.8040053, 33.7182398], [132.8039534, 33.7181265], [132.8039178, 33.7180718], [132.8038837, 33.7180195], [132.8037459, 33.7178202], [132.8036242, 33.7176544], [132.8035447, 33.7174986], [132.8034869, 33.7173485], [132.80344, 33.7171856], [132.8033553, 33.7168228], [132.8033311, 33.7167192], [132.8033007, 33.7165626], [132.803298, 33.7164288], [132.8032974, 33.716397], [132.8033137, 33.7162554], [132.8033461, 33.7161263], [132.8034014, 33.7160078], [132.8034887, 33.7158698], [132.8035894, 33.7157493], [132.8037032, 33.7156395], [132.8039482, 33.7153961], [132.8042807, 33.71507], [132.8043844, 33.7149452], [132.8044631, 33.7148238], [132.8045219, 33.7147001], [132.8045532, 33.7145485], [132.8045532, 33.7143997], [132.8045322, 33.7142736], [132.8044924, 33.7141554], [132.8044233, 33.7140331], [132.8043487, 33.7139366], [132.804258, 33.7138436], [132.804131, 33.7137434], [132.8040135, 33.7136527], [132.8038638, 33.7135441], [132.8037634, 33.713461], [132.8036182, 33.7133409], [132.8034372, 33.713172], [132.8033188, 33.713054], [132.803243, 33.7129524], [132.8031903, 33.7128757], [132.8031387, 33.7127795], [132.8030884, 33.7126202], [132.8030333, 33.7123953], [132.8029694, 33.7120865], [132.8028991, 33.7117713], [132.8027873, 33.7112475], [132.8026702, 33.7107246], [132.8025883, 33.7102017], [132.8025903, 33.7097993], [132.8026275, 33.7093968], [132.80263, 33.7093602], [132.8026796, 33.7090546], [132.802699, 33.7087426], [132.8026679, 33.7081992], [132.8026543, 33.7079697], [132.8026337, 33.7076729], [132.8025864, 33.707418], [132.802527, 33.707222], [132.8024459, 33.7070474], [132.8023302, 33.70684], [132.8021833, 33.7066571], [132.8020197, 33.7064905], [132.8017044, 33.7061742], [132.8014979, 33.7059466], [132.801343, 33.7057135], [132.801176, 33.7053553], [132.8009724, 33.7049956], [132.8008741, 33.704897], [132.8007234, 33.7047689], [132.8005234, 33.7046383], [132.8003411, 33.7045516], [132.8001515, 33.7044852], [132.7999329, 33.7044319], [132.7996816, 33.704404], [132.7992341, 33.7043557], [132.7988674, 33.7043219], [132.7981494, 33.7042669], [132.7977784, 33.7042641], [132.7975689, 33.7042849], [132.7973914, 33.7043244], [132.7972023, 33.7043888], [132.7969995, 33.7045041], [132.7968745, 33.704608], [132.7967638, 33.7047228], [132.7966727, 33.7048426], [132.7965642, 33.705028], [132.7962652, 33.7054879], [132.7961308, 33.7056209], [132.7959853, 33.7057353], [132.7958277, 33.7058172], [132.7956366, 33.70587], [132.7954361, 33.7059065], [132.7952012, 33.7059327], [132.7947927, 33.7059894], [132.7943758, 33.706049], [132.7941741, 33.7060883], [132.7939809, 33.7061382], [132.7938241, 33.7061999], [132.7935724, 33.7063148], [132.7934306, 33.7063968], [132.7933134, 33.7064661], [132.7927684, 33.7067953], [132.7925564, 33.7069111], [132.7924509, 33.7069584], [132.7923125, 33.7069946], [132.7921306, 33.7070177], [132.7919704, 33.7070127], [132.7918241, 33.706993], [132.7916146, 33.7069489], [132.7914388, 33.7068757], [132.7912857, 33.7067646], [132.7911547, 33.7066448], [132.7910968, 33.706575], [132.7910349, 33.7064829], [132.7909926, 33.7063853], [132.79096, 33.7062878], [132.7909373, 33.706171], [132.7909472, 33.7059492], [132.7910252, 33.7055346], [132.7917567, 33.7017523], [132.7918978, 33.701432], [132.792093, 33.7011208], [132.7923179, 33.7008826], [132.7925808, 33.7006879], [132.7928664, 33.7005103], [132.7931885, 33.7003542], [132.7935584, 33.7002232], [132.7938474, 33.7001624], [132.7942176, 33.700159], [132.7943774, 33.7001642], [132.7947284, 33.7001782], [132.7950157, 33.7002243], [132.7952728, 33.7002767], [132.7954955, 33.7003545], [132.7956496, 33.7004518], [132.795817, 33.7006011], [132.7961522, 33.7009282], [132.7966343, 33.7014353], [132.7968253, 33.7016335], [132.7969953, 33.7018022], [132.7970869, 33.7018945], [132.7972385, 33.7020618], [132.7973494, 33.7021355], [132.7974477, 33.7021778], [132.7975521, 33.7022113], [132.7976677, 33.7022381], [132.7977805, 33.7022393], [132.7979666, 33.7022302], [132.7981012, 33.702203], [132.7982759, 33.7021364], [132.7984306, 33.7020529], [132.7985206, 33.7019748], [132.7986082, 33.7018696], [132.7986892, 33.7017423], [132.7987674, 33.7015876], [132.7988954, 33.7013655], [132.7990655, 33.7011025], [132.7992018, 33.7009628], [132.7993138, 33.7008746], [132.7994506, 33.7007943], [132.7996347, 33.7007069], [132.7999608, 33.7006004], [132.8000677, 33.700554], [132.8001394, 33.7004944], [132.8001909, 33.7004216], [132.8002369, 33.7003066], [132.80026, 33.7001565], [132.8002681, 33.699959], [132.8002532, 33.6997867], [132.8002161, 33.6996073], [132.8001861, 33.6994509], [132.8001374, 33.6992819], [132.8000853, 33.6991877], [132.8000341, 33.6991061], [132.7999401, 33.6990154], [132.7998092, 33.6989222], [132.799678, 33.6988199], [132.7996045, 33.6987514], [132.7995567, 33.6986748], [132.7995177, 33.6985865], [132.799493, 33.6984938], [132.7994727, 33.6983677], [132.7994701, 33.6982499], [132.799478, 33.6981796], [132.7995028, 33.6980733], [132.7995338, 33.6980042], [132.7996469, 33.6976811], [132.7996788, 33.6975883], [132.7996947, 33.6975059], [132.7996947, 33.6974323], [132.7996797, 33.6973089], [132.7996514, 33.6971888], [132.7996285, 33.6971296], [132.7996223, 33.6970649], [132.7996427, 33.6970067], [132.7996691, 33.6969715], [132.7997531, 33.696889], [132.7998274, 33.6968154], [132.7998805, 33.6967403], [132.7999196, 33.6966754], [132.7999354, 33.69661], [132.7999408, 33.6965224], [132.7999259, 33.6964178], [132.799879, 33.6962337], [132.7998312, 33.6960025], [132.7998126, 33.6958027], [132.7998073, 33.6955787], [132.7998505, 33.6949171], [132.7998557, 33.6947748], [132.7998416, 33.694685], [132.799815, 33.6945966], [132.7997673, 33.6944759], [132.7996947, 33.6943522], [132.7996522, 33.694286], [132.7995938, 33.6941696], [132.7995673, 33.6940754], [132.7995602, 33.6940047], [132.799562, 33.6939208], [132.7995708, 33.693834], [132.7996027, 33.6936691], [132.7996186, 33.6935792], [132.7996186, 33.6934894], [132.799608, 33.6933761], [132.7995743, 33.6932798], [132.7995122, 33.6931827], [132.7994646, 33.6931225], [132.7994029, 33.6930683], [132.7992974, 33.6929834], [132.799063, 33.6928107], [132.7989816, 33.6927577], [132.7988931, 33.6926929], [132.7987197, 33.6925722], [132.7985887, 33.6924691], [132.7984648, 33.6923587], [132.7983657, 33.6922468], [132.7982879, 33.6921378], [132.7982401, 33.6920436], [132.7981994, 33.6919523], [132.7981675, 33.6918448], [132.7980649, 33.6914502], [132.7980083, 33.6911822], [132.7979923, 33.6909997], [132.7979817, 33.6908186], [132.7979747, 33.6906272], [132.7979552, 33.6904888], [132.7979286, 33.6904122], [132.7978915, 33.6903342], [132.797826, 33.6902708], [132.797757, 33.6902223], [132.7976844, 33.6901869], [132.7976048, 33.6901575], [132.797511, 33.6901413], [132.7973394, 33.6901192], [132.7971589, 33.6900883], [132.7969324, 33.6900485], [132.7966952, 33.6899896], [132.7965501, 33.6899484], [132.796405, 33.6898924], [132.7962865, 33.6898321], [132.796106, 33.6897275], [132.7958812, 33.6896112], [132.7957538, 33.689567], [132.7956388, 33.689542], [132.7955255, 33.6895391], [132.7954105, 33.6895479], [132.7953026, 33.6895729], [132.7951468, 33.6896142], [132.7949805, 33.6896686], [132.7949398, 33.6896819], [132.7947894, 33.6897246], [132.7946673, 33.6897422], [132.7945496, 33.6897451], [132.7944399, 33.6897275], [132.7943319, 33.6896907], [132.7942293, 33.6896347], [132.7941585, 33.6895699], [132.7941217, 33.6895236], [132.794109, 33.6894963], [132.7940771, 33.6894183], [132.7940665, 33.6893402], [132.79407, 33.6892666], [132.7941106, 33.6891604], [132.7941602, 33.6890882], [132.7942257, 33.6890161], [132.7942876, 33.6889645], [132.7943637, 33.6889218], [132.7944486, 33.688885], [132.7945265, 33.6888659], [132.7946167, 33.6888453], [132.7947353, 33.688835], [132.7948733, 33.6888291], [132.7950308, 33.6888158], [132.7952149, 33.6888026], [132.795337, 33.6888011], [132.7954414, 33.688804], [132.7955599, 33.6888129], [132.7956697, 33.6888394], [132.7957811, 33.688885], [132.7961793, 33.6890661], [132.7962908, 33.6891044], [132.7963828, 33.6891221], [132.796489, 33.6891177], [132.7966164, 33.689097], [132.7967304, 33.6890631], [132.7968323, 33.689011], [132.7969427, 33.6889256], [132.7974906, 33.688334], [132.7979704, 33.6877888], [132.7982253, 33.6875031], [132.7986358, 33.6870122], [132.7994976, 33.6859042], [132.7997801, 33.6855397], [132.8014058, 33.6834959], [132.8020405, 33.6827241], [132.8021102, 33.6826041], [132.8021792, 33.682461], [132.8022328, 33.6822824], [132.8022537, 33.6821142], [132.8022516, 33.6819834], [132.8022302, 33.6818478], [132.8021746, 33.6816543], [132.8019324, 33.681162], [132.8018707, 33.6809901], [132.8018385, 33.6808428], [132.8018259, 33.6806656], [132.8018519, 33.6804991], [132.8018841, 33.6803094], [132.8019163, 33.6801383], [132.8019895, 33.6797683], [132.8020182, 33.6795862], [132.8020209, 33.6793987], [132.8019914, 33.6792023], [132.8019493, 33.6790207], [132.8018332, 33.6787492], [132.8016883, 33.6784948], [132.801386, 33.6779649], [132.8011511, 33.6775394], [132.8010017, 33.6772515], [132.8008568, 33.6770261], [132.800686, 33.6768131], [132.8004438, 33.6765506], [132.8001307, 33.676273], [132.798618, 33.6751748], [132.7979171, 33.6747717], [132.7976234, 33.6746422], [132.7973157, 33.6744973], [132.7971862, 33.6744257], [132.7970447, 33.674328], [132.7969247, 33.6742404], [132.7968094, 33.6741377], [132.7967007, 33.6740328], [132.7965983, 33.6739058], [132.7965009, 33.6737493], [132.796407, 33.673563], [132.7963427, 33.6733922], [132.7962791, 33.6731893], [132.7959591, 33.6721846], [132.7956434, 33.6711726], [132.7955917, 33.6709903], [132.7955246, 33.6708051], [132.7954361, 33.6706343], [132.7953443, 33.6705062], [132.7952403, 33.6703743], [132.7950391, 33.6701644], [132.7948052, 33.6699782], [132.7945416, 33.6697682], [132.7944021, 33.6696398], [132.794331, 33.6695639], [132.7942513, 33.6694692], [132.7941889, 33.6693586], [132.7941352, 33.6691979], [132.7941138, 33.6690706], [132.7941012, 33.6689], [132.794095, 33.66844], [132.7941044, 33.6681978], [132.7941213, 33.6679737], [132.7941325, 33.6678183], [132.7941349, 33.667672], [132.7941205, 33.6675727], [132.7940869, 33.6674634], [132.7940507, 33.6673718], [132.7939939, 33.6672604], [132.7937409, 33.6669901], [132.7936243, 33.6668595], [132.793525, 33.6667312], [132.7934687, 33.6666363], [132.7934298, 33.6665403], [132.7933912, 33.6664024], [132.7933802, 33.6662758], [132.7933882, 33.6661641], [132.7934118, 33.6660471], [132.7935062, 33.6658807], [132.7936283, 33.6657132], [132.7937812, 33.6655424], [132.7941078, 33.6652011], [132.7946082, 33.6646968], [132.7956166, 33.6636563], [132.796302, 33.662968], [132.7966458, 33.6626771], [132.7967799, 33.6625499], [132.796896, 33.662395], [132.7969623, 33.6622418], [132.7969936, 33.6621083], [132.7969998, 33.6619873], [132.7969964, 33.6618449], [132.7969247, 33.6615073], [132.7968896, 33.6613087], [132.7968898, 33.6611635], [132.796914, 33.6610318], [132.7969526, 33.6609188], [132.7970004, 33.6608247], [132.7970508, 33.660746], [132.7971768, 33.6606102], [132.7975746, 33.6602273], [132.7976489, 33.6601276], [132.7977294, 33.6599937], [132.7977696, 33.659891], [132.7977991, 33.6597861], [132.797834, 33.6595293], [132.7978823, 33.6590203], [132.7979091, 33.6588707], [132.7979421, 33.6587649], [132.798019, 33.6586251], [132.7981076, 33.6585113], [132.7981961, 33.6584198], [132.7983122, 33.6583183], [132.7984294, 33.6582411], [132.7985501, 33.6581675], [132.7986816, 33.6581072], [132.7987942, 33.658067], [132.7997437, 33.6578259], [132.7998411, 33.6577892], [132.799961, 33.6577344], [132.8000629, 33.6576718], [132.8001353, 33.6576227], [132.8002292, 33.6575334], [132.8003239, 33.6574187], [132.8004116, 33.6572477], [132.8005832, 33.6568324], [132.8007254, 33.6565578], [132.8008817, 33.6563381], [132.801038, 33.6560838], [132.8010916, 33.6559855], [132.8011345, 33.6558694], [132.801156, 33.6557333], [132.8011651, 33.6556073], [132.8011569, 33.6552118], [132.801175, 33.655075], [132.8012019, 33.6549079], [132.8012853, 33.6546367], [132.8014374, 33.6541639], [132.8016073, 33.653738], [132.8016784, 33.653576], [132.8017347, 33.6534442], [132.8017677, 33.6533451], [132.8017991, 33.6531763], [132.8018125, 33.6530446], [132.8017918, 33.6527161], [132.8017815, 33.6525467], [132.801758, 33.6522664], [132.8016674, 33.6512414], [132.8016547, 33.6510427], [132.8016497, 33.6509833], [132.8016425, 33.6508604], [132.8016238, 33.650742], [132.8015902, 33.6506248], [132.8015253, 33.6504844], [132.80146, 33.6503831], [132.8013574, 33.6502645], [132.8011269, 33.6500677], [132.8009381, 33.6499002], [132.8008583, 33.6497887], [132.8007879, 33.6496768], [132.8007314, 33.6495456], [132.8006557, 33.6492234], [132.800551, 33.6488682], [132.800533, 33.648805], [132.8004533, 33.6485807], [132.8002945, 33.6481681], [132.8002723, 33.6481032], [132.8002035, 33.6479381], [132.8000494, 33.6475033], [132.8000119, 33.64739], [132.7999946, 33.6473415], [132.7996561, 33.6464957], [132.7996006, 33.6463525], [132.7995488, 33.6461835], [132.7995253, 33.646096], [132.7994897, 33.6459344], [132.7994742, 33.6457398], [132.7994569, 33.6453685], [132.7994228, 33.645219], [132.7993946, 33.6451249], [132.7993476, 33.6450373], [132.7992847, 33.6449385], [132.7990927, 33.6447437], [132.798809, 33.6444987], [132.798644, 33.6443423], [132.7985488, 33.6442419], [132.7984796, 33.6441485], [132.7984243, 33.6440541], [132.7984048, 33.6439841], [132.7983985, 33.6439235], [132.7983905, 33.6438612], [132.7984013, 33.6437919], [132.7984133, 33.6437283], [132.7984536, 33.6436423], [132.7984938, 33.6435765], [132.7985576, 33.6435108], [132.7986314, 33.6434472], [132.7987057, 33.6433945], [132.7988479, 33.6433185], [132.7991343, 33.6431658], [132.7992569, 33.6430886], [132.799332, 33.6430216], [132.7993928, 33.6429536], [132.7994393, 33.6428731], [132.7994648, 33.6428061], [132.7994741, 33.6427123], [132.7994709, 33.6426254], [132.79945, 33.6425147], [132.7993652, 33.6422252], [132.7993147, 33.6420777], [132.7992866, 33.6419571], [132.7992718, 33.6418577], [132.7992664, 33.6417729], [132.7992624, 33.6416824], [132.799275, 33.6414954], [132.7992836, 33.6413269], [132.7992987, 33.641096], [132.7993092, 33.6409482], [132.7993441, 33.6407986], [132.7993703, 33.6407], [132.7994073, 33.6406093], [132.799468, 33.6405063], [132.7995367, 33.6404216], [132.7996446, 33.640297], [132.7997435, 33.6402062], [132.79983, 33.6401247], [132.7999922, 33.6399947], [132.8001526, 33.6399126], [132.8003127, 33.6398595], [132.8006311, 33.6397854], [132.8008481, 33.6397426], [132.8010394, 33.6396894], [132.8011698, 33.6396419], [132.8013193, 33.6395417], [132.8014252, 33.6394361], [132.8015075, 33.6393257], [132.8015763, 33.6391796], [132.8016006, 33.6390449], [132.8015996, 33.6389179], [132.8015687, 33.6387707], [132.8015022, 33.6386488], [132.8014125, 33.6385158], [132.8012918, 33.6383881], [132.8010342, 33.6381487], [132.8008718, 33.6379868], [132.8007568, 33.6377996], [132.8007267, 33.6377267], [132.8006964, 33.637613], [132.8006783, 33.6374871], [132.8006763, 33.6373704], [132.8006752, 33.6366754], [132.8006681, 33.6364525], [132.800653, 33.6362856], [132.800551, 33.6358306], [132.8004786, 33.6355799], [132.8004062, 33.6353633], [132.800248, 33.6349234], [132.8001649, 33.6346822], [132.8001058, 33.634508], [132.8000281, 33.6342892], [132.7999613, 33.6340208], [132.7998537, 33.6336549], [132.799782, 33.6333391], [132.7997357, 33.6330922], [132.7996839, 33.6328365], [132.7996436, 33.63251], [132.7996374, 33.6324654], [132.7995841, 33.6320839], [132.7995436, 33.6318448], [132.7994835, 33.6313323], [132.7994567, 33.6309996], [132.7994353, 33.630649], [132.7994364, 33.6301218], [132.7994835, 33.6296351], [132.7995077, 33.6294475], [132.7995372, 33.6292063], [132.7996215, 33.6286223], [132.7997867, 33.6274319], [132.7998115, 33.6272226], [132.7998161, 33.6270366], [132.7998094, 33.6268624], [132.7997786, 33.6265006], [132.7997506, 33.6263371], [132.7996654, 33.6259659], [132.7996042, 33.6257535], [132.7995557, 33.6255004], [132.7995224, 33.6253336], [132.7995043, 33.6251462], [132.7994984, 33.6249705], [132.7995003, 33.6248406], [132.7995077, 33.6247035], [132.7995269, 33.6244951], [132.7995567, 33.6243136], [132.7996015, 33.6241621], [132.799649, 33.6240301], [132.7997134, 33.6239016], [132.7997946, 33.6238014], [132.7999088, 33.6236857], [132.8000485, 33.6235697], [132.8010101, 33.6228279], [132.8011717, 33.6226837], [132.8012535, 33.6225929], [132.8012971, 33.6225032], [132.801322, 33.6224271], [132.8013368, 33.6223399], [132.8013493, 33.622243], [132.8013417, 33.6221405], [132.8012903, 33.62202], [132.8012487, 33.621946], [132.8011837, 33.6218702], [132.8010845, 33.6217869], [132.8010152, 33.6217327], [132.8009193, 33.6216877], [132.800771, 33.6216462], [132.8006074, 33.6216093], [132.8003559, 33.6215462], [132.8001797, 33.6214839], [132.8000528, 33.6214167], [132.7999308, 33.621334], [132.7998195, 33.6212391], [132.7997403, 33.6211486], [132.7996834, 33.621064], [132.7996062, 33.6209275], [132.7994749, 33.6205995], [132.7993948, 33.6204267], [132.7992837, 33.6202452], [132.7991267, 33.6200514], [132.7990705, 33.6199921], [132.7990048, 33.6199332], [132.7989523, 33.6198924], [132.7988616, 33.619822], [132.7979167, 33.6192843], [132.7974264, 33.6190216], [132.7962629, 33.6184259], [132.7960658, 33.6183249], [132.7958853, 33.6182114], [132.7957641, 33.6180958], [132.7956809, 33.617972], [132.7952735, 33.6170734], [132.7950077, 33.6164019], [132.7948996, 33.6162007], [132.7948138, 33.6160958], [132.7947333, 33.6160198], [132.794618, 33.615945], [132.7944906, 33.6158668], [132.7943492, 33.615809], [132.7942063, 33.6157629], [132.7940588, 33.6157305], [132.7939067, 33.6157029], [132.7934808, 33.6156725], [132.7932782, 33.6156479], [132.7931128, 33.6156135], [132.7929671, 33.6155708], [132.7928236, 33.6155027], [132.7927391, 33.6154424], [132.7926587, 33.6153598], [132.792605, 33.6152894], [132.792554, 33.6152146], [132.7924226, 33.6150336], [132.7923314, 33.6149577], [132.7922335, 33.6148974], [132.7921343, 33.6148561], [132.7920304, 33.6148239], [132.791913, 33.6148058], [132.791571, 33.6147723], [132.7914718, 33.6147634], [132.7913471, 33.6147466], [132.7912701, 33.6147289], [132.7911765, 33.6147114], [132.791056, 33.6146662], [132.7907146, 33.6144977], [132.7903895, 33.6143513], [132.7902924, 33.6143168], [132.790167, 33.6142777], [132.789941, 33.6142342], [132.7892724, 33.6141279], [132.7889331, 33.6140743], [132.7887708, 33.6140464], [132.7886228, 33.6140064], [132.7885187, 33.6139693], [132.7884141, 33.6139268], [132.7883135, 33.6138788], [132.7881794, 33.6137984], [132.7880815, 33.6137225], [132.7877739, 33.6134468], [132.7875812, 33.6132802], [132.7873382, 33.6130876], [132.7867658, 33.6126916], [132.7867042, 33.6126358], [132.7866566, 33.6125801], [132.7865908, 33.6125025], [132.7865251, 33.612385], [132.7864786, 33.6122524], [132.7864373, 33.6120991], [132.7864, 33.6117511], [132.7863364, 33.6112773], [132.7863302, 33.6112198], [132.7863033, 33.6109227], [132.7862854, 33.6106641], [132.7862814, 33.6103862], [132.7862909, 33.6097077], [132.7863083, 33.6093732], [132.7863256, 33.6091153], [132.7864145, 33.6084213], [132.7864401, 33.6081695], [132.7864593, 33.6079002], [132.7864544, 33.6075646], [132.786428, 33.6072371], [132.7863715, 33.6067113], [132.7863455, 33.6065222], [132.7862842, 33.6063278], [132.7861592, 33.606036], [132.7857541, 33.6052878], [132.785646, 33.60511], [132.7855441, 33.6049022], [132.785477, 33.6046967], [132.7854233, 33.6044817], [132.7854188, 33.6043696], [132.7854234, 33.6042789], [132.7854341, 33.6040734], [132.7854806, 33.6037463], [132.7855772, 33.6034122], [132.7858238, 33.6025266], [132.7858579, 33.6022549], [132.7858779, 33.6019966], [132.7858936, 33.6016017], [132.7858822, 33.6011552], [132.7858945, 33.6009841], [132.7859245, 33.6008288], [132.7859811, 33.6006724], [132.7860522, 33.6005318], [132.7861423, 33.6003795], [132.7862507, 33.6002331], [132.7864068, 33.6000063], [132.7864634, 33.5998783], [132.7864739, 33.5998214], [132.7864859, 33.5997069], [132.7864778, 33.5996016], [132.7864547, 33.5994894], [132.7861024, 33.5988645], [132.7860261, 33.5987018], [132.7859687, 33.5985225], [132.785949, 33.5983643], [132.7859486, 33.598238], [132.7859713, 33.5978011], [132.7859747, 33.5976806], [132.7859534, 33.5975528], [132.7859198, 33.597446], [132.7858451, 33.597278], [132.7852316, 33.5963309], [132.7848995, 33.5958095], [132.7848041, 33.5956294], [132.7847404, 33.5954669], [132.784713, 33.5953566], [132.7845917, 33.5948372], [132.7845314, 33.5946592], [132.784459, 33.5944924], [132.7843226, 33.5942243], [132.7841867, 33.5939235], [132.7841272, 33.5937534], [132.7840745, 33.5936017], [132.7840631, 33.5934674], [132.7840845, 33.5929935], [132.7840903, 33.5927889], [132.7840804, 33.5926584], [132.784034, 33.5925163], [132.7839804, 33.592418], [132.7839214, 33.5923197], [132.7838597, 33.592237], [132.7837953, 33.5921723], [132.7837229, 33.592103], [132.7835252, 33.5919815], [132.78297, 33.5917312], [132.7815859, 33.5911414], [132.7812713, 33.5909903], [132.7811104, 33.5908942], [132.7809924, 33.5908026], [132.7808859, 33.5906766], [132.780759, 33.5905099], [132.7806338, 33.5903415], [132.7805418, 33.5902239], [132.7804425, 33.5901078], [132.7803253, 33.5900086], [132.7802092, 33.589929], [132.780059, 33.5898732], [132.7798793, 33.5898151], [132.7796387, 33.5897851], [132.7793106, 33.5897793], [132.7790344, 33.5897793], [132.7787723, 33.5897985], [132.7783853, 33.589862], [132.7780106, 33.5899527], [132.7776879, 33.5900519], [132.7774205, 33.5900956], [132.7772319, 33.5901189], [132.7770737, 33.5901189], [132.7769235, 33.5901055], [132.7767652, 33.5900742], [132.7765675, 33.5900242], [132.7760955, 33.5898879], [132.7756104, 33.5897518], [132.7753383, 33.5896564], [132.7750647, 33.5895492], [132.7748563, 33.5894366], [132.7746168, 33.5892945], [132.7742876, 33.5890187], [132.7739972, 33.5887247], [132.7738926, 33.5885906], [132.7738309, 33.5884655], [132.7737987, 33.5883404], [132.7738022, 33.5882613], [132.7738175, 33.5881661], [132.7738532, 33.5880602], [132.7739087, 33.587965], [132.773973, 33.5878801], [132.774083, 33.5877617], [132.7743493, 33.5875395], [132.7744585, 33.5874332], [132.7745363, 33.5873439], [132.7746114, 33.5872411], [132.7746859, 33.5871264], [132.7747187, 33.5870288], [132.7747375, 33.5869126], [132.7747375, 33.5868143], [132.7747191, 33.5867058], [132.7746597, 33.5865641], [132.7745585, 33.5863777], [132.7743244, 33.5860077], [132.7742091, 33.5857865], [132.7741635, 33.5856747], [132.7741474, 33.5855854], [132.7741474, 33.585458], [132.7741608, 33.5853463], [132.7741911, 33.5852247], [132.7742547, 33.5850893], [132.7745712, 33.5846782], [132.7747812, 33.5844114], [132.7748812, 33.5842842], [132.7750245, 33.5840212], [132.7751588, 33.583749], [132.7752399, 33.5835846], [132.7752938, 33.58346], [132.7753504, 33.5832928], [132.7753806, 33.5831433], [132.7753825, 33.5830336], [132.7753686, 33.5828673], [132.7753624, 33.5827521], [132.7753249, 33.5826314], [132.7752739, 33.582513], [132.7752184, 33.5824003], [132.7750942, 33.5822359], [132.774995, 33.5821264], [132.7748474, 33.5819968], [132.7747302, 33.5819042], [132.7745524, 33.5818113], [132.7743708, 33.5817523], [132.7741635, 33.5817041], [132.7739475, 33.5816528], [132.7737887, 33.5816471], [132.773639, 33.5816373], [132.7727539, 33.5815792], [132.7724962, 33.5815664], [132.7692075, 33.5813479], [132.7689975, 33.5813309], [132.7688634, 33.5813085], [132.7686813, 33.5812641], [132.7685121, 33.5812035], [132.7683753, 33.5811387], [132.7682412, 33.5810605], [132.7680864, 33.5809524], [132.7679783, 33.5808438], [132.767863, 33.5807253], [132.7675103, 33.5801946], [132.7673921, 33.5800481], [132.7672147, 33.5798641], [132.7669591, 33.5796138], [132.766723, 33.5793791], [132.7666819, 33.5793436], [132.7661578, 33.5789202], [132.7659483, 33.5787587], [132.7655593, 33.5789986], [132.7653167, 33.5791249], [132.7650387, 33.5792934], [132.7648112, 33.579386], [132.7645881, 33.5794593], [132.76402, 33.579514], [132.763933, 33.5795259], [132.763684, 33.5795461], [132.763361, 33.579559], [132.7631516, 33.579577], [132.7630969, 33.579583], [132.7626528, 33.5796261], [132.7622861, 33.579673], [132.7622365, 33.5796853], [132.7620705, 33.579732], [132.7619704, 33.5797566], [132.7616875, 33.5798872], [132.7613285, 33.5801314], [132.7612204, 33.5802263], [132.7610753, 33.5804381], [132.7607889, 33.5808787], [132.7606197, 33.5810755], [132.7604288, 33.5812474], [132.7600648, 33.5814369], [132.7597272, 33.5816035], [132.7591499, 33.581719], [132.7587389, 33.5817411], [132.7584346, 33.58177], [132.7577785, 33.5818164], [132.7573576, 33.5818893], [132.7567283, 33.582084], [132.7562759, 33.5822388], [132.7558698, 33.58247], [132.755452, 33.5827231], [132.7551708, 33.5829419], [132.7547408, 33.5833764], [132.7545113, 33.5838216], [132.7543793, 33.584021], [132.7542459, 33.5841383], [132.7541045, 33.5842463], [132.7539786, 33.5843226], [132.7537675, 33.5844145], [132.7536051, 33.5844449], [132.7533716, 33.5844427], [132.7530844, 33.58444], [132.7526952, 33.5844101], [132.7523254, 33.58434], [132.7519737, 33.5842678], [132.7516032, 33.5841294], [132.7512501, 33.5839424], [132.7509344, 33.5837475], [132.7495286, 33.5828371], [132.7492701, 33.5826532], [132.7490135, 33.5824374], [132.7487119, 33.5821608], [132.7485419, 33.5819619], [132.7483123, 33.5817516], [132.7480386, 33.5815303], [132.7478608, 33.5814119], [132.747424, 33.5812104], [132.7468759, 33.5809652], [132.7464985, 33.580765], [132.746218, 33.5805578], [132.7459579, 33.580332], [132.7456899, 33.579982], [132.7454981, 33.5797138], [132.7450316, 33.5792608], [132.7448651, 33.5791324], [132.7445535, 33.5789282], [132.7443025, 33.5787927], [132.7430268, 33.5782358], [132.7427278, 33.5781093], [132.742041, 33.5778269], [132.7418065, 33.5777544], [132.7415769, 33.5777095], [132.7412983, 33.5777019], [132.7409027, 33.5777225], [132.7400932, 33.5777828], [132.739601, 33.5778283], [132.738994, 33.5779049], [132.7385732, 33.5779792], [132.7383648, 33.5779943], [132.7382007, 33.577995], [132.7380188, 33.5779546], [132.7378383, 33.577909], [132.7376437, 33.5778392], [132.7368857, 33.5774715], [132.7367562, 33.5774237], [132.7365645, 33.577376], [132.7364069, 33.5773568], [132.7362408, 33.5773589], [132.7360427, 33.5773769], [132.7357102, 33.577454], [132.7345064, 33.577893], [132.7343745, 33.5779472], [132.734216, 33.577993], [132.734009, 33.5780307], [132.7337128, 33.5780508], [132.7333429, 33.5780344], [132.7331011, 33.5779876], [132.7328737, 33.5779118], [132.7328274, 33.5778878], [132.7326765, 33.5778149], [132.7324945, 33.5776914], [132.7323783, 33.5775875], [132.732257, 33.5774233], [132.731979, 33.5770106], [132.7317978, 33.5767617], [132.7316454, 33.5766231], [132.731423, 33.5764884], [132.7311045, 33.5763283], [132.7309196, 33.5762887], [132.7306648, 33.5762357], [132.7303532, 33.5762136], [132.7296639, 33.5761557], [132.7293088, 33.5761477], [132.7289816, 33.5761683], [132.7284963, 33.5762273], [132.7280515, 33.5762525], [132.7276016, 33.5762104], [132.7272292, 33.5761562], [132.7268636, 33.5760799], [132.7265642, 33.5759982], [132.7262713, 33.5758823], [132.7260537, 33.5757849], [132.7259116, 33.5757159], [132.7256157, 33.5755488], [132.7255202, 33.5754904], [132.7247559, 33.5750706], [132.7243723, 33.5749007], [132.7240907, 33.5748292], [132.7238966, 33.5748016], [132.7236333, 33.5747711], [132.7233034, 33.5747443], [132.7228575, 33.5747041], [132.7226208, 33.5746884], [132.7225728, 33.574686], [132.7223352, 33.5746527], [132.7221729, 33.5746203], [132.7220313, 33.574568], [132.7218872, 33.5745152], [132.7217598, 33.5744482], [132.721611, 33.5743588], [132.7214795, 33.5742549], [132.7213481, 33.5741387], [132.7212381, 33.5740214], [132.7204965, 33.5731911], [132.7202873, 33.5729666], [132.7200298, 33.5727878], [132.7198099, 33.5726984], [132.719509, 33.5726686], [132.7191582, 33.5726858], [132.7183663, 33.5728161], [132.7173203, 33.5729803], [132.7167441, 33.5731235], [132.7162942, 33.5732835], [132.716204, 33.5733358], [132.7158713, 33.5735063], [132.7142885, 33.5745091], [132.7141155, 33.5745856], [132.7138486, 33.574689], [132.7135516, 33.5747784], [132.7131928, 33.5748125], [132.7128455, 33.5748002], [132.7125122, 33.5747337], [132.7122018, 33.5746259], [132.7119295, 33.5744683], [132.7116439, 33.5742392], [132.7114951, 33.5740514], [132.711436, 33.5739767], [132.7113274, 33.5737822], [132.7112268, 33.5734604], [132.7112161, 33.5732347], [132.7112067, 33.5730839], [132.7112228, 33.5728783], [132.7112764, 33.5725174], [132.7113783, 33.5718804], [132.7115098, 33.571096], [132.7115259, 33.570867], [132.7115098, 33.5707228], [132.7114394, 33.5704986], [132.7114145, 33.5704356], [132.7113301, 33.5702837], [132.7112751, 33.5701987], [132.7111785, 33.5700714], [132.7109572, 33.5698468], [132.7107909, 33.5697328], [132.7105214, 33.5696076], [132.7101552, 33.5695383], [132.7097717, 33.5695529], [132.7085607, 33.5697194], [132.7080196, 33.5697837], [132.707969, 33.569783], [132.7077532, 33.5697804], [132.7076405, 33.5697668], [132.7072327, 33.5697095], [132.7064036, 33.5694668], [132.7059042, 33.569314], [132.7057726, 33.5692804], [132.7054923, 33.5692193], [132.7051789, 33.5691772], [132.7045479, 33.5691542], [132.7041326, 33.5691224], [132.7038141, 33.5690719], [132.7035491, 33.5689817], [132.7032632, 33.5688739], [132.70299, 33.5687366], [132.7027805, 33.5686068], [132.7022511, 33.568226], [132.7013828, 33.5675809], [132.7011894, 33.5674746], [132.700938, 33.567383], [132.7006296, 33.5673198], [132.7003159, 33.5672926], [132.699245, 33.5672956], [132.6986008, 33.567298], [132.6980761, 33.5672281], [132.697986, 33.5672145], [132.6975631, 33.5671335], [132.6973744, 33.5670882], [132.6967399, 33.566873], [132.6958997, 33.5665187], [132.6954536, 33.5662964], [132.695221, 33.5661671], [132.694702, 33.565872], [132.6940686, 33.5655761], [132.6933306, 33.5652897], [132.6928703, 33.5650694], [132.6925724, 33.5648812], [132.6923298, 33.5647211], [132.6920619, 33.5645105], [132.6911268, 33.5637187], [132.6909499, 33.5635713], [132.6907142, 33.5634149], [132.690409, 33.5632806], [132.6900317, 33.563149], [132.6894702, 33.5629889], [132.6887877, 33.5628236], [132.6885741, 33.5628005], [132.6884283, 33.5628048], [132.6882254, 33.5628289], [132.6879726, 33.5628973], [132.6877389, 33.5629974], [132.6874689, 33.5631574], [132.6871765, 33.563408], [132.6869201, 33.5636126], [132.6868241, 33.5636839], [132.6865424, 33.5638903], [132.6864761, 33.563934], [132.6863523, 33.5640015], [132.6860275, 33.5640879], [132.6857856, 33.5641458], [132.6836286, 33.5648001], [132.6831074, 33.5649238], [132.6827034, 33.5650318], [132.6819906, 33.5652554], [132.6814825, 33.565708], [132.681438, 33.5657656], [132.6813248, 33.565917], [132.6810256, 33.5663752], [132.6808142, 33.5666217], [132.6806454, 33.5668065], [132.6804311, 33.5669783], [132.6786738, 33.568315], [132.6784133, 33.5684744], [132.678114, 33.5686226], [132.6777461, 33.5687776], [132.6773285, 33.568905], [132.6771031, 33.5689427], [132.6767796, 33.5689629], [132.6764804, 33.5689528], [132.6761483, 33.5688692], [132.6756271, 33.5686428], [132.6754694, 33.5685451], [132.6753758, 33.5684471], [132.6750953, 33.5679488], [132.6746371, 33.5666695], [132.6745522, 33.5664406], [132.6745201, 33.5663324], [132.6744718, 33.5662028], [132.6744585, 33.5661495], [132.6743974, 33.5657345], [132.6743987, 33.5652775], [132.674447, 33.5649177], [132.6746113, 33.5644094], [132.6746576, 33.5642662], [132.674736, 33.5640818], [132.6748393, 33.5638393], [132.6749298, 33.5637231], [132.6750774, 33.5636349], [132.6751122, 33.5636199], [132.675211, 33.5635835], [132.6759123, 33.5633802], [132.6760275, 33.5633056], [132.6762013, 33.5631607], [132.6768564, 33.5624147], [132.6771112, 33.5621464], [132.6771961, 33.5619544], [132.6772244, 33.5617893], [132.6772044, 33.5616307], [132.6771067, 33.5613838], [132.6767352, 33.560853], [132.6756661, 33.5593099], [132.6750478, 33.558379], [132.6745892, 33.5574313], [132.6744242, 33.5571888], [132.6742928, 33.55702], [132.6742056, 33.5569261], [132.6740916, 33.5568457], [132.6739611, 33.5567111], [132.6737225, 33.5565662], [132.6734814, 33.5564456], [132.6715891, 33.5555939], [132.671176, 33.5554174], [132.6708515, 33.5553436], [132.6705323, 33.55529], [132.6701729, 33.5552642], [132.6695292, 33.5552955], [132.6689994, 33.555338], [132.6685213, 33.5553736], [132.6681421, 33.5554979], [132.6670584, 33.5560068], [132.6668238, 33.5561382], [132.6666426, 33.5562815], [132.6662334, 33.5567414], [132.6661211, 33.5569073], [132.6660232, 33.5570784], [132.6659221, 33.557294], [132.6658255, 33.5576086], [132.6657099, 33.5582717], [132.6656596, 33.5585882], [132.6655976, 33.5587851], [132.6654334, 33.559089], [132.665098, 33.5595864], [132.6649048, 33.5598349], [132.6648113, 33.5599273], [132.6647345, 33.5599759], [132.6645715, 33.560026], [132.6644173, 33.5600618], [132.6642545, 33.5600812], [132.6640793, 33.5600748], [132.6638727, 33.5600284], [132.6637002, 33.5599702], [132.6634762, 33.559842], [132.6632936, 33.5597385], [132.6631214, 33.5596233], [132.6628289, 33.5593045], [132.6626202, 33.5589114], [132.662416, 33.5585983], [132.6622131, 33.5584122], [132.6618117, 33.5580232], [132.6614154, 33.5576057], [132.6610038, 33.5572195], [132.6601657, 33.5565391], [132.6594198, 33.5559827], [132.6591021, 33.5557438], [132.6587887, 33.5555197], [132.6585966, 33.5554405], [132.6584441, 33.5554051], [132.6583067, 33.5554385], [132.6582197, 33.555465], [132.6577607, 33.5556909], [132.6576988, 33.5557197], [132.6576434, 33.5557503], [132.6575696, 33.5557613], [132.6574592, 33.5557616], [132.6573763, 33.5557554]]]}, "id": "relation/9760336"}]}