{"type": "FeatureCollection", "generator": "kokudo-quiz tools/fetch_raw.py (Overpass API)", "copyright": "The data included in this document is from www.openstreetmap.org. The data is made available under ODbL.", "timestamp": "2026-09-30T23:38:34Z", "features": [{"type": "Feature", "properties": {"@id": "relation/1061406", "colour": "red", "from": "愛媛県八幡浜市", "name": "国道380号", "name:en": "National Highway Route 380", "name:ja": "国道380号", "name:ja-Hira": "こくどうさんびゃくはちじゅうごう", "name:ja-Latn": "Kokudou 380 Gou", "network": "JP:national", "ref": "380", "route": "road", "to": "愛媛県上浮穴郡久万高原町", "type": "route", "wikidata": "Q6157396", "wikipedia": "ja:国道380号"}, "geometry": {"type": "MultiLineString", "coordinates": [[[132.4312455, 33.4577648], [132.4318792, 33.457896], [132.4325119, 33.4580271], [132.4335105, 33.4582294], [132.4345785, 33.458461], [132.4352131, 33.4585966], [132.4353344, 33.4586244], [132.4353941, 33.458638], [132.435447, 33.4586544], [132.4356868, 33.4587283], [132.4358672, 33.4588064], [132.4360291, 33.458881], [132.4362067, 33.4589598], [132.4364226, 33.4590726], [132.4368694, 33.4593063], [132.4371472, 33.4594703], [132.437968, 33.4599195], [132.4390353, 33.4605156], [132.440247, 33.4611922], [132.4406087, 33.4613785], [132.4409936, 33.4615502], [132.4415882, 33.4618243], [132.4430369, 33.4623183], [132.4431113, 33.4623446], [132.4439112, 33.4626415], [132.4442267, 33.4627543], [132.4446548, 33.4629343], [132.4448879, 33.4630542], [132.4451156, 33.4631828], [132.4453101, 33.4632905], [132.4455556, 33.4634197], [132.4457597, 33.4635684], [132.4459036, 33.4636122], [132.4460973, 33.4636683], [132.4461493, 33.4636839], [132.4464384, 33.4637622], [132.4467713, 33.4638488], [132.4475288, 33.4640254], [132.4477437, 33.4640787], [132.4478595, 33.4641094], [132.4478729, 33.464113], [132.4480698, 33.4641446], [132.448247, 33.464151], [132.448551, 33.464169], [132.448885, 33.464172], [132.449144, 33.464149], [132.449419, 33.464108], [132.449709, 33.464056], [132.4500763, 33.4639618], [132.4502891, 33.463901], [132.4503274, 33.463887], [132.4505011, 33.4638354], [132.4505316, 33.4638263], [132.4507082, 33.4637922], [132.4509806, 33.4637694], [132.4512501, 33.4637963], [132.4517511, 33.4639418], [132.4541149, 33.4643282], [132.4544019, 33.4643621], [132.4546021, 33.464405], [132.4547605, 33.4644391], [132.4549373, 33.464481], [132.4551553, 33.4645454], [132.4553748, 33.4646302], [132.4555947, 33.4646995], [132.4559302, 33.4648552], [132.4561543, 33.4649936], [132.4567551, 33.4654681], [132.457087, 33.4656462], [132.4573872, 33.465771], [132.4579115, 33.4659977], [132.4582243, 33.4661389], [132.4586715, 33.4663231], [132.4591895, 33.4665848], [132.4594579, 33.4666956], [132.4597886, 33.4667947], [132.4600525, 33.4668561], [132.4604021, 33.4669104], [132.4607711, 33.4669548], [132.460979, 33.4670054], [132.4611632, 33.4670872], [132.4613771, 33.4672288], [132.4615626, 33.4674007], [132.4630921, 33.4689395], [132.4633155, 33.4691703], [132.4634975, 33.4693329], [132.4636681, 33.4694619], [132.4639149, 33.469621], [132.464138, 33.4697114], [132.4645024, 33.4698486], [132.4648734, 33.4699735], [132.4652099, 33.4700926], [132.4655511, 33.4702543], [132.465814, 33.4704268], [132.4664855, 33.4709942], [132.4667767, 33.4711964], [132.4670068, 33.4713167], [132.4672433, 33.4714139], [132.4677064, 33.4715102], [132.4681537, 33.4715478], [132.4687371, 33.471565], [132.4689287, 33.4715494], [132.4690456, 33.4715227], [132.4691456, 33.4714942], [132.46926, 33.471457], [132.4693756, 33.4713935], [132.4694316, 33.4713533], [132.4695461, 33.4712325], [132.4696014, 33.4711537], [132.4701189, 33.47051], [132.4703164, 33.4702399], [132.4704329, 33.4700583], [132.470474, 33.4699769], [132.4705684, 33.4697704], [132.4705885, 33.4696077], [132.4705886, 33.4694216], [132.470574, 33.4692396], [132.470562, 33.4690668], [132.4705689, 33.4689089], [132.4706144, 33.4687074], [132.4707077, 33.4685248], [132.4708097, 33.4683856], [132.4709208, 33.4682721], [132.4710398, 33.4681634], [132.4715026, 33.4677892], [132.471663, 33.4676574], [132.4718348, 33.4675475], [132.4720546, 33.4674301], [132.4727969, 33.4671191], [132.4735032, 33.4668783], [132.4737646, 33.4667937], [132.4741632, 33.46668], [132.4745285, 33.4665884], [132.4748601, 33.4665033], [132.4751191, 33.4664402], [132.4753367, 33.4664074], [132.4755103, 33.466404], [132.4756784, 33.4664207], [132.4758601, 33.4664599], [132.476202, 33.4665422], [132.4763985, 33.4666118], [132.4766272, 33.4667111], [132.4768186, 33.4668286], [132.4770846, 33.4670111], [132.4772461, 33.4671046], [132.4774149, 33.467186], [132.4776036, 33.4672383], [132.477735, 33.467254], [132.4782508, 33.4672316], [132.4793706, 33.4671794], [132.4795466, 33.4671906], [132.4797192, 33.4672244], [132.4800188, 33.4673356], [132.4801062, 33.4673888], [132.4801695, 33.4674437], [132.4802415, 33.4674887], [132.4805077, 33.4676486], [132.4807398, 33.4677256], [132.4809187, 33.467785], [132.4810978, 33.467802], [132.4812496, 33.4677904], [132.4814365, 33.467763], [132.4815853, 33.4677143], [132.4817563, 33.4676382], [132.4818888, 33.4675514], [132.4820395, 33.4674123], [132.4829949, 33.4664075], [132.4832565, 33.4662475], [132.4837875, 33.466092], [132.4839927, 33.4660535], [132.4842158, 33.466015], [132.485009, 33.4660092], [132.4858554, 33.4660727], [132.4862454, 33.4661487], [132.4866634, 33.4662787], [132.4870166, 33.4664257], [132.4874892, 33.4666267], [132.4879128, 33.4668432], [132.4883455, 33.4671182], [132.4892405, 33.4676457], [132.4906881, 33.4684966], [132.4923767, 33.4694851], [132.4933203, 33.4700421], [132.4936549, 33.4702432], [132.49477, 33.4708717], [132.495876, 33.47142], [132.497493, 33.472351], [132.499306, 33.473455], [132.50098, 33.474439], [132.502183, 33.475167], [132.5036907, 33.4758609], [132.5039942, 33.4760132], [132.5046136, 33.4763997], [132.5049673, 33.4767491], [132.5051398, 33.4769501], [132.5053567, 33.4772468], [132.5055085, 33.477513], [132.5057301, 33.4779628], [132.5059045, 33.478331], [132.506018, 33.478549], [132.5062668, 33.4790207], [132.5064488, 33.4793679], [132.506617, 33.4796347], [132.5068447, 33.4799505], [132.5071644, 33.4803409], [132.5079374, 33.4812734], [132.5082314, 33.4816204], [132.5085989, 33.4820309], [132.5089144, 33.4825369], [132.5093613, 33.4832748], [132.5097768, 33.4840373], [132.5099695, 33.4843192], [132.5102626, 33.4846608], [132.510931, 33.4852952], [132.5115691, 33.4859054], [132.5120516, 33.4863732], [132.5122328, 33.4865793], [132.5124366, 33.4868845], [132.5126177, 33.4872822], [132.5126504, 33.4873532], [132.5128053, 33.4876726], [132.5130537, 33.4882248], [132.5132545, 33.4886651], [132.5133676, 33.4888719], [132.5134852, 33.4890575], [132.5136071, 33.4891769], [132.5137712, 33.4893176], [132.5141527, 33.4895377], [132.5146652, 33.4897874], [132.5165175, 33.4906264], [132.5168028, 33.4907571], [132.5171949, 33.4909497], [132.51789, 33.4912479], [132.5181914, 33.4913844], [132.5184543, 33.4914814], [132.5187725, 33.4915951], [132.5191395, 33.4916816], [132.5194104, 33.4917311], [132.5196997, 33.4917682], [132.5200161, 33.491789], [132.5202967, 33.491797], [132.52082, 33.491777], [132.5214872, 33.4917401], [132.5247307, 33.4915955], [132.5281875, 33.4914367], [132.5313093, 33.491213], [132.5331049, 33.4908956], [132.5339751, 33.4907383], [132.5355808, 33.4904851], [132.5362893, 33.4903288], [132.5366438, 33.4902789], [132.5370852, 33.4902383], [132.5373453, 33.4902394], [132.5377478, 33.4902548], [132.5379986, 33.4902788], [132.5381837, 33.4903077], [132.5386656, 33.4903963], [132.5389512, 33.4904769], [132.5393202, 33.4906072], [132.5395214, 33.4906848], [132.5398104, 33.490807], [132.5399821, 33.4908904], [132.5401443, 33.4909879], [132.5403239, 33.4910963], [132.540616, 33.4913017], [132.5407431, 33.4913989], [132.541061, 33.4916587], [132.5415317, 33.492065], [132.5417415, 33.4922297], [132.541844, 33.4923176], [132.5417415, 33.4922297], [132.5415317, 33.492065], [132.541061, 33.4916587], [132.5407431, 33.4913989], [132.540616, 33.4913017], [132.5403239, 33.4910963], [132.5401443, 33.4909879], [132.5399821, 33.4908904], [132.5398104, 33.490807], [132.5395214, 33.4906848], [132.5393202, 33.4906072], [132.5389512, 33.4904769], [132.5386656, 33.4903963], [132.5381837, 33.4903077]], [[132.541844, 33.4923176], [132.542177, 33.49258], [132.5424723, 33.4927862], [132.5426763, 33.4929056], [132.5428639, 33.4930104], [132.5430794, 33.4931367], [132.5434183, 33.4933297], [132.5437767, 33.4935651], [132.5441389, 33.4938552], [132.5448165, 33.4943526], [132.5454672, 33.4948587], [132.5457709, 33.4951248], [132.5460104, 33.4953285], [132.5456408, 33.4957014], [132.5455603, 33.4957826], [132.5454845, 33.4959229], [132.5454398, 33.4960662], [132.5454323, 33.4962197], [132.5454626, 33.4963653], [132.5455279, 33.4965401], [132.5456063, 33.4966719], [132.5457034, 33.4968053], [132.5458733, 33.4969297], [132.5461678, 33.4970948], [132.5464721, 33.4972291], [132.5469069, 33.4974192], [132.5473697, 33.4976372], [132.5476389, 33.4978272], [132.5477464, 33.4979725], [132.5477881, 33.498145], [132.5477675, 33.4983158], [132.5476748, 33.4984716], [132.5475544, 33.4985742], [132.5473036, 33.4987158], [132.5464657, 33.4989951], [132.5462662, 33.4990886], [132.5461072, 33.4992126], [132.5459743, 33.4993893], [132.5459064, 33.4995245], [132.5458777, 33.4996774], [132.5458587, 33.5003873], [132.5458816, 33.5006076], [132.5459516, 33.5007889], [132.5460535, 33.5009725], [132.5462614, 33.5012623], [132.5463422, 33.501433], [132.5463656, 33.50159], [132.5463519, 33.5017236], [132.546309, 33.5018571], [132.5448016, 33.5039595], [132.5443616, 33.5046013], [132.5442772, 33.5047802], [132.5442585, 33.504957], [132.5442893, 33.5051236], [132.5443858, 33.5052924], [132.5445226, 33.5054624], [132.5446648, 33.505648], [132.5448228, 33.5059075], [132.5449052, 33.5062816], [132.5449412, 33.5065548], [132.5450081, 33.506947], [132.5450678, 33.5073162], [132.5451003, 33.5074955], [132.5451631, 33.507694], [132.5452064, 33.5080545], [132.5454651, 33.5096428], [132.5454787, 33.5097063], [132.5455243, 33.5099472], [132.5454969, 33.5100842], [132.5454744, 33.5102064], [132.5454547, 33.510321], [132.5454311, 33.5104508], [132.5454283, 33.5106105], [132.5456056, 33.5122251], [132.5456455, 33.5123859], [132.5456758, 33.5124741], [132.5457723, 33.5126386], [132.5459619, 33.5129355], [132.5460583, 33.5130857], [132.5461614, 33.5132488], [132.5463512, 33.5135726], [132.5464856, 33.5138262], [132.5465814, 33.5140283], [132.5467992, 33.5144805], [132.5469623, 33.5148197], [132.5469975, 33.514893], [132.5471479, 33.5151956], [132.5473996, 33.5156975], [132.5474846, 33.515867], [132.5475374, 33.5159773], [132.5476671, 33.5162483], [132.5479807, 33.5169034], [132.54821, 33.5173127], [132.5484722, 33.5176782], [132.5486701, 33.5179008], [132.5488803, 33.5180772], [132.5491782, 33.5182932], [132.5497603, 33.5186477], [132.5501717, 33.5189234], [132.5506509, 33.5192101], [132.5510098, 33.5194246], [132.5513224, 33.5196114], [132.551595, 33.5197826], [132.5516728, 33.5198293], [132.5526505, 33.5204159], [132.5533232, 33.5208446], [132.5538923, 33.5211835], [132.5544441, 33.5215247], [132.5548204, 33.5217571], [132.5551763, 33.5219698], [132.555672, 33.5222692], [132.5562369, 33.5226244], [132.556378, 33.52271], [132.5570493, 33.5231345], [132.5576134, 33.5234911], [132.5582186, 33.5238932], [132.5588037, 33.5242691], [132.5590322, 33.52442], [132.5590928, 33.52446], [132.5591853, 33.5245194], [132.5595906, 33.5247887], [132.5599473, 33.5250269], [132.5600812, 33.5251354], [132.5604651, 33.5254465], [132.5605526, 33.5255422], [132.5608513, 33.5258692], [132.5612479, 33.5263395], [132.5613717, 33.5264863], [132.5616029, 33.5266949], [132.5618657, 33.5268805], [132.562175, 33.5270341], [132.5625319, 33.5271275], [132.5646772, 33.5274766], [132.5648773, 33.5274925], [132.5658448, 33.5276429], [132.56629, 33.5277268], [132.5665851, 33.527814], [132.566894, 33.5279351], [132.5672181, 33.5281036], [132.5678842, 33.528499], [132.568894, 33.5290977], [132.5698292, 33.5296573], [132.5699144, 33.5297083], [132.5706605, 33.530131], [132.5708864, 33.5302649], [132.5714541, 33.5305835], [132.5718732, 33.5308427], [132.5723096, 33.5311056], [132.5725883, 33.5312263], [132.5728603, 33.5313043], [132.5730344, 33.531345], [132.5735483, 33.5314297], [132.57378, 33.5314717], [132.5739557, 33.5315035], [132.5742008, 33.5315479], [132.5744993, 33.5316006], [132.5748252, 33.5316573], [132.5751266, 33.5317132], [132.5751762, 33.5317224], [132.5755718, 33.5317953], [132.5759485, 33.5318642], [132.5760403, 33.5318852], [132.5763423, 33.5319545], [132.5764168, 33.5319738], [132.5767962, 33.5320718], [132.5772505, 33.5322195], [132.5777094, 33.5323687], [132.5786203, 33.5326757], [132.5792085, 33.5328099], [132.5795324, 33.5328553], [132.5798118, 33.5328944], [132.580198, 33.5329413], [132.5805606, 33.5329854], [132.5817948, 33.5331353], [132.5836023, 33.53337], [132.5846208, 33.5334956], [132.5861771, 33.5336817], [132.5877469, 33.5338775], [132.5894342, 33.5340857], [132.5909403, 33.5342716], [132.5910838, 33.5342862], [132.5915399, 33.5343131], [132.5919489, 33.5342951], [132.5921078, 33.5342734], [132.5925845, 33.5341874], [132.5930174, 33.5341094], [132.5934715, 33.5340318], [132.594347, 33.5338823], [132.594627, 33.5338345], [132.5950307, 33.5338039], [132.5952539, 33.5338078], [132.5955712, 33.5338363], [132.5958709, 33.5338931], [132.5961747, 33.5339895], [132.5964903, 33.5340991], [132.5975463, 33.5345095], [132.5977262, 33.534608], [132.5981375, 33.5347714], [132.5987536, 33.5350161], [132.5991605, 33.5351746], [132.599831, 33.5354359], [132.6001216, 33.5355259], [132.6004487, 33.5355866], [132.6008364, 33.5356064], [132.6011649, 33.5355724], [132.6014514, 33.5355008], [132.6017595, 33.5353937], [132.6020767, 33.5352185], [132.6025704, 33.5348618], [132.6033616, 33.5342627], [132.6036017, 33.5341136], [132.6038463, 33.5340059], [132.6040175, 33.5339519], [132.6043567, 33.5339034], [132.604645, 33.5339005], [132.6048275, 33.5339224], [132.6050121, 33.5339556], [132.6052298, 33.5340234], [132.60595, 33.5342734], [132.6064356, 33.5344207], [132.6067009, 33.5344773], [132.6070844, 33.5345442], [132.6074895, 33.5345958], [132.6078648, 33.5346119], [132.6095843, 33.5345957], [132.6099371, 33.5345801], [132.6102768, 33.5345577], [132.6107381, 33.5345113], [132.6111816, 33.5344437], [132.6120198, 33.5342358], [132.6125133, 33.534133], [132.6130444, 33.534095], [132.6135565, 33.534129], [132.6140663, 33.5342335], [132.6146725, 33.5343677], [132.6148983, 33.5344208], [132.6152313, 33.5344775], [132.6155039, 33.5345086], [132.6158723, 33.5345104], [132.6163207, 33.5344616], [132.6167119, 33.5343919], [132.6171978, 33.5342504], [132.6175177, 33.534116], [132.6181835, 33.5337686], [132.6185081, 33.5335887], [132.6187964, 33.5334656], [132.6190821, 33.5333762], [132.6194692, 33.5333042], [132.6198291, 33.5332756], [132.6210428, 33.5332778], [132.6216994, 33.533236], [132.6221076, 33.5332252], [132.6225126, 33.5333057], [132.6231349, 33.5335025], [132.6238001, 33.5336814], [132.6240662, 33.5337353], [132.624594, 33.5338423], [132.625345, 33.533896], [132.6256732, 33.5338712], [132.6259673, 33.5338602], [132.6267827, 33.5338781], [132.6276711, 33.5340368], [132.6277198, 33.5340469], [132.6278372, 33.5340712], [132.6280272, 33.5341106], [132.6285637, 33.5343431], [132.6289143, 33.5346286], [132.6291645, 33.5348618], [132.6297795, 33.5353507], [132.6300781, 33.5355377], [132.6305993, 33.535818], [132.6309618, 33.5360073], [132.6327132, 33.5367862], [132.6328854, 33.5369096], [132.6334642, 33.5371629], [132.6337765, 33.5372782], [132.6340799, 33.5373777], [132.634328, 33.5374411], [132.6345592, 33.5374746], [132.6347711, 33.5374854], [132.635002, 33.5374824], [132.6352248, 33.5374593], [132.6357482, 33.537381], [132.6375941, 33.5370644], [132.6378832, 33.5370639], [132.6382311, 33.5370486], [132.6386567, 33.5370655], [132.6390389, 33.5371359], [132.6413481, 33.5377952], [132.6417285, 33.5378852], [132.6420628, 33.5379253], [132.6424341, 33.5379312], [132.6427505, 33.5378834], [132.6433336, 33.5377473], [132.643588, 33.5377241], [132.6438722, 33.5377251], [132.6441546, 33.537755], [132.6444245, 33.5378055], [132.6446818, 33.5378853], [132.6449707, 33.5380009], [132.645688, 33.5384589], [132.6465645, 33.5390191], [132.6467986, 33.5391735], [132.6470766, 33.5393429], [132.6473011, 33.5394796], [132.6480627, 33.5399431], [132.6484867, 33.5402009], [132.6488612, 33.5404416], [132.6491879, 33.5406679], [132.6493566, 33.5407733], [132.6495727, 33.5409446], [132.6497598, 33.5411357], [132.6498995, 33.5413158], [132.6499971, 33.5414715], [132.6500256, 33.5415227], [132.6501286, 33.5417039], [132.6502187, 33.5419447], [132.6502483, 33.5421141], [132.6502636, 33.5422627], [132.650228, 33.542618], [132.6501838, 33.5429374], [132.6500947, 33.5432358], [132.6500073, 33.5434831], [132.6497958, 33.5440544], [132.6496921, 33.5444418], [132.6496323, 33.5446472], [132.6495813, 33.544872], [132.6495457, 33.5451089], [132.6495136, 33.545395], [132.6495011, 33.5456744], [132.6495115, 33.54584], [132.6495487, 33.5463285], [132.6496007, 33.5466706], [132.6496845, 33.5471275], [132.6497481, 33.5473529], [132.6497853, 33.5474565], [132.6498495, 33.5476121], [132.6500337, 33.5479826], [132.6501222, 33.5481333], [132.6502152, 33.5482556], [132.6504, 33.5484789], [132.650592, 33.5487044], [132.6507814, 33.5488807], [132.6509287, 33.5489852], [132.650833, 33.5488608], [132.6507264, 33.5487187], [132.6504983, 33.5484153], [132.6502554, 33.5480806], [132.650165, 33.5479352], [132.6500334, 33.5476632], [132.6499603, 33.5475398], [132.6499007, 33.5473763], [132.64983, 33.5471131], [132.6497529, 33.546707], [132.6497452, 33.5466553], [132.6496777, 33.5463226], [132.649644, 33.5460826], [132.649641, 33.5458697], [132.6496337, 33.5457995], [132.6496388, 33.5456648], [132.6496414, 33.5453945], [132.6496683, 33.545114], [132.6497607, 33.5446667], [132.6498088, 33.5444886], [132.6499367, 33.544094], [132.6501952, 33.5434164], [132.6503089, 33.5430689], [132.6503466, 33.5426839], [132.650387, 33.5423781], [132.6503665, 33.5422179], [132.65035, 33.5420756], [132.6503071, 33.5419075], [132.6502255, 33.541702], [132.6501988, 33.5416211]], [[132.6327132, 33.5367862], [132.6329272, 33.5368227], [132.6335348, 33.5370821], [132.6337934, 33.5371922], [132.6340125, 33.5372694], [132.6342483, 33.5373324], [132.6344428, 33.5373683], [132.6346697, 33.5373889], [132.6348564, 33.537391], [132.6350969, 33.5373801], [132.6353223, 33.5373496], [132.6355632, 33.5373133], [132.63757, 33.5369504], [132.6380707, 33.5369096], [132.6384203, 33.5369062], [132.6387862, 33.5369469], [132.6392415, 33.5370452], [132.6412578, 33.5376455], [132.6415751, 33.5377399], [132.6418882, 33.5377941], [132.6421605, 33.5378246], [132.6424858, 33.537811], [132.6428557, 33.5377297], [132.6432176, 33.537645], [132.6434574, 33.5376179], [132.6435677, 33.5376083], [132.6436526, 33.5376009], [132.6438884, 33.5376043], [132.6442909, 33.5376382], [132.644608, 33.5377263], [132.6449169, 33.5378754], [132.645767, 33.5383901], [132.6472476, 33.5393116], [132.6481171, 33.539879], [132.648554, 33.5401492], [132.6489346, 33.5403924], [132.6492602, 33.5405996], [132.6494468, 33.5407291], [132.6496478, 33.54089], [132.649833, 33.5410803], [132.6499628, 33.5412414], [132.6500641, 33.5413918], [132.6501557, 33.5415477], [132.6501988, 33.5416211]], [[132.6509287, 33.5489852], [132.651137, 33.5491289], [132.6513359, 33.5492255], [132.6513651, 33.5492397], [132.6525588, 33.5497827], [132.6528333, 33.5498981], [132.6529932, 33.5499653], [132.6535615, 33.5502018], [132.653967, 33.5503773], [132.6546347, 33.5506717], [132.6548561, 33.5508387], [132.6550466, 33.5510387], [132.6551301, 33.5511478], [132.6552694, 33.551326], [132.6554593, 33.5516742], [132.656008, 33.5525225], [132.6563601, 33.5530737], [132.6565554, 33.5533712], [132.6568153, 33.5537745], [132.6569882, 33.5541242], [132.6570475, 33.5543154], [132.6570961, 33.5545331], [132.657143, 33.5547411], [132.6571017, 33.5549005], [132.6570737, 33.554977], [132.6570324, 33.5550483], [132.6569872, 33.5550994], [132.6569314, 33.5551478], [132.6568328, 33.5552045], [132.6567878, 33.5552546], [132.6567475, 33.5554712], [132.6569867, 33.5555858], [132.6571208, 33.5556767], [132.6572493, 33.5557292], [132.6573077, 33.5557454], [132.6573763, 33.5557554], [132.6574592, 33.5557616], [132.6575696, 33.5557613], [132.6576434, 33.5557503], [132.6576988, 33.5557197], [132.6576255, 33.5557208], [132.6575729, 33.5557079], [132.6575337, 33.5556917], [132.6575088, 33.5556687], [132.6574892, 33.5556327], [132.6574923, 33.5555866], [132.6575477, 33.5554024], [132.6575357, 33.5553436], [132.6575041, 33.5552919], [132.6574344, 33.5552421], [132.6573431, 33.5551704], [132.6572909, 33.5551128], [132.6572418, 33.5550153], [132.6571956, 33.5549257], [132.657152, 33.5548414]], [[132.6577607, 33.5556909], [132.6582197, 33.555465], [132.6583067, 33.5554385], [132.6584441, 33.5554051], [132.6585966, 33.5554405], [132.6587887, 33.5555197], [132.6591021, 33.5557438], [132.6594198, 33.5559827], [132.6601657, 33.5565391], [132.6610038, 33.5572195], [132.6614154, 33.5576057], [132.6618117, 33.5580232], [132.6622131, 33.5584122], [132.662416, 33.5585983], [132.6626202, 33.5589114], [132.6628289, 33.5593045], [132.6631214, 33.5596233], [132.6632936, 33.5597385], [132.6634762, 33.559842], [132.6637002, 33.5599702], [132.6638727, 33.5600284], [132.6640793, 33.5600748], [132.6642545, 33.5600812], [132.6644173, 33.5600618], [132.6645715, 33.560026], [132.6647345, 33.5599759], [132.6648113, 33.5599273], [132.6649048, 33.5598349], [132.665098, 33.5595864], [132.6654334, 33.559089], [132.6655976, 33.5587851], [132.6656596, 33.5585882], [132.6657099, 33.5582717], [132.6658255, 33.5576086], [132.6659221, 33.557294], [132.6660232, 33.5570784], [132.6661211, 33.5569073], [132.6662334, 33.5567414], [132.6666426, 33.5562815], [132.6668238, 33.5561382], [132.6670584, 33.5560068], [132.6681421, 33.5554979], [132.6685213, 33.5553736], [132.6689994, 33.555338], [132.6695292, 33.5552955], [132.6701729, 33.5552642], [132.6705323, 33.55529], [132.6708515, 33.5553436], [132.671176, 33.5554174], [132.6715891, 33.5555939], [132.6734814, 33.5564456], [132.6737225, 33.5565662], [132.6739611, 33.5567111], [132.6740916, 33.5568457], [132.6742056, 33.5569261], [132.6742928, 33.55702], [132.6744242, 33.5571888], [132.6745892, 33.5574313], [132.6750478, 33.558379], [132.6756661, 33.5593099], [132.6767352, 33.560853], [132.6771067, 33.5613838], [132.6772044, 33.5616307], [132.6772244, 33.5617893], [132.6771961, 33.5619544], [132.6771112, 33.5621464], [132.6768564, 33.5624147], [132.6762013, 33.5631607], [132.6760275, 33.5633056], [132.6759123, 33.5633802], [132.675211, 33.5635835], [132.6751122, 33.5636199], [132.6750774, 33.5636349], [132.6749298, 33.5637231], [132.6748393, 33.5638393], [132.674736, 33.5640818], [132.6746576, 33.5642662], [132.6746113, 33.5644094], [132.674447, 33.5649177], [132.6743987, 33.5652775], [132.6743974, 33.5657345], [132.6744585, 33.5661495], [132.6744718, 33.5662028], [132.6745201, 33.5663324], [132.6745522, 33.5664406], [132.6746371, 33.5666695], [132.6750953, 33.5679488], [132.6753758, 33.5684471], [132.6754694, 33.5685451], [132.6756271, 33.5686428], [132.6761483, 33.5688692], [132.6764804, 33.5689528], [132.6767796, 33.5689629], [132.6771031, 33.5689427], [132.6773285, 33.568905], [132.6777461, 33.5687776], [132.678114, 33.5686226], [132.6784133, 33.5684744], [132.6786738, 33.568315], [132.6804311, 33.5669783], [132.6806454, 33.5668065], [132.6808142, 33.5666217], [132.6810256, 33.5663752], [132.6813248, 33.565917], [132.681438, 33.5657656], [132.6814825, 33.565708], [132.6819906, 33.5652554], [132.6827034, 33.5650318], [132.6831074, 33.5649238], [132.6836286, 33.5648001], [132.6857856, 33.5641458], [132.6860275, 33.5640879], [132.6863523, 33.5640015], [132.6864761, 33.563934], [132.6865424, 33.5638903], [132.6868241, 33.5636839], [132.6869201, 33.5636126], [132.6871765, 33.563408], [132.6874689, 33.5631574], [132.6877389, 33.5629974], [132.6879726, 33.5628973], [132.6882254, 33.5628289], [132.6884283, 33.5628048], [132.6885741, 33.5628005], [132.6887877, 33.5628236], [132.6894702, 33.5629889], [132.6900317, 33.563149], [132.690409, 33.5632806], [132.6907142, 33.5634149], [132.6909499, 33.5635713], [132.6911268, 33.5637187], [132.6920619, 33.5645105], [132.6923298, 33.5647211], [132.6925724, 33.5648812], [132.6928703, 33.5650694], [132.6933306, 33.5652897], [132.6940686, 33.5655761], [132.694702, 33.565872], [132.695221, 33.5661671], [132.6954536, 33.5662964], [132.6958997, 33.5665187], [132.6967399, 33.566873], [132.6973744, 33.5670882], [132.6975631, 33.5671335], [132.697986, 33.5672145], [132.6980761, 33.5672281], [132.6986008, 33.567298], [132.699245, 33.5672956], [132.7003159, 33.5672926], [132.7006296, 33.5673198], [132.700938, 33.567383], [132.7011894, 33.5674746], [132.7013828, 33.5675809], [132.7022511, 33.568226], [132.7027805, 33.5686068], [132.70299, 33.5687366], [132.7032632, 33.5688739], [132.7035491, 33.5689817], [132.7038141, 33.5690719], [132.7041326, 33.5691224], [132.7045479, 33.5691542], [132.7051789, 33.5691772], [132.7054923, 33.5692193], [132.7057726, 33.5692804], [132.7059042, 33.569314], [132.7064036, 33.5694668], [132.7072327, 33.5697095], [132.7076405, 33.5697668], [132.7077532, 33.5697804], [132.707969, 33.569783], [132.7080196, 33.5697837], [132.7085607, 33.5697194], [132.7097717, 33.5695529], [132.7101552, 33.5695383], [132.7105214, 33.5696076], [132.7107909, 33.5697328], [132.7109572, 33.5698468], [132.7111785, 33.5700714], [132.7112751, 33.5701987], [132.7113301, 33.5702837], [132.7114145, 33.5704356], [132.7114394, 33.5704986], [132.7115098, 33.5707228], [132.7115259, 33.570867], [132.7115098, 33.571096], [132.7113783, 33.5718804], [132.7112764, 33.5725174], [132.7112228, 33.5728783], [132.7112067, 33.5730839], [132.7112161, 33.5732347], [132.7112268, 33.5734604], [132.7113274, 33.5737822], [132.711436, 33.5739767], [132.7114951, 33.5740514], [132.7116439, 33.5742392], [132.7119295, 33.5744683], [132.7122018, 33.5746259], [132.7125122, 33.5747337], [132.7128455, 33.5748002], [132.7131928, 33.5748125], [132.7135516, 33.5747784], [132.7138486, 33.574689], [132.7141155, 33.5745856], [132.7142885, 33.5745091], [132.7158713, 33.5735063], [132.716204, 33.5733358], [132.7162942, 33.5732835], [132.7167441, 33.5731235], [132.7173203, 33.5729803], [132.7183663, 33.5728161], [132.7191582, 33.5726858], [132.719509, 33.5726686], [132.7198099, 33.5726984], [132.7200298, 33.5727878], [132.7202873, 33.5729666], [132.7204965, 33.5731911], [132.7212381, 33.5740214], [132.7213481, 33.5741387], [132.7214795, 33.5742549], [132.721611, 33.5743588], [132.7217598, 33.5744482], [132.7218872, 33.5745152], [132.7220313, 33.574568], [132.7221729, 33.5746203], [132.7223352, 33.5746527], [132.7225728, 33.574686], [132.7226208, 33.5746884], [132.7228575, 33.5747041], [132.7233034, 33.5747443], [132.7236333, 33.5747711], [132.7238966, 33.5748016], [132.7240907, 33.5748292], [132.7243723, 33.5749007], [132.7247559, 33.5750706], [132.7255202, 33.5754904], [132.7256157, 33.5755488], [132.7259116, 33.5757159], [132.7260537, 33.5757849], [132.7262713, 33.5758823], [132.7265642, 33.5759982], [132.7268636, 33.5760799], [132.7272292, 33.5761562], [132.7276016, 33.5762104], [132.7280515, 33.5762525], [132.7284963, 33.5762273], [132.7289816, 33.5761683], [132.7293088, 33.5761477], [132.7296639, 33.5761557], [132.7303532, 33.5762136], [132.7306648, 33.5762357], [132.7309196, 33.5762887], [132.7311045, 33.5763283], [132.731423, 33.5764884], [132.7316454, 33.5766231], [132.7317978, 33.5767617], [132.731979, 33.5770106], [132.732257, 33.5774233], [132.7323783, 33.5775875], [132.7324945, 33.5776914], [132.7326765, 33.5778149], [132.7328274, 33.5778878], [132.7328737, 33.5779118], [132.7331011, 33.5779876], [132.7333429, 33.5780344], [132.7337128, 33.5780508], [132.734009, 33.5780307], [132.734216, 33.577993], [132.7343745, 33.5779472], [132.7345064, 33.577893], [132.7357102, 33.577454], [132.7360427, 33.5773769], [132.7362408, 33.5773589], [132.7364069, 33.5773568], [132.7365645, 33.577376], [132.7367562, 33.5774237], [132.7368857, 33.5774715], [132.7376437, 33.5778392], [132.7378383, 33.577909], [132.7380188, 33.5779546], [132.7382007, 33.577995], [132.7383648, 33.5779943], [132.7385732, 33.5779792], [132.738994, 33.5779049], [132.739601, 33.5778283], [132.7400932, 33.5777828], [132.7409027, 33.5777225], [132.7412983, 33.5777019], [132.7415769, 33.5777095], [132.7418065, 33.5777544], [132.742041, 33.5778269], [132.7427278, 33.5781093], [132.7430268, 33.5782358], [132.7443025, 33.5787927], [132.7445535, 33.5789282], [132.7448651, 33.5791324], [132.7450316, 33.5792608], [132.7454981, 33.5797138], [132.7456899, 33.579982], [132.7459579, 33.580332], [132.746218, 33.5805578], [132.7464985, 33.580765], [132.7468759, 33.5809652], [132.747424, 33.5812104], [132.7478608, 33.5814119], [132.7480386, 33.5815303], [132.7483123, 33.5817516], [132.7485419, 33.5819619], [132.7487119, 33.5821608], [132.7490135, 33.5824374], [132.7492701, 33.5826532], [132.7495286, 33.5828371], [132.7509344, 33.5837475], [132.7512501, 33.5839424], [132.7516032, 33.5841294], [132.7519737, 33.5842678], [132.7523254, 33.58434], [132.7526952, 33.5844101], [132.7530844, 33.58444], [132.7533716, 33.5844427], [132.7536051, 33.5844449], [132.7537675, 33.5844145], [132.7539786, 33.5843226], [132.7541045, 33.5842463], [132.7542459, 33.5841383], [132.7543793, 33.584021], [132.7545113, 33.5838216], [132.7547408, 33.5833764], [132.7551708, 33.5829419], [132.755452, 33.5827231], [132.7558698, 33.58247], [132.7562759, 33.5822388], [132.7567283, 33.582084], [132.7573576, 33.5818893], [132.7577785, 33.5818164], [132.7584346, 33.58177], [132.7587389, 33.5817411], [132.7591499, 33.581719], [132.7597272, 33.5816035], [132.7600648, 33.5814369], [132.7604288, 33.5812474], [132.7606197, 33.5810755], [132.7607889, 33.5808787], [132.7610753, 33.5804381], [132.7612204, 33.5802263], [132.7613285, 33.5801314], [132.7616875, 33.5798872], [132.7619704, 33.5797566], [132.7620705, 33.579732], [132.7622365, 33.5796853], [132.7622861, 33.579673], [132.7626528, 33.5796261], [132.7630969, 33.579583], [132.7631516, 33.579577], [132.763361, 33.579559], [132.763684, 33.5795461], [132.763933, 33.5795259], [132.76402, 33.579514], [132.7645881, 33.5794593], [132.7648112, 33.579386]], [[132.657143, 33.5547411], [132.657152, 33.5548414]], [[132.6576988, 33.5557197], [132.6577607, 33.5556909]], [[132.7648112, 33.579386], [132.7650387, 33.5792934], [132.7653167, 33.5791249], [132.7655593, 33.5789986], [132.7659483, 33.5787587], [132.7666523, 33.5782019], [132.7669229, 33.5778443], [132.7671402, 33.5773493], [132.7672484, 33.5770115], [132.767293, 33.5768723], [132.7673421, 33.5767372], [132.7674014, 33.5766516], [132.7675918, 33.5764636], [132.7679029, 33.5761335], [132.7680132, 33.5759913], [132.768099, 33.575884], [132.7681714, 33.5757566], [132.768335, 33.5752549], [132.7683875, 33.5750881], [132.7684799, 33.5748773], [132.7685496, 33.574732], [132.7686358, 33.5746186], [132.7686691, 33.5745758], [132.7687728, 33.5744802], [132.7689926, 33.5742893], [132.7691692, 33.5741912], [132.7693972, 33.5740817], [132.7696872, 33.5739911], [132.769888, 33.5739543], [132.7700568, 33.5739398], [132.770692, 33.5739405], [132.7712444, 33.573969], [132.7715322, 33.5740079], [132.7718843, 33.5740647], [132.7723346, 33.5741622], [132.7726676, 33.5742551], [132.7728494, 33.5743136], [132.7732469, 33.5744151], [132.7734469, 33.574455], [132.7736316, 33.5744773], [132.7738374, 33.5744977], [132.7740282, 33.5745052], [132.7743267, 33.5744829], [132.7747125, 33.5743877], [132.7750162, 33.5742766], [132.7752615, 33.5741587], [132.7754668, 33.5740549], [132.7757336, 33.5739031], [132.7759824, 33.5737286], [132.7762218, 33.5735364], [132.7763724, 33.5733817], [132.7765484, 33.573161], [132.7767734, 33.5728711], [132.7769536, 33.5726266], [132.7771316, 33.5724153], [132.7772976, 33.5722651], [132.777518, 33.5721142], [132.7777558, 33.5720063], [132.7782067, 33.5718244], [132.7788221, 33.571591], [132.7796091, 33.5713681], [132.7800076, 33.5712108], [132.7802809, 33.5710822], [132.78056, 33.5709203], [132.7811633, 33.5705624], [132.7816262, 33.5703152], [132.7818684, 33.5702108], [132.7820403, 33.5701622], [132.7822218, 33.5701264], [132.7824089, 33.5701063], [132.7827003, 33.5700947], [132.7832834, 33.5700994], [132.7836088, 33.5701143], [132.7838806, 33.5701469], [132.784173, 33.5702108], [132.7844426, 33.570284], [132.7848363, 33.5703949], [132.7852479, 33.5705346], [132.7856289, 33.57069], [132.7858707, 33.5707436], [132.7860886, 33.5707586], [132.7862806, 33.5707535], [132.7865362, 33.5707197], [132.7866887, 33.5706679], [132.7867917, 33.570637], [132.7869644, 33.5705614], [132.787172, 33.5704663], [132.7872374, 33.5704191], [132.7876919, 33.5701349], [132.7880948, 33.5698676], [132.7882745, 33.5697229], [132.7884302, 33.5695696], [132.788569, 33.5693739], [132.7889769, 33.5687535], [132.7890799, 33.5686053], [132.7892327, 33.5683582], [132.7893697, 33.5681568], [132.789491, 33.5680032], [132.7895929, 33.5679125], [132.7896929, 33.5678406], [132.7898195, 33.5677616], [132.7899389, 33.5676968], [132.7900502, 33.5676622], [132.7902146, 33.5676181], [132.7903418, 33.5676027], [132.7906835, 33.5675772], [132.7908229, 33.5675714], [132.7910346, 33.5675627], [132.7918755, 33.5675247], [132.7926437, 33.5674818], [132.7929768, 33.5674741], [132.7932331, 33.5674611], [132.7933477, 33.5674576], [132.7937507, 33.5674443], [132.7940859, 33.5674361], [132.7942139, 33.5674501], [132.7943848, 33.5674922], [132.7945376, 33.5675464], [132.7946254, 33.5675951], [132.7947082, 33.5676483], [132.7947971, 33.5677178], [132.7950249, 33.567957], [132.7952139, 33.5681802], [132.7953484, 33.5683078], [132.7955283, 33.5684399], [132.7959671, 33.56862], [132.7968188, 33.5689422], [132.79705, 33.5690026], [132.7972072, 33.5690276], [132.7973758, 33.5690379], [132.7975375, 33.5690253], [132.7976924, 33.5690026], [132.7978188, 33.5689638], [132.7979511, 33.5689243], [132.7981726, 33.5688264], [132.7985592, 33.5686438], [132.7989446, 33.5685039], [132.7991131, 33.5684728], [132.7992164, 33.5684581], [132.7993456, 33.5684587], [132.7994958, 33.5684744], [132.7999274, 33.5685848], [132.8000594, 33.5686323], [132.8002445, 33.5686948], [132.8011097, 33.5689765], [132.801144, 33.568986], [132.8015619, 33.5691508], [132.8016555, 33.5692002], [132.8017484, 33.5692588], [132.8018558, 33.5693536], [132.8019825, 33.5694868], [132.8021083, 33.5696211], [132.8028545, 33.5704685], [132.8030406, 33.5706614], [132.8031863, 33.5707669], [132.8035298, 33.5709548], [132.8039524, 33.5711667], [132.8041756, 33.5712771], [132.8044034, 33.5713762], [132.8045606, 33.5714298], [132.8047178, 33.5714742], [132.8048522, 33.5715027], [132.8050299, 33.57153], [132.8051529, 33.5715403], [132.8052978, 33.5715487], [132.8057445, 33.5715621], [132.8059497, 33.5715702], [132.806254, 33.5716056], [132.8063773, 33.5716348], [132.8064875, 33.5716701], [132.8068665, 33.5718627], [132.8080181, 33.5727122], [132.8081001, 33.5727805], [132.8081631, 33.5728418], [132.808305, 33.5729872], [132.8084286, 33.5731474], [132.8085539, 33.5733479], [132.8086433, 33.5735091], [132.808702, 33.5736816], [132.8087589, 33.57389], [132.8087943, 33.5740779], [132.8088102, 33.5742944], [132.8088022, 33.5745187], [132.8087794, 33.5746896], [132.8087248, 33.5748821], [132.8086712, 33.5750324], [132.8086029, 33.5751862], [132.8084708, 33.5754208], [132.808202, 33.5758502], [132.8080061, 33.5761783], [132.8078307, 33.576455], [132.807694, 33.5767375], [132.8076359, 33.5769277], [132.8075812, 33.5771578], [132.8075596, 33.5772831], [132.8075596, 33.5774095], [132.8075869, 33.5774858], [132.8076425, 33.5775836], [132.8078489, 33.5777751], [132.807973, 33.5779198], [132.8080368, 33.5780508], [132.808079, 33.5781795], [132.8080915, 33.5783184], [132.8080945, 33.5784864], [132.8080573, 33.5786089], [132.8079844, 33.578741], [132.8078603, 33.5788526], [132.8076974, 33.5790246], [132.8075801, 33.5791101], [132.8074172, 33.5791989], [132.8073375, 33.5792604], [132.8072782, 33.5793333], [132.8072291, 33.5794142], [132.8072065, 33.5795565], [132.8071883, 33.5797525], [132.8071632, 33.5800076], [132.8071336, 33.5800964], [132.8070846, 33.5801705], [132.8070368, 33.5802206], [132.8069525, 33.5803128], [132.8067794, 33.5804529], [132.8067497, 33.5805087], [132.8067258, 33.5805623], [132.8066951, 33.5806705], [132.8066712, 33.58074], [132.8065573, 33.5809883], [132.8065333, 33.5810726], [132.8065208, 33.5811409], [132.8065197, 33.5812001], [132.8065311, 33.5812514], [132.806555, 33.5813163], [132.8066507, 33.5814849], [132.8066825, 33.5815578], [132.8067024, 33.5816398], [132.8067174, 33.5818592], [132.8067701, 33.5820849], [132.8069582, 33.5823043], [132.8071725, 33.5824582], [132.8073614, 33.5825179], [132.8076253, 33.5825431], [132.8079479, 33.5825921], [132.8081872, 33.5826774], [132.8083648, 33.5827788], [132.8085015, 33.5829701], [132.808612, 33.5831979], [132.8086405, 33.5833893], [132.8086223, 33.5835225], [132.8084993, 33.5837936], [132.8085015, 33.583887], [132.8085243, 33.5839804], [132.8086268, 33.5840989], [132.8087498, 33.5842082], [132.808841, 33.5843312], [132.8090577, 33.5847554], [132.8091185, 33.5847933], [132.8092082, 33.5848244], [132.8093751, 33.5848586], [132.8095073, 33.5848973], [132.8096326, 33.5849508], [132.8097328, 33.5850169], [132.8098604, 33.5851308], [132.8099227, 33.5852592], [132.8099983, 33.5853384], [132.8105627, 33.5856518], [132.8108784, 33.5858691], [132.8110085, 33.5859778], [132.811088, 33.5860847], [132.8111423, 33.5862051], [132.8111708, 33.5863154], [132.8111647, 33.5864378], [132.8110809, 33.5867577], [132.8109446, 33.5871085], [132.8109217, 33.5872264], [132.8109025, 33.5873496], [132.8108946, 33.587566], [132.8108968, 33.5879362], [132.8109173, 33.5884647], [132.8109413, 33.5886537], [132.8109959, 33.5888314], [132.8110586, 33.5889989], [132.8111975, 33.5893383], [132.8112442, 33.5895091], [132.811275, 33.5896788], [132.8112613, 33.5899249], [132.8112887, 33.5901743], [132.8113729, 33.5903873], [132.8114151, 33.5905673], [132.8114276, 33.5907199], [132.8114436, 33.59077], [132.8114675, 33.590819], [132.8115267, 33.5908623], [132.8116771, 33.5909796], [132.8117366, 33.5910491], [132.8118001, 33.5911527], [132.8118627, 33.591229], [132.8119548, 33.5912998], [132.8123024, 33.5914941], [132.8124815, 33.5916195], [132.8126308, 33.5917425], [132.8128862, 33.5919165], [132.8130233, 33.5920269], [132.8131346, 33.5921493], [132.8132114, 33.5922651], [132.8133365, 33.5924339], [132.8134673, 33.5925472], [132.8136629, 33.5926537], [132.814295, 33.5928105], [132.8144803, 33.5928295], [132.8146253, 33.5928349], [132.8149756, 33.5927981], [132.8151228, 33.5928105], [132.8152491, 33.5928543], [132.8153119, 33.5929309], [132.8154012, 33.5931301], [132.8154639, 33.5931927], [132.8156489, 33.5932859], [132.8157434, 33.5933264], [132.8158301, 33.5934122], [132.8159456, 33.5934637], [132.8163268, 33.5935501], [132.8165068, 33.5936088], [132.8166278, 33.5936629], [132.8167237, 33.5937019], [132.8170099, 33.5937587], [132.8171461, 33.5937554], [132.8172535, 33.5937632], [132.8174083, 33.5938138], [132.8175265, 33.5939214], [132.8176879, 33.59407], [132.8180916, 33.5946168], [132.8182719, 33.5947708], [132.818443, 33.5949103], [132.8185796, 33.5949777], [132.818786, 33.5950106], [132.8189939, 33.5950984], [132.8191614, 33.5952298], [132.8197998, 33.5956382], [132.8199929, 33.5957138], [132.8201637, 33.5957883], [132.8203023, 33.5959024], [132.8205192, 33.5961248], [132.8205963, 33.5962179], [132.8207331, 33.5963229], [132.8208298, 33.5963839], [132.8210456, 33.5964401], [132.821198, 33.5964536], [132.8219089, 33.5965727], [132.8221586, 33.5966403], [132.8224695, 33.5968493], [132.823182, 33.5973485], [132.8234656, 33.5975232], [132.8244082, 33.5979558], [132.8245066, 33.5980099], [132.8246419, 33.5980505], [132.8249837, 33.598065], [132.8251675, 33.5980806], [132.8253175, 33.5980909], [132.825604, 33.5981554], [132.8259738, 33.5983012], [132.8261255, 33.5983556], [132.8262504, 33.5984055], [132.8265306, 33.5985645], [132.8266969, 33.5986895], [132.8270498, 33.5989343], [132.8275314, 33.5990659], [132.8278324, 33.5991537], [132.8279679, 33.5992351], [132.8282087, 33.5992915], [132.8285925, 33.5993354], [132.8290515, 33.599348], [132.8293125, 33.5993384], [132.829513, 33.5993077], [132.829629, 33.5992646], [132.8297089, 33.5992122], [132.8298471, 33.5991039], [132.8299301, 33.5990641], [132.8300181, 33.5990343], [132.8300758, 33.5990181], [132.8301462, 33.5990097], [132.8302055, 33.5989997], [132.8302793, 33.5989686], [132.8303292, 33.5989309], [132.8303786, 33.5988971], [132.8304759, 33.5987273], [132.8305673, 33.5985148], [132.8306236, 33.5983346], [132.8306543, 33.5982887], [132.8307097, 33.5982551], [132.8308209, 33.5982561], [132.8309591, 33.5983412], [132.8310947, 33.5984713], [132.8312328, 33.5986187], [132.8313209, 33.5986587], [132.8313754, 33.5986558], [132.8314458, 33.598635], [132.8314784, 33.5985504], [132.8314805, 33.5985], [132.8314336, 33.598439], [132.8313505, 33.598341], [132.8312341, 33.5981863], [132.8307522, 33.5978357], [132.8306911, 33.5978039], [132.83063, 33.5978142], [132.830542, 33.5978246], [132.8304449, 33.5978772], [132.8302944, 33.5980038], [132.8301031, 33.5981195], [132.8299249, 33.5981776], [132.8297967, 33.5982126], [132.8295051, 33.5982083], [132.8293236, 33.5982225], [132.8291106, 33.5982674], [132.8289785, 33.5983343], [132.8288773, 33.5983551], [132.8288164, 33.5983285], [132.8287817, 33.5982673], [132.8287782, 33.5982095], [132.8288096, 33.598156], [132.8288567, 33.5981229], [132.8289741, 33.5980891], [132.8292697, 33.5981195], [132.8296535, 33.5980693], [132.8299951, 33.598004], [132.8302031, 33.5979678], [132.830335, 33.5979039], [132.8304385, 33.5978298], [132.8305038, 33.5977559], [132.8306269, 33.5975797], [132.8307521, 33.5974739], [132.8308174, 33.5974124], [132.8309085, 33.5973728], [132.8310678, 33.5973785], [132.8312087, 33.5974228], [132.8312879, 33.5975012], [132.8312977, 33.5975573], [132.8313014, 33.5976243], [132.8312753, 33.5977893], [132.8312957, 33.5978763], [132.8313464, 33.5979367], [132.8314758, 33.5980367], [132.8317692, 33.5981801], [132.8319478, 33.5982299], [132.8324523, 33.5983564], [132.8326601, 33.5984351], [132.8328591, 33.5984893], [132.8329416, 33.5984799], [132.8330145, 33.5984478], [132.8331404, 33.5984282], [132.833217, 33.598423], [132.8332976, 33.5984507], [132.8333578, 33.5985178], [132.8334162, 33.5985485], [132.8334882, 33.5985782], [132.8335966, 33.5985896], [132.8337449, 33.5985696], [132.8338553, 33.5985443], [132.8342018, 33.5984014], [132.8344385, 33.5983161], [132.8345662, 33.5982644], [132.8346228, 33.5982626], [132.8346663, 33.5982764], [132.834695, 33.5983042], [132.8347118, 33.5983351], [132.8346956, 33.5985142], [132.8346802, 33.5986209], [132.8346993, 33.5987337], [132.8347408, 33.5988179], [132.8348609, 33.5988938], [132.8350885, 33.5990076], [132.8353785, 33.599099], [132.8355258, 33.5991944], [132.8358014, 33.5994294], [132.836155, 33.599818], [132.8364244, 33.6001502], [132.8364374, 33.6002248], [132.8364386, 33.6002527], [132.836425, 33.6003304], [132.8363806, 33.6003803], [132.8363055, 33.6004135], [132.8361229, 33.6004186], [132.8359002, 33.6003596], [132.8357186, 33.600263], [132.8355027, 33.6001596], [132.8353689, 33.6001287], [132.835246, 33.6000613], [132.8351073, 33.5999768], [132.83501, 33.5999423], [132.8348218, 33.5999107], [132.8347387, 33.5999009], [132.8346252, 33.5999127], [132.8345669, 33.5999371], [132.8345069, 33.5999783], [132.8343889, 33.6002301], [132.8343371, 33.6002941], [132.8342512, 33.6003282], [132.8336066, 33.6004067], [132.8334675, 33.6004165], [132.8333162, 33.6004135], [132.8332066, 33.6003924], [132.8330852, 33.6003873], [132.8330058, 33.6004027], [132.8329041, 33.6004661], [132.8327914, 33.6006086], [132.8327015, 33.600689], [132.8326445, 33.6007359], [132.8325379, 33.6007545], [132.8324151, 33.6007457], [132.8321236, 33.6007078], [132.8319789, 33.6006683], [132.8318491, 33.6006097], [132.831747, 33.6005372], [132.8316777, 33.6005138], [132.831556, 33.600491], [132.8314678, 33.6005159], [132.8312998, 33.60062], [132.8311039, 33.6007206], [132.8310155, 33.6008585], [132.830952, 33.6009959], [132.8309487, 33.6011275], [132.8309306, 33.6012775], [132.8309303, 33.6012955], [132.8309026, 33.6013725], [132.8309126, 33.601484], [132.8309492, 33.6015197], [132.8309892, 33.601515], [132.8310405, 33.6014926], [132.8310493, 33.6014547], [132.8310305, 33.6013682], [132.8310164, 33.6012758], [132.8310348, 33.6011839], [132.8310679, 33.6010701], [132.8311165, 33.6009832], [132.831217, 33.600908], [132.8313692, 33.6008271], [132.831453, 33.6008011], [132.8316546, 33.6007515], [132.8317565, 33.6007582], [132.831954, 33.6008149], [132.8321584, 33.600921], [132.8323019, 33.6009528], [132.83264, 33.6010768], [132.8328666, 33.6012095], [132.8330124, 33.6012748], [132.8331977, 33.6013098], [132.8333031, 33.6013223], [132.8333489, 33.6013081], [132.8333716, 33.6012857], [132.8333934, 33.601222], [132.8333758, 33.6011512], [132.8334056, 33.6010595], [132.8334929, 33.6009901], [132.8335683, 33.600946], [132.8336763, 33.6008961], [132.8338223, 33.6008961], [132.8338851, 33.6009098], [132.8340533, 33.6010171], [132.8342557, 33.6010891], [132.8343415, 33.601128], [132.8344234, 33.6011477], [132.8345447, 33.6011342], [132.8348335, 33.6010396], [132.8349446, 33.6010102], [132.835059, 33.600996], [132.8352148, 33.6010357], [132.8355606, 33.6012032], [132.8358163, 33.6014439], [132.835985, 33.6015641], [132.8360937, 33.6016352], [132.8361543, 33.6016599], [132.8362412, 33.601653], [132.8363183, 33.6016197], [132.8366034, 33.6013926], [132.836725, 33.601329], [132.8367784, 33.601318], [132.8368196, 33.6013209], [132.8368683, 33.601344], [132.8370054, 33.60155], [132.8370276, 33.6016442], [132.8370709, 33.6017194], [132.8371535, 33.6018099], [132.8372443, 33.6018852], [132.8372785, 33.6019072], [132.8373192, 33.6019201], [132.8373682, 33.6018992], [132.8374071, 33.6018502], [132.8374344, 33.6017921], [132.8374889, 33.6017058], [132.8376742, 33.6015887], [132.8377856, 33.6015317], [132.8380324, 33.6014345], [132.8384095, 33.6013286], [132.8387486, 33.6012548], [132.8390082, 33.6011976], [132.8392308, 33.6011789], [132.8396679, 33.6012015], [132.8399357, 33.6011993], [132.8401976, 33.6011704], [132.8407626, 33.6010477], [132.8412814, 33.6009047], [132.8414844, 33.6008544], [132.8417022, 33.6008112], [132.8421442, 33.6007959], [132.8439487, 33.6011], [132.8452262, 33.601275], [132.8459449, 33.6013797], [132.8465426, 33.6014708], [132.8480165, 33.6017098], [132.8496153, 33.6023637], [132.8497124, 33.6024495], [132.8501813, 33.602911], [132.8502214, 33.6029346], [132.8506973, 33.6032649], [132.850895, 33.6033503], [132.8513743, 33.6035608], [132.8537386, 33.6042691], [132.8550728, 33.604791], [132.8555783, 33.6049423], [132.8563886, 33.6050826], [132.8569605, 33.6051594], [132.8577021, 33.6053233], [132.8579477, 33.6053633], [132.8582595, 33.6053904], [132.8585085, 33.6053896], [132.8588206, 33.605345], [132.8588795, 33.605333], [132.85952, 33.6049764], [132.8596664, 33.6049227], [132.8598353, 33.6048629], [132.86006, 33.6048442], [132.8603147, 33.6048564], [132.8605129, 33.6049265], [132.8610376, 33.6052161], [132.861313, 33.605362], [132.8615966, 33.6054357], [132.861819, 33.6054669], [132.862349, 33.6054278], [132.86286, 33.6053805], [132.8632141, 33.6054181], [132.8635926, 33.6055317], [132.8640883, 33.6058893], [132.8645083, 33.6062224], [132.8648652, 33.6065625], [132.8650804, 33.606976], [132.8652017, 33.6072433], [132.8653686, 33.607491], [132.8655503, 33.6076464], [132.8656688, 33.6077369], [132.8658347, 33.6078047], [132.8659187, 33.6078186], [132.8662886, 33.6078404], [132.8664974, 33.6078275], [132.8667275, 33.6078238], [132.8669395, 33.607827], [132.8670886, 33.607853], [132.8672887, 33.6078941], [132.8682446, 33.6082175], [132.8687805, 33.6083896], [132.8689049, 33.6084336], [132.8694762, 33.6086555], [132.8701473, 33.6089453], [132.8706056, 33.6091846], [132.8708669, 33.6094122], [132.8712655, 33.6098142], [132.8715141, 33.6100028], [132.8717625, 33.6101036], [132.8720545, 33.6101971], [132.8728267, 33.6104374], [132.8730624, 33.6104945], [132.873172, 33.6105148], [132.873259, 33.6105261], [132.8738471, 33.6105745], [132.8741789, 33.6106426], [132.8744984, 33.610774], [132.8749502, 33.6110174], [132.8753503, 33.6112329], [132.8755922, 33.6114091], [132.875701, 33.611525], [132.8760633, 33.6118886], [132.8763329, 33.6121557], [132.8764569, 33.6122497], [132.8765849, 33.6123242], [132.8766552, 33.6123604], [132.8770602, 33.6125688], [132.8772669, 33.6126458], [132.8774118, 33.6126729], [132.8775419, 33.6126972], [132.8777539, 33.6127126], [132.8780162, 33.6127274], [132.8781153, 33.6127443], [132.8782162, 33.61275], [132.8783619, 33.612768], [132.8785479, 33.6128171], [132.8787098, 33.6128784], [132.8788277, 33.6129295], [132.8793729, 33.6131688], [132.8795276, 33.6132336], [132.8797383, 33.6132872], [132.8799366, 33.6132999], [132.8801175, 33.6132962], [132.880324, 33.6132657], [132.8811334, 33.613113], [132.8811857, 33.6131063], [132.8825273, 33.6128676], [132.8827724, 33.6127963], [132.8829552, 33.6127095], [132.8831198, 33.6126046], [132.883951, 33.6119891], [132.884128, 33.6118805], [132.8843098, 33.6117894], [132.8844802, 33.61173], [132.8846635, 33.6116923], [132.8848236, 33.6116859], [132.8851707, 33.6116934], [132.8853891, 33.6117018], [132.8855851, 33.6117073], [132.8857124, 33.6117276], [132.8858547, 33.6117545], [132.8860388, 33.6118145], [132.8862874, 33.6119245], [132.886563, 33.6121057], [132.8867499, 33.6122255], [132.887272, 33.6125429], [132.8876491, 33.6128033], [132.8880228, 33.6131046], [132.888311, 33.6133545], [132.8885283, 33.6135284], [132.8887791, 33.613729], [132.8888856, 33.6137962], [132.8889857, 33.613845], [132.8891283, 33.6139224], [132.8893078, 33.6139926], [132.8894636, 33.6140374], [132.889599, 33.6140735], [132.8897479, 33.6141078], [132.8898914, 33.614129], [132.8900597, 33.6141424], [132.8902707, 33.6141506], [132.890448, 33.614148], [132.890667, 33.6141273], [132.8913093, 33.6140455], [132.8915597, 33.6140318], [132.891808, 33.6140377], [132.8920317, 33.6140727], [132.8922209, 33.6141268], [132.8923986, 33.6141921], [132.8925293, 33.6142514], [132.8927111, 33.6143633], [132.8928607, 33.6144844], [132.8930242, 33.6146539], [132.893187, 33.6148507], [132.8935407, 33.6152751], [132.8935855, 33.6153306], [132.8936524, 33.6154119], [132.8938457, 33.6156502], [132.8939666, 33.6157753], [132.8940908, 33.6158975], [132.8942347, 33.6159927], [132.8943741, 33.6160799], [132.8946378, 33.6162117], [132.8948584, 33.6163048], [132.8949886, 33.6163339], [132.8952034, 33.6163666], [132.8953913, 33.6163674], [132.8955917, 33.6163442], [132.8958338, 33.6162845], [132.8962107, 33.616184], [132.896941, 33.6159802], [132.8997526, 33.6152102], [132.9000945, 33.6151096], [132.9005156, 33.6149912], [132.900709, 33.6149483], [132.9009047, 33.6149276], [132.9010816, 33.6149309], [132.9012475, 33.6149466], [132.9013761, 33.6149708], [132.9015072, 33.6150109], [132.9016382, 33.6150537], [132.901764, 33.6151274], [132.9018989, 33.6152119], [132.9020067, 33.6152859], [132.9021514, 33.615432], [132.9022067, 33.615521], [132.9022879, 33.6156656], [132.9023526, 33.6158203], [132.9024881, 33.6162693], [132.9025734, 33.6165473], [132.9027518, 33.6170665], [132.9029299, 33.617641], [132.9030512, 33.6179886], [132.9031418, 33.6181521], [132.9032185, 33.6182656], [132.9033168, 33.6183858], [132.903482, 33.6185352], [132.9036315, 33.6186563], [132.9037771, 33.6187372], [132.9039535, 33.6188121], [132.9041321, 33.6188741], [132.904346, 33.6189155], [132.9045491, 33.618929], [132.9047142, 33.6189324], [132.9048969, 33.6189195], [132.9057883, 33.6188601], [132.9061557, 33.6188474], [132.9063774, 33.6188408], [132.9065664, 33.6188502], [132.9068285, 33.6188888], [132.9070686, 33.6189415], [132.9074677, 33.6190354], [132.907754, 33.619094], [132.9079454, 33.6191357], [132.9081216, 33.6191503], [132.9083138, 33.619164], [132.9084702, 33.6191563], [132.9086177, 33.6191366], [132.908935, 33.6190808], [132.9091476, 33.6190373], [132.909324, 33.6190196], [132.9095501, 33.619014], [132.9098658, 33.6190173], [132.9101517, 33.6190173], [132.9103503, 33.6190062], [132.9105493, 33.6189897], [132.9108877, 33.6189626], [132.9112472, 33.6189257], [132.9116104, 33.6188913], [132.9117894, 33.6188663], [132.9119866, 33.6188322], [132.9121793, 33.6187744], [132.9124431, 33.618662], [132.9126275, 33.6185444], [132.9129345, 33.6183515], [132.912995, 33.6183162], [132.9135847, 33.617934], [132.9141358, 33.6175711], [132.9144781, 33.61736], [132.9147502, 33.6171968], [132.9151001, 33.616969], [132.915292, 33.6168556], [132.9154155, 33.6167999], [132.9155494, 33.6167578], [132.915699, 33.6167272], [132.915957, 33.6167229], [132.9161605, 33.6167541], [132.916327, 33.6168088], [132.9164897, 33.6168773], [132.9166968, 33.6170088], [132.917309, 33.6174114], [132.9179464, 33.6178247], [132.9183532, 33.6180699], [132.9188036, 33.6182883], [132.9194957, 33.6185624], [132.9204275, 33.6189338]]]}, "id": "relation/1061406"}]}