{"type": "FeatureCollection", "generator": "kokudo-quiz tools/fetch_raw.py (Overpass API)", "copyright": "The data included in this document is from www.openstreetmap.org. The data is made available under ODbL.", "timestamp": "2026-09-30T23:38:46Z", "features": [{"type": "Feature", "properties": {"@id": "relation/6653406", "colour": "red", "from": "北海道釧路市", "name": "国道392号", "name:en": "National Highway Route 392", "name:ja": "国道392号", "name:ja-Hira": "こくどうさんびゃくきゅうじゅうにごう", "name:ja-Latn": "Kokudo 392 Gou", "network": "JP:national", "operator": "北海道開発局", "ref": "392", "route": "road", "to": "北海道中川郡本別町", "type": "route", "wikidata": "Q6157424", "wikipedia": "ja:国道392号"}, "geometry": {"type": "MultiLineString", "coordinates": [[[143.6052373, 43.1172604], [143.6073089, 43.1158437], [143.610167, 43.1140063], [143.6106248, 43.1136387], [143.6108936, 43.1132803], [143.6110572, 43.1129378], [143.6111337, 43.1125652], [143.6111459, 43.1122079], [143.6110551, 43.1118308], [143.6108785, 43.1114764], [143.610618, 43.1111231], [143.6100447, 43.1106892], [143.6086926, 43.1095966], [143.6082187, 43.1090837], [143.6079341, 43.1086313], [143.6076533, 43.1079464], [143.6073851, 43.1074986], [143.6070551, 43.1071444], [143.6067486, 43.106923], [143.6058916, 43.1064489], [143.6052094, 43.1060423], [143.6049545, 43.1058307], [143.6048106, 43.105626], [143.6046417, 43.1052372], [143.6045897, 43.1049209], [143.6046298, 43.1047245], [143.6046857, 43.1045655], [143.60478, 43.1043772], [143.6049165, 43.1042017], [143.6050873, 43.1040339], [143.6052627, 43.1038985], [143.6054342, 43.1037997], [143.6056457, 43.1037119], [143.6059404, 43.10362], [143.6061624, 43.1035798], [143.6063741, 43.1035528], [143.6065712, 43.1035369], [143.6067618, 43.1035444], [143.6069468, 43.1035693], [143.6071102, 43.1035956], [143.6073047, 43.1036358], [143.6079332, 43.1038085], [143.6086804, 43.1040468], [143.609575, 43.1043213], [143.6106297, 43.1046236], [143.6112385, 43.1047945], [143.6123681, 43.1051471]], [[143.660951, 43.1201497], [143.660875, 43.1201159], [143.6559697, 43.1179362], [143.6554715, 43.1177052], [143.6550306, 43.1174792], [143.6544418, 43.1171069], [143.650834, 43.1147927], [143.6497935, 43.1141304], [143.6493896, 43.1139019], [143.6489789, 43.1137225], [143.6487639, 43.1136498], [143.6487164, 43.1136316], [143.6439358, 43.1125303], [143.6422363, 43.1121388], [143.6390027, 43.1113682], [143.6357195, 43.110635], [143.6354571, 43.1105763], [143.629207, 43.109147], [143.6226798, 43.107643], [143.6226419, 43.1076344], [143.6212657, 43.1073137], [143.6197973, 43.1069715], [143.6195111, 43.1069048], [143.6166936, 43.1062738], [143.616151, 43.1061529], [143.6141776, 43.1056837], [143.6135905, 43.1055191], [143.6123681, 43.1051471]], [[143.660951, 43.1201497], [143.6613822, 43.1203509], [143.6652291, 43.122051], [143.6656565, 43.1222505], [143.666385, 43.1225753], [143.6666471, 43.1226922], [143.6679479, 43.1232722], [143.6696292, 43.1239944], [143.6702067, 43.1241701], [143.6714551, 43.1244785], [143.6729474, 43.1248001], [143.673684, 43.1249966], [143.6743844, 43.1252172], [143.6749503, 43.1254183], [143.6769034, 43.1261983], [143.6771411, 43.1263046], [143.6777537, 43.1266579], [143.6778258, 43.1266997], [143.6781089, 43.1268812], [143.679408, 43.1277434], [143.6828149, 43.1299891], [143.6848582, 43.131302], [143.6853291, 43.1317072], [143.6859423, 43.1323654], [143.6879323, 43.1345118], [143.6891649, 43.1358851], [143.689641, 43.1363527], [143.6899078, 43.1365924], [143.690242, 43.1368245], [143.6911468, 43.1373499], [143.6918436, 43.13776], [143.6956504, 43.1399508], [143.6960955, 43.1403206], [143.6963745, 43.1406039], [143.696917, 43.141211], [143.6969867, 43.1413009], [143.697288, 43.1416649], [143.6977103, 43.1420958], [143.6980575, 43.1423349], [143.6985249, 43.14256], [143.702822, 43.1442828], [143.7034676, 43.1445031], [143.7042819, 43.1447288], [143.7082743, 43.1454118], [143.7088308, 43.1455026], [143.7093527, 43.145637], [143.7095999, 43.1457165], [143.709849, 43.1458168], [143.7102816, 43.1460171], [143.710627, 43.1462193], [143.7108437, 43.1463727], [143.7118014, 43.1471374], [143.7122488, 43.1474793], [143.7124518, 43.1475817], [143.7126366, 43.1476771], [143.7129321, 43.1477806], [143.7131319, 43.1478523], [143.7136174, 43.1479631], [143.7140016, 43.1480027], [143.7159801, 43.1479154], [143.718102, 43.1477746], [143.7185307, 43.1477051], [143.7193608, 43.1475703], [143.7199496, 43.1474309], [143.7206008, 43.1472208], [143.7215561, 43.1468562], [143.7223396, 43.1464605], [143.724209, 43.1455058], [143.7246391, 43.1453736], [143.7251904, 43.1453864], [143.7258163, 43.1454448], [143.7264756, 43.1455399], [143.7273445, 43.1459801], [143.727662, 43.1462139], [143.7282218, 43.146662], [143.7286653, 43.1468814], [143.7292564, 43.1469891], [143.7302378, 43.1468015], [143.7309856, 43.1465458], [143.73171, 43.1465117], [143.7333457, 43.1469891], [143.7352618, 43.1477563], [143.7357759, 43.1478756], [143.7379491, 43.1479267], [143.7407064, 43.1479438], [143.7437328, 43.1480373], [143.7446202, 43.1481711], [143.7461363, 43.1488003], [143.7482258, 43.1498749], [143.7488851, 43.150143], [143.7494042, 43.150307], [143.7501307, 43.1503559], [143.7512218, 43.1502283], [143.7539317, 43.1495541], [143.7555915, 43.1493077], [143.7574376, 43.1492224], [143.7582554, 43.149052], [143.7590499, 43.1486257], [143.759821, 43.1483742], [143.7616437, 43.1483018], [143.7629523, 43.1485064], [143.7638636, 43.1484382], [143.7644244, 43.1480461], [143.7644478, 43.1475005], [143.7642842, 43.1471596], [143.7634196, 43.1458127], [143.7634196, 43.1449773], [143.7638402, 43.1442612], [143.7651956, 43.1428801], [143.765532, 43.142621], [143.7662705, 43.1423516], [143.7668013, 43.1422822], [143.7671071, 43.142298], [143.7679106, 43.1425376], [143.7682683, 43.1427071], [143.7697825, 43.1436331], [143.7716849, 43.1446597], [143.7728341, 43.1453828], [143.7733115, 43.1456735], [143.7747324, 43.1463731], [143.7753838, 43.1467845], [143.775702, 43.1470935], [143.7763355, 43.1479378], [143.7768559, 43.1484212], [143.7779239, 43.1491851], [143.7780477, 43.1492736], [143.7788655, 43.1502112], [143.7795899, 43.1513023], [143.7801975, 43.1518137], [143.7811789, 43.1522399], [143.7834222, 43.1529048], [143.7846139, 43.1536889], [143.7860394, 43.1542344], [143.787862, 43.154814], [143.7883527, 43.155155], [143.789007, 43.1561607], [143.790469, 43.1583597], [143.7908194, 43.1588491], [143.7914936, 43.1593385], [143.7924067, 43.1597427], [143.7928793, 43.1600618], [143.7935911, 43.1606049], [143.7942462, 43.1612525], [143.7947476, 43.1617454], [143.7948138, 43.1618105], [143.7954696, 43.1624554], [143.7957268, 43.1625832], [143.7961074, 43.1626234], [143.7967883, 43.1627111], [143.797269, 43.1628061], [143.7976111, 43.1630081], [143.7978498, 43.1632978], [143.7982873, 43.1637313], [143.7991118, 43.1641379], [143.800694, 43.1647272], [143.8011495, 43.1648499], [143.801378, 43.1648529], [143.801729, 43.1647856], [143.8020127, 43.1647004], [143.8024013, 43.1645661], [143.8027732, 43.1644197], [143.8033547, 43.164189], [143.8039426, 43.1639654], [143.8046632, 43.1639675], [143.8050371, 43.1641209], [143.8055532, 43.1644584], [143.8059762, 43.1648006], [143.8063388, 43.1650321], [143.8068989, 43.1654614], [143.807284, 43.1657754], [143.8074926, 43.1659843], [143.8077638, 43.1663552], [143.8079814, 43.1668138], [143.8079979, 43.1668721], [143.8081216, 43.167308], [143.8084573, 43.167669], [143.8088703, 43.1679673], [143.8093616, 43.1683086], [143.8094736, 43.1686882], [143.8094944, 43.1697226], [143.8096358, 43.1701202], [143.8099067, 43.1703903], [143.8102858, 43.1706609], [143.8114669, 43.1714704], [143.8119365, 43.1717533], [143.812381, 43.1719391], [143.8126387, 43.1720085], [143.8130463, 43.1720965], [143.8133123, 43.1721002], [143.8136336, 43.1720969], [143.8160472, 43.1716255], [143.817031, 43.1714037], [143.8181947, 43.1712093], [143.818723, 43.1711734], [143.8192049, 43.1712295], [143.8202735, 43.1714963], [143.821031, 43.1716748], [143.8216893, 43.1716785], [143.8222521, 43.1716473], [143.8229447, 43.1715899], [143.8236775, 43.1715443], [143.824091, 43.1715577], [143.8243667, 43.1715823], [143.824783, 43.1716853], [143.8250089, 43.1717898], [143.8252841, 43.17197], [143.8255186, 43.17214], [143.8257465, 43.1723409], [143.8272876, 43.173975], [143.827576, 43.1741915], [143.8278732, 43.1743271], [143.8289402, 43.1747092], [143.8317615, 43.1756221], [143.8322973, 43.175843], [143.8327472, 43.176099], [143.8338045, 43.176749], [143.8344856, 43.1770125], [143.8359336, 43.1773832], [143.8361479, 43.1774931], [143.836314, 43.1776264], [143.8366621, 43.1779947], [143.8371499, 43.1786105], [143.8374337, 43.1788468], [143.8377678, 43.1790095], [143.8381796, 43.1791272], [143.839135, 43.1791895], [143.8397849, 43.1791539], [143.8401661, 43.179171], [143.8405472, 43.179188], [143.8409657, 43.1792976], [143.8413626, 43.1794384], [143.8439718, 43.1805274], [143.8444648, 43.180718], [143.8466125, 43.1816261], [143.8474304, 43.1819499], [143.8485521, 43.1820351], [143.8493933, 43.1818136], [143.8502202, 43.1810233], [143.8509516, 43.1803241], [143.8511588, 43.1801261], [143.8526976, 43.1785777], [143.8530147, 43.1783501], [143.8533364, 43.178189], [143.8537277, 43.1780778], [143.8542161, 43.1780324], [143.8552301, 43.1781227], [143.8556675, 43.1781875], [143.8560134, 43.1782855], [143.8563639, 43.1784312], [143.8593689, 43.1798693], [143.8596126, 43.1799639], [143.8599356, 43.1800517], [143.8602664, 43.1801133], [143.8606058, 43.180124], [143.8609018, 43.1801147], [143.8611694, 43.1800831], [143.861413, 43.1800282], [143.8617313, 43.1799392], [143.8622943, 43.1796974], [143.862926, 43.1794327], [143.8634433, 43.1792312], [143.864054, 43.1790199], [143.8645075, 43.1789168], [143.8649856, 43.1788631], [143.865523, 43.1788458], [143.8658348, 43.1788646], [143.8660543, 43.1788779], [143.8665902, 43.1789754], [143.8682121, 43.1794864], [143.8686192, 43.1795475], [143.8689614, 43.17956], [143.869356, 43.1795074], [143.8696963, 43.1794077], [143.8700735, 43.1792406], [143.870955, 43.1787451], [143.8746678, 43.1766755], [143.8790466, 43.1742306], [143.8885551, 43.1680132], [143.8892816, 43.167516], [143.8895173, 43.167285], [143.8897083, 43.167048], [143.8900293, 43.1665445], [143.8901385, 43.166144], [143.8901908, 43.1657198], [143.8901877, 43.1645356], [143.8903361, 43.1641043], [143.8905902, 43.1637323], [143.8915716, 43.1623517], [143.8916978, 43.1621429], [143.8917567, 43.161974], [143.8917541, 43.1618285], [143.8917325, 43.1616623], [143.8914559, 43.16134], [143.8909136, 43.1605594], [143.8898397, 43.1593967], [143.8893942, 43.1588398], [143.8890118, 43.1582198], [143.8884064, 43.1568794], [143.8882978, 43.1567613], [143.8881658, 43.1566671], [143.8879765, 43.1565605], [143.8863034, 43.1559316], [143.8860884, 43.1558387], [143.8859388, 43.1557253], [143.8858046, 43.1555898], [143.8857032, 43.1554423], [143.8856497, 43.1552667], [143.8856443, 43.1550997], [143.8857269, 43.1548093], [143.8859298, 43.1545395], [143.8873081, 43.1531632], [143.8875579, 43.152907], [143.887738, 43.1526586], [143.887833, 43.1523449], [143.8878474, 43.1520274], [143.8877485, 43.1517194], [143.8876067, 43.1515113], [143.8873552, 43.1512593], [143.88585, 43.150081], [143.8856502, 43.1499309], [143.8854504, 43.14974], [143.8853069, 43.1495275], [143.8852124, 43.1493219], [143.8851728, 43.1491013], [143.8851959, 43.1488614], [143.885275, 43.1486079], [143.8854305, 43.1483352], [143.8856513, 43.1480931], [143.8865954, 43.1473242], [143.8868004, 43.1470685], [143.8869657, 43.14676], [143.8870675, 43.146436], [143.8872718, 43.1455949], [143.8873652, 43.1451607], [143.8873785, 43.1449266], [143.8873635, 43.1447465], [143.8873222, 43.1445787], [143.8872614, 43.1444004], [143.8871604, 43.1441952], [143.8870225, 43.1440012], [143.8867329, 43.1436792], [143.8855085, 43.1425858], [143.8848857, 43.142012], [143.8843306, 43.141328], [143.8836318, 43.1400864], [143.8830781, 43.1390901], [143.881823, 43.1366596], [143.881296, 43.1358658], [143.8807884, 43.1350167], [143.8803424, 43.1341399], [143.8798918, 43.1333627], [143.8797616, 43.1330336], [143.8796841, 43.132672], [143.8796695, 43.1323681], [143.8797179, 43.1320346], [143.8798144, 43.1316793], [143.8800349, 43.1312751], [143.8803358, 43.1308905], [143.88084, 43.1304111], [143.881673, 43.1296674], [143.8826052, 43.1288794], [143.8828983, 43.1286755], [143.8831816, 43.1285207], [143.8834971, 43.1284012], [143.8837112, 43.1283379], [143.8839421, 43.1282857], [143.8843004, 43.1282411], [143.885217, 43.1282103], [143.8855255, 43.1281792], [143.8858349, 43.1281242], [143.8861832, 43.1280304], [143.8865221, 43.1278896], [143.8868154, 43.1277107], [143.887054, 43.1275244], [143.8872679, 43.1273252], [143.8885083, 43.1261528], [143.8887167, 43.1258845], [143.8888785, 43.1255923], [143.8891751, 43.1248937], [143.889285, 43.1247133], [143.8894503, 43.124536], [143.889629, 43.1243999], [143.8897838, 43.1243251], [143.8929449, 43.1232121], [143.8932703, 43.123071], [143.8935248, 43.1229273], [143.8937332, 43.122769], [143.8939497, 43.1225618], [143.8941427, 43.1222908], [143.8942525, 43.1220262], [143.8943175, 43.1217557], [143.89443, 43.1208931], [143.8945914, 43.1198797], [143.8949257, 43.1189994], [143.8955449, 43.1177941], [143.8959484, 43.116981], [143.8962171, 43.1164743], [143.896296, 43.1162707], [143.8963426, 43.1160122], [143.8963133, 43.1157746], [143.8962437, 43.1155351], [143.8961206, 43.1153185], [143.8958964, 43.1150701], [143.8955327, 43.1147669], [143.8951565, 43.1144495], [143.8949361, 43.1142036], [143.8947534, 43.1139578], [143.894613, 43.1137063], [143.8945103, 43.1134509], [143.8944689, 43.1131373], [143.8944838, 43.1128315], [143.8945776, 43.1124557], [143.8947371, 43.112151], [143.8952828, 43.111395], [143.8966177, 43.1095613], [143.8978889, 43.107596], [143.898059, 43.107287], [143.898251, 43.1069797], [143.8990538, 43.105636], [143.8991849, 43.1054185], [143.8992768, 43.1052794], [143.8993798, 43.1051331], [143.8994916, 43.1050065], [143.8996217, 43.1048826], [143.8997407, 43.1047839], [143.9000332, 43.104573], [143.9008934, 43.1040911], [143.9012353, 43.103858], [143.9014128, 43.103707], [143.9016487, 43.1034487], [143.9018031, 43.1032062], [143.9021046, 43.1026517], [143.9023505, 43.1022096], [143.9027147, 43.1014393], [143.9037828, 43.0994208], [143.904114, 43.0987788], [143.9043148, 43.0984013], [143.904717, 43.0976451], [143.9047579, 43.0975681], [143.9056631, 43.0958415], [143.9059834, 43.0953526], [143.9062451, 43.0950659], [143.9067255, 43.0947327], [143.9072359, 43.0945881], [143.9081519, 43.0944516], [143.9099839, 43.0944789], [143.9109186, 43.0942878], [143.9138162, 43.0928408], [143.9142087, 43.0925814], [143.9144043, 43.0924059], [143.9148335, 43.0919011], [143.914974, 43.0917733], [143.9151286, 43.091669], [143.9153055, 43.0915869], [143.9154913, 43.0915268], [143.9156932, 43.0914992], [143.91631, 43.0915081], [143.9174126, 43.0915251], [143.9179633, 43.091495], [143.9181613, 43.0914602], [143.9183457, 43.0914042], [143.9185023, 43.091339], [143.9186651, 43.0912447], [143.9188279, 43.0911152], [143.9203798, 43.0898145], [143.9207202, 43.0896203], [143.9212536, 43.0894222], [143.9246026, 43.0884176], [143.925697, 43.0880484], [143.9328145, 43.0856387], [143.9329261, 43.0856014], [143.9356507, 43.0846905], [143.9364332, 43.084402], [143.9368164, 43.0842225], [143.9371513, 43.0840351], [143.9381071, 43.0834694], [143.9385476, 43.0832608], [143.939106, 43.0830699], [143.9396486, 43.0829597], [143.9407168, 43.082779], [143.9409921, 43.0827], [143.9411934, 43.0826053], [143.9413708, 43.0824847], [143.9414734, 43.0823805], [143.9415575, 43.0822696], [143.9424256, 43.0808483], [143.9429496, 43.0800418], [143.943091, 43.0798557], [143.9432485, 43.0796911], [143.9442393, 43.0789199], [143.9452784, 43.078184], [143.9455164, 43.0779816], [143.9457085, 43.0777766], [143.9458776, 43.0775024], [143.9460041, 43.0772076], [143.9462164, 43.0764527], [143.946372, 43.0759433], [143.9464315, 43.0757946], [143.9465371, 43.0756613], [143.9466675, 43.0755423], [143.9468368, 43.0754595], [143.9470691, 43.0753961], [143.9473085, 43.0753689], [143.9475612, 43.07538], [143.9478469, 43.0754205], [143.9481773, 43.0754859], [143.9484793, 43.0755773], [143.9486771, 43.0756872], [143.9488256, 43.0758197], [143.9489166, 43.0759609], [143.9489652, 43.0761099], [143.949078, 43.0772026], [143.9491336, 43.0774063], [143.9492322, 43.077583], [143.9493779, 43.0777338], [143.9495277, 43.0778418], [143.9496899, 43.0779318], [143.9499373, 43.0780069], [143.9502612, 43.0780636], [143.9506606, 43.0781011], [143.9509807, 43.078151], [143.9512347, 43.0782243], [143.9514202, 43.0783184], [143.9515872, 43.0784282], [143.9517177, 43.0785686], [143.9518361, 43.0787251], [143.951962, 43.0789919], [143.9523445, 43.0800892], [143.9525993, 43.0804629], [143.9529778, 43.0807343], [143.9533376, 43.0809037], [143.955816, 43.0817858], [143.9559531, 43.0818244], [143.9560223, 43.0818439], [143.9562252, 43.0819011], [143.9567033, 43.0819669], [143.9570955, 43.0819631], [143.9574877, 43.0819236], [143.9583814, 43.0817103], [143.9584758, 43.0816877], [143.9596087, 43.0813892], [143.9598636, 43.0812676], [143.9600504, 43.0811596], [143.9602007, 43.0809952], [143.9602899, 43.0808267], [143.9603544, 43.0805433], [143.960291, 43.0802003], [143.9600687, 43.0797007], [143.9599869, 43.0795179], [143.959944, 43.0792782], [143.9599639, 43.0790472], [143.9600028, 43.0788259], [143.9600939, 43.0786432], [143.9602253, 43.0784742], [143.9604736, 43.0782294], [143.9608238, 43.0780334], [143.9633827, 43.0767382], [143.963929, 43.0764639], [143.964185, 43.0763704], [143.9644301, 43.0763028], [143.9646569, 43.076266], [143.9648957, 43.0762413], [143.9652776, 43.0762532], [143.9658375, 43.0762762], [143.9663438, 43.0762891], [143.9665891, 43.0762732], [143.9668874, 43.0762192], [143.967183, 43.0761319], [143.9674188, 43.0760302], [143.9676304, 43.0758972], [143.9678379, 43.0757324], [143.9680426, 43.0755182], [143.9682412, 43.0752884], [143.968998, 43.0743085], [143.9696767, 43.0734128], [143.9697064, 43.0733718], [143.9699725, 43.0730781], [143.970297, 43.072852], [143.9715755, 43.0721899], [143.9718345, 43.0720268], [143.972004, 43.0718372], [143.9721311, 43.0715541], [143.9721411, 43.0709261], [143.9721641, 43.0703518], [143.9721923, 43.0695165], [143.9722878, 43.0678951], [143.9724076, 43.0673014], [143.9726047, 43.066757], [143.9729079, 43.0662151], [143.9738184, 43.0647799], [143.9742042, 43.0642959], [143.9744962, 43.0640211], [143.9747719, 43.0638087], [143.9753558, 43.0634197], [143.9771701, 43.0624319], [143.9775214, 43.0622969], [143.9779576, 43.0621775], [143.9784903, 43.0621248], [143.9797545, 43.0621211], [143.9803178, 43.062071], [143.9821053, 43.061749], [143.9843675, 43.0613163], [143.984997, 43.0611959], [143.9853899, 43.0611082], [143.9855303, 43.0610736], [143.9856599, 43.0610311], [143.9860545, 43.0608725], [143.9869317, 43.0603314], [143.9874023, 43.0600499], [143.9877703, 43.0599324], [143.9881849, 43.0598501], [143.9886317, 43.0598226], [143.9888733, 43.0598307], [143.9890747, 43.0598525], [143.9892823, 43.0598861], [143.9894871, 43.0599256], [143.9897236, 43.0600004], [143.9899601, 43.0600949], [143.9904679, 43.0603386], [143.9907968, 43.0604802], [143.9916237, 43.0608639], [143.9924431, 43.0611033], [143.9931796, 43.0612782], [143.9973958, 43.0622793], [143.9978598, 43.0623804], [143.9987406, 43.0625816], [143.9992168, 43.0626184], [143.9997207, 43.0625768], [144.0024444, 43.0620632], [144.0040146, 43.0616398], [144.0055289, 43.0610388], [144.0084941, 43.0588552], [144.0086098, 43.0587647], [144.0086951, 43.0586759], [144.0087628, 43.0585493], [144.0087768, 43.0584158], [144.008709, 43.0581882], [144.0084431, 43.0577714], [144.0061549, 43.054184], [144.0058371, 43.0536857], [144.0056408, 43.053361], [144.0055959, 43.0532868], [144.0054412, 43.0530309], [144.0051977, 43.0527709], [144.0048786, 43.0525073], [144.0034958, 43.0511042], [144.0032473, 43.0507942], [144.003156, 43.0505113], [144.0031523, 43.0501316], [144.0033852, 43.0477064], [144.0034378, 43.0474261], [144.0035164, 43.0472557], [144.0036603, 43.0470926], [144.0038651, 43.0469281], [144.0042679, 43.0466502], [144.0044755, 43.0464467], [144.0046012, 43.0462571], [144.004679, 43.0459036], [144.004773, 43.0441529], [144.0047979, 43.0438077], [144.0048373, 43.0434618], [144.0049068, 43.0431388], [144.0049307, 43.0430647], [144.0052298, 43.0422831], [144.005289, 43.0421089], [144.0053803, 43.0419425], [144.0054687, 43.0418167], [144.0055625, 43.0417028], [144.0057038, 43.041578], [144.005837, 43.0414768], [144.0060812, 43.0413351], [144.0062264, 43.0412739], [144.0066899, 43.0411297], [144.0104248, 43.04046], [144.0107645, 43.0403991], [144.0111109, 43.0403107], [144.0114292, 43.0401991], [144.0119782, 43.0398929], [144.0127363, 43.0394304], [144.0164109, 43.0372262], [144.020305, 43.0348195], [144.0208846, 43.0344519], [144.0211477, 43.0342529], [144.0213089, 43.0340794], [144.021457, 43.0338846], [144.0215676, 43.0336859], [144.0216438, 43.0334924], [144.0216985, 43.0332451], [144.0217076, 43.0329723], [144.0216751, 43.0326901], [144.0216458, 43.0324462], [144.0216086, 43.0322082], [144.0215343, 43.031942], [144.0214466, 43.0317092], [144.0212552, 43.031326], [144.0205148, 43.0300791], [144.0203699, 43.0298068], [144.0203194, 43.0296809], [144.0202743, 43.0295511], [144.0202312, 43.0293894], [144.0202043, 43.029259], [144.0201896, 43.0291471], [144.020183, 43.0290194], [144.020179, 43.0288918], [144.0201884, 43.0287662], [144.0202066, 43.0286356], [144.0202302, 43.0285246], [144.0202673, 43.0283836], [144.0202936, 43.0282819], [144.0205867, 43.0273691], [144.0209176, 43.0264396], [144.0211921, 43.0258125], [144.0212879, 43.0254212], [144.0213778, 43.0250433], [144.0214087, 43.0249137], [144.021494, 43.0245492], [144.0215578, 43.0243887], [144.0216351, 43.0242439], [144.0223908, 43.0229886], [144.0224859, 43.0227965], [144.023176, 43.0214032], [144.0239497, 43.0202928], [144.0264609, 43.0166723], [144.0265143, 43.0165917], [144.0283482, 43.0139512], [144.0290873, 43.0128869], [144.0292561, 43.0125629], [144.029351, 43.0123113], [144.029414, 43.0120211], [144.0295135, 43.0114049], [144.0295328, 43.0112854], [144.029911, 43.0089443], [144.0300736, 43.0079011], [144.0300906, 43.0075114], [144.0300603, 43.0071868], [144.0300441, 43.007017], [144.0299882, 43.0065767], [144.0295256, 43.002654], [144.0294124, 43.001701], [144.0294056, 43.0015582], [144.0294105, 43.0015003], [144.0294743, 43.0012036], [144.029775, 43.0005846], [144.0306069, 42.9988087], [144.0306813, 42.9986633], [144.0307901, 42.9985181], [144.0309207, 42.9984061], [144.0310594, 42.9983122], [144.0312171, 42.9982391], [144.0316203, 42.9981152], [144.0329884, 42.9977502], [144.0372007, 42.9966071], [144.0382585, 42.9963259], [144.0393447, 42.996029], [144.0403455, 42.9957582], [144.0427498, 42.9951076], [144.044479, 42.994644], [144.0457013, 42.9943126], [144.0498923, 42.9931798], [144.0520747, 42.9925895], [144.0563527, 42.9914335], [144.0586274, 42.9908131], [144.0593165, 42.9905796], [144.0596828, 42.9904149], [144.0600834, 42.990167], [144.0604614, 42.9898656], [144.0605757, 42.9897362], [144.0607574, 42.9895124], [144.0609741, 42.9891925], [144.0611985, 42.9887551], [144.061507, 42.9880213], [144.0618439, 42.9872198], [144.0627851, 42.9850018], [144.062992, 42.9845142], [144.0630867, 42.9842911], [144.0631531, 42.9841271], [144.0638287, 42.9825219], [144.0644871, 42.980971], [144.0649683, 42.9798409], [144.065157, 42.9793867], [144.06559, 42.9783642], [144.0658474, 42.9777561], [144.0661662, 42.9770023], [144.0662596, 42.9767815], [144.0672318, 42.9744826], [144.0673266, 42.9742585], [144.0673833, 42.9741243], [144.0675272, 42.9737887], [144.0678581, 42.9729982], [144.0692843, 42.9696193], [144.0694513, 42.9692354], [144.0694652, 42.9691968], [144.0698741, 42.9682388], [144.0702042, 42.9674619], [144.0705658, 42.9666059], [144.0707159, 42.9662538], [144.0709971, 42.965594], [144.0710704, 42.9654157], [144.0712968, 42.9648824], [144.0713258, 42.9648134], [144.0716023, 42.9641549], [144.0718232, 42.9636292], [144.0718459, 42.9635754], [144.0718902, 42.9634675], [144.0719441, 42.9633378], [144.0721328, 42.9629011], [144.0722044, 42.9627299], [144.0724608, 42.9621227], [144.0725626, 42.9618815], [144.0726619, 42.9616455], [144.072673, 42.9616202], [144.072853, 42.9611921], [144.0731378, 42.9605144], [144.0732253, 42.9603063], [144.0734611, 42.9597502], [144.0735485, 42.9595444], [144.0735705, 42.9594923], [144.0736683, 42.9592656], [144.0738304, 42.9588796], [144.0738542, 42.9588129], [144.0738627, 42.9587694], [144.0738722, 42.9586826], [144.0738751, 42.9586121], [144.0738691, 42.9585779], [144.0738582, 42.958542], [144.0737472, 42.9581758], [144.0736723, 42.9579072], [144.0736, 42.9576483], [144.0735723, 42.9574578], [144.0735464, 42.9570711], [144.0735101, 42.9565019], [144.0734266, 42.9551786], [144.0734104, 42.9547306], [144.0734114, 42.9546926], [144.0734593, 42.9545689], [144.0736519, 42.9545881], [144.0737022, 42.9545931], [144.0740538, 42.9546305], [144.0745157, 42.9546842], [144.0746635, 42.9546952], [144.0748087, 42.9546983], [144.0750707, 42.9546934], [144.0751226, 42.9546895], [144.0752543, 42.9546799], [144.07542, 42.9546677], [144.075471, 42.9546639], [144.0761152, 42.9546263], [144.0765377, 42.9545964], [144.0765621, 42.9545948], [144.0765845, 42.9545934], [144.0767482, 42.9545827], [144.0769021, 42.9545727], [144.0769571, 42.9545689], [144.0775303, 42.9545297], [144.0777743, 42.954513], [144.0778761, 42.954506], [144.0779532, 42.9545007], [144.0780834, 42.9544918], [144.0781868, 42.9544851], [144.0782776, 42.9544793], [144.0786606, 42.9544545], [144.0792187, 42.9544208], [144.079586, 42.9543947], [144.0799752, 42.9543716], [144.0800335, 42.9543691], [144.0801965, 42.9543622], [144.0803392, 42.9543561], [144.0803933, 42.9543538], [144.081095, 42.9543542], [144.0812717, 42.9543525], [144.0816152, 42.9543479], [144.0818358, 42.9543497], [144.0821143, 42.9543528], [144.0825595, 42.954345], [144.0828829, 42.954336], [144.0833882, 42.9542657], [144.0838673, 42.9541646], [144.0841935, 42.954093], [144.0843741, 42.9540559], [144.0856445, 42.9537877], [144.0857215, 42.9537717], [144.08582, 42.9537486], [144.0859167, 42.9537278], [144.0863666, 42.953633], [144.086813, 42.9535354], [144.0875396, 42.9533791], [144.0880359, 42.9532691], [144.0884673, 42.9531738], [144.0887223, 42.9531415], [144.0888939, 42.9531304], [144.08916, 42.9531178], [144.0894089, 42.9531241], [144.0897742, 42.9531507], [144.0900784, 42.9532114], [144.0904979, 42.9533287], [144.0908832, 42.9534808], [144.0911876, 42.9536582], [144.0920276, 42.9542361], [144.0925395, 42.9546143], [144.0928124, 42.9548614], [144.0928564, 42.9549012], [144.0929262, 42.9549672], [144.0929603, 42.9549975], [144.0930137, 42.9550474], [144.0931731, 42.9551947], [144.0933676, 42.9553775], [144.0936202, 42.9556071], [144.0937943, 42.9557477], [144.0940701, 42.9559454], [144.0943663, 42.9561204], [144.0946837, 42.9562823], [144.0950968, 42.9564582], [144.0954666, 42.9565792], [144.0969983, 42.9569774], [144.0999326, 42.9577295], [144.1004187, 42.9578516], [144.1008479, 42.9579666], [144.1017465, 42.9581849], [144.1018247, 42.9582038], [144.1018829, 42.958219], [144.1019397, 42.9582338], [144.1029731, 42.9585029], [144.1032679, 42.9585768], [144.103701, 42.9586853], [144.1043948, 42.9588592], [144.1048041, 42.9589602], [144.1054343, 42.9591498], [144.10608, 42.959385], [144.1066816, 42.9596404], [144.1067447, 42.959667], [144.1068129, 42.9596991], [144.1090804, 42.9607654], [144.1094698, 42.9609485], [144.1101248, 42.9612565], [144.1107904, 42.9615748], [144.1113908, 42.9618511], [144.1119732, 42.9621315], [144.1123907, 42.9623604], [144.1127806, 42.9625967], [144.1134071, 42.9630489], [144.113655, 42.9632703], [144.1143541, 42.9638946], [144.1157609, 42.965151], [144.1165766, 42.9659066], [144.1168009, 42.9661043], [144.1174627, 42.9666686], [144.1175278, 42.9667241], [144.11763, 42.9668112], [144.1180334, 42.9670938], [144.1190462, 42.9676967], [144.1207397, 42.9686837], [144.1220562, 42.9694489], [144.1223672, 42.9696304], [144.1228041, 42.9698835], [144.123747, 42.9704315], [144.1241961, 42.9706925], [144.125087, 42.9712073], [144.1259768, 42.9717214], [144.1260797, 42.9717809], [144.1262017, 42.9718504], [144.1262816, 42.9718959], [144.1266165, 42.9720867], [144.1278604, 42.972812], [144.1283137, 42.9730854], [144.1286896, 42.9733506], [144.1290157, 42.9735931], [144.1294578, 42.9739417], [144.1297951, 42.9742372], [144.1303158, 42.9747494], [144.1305268, 42.9749922], [144.1307718, 42.9752742], [144.130809, 42.975317], [144.1309085, 42.9754289], [144.1309636, 42.9754924], [144.1311426, 42.9756988], [144.1315157, 42.9761323], [144.1316027, 42.9762331], [144.131817, 42.9764743], [144.1321439, 42.9768443], [144.1323332, 42.9770577], [144.1324589, 42.9772014], [144.1327947, 42.9775796], [144.1330961, 42.977924], [144.1331365, 42.9779706], [144.1331717, 42.9780086], [144.1332346, 42.9780826], [144.1332926, 42.9781487], [144.1335961, 42.9784924], [144.1340234, 42.9789791], [144.1341204, 42.979096], [144.1343784, 42.9794068], [144.1345301, 42.9795659], [144.1349028, 42.9798782], [144.1349541, 42.9799126], [144.1350582, 42.9799837], [144.1351946, 42.9800649], [144.1352291, 42.9800868], [144.1355632, 42.9802984], [144.1361265, 42.9805579], [144.1367741, 42.9807798], [144.1376886, 42.980984], [144.1381928, 42.981074], [144.1384639, 42.9811223], [144.1401597, 42.9814885], [144.1415824, 42.9817678], [144.1420673, 42.9818648], [144.1422881, 42.9819089], [144.1430117, 42.9820556], [144.1448824, 42.9824394], [144.1450272, 42.9824691], [144.1450919, 42.9824826], [144.1451688, 42.9824986], [144.1452384, 42.9825131], [144.1457818, 42.9826263], [144.1464959, 42.9827566], [144.1467232, 42.9827899], [144.1470245, 42.982831], [144.1474756, 42.9828787], [144.1476046, 42.9828927], [144.1477634, 42.98291], [144.1479145, 42.9829231], [144.1480021, 42.982929], [144.1495302, 42.9830493], [144.1495621, 42.9830523], [144.1496549, 42.9830609], [144.1497227, 42.9830669], [144.1498236, 42.9830757], [144.1501627, 42.9831054], [144.1507083, 42.983154], [144.1512487, 42.9832022], [144.1527736, 42.9833282], [144.1540582, 42.9834321], [144.1542418, 42.9834473], [144.1558857, 42.9835837], [144.1562694, 42.9836218], [144.159317, 42.9838638], [144.1609659, 42.9840116], [144.1620611, 42.9840995], [144.1626197, 42.9841444], [144.1626723, 42.9841486], [144.1628873, 42.9841627], [144.1630902, 42.984179], [144.1636711, 42.9842255], [144.1638739, 42.9842418], [144.1642862, 42.9842809], [144.1643386, 42.9842859], [144.1648608, 42.9843354], [144.1650203, 42.9843505], [144.1653492, 42.9843917], [144.1657865, 42.9844613], [144.1660331, 42.9845005], [144.1664344, 42.9845895], [144.1669113, 42.9846935], [144.1688049, 42.9852028], [144.1705252, 42.9856655], [144.172254, 42.9861305], [144.1740129, 42.9866059], [144.1776662, 42.9875932], [144.1810118, 42.9884973], [144.183108, 42.9890638], [144.187125, 42.9901574], [144.1881754, 42.990441], [144.1888016, 42.99061], [144.1906142, 42.9911024], [144.1953145, 42.9923792], [144.1975699, 42.992994], [144.1977959, 42.9930516], [144.1988663, 42.9933219], [144.1995803, 42.9934928], [144.2000229, 42.9935942], [144.2009644, 42.99381], [144.2034486, 42.9943047], [144.2054667, 42.9947066], [144.2072783, 42.9950674], [144.2117783, 42.9959639], [144.2129094, 42.9961764], [144.2144602, 42.9964525], [144.2152823, 42.9965988], [144.2155715, 42.9966504], [144.2166282, 42.996832], [144.2179218, 42.9970542], [144.2186302, 42.9971759], [144.2205042, 42.9974979], [144.2250837, 42.9982955], [144.2262493, 42.9984985], [144.226886, 42.9986091], [144.2275655, 42.9987275], [144.2283963, 42.9988722], [144.2325517, 42.9995962], [144.2328628, 42.9996471], [144.2334925, 42.9998075], [144.2353889, 43.0001411], [144.2363462, 43.0003095], [144.2363998, 43.0003187], [144.2365703, 43.0003489], [144.2383446, 43.0006504], [144.2388559, 43.0007373], [144.2490452, 43.0024688], [144.2498185, 43.0025997], [144.2520097, 43.0029725], [144.2522937, 43.0030586], [144.2525392, 43.0031417], [144.2528321, 43.0032617], [144.2530335, 43.0033614], [144.2531861, 43.003437], [144.2534995, 43.003652], [144.2538115, 43.0039178]], [[144.2537774, 43.0036486], [144.2535312, 43.0034565], [144.2533142, 43.0033351], [144.2529126, 43.0031493], [144.2523995, 43.00297], [144.2521045, 43.0028945], [144.2498408, 43.0025059], [144.2490792, 43.0023757], [144.2367506, 43.0002604], [144.2366073, 43.0002358], [144.2364336, 43.0002069], [144.2335419, 42.9997278], [144.2328628, 42.9996471]], [[144.2655853, 43.0119113], [144.2654825, 43.0118993], [144.2653663, 43.0118841], [144.2652537, 43.0118566], [144.2650902, 43.0118088], [144.2648381, 43.0117217], [144.2645348, 43.0116343], [144.2629569, 43.0109989], [144.2627009, 43.0108989], [144.2624555, 43.010803], [144.2623954, 43.0107778], [144.2621765, 43.010694], [144.2619607, 43.01061], [144.261908, 43.0105896], [144.2597757, 43.0097637], [144.2590818, 43.0095642], [144.2584211, 43.0094116], [144.2579131, 43.0093272], [144.2574613, 43.0092763]], [[144.2544996, 43.0049764], [144.2547988, 43.0055588], [144.2551948, 43.0065134], [144.2553035, 43.0067731], [144.2553679, 43.0069404], [144.2554538, 43.0071719], [144.2555448, 43.007432], [144.2556709, 43.007889], [144.2557236, 43.0080751]], [[144.2548915, 43.0052957], [144.2548137, 43.0051331]], [[144.2557236, 43.0080751], [144.2557659, 43.0082005], [144.2558773, 43.0086695], [144.2559738, 43.0090982], [144.256002, 43.0091827], [144.2560422, 43.0092352], [144.2561204, 43.0092647], [144.2562243, 43.0092623], [144.2567311, 43.0092772], [144.2568624, 43.0092824], [144.2570453, 43.0092897], [144.2574613, 43.0092763]], [[144.2544996, 43.0049764], [144.2543743, 43.0047324], [144.2542139, 43.0044193], [144.2540421, 43.0041711], [144.2538115, 43.0039178]], [[144.2645348, 43.0116343], [144.2647836, 43.0117481], [144.2650337, 43.0118732], [144.2651834, 43.0119393], [144.265283, 43.0119715], [144.2653165, 43.0119824], [144.2654325, 43.01201], [144.265569, 43.0120198]], [[144.2537774, 43.0036486], [144.2540737, 43.0039242], [144.2542306, 43.0040905], [144.2543722, 43.0042777], [144.2545157, 43.0045176], [144.2546615, 43.0048077], [144.2548137, 43.0051331]], [[144.2548915, 43.0052957], [144.2554849, 43.0064004], [144.2557434, 43.0068745], [144.2558733, 43.0070956], [144.2564129, 43.008066], [144.2566361, 43.0084974], [144.2568312, 43.009067], [144.256849, 43.0091893], [144.2570536, 43.0092017], [144.2571114, 43.0092122], [144.2574613, 43.0092763]]]}, "id": "relation/6653406"}]}