{"type": "FeatureCollection", "generator": "kokudo-quiz tools/fetch_raw.py (Overpass API)", "copyright": "The data included in this document is from www.openstreetmap.org. The data is made available under ODbL.", "timestamp": "2026-09-30T23:38:46Z", "features": [{"type": "Feature", "properties": {"@id": "relation/446121", "colour": "red", "from": "岩手県遠野市", "name": "国道396号", "name:en": "National Highway Route 396", "name:ja": "国道396号", "name:ja-Hira": "こくどうさんびゃくきゅうじゅうろくごう", "name:ja-Latn": "kokudou 396 gou", "network": "JP:national", "ref": "396", "route": "road", "to": "岩手県盛岡市", "type": "route", "wikidata": "Q6157436", "wikipedia": "ja:国道396号"}, "geometry": {"type": "MultiLineString", "coordinates": [[[141.1614415, 39.6852966], [141.1614949, 39.6852081], [141.1618688, 39.6845891], [141.1619039, 39.6845515], [141.162077, 39.6842518], [141.1622835, 39.6838555], [141.1623177, 39.68379], [141.1624668, 39.6832896], [141.1625994, 39.6827892], [141.1626948, 39.682373], [141.1627576, 39.6821944], [141.1628315, 39.6819842], [141.16302, 39.6816007], [141.163235, 39.6812044], [141.1635314, 39.6806083], [141.1638811, 39.6799482], [141.164327, 39.6790638], [141.1644623, 39.6787957], [141.1647569, 39.6782377], [141.1649154, 39.677941], [141.1652823, 39.6771907], [141.1653159, 39.677122], [141.165632, 39.6765257], [141.1659079, 39.6758665], [141.1659838, 39.6756867], [141.1666857, 39.6738659], [141.1667228, 39.673793], [141.1669141, 39.6734174], [141.1671508, 39.673015], [141.1675423, 39.6724624], [141.1681856, 39.6716768], [141.1686775, 39.6710444], [141.1692291, 39.6700771], [141.1701346, 39.6684831], [141.1704266, 39.6679712], [141.1711301, 39.6667292], [141.1718215, 39.6654946], [141.1720946, 39.6650347], [141.1723264, 39.6646374], [141.1726335, 39.6642403], [141.1727362, 39.6640756], [141.1735029, 39.6631983], [141.1738067, 39.662965], [141.1744914, 39.6625025], [141.1756344, 39.6618426], [141.1768377, 39.6611806], [141.1776114, 39.6607414], [141.1776905, 39.660691], [141.1778918, 39.6605715], [141.1782519, 39.6603206], [141.1800871, 39.6589331], [141.1807113, 39.658464], [141.1811346, 39.6579238], [141.1806402, 39.6584281], [141.1801305, 39.6588266], [141.1800438, 39.6588892], [141.1781845, 39.6602553], [141.1776085, 39.6606271], [141.1775273, 39.660681], [141.1767595, 39.6611109], [141.1755422, 39.6618091], [141.1744141, 39.6624478], [141.173728, 39.6629041], [141.1734269, 39.6631312], [141.1726859, 39.66395], [141.1722292, 39.6645919], [141.1720038, 39.6649884], [141.171729, 39.6654634], [141.1710424, 39.6666867], [141.1703289, 39.6679451], [141.1700276, 39.6684473], [141.1691345, 39.6700458], [141.1685662, 39.6710042], [141.1680985, 39.6716412], [141.1674587, 39.6724205], [141.1670944, 39.6729128], [141.166793, 39.6734202], [141.1666272, 39.6737698], [141.1665902, 39.6738477], [141.1663426, 39.6744668], [141.1658626, 39.6756674], [141.1655285, 39.6765017], [141.1652323, 39.6770975], [141.1651961, 39.6771683], [141.1648152, 39.6779137], [141.1646603, 39.6782102], [141.1643624, 39.6787777], [141.1642372, 39.6790347], [141.1637809, 39.6799153], [141.1631311, 39.6811691], [141.1629206, 39.6815754], [141.162738, 39.681932], [141.1626571, 39.6821937], [141.1626047, 39.6823631], [141.162505, 39.6827886], [141.1623832, 39.6832777], [141.1622106, 39.6837554], [141.1621726, 39.6838203], [141.1617748, 39.6845106], [141.161357, 39.6851595], [141.1613055, 39.6852395], [141.1612532, 39.6853208]], [[141.1811346, 39.6579238], [141.181703, 39.6570967], [141.1819026, 39.6567694], [141.1820068, 39.6565492], [141.1820643, 39.6563291], [141.1821869, 39.6553847], [141.1823001, 39.6544547], [141.1824706, 39.6528824], [141.183055, 39.6509918], [141.1836273, 39.6489197], [141.183876, 39.6479503], [141.184092, 39.6471315], [141.1843027, 39.6463374], [141.1847147, 39.644684], [141.1848695, 39.644069], [141.1851493, 39.6431131], [141.1851737, 39.6430297], [141.1852084, 39.6429017], [141.1856249, 39.6413663], [141.1858365, 39.640539], [141.1860257, 39.6398384], [141.1860567, 39.6397162], [141.1861218, 39.6394924], [141.1861543, 39.6393778], [141.1861686, 39.6393322], [141.1862119, 39.6391332], [141.1862382, 39.6389767], [141.1862538, 39.6388837], [141.1862582, 39.6387662], [141.1862638, 39.6386147], [141.1862328, 39.6382757], [141.1861491, 39.6376567], [141.186135, 39.6375523], [141.1861179, 39.6374605], [141.1860554, 39.6372176], [141.1859575, 39.6369839], [141.1857789, 39.6366926], [141.1857373, 39.6366467], [141.1855416, 39.6364305], [141.1849394, 39.6357903], [141.1846219, 39.6353474], [141.1843868, 39.6347286], [141.184317, 39.6343014], [141.184334, 39.6341818], [141.1845225, 39.6328593], [141.1845154, 39.6325875], [141.1844057, 39.6322597], [141.1841446, 39.6317668], [141.1841268, 39.6317332], [141.1838736, 39.6311769], [141.183696, 39.6307866], [141.183653, 39.6306603], [141.1833326, 39.6297121], [141.183159, 39.628673], [141.18326, 39.626606], [141.183328, 39.625591], [141.1834478, 39.6247039], [141.183795, 39.6237999], [141.1841137, 39.6231858], [141.1844883, 39.6226923], [141.184898, 39.622197], [141.1854479, 39.6216115], [141.1861313, 39.6209065], [141.1865135, 39.6205394], [141.1870346, 39.6201277], [141.1876162, 39.6196681], [141.187795, 39.6195283], [141.1883055, 39.6191443], [141.189221, 39.618447], [141.1894005, 39.6182734], [141.189812, 39.6178754], [141.1898807, 39.6178058], [141.190349, 39.617332], [141.1914385, 39.6162292], [141.1927201, 39.6159039], [141.1933087, 39.6157509], [141.1942157, 39.6155783], [141.1952031, 39.6154004], [141.1956378, 39.6153273], [141.196221, 39.6152292], [141.1969113, 39.6150703], [141.19738, 39.6149284], [141.1976993, 39.6147757], [141.1980707, 39.6145354], [141.1986557, 39.614046], [141.1993821, 39.6134124], [141.2009212, 39.6121463], [141.2011116, 39.611979], [141.2021312, 39.6110831], [141.2023319, 39.6108678], [141.2026847, 39.6102769], [141.2034954, 39.6085155], [141.2036307, 39.6080445], [141.2037157, 39.6073599], [141.2037166, 39.6071967], [141.2037661, 39.6066131], [141.2038723, 39.6061494], [141.2040236, 39.605669], [141.2046691, 39.6038298], [141.2049296, 39.603039], [141.2049538, 39.6027297], [141.2049083, 39.6024462], [141.20476, 39.6021304], [141.204381, 39.601677], [141.204033, 39.601391], [141.2034055, 39.6009806], [141.2029957, 39.6005821], [141.2026396, 39.5999935], [141.2023846, 39.5994189], [141.2019641, 39.5981579], [141.2019075, 39.5975708], [141.2019163, 39.5969693]], [[141.2016218, 39.5913003], [141.2017504, 39.5905913], [141.202219, 39.589282], [141.202452, 39.58816], [141.2027779, 39.5867393], [141.2028037, 39.5860862], [141.202721, 39.585745], [141.202554, 39.585224], [141.202126, 39.584039], [141.2017181, 39.5830384], [141.201233, 39.582096], [141.2007657, 39.5811705], [141.2007842, 39.5805614], [141.200985, 39.580125], [141.2010752, 39.579959], [141.201451, 39.579635], [141.2022348, 39.5789068], [141.2036501, 39.5782094], [141.204271, 39.578041], [141.205375, 39.5775966], [141.2058738, 39.5770935], [141.206213, 39.576454], [141.2065087, 39.5752725], [141.2066172, 39.5744054], [141.2066091, 39.5737958], [141.206496, 39.573362], [141.2063056, 39.5725313], [141.206205, 39.57067], [141.2060882, 39.5696882], [141.2047207, 39.5674219], [141.2042972, 39.5660176], [141.204381, 39.5655], [141.2046729, 39.5647345], [141.2051503, 39.5637044], [141.205434, 39.562729], [141.2055202, 39.5623604], [141.2055384, 39.5610365], [141.205626, 39.560489], [141.205638, 39.560419], [141.2058101, 39.5597476], [141.206016, 39.559097], [141.206681, 39.556953], [141.2067, 39.556895], [141.20742, 39.5552951], [141.2078031, 39.5548945], [141.2080988, 39.5546275], [141.2091583, 39.5539569], [141.2094989, 39.5537229], [141.2097216, 39.5535264], [141.2098905, 39.5533279], [141.2100032, 39.55314], [141.2101159, 39.5528708], [141.2101641, 39.552693], [141.2101873, 39.5524523], [141.2102878, 39.5512072], [141.2104082, 39.5499255], [141.2104885, 39.5491372], [141.2105691, 39.5483643], [141.2106389, 39.54805], [141.2107991, 39.5477833], [141.2109876, 39.5475701], [141.2112319, 39.5473758], [141.2115336, 39.5472296], [141.2125187, 39.5469248], [141.2132322, 39.5465902], [141.2135116, 39.5463638], [141.213704, 39.546035], [141.2139272, 39.5452353], [141.2142439, 39.5439947], [141.215282, 39.5430542], [141.217418, 39.54125], [141.217603, 39.541025], [141.2176668, 39.540787], [141.218021, 39.53958], [141.2180729, 39.5394425], [141.2181214, 39.5392815], [141.2182107, 39.538546], [141.2181888, 39.5379269], [141.2184101, 39.5371855], [141.218696, 39.53694], [141.2193486, 39.5366466], [141.2208363, 39.5358484], [141.222328, 39.535065], [141.2226798, 39.5339278], [141.2229251, 39.5324277], [141.2249313, 39.5297204], [141.225477, 39.52835], [141.2259328, 39.5255685], [141.2261481, 39.5238697], [141.2270257, 39.522784], [141.2282849, 39.5217668], [141.229184, 39.520621], [141.229207, 39.5191495], [141.230621, 39.517747], [141.231599, 39.516777], [141.232312, 39.51624], [141.232936, 39.515718], [141.234281, 39.514371], [141.2369282, 39.5117597], [141.237501, 39.511152], [141.2382032, 39.5104183], [141.2394452, 39.5094345], [141.2403314, 39.508851], [141.241649, 39.507514], [141.2418377, 39.5071218], [141.241984, 39.506532], [141.242023, 39.50561], [141.2421457, 39.5048001], [141.242401, 39.50418], [141.2431053, 39.5025183], [141.2436307, 39.5018984], [141.2443633, 39.5013726], [141.2480164, 39.4996351], [141.248642, 39.499218], [141.2494966, 39.4987021], [141.250342, 39.497704], [141.250392, 39.497617], [141.2506061, 39.4973859], [141.2506737, 39.496675], [141.250785, 39.496037], [141.2509207, 39.4940763], [141.2514175, 39.4924662], [141.251918, 39.491774], [141.2523448, 39.4910861], [141.2531231, 39.489757], [141.253739, 39.488517], [141.2539842, 39.488019], [141.2541995, 39.4866643], [141.253802, 39.483776], [141.254271, 39.482571], [141.2544635, 39.4823009], [141.2546673, 39.4820836], [141.2551167, 39.4816624], [141.2566307, 39.4803881], [141.257407, 39.4797428], [141.2578565, 39.4794275], [141.2581902, 39.4792388], [141.2585264, 39.479083], [141.2593893, 39.4787437], [141.2599523, 39.4785059], [141.2614515, 39.4779065], [141.2626558, 39.4774189], [141.2635057, 39.4770728], [141.2645227, 39.476675], [141.2653211, 39.4763634], [141.2656983, 39.4762385], [141.2660131, 39.4761646], [141.2663135, 39.4761129], [141.2666112, 39.4760922], [141.2668446, 39.4760922], [141.2671396, 39.4761067], [141.2677431, 39.4761936], [141.2683198, 39.4762951], [141.2686658, 39.4763241], [141.2689671, 39.4763176], [141.269331, 39.4762702], [141.2695938, 39.4762019], [141.2699318, 39.476081], [141.2714446, 39.4754504], [141.2717825, 39.4752951], [141.2720561, 39.4751377], [141.2724477, 39.4749059], [141.2727427, 39.4747589], [141.2729841, 39.4746802], [141.2732751, 39.4746181], [141.2735045, 39.4746015], [141.274233, 39.474571], [141.2745559, 39.4745332], [141.2748617, 39.4744711], [141.275199, 39.4743529], [141.2757219, 39.4741296], [141.2774178, 39.4734131], [141.2781588, 39.4731273], [141.2783246, 39.4730714], [141.2797106, 39.4726073], [141.2815733, 39.4720613], [141.2822129, 39.4718738], [141.282548, 39.4717739], [141.2842409, 39.4712828], [141.2852103, 39.4709882], [141.2857644, 39.4708309], [141.2864374, 39.4706353], [141.2878027, 39.4702385], [141.2881494, 39.4701313], [141.2884444, 39.4700237], [141.288535, 39.4699794], [141.2888679, 39.4697773]], [[141.2897626, 39.4679646], [141.2898526, 39.4676011], [141.2899464, 39.4672905], [141.290036, 39.4670615], [141.2901771, 39.4668101], [141.2903407, 39.4665865], [141.2904963, 39.466425], [141.2907257, 39.4662293], [141.2917344, 39.4656571], [141.2927225, 39.4649983], [141.293159, 39.4647072], [141.2932547, 39.4646434], [141.2938315, 39.4640945], [141.2943722, 39.4634776], [141.2948862, 39.4625415], [141.2949328, 39.4624565], [141.295018, 39.4623014], [141.2953119, 39.4608892], [141.2953443, 39.4605744], [141.2953147, 39.4603634], [141.2952504, 39.4599059], [141.2948137, 39.4585645], [141.2936825, 39.4556851]], [[141.2019163, 39.5969693], [141.2021505, 39.5961067], [141.20231, 39.5957407], [141.202459, 39.5952322], [141.2024639, 39.5949605], [141.2023714, 39.5940754], [141.2023644, 39.5940274], [141.2022557, 39.5934778], [141.2021197, 39.592846], [141.2020047, 39.5924065], [141.2018898, 39.5919357], [141.2017664, 39.5916072], [141.2016218, 39.5913003]], [[141.2888679, 39.4697773], [141.2890424, 39.4696375], [141.2891853, 39.4695088], [141.2893, 39.4693714], [141.2894207, 39.4692058], [141.2894931, 39.4690464], [141.2895682, 39.4688455], [141.2896782, 39.4684024], [141.2897626, 39.4679646]], [[141.2936825, 39.4556851], [141.2936904, 39.455258], [141.2942066, 39.4536075], [141.2945528, 39.4525855], [141.2948908, 39.4520039], [141.2954732, 39.4511705], [141.2968633, 39.4495031], [141.2972166, 39.449245], [141.2973535, 39.4491662], [141.2977571, 39.4489888], [141.2982325, 39.4488921], [141.2988101, 39.4488637], [141.3000399, 39.4488871], [141.3006376, 39.4489304], [141.3010718, 39.4489461], [141.3013666, 39.4489101], [141.3015823, 39.4488588], [141.3019184, 39.4487169], [141.3023408, 39.4484535], [141.3036454, 39.4475338], [141.3042558, 39.4471141], [141.304466, 39.4469378], [141.3046537, 39.446713], [141.3047915, 39.4464888], [141.3048751, 39.446234], [141.3049019, 39.4459213], [141.3047883, 39.4453572], [141.3046751, 39.4448806], [141.3046433, 39.4445542], [141.304673, 39.4442492], [141.3047813, 39.4439361], [141.3049141, 39.4437175], [141.3052186, 39.4433207], [141.3055949, 39.442835], [141.3058972, 39.4425165], [141.3062953, 39.4421173], [141.307135, 39.4412589], [141.3074895, 39.4408831], [141.3078229, 39.4403556], [141.3079737, 39.4398881], [141.3080214, 39.4393735], [141.3080187, 39.4393473], [141.3079107, 39.4382878], [141.3078949, 39.4378248], [141.3071154, 39.4365009], [141.3070296, 39.4362751], [141.3069545, 39.4359049], [141.3068836, 39.4355099], [141.3068063, 39.4350698], [141.306751, 39.4348761], [141.3067182, 39.4347589], [141.3065493, 39.4343317], [141.3060023, 39.4331301], [141.3057648, 39.4325546], [141.3057655, 39.4308104], [141.3061501, 39.4288955], [141.306311, 39.4284903], [141.3066251, 39.4280763], [141.3072072, 39.4275266], [141.3073559, 39.4271873], [141.3074183, 39.4267179], [141.3074132, 39.4263901], [141.3073655, 39.4255722], [141.3074039, 39.4253053], [141.3074798, 39.4250969], [141.3076842, 39.4247767], [141.3081892, 39.4242294], [141.308667, 39.4236783], [141.3090612, 39.4231797], [141.3093904, 39.4226894], [141.3097061, 39.4223769], [141.3101381, 39.4221541], [141.3114291, 39.4216646], [141.3116223, 39.4215744], [141.3118971, 39.4213944], [141.3121998, 39.4210718], [141.312332, 39.4208219], [141.3124103, 39.4205007], [141.3123807, 39.420053], [141.3123927, 39.4197058], [141.3124346, 39.4194899], [141.3125979, 39.4191445], [141.3128644, 39.4188354], [141.3132687, 39.4185991], [141.3136995, 39.4184583], [141.3149893, 39.4181945], [141.3156266, 39.4180163], [141.3165285, 39.4176438], [141.3183004, 39.4166971], [141.31849, 39.4165181], [141.3187471, 39.4161383], [141.3189075, 39.4157877], [141.3190127, 39.4154494], [141.319039, 39.4153517], [141.31917, 39.414967], [141.31922, 39.414826], [141.3193156, 39.4143907], [141.3194761, 39.4139466], [141.3197195, 39.4136408], [141.3200555, 39.4133654], [141.3205635, 39.4130749], [141.3213758, 39.4127072], [141.32183, 39.412439], [141.3221383, 39.4121656], [141.3225031, 39.4117068], [141.3228175, 39.4112774], [141.3230959, 39.4110382], [141.3232319, 39.4109637], [141.3235148, 39.4108087], [141.3248119, 39.4103688], [141.3252919, 39.4101834], [141.3256692, 39.4099806], [141.3263095, 39.4095696], [141.3266959, 39.4093972], [141.3274128, 39.4092233], [141.3278047, 39.4090912], [141.3286494, 39.4086116], [141.3292783, 39.4083402], [141.3304124, 39.4079114], [141.3313158, 39.4074668], [141.3318438, 39.4072035], [141.3322795, 39.4070382], [141.3332574, 39.4067455], [141.3336414, 39.4065637], [141.334059, 39.40626], [141.3347395, 39.4057441], [141.3352465, 39.4052937], [141.3360989, 39.4043508], [141.3366099, 39.4037856], [141.3369408, 39.4033941], [141.3372733, 39.4029222], [141.3375919, 39.40247], [141.3380075, 39.401879], [141.3383259, 39.4014278], [141.3393969, 39.3998853], [141.3402713, 39.3985865], [141.340434, 39.398248], [141.3405697, 39.3978097], [141.3406621, 39.3973329], [141.3406757, 39.3969549], [141.3404848, 39.3953856], [141.3402432, 39.3936949], [141.3402098, 39.3929612], [141.3402182, 39.3927829], [141.3403325, 39.391203], [141.3403576, 39.3909334], [141.3403708, 39.3907038], [141.3402873, 39.3892375], [141.3402816, 39.389057], [141.3401737, 39.387091], [141.3400472, 39.386054], [141.3400425, 39.3860041], [141.339947, 39.3850038], [141.3399191, 39.3845514], [141.3399394, 39.3842997], [141.3400705, 39.3839231], [141.3402165, 39.3835915], [141.3404198, 39.3833794], [141.340664, 39.3831163], [141.3415626, 39.3825498], [141.3426344, 39.3818957], [141.343161, 39.3815723], [141.3435174, 39.3813674], [141.3438142, 39.3812878], [141.3441915, 39.3812456], [141.3445569, 39.3812886], [141.3463042, 39.3821297], [141.3465124, 39.3822406], [141.3473948, 39.382583], [141.348586, 39.382846], [141.3492739, 39.3830234], [141.3496139, 39.3830183], [141.3499463, 39.3829445], [141.3501926, 39.3828042], [141.3503533, 39.3826112], [141.3504307, 39.3823872], [141.3504016, 39.3821492], [141.3503455, 39.3820133], [141.3490843, 39.380843], [141.3479807, 39.3795059], [141.3477881, 39.3792074], [141.3476585, 39.3787942], [141.3476196, 39.3783308], [141.3476898, 39.3779336], [141.3478524, 39.3775608], [141.3480608, 39.3771605], [141.3483741, 39.3765889], [141.3490513, 39.3751748], [141.349204, 39.3746877], [141.3493629, 39.3737494], [141.3494497, 39.3733187], [141.3496301, 39.373016], [141.3498438, 39.372798], [141.3506361, 39.3723431], [141.3511085, 39.3720659], [141.3513902, 39.3717843], [141.3515682, 39.3714682], [141.3516729, 39.3710571], [141.3518351, 39.3700582], [141.3519455, 39.3698084], [141.352098, 39.3695764], [141.3523609, 39.3693373], [141.3526723, 39.369149], [141.3537703, 39.3686179], [141.3541511, 39.3683846], [141.3543758, 39.3681298], [141.3549023, 39.3673247], [141.3551214, 39.3670353], [141.3554476, 39.3667749], [141.3558883, 39.3666209], [141.3562656, 39.3665703], [141.3569133, 39.3665368], [141.3575301, 39.3664899], [141.3579147, 39.3664565], [141.3581444, 39.3665227], [141.3583605, 39.366711], [141.3585596, 39.3670238], [141.3587651, 39.3671499], [141.3589812, 39.3671859], [141.3592348, 39.3671457], [141.3594896, 39.3669845], [141.3596845, 39.3667061], [141.3600997, 39.3660788], [141.360313, 39.365855], [141.3606468, 39.3657117], [141.3610711, 39.365613], [141.3615355, 39.3656126], [141.3623264, 39.3657003], [141.3629394, 39.3657683], [141.3632296, 39.3658394], [141.3633905, 39.3659258], [141.363477, 39.3659722], [141.3637346, 39.3662015], [141.363959, 39.3666806], [141.3643362, 39.3671173], [141.364637, 39.3674191], [141.3651154, 39.3677726], [141.3655751, 39.368002], [141.3660075, 39.3681354], [141.3672661, 39.3684131], [141.3675611, 39.3685222], [141.3678377, 39.3686733], [141.3689021, 39.3694367], [141.369478, 39.3698146], [141.3699886, 39.3700343], [141.3703522, 39.3702106], [141.3709771, 39.3704832], [141.3715878, 39.3707495], [141.3719689, 39.3710118], [141.3730201, 39.371845], [141.3733102, 39.3720614], [141.3739575, 39.3725441], [141.3739879, 39.3725668], [141.3745465, 39.3728217], [141.3759339, 39.3733563], [141.3764845, 39.3735684], [141.3766602, 39.3736361], [141.3774266, 39.3739177], [141.3778529, 39.3740235], [141.378124, 39.3740449], [141.3781857, 39.3740489], [141.3787327, 39.3740187], [141.3791423, 39.3739094], [141.3794857, 39.3737033], [141.3798525, 39.3732933], [141.3801916, 39.3728373], [141.3803697, 39.3725978], [141.3804465, 39.3724946], [141.3809961, 39.371952], [141.3814192, 39.3716678], [141.3818756, 39.3714092], [141.3822806, 39.3712363], [141.3829005, 39.3710846], [141.3840157, 39.3706307], [141.3845951, 39.3704535], [141.3852776, 39.3703803], [141.3858196, 39.3702319], [141.386232, 39.3700581], [141.3867031, 39.3698326], [141.3871559, 39.3696253], [141.3876951, 39.3696338], [141.3879931, 39.3695725], [141.3882663, 39.3693887], [141.3884611, 39.3691306], [141.3885218, 39.3688686], [141.3885753, 39.3683201], [141.3887318, 39.3680864], [141.3889291, 39.3679397], [141.3892098, 39.3678673], [141.389588, 39.367837], [141.3899839, 39.3679768], [141.3908574, 39.3684373], [141.3912107, 39.3686143], [141.3916053, 39.3687238], [141.3927213, 39.3688796], [141.3931887, 39.3689194], [141.3940589, 39.3689214], [141.3946197, 39.3689616], [141.3947663, 39.3689906], [141.3950503, 39.369044], [141.3951679, 39.3690819], [141.3955841, 39.3691839], [141.3956315, 39.3691955], [141.3960461, 39.369194], [141.3964316, 39.3691392], [141.3968426, 39.3689811], [141.3971672, 39.3687732], [141.3976907, 39.3684144], [141.3984537, 39.3679262], [141.3994238, 39.3673645], [141.3999113, 39.3670309], [141.4002511, 39.3667104], [141.4004429, 39.3664929], [141.4006142, 39.3662256], [141.4008119, 39.3656358], [141.4008558, 39.3651464], [141.4008755, 39.3649267], [141.4009252, 39.364372], [141.4010167, 39.3640195], [141.4012444, 39.3635842], [141.4015225, 39.3632896], [141.4019849, 39.3629725], [141.402696, 39.3626975], [141.4034079, 39.3624852], [141.4048787, 39.3621762], [141.406163, 39.3618574], [141.4066854, 39.3617467], [141.4091048, 39.3615759], [141.4107172, 39.3614137], [141.41152, 39.361256], [141.4123036, 39.3610478], [141.4129462, 39.3608131], [141.414758, 39.3597458], [141.41561, 39.358858], [141.417861, 39.356458], [141.419285, 39.355099], [141.420433, 39.35412], [141.421718, 39.353274], [141.42231, 39.352884], [141.424259, 39.351653], [141.424796, 39.351361], [141.425783, 39.350909], [141.427006, 39.350444], [141.428302, 39.349966], [141.4299956, 39.3493342], [141.430785, 39.3489738], [141.4315392, 39.3484212], [141.4320757, 39.3479098], [141.4334326, 39.3459694], [141.433932, 39.3453106], [141.434519, 39.3447445], [141.4358049, 39.3438807], [141.4363084, 39.3435083], [141.4372879, 39.3427837], [141.4373283, 39.3427538], [141.4387193, 39.3416524], [141.44008, 39.340664], [141.4413522, 39.3397314], [141.4419318, 39.33936], [141.4433062, 39.3384123], [141.4440679, 39.3376951], [141.4449456, 39.3363631], [141.445325, 39.335887], [141.4465849, 39.335236], [141.4480753, 39.3348774], [141.4491847, 39.3344675], [141.4501949, 39.3335197], [141.4503993, 39.3333101], [141.4515693, 39.3321108], [141.4524364, 39.3314144], [141.4531757, 39.3309553], [141.4539679, 39.3307855], [141.4554797, 39.3306538], [141.457067, 39.3305866], [141.4593511, 39.3307087], [141.4596494, 39.3307281], [141.4605497, 39.3307868], [141.4620897, 39.3310212], [141.4638138, 39.3312384], [141.4655464, 39.3315792], [141.4664571, 39.3317907], [141.4680444, 39.3321957], [141.468336, 39.3322712], [141.468938, 39.332427], [141.4705698, 39.3327436], [141.4714481, 39.3329214], [141.4723751, 39.3328795], [141.4736737, 39.3326282], [141.4752397, 39.3323251], [141.4760654, 39.332168], [141.4772467, 39.3319433], [141.4777188, 39.3318312], [141.4779229, 39.3317827], [141.4786044, 39.331558], [141.4790433, 39.3314348], [141.4801418, 39.3310385], [141.4803948, 39.3308947], [141.4806581, 39.3307068], [141.4809933, 39.3303511], [141.4811401, 39.3300869], [141.4813032, 39.3296736], [141.4816101, 39.3289112], [141.4816772, 39.3287548], [141.4818101, 39.3284621], [141.4819816, 39.3280371]]]}, "id": "relation/446121"}]}