{"type": "FeatureCollection", "generator": "kokudo-quiz tools/fetch_raw.py (Overpass API)", "copyright": "The data included in this document is from www.openstreetmap.org. The data is made available under ODbL.", "timestamp": "2026-09-30T23:38:46Z", "features": [{"type": "Feature", "properties": {"@id": "relation/7901019", "colour": "red", "from": "岩手県大船渡市", "name": "国道397号", "name:en": "National Highway Route 397", "name:ja": "国道397号", "name:ja-Hira": "こくどうさんびゃくきゅうじゅうななごう", "name:ja-Latn": "kokudou 397 gou", "network": "JP:national", "ref": "397", "route": "road", "to": "秋田県横手市", "type": "route", "wikidata": "Q6157438", "wikipedia": "ja:国道397号"}, "geometry": {"type": "MultiLineString", "coordinates": [[[141.1200787, 39.1444606], [141.1200169, 39.1444806], [141.1196389, 39.1445764], [141.1194654, 39.1446072], [141.1176394, 39.1447231], [141.116769, 39.1447448], [141.1164336, 39.1447461], [141.1158603, 39.1447334], [141.1156216, 39.1447084], [141.115506, 39.1446864], [141.1152917, 39.1446481], [141.1139623, 39.1442962], [141.1136147, 39.1441956], [141.1113005, 39.1435934], [141.1110379, 39.1435198], [141.109482, 39.1431212], [141.1091387, 39.1430526], [141.1087753, 39.1430101], [141.1061571, 39.1428105], [141.1033639, 39.1426066], [141.1007769, 39.1424106], [141.0981209, 39.1422241], [141.0959842, 39.1420782], [141.0955655, 39.1420096], [141.0936953, 39.1416618], [141.0929919, 39.141507], [141.0919723, 39.1412886], [141.0896655, 39.1409609], [141.0890812, 39.1409141], [141.0878309, 39.1407404], [141.0869216, 39.1406183], [141.0861107, 39.1405069], [141.0831921, 39.1401182], [141.0827071, 39.1400408], [141.0796388, 39.1392445], [141.0768349, 39.1385994], [141.0756535, 39.1383348], [141.0742106, 39.1380151], [141.07303, 39.1377541], [141.0713437, 39.1373774], [141.0704344, 39.1371673], [141.0702128, 39.1370702], [141.0700704, 39.1369902], [141.0699412, 39.1368805], [141.0694322, 39.1364237], [141.0688949, 39.1359003], [141.0687077, 39.1356751], [141.068528, 39.1354525], [141.0682803, 39.1350802], [141.0677559, 39.1343101], [141.0671536, 39.133695], [141.0667887, 39.1332805], [141.0660964, 39.1325457], [141.0648354, 39.131124], [141.0647529, 39.1310447], [141.0643136, 39.1305762], [141.0640513, 39.1303358], [141.0638872, 39.1302184], [141.0636806, 39.1300894], [141.0634097, 39.1299687], [141.0631073, 39.1298794], [141.062876, 39.1298293], [141.0625756, 39.129796], [141.0622698, 39.1297939], [141.0618075, 39.1298355], [141.0593453, 39.1300608], [141.0573426, 39.1302579], [141.0568382, 39.1302812], [141.0566807, 39.1302908], [141.056298, 39.1302774], [141.0560313, 39.1302451], [141.0556726, 39.1301691], [141.0541917, 39.1297341], [141.0531525, 39.129417], [141.0522222, 39.1291468], [141.0519359, 39.1290829], [141.0517555, 39.1290574], [141.0514649, 39.1290511], [141.0511282, 39.1291031], [141.0504654, 39.1292883], [141.049355, 39.1296004], [141.0486833, 39.1297589], [141.0465647, 39.1302058], [141.0463957, 39.1302391], [141.0453146, 39.130474], [141.0445479, 39.1306194], [141.044297, 39.1306366], [141.0440538, 39.1306393], [141.0438538, 39.1306095], [141.0436848, 39.1305773], [141.0427196, 39.130289], [141.0415365, 39.1299387], [141.0410756, 39.129921], [141.0407626, 39.1299232], [141.0399216, 39.1298917], [141.0394242, 39.1298665], [141.0376167, 39.1297314], [141.0352243, 39.1295657], [141.0341313, 39.129493], [141.0334152, 39.1294625], [141.0315049, 39.1293337], [141.0308743, 39.129284], [141.0300946, 39.1292248], [141.0284815, 39.1291209], [141.0279322, 39.1290782], [141.0272493, 39.129016], [141.0267788, 39.1289471], [141.0251245, 39.1285552], [141.0240135, 39.1283063], [141.0232088, 39.1281107], [141.0224096, 39.1278461], [141.0218677, 39.1277236], [141.0213286, 39.1276529], [141.0192687, 39.1274761], [141.0176519, 39.1273625], [141.0141255, 39.1270904], [141.0129361, 39.1270099], [141.0113169, 39.1269399], [141.009656, 39.1268879], [141.0083145, 39.1268435], [141.0074246, 39.1268049], [141.0053659, 39.1266569], [141.0052048, 39.126643], [141.0036018, 39.1265231], [141.00325, 39.12649], [141.0005834, 39.1263147], [140.9991728, 39.1262464], [140.9951162, 39.12607], [140.9938252, 39.1260258], [140.9923614, 39.1259564], [140.9912023, 39.1259416], [140.9903391, 39.1259601], [140.9890103, 39.1259712], [140.9881211, 39.1259696], [140.9877419, 39.1259384], [140.9871022, 39.125837], [140.9846359, 39.1254328], [140.9835416, 39.1252372], [140.9832707, 39.1252122], [140.9830078, 39.1252184], [140.9828635, 39.1252101], [140.9825385, 39.1251706], [140.9822779, 39.1251305], [140.9805188, 39.1247669], [140.9794717, 39.1245493], [140.978392, 39.1243475], [140.9778716, 39.1242455], [140.9739123, 39.1234683], [140.9726557, 39.1231756], [140.9714323, 39.1228948], [140.9702187, 39.1226128], [140.9679687, 39.1221326], [140.9652999, 39.1215562], [140.9635754, 39.1211343], [140.9623099, 39.1208161], [140.9619607, 39.1207328], [140.9609386, 39.1204866], [140.9600436, 39.120292], [140.9585954, 39.1200327], [140.9578417, 39.1198703], [140.955129, 39.1193504], [140.9546462, 39.1192901], [140.954217, 39.1192443], [140.9537429, 39.1192189], [140.9530503, 39.1192235], [140.9523958, 39.119263], [140.9521013, 39.1192909], [140.9498742, 39.1196116], [140.9478226, 39.1199026], [140.9465001, 39.1200911], [140.9454274, 39.1202494], [140.9428816, 39.1206068], [140.9422463, 39.1207197], [140.9416572, 39.120849], [140.9411037, 39.1210089], [140.9405186, 39.1212159], [140.9399691, 39.1214397], [140.9395131, 39.121654], [140.939064, 39.1219083], [140.9384256, 39.1222898], [140.9366415, 39.123453], [140.9352721, 39.1244216], [140.9333017, 39.1259533], [140.932959, 39.1261875], [140.9326118, 39.1263254], [140.9321669, 39.1264543], [140.9316969, 39.1265532], [140.9303985, 39.1266357], [140.9292185, 39.12647], [140.9286066, 39.1262962], [140.9278084, 39.126014], [140.9269913, 39.1256228], [140.9263891, 39.12531], [140.9259292, 39.1250764], [140.9254825, 39.1249043], [140.9250909, 39.1247856], [140.9246912, 39.1247002], [140.924238, 39.1246525], [140.9238293, 39.124638], [140.9235716, 39.1246371], [140.9231946, 39.1246566], [140.9229264, 39.1246816], [140.9225609, 39.1247358], [140.9222602, 39.1247903], [140.9218912, 39.1248754], [140.9215397, 39.1249708], [140.9211396, 39.125094], [140.9203005, 39.1254182], [140.9195228, 39.1257276], [140.9189755, 39.1258094], [140.9186148, 39.1258168], [140.9181855, 39.1257887], [140.9177471, 39.125745], [140.9173277, 39.1256744], [140.916827, 39.1255555], [140.9161967, 39.1253204], [140.9149721, 39.1248954], [140.9145528, 39.1248359], [140.9141773, 39.1248096], [140.9138888, 39.1248343], [140.9136057, 39.1248502], [140.9127018, 39.1249667], [140.9126118, 39.1249768], [140.9123159, 39.12501], [140.9104675, 39.1252497], [140.9101456, 39.1252601], [140.9098371, 39.1252398], [140.9095276, 39.1252042], [140.9093353, 39.1251593], [140.9088968, 39.1250233], [140.908601, 39.1249067], [140.9082018, 39.1246637], [140.9078928, 39.1244939], [140.9076597, 39.1242928], [140.907494, 39.1240728], [140.9052682, 39.1205923], [140.9052077, 39.1205033], [140.9045184, 39.1194919], [140.9040674, 39.1187126], [140.9039869, 39.1185939], [140.9034549, 39.1178339], [140.9032861, 39.1176234], [140.9030877, 39.1173907], [140.9028921, 39.1172224], [140.9026533, 39.1170565], [140.902438, 39.116935], [140.9021594, 39.1168243], [140.9019618, 39.1167709], [140.9015894, 39.1167055], [140.9012528, 39.1166864], [140.9009296, 39.1167097], [140.9005997, 39.1167596], [140.9002499, 39.1168603], [140.8998931, 39.1170099], [140.8996535, 39.1171367], [140.8976009, 39.1183786], [140.8956362, 39.1195868], [140.8950555, 39.1199102], [140.8948463, 39.1200267], [140.8946452, 39.1201058], [140.8943662, 39.1201849], [140.8940428, 39.120254], [140.8936585, 39.1203294], [140.8933738, 39.1203534], [140.8930841, 39.1203597], [140.8926967, 39.1203416], [140.8922848, 39.1202868], [140.8918691, 39.1201932], [140.8915061, 39.1200741], [140.8912749, 39.119986], [140.8909224, 39.1198163], [140.8906165, 39.1196239], [140.8903831, 39.1194586], [140.8902618, 39.1193377], [140.8902298, 39.1193058], [140.8896258, 39.1186063], [140.888696, 39.1174713], [140.8882408, 39.1169872], [140.887996, 39.1167846], [140.8876754, 39.1165788], [140.887493, 39.1164995], [140.887393, 39.1164708], [140.8871673, 39.1164078], [140.8869727, 39.1163663], [140.8867072, 39.1163236], [140.8862686, 39.1163153], [140.885295, 39.1163923], [140.8848511, 39.1164131], [140.8846596, 39.1164013], [140.8845225, 39.1163481], [140.8843972, 39.1162553], [140.8843057, 39.1161404], [140.8841121, 39.1157703], [140.884057, 39.115654], [140.8838835, 39.1154406], [140.8837707, 39.1153608], [140.8836548, 39.1153171], [140.8835289, 39.1152792], [140.8833099, 39.1152292], [140.8825423, 39.1151236], [140.8811684, 39.1148835], [140.8809506, 39.1148316], [140.8807707, 39.1147572], [140.8806683, 39.1146954], [140.8806079, 39.1146362], [140.8805381, 39.114563], [140.8804561, 39.1144462], [140.8804213, 39.1143843], [140.8797104, 39.1130262], [140.8794498, 39.1124746], [140.8792601, 39.112183], [140.8791359, 39.1120575], [140.8789785, 39.1119329], [140.8788233, 39.1118324], [140.8786655, 39.1117621], [140.8784882, 39.111715], [140.8782958, 39.1116805], [140.8774076, 39.1116124], [140.8770166, 39.1115507], [140.876614, 39.1114435], [140.8764066, 39.1113732], [140.8760887, 39.1112261], [140.8758046, 39.1110494], [140.875537, 39.1108346], [140.8743221, 39.1098388], [140.8740592, 39.1096005], [140.8739575, 39.1094748], [140.873907, 39.1093687], [140.8738892, 39.1092424], [140.8738236, 39.1081997], [140.8738094, 39.1080028], [140.8737735, 39.107923], [140.8737264, 39.1077702], [140.8735561, 39.1076058], [140.8733112, 39.1073815], [140.8730534, 39.1071623], [140.8728938, 39.1070052], [140.8727925, 39.1068504], [140.8726986, 39.1066589], [140.8726561, 39.1065233], [140.8726308, 39.1063982], [140.8725935, 39.1058302], [140.8725932, 39.1057242], [140.8725419, 39.1055364], [140.872474, 39.1053954], [140.872366, 39.105233], [140.872265, 39.1051511], [140.872134, 39.1050803], [140.8720336, 39.1050489], [140.8719143, 39.1050339], [140.8717924, 39.1050232], [140.8703242, 39.1050518], [140.8699465, 39.1050319], [140.8697023, 39.1049954], [140.8694412, 39.1049451], [140.8681811, 39.1046293], [140.8680122, 39.104595], [140.8678861, 39.1045898], [140.8677362, 39.1046022], [140.8675951, 39.1046267], [140.8671356, 39.1047586], [140.8669326, 39.104825], [140.8667868, 39.1048471], [140.8666036, 39.1048459], [140.866457, 39.1048296], [140.8657323, 39.1046761], [140.8650859, 39.1045585], [140.8648378, 39.1045304], [140.8637383, 39.1044351], [140.8635735, 39.104474], [140.8634562, 39.1045251], [140.8633434, 39.1046212], [140.8630545, 39.1050368], [140.8619168, 39.1066909], [140.8618502, 39.1067726], [140.8617602, 39.1068323], [140.8616083, 39.1068807], [140.8608885, 39.1069712], [140.8607715, 39.1070031], [140.8606956, 39.107037], [140.8605913, 39.1071436], [140.8605358, 39.107249], [140.860337, 39.1076837], [140.8602619, 39.1077503], [140.8601659, 39.1078048], [140.860029, 39.1078578], [140.8597366, 39.1079155], [140.859398, 39.1079929], [140.8592385, 39.1080466], [140.8591117, 39.1081218], [140.8582105, 39.1089704], [140.8577191, 39.1094197], [140.8575073, 39.109588], [140.8574021, 39.1096481], [140.8572745, 39.1097014], [140.8571079, 39.1097396], [140.8563298, 39.1098523], [140.8561474, 39.1099148], [140.8560394, 39.1099591], [140.855932, 39.110046], [140.8558459, 39.1101384], [140.8557854, 39.1102503], [140.8557551, 39.1103474], [140.855752, 39.1104611], [140.8557772, 39.1105643], [140.8559087, 39.1109533], [140.8559345, 39.1110841], [140.8559552, 39.1113247], [140.8559411, 39.111486], [140.8558579, 39.1119822], [140.855806, 39.1121161], [140.8557142, 39.1122094], [140.8555939, 39.1122671], [140.855442, 39.112288], [140.8547745, 39.1122664], [140.8546373, 39.1122198], [140.8545302, 39.1121556], [140.8544381, 39.1120576], [140.854376, 39.1119511], [140.8542296, 39.1114912], [140.8541893, 39.1113792], [140.8541013, 39.1112662], [140.8539855, 39.1111864], [140.8536503, 39.1110803], [140.8534706, 39.1110261], [140.8533713, 39.1109637], [140.8532582, 39.1108616], [140.8530886, 39.1106866], [140.8529349, 39.110482], [140.8525613, 39.1099475], [140.852475, 39.1098769], [140.8523052, 39.1098126], [140.8520939, 39.10978], [140.8519297, 39.1098157], [140.851777, 39.1098796], [140.8514679, 39.1100595], [140.8513297, 39.1101285], [140.8511564, 39.1101692], [140.8509677, 39.1102185], [140.8508711, 39.110269], [140.8507762, 39.1104333], [140.8507588, 39.1105454], [140.85075, 39.110626], [140.8507054, 39.1107165], [140.8505971, 39.1107898], [140.8496966, 39.1110983], [140.8494959, 39.1112107], [140.849002, 39.1115444], [140.8488411, 39.1116297], [140.8483382, 39.1117858], [140.8474298, 39.112146], [140.8472894, 39.1121687], [140.847091, 39.1122041], [140.8469293, 39.1122708], [140.846802, 39.1123353], [140.8465835, 39.1125145], [140.8464436, 39.1126472], [140.8463081, 39.1127211], [140.845286, 39.1132421], [140.8450528, 39.1133761], [140.8449827, 39.1134413], [140.8448796, 39.113582], [140.8447287, 39.1139549], [140.8446721, 39.1140368], [140.8445688, 39.1141123], [140.8436766, 39.1144598], [140.8435474, 39.1145241], [140.8434686, 39.1146015], [140.8434407, 39.1147282], [140.8434574, 39.1148664], [140.8435209, 39.1152436], [140.8435349, 39.1153989], [140.8435241, 39.1154966], [140.8433785, 39.1162318], [140.8433694, 39.1163517], [140.8433814, 39.1164766], [140.8434096, 39.116615], [140.8435074, 39.116929], [140.8435288, 39.1170232], [140.843529, 39.1171144], [140.8435169, 39.1172195], [140.8434874, 39.1173267], [140.8434512, 39.1175264], [140.8434332, 39.117826], [140.8434109, 39.1179374], [140.8433813, 39.1179878], [140.8433023, 39.1180467], [140.8432087, 39.1180726], [140.8430914, 39.1180706], [140.8427698, 39.1179931], [140.8426572, 39.1179531], [140.8425727, 39.1179041], [140.8424808, 39.117809], [140.8423434, 39.1175618], [140.8422821, 39.11743], [140.8422308, 39.1172112], [140.8421857, 39.1171044], [140.8421126, 39.1170147], [140.8420251, 39.1169439], [140.8417828, 39.1168408], [140.8416326, 39.1167544], [140.8415414, 39.1166774], [140.8414784, 39.116591], [140.8414328, 39.1164859], [140.8414227, 39.1163666], [140.8414072, 39.1162898], [140.8413863, 39.11622], [140.8413514, 39.1161528], [140.8411876, 39.1160107], [140.8410573, 39.1159334], [140.840907, 39.1158792], [140.8406648, 39.1158235], [140.8405277, 39.1157994], [140.8403908, 39.1157878], [140.840272, 39.1158177], [140.8401584, 39.1158658], [140.8399857, 39.1160065], [140.8398382, 39.116102], [140.8396887, 39.1161656], [140.8393056, 39.1163036], [140.8392039, 39.1163236], [140.8390899, 39.1163267], [140.8389933, 39.1163091], [140.8389142, 39.1162716], [140.838839, 39.1162047], [140.8384499, 39.1157369], [140.8379122, 39.1151567], [140.8377284, 39.1149977], [140.8376724, 39.1149553], [140.8375825, 39.1149095], [140.8374654, 39.1148839], [140.8373478, 39.1148856], [140.8372099, 39.1148891], [140.837095, 39.114917], [140.8369438, 39.1149868], [140.8367281, 39.1151148], [140.836354, 39.1153424], [140.8358897, 39.1156376], [140.8356768, 39.115795], [140.835481, 39.1159043], [140.8352798, 39.1159823], [140.8350787, 39.1160427], [140.8345155, 39.1162889], [140.8343974, 39.1163455], [140.8343017, 39.1164141], [140.8342606, 39.1164683], [140.8342367, 39.1165275], [140.8341985, 39.1166463], [140.8341452, 39.1168293], [140.8341117, 39.1169053], [140.8340621, 39.1169843], [140.8339119, 39.11713], [140.8337977, 39.1172572], [140.8337429, 39.1173277], [140.8337144, 39.1174172], [140.8337081, 39.1175054], [140.8337158, 39.1177951], [140.8337042, 39.117857], [140.8336774, 39.1179276], [140.8336186, 39.1179887], [140.833097, 39.118448], [140.8322297, 39.1193689], [140.832159, 39.1194986], [140.832121, 39.11962], [140.8321215, 39.1197302], [140.8321457, 39.1198051], [140.8322242, 39.1199103], [140.8323333, 39.12003], [140.8326056, 39.1202988], [140.8328645, 39.120547], [140.8330536, 39.1206801], [140.833392, 39.1208985], [140.833464, 39.120967], [140.8335294, 39.1210998], [140.833575, 39.1212254], [140.8336152, 39.1213225], [140.8336256, 39.1214152], [140.8336195, 39.1214875], [140.833578, 39.1215572], [140.8335199, 39.1216188], [140.8334479, 39.1216561], [140.833354, 39.1216675], [140.8332446, 39.1216531], [140.8330525, 39.1216119], [140.8327632, 39.1215445], [140.8324152, 39.1215146], [140.8320531, 39.1215083], [140.83186, 39.1214875], [140.8314577, 39.1214064], [140.8312431, 39.121371], [140.8310766, 39.121352], [140.8309565, 39.1213778], [140.8308092, 39.121472], [140.8305551, 39.1216714], [140.8303866, 39.1217523], [140.8300211, 39.121888], [140.8297431, 39.122054], [140.8293975, 39.1223361], [140.8291643, 39.1226211], [140.8286892, 39.1232475], [140.8285, 39.123586], [140.8284353, 39.1238072], [140.8284313, 39.1241293], [140.8284804, 39.1247752], [140.8285233, 39.1248782], [140.828591, 39.1250041], [140.8286863, 39.1251076], [140.828899, 39.1253036], [140.8290036, 39.1253958], [140.8291349, 39.125468], [140.8296445, 39.1256627], [140.8297545, 39.1257324], [140.8298452, 39.1258165], [140.8299012, 39.1259163], [140.82993, 39.1260342], [140.8299732, 39.1262765], [140.8299926, 39.1265621], [140.8299583, 39.1266219], [140.8298901, 39.1266762], [140.8298031, 39.1267367], [140.8297276, 39.1267644], [140.8296527, 39.1267767], [140.8295855, 39.1267676], [140.8295184, 39.1267551], [140.8294474, 39.1267322], [140.8293854, 39.1266864], [140.8289379, 39.1263206], [140.8288159, 39.1262669], [140.8286545, 39.1262429], [140.8281174, 39.1261975], [140.8279239, 39.1261586], [140.827763, 39.126102], [140.827103, 39.1258861], [140.826979, 39.1258444], [140.8268555, 39.1258322], [140.82669, 39.125884], [140.826606, 39.125973], [140.8265406, 39.1260993], [140.8264911, 39.1265228], [140.8264819, 39.1266508], [140.826407, 39.12676], [140.826248, 39.126879], [140.8257311, 39.1271681], [140.8255804, 39.1272954], [140.8253871, 39.1274582], [140.8252873, 39.1275031], [140.8251646, 39.1275072], [140.8250993, 39.1274908], [140.8250013, 39.127452], [140.824943, 39.1273962], [140.8245821, 39.1267148], [140.8244692, 39.1264804], [140.824379, 39.1263887], [140.8242962, 39.1263483], [140.8241927, 39.1263143], [140.8240675, 39.1263054], [140.8237404, 39.1263704], [140.8236241, 39.1264088], [140.8235462, 39.126457], [140.8234825, 39.1265524], [140.8233882, 39.1268113], [140.8233794, 39.1268917], [140.8233819, 39.1269578], [140.8234106, 39.1270398], [140.8236673, 39.1274827], [140.8236886, 39.1275949], [140.8236887, 39.1276924], [140.8236538, 39.1277653], [140.8235989, 39.1278193], [140.8235233, 39.1278689], [140.8234208, 39.127898], [140.823124, 39.1279421], [140.8230047, 39.1279733], [140.822934, 39.1280275], [140.8228708, 39.128109], [140.8228585, 39.1281824], [140.8228835, 39.1282733], [140.8230363, 39.1287327], [140.8230401, 39.1287932], [140.82302, 39.1288626], [140.822982, 39.128915], [140.8229274, 39.1289706], [140.822884, 39.1289981], [140.8228255, 39.1290259], [140.822756, 39.1290447], [140.8226842, 39.129047], [140.8226077, 39.1290428], [140.822513, 39.1290217], [140.8209904, 39.1280982], [140.8205083, 39.1277789], [140.8203864, 39.1277188], [140.8202613, 39.1276911], [140.8200849, 39.1276838], [140.8194122, 39.1277031], [140.8191825, 39.1277247], [140.8190546, 39.1277613], [140.8189178, 39.1278225], [140.8184779, 39.1280315], [140.8182424, 39.128144], [140.8181512, 39.1282178], [140.8179271, 39.1284071], [140.8175848, 39.1286855], [140.8175249, 39.1287827], [140.8174914, 39.1288691], [140.8174981, 39.1289648], [140.8176866, 39.1292816], [140.8178025, 39.129513], [140.8178202, 39.1295944], [140.8178114, 39.1296892], [140.8177835, 39.1297739], [140.8177261, 39.1298626], [140.8176504, 39.1299222], [140.8175726, 39.1299706], [140.817454, 39.1300094], [140.8172959, 39.1300154], [140.8171897, 39.12999], [140.8164183, 39.1296935], [140.8162925, 39.1296795], [140.8161382, 39.1296888], [140.8160184, 39.1297253], [140.8159199, 39.1297951], [140.8155344, 39.1301232], [140.8153983, 39.1302659], [140.8153618, 39.1303474], [140.8153434, 39.1304114], [140.8153362, 39.1304927], [140.8153778, 39.1307552], [140.8153859, 39.1308498], [140.8153684, 39.1309133], [140.8153336, 39.1309791], [140.8152866, 39.1310309], [140.8152345, 39.1310775], [140.8151753, 39.1311144], [140.8150734, 39.1311505], [140.8149701, 39.1311609], [140.8148481, 39.1311609], [140.8147628, 39.131141], [140.8146751, 39.1311026], [140.8145359, 39.1310236], [140.8137439, 39.1305218], [140.8135784, 39.1304384], [140.813459, 39.1303943], [140.8126742, 39.130235], [140.8124867, 39.1302232], [140.812365, 39.1302541], [140.8122436, 39.1302856], [140.8119441, 39.1305028], [140.8116829, 39.1307146], [140.8115828, 39.1308129], [140.8115048, 39.1309261], [140.8114622, 39.1310445], [140.8113787, 39.1314979], [140.8113329, 39.13157], [140.8112594, 39.1316612], [140.8111909, 39.1317102], [140.8111035, 39.1317577], [140.8109722, 39.1317986], [140.8107617, 39.1318385], [140.8102814, 39.1319385], [140.8098265, 39.1320158], [140.8095762, 39.1320014], [140.8090666, 39.1319474], [140.8088911, 39.1319458], [140.8087103, 39.1319872], [140.8085582, 39.1320528], [140.8084343, 39.1321439], [140.808347, 39.1322521], [140.8082673, 39.1324072], [140.80816, 39.1326256], [140.8080822, 39.1327192], [140.8079733, 39.1328077], [140.807807, 39.1328867], [140.8071977, 39.1331328], [140.8070653, 39.1331659], [140.8069242, 39.133183], [140.8063921, 39.1331878], [140.8062407, 39.1331925], [140.8060818, 39.133224], [140.8059189, 39.133281], [140.8057923, 39.1333562], [140.8052338, 39.1336849], [140.805054, 39.133797], [140.8049494, 39.1338802], [140.8047961, 39.1340221], [140.8045846, 39.1342776], [140.8043754, 39.1345043], [140.8041045, 39.1347311], [140.8037633, 39.1350182], [140.8035985, 39.135142], [140.803391, 39.1352491], [140.8032141, 39.1353199], [140.8029351, 39.1354031], [140.8027918, 39.1354759], [140.802655, 39.1355883], [140.802575, 39.1356967], [140.8024466, 39.1360112], [140.8023767, 39.1361171], [140.8022826, 39.1362108], [140.8021384, 39.1362769], [140.8012426, 39.1366555], [140.8007133, 39.1368529], [140.8005206, 39.1369374], [140.8003636, 39.137045], [140.8001249, 39.1372509], [140.7999178, 39.1373824], [140.7997189, 39.1374894], [140.7995038, 39.137579], [140.7991886, 39.1377288], [140.7990479, 39.1377961], [140.7987354, 39.138069], [140.7985417, 39.1382375], [140.7984129, 39.1383157], [140.7982707, 39.1383532], [140.798142, 39.1383573], [140.7980237, 39.1383273], [140.7979092, 39.1382707], [140.7975123, 39.1379601], [140.7973896, 39.1378906], [140.7972468, 39.1378577], [140.7970878, 39.1378393], [140.7968625, 39.1378726], [140.7966346, 39.1378918], [140.7964506, 39.1378888], [140.7962336, 39.1378622], [140.7957482, 39.1377717], [140.7955767, 39.1377581], [140.7954015, 39.1377692], [140.7949257, 39.1378408], [140.7947291, 39.1378654], [140.7945566, 39.1378589], [140.7944448, 39.1378304], [140.7943358, 39.1377742], [140.794239, 39.1376776], [140.7937965, 39.1370084], [140.7937109, 39.1369156], [140.793601, 39.1368553], [140.7934883, 39.1368303], [140.7933258, 39.1368404], [140.7930757, 39.1368923], [140.7928618, 39.136913], [140.7926434, 39.1369108], [140.7924781, 39.1368872], [140.7922981, 39.1368483], [140.7907296, 39.1363651], [140.7891968, 39.135865], [140.7890359, 39.1358067], [140.7888937, 39.1357131], [140.788797, 39.1356148], [140.7886614, 39.1354336], [140.7884898, 39.1352417], [140.7882317, 39.1350125], [140.7877082, 39.134625], [140.7875169, 39.1345293], [140.7873384, 39.1344724], [140.7870351, 39.1343954], [140.7867813, 39.1343054], [140.7855999, 39.1338427], [140.7852241, 39.1336962], [140.7850089, 39.1336525], [140.7847881, 39.1336305], [140.7838216, 39.1336742], [140.7836285, 39.13367], [140.7834415, 39.133655], [140.7824028, 39.1333996], [140.782237, 39.1333787], [140.7821149, 39.1333993], [140.7820197, 39.1334375], [140.7819391, 39.1335194], [140.7818839, 39.1336441], [140.7818234, 39.1338302], [140.7817402, 39.1341465], [140.7817134, 39.1342463], [140.7816866, 39.1343212], [140.781641, 39.134417], [140.7815605, 39.1345626], [140.7814425, 39.1347602], [140.7813315, 39.1349133], [140.7812132, 39.1350574], [140.7810774, 39.1352092], [140.7808935, 39.1353719], [140.7805613, 39.1356297], [140.7797566, 39.1362345], [140.7796615, 39.1362894], [140.7795129, 39.1363295], [140.7789631, 39.1364609], [140.7787657, 39.136487], [140.7786584, 39.136487], [140.7785162, 39.1364745], [140.7781021, 39.1363795], [140.7778015, 39.1362976], [140.7776214, 39.1362722], [140.777451, 39.136253], [140.776455, 39.1362271], [140.7762602, 39.1362372], [140.7761374, 39.1362542], [140.7759909, 39.1362932], [140.7756803, 39.1363967], [140.7752332, 39.1365411], [140.7748067, 39.1366639], [140.7745238, 39.1367585], [140.7743803, 39.136822], [140.774173, 39.1369218], [140.7740624, 39.1369936], [140.7739495, 39.1370872], [140.773821, 39.1372089], [140.7736943, 39.1373407], [140.7736067, 39.1374664], [140.7735367, 39.1375824], [140.7734764, 39.137703], [140.773438, 39.1378033], [140.7734214, 39.1378767], [140.7733892, 39.138013], [140.7733463, 39.138193], [140.7732993, 39.1383292], [140.7732443, 39.1384478], [140.7731139, 39.1387073], [140.7727481, 39.1394245], [140.7725947, 39.1397306], [140.7725228, 39.1398344], [140.7724096, 39.1399454], [140.7722581, 39.1400409], [140.7718657, 39.1402317], [140.7716196, 39.1403611], [140.7713652, 39.1405171], [140.7708712, 39.1408802], [140.7700351, 39.1414809], [140.7695161, 39.1418897], [140.7691773, 39.1421733], [140.7690391, 39.1423189], [140.7689273, 39.1424764], [140.7688051, 39.1427171], [140.7685823, 39.1430877], [140.7684415, 39.1432888], [140.7675558, 39.1444611], [140.7674881, 39.144576], [140.7674312, 39.1447253], [140.7674223, 39.1448625], [140.7674434, 39.1450403], [140.7675178, 39.1454372], [140.7679148, 39.1475326], [140.768113, 39.1487181], [140.7680937, 39.1488013], [140.7680506, 39.1489008], [140.7679947, 39.14897], [140.7678844, 39.1490484], [140.7677874, 39.1490954], [140.7661432, 39.1495822], [140.7659526, 39.149642], [140.763891, 39.15023], [140.7595284, 39.1514652], [140.7588825, 39.1516601], [140.7586089, 39.1517142], [140.7583219, 39.1517475], [140.7580215, 39.1517475], [140.7576026, 39.1517403], [140.7570887, 39.1516788], [140.7563717, 39.1515308], [140.7560293, 39.1514949], [140.7549538, 39.1513626], [140.7539122, 39.1512647], [140.753758, 39.1512593], [140.7536433, 39.1512942], [140.753548, 39.1513644], [140.7535177, 39.1514635], [140.7535288, 39.151554], [140.7535816, 39.1516399], [140.7536807, 39.1516993], [140.7538028, 39.1517186], [140.7547681, 39.1517897], [140.7549515, 39.1518474], [140.7550745, 39.1519482], [140.7551549, 39.1520738], [140.7551831, 39.1522102], [140.7551659, 39.1523798], [140.7549925, 39.1533355], [140.7549933, 39.1534718], [140.7550421, 39.153586], [140.7551316, 39.1536945], [140.7552774, 39.1537724], [140.7554353, 39.1538151], [140.7563132, 39.1539157], [140.7564777, 39.1539578], [140.7565663, 39.1540456], [140.7565719, 39.1541507], [140.7565293, 39.1542522], [140.7564576, 39.154308], [140.7563466, 39.1543457], [140.756211, 39.1543625], [140.7551408, 39.1542517], [140.7548404, 39.1542372], [140.7546312, 39.1542684], [140.7544285, 39.1543245], [140.7541999, 39.1544206], [140.7535849, 39.1547012], [140.7532847, 39.15483], [140.7531378, 39.1548702], [140.7530077, 39.1548891], [140.752819, 39.154892], [140.7526195, 39.1548674], [140.752362, 39.1548071], [140.7520375, 39.1547052], [140.7517174, 39.1546451], [140.7514563, 39.1545951], [140.7513061, 39.1546034], [140.751202, 39.1546466], [140.7511095, 39.1547196], [140.7510642, 39.154815], [140.7510683, 39.1549046], [140.7511255, 39.1550005], [140.7512543, 39.1550691], [140.7515064, 39.1551253], [140.7520938, 39.1552439], [140.7529704, 39.1554617], [140.7532429, 39.1555148], [140.7534664, 39.1555212], [140.7537074, 39.1555145], [140.7541805, 39.1554518], [140.754497, 39.1554186], [140.7546365, 39.1554622], [140.7547032, 39.1555328], [140.7547603, 39.1556268], [140.7547417, 39.1557102], [140.7546846, 39.1557811], [140.7545468, 39.1558543], [140.7543756, 39.1558791], [140.7532743, 39.1560111], [140.751895, 39.1562073], [140.7515104, 39.1562852], [140.7511767, 39.156393], [140.750291, 39.1567601], [140.7500517, 39.1568404], [140.7498608, 39.1568706], [140.7496663, 39.1568634], [140.7494661, 39.1568238], [140.749307, 39.1567601], [140.7486418, 39.1561985], [140.748557, 39.1561366], [140.7484254, 39.1561185], [140.7483118, 39.1561408], [140.7482244, 39.1562074], [140.7481754, 39.1562899], [140.7481779, 39.1563717], [140.7482207, 39.1564502], [140.7483816, 39.1566249], [140.7495735, 39.1577148], [140.7497458, 39.1577936], [140.7498991, 39.1578195], [140.7500274, 39.1577984], [140.7507709, 39.1575442], [140.7509182, 39.1575052], [140.7510402, 39.1575166], [140.7511356, 39.1575598], [140.7512098, 39.1577022], [140.751212, 39.1577954], [140.7511351, 39.1578864], [140.7509351, 39.1579789], [140.7504979, 39.1581473], [140.7500446, 39.1582991], [140.7497013, 39.1584094], [140.7494786, 39.1585716], [140.7493338, 39.1587282], [140.7490066, 39.1591498], [140.7485715, 39.1597095], [140.7484302, 39.1598977], [140.7482636, 39.1600524], [140.7480911, 39.1601762], [140.7470593, 39.1607304], [140.7466194, 39.1609883], [140.7461769, 39.1612638], [140.7461198, 39.1613056], [140.746051, 39.1613561], [140.7459857, 39.1614768], [140.7459765, 39.1615765], [140.7460286, 39.161699], [140.7461186, 39.1617828], [140.746246, 39.1618424], [140.746357, 39.1618664], [140.7464984, 39.1618492], [140.7466436, 39.1617891], [140.7473709, 39.1613199], [140.7478888, 39.1609782], [140.7481307, 39.1608157], [140.7482902, 39.1607425], [140.7484731, 39.1606985], [140.7486847, 39.1606763], [140.7488939, 39.1606826], [140.7491058, 39.1607158], [140.749307, 39.1607824], [140.7495618, 39.1609155], [140.749913, 39.16114], [140.750574, 39.161535], [140.750641, 39.161654], [140.7506768, 39.161758], [140.7506379, 39.1618941], [140.7505644, 39.1619757], [140.7504579, 39.1620493], [140.750272, 39.1620921], [140.7500955, 39.1620822], [140.7499078, 39.1619948], [140.7493372, 39.1616715], [140.7491703, 39.1616053], [140.7489624, 39.1615912], [140.7487449, 39.1616262], [140.7485589, 39.1616961], [140.7484247, 39.1618059], [140.7483226, 39.1619387], [140.7482888, 39.1621022], [140.7483002, 39.1622419], [140.7483923, 39.1624295], [140.7485533, 39.1625543], [140.7493715, 39.1630047], [140.7494957, 39.1631053], [140.7495734, 39.163246], [140.7495917, 39.1633825], [140.7495656, 39.1635234], [140.7494157, 39.1637484], [140.7480241, 39.1655656], [140.7478586, 39.1657007], [140.7476737, 39.1657792], [140.7474375, 39.1658026], [140.7473111, 39.165803], [140.7471612, 39.165786], [140.7469558, 39.165721], [140.7465454, 39.1655455], [140.7462709, 39.165451], [140.7457471, 39.1654062], [140.7450718, 39.1654016], [140.74466, 39.1654545], [140.7440353, 39.1655906], [140.7437907, 39.1656551], [140.7435605, 39.165757], [140.743337, 39.1659065], [140.7427959, 39.1664337], [140.7427471, 39.1665134], [140.7427478, 39.1665855], [140.7427995, 39.166657], [140.7428767, 39.1666969], [140.742976, 39.1667053], [140.7430862, 39.1666833], [140.7431915, 39.1666012], [140.7437449, 39.1660875], [140.7438379, 39.166015], [140.7439721, 39.1659377], [140.7441545, 39.1658609], [140.7443982, 39.1658018], [140.7446246, 39.1657756], [140.744917, 39.1658151], [140.7458799, 39.1660464], [140.7459836, 39.1661205], [140.7460032, 39.1662128], [140.7459752, 39.1663146], [140.7458471, 39.1663684], [140.7457014, 39.1663788], [140.7455314, 39.1663392], [140.7448892, 39.1661297], [140.7446569, 39.1660722], [140.7445287, 39.1660776], [140.7442526, 39.1661628], [140.7441079, 39.166296], [140.7440537, 39.1664747], [140.7440274, 39.1667964], [140.7439363, 39.166946], [140.7438366, 39.1670376], [140.7437044, 39.1671076], [140.7429953, 39.1672147], [140.7426839, 39.1672489], [140.7424296, 39.1672444], [140.7417807, 39.1671918], [140.7416018, 39.1671893], [140.7413255, 39.1672217], [140.7411382, 39.1672574], [140.7407072, 39.1673904], [140.7396357, 39.1677807], [140.7390725, 39.1679434], [140.7385807, 39.1681039], [140.7383555, 39.1681884], [140.7381956, 39.1682884], [140.7374956, 39.1688106], [140.7367334, 39.169427], [140.7356024, 39.1705437], [140.7350217, 39.1711032], [140.7344794, 39.1716018], [140.7336708, 39.1722485], [140.7329211, 39.1728776], [140.732664, 39.1730696], [140.7324278, 39.1732152], [140.7322104, 39.1733168], [140.7320336, 39.1733785], [140.731806, 39.1734278], [140.7315078, 39.1734883], [140.7297751, 39.173824], [140.729447, 39.1738744], [140.7291865, 39.1738945], [140.7288864, 39.1738958], [140.7284362, 39.1738804], [140.7267777, 39.1737894], [140.7264832, 39.1737515], [140.7262969, 39.1737079], [140.726108, 39.1736261], [140.7251027, 39.1731204], [140.7247835, 39.1729752], [140.7245498, 39.1728742], [140.7243211, 39.1728072], [140.7240883, 39.1727675], [140.7238541, 39.1727655], [140.7236033, 39.1727755], [140.7233623, 39.1728109], [140.7231183, 39.1728823], [140.7223019, 39.1731815], [140.7220594, 39.1732511], [140.721862, 39.1732962], [140.7216544, 39.1733209], [140.7214127, 39.1733336], [140.7210205, 39.1733315], [140.7173611, 39.173287], [140.7171634, 39.1732887], [140.716289, 39.1732991], [140.7161539, 39.1732982], [140.7160422, 39.1733033], [140.7157686, 39.1732929], [140.7155679, 39.1732685], [140.7152799, 39.1732136], [140.7150847, 39.1731507], [140.7145501, 39.1729438], [140.714108, 39.1728197], [140.7139007, 39.1727988], [140.7134961, 39.172746], [140.7133761, 39.1727294], [140.7132467, 39.172712], [140.7131977, 39.1727564], [140.7131387, 39.1727959], [140.712997, 39.1728417], [140.7127299, 39.1729134], [140.7125536, 39.1729847], [140.7123563, 39.1730757], [140.7121396, 39.1732222], [140.7118854, 39.1734075], [140.7116716, 39.1735686], [140.7114536, 39.173716], [140.7111663, 39.1738819], [140.710874, 39.1740151], [140.7107417, 39.1740753], [140.7106633, 39.17411], [140.7101642, 39.1743119], [140.7095741, 39.1745422], [140.7092342, 39.1746584], [140.7090386, 39.1747252], [140.7088351, 39.1747942], [140.7086159, 39.1748519], [140.7086064, 39.1748544], [140.7083592, 39.1749157], [140.7081631, 39.1749573], [140.7078905, 39.1749949], [140.707756, 39.175015], [140.7076475, 39.1750221], [140.707465, 39.175021], [140.7072422, 39.1750242], [140.7069757, 39.1750184], [140.7066585, 39.174988], [140.7062971, 39.1749466], [140.7056952, 39.1748722], [140.705638, 39.1748653], [140.7053967, 39.174836], [140.7050169, 39.1747933], [140.7047256, 39.1747683], [140.7044571, 39.1747586], [140.7042119, 39.1747517], [140.7039862, 39.1747673], [140.7037635, 39.1747735], [140.7034627, 39.1748012], [140.7031428, 39.1748621], [140.7030411, 39.1748812], [140.7023435, 39.1750084], [140.7022995, 39.1750172], [140.7016745, 39.1751423], [140.7016524, 39.1751467], [140.7011077, 39.1752599], [140.7003862, 39.1753894], [140.699851, 39.1754806], [140.699835, 39.1754827], [140.6994995, 39.1755272], [140.6989829, 39.1755459], [140.6985759, 39.1755509], [140.6985492, 39.175549], [140.6980679, 39.1755153], [140.6976417, 39.1754711], [140.6973491, 39.1754115], [140.6969539, 39.1753394], [140.6957406, 39.1750998], [140.6949118, 39.1749376], [140.6947517, 39.1749042], [140.6946165, 39.1748793], [140.6942745, 39.1748103], [140.6940215, 39.174775], [140.693772, 39.1747534], [140.69356, 39.1747563], [140.693374, 39.1747616], [140.6931884, 39.1747802], [140.69292, 39.174822], [140.6928992, 39.1748265], [140.6927793, 39.1748524], [140.6925659, 39.1749073], [140.6923859, 39.1749767], [140.6921954, 39.1750465], [140.6917696, 39.1752124], [140.691743, 39.1752204], [140.6915039, 39.175292], [140.6913063, 39.175336], [140.6911272, 39.175366], [140.6908305, 39.1753975], [140.6906193, 39.1754068], [140.690389, 39.1754041], [140.6901685, 39.1753836], [140.6898987, 39.175344], [140.6894883, 39.1752724], [140.688681, 39.1751123], [140.6881982, 39.175027], [140.6878173, 39.1749543], [140.6872487, 39.1748191], [140.6868314, 39.174721], [140.6862885, 39.1746153], [140.6858459, 39.1745093], [140.6854275, 39.1744178], [140.6851049, 39.1743662], [140.6848623, 39.1743376], [140.684538, 39.174326], [140.6834924, 39.1743374], [140.6828526, 39.1743492], [140.6825495, 39.1743429], [140.6822705, 39.174318], [140.6820408, 39.1742773], [140.6818095, 39.1742083], [140.6815794, 39.174119], [140.6814061, 39.1740472], [140.6813196, 39.1739967], [140.6811815, 39.1739], [140.6810099, 39.173767], [140.6807337, 39.1735073], [140.68057, 39.1733428], [140.6804239, 39.1732198], [140.6801985, 39.1730646], [140.6800657, 39.1729893], [140.6798592, 39.1728874], [140.6796489, 39.1728071], [140.6792776, 39.1726851], [140.6786347, 39.1725257], [140.6784064, 39.1724591], [140.6781561, 39.1724052], [140.6779253, 39.1723667], [140.6776726, 39.1723616], [140.6774548, 39.1723757], [140.6772962, 39.1723953], [140.6771, 39.1724222], [140.6765443, 39.1725456], [140.6760139, 39.1726899], [140.6755996, 39.1728019], [140.6751612, 39.1729147], [140.6749314, 39.1729556], [140.6744679, 39.1729943], [140.6742808, 39.1729973], [140.6740559, 39.172973], [140.6739158, 39.1729547], [140.6733691, 39.172846], [140.6731212, 39.1728153], [140.6729127, 39.1728085], [140.672725, 39.1728243], [140.672223, 39.1729082], [140.6719869, 39.1729415], [140.671539, 39.1729768], [140.6707638, 39.1730475], [140.6703888, 39.1730876], [140.6693862, 39.1731998], [140.6691809, 39.1732605], [140.6689947, 39.1733344], [140.6688697, 39.1733948], [140.6687495, 39.1734729], [140.6685649, 39.1736135], [140.6682857, 39.1738854], [140.6679034, 39.1742548], [140.6676578, 39.1744853], [140.6674138, 39.1746954], [140.6671373, 39.174915], [140.6667266, 39.1752004], [140.6663831, 39.1754473], [140.6661902, 39.1755833], [140.6659734, 39.1757236], [140.6657372, 39.1758815], [140.6654501, 39.1761081], [140.6653217, 39.1761873], [140.6651285, 39.176285], [140.6649431, 39.1763801], [140.6647209, 39.1764599], [140.6639604, 39.1766681], [140.6632931, 39.176847], [140.662927, 39.1769359], [140.6626153, 39.1769863], [140.6623573, 39.177021], [140.6620439, 39.1770432], [140.6614546, 39.1771028], [140.6608339, 39.1771799], [140.6604037, 39.1772428], [140.6600538, 39.1773184], [140.6597912, 39.1773829], [140.6594794, 39.1774983], [140.6591407, 39.1776447], [140.6589276, 39.1777618], [140.6585167, 39.1780002], [140.6580453, 39.178272], [140.6577283, 39.1784516], [140.6573957, 39.1786491], [140.6571899, 39.1787613], [140.6570186, 39.1788465], [140.6567472, 39.17896], [140.6565198, 39.1790477], [140.656307, 39.17911], [140.6554806, 39.1793976], [140.6547501, 39.1796811], [140.6545352, 39.1797626], [140.6542292, 39.1798701], [140.6538328, 39.1799997], [140.6534228, 39.180104], [140.6524283, 39.180354], [140.6521822, 39.1804233], [140.6519508, 39.1805025], [140.6517219, 39.1806025], [140.6514931, 39.1807088], [140.6513056, 39.1808168], [140.6508589, 39.1810973], [140.6504193, 39.1813728], [140.6498691, 39.1816941], [140.6495384, 39.1818844], [140.6493786, 39.1819595], [140.6491589, 39.1820567], [140.648979, 39.182106], [140.6487669, 39.1821485], [140.6482638, 39.182234], [140.6474409, 39.1823744], [140.6436295, 39.1830837], [140.6397588, 39.1838017], [140.637962, 39.1841188], [140.6377398, 39.1841644], [140.6375186, 39.1842246], [140.637322, 39.1842892], [140.6369305, 39.1844332], [140.6366113, 39.1845766], [140.6356443, 39.1849622], [140.6348029, 39.1853088], [140.6341476, 39.1855794], [140.6339203, 39.1856672], [140.6336685, 39.1857488], [140.6334069, 39.1858145], [140.6326129, 39.1860012], [140.6323038, 39.1860783], [140.6320993, 39.1861433], [140.6318999, 39.1862256], [140.6316972, 39.1863472], [140.6314588, 39.1865392], [140.6311601, 39.1868449], [140.6308861, 39.187114], [140.6307336, 39.1872582], [140.6306253, 39.1873508], [140.6305097, 39.187436], [140.6303549, 39.1875351], [140.630192, 39.1876155], [140.6300455, 39.1876847], [140.6298319, 39.1877647], [140.6287623, 39.1881433], [140.6277895, 39.1884518], [140.6276036, 39.1885059], [140.6273861, 39.1885687], [140.6270492, 39.1886384], [140.6265898, 39.1886968], [140.6262533, 39.1887161], [140.6259901, 39.1887159], [140.6256719, 39.1887043], [140.6253387, 39.1886606], [140.6249747, 39.1886178], [140.6235252, 39.1883958], [140.6232585, 39.1883988], [140.6230314, 39.1884188], [140.6228229, 39.188446], [140.6226166, 39.1884896], [140.6223102, 39.1885866], [140.6217979, 39.1888408], [140.6216839, 39.1889169], [140.6199896, 39.1898846], [140.6199518, 39.1899069], [140.6197365, 39.1900228], [140.6192647, 39.1903165], [140.619115, 39.190448], [140.6188306, 39.1907948], [140.6187171, 39.1909893], [140.6186207, 39.1912401], [140.618529, 39.191799], [140.6184392, 39.1924076], [140.6183616, 39.1926723], [140.6182776, 39.1928563], [140.6182682, 39.1928769], [140.6180824, 39.1931642], [140.6179088, 39.193375], [140.6177287, 39.1935198], [140.6175258, 39.1936425], [140.6173595, 39.1937518], [140.6166044, 39.1941719], [140.6163269, 39.1943263], [140.6146263, 39.1953643], [140.6131492, 39.1962203], [140.6126863, 39.1964885], [140.6112031, 39.197328], [140.6109459, 39.1974235], [140.6107211, 39.1975075], [140.6075073, 39.1982634], [140.6070313, 39.1983471], [140.6067399, 39.1983908], [140.6059884, 39.1985035], [140.6051214, 39.1986199], [140.6047928, 39.1986598], [140.6042209, 39.1987504], [140.6039014, 39.1988148], [140.6035664, 39.1989007], [140.6025407, 39.1992291], [140.6021329, 39.1993771], [140.6020902, 39.1993926], [140.6010388, 39.1996869], [140.5994, 39.2001457], [140.5993603, 39.2001568], [140.5985583, 39.2003647], [140.5982755, 39.2004011], [140.5979823, 39.2003956], [140.5974585, 39.200336], [140.596141, 39.200159], [140.595935, 39.200133], [140.5958959, 39.200129], [140.595494, 39.200088], [140.5948519, 39.2000172], [140.5940469, 39.1999275], [140.5935485, 39.1998785], [140.5931385, 39.1998652], [140.5926571, 39.199885], [140.5920263, 39.1999232], [140.5913935, 39.1999535], [140.5909779, 39.1999881], [140.5906886, 39.2000252], [140.5904288, 39.2000621], [140.5898983, 39.2001858], [140.5898782, 39.2001916], [140.5887155, 39.2005275], [140.5874694, 39.2008797], [140.5868782, 39.2010156], [140.5863956, 39.201128], [140.584055, 39.2015996], [140.5840137, 39.201608], [140.5821359, 39.2019934], [140.5818878, 39.2020529], [140.5816508, 39.20214], [140.5815448, 39.2021952], [140.581349, 39.2022983], [140.5810041, 39.2025547], [140.5804366, 39.2029758], [140.5802678, 39.2030886], [140.580017, 39.2032043], [140.5798419, 39.203275], [140.5794951, 39.2034067], [140.5792189, 39.2035077], [140.5787383, 39.2036805], [140.5783187, 39.2038503], [140.5776758, 39.2041813], [140.5770564, 39.2045521], [140.5766705, 39.2047724], [140.5763398, 39.2049103], [140.5759745, 39.2050258], [140.575291, 39.2051924], [140.5747631, 39.2052908], [140.5745455, 39.2053314], [140.573215, 39.2055963], [140.5728259, 39.2056854], [140.5721527, 39.2058135], [140.5716436, 39.2059093], [140.5712656, 39.2059461], [140.5708532, 39.2059594], [140.570614, 39.2059528], [140.5703749, 39.20594], [140.5699725, 39.2058945], [140.569568, 39.2058089], [140.5690772, 39.2056555], [140.568616, 39.2054744], [140.5680162, 39.2051577], [140.5677269, 39.2049944], [140.5666501, 39.2044198], [140.5659366, 39.2040372], [140.5657352, 39.2039265], [140.565507, 39.20382], [140.5652551, 39.2037268], [140.56508, 39.203662], [140.5645398, 39.2035249], [140.5641127, 39.203439], [140.5637595, 39.203395], [140.5637156, 39.2033895], [140.5633322, 39.2033545], [140.5628316, 39.20336], [140.5616037, 39.2034546], [140.5607367, 39.2035212], [140.5606554, 39.2035276], [140.559692, 39.2035889], [140.5590993, 39.2035933], [140.5586152, 39.2035878], [140.5577732, 39.2035647], [140.5569365, 39.2035417], [140.5563952, 39.2035537], [140.556071, 39.203547], [140.5556873, 39.2035391], [140.5553785, 39.2035012], [140.5550944, 39.2034385], [140.5548635, 39.2033428], [140.5545518, 39.2031754], [140.5543728, 39.2030246], [140.5540634, 39.202764], [140.5540039, 39.2027075], [140.5539366, 39.2026437], [140.5536368, 39.2023955], [140.5533309, 39.2021484], [140.5530722, 39.202008], [140.5528408, 39.2018963], [140.552599, 39.2018157], [140.552188, 39.2017037], [140.551848, 39.2016492], [140.5517529, 39.2016349], [140.5509161, 39.2015428], [140.5505749, 39.2015084], [140.548875, 39.201337], [140.548288, 39.201298], [140.5482438, 39.2012946], [140.5477859, 39.2012592], [140.5477391, 39.2012555], [140.5470427, 39.2012023], [140.5463315, 39.2011526], [140.5460235, 39.2011195], [140.5451402, 39.2010259], [140.5449275, 39.2010034], [140.5444186, 39.2009405], [140.5434159, 39.2008285], [140.5431122, 39.2007948], [140.5426534, 39.2007374], [140.5425633, 39.2007339], [140.542184, 39.2006972], [140.541041, 39.2005867], [140.5405248, 39.2005237], [140.5399411, 39.2004524], [140.5398021, 39.2004354], [140.5386534, 39.2003192], [140.538211, 39.200306], [140.5380667, 39.2003157], [140.537654, 39.200368], [140.537307, 39.200458], [140.5370469, 39.2005511], [140.536894, 39.200627], [140.536714, 39.200728], [140.536569, 39.200824], [140.536272, 39.201061], [140.536135, 39.201207], [140.535961, 39.201455], [140.5355224, 39.2021548], [140.5354701, 39.2022382], [140.535295, 39.202514], [140.5345672, 39.2037136], [140.5337617, 39.2049699], [140.5334733, 39.205435], [140.5325344, 39.2071214], [140.5314629, 39.2089111], [140.5311931, 39.2093331], [140.5307395, 39.2101523], [140.5304044, 39.2106279], [140.530353, 39.210713], [140.529975, 39.21123], [140.5297544, 39.2114986], [140.529329, 39.212014], [140.529102, 39.212256], [140.5288927, 39.2124967], [140.528552, 39.212819], [140.527612, 39.213578], [140.527445, 39.213697], [140.527322, 39.213793], [140.527148, 39.213911], [140.526118, 39.21452], [140.5257247, 39.2147346], [140.524864, 39.21518], [140.524445, 39.215385], [140.5214492, 39.2165954], [140.5209747, 39.2167951], [140.519812, 39.217268], [140.51966, 39.217324], [140.5195661, 39.2173637], [140.5195335, 39.2173775], [140.519407, 39.217431], [140.5191442, 39.2175346], [140.518778, 39.217679], [140.5186663, 39.2177318], [140.518148, 39.2179123], [140.5171833, 39.2182184], [140.5167123, 39.2183446], [140.5161645, 39.218493], [140.5159953, 39.2185388]], [[141.1200787, 39.1444606], [141.1202188, 39.1444142], [141.1202894, 39.1443906], [141.1230176, 39.1434419], [141.1233868, 39.1433215], [141.1238306, 39.1431458], [141.1260949, 39.1422933], [141.1263614, 39.142187], [141.1280705, 39.141546], [141.1281917, 39.1415112], [141.1286936, 39.1413154], [141.1295673, 39.1409795], [141.1310531, 39.140434], [141.1310925, 39.1404221], [141.1318006, 39.1401616], [141.1320418, 39.1400663], [141.1330106, 39.1396833], [141.133455, 39.1395237], [141.1346578, 39.1390607], [141.1348043, 39.1390096], [141.135047, 39.1389134], [141.1355496, 39.1388346], [141.1367811, 39.1386962], [141.1379197, 39.1385939], [141.1383376, 39.1385532], [141.1392426, 39.138465], [141.1406132, 39.1380538], [141.1414372, 39.1377997], [141.1415552, 39.1377622], [141.1433193, 39.1372332], [141.1442415, 39.1369499], [141.1442952, 39.1369264], [141.1445414, 39.1368545], [141.1449759, 39.1368153], [141.146311, 39.1366554], [141.1477009, 39.1364988], [141.1486156, 39.1364034]], [[141.2075197, 39.1458464], [141.2064943, 39.1456361], [141.2060751, 39.1455466], [141.2057218, 39.1454172], [141.2055364, 39.1453189], [141.2052913, 39.1451452], [141.2049068, 39.1449184], [141.2046993, 39.144833], [141.204444, 39.1447881], [141.2042328, 39.144776], [141.2037442, 39.1447765], [141.2035284, 39.1447515], [141.2033287, 39.1447058], [141.2031308, 39.1446313], [141.2029191, 39.1445057], [141.2027658, 39.1443555], [141.2020389, 39.1436019], [141.2018753, 39.1434535], [141.2017182, 39.1433615], [141.2015267, 39.143286], [141.2013144, 39.1432337], [141.2003859, 39.1430788], [141.1989024, 39.1428301], [141.1986425, 39.1428288], [141.1983565, 39.142844], [141.1979756, 39.1429084], [141.1975277, 39.1429909], [141.1972162, 39.143033], [141.1968903, 39.143051], [141.196493, 39.1430483], [141.1961061, 39.1430342], [141.1956344, 39.142976], [141.1949217, 39.1428586], [141.193667, 39.14264], [141.1932278, 39.1425698], [141.1929843, 39.1425073], [141.1927103, 39.1424172], [141.1925283, 39.1423485], [141.1923425, 39.1422387], [141.192093, 39.1420507], [141.191813, 39.1417204], [141.191605, 39.1414217], [141.1911524, 39.1406453], [141.1902243, 39.1391288], [141.1897222, 39.1382797], [141.189575, 39.1380562], [141.1894414, 39.1379329], [141.1892548, 39.1377928], [141.1891166, 39.1377026], [141.1890519, 39.1376749], [141.1887936, 39.1375762], [141.18854, 39.1375164], [141.1882657, 39.137481], [141.1878281, 39.1374968], [141.1865682, 39.1375805], [141.1843441, 39.1377532], [141.1834559, 39.1378152], [141.182251, 39.1379085], [141.1803828, 39.1380512], [141.1786066, 39.1381843], [141.1782849, 39.1382058], [141.1780575, 39.138207], [141.1777941, 39.1381926], [141.1775287, 39.1381583], [141.176937, 39.1380395], [141.1765446, 39.1379328], [141.1761276, 39.1378195], [141.1696852, 39.1362206], [141.1693745, 39.1361411], [141.1682567, 39.1358553], [141.1676634, 39.135715], [141.1670438, 39.1356255], [141.1663357, 39.1355806], [141.1658127, 39.1355766], [141.1654639, 39.1355796], [141.1650883, 39.1355825], [141.16427, 39.1355952], [141.1624531, 39.1356236], [141.1618858, 39.1356228], [141.1610886, 39.135627], [141.1605619, 39.1356297], [141.1591823, 39.1356442], [141.1585164, 39.1356493], [141.158217, 39.1356515], [141.1579472, 39.1356536], [141.1574656, 39.135658], [141.1566341, 39.1356657], [141.1552342, 39.1356828], [141.1547737, 39.1357312], [141.1538712, 39.135826], [141.1527273, 39.1359515], [141.1513218, 39.1361084], [141.1500024, 39.1362626], [141.1486156, 39.1364034]], [[141.2075197, 39.1458464], [141.2078899, 39.1459283], [141.2081716, 39.1460295], [141.2084111, 39.1461496], [141.2086038, 39.1462776], [141.2087918, 39.1464477], [141.2089504, 39.146645], [141.2091615, 39.1469858], [141.2094208, 39.1473228], [141.2096126, 39.1475228], [141.2099506, 39.1477326], [141.2101285, 39.1478182], [141.2103986, 39.1479022], [141.2106471, 39.1479607], [141.2110605, 39.1479857], [141.2114051, 39.1479558], [141.2118145, 39.1478876], [141.2140992, 39.1474579], [141.2145963, 39.1473737], [141.214988, 39.1473203], [141.2153517, 39.1472907], [141.2157091, 39.1472752], [141.2162816, 39.14729], [141.2167943, 39.1473376], [141.2172002, 39.1474017], [141.2175836, 39.1475095], [141.2180255, 39.1476364], [141.2185509, 39.1478261], [141.2189923, 39.1480238], [141.2194707, 39.1482883], [141.2203882, 39.1490296], [141.2216466, 39.1504712], [141.222904, 39.1518967], [141.2239408, 39.1530916], [141.2242275, 39.1533677], [141.2244549, 39.1535528], [141.224659, 39.1536981], [141.2248826, 39.153829], [141.2251917, 39.1540009], [141.2255092, 39.1541558], [141.2258824, 39.154302], [141.2262743, 39.1544264], [141.2267038, 39.1545148], [141.2271753, 39.1545868], [141.2276287, 39.1546188], [141.2281031, 39.1546237], [141.2285178, 39.1546002], [141.2291424, 39.154523], [141.230349, 39.1543798], [141.230449, 39.1543695], [141.232118, 39.1541893], [141.2324117, 39.1541693], [141.2328206, 39.1541738], [141.2331333, 39.154194], [141.2336074, 39.154246], [141.2347059, 39.1543683], [141.2355596, 39.1544733], [141.2362279, 39.154524], [141.2367772, 39.1545564], [141.2371602, 39.1545988], [141.2375266, 39.1546579], [141.2378997, 39.1547665], [141.2389094, 39.155037], [141.2391591, 39.1551184], [141.2393889, 39.1552283], [141.2395875, 39.1553492], [141.2397914, 39.1555075], [141.2399402, 39.1556771], [141.2403534, 39.1562553], [141.2405273, 39.1564663], [141.2407188, 39.1566509], [141.2409425, 39.1568084], [141.241185, 39.1569331], [141.2414455, 39.1570311], [141.2417034, 39.1571], [141.2419839, 39.157154], [141.2427935, 39.1572445], [141.2431082, 39.1572894], [141.2433927, 39.1573668], [141.2435948, 39.157439], [141.2438426, 39.1575698], [141.2440666, 39.157726], [141.2442499, 39.1579174], [141.2443909, 39.1581206], [141.2444919, 39.1583458], [141.2446128, 39.1589404], [141.2446789, 39.1592275], [141.2447612, 39.1594398], [141.2448809, 39.1596418], [141.245053, 39.1598344], [141.245279, 39.1600277], [141.2454566, 39.160144], [141.2457784, 39.160308], [141.2463166, 39.1605024], [141.2471685, 39.1607793], [141.2474047, 39.1608878], [141.2476268, 39.1610023], [141.2480138, 39.1612823], [141.2481994, 39.1614487], [141.2484377, 39.1616047], [141.2486542, 39.161722], [141.2488192, 39.1617891], [141.2490904, 39.1618617], [141.2494241, 39.1619433], [141.2497527, 39.1620494], [141.2500214, 39.1621837], [141.2502643, 39.1623483], [141.2504425, 39.1625256], [141.2505779, 39.1627154], [141.2506737, 39.1629484], [141.2506986, 39.1631265], [141.2507128, 39.1633475], [141.250664, 39.1635942], [141.2506011, 39.1638915], [141.2505783, 39.1642359], [141.2505831, 39.1645901], [141.250678, 39.165455], [141.2506917, 39.165807], [141.2506981, 39.1662001], [141.2506596, 39.1675354], [141.2506994, 39.1678396], [141.2507152, 39.1679834], [141.250849, 39.1684991], [141.2510261, 39.1688978], [141.2512068, 39.1692183], [141.2515021, 39.1696007], [141.2518321, 39.1699508], [141.2521413, 39.1702094], [141.2523254, 39.1703521], [141.252579, 39.1705245], [141.2530167, 39.1707615], [141.2534996, 39.1709797], [141.2539999, 39.1711467], [141.2547016, 39.1713163], [141.2562406, 39.1716045], [141.2576649, 39.1718738], [141.2579151, 39.1719223], [141.258787, 39.1720758], [141.2595895, 39.172228], [141.26012, 39.172328], [141.2604698, 39.1723925], [141.2614165, 39.1725618], [141.2625079, 39.1727758], [141.2630225, 39.172902], [141.2635893, 39.1730812], [141.2640536, 39.1732978], [141.264337, 39.1734552], [141.2647209, 39.1737185], [141.2650325, 39.173985], [141.2654425, 39.1744057], [141.2657058, 39.1747142], [141.2668515, 39.1760776], [141.2670465, 39.1762989], [141.2674786, 39.1768131], [141.2682665, 39.1777511], [141.2684997, 39.178016], [141.2686846, 39.1781873], [141.2689439, 39.1783743], [141.2692333, 39.1785271], [141.2695873, 39.1786727], [141.2700487, 39.1787558], [141.2705154, 39.178785], [141.2708518, 39.1787723], [141.2713576, 39.1786269], [141.273339, 39.177839], [141.273555, 39.17774], [141.275002, 39.176946], [141.275687, 39.176687], [141.27591, 39.176639], [141.276149, 39.176587], [141.276457, 39.176542], [141.277307, 39.176547], [141.277589, 39.176575], [141.278138, 39.176735], [141.279403, 39.177102], [141.279734, 39.177181], [141.280015, 39.177222], [141.280447, 39.177254], [141.280966, 39.177226], [141.282579, 39.17696], [141.283047, 39.176934], [141.28327, 39.17694], [141.283384, 39.176956], [141.283493, 39.176974], [141.283831, 39.17708], [141.28702, 39.178582], [141.287351, 39.178784], [141.287715, 39.179082], [141.288101, 39.1794], [141.288325, 39.179611], [141.289479, 39.180696], [141.290288, 39.18146], [141.29088, 39.182068], [141.291276, 39.182342], [141.2916, 39.182483], [141.291946, 39.182561], [141.29232, 39.1826], [141.292688, 39.182606], [141.293163, 39.182477], [141.293599, 39.182289], [141.294724, 39.18168], [141.295151, 39.181527], [141.295634, 39.181392], [141.295972, 39.181337], [141.297977, 39.181142], [141.299605, 39.180932], [141.299874, 39.180867], [141.301789, 39.180248], [141.302939, 39.180205], [141.303605, 39.180148], [141.30473, 39.179938], [141.305449, 39.179793], [141.306129, 39.179699], [141.306706, 39.179637], [141.307342, 39.1796], [141.3080743, 39.1795579], [141.3090951, 39.1795747], [141.3102307, 39.1796412], [141.3105189, 39.179659], [141.3111227, 39.1796806], [141.3115256, 39.1796769], [141.312001, 39.1796169], [141.3122423, 39.1795662], [141.3126956, 39.1794348], [141.314173, 39.178777], [141.315571, 39.17813], [141.316248, 39.177813], [141.318733, 39.17646], [141.319649, 39.175962], [141.322307, 39.174445], [141.323202, 39.173891], [141.323713, 39.173676], [141.324087, 39.173562], [141.324332, 39.173488], [141.324902, 39.17337], [141.325545, 39.173344], [141.327722, 39.173403], [141.328086, 39.173364], [141.328453, 39.173294], [141.329143, 39.173008], [141.330259, 39.172471], [141.330543, 39.17236], [141.330885, 39.172255], [141.331214, 39.17218], [141.331593, 39.172116], [141.331934, 39.172057], [141.332218, 39.172033], [141.333097, 39.171984], [141.333536, 39.172014], [141.333999, 39.172089], [141.334657, 39.17228], [141.335915, 39.172717], [141.336526, 39.172783], [141.337031, 39.172762], [141.337571, 39.172676], [141.338074, 39.172533], [141.338447, 39.172501], [141.338905, 39.17251], [141.339144, 39.172548], [141.339373, 39.172615], [141.340195, 39.173002], [141.340867, 39.173242], [141.341404, 39.173308], [141.341937, 39.173296], [141.342146, 39.173265], [141.342425, 39.173215], [141.342823, 39.173083], [141.343784, 39.172625], [141.344237, 39.172478], [141.344506, 39.172431], [141.344769, 39.17242], [141.345023, 39.172453], [141.345319, 39.172526], [141.346547, 39.172881], [141.346957, 39.172895], [141.347523, 39.172853], [141.348, 39.172764], [141.348187, 39.172708], [141.348667, 39.172568], [141.349246, 39.172273], [141.349795, 39.17194], [141.350343, 39.171612], [141.352572, 39.170185], [141.352695, 39.170119], [141.353431, 39.169837], [141.353759, 39.16976], [141.353938, 39.169724], [141.35475, 39.169685], [141.3558, 39.169617], [141.356068, 39.169549], [141.356168, 39.169504], [141.35689, 39.16918], [141.358734, 39.168372], [141.359137, 39.168202], [141.359498, 39.168094], [141.360062, 39.167955], [141.360452, 39.167905], [141.361095, 39.167847], [141.362272, 39.167851], [141.362689, 39.167886], [141.363088, 39.167941], [141.363436, 39.168009], [141.363681, 39.168067], [141.3640233, 39.1681496], [141.364236, 39.1682224], [141.364737, 39.168466], [141.365277, 39.169115], [141.365583, 39.169547], [141.365801, 39.169845], [141.36611, 39.170279], [141.366329, 39.170654], [141.36653, 39.171095], [141.366681, 39.171494], [141.366808, 39.171978], [141.366864, 39.172345], [141.366901, 39.172894], [141.366948, 39.173331], [141.367103, 39.173772], [141.36727, 39.174118], [141.367448, 39.174376], [141.367783, 39.174766], [141.36808, 39.175023], [141.368742, 39.175491], [141.3691125, 39.1756766], [141.3694654, 39.1757974], [141.3699727, 39.1759088], [141.3706329, 39.1760053], [141.37148, 39.176013], [141.372364, 39.17603], [141.372653, 39.176021], [141.372739, 39.176019], [141.373137, 39.175969], [141.373433, 39.175901], [141.373773, 39.175783], [141.374135, 39.175574], [141.374217, 39.17552], [141.37428, 39.175479], [141.37441, 39.175343], [141.374498, 39.175207], [141.374663, 39.174949], [141.375097, 39.174128], [141.375387, 39.173569], [141.375642, 39.173058], [141.37619, 39.172042], [141.376443, 39.171654], [141.376603, 39.171469], [141.376805, 39.171317], [141.376971, 39.171227], [141.377181, 39.171159], [141.377298, 39.171132], [141.377406, 39.171107], [141.377659, 39.17108], [141.377992, 39.17108], [141.378114, 39.17109], [141.378324, 39.171135], [141.378534, 39.17121], [141.378722, 39.1713], [141.378924, 39.17144], [141.379061, 39.171564], [141.379184, 39.17171], [141.379314, 39.171885], [141.379532, 39.172335], [141.379607, 39.172545], [141.379625, 39.172775], [141.379587, 39.172994], [141.37948, 39.173203], [141.379018, 39.17379], [141.37868, 39.174153], [141.378391, 39.17455], [141.378215, 39.174855], [141.378128, 39.175026], [141.37786, 39.175676], [141.377788, 39.175924], [141.37775, 39.176183], [141.377745, 39.176244], [141.377745, 39.176695], [141.377788, 39.176982], [141.377838, 39.177179], [141.377947, 39.177472], [141.378345, 39.178137], [141.378577, 39.178447], [141.378938, 39.178858], [141.379272, 39.179127], [141.379648, 39.179369], [141.379901, 39.179499], [141.380263, 39.17964], [141.380574, 39.179735], [141.381239, 39.17987], [141.381814, 39.179965], [141.381997, 39.179996], [141.382599, 39.180098], [141.383008, 39.180166], [141.384968, 39.18052], [141.387154, 39.180949], [141.389052, 39.18131], [141.389906, 39.181473], [141.391854, 39.181845], [141.392129, 39.181879], [141.392353, 39.181887], [141.392955, 39.181819], [141.3932812, 39.1817595], [141.3939089, 39.1816784], [141.3947457, 39.1814497], [141.3950944, 39.1813208], [141.3953894, 39.1811753], [141.3958749, 39.1808821], [141.3961136, 39.1807179], [141.396465, 39.1804455], [141.3965759, 39.1803758], [141.3970175, 39.1801274], [141.3973045, 39.1800068], [141.3976505, 39.1799091], [141.3980341, 39.1798363], [141.3983774, 39.179803], [141.4002711, 39.179882], [141.4005876, 39.179855], [141.4011884, 39.1797303], [141.4024007, 39.1794121], [141.403212, 39.179168], [141.404051, 39.178943], [141.40539, 39.178632], [141.405918, 39.178497], [141.406023, 39.178465], [141.406309, 39.17838], [141.406585, 39.178272], [141.406676, 39.178234], [141.406967, 39.178097], [141.407176, 39.177962], [141.407379, 39.177805], [141.407537, 39.177662], [141.407672, 39.17754], [141.4079, 39.177337], [141.408262, 39.177038], [141.408558, 39.176824], [141.409752, 39.176071], [141.410447, 39.175592], [141.410809, 39.175299], [141.411062, 39.175063], [141.411735, 39.17437], [141.413051, 39.173035], [141.413238, 39.172844], [141.413448, 39.172596], [141.413571, 39.172405], [141.413665, 39.172196], [141.413709, 39.17205], [141.413745, 39.17174], [141.413761, 39.171198], [141.413789, 39.170895], [141.413806, 39.17082], [141.41384, 39.170675], [141.413949, 39.170472], [141.414224, 39.170112], [141.414564, 39.16979], [141.414874, 39.169549], [141.415149, 39.169386], [141.415423, 39.169273], [141.415749, 39.169183], [141.41632, 39.16907], [141.416494, 39.169037], [141.417086, 39.168902], [141.417484, 39.168789], [141.417967, 39.168614], [141.418647, 39.168384], [141.419435, 39.168169], [141.419782, 39.168091], [141.420189, 39.168008], [141.420527, 39.167985], [141.421004, 39.167985], [141.421555, 39.168032], [141.422144, 39.168125], [141.422331, 39.168177], [141.422701, 39.168283], [141.424494, 39.168795], [141.425455, 39.169054], [141.425534, 39.169065], [141.425794, 39.169032], [141.425903, 39.168992], [141.426163, 39.168834], [141.426445, 39.168649], [141.42703, 39.168299], [141.427226, 39.168221], [141.427406, 39.168192], [141.427652, 39.168181], [141.42807, 39.168209], [141.428533, 39.16826], [141.428634, 39.16826], [141.428706, 39.168254], [141.428959, 39.168192], [141.429096, 39.16813], [141.429212, 39.168051], [141.429493, 39.167815], [141.429609, 39.167702], [141.429833, 39.167517], [141.429862, 39.167466], [141.429891, 39.167252], [141.429905, 39.16692], [141.4298083, 39.1664059], [141.4298029, 39.166203], [141.4298437, 39.1660619], [141.4299205, 39.1659705], [141.4300054, 39.1658913], [141.430136, 39.1658148], [141.4302779, 39.1657735], [141.4307805, 39.1656383], [141.4316347, 39.1654383], [141.4324836, 39.1652508], [141.4327664, 39.1651941], [141.4329565, 39.1651236], [141.4331054, 39.1650305], [141.4331866, 39.1649508], [141.4333407, 39.1647159], [141.433467, 39.1645842], [141.4336178, 39.1644953], [141.4338084, 39.1644586], [141.4339571, 39.1644401], [141.4341727, 39.1644542], [141.4343413, 39.1645061], [141.4354661, 39.1649041], [141.4356306, 39.1650123], [141.4357407, 39.165096], [141.4358383, 39.1651969], [141.43598, 39.165486], [141.436327, 39.166117], [141.436521, 39.16643], [141.436624, 39.166518], [141.436782, 39.166611], [141.436934, 39.166682], [141.437104, 39.166705], [141.437335, 39.166644], [141.43795, 39.166266], [141.438101, 39.166165], [141.438586, 39.165788], [141.439178, 39.165241], [141.439576, 39.164842], [141.439756, 39.164645], [141.440074, 39.164211], [141.440306, 39.163873], [141.440371, 39.163755], [141.440385, 39.163698], [141.440429, 39.163648], [141.440465, 39.163574], [141.440689, 39.163389], [141.440826, 39.163304], [141.440999, 39.163259], [141.441166, 39.163259], [141.44152, 39.16331], [141.441866, 39.163304], [141.442235, 39.163276], [141.442401, 39.163242], [141.442503, 39.163203], [141.442611, 39.163135], [141.4427136, 39.1630246], [141.4428, 39.1628275], [141.4429049, 39.1625611], [141.4429425, 39.1623776], [141.442914, 39.1621922], [141.4427626, 39.1617407], [141.4427039, 39.1615173], [141.442696, 39.1613357], [141.4427364, 39.1611542], [141.4428066, 39.1610154], [141.4429166, 39.160885], [141.4431175, 39.1607146], [141.4433656, 39.1605608], [141.4439258, 39.1602433], [141.4453118, 39.1594905], [141.4459084, 39.1589866], [141.4460116, 39.1588761], [141.4462122, 39.1586616], [141.4464127, 39.158447], [141.4478007, 39.1570051], [141.4492711, 39.1555447], [141.4508465, 39.1539241], [141.4527238, 39.151963], [141.4528331, 39.1518646], [141.4533216, 39.1514149], [141.4539837, 39.1508776], [141.4544676, 39.150552], [141.4549534, 39.1502577], [141.4554339, 39.14998], [141.4567796, 39.1492095], [141.4588541, 39.1480307], [141.4596392, 39.1476063], [141.4602193, 39.1473907], [141.4607562, 39.1472046], [141.4612317, 39.1470783], [141.4617247, 39.1469837], [141.4622177, 39.1469106], [141.4627193, 39.1468755], [141.4632641, 39.1468571], [141.4638898, 39.146883], [141.4644539, 39.1469471], [141.4649911, 39.1470357], [141.4652838, 39.1471047], [141.4655741, 39.1471881], [141.4658466, 39.1472752], [141.466161, 39.1474098], [141.4664218, 39.1475266], [141.4667235, 39.1476917], [141.4680489, 39.1484729], [141.4686856, 39.1488569], [141.4689562, 39.148973], [141.4692267, 39.1490652], [141.4695029, 39.149135], [141.4697522, 39.1491714], [141.4700229, 39.149179], [141.4702844, 39.1491628], [141.4705737, 39.149123], [141.4708323, 39.1490616], [141.4711044, 39.1489563], [141.4714135, 39.1488342], [141.4720429, 39.148571], [141.4725399, 39.148401], [141.472949, 39.1483091], [141.473363, 39.1482338], [141.4737954, 39.148192], [141.4745802, 39.1481753], [141.4750324, 39.1481697], [141.4755575, 39.1481308], [141.4761228, 39.1480458], [141.476459, 39.1479565], [141.4768274, 39.1478303], [141.4771341, 39.1477045], [141.4774288, 39.1475621], [141.4776234, 39.1474326], [141.4779236, 39.1471722], [141.4782408, 39.1468324], [141.4791238, 39.1455599], [141.4793122, 39.1453528], [141.4794964, 39.145185], [141.4796586, 39.1450492], [141.479917, 39.144911], [141.480348, 39.144725], [141.4816713, 39.1441193], [141.481899, 39.144004], [141.482521, 39.1436256], [141.483143, 39.143228], [141.4836872, 39.1429768], [141.484002, 39.142843], [141.4847437, 39.1426179], [141.4852076, 39.142527], [141.4857578, 39.1424336], [141.486456, 39.1422799], [141.4868712, 39.1421681], [141.4875523, 39.1419744], [141.4879071, 39.1419046], [141.4882055, 39.1418915], [141.4885165, 39.1419119], [141.4887709, 39.1419541], [141.4891423, 39.1420452], [141.489456, 39.1421786], [141.4897217, 39.1423292], [141.4899931, 39.1425399], [141.4902361, 39.1427959], [141.4904861, 39.1430944], [141.4907299, 39.1434693], [141.490934, 39.1438685], [141.4911766, 39.1444472], [141.4913354, 39.1447776], [141.4914795, 39.1449945], [141.4916595, 39.1451909], [141.4918251, 39.1453564], [141.4929153, 39.146362], [141.4932148, 39.1466102], [141.4936825, 39.1469527], [141.4942392, 39.1474181], [141.4948551, 39.1480248], [141.4952656, 39.1485686], [141.4958797, 39.1494061], [141.4962327, 39.1500584], [141.4962903, 39.1501532], [141.4964463, 39.1504408], [141.4964978, 39.1505357], [141.49704, 39.151508], [141.4975291, 39.1523066], [141.4975877, 39.1524022], [141.497912, 39.1529087], [141.4980409, 39.1530649], [141.49841, 39.1535037], [141.4986451, 39.1537426], [141.4988607, 39.1539251], [141.4989997, 39.1540521], [141.4991244, 39.1541675], [141.4992423, 39.1542528], [141.4997376, 39.154598], [141.4998227, 39.1546658], [141.5002149, 39.1549783], [141.5004435, 39.1551957], [141.5006513, 39.1555018], [141.500806, 39.155792], [141.50092, 39.1560604], [141.5009601, 39.1562844], [141.5009567, 39.1567319], [141.5009425, 39.1567975], [141.5004074, 39.1586806], [141.5003426, 39.158909], [141.5003185, 39.1589935], [141.5007492, 39.1591053], [141.5019699, 39.1594305], [141.5024769, 39.1596002], [141.5027862, 39.1597337], [141.5033974, 39.1601505], [141.5040569, 39.1606505], [141.5042695, 39.1607694], [141.5045019, 39.1608746], [141.504779, 39.1609521], [141.5050722, 39.1610047], [141.5061311, 39.1610054], [141.5065114, 39.1609942], [141.5092275, 39.1609511], [141.5094755, 39.1609247], [141.5096888, 39.1608713], [141.5098437, 39.160803], [141.5099745, 39.1607077], [141.5113047, 39.159626], [141.5120221, 39.1591509], [141.5126023, 39.1587667], [141.5139795, 39.1580078], [141.5153546, 39.1577067], [141.5165456, 39.1575116], [141.5182036, 39.1573911], [141.5182907, 39.1573848], [141.5187567, 39.157376], [141.5224909, 39.1573056], [141.5239037, 39.1570494], [141.5254036, 39.1564919], [141.52712, 39.1559793], [141.5272458, 39.1558799], [141.5276082, 39.1555936], [141.5276198, 39.1555632], [141.5279292, 39.1547516], [141.5270372, 39.1527393], [141.5270441, 39.1519934], [141.5275316, 39.1515218], [141.5282741, 39.1513896], [141.5286971, 39.1515611], [141.5294205, 39.1518544], [141.5313022, 39.1532494], [141.5321402, 39.1530677], [141.5357121, 39.1506963], [141.5367805, 39.1500872], [141.5373911, 39.1498742], [141.5376991, 39.1497906], [141.5380178, 39.1497319], [141.5384043, 39.1497067], [141.5387855, 39.1497189], [141.5391058, 39.1497628], [141.539437, 39.1498524], [141.5399673, 39.1500654], [141.540608, 39.1503208], [141.5415412, 39.1506827], [141.5416863, 39.1507063], [141.5417957, 39.1507166], [141.5418982, 39.1507188], [141.5428746, 39.1504415], [141.5432388, 39.1502894], [141.5435418, 39.1501482], [141.5448721, 39.1493668], [141.5453869, 39.1490696], [141.5455806, 39.1489466], [141.5457138, 39.1488395], [141.5458562, 39.1487096], [141.545994, 39.1485627], [141.5460555, 39.1484704], [141.5461216, 39.1483531], [141.5462674, 39.1480285], [141.5465556, 39.1473531], [141.5466626, 39.1470535], [141.5468756, 39.1463827], [141.5469519, 39.1461765], [141.5470419, 39.1459874], [141.5471706, 39.1457801], [141.5477823, 39.1449555], [141.5478962, 39.1448086], [141.5480465, 39.1446491], [141.5482105, 39.144509], [141.548419, 39.1443735], [141.5486377, 39.1442607], [141.5488973, 39.1441616], [141.5491513, 39.1440864], [141.5494281, 39.1440466], [141.5496844, 39.1440215], [141.5499988, 39.1440261], [141.5509807, 39.1440685], [141.552613, 39.1441395], [141.5536504, 39.1441867], [141.5547495, 39.1442345], [141.5550776, 39.1442675], [141.5553384, 39.1443085], [141.5555651, 39.1443644], [141.5557894, 39.1444281], [141.5561482, 39.1445591], [141.5563487, 39.1446434], [141.5565799, 39.144763], [141.557572, 39.1453405], [141.5579934, 39.1455592], [141.5582372, 39.1456685], [141.5584684, 39.1457585], [141.5588647, 39.1458633], [141.5590914, 39.1459134], [141.5592941, 39.1459441], [141.559506, 39.1459635], [141.5611621, 39.146033], [141.5626412, 39.146101], [141.5628455, 39.1461298], [141.5630236, 39.1461589], [141.5632396, 39.1462107], [141.5645051, 39.1465125], [141.5648992, 39.1465991], [141.5650746, 39.1466287], [141.565201, 39.1466401], [141.5653263, 39.1466355], [141.5654596, 39.1466093], [141.565583, 39.1465863], [141.5657704, 39.146516], [141.5659288, 39.1464328], [141.5668355, 39.1459009], [141.5696023, 39.1442003], [141.5700056, 39.1439879], [141.5713095, 39.1432109], [141.572958, 39.1422196], [141.5733426, 39.1419669], [141.5737458, 39.1417082], [141.5738688, 39.1415795], [141.5739451, 39.1414941], [141.5740157, 39.1413824], [141.5740852, 39.1412435], [141.5741433, 39.1410749], [141.5742082, 39.1408904], [141.5746376, 39.1390202], [141.5747082, 39.138781], [141.5747618, 39.1386033], [141.5749941, 39.1380907], [141.5751399, 39.1378664], [141.5752877, 39.1376728], [141.5755031, 39.1374474], [141.575626, 39.1373496], [141.5760719, 39.1370345], [141.5763541, 39.1368811], [141.5766375, 39.1367473], [141.5771761, 39.1365537], [141.5772994, 39.1365331], [141.5776437, 39.1364726], [141.5780243, 39.1364287], [141.5783848, 39.1364072], [141.5797931, 39.1364173], [141.5799132, 39.1364181], [141.5803087, 39.136421], [141.5809308, 39.1364227], [141.5815809, 39.1364119], [141.5820545, 39.136395], [141.5825601, 39.1364004], [141.5828317, 39.1364169], [141.5829093, 39.1364285], [141.5831257, 39.1364763], [141.5833153, 39.1365362], [141.5834972, 39.1366172], [141.5836585, 39.1367241], [141.5838257, 39.1368686], [141.5839622, 39.1370161], [141.5840812, 39.1372101], [141.5850376, 39.1392726], [141.585141, 39.1394499], [141.5852418, 39.1395921], [141.5853541, 39.1397007], [141.5855656, 39.1398803], [141.5858442, 39.1400629], [141.5870154, 39.1407514], [141.5876545, 39.1410976], [141.5880968, 39.1413115], [141.5885125, 39.1414982], [141.5888544, 39.1416377], [141.5899302, 39.1420547], [141.5903147, 39.1422004], [141.5906102, 39.1423312], [141.5908501, 39.1424642], [141.5911468, 39.1426682], [141.5911669, 39.142682], [141.5912543, 39.1427529], [141.5918252, 39.143216], [141.5920274, 39.1433531], [141.5922454, 39.1434614], [141.5924991, 39.1435631], [141.5927571, 39.1436353], [141.5930118, 39.1436803], [141.5932626, 39.1437038], [141.5941749, 39.1437194], [141.5944774, 39.1437431], [141.5948676, 39.1437993], [141.5953765, 39.1438982], [141.5958433, 39.1440179], [141.5962784, 39.1441628], [141.5964769, 39.1442406], [141.5968748, 39.1444216], [141.5970705, 39.1445108], [141.5975311, 39.1447265], [141.5978854, 39.1448814], [141.59809, 39.1449527], [141.5982561, 39.1450005], [141.5985107, 39.1450583], [141.5987686, 39.1450979], [141.5990973, 39.1451194], [141.5993924, 39.1451173], [141.5996259, 39.1451141], [141.6009716, 39.1450876], [141.6010878, 39.1450835], [141.6012632, 39.1450809], [141.6017836, 39.1450657], [141.6023612, 39.1450244], [141.60279, 39.1449816], [141.603229, 39.1449205], [141.6049318, 39.1446648], [141.6052964, 39.1446363], [141.6056004, 39.1446339], [141.6057585, 39.1446409], [141.6061938, 39.14467], [141.6064972, 39.1447133], [141.6069051, 39.1447983], [141.6071029, 39.1448514], [141.6073108, 39.1449149], [141.6078258, 39.1451111], [141.6079966, 39.1451777], [141.6087506, 39.1454734], [141.6089693, 39.1455315], [141.6091373, 39.1455654], [141.6093151, 39.1455914], [141.6095213, 39.1456105], [141.6097409, 39.1456138], [141.6100151, 39.145603], [141.6102637, 39.1455695], [141.610429, 39.1455285], [141.6118741, 39.1451359], [141.6122414, 39.1450565], [141.6125949, 39.1450018], [141.6129448, 39.1449729], [141.6141673, 39.1449359], [141.6146605, 39.1449501], [141.6149645, 39.1449919], [141.6153325, 39.1450802], [141.6157535, 39.1452237], [141.6161288, 39.1453797], [141.6166438, 39.1456079], [141.6175692, 39.1460873], [141.6178654, 39.1462026], [141.6181964, 39.1463148], [141.6184978, 39.1463963], [141.619725, 39.1466797], [141.6200225, 39.1467736], [141.6202404, 39.1468645], [141.620467, 39.1470039], [141.6206644, 39.147188], [141.6208144, 39.1474168], [141.6208908, 39.1475967], [141.6209408, 39.1478211], [141.6209565, 39.1480596], [141.6209458, 39.148331], [141.6209203, 39.1488604], [141.6209015, 39.1492754], [141.6209037, 39.1498824], [141.6209364, 39.1500502], [141.6209887, 39.1501864], [141.6210678, 39.1503185], [141.6211469, 39.1504285], [141.6212497, 39.1505294], [141.6213902, 39.1506419], [141.6223526, 39.151188], [141.6225906, 39.1513174], [141.623174, 39.1515551], [141.6236709, 39.1517095], [141.6240893, 39.1518177], [141.6247398, 39.1519867], [141.6253808, 39.1521661], [141.6256323, 39.1522696], [141.6258817, 39.1524032], [141.6261667, 39.1526273], [141.6264095, 39.1528304], [141.6268051, 39.1531598], [141.6272161, 39.1534625], [141.6277807, 39.1538571], [141.6279396, 39.1539704], [141.6281421, 39.1540843], [141.6284079, 39.1541976], [141.6285086, 39.1542304], [141.6285386, 39.1542411], [141.6288301, 39.1543079], [141.6295426, 39.1544147], [141.6300075, 39.1543933], [141.630703, 39.1539393], [141.6324917, 39.1527863], [141.6343931, 39.1515875], [141.6366656, 39.1501403], [141.6373166, 39.1496733], [141.6380614, 39.1494486], [141.6389063, 39.1493334], [141.6396491, 39.149145], [141.6419797, 39.1480394], [141.6449578, 39.1480743], [141.645509, 39.1479832], [141.6457377, 39.1478923], [141.6461709, 39.1476639], [141.6465015, 39.1474404], [141.646832, 39.1472351], [141.6473157, 39.1470054], [141.6478115, 39.14672], [141.648246, 39.1464896], [141.6485336, 39.1463717], [141.6487916, 39.1463225], [141.649307, 39.1463597], [141.6498897, 39.1464355], [141.6501008, 39.1464474], [141.6503118, 39.1464429], [141.6506368, 39.1464036], [141.6509425, 39.1463242], [141.6518887, 39.146051], [141.652434, 39.1458315], [141.6529546, 39.1455845], [141.6533814, 39.1453472], [141.6537869, 39.1451016], [141.6542809, 39.1447257], [141.6546786, 39.1443865], [141.6548817, 39.1441682], [141.6549907, 39.1439124], [141.6550421, 39.1428557], [141.6550479, 39.1426558], [141.6550535, 39.1422228], [141.6551364, 39.1420063], [141.655244, 39.1418375], [141.656609, 39.1407236], [141.656823, 39.1405058], [141.6568942, 39.1402205], [141.6570775, 39.1394221], [141.6571452, 39.1391558], [141.6573022, 39.1388943], [141.6579133, 39.1385416], [141.6580069, 39.1385046], [141.6586746, 39.1381473], [141.6588086, 39.1380891], [141.6591958, 39.1378439], [141.6594838, 39.1375126], [141.6595975, 39.1372505]], [[141.7061908, 39.0914676], [141.7058767, 39.0915891], [141.7056062, 39.0916615], [141.7051326, 39.0917182], [141.7042864, 39.0917902], [141.7039148, 39.0918451], [141.7035399, 39.0919526], [141.7030782, 39.0921647], [141.7027646, 39.0923088], [141.7025594, 39.0924068], [141.7023247, 39.0924849], [141.7019639, 39.092558], [141.7012724, 39.0926323], [141.7008099, 39.0926784], [141.7004215, 39.0927821], [141.7000834, 39.0929578], [141.6997658, 39.0932448], [141.6988411, 39.0943716], [141.6980846, 39.0952794], [141.6980701, 39.0952968], [141.6974336, 39.0960758], [141.6973112, 39.0962099], [141.6972885, 39.0962348], [141.6972717, 39.0962531], [141.6971913, 39.0963274], [141.6964398, 39.0969756], [141.6963019, 39.0970937], [141.6954726, 39.0978118], [141.6946753, 39.0984857], [141.692623, 39.1002484], [141.6922915, 39.1005351], [141.69206, 39.1007613], [141.6918367, 39.1010093], [141.6916489, 39.101243], [141.6914753, 39.1014756], [141.6913542, 39.1016584], [141.6912135, 39.101896], [141.6910613, 39.1022013], [141.6905182, 39.1034879], [141.6903717, 39.1037462], [141.690263, 39.1038801], [141.6901126, 39.1040257], [141.6899601, 39.1041493], [141.6897849, 39.10427], [141.6894006, 39.1044757], [141.6890587, 39.1046586], [141.6888974, 39.1047518], [141.6885942, 39.1049132], [141.6883666, 39.1050344], [141.6873663, 39.1055512], [141.6872839, 39.1055939], [141.686662, 39.1059152], [141.686194, 39.106157], [141.68585, 39.1063316], [141.6855993, 39.1064311], [141.6852808, 39.106515], [141.6850203, 39.1065598], [141.6847709, 39.1065819], [141.6834434, 39.1065909], [141.6831475, 39.106603], [141.6828755, 39.106641], [141.6826085, 39.1066863], [141.6823203, 39.1067643], [141.6819705, 39.1068837], [141.6816292, 39.1070457], [141.6813186, 39.1072234], [141.6810397, 39.1074174], [141.6808166, 39.1076135], [141.6806251, 39.1078292], [141.6804614, 39.1080587], [141.6802846, 39.1083622], [141.6799468, 39.1092089], [141.6795365, 39.1101859], [141.6792483, 39.1108908], [141.6790242, 39.1114391], [141.678955, 39.1116463], [141.6789093, 39.1118354], [141.6789016, 39.1118825], [141.6788885, 39.1119631], [141.678822, 39.1129679], [141.6787766, 39.1136541], [141.6786919, 39.1149337], [141.678673, 39.1152362], [141.6786455, 39.115677], [141.6786055, 39.1163192], [141.6785864, 39.1164642], [141.6785577, 39.116603], [141.6784549, 39.1168287], [141.6783354, 39.1170381], [141.6781888, 39.1172153], [141.6780414, 39.1173574], [141.6773045, 39.1179927], [141.6770806, 39.1182047], [141.6769289, 39.1184148], [141.6768235, 39.1186296], [141.6765897, 39.119148], [141.6764655, 39.119415], [141.6763247, 39.1196645], [141.6761478, 39.119914], [141.6758744, 39.1202252], [141.6755641, 39.1205041], [141.6753187, 39.1207013], [141.6752905, 39.1207229], [141.6751458, 39.1208228], [141.6750377, 39.1208975], [141.674763, 39.1209871], [141.674484, 39.1210359], [141.6738801, 39.1210118], [141.6724275, 39.1209539], [141.672338, 39.1209629], [141.672007, 39.1209962], [141.6716864, 39.1211089], [141.6713703, 39.1212957], [141.6706914, 39.1219643], [141.67053, 39.1222721], [141.670407, 39.1225193], [141.6703313, 39.12288], [141.6703102, 39.1233787], [141.670323, 39.1241839], [141.6703291, 39.1245653], [141.6703491, 39.125733], [141.6703471, 39.1258234], [141.6703515, 39.1266255], [141.6703418, 39.1269806], [141.6702696, 39.1272618], [141.6702068, 39.1274069], [141.6701808, 39.127452], [141.6700872, 39.1276143], [141.6698507, 39.1278887], [141.6695067, 39.128162], [141.6689231, 39.128566], [141.6685169, 39.1288406], [141.667896, 39.1292845], [141.6675985, 39.1294532], [141.6673546, 39.1297135], [141.6670286, 39.1300858], [141.6668229, 39.130394], [141.6663781, 39.1311167], [141.6660032, 39.1317001], [141.6656497, 39.1322418], [141.6655517, 39.132547], [141.6654805, 39.1328771], [141.665377, 39.133384], [141.6652651, 39.1339089], [141.6652574, 39.133945], [141.6651428, 39.1341899], [141.665007, 39.1343324], [141.6648718, 39.1344364], [141.664659, 39.1345686], [141.6643437, 39.1346992], [141.6641235, 39.1347558], [141.6635689, 39.1348042], [141.6628963, 39.1349025], [141.662229, 39.135005], [141.6616181, 39.13512], [141.6611801, 39.1351938], [141.660944, 39.1352867], [141.6607387, 39.1354057], [141.6604721, 39.1356265], [141.6602643, 39.1358035], [141.660141, 39.1360503], [141.6599244, 39.1365269], [141.6596943, 39.1370326], [141.6595975, 39.1372505]]]}, "id": "relation/7901019"}]}