{"type": "FeatureCollection", "generator": "kokudo-quiz tools/fetch_raw.py (Overpass API)", "copyright": "The data included in this document is from www.openstreetmap.org. The data is made available under ODbL.", "timestamp": "2026-09-30T23:39:30Z", "features": [{"type": "Feature", "properties": {"@id": "relation/8456817", "colour": "red", "from": "岐阜県瑞浪市", "name": "国道419号", "name:en": "National Highway Route 419", "name:ja": "国道419号", "name:ja-Hira": "こくどうよんひゃくじゅうきゅうごう", "name:ja-Latn": "kokudou 419 gou", "network": "JP:national", "ref": "419", "route": "road", "to": "愛知県高浜市", "type": "route", "wikidata": "Q11421461", "wikipedia": "ja:国道419号"}, "geometry": {"type": "MultiLineString", "coordinates": [[[137.1301354, 35.059765], [137.1302005, 35.0597935], [137.1303909, 35.0598766], [137.1305167, 35.0599465], [137.1305817, 35.0599906], [137.1306404, 35.060038], [137.1307282, 35.060118], [137.1308546, 35.0602492], [137.1309696, 35.0604043], [137.1311066, 35.0606159], [137.1314019, 35.0610322], [137.1314949, 35.0611633], [137.1316266, 35.061389], [137.1324928, 35.0626587], [137.1332034, 35.0637005], [137.1336989, 35.0643488], [137.1337336, 35.0644435], [137.1337313, 35.0645328], [137.1336937, 35.0646116], [137.1338546, 35.0647068], [137.1340769, 35.0648591], [137.1342992, 35.0650114], [137.1349329, 35.0654457], [137.1353584, 35.0657362], [137.1358426, 35.0659995], [137.1363147, 35.0662346], [137.1367697, 35.066476], [137.136932, 35.0665834], [137.1370533, 35.0666637], [137.1372857, 35.0668629], [137.1374009, 35.0669947], [137.1375943, 35.0672445], [137.138064, 35.0678206], [137.1382458, 35.0681009], [137.1383738, 35.0682853], [137.1384862, 35.0683944], [137.1387269, 35.068733], [137.1389737, 35.0690733], [137.1395072, 35.0697589], [137.1402268, 35.0706797], [137.1404485, 35.0709235], [137.1405569, 35.0710427], [137.140835, 35.0712802], [137.1412214, 35.071524], [137.1417552, 35.0718426], [137.1420605, 35.0719608], [137.1423567, 35.0720088], [137.1431416, 35.0720383], [137.1444562, 35.0720698], [137.1447585, 35.0720725], [137.1448719, 35.0720784], [137.1478494, 35.0721485], [137.1493464, 35.0722071], [137.149809, 35.0722202], [137.149817, 35.0722204], [137.149992, 35.0722253], [137.1500626, 35.072227], [137.1501636, 35.0722306], [137.1504174, 35.0722374], [137.1513684, 35.0722613], [137.1520024, 35.0722772], [137.1521941, 35.0733357], [137.1523655, 35.0743681], [137.1524473, 35.0748683], [137.1525168, 35.0751164], [137.1525977, 35.075321], [137.1526932, 35.0755147], [137.1528471, 35.0759004], [137.153, 35.0762994], [137.1532558, 35.0768889], [137.1535424, 35.0775134], [137.1536772, 35.0777111], [137.1539655, 35.0781127], [137.1543361, 35.0786473], [137.1543828, 35.0787392], [137.1544275, 35.0788529], [137.1544818, 35.0791784], [137.1545757, 35.0798626], [137.1546396, 35.080328], [137.1547056, 35.0808088], [137.1548193, 35.0816159], [137.1549301, 35.082452], [137.1549851, 35.0829469], [137.1549972, 35.0830459], [137.1550014, 35.0831322], [137.1550287, 35.0832974], [137.1551042, 35.0838513], [137.1552039, 35.0846181], [137.1553222, 35.0845858], [137.1559919, 35.0844025], [137.156488, 35.0842651], [137.1567253, 35.0842298], [137.1570164, 35.0842003], [137.1572409, 35.0841813], [137.1573758, 35.0841644], [137.1575056, 35.0841616], [137.1581137, 35.0841087], [137.1586449, 35.08407], [137.1592692, 35.0840104], [137.1593858, 35.0840015], [137.1594993, 35.083993], [137.1602645, 35.0839448], [137.1606135, 35.0839163], [137.1608502, 35.0838974], [137.1610092, 35.0838863], [137.161108, 35.0844856], [137.1612068, 35.0852041], [137.161271, 35.0856661], [137.1612897, 35.0858374], [137.1613901, 35.0863965], [137.1614115, 35.0865608], [137.1614342, 35.0866998], [137.1616153, 35.0876553], [137.1617154, 35.0881069], [137.1618953, 35.0886937], [137.1621382, 35.0894825], [137.1624201, 35.0904498], [137.1625354, 35.0909474], [137.1625735, 35.0910315], [137.1627064, 35.0914554], [137.1630788, 35.0926395], [137.1633865, 35.0937723], [137.1634213, 35.0941365], [137.1634534, 35.0943992], [137.1634707, 35.0945552], [137.1634784, 35.0948338], [137.1634619, 35.0955021]], [[137.1611052, 35.0838749], [137.1612962, 35.0851936], [137.1613672, 35.085674], [137.1613893, 35.0858236], [137.1614861, 35.0863884], [137.1615124, 35.086544], [137.161539, 35.0866931], [137.1616353, 35.0872417], [137.1617033, 35.0876292], [137.1617927, 35.0880966], [137.1619371, 35.0885499], [137.1622112, 35.0894651], [137.1625268, 35.0904475], [137.1626447, 35.0909466], [137.1626879, 35.0910483], [137.1628419, 35.0914687], [137.1631754, 35.0926193], [137.1634541, 35.0935971], [137.1634833, 35.0937551], [137.1635191, 35.0940815], [137.1635629, 35.0945769], [137.1635765, 35.0955072], [137.1635783, 35.0960629], [137.1635803, 35.0965081], [137.1635952, 35.0971257], [137.1635843, 35.0981044], [137.1635976, 35.0995265], [137.1635981, 35.0995963], [137.1636049, 35.1005919], [137.1636002, 35.1012958], [137.1636066, 35.1014767], [137.1636006, 35.1019599], [137.1636168, 35.1027262], [137.1636305, 35.1031216], [137.1636355, 35.1037936], [137.1636345, 35.10459], [137.1637244, 35.105605], [137.1637546, 35.1058534], [137.1637822, 35.106005], [137.1638855, 35.1062705], [137.1640016, 35.1064793], [137.1642986, 35.1068787], [137.1645169, 35.1071521], [137.1646835, 35.1073672], [137.165411, 35.1082994], [137.1661741, 35.109306], [137.1663752, 35.109584], [137.1665539, 35.1098034], [137.1667313, 35.1100366], [137.1668404, 35.1102646], [137.1669114, 35.1104667], [137.1669416, 35.1107139], [137.1669403, 35.1109907], [137.1669372, 35.1111525], [137.1669491, 35.1116156], [137.1669546, 35.1120275], [137.1669736, 35.1122729], [137.1670157, 35.1125488], [137.1670347, 35.1126113], [137.1671871, 35.1131718], [137.1672074, 35.1132551], [137.167279, 35.1135481], [137.1672882, 35.1135881], [137.1674664, 35.1143155], [137.1674966, 35.1144924], [137.1675569, 35.1148454], [137.1676055, 35.1151304], [137.1676878, 35.1156125], [137.1678378, 35.1166528], [137.1679555, 35.1174965], [137.1680045, 35.1178359], [137.1681016, 35.1185603], [137.168127, 35.1186722], [137.1681537, 35.1187618], [137.1681702, 35.1188853], [137.1682551, 35.1194114], [137.1682579, 35.1198664], [137.1682321, 35.1199859], [137.1681685, 35.1201866], [137.1681048, 35.1203719], [137.1680742, 35.1204184], [137.1679649, 35.1205948], [137.1678174, 35.1208138], [137.1672394, 35.1214705], [137.1668762, 35.121917], [137.1668147, 35.1220058], [137.1666957, 35.1221183], [137.1664594, 35.1223834], [137.166388, 35.1225119], [137.1663123, 35.1226904], [137.1662675, 35.122811], [137.1662382, 35.1228903], [137.1661538, 35.1231314], [137.1661219, 35.1232345], [137.1660882, 35.1234245], [137.1660594, 35.12378], [137.1660487, 35.1240359], [137.1660734, 35.1243031], [137.1660508, 35.1244293], [137.1659992, 35.1243073], [137.1659942, 35.1242852], [137.1659263, 35.1240011], [137.1658764, 35.1239141], [137.1658551, 35.12373], [137.1658422, 35.1235442], [137.1658753, 35.1232234], [137.1659451, 35.1229859], [137.1659938, 35.1228497], [137.1661229, 35.1226265], [137.1662488, 35.1224839], [137.1664308, 35.1223118], [137.1666221, 35.1220856], [137.1667375, 35.121984], [137.1668262, 35.1219087], [137.1668646, 35.1218694], [137.1669636, 35.1217354], [137.167166, 35.1214921], [137.1672256, 35.1214154], [137.1677049, 35.1208659], [137.1678219, 35.1207357]], [[137.1680805, 35.1201319], [137.1680467, 35.1202536], [137.1679604, 35.1204192], [137.1678219, 35.1207357]], [[137.1681376, 35.1198286], [137.1681547, 35.1197236], [137.168149, 35.1194047], [137.1681449, 35.1193323], [137.1680708, 35.1188894], [137.1680344, 35.1187292], [137.168002, 35.1185736], [137.1679879, 35.1184902], [137.1679485, 35.1181619], [137.1678921, 35.1178224], [137.1678689, 35.1176473], [137.167815, 35.1173176], [137.1676287, 35.1161039], [137.1674819, 35.115182], [137.1674439, 35.114905], [137.167379, 35.1144916], [137.167279, 35.1140206], [137.1671958, 35.1136137]], [[137.1681376, 35.1198286], [137.1680805, 35.1201319]], [[137.1657091, 35.1312404], [137.1657146, 35.1312832], [137.1658107, 35.1322262], [137.16593, 35.1331933], [137.1660227, 35.1341177], [137.1662327, 35.1360194], [137.1664971, 35.138659], [137.166508, 35.1387492], [137.1666533, 35.140091], [137.1667107, 35.1404006], [137.1668516, 35.140827], [137.1670082, 35.1411157], [137.1672884, 35.1414938], [137.167807, 35.1419503], [137.1681353, 35.1422042], [137.1686048, 35.1425609], [137.1691417, 35.1429588], [137.1697156, 35.1433929], [137.1700241, 35.1436151], [137.1713343, 35.1446761], [137.1718077, 35.1450594], [137.1718482, 35.1450885], [137.1721847, 35.1453302], [137.1722627, 35.1453837], [137.1727648, 35.1457279], [137.1742083, 35.1466944], [137.1745, 35.146902], [137.1750328, 35.1474127], [137.1752206, 35.1475843], [137.1754161, 35.1477646], [137.1762706, 35.1485419], [137.176571, 35.1488064], [137.1768735, 35.149064], [137.1773466, 35.1494947], [137.1778503, 35.1499444], [137.1781149, 35.150169], [137.1785978, 35.1506189], [137.1786976, 35.1507064]], [[137.1384862, 35.0683944], [137.1384621, 35.0682312], [137.1383633, 35.0681051], [137.1382059, 35.0678813], [137.138007, 35.0676245], [137.137655, 35.0671877], [137.1373719, 35.0668535], [137.1371694, 35.0666647], [137.1369288, 35.0664743], [137.1367251, 35.0663561], [137.1359449, 35.0659445], [137.135648, 35.0657828], [137.135426, 35.065644], [137.135024, 35.0653809], [137.1343132, 35.0648932], [137.1340969, 35.0647589], [137.1339225, 35.0646556], [137.1337313, 35.0645328]], [[137.1634619, 35.0955021], [137.1634635, 35.0957475], [137.1634639, 35.0957702], [137.1634688, 35.0960901], [137.1634798, 35.0964851], [137.163474, 35.0971234], [137.1634871, 35.098076], [137.1634964, 35.0995214], [137.163497, 35.0995972], [137.1635048, 35.1005923]], [[137.1660508, 35.1244293], [137.1660689, 35.1245579], [137.1661018, 35.1247002], [137.1661548, 35.1250444], [137.1661106, 35.1255049], [137.1660894, 35.1256966], [137.1660498, 35.1259915], [137.1660208, 35.1261627], [137.1660145, 35.1262533], [137.1659397, 35.1266053], [137.1659118, 35.12671], [137.1655796, 35.1277137], [137.1654816, 35.1280449], [137.1654607, 35.1282706], [137.1654443, 35.1283827], [137.1654438, 35.1283876], [137.1654392, 35.1284473], [137.1654459, 35.1288105], [137.1655011, 35.1293284], [137.1655788, 35.1301908], [137.1655917, 35.1303337], [137.1656106, 35.13048], [137.1657091, 35.1312404]], [[137.1671958, 35.1136137], [137.1670949, 35.1132641], [137.1670801, 35.1132143], [137.1670705, 35.1131684], [137.1669164, 35.112584], [137.1669065, 35.1125176], [137.1668775, 35.1123489], [137.166862, 35.1122179], [137.1668342, 35.1119221], [137.166835, 35.1116117], [137.1668317, 35.1112845], [137.1668343, 35.1111562], [137.1668374, 35.1109977], [137.1668316, 35.1107626], [137.1668273, 35.1106296], [137.1667957, 35.1104934], [137.1667506, 35.1103523], [137.1667135, 35.1102451], [137.166612, 35.110069], [137.1664684, 35.1098494], [137.1662698, 35.1095896], [137.1660646, 35.1093185], [137.1655787, 35.1087109], [137.1652196, 35.1082318], [137.1645908, 35.107418], [137.1644617, 35.1072337], [137.1640805, 35.1067638], [137.1638913, 35.1064908], [137.1638203, 35.1063574], [137.1637323, 35.1061607], [137.1636639, 35.1059209], [137.1636245, 35.1056457], [137.1635877, 35.105293], [137.1635509, 35.1048449], [137.1635264, 35.1045784], [137.1635034, 35.1031306], [137.1635035, 35.1023112], [137.1635075, 35.1020997], [137.1635098, 35.1019796], [137.1635108, 35.1019308], [137.163511, 35.1018757], [137.1635128, 35.1014208], [137.1634982, 35.1011128]], [[137.1786976, 35.1507064], [137.1789948, 35.150967], [137.1792451, 35.1511941], [137.1793685, 35.1513001], [137.1796878, 35.1515504], [137.1799277, 35.1517398], [137.1804092, 35.1521285], [137.1809008, 35.1525288], [137.1814195, 35.1530937], [137.1815333, 35.1532371], [137.1816402, 35.1533718], [137.18173, 35.1535415], [137.1818196, 35.1538276], [137.1818952, 35.154152], [137.1819395, 35.1544377], [137.1820875, 35.1549092], [137.1822566, 35.1552837], [137.1824135, 35.155582], [137.1824895, 35.1556968], [137.1827134, 35.1559668], [137.182871, 35.1561224], [137.1831689, 35.1564179], [137.1833293, 35.1566376], [137.1834865, 35.1569254], [137.1836861, 35.15735], [137.1838367, 35.1576702], [137.1840554, 35.1581581], [137.1843515, 35.1586515], [137.1846975, 35.1593], [137.1852778, 35.1603552], [137.1855272, 35.1608378], [137.1860486, 35.1616939], [137.1862298, 35.1618943], [137.1863329, 35.1620082], [137.1870399, 35.1625717], [137.1875539, 35.1630004], [137.1876519, 35.163106], [137.1877714, 35.1632347], [137.1879432, 35.1634198], [137.1884519, 35.163968], [137.1886038, 35.1641705], [137.1887962, 35.1644517], [137.188967, 35.1647407], [137.1891688, 35.1652018], [137.1894501, 35.165858], [137.1894746, 35.1659167], [137.189664, 35.1663697], [137.1897184, 35.1666262], [137.1897806, 35.1668515], [137.1898439, 35.1674302], [137.1898642, 35.1677197], [137.1898811, 35.1685237], [137.1898884, 35.1689151], [137.1898934, 35.1691891], [137.1899645, 35.1696468], [137.1900158, 35.1698648], [137.1902341, 35.1707055], [137.1902874, 35.1709909], [137.1903074, 35.1711146], [137.1903207, 35.1713273], [137.1903619, 35.1720789], [137.1904782, 35.1725616], [137.1905172, 35.1726554], [137.1906855, 35.1730606], [137.1911226, 35.1739333], [137.1912677, 35.1741948], [137.1913136, 35.1742703], [137.1913824, 35.1743614], [137.1916391, 35.1747014], [137.1919631, 35.1750698], [137.1922547, 35.1753864], [137.1924748, 35.175632], [137.1930072, 35.1762601], [137.1931707, 35.1765048], [137.1932562, 35.1766899], [137.193299, 35.1768708], [137.1933091, 35.1770806], [137.1932505, 35.1781438], [137.1932086, 35.178904], [137.1932135, 35.1790122], [137.1932208, 35.1791753], [137.1933029, 35.1794652], [137.1934887, 35.1798189], [137.1935408, 35.1798788], [137.1937428, 35.1801109], [137.1940678, 35.18036], [137.1947532, 35.1808683], [137.1954205, 35.1813822], [137.1955271, 35.1814876], [137.1956281, 35.1815943], [137.1959064, 35.1819557], [137.1961767, 35.1822886], [137.1966427, 35.1828849], [137.1968186, 35.1831202], [137.1969265, 35.1832446], [137.1969826, 35.1833096], [137.1969891, 35.1833176], [137.1970022, 35.1833338], [137.1970792, 35.183444], [137.1972187, 35.1836215], [137.1972323, 35.1836376], [137.1975444, 35.1840243], [137.1976872, 35.1841793], [137.1978774, 35.1843253], [137.1980733, 35.1844472], [137.1983207, 35.1845969], [137.1984901, 35.1847461], [137.1986318, 35.1849521], [137.1986586, 35.1850264], [137.1986994, 35.1851393], [137.1987455, 35.1853494], [137.1987499, 35.1855396], [137.1987268, 35.1857432], [137.1987109, 35.1858476], [137.1987076, 35.1860537], [137.1987146, 35.1860989], [137.1987537, 35.1863513], [137.1988476, 35.1868105], [137.1988839, 35.1871444], [137.1989795, 35.1875632], [137.1990618, 35.1880736], [137.1992217, 35.1884519], [137.1993732, 35.1886984], [137.1995957, 35.1889825], [137.1998461, 35.1892572], [137.2000504, 35.1894618], [137.2002201, 35.1896443], [137.2005562, 35.1899971], [137.2008594, 35.1902826], [137.2012581, 35.1906367], [137.2014875, 35.1908542], [137.201831, 35.191152], [137.2019129, 35.191218]], [[137.2296035, 35.2092615], [137.2295988, 35.2092402], [137.2295514, 35.2089326], [137.2294698, 35.2086289], [137.2293591, 35.2082529], [137.2293032, 35.2080644], [137.2292877, 35.2079978], [137.2292158, 35.2077455], [137.2291413, 35.2076113], [137.2290527, 35.2075218], [137.2289642, 35.2074495], [137.2288325, 35.2073743], [137.2287009, 35.2073181], [137.2284853, 35.2072972], [137.2282395, 35.2072896], [137.2280298, 35.2072839], [137.2278376, 35.2072372], [137.2276022, 35.2071611], [137.2272865, 35.2070468], [137.2270686, 35.2069745], [137.2268776, 35.2069431], [137.2266341, 35.2069307], [137.2263895, 35.206925], [137.2260049, 35.2068869], [137.2257055, 35.2068145], [137.2254352, 35.2067127], [137.2252109, 35.2066106], [137.2249791, 35.2064913], [137.2248075, 35.2063721], [137.2246802, 35.2062881], [137.2244589, 35.206132], [137.2243074, 35.2060244], [137.2241699, 35.2059397], [137.224029, 35.2058616], [137.2238053, 35.2057769], [137.2233342, 35.2056624], [137.2230235, 35.2056037], [137.2226066, 35.2055144], [137.2216849, 35.2053324], [137.2215704, 35.2053098], [137.2213039, 35.2052571], [137.2209707, 35.2051867], [137.220641, 35.2050867], [137.2205274, 35.2050462], [137.2204196, 35.2050077], [137.22026, 35.204943], [137.2201968, 35.204917], [137.2200305, 35.2048488], [137.2196868, 35.2047098], [137.2191194, 35.2044699], [137.2186813, 35.204289], [137.2180312, 35.2040329], [137.217451, 35.2037844], [137.2169502, 35.2035784], [137.2168594, 35.203541], [137.2166343, 35.2034484], [137.2162114, 35.2032599], [137.2158665, 35.2030733], [137.2155357, 35.2028544], [137.2151092, 35.2025421], [137.2147507, 35.2022754], [137.2144492, 35.2020546], [137.2142185, 35.2018809], [137.213978, 35.2017126], [137.2137242, 35.2015564], [137.213543, 35.2014729], [137.2132481, 35.2013962], [137.2126203, 35.2012656], [137.2119382, 35.2011337], [137.2115147, 35.2010394], [137.2109744, 35.2009421], [137.2109067, 35.2009277], [137.2105904, 35.2008334], [137.21034, 35.2007176], [137.2101093, 35.2005399], [137.2098539, 35.2002814], [137.2097513, 35.200176], [137.2095524, 35.1999717], [137.2094563, 35.1998418], [137.2093728, 35.199724], [137.2091438, 35.1993565], [137.2089131, 35.1988246], [137.2088053, 35.1985979], [137.2086116, 35.1982174], [137.2084414, 35.1978743], [137.2083891, 35.1978014], [137.2082623, 35.1976371], [137.2081124, 35.1974804], [137.2080831, 35.197446], [137.2080689, 35.1974321], [137.2079673, 35.1973177], [137.2079471, 35.1972911], [137.2076559, 35.1969106], [137.2074253, 35.1965814], [137.2072753, 35.196401], [137.2072539, 35.1963828], [137.2071048, 35.1962556], [137.2069269, 35.196166], [137.2068008, 35.1961176], [137.20665, 35.1960826], [137.2062854, 35.1960341], [137.2057896, 35.1959652], [137.2055416, 35.1959245], [137.2052217, 35.1958409], [137.2051096, 35.1958026], [137.2050011, 35.1957463], [137.2049222, 35.1956949], [137.204833, 35.1956132], [137.204574, 35.1953508], [137.2045518, 35.1953211], [137.2044537, 35.1951925], [137.204158, 35.1946778], [137.2037329, 35.1940891], [137.2034841, 35.1937539], [137.203377, 35.1935936], [137.2033009, 35.193433], [137.2032427, 35.1932727], [137.2032226, 35.1931713], [137.2031564, 35.1928589], [137.2030492, 35.1923982], [137.2029589, 35.1922615], [137.2028828, 35.1921203], [137.2027539, 35.1919662], [137.2025954, 35.1918264], [137.2022533, 35.1914958], [137.2019536, 35.1912513], [137.2019129, 35.191218]], [[137.2296035, 35.2092615], [137.2296187, 35.2094013], [137.2296194, 35.2094377], [137.2296252, 35.2097272], [137.2296345, 35.2099148], [137.2296502, 35.2100138], [137.2297093, 35.2102303], [137.2297568, 35.2103222], [137.2298815, 35.2105535], [137.2300469, 35.2108048], [137.2301809, 35.2110361], [137.230386, 35.2113664], [137.2305794, 35.2116843], [137.2307063, 35.2118957], [137.2307186, 35.2119155], [137.2308147, 35.2120708], [137.231092, 35.212523], [137.2313075, 35.2128732], [137.2314811, 35.2131217], [137.2316081, 35.2132502], [137.2317642, 35.2133663], [137.231897, 35.2134539], [137.232059, 35.2135319], [137.2322582, 35.2136176], [137.2324528, 35.2137042], [137.2326503, 35.2138226], [137.2327883, 35.213946], [137.2328464, 35.2140188], [137.2329201, 35.2141113], [137.2329871, 35.2142079], [137.2330476, 35.2143035], [137.2331724, 35.2145096], [137.2332596, 35.214659], [137.23346, 35.2149736], [137.2337508, 35.2154301], [137.233812, 35.2155236], [137.2340956, 35.2159923], [137.2341972, 35.2161598], [137.2343757, 35.216454], [137.2345157, 35.2166963], [137.2346574, 35.2168686], [137.234809, 35.2170059], [137.2349656, 35.2171216], [137.2352346, 35.2172762], [137.2352834, 35.2173043], [137.2353116, 35.2173205], [137.2354756, 35.2174187], [137.2358789, 35.2176422], [137.2366725, 35.2180962], [137.236979, 35.2182739], [137.2373003, 35.2184569], [137.2376199, 35.2186467], [137.2378292, 35.2187544], [137.2379642, 35.2188028], [137.2379723, 35.2188054], [137.2380739, 35.2188387], [137.2380912, 35.2188443], [137.2383383, 35.2188769], [137.2386085, 35.2188446], [137.2388886, 35.2187369], [137.2391852, 35.2185969], [137.2395081, 35.2184327], [137.23978, 35.2183183], [137.2400634, 35.2182268], [137.2403155, 35.2181204], [137.240533, 35.2179737], [137.240879, 35.2177058], [137.2412579, 35.2174501], [137.2414985, 35.2172859], [137.2416254, 35.2172105], [137.2417802, 35.2171622], [137.2419697, 35.2171454], [137.2421823, 35.2171555], [137.242422, 35.217173], [137.2427087, 35.2172059], [137.2428372, 35.2172504], [137.2429682, 35.217315], [137.2431807, 35.2174651], [137.2434032, 35.2176717], [137.2436684, 35.217953], [137.243937, 35.2182303], [137.2442254, 35.2184807], [137.2444445, 35.2186839], [137.2448597, 35.2190043], [137.2452716, 35.2193502], [137.2456044, 35.219606], [137.2458368, 35.2197648], [137.2461712, 35.2199613], [137.2466589, 35.2202117], [137.2470527, 35.2203934], [137.247603, 35.2205886], [137.2480891, 35.2207299], [137.2485999, 35.2209035], [137.2491271, 35.2210153], [137.2494583, 35.2210624], [137.2496148, 35.2210879], [137.2502252, 35.2212231], [137.250803, 35.221409], [137.2512487, 35.2215645], [137.2516349, 35.2217398], [137.2519782, 35.2219151], [137.2524074, 35.2221605], [137.2526649, 35.2223358], [137.2530082, 35.2225111], [137.2532657, 35.2226864], [137.2535232, 35.2229318], [137.2536519, 35.2231421], [137.2538006, 35.2233664], [137.2540073, 35.2236508], [137.2542098, 35.2239134], [137.2544244, 35.2241588], [137.2546854, 35.224384], [137.2550071, 35.224637], [137.2552827, 35.22486], [137.2555597, 35.2250436], [137.2558853, 35.2252326], [137.2563768, 35.2254419], [137.2568631, 35.2256143], [137.2573317, 35.2257787], [137.2577726, 35.2259319], [137.2579588, 35.2259957], [137.2588203, 35.2263108], [137.2590353, 35.2263895], [137.2592904, 35.226469], [137.2595142, 35.2265076], [137.2597459, 35.2265318], [137.260012, 35.2265313], [137.2601952, 35.2265201], [137.260402, 35.2264897], [137.2609218, 35.2264025], [137.2612727, 35.2263472], [137.2616094, 35.2262926], [137.2619998, 35.2262282], [137.2622512, 35.226188], [137.2624826, 35.2261675], [137.2627642, 35.2261708], [137.2629788, 35.2261867], [137.2650401, 35.2263602], [137.2653722, 35.2263865], [137.2665425, 35.226486], [137.2667407, 35.2265011], [137.2671587, 35.2265536], [137.2673275, 35.226597], [137.2674744, 35.2266565], [137.2675914, 35.2267149], [137.2677573, 35.2268083], [137.2679865, 35.2269667], [137.2681799, 35.2271119], [137.2684776, 35.2273321], [137.268553, 35.2273879], [137.2692283, 35.2278713], [137.269651, 35.2281847], [137.2699556, 35.2284115], [137.2702643, 35.2286396], [137.2705601, 35.2288457], [137.2706076, 35.2288727], [137.27069, 35.2289195], [137.2708535, 35.228999], [137.2710582, 35.2290957], [137.271375, 35.2292411], [137.2719112, 35.2295004], [137.2723281, 35.2297045], [137.2724595, 35.2297699], [137.2724766, 35.2297781], [137.2725218, 35.2297994], [137.2727807, 35.2299198], [137.2729662, 35.2300054], [137.2730896, 35.2300624], [137.2734921, 35.2302253], [137.2736971, 35.2302948], [137.2737658, 35.2303167], [137.2743028, 35.230504], [137.2745946, 35.2305741], [137.2748779, 35.2306092], [137.2751096, 35.2306302], [137.2753274, 35.230627], [137.275639, 35.2306189], [137.2759679, 35.2306092], [137.2763112, 35.2306092], [137.2766374, 35.2306092], [137.2766494, 35.2306089], [137.2770837, 35.230599], [137.2775701, 35.2305838], [137.2778696, 35.230559], [137.2779924, 35.2305412], [137.278427, 35.2304507], [137.2784548, 35.2304424], [137.2788347, 35.2303287], [137.2793196, 35.2301647], [137.2795728, 35.2300833], [137.2798676, 35.2300042], [137.280114, 35.2299378], [137.2803149, 35.2298931], [137.2805219, 35.2298695], [137.280738, 35.2298593], [137.2810435, 35.2298544], [137.2812975, 35.2298692], [137.281554, 35.2298925], [137.2817756, 35.2299237], [137.282024, 35.2299839], [137.282363, 35.2301154], [137.282617, 35.230225], [137.2828669, 35.2303415], [137.2830312, 35.230435], [137.2832406, 35.2305558], [137.2834063, 35.2306831], [137.2835914, 35.2308286], [137.2837957, 35.2309899], [137.2839765, 35.2311], [137.2841955, 35.2311868], [137.2842979, 35.2312212], [137.2844946, 35.2312459], [137.2849592, 35.2312724], [137.2853236, 35.2313219], [137.2855182, 35.2313593], [137.2857625, 35.2314221], [137.2860685, 35.2314953], [137.2863021, 35.2315479], [137.2864651, 35.2315828], [137.2866121, 35.2316185], [137.2870572, 35.231676], [137.2873943, 35.231688], [137.2874116, 35.2316887], [137.2881443, 35.2317182], [137.2886004, 35.2317318], [137.288854, 35.2317375], [137.2889641, 35.2317472], [137.2889974, 35.2317501], [137.2891361, 35.2317704], [137.2893503, 35.2318109], [137.2896357, 35.231889], [137.2898948, 35.2319719], [137.2903051, 35.2320925], [137.2906576, 35.2322001], [137.2908704, 35.2322559], [137.2912201, 35.2323119], [137.2916665, 35.2323306], [137.2924478, 35.2323051], [137.2926101, 35.2323007], [137.2928461, 35.2322942], [137.2929963, 35.232281], [137.2931439, 35.232258], [137.2933759, 35.2322021], [137.2935368, 35.2321469], [137.2937558, 35.2320848], [137.2938536, 35.2320691], [137.2939479, 35.2320677], [137.2940562, 35.2320733], [137.2942034, 35.232107], [137.2943763, 35.2322142], [137.2944877, 35.232327], [137.29454, 35.2324103], [137.2945708, 35.2324935], [137.2945815, 35.2325877], [137.2945614, 35.2326962], [137.2945185, 35.2328156], [137.2944595, 35.2329372], [137.2943643, 35.2330785], [137.2941966, 35.2333239], [137.2941014, 35.2334597], [137.2939271, 35.2337138], [137.2938412, 35.2338573], [137.2937742, 35.2340063], [137.29375, 35.234106], [137.2937487, 35.2342221], [137.2937581, 35.2343985], [137.2937889, 35.2345157], [137.2938238, 35.2346055], [137.2938654, 35.2346866], [137.2939163, 35.2347775], [137.2940625, 35.2350064], [137.2942717, 35.2353285], [137.2943375, 35.2354676], [137.2943844, 35.2355936], [137.294438, 35.2357918], [137.2946084, 35.2364447], [137.294721, 35.2368631], [137.2948176, 35.2372859], [137.2948699, 35.237505], [137.2949463, 35.2377953], [137.2949812, 35.2378982], [137.295067, 35.2382389], [137.295118, 35.2383922], [137.2952861, 35.2387745], [137.295339, 35.2388735], [137.2953772, 35.2389368], [137.2953943, 35.2389583], [137.2954441, 35.2390132], [137.2956405, 35.2392667], [137.2958125, 35.239478], [137.2960045, 35.2396659], [137.2961746, 35.2398294], [137.2962935, 35.2399269], [137.2965762, 35.2401023], [137.2971681, 35.2404379], [137.2972616, 35.2404864], [137.2974173, 35.2405672], [137.2977088, 35.2407183], [137.2979988, 35.2408977], [137.2981904, 35.2410276], [137.2983862, 35.2411741], [137.298512, 35.2413127], [137.2986244, 35.2414664], [137.2987193, 35.2416578], [137.2989265, 35.2421006], [137.2990797, 35.2424356], [137.2992064, 35.2427057], [137.2993951, 35.2431101], [137.2994983, 35.2432907], [137.2996588, 35.2436025], [137.2997688, 35.2439289], [137.2998117, 35.2441812], [137.2997842, 35.2444682], [137.2996908, 35.244742], [137.2995264, 35.2450401], [137.2993795, 35.2452617], [137.2991111, 35.2455935], [137.29888, 35.2458963], [137.298653, 35.2462281], [137.2984555, 35.2464524], [137.2983096, 35.2465926], [137.2981637, 35.2466819], [137.2981082, 35.2467159], [137.2976541, 35.2469294], [137.2975727, 35.2469704], [137.2974703, 35.2470352], [137.2973758, 35.2471132], [137.2973044, 35.2472], [137.2972427, 35.247284], [137.2971761, 35.2474154], [137.2971643, 35.2475073], [137.2971643, 35.2476046], [137.2971777, 35.2476716], [137.2972437, 35.2478184], [137.29757, 35.2481651], [137.2977555, 35.2484174], [137.2979348, 35.2486541], [137.2980025, 35.2487912], [137.2980272, 35.2489847], [137.2980263, 35.2491807], [137.2980088, 35.2492921], [137.297988, 35.2494243], [137.2979967, 35.2495702], [137.2980167, 35.2497308], [137.2980493, 35.2498687], [137.2980891, 35.2500109], [137.2981795, 35.250234], [137.298297, 35.2505499], [137.2983484, 35.2506646], [137.298408, 35.2508185], [137.29842, 35.2508483], [137.2985409, 35.2511481], [137.2986458, 35.2514182], [137.2986697, 35.251476], [137.2988391, 35.2518496], [137.2989276, 35.2520809], [137.2990987, 35.2525541], [137.2991839, 35.252815], [137.2992244, 35.2529114], [137.2993997, 35.2533215], [137.2995284, 35.2536439], [137.2996116, 35.2538397], [137.2996981, 35.2540064], [137.2997879, 35.2541545], [137.2999246, 35.2543455], [137.3000889, 35.2545129], [137.300149, 35.2545831], [137.3002341, 35.254689], [137.3003139, 35.2548298], [137.3003467, 35.2549095], [137.3003756, 35.2549868], [137.3003845, 35.2550983], [137.3003696, 35.2553261], [137.3003572, 35.2555666], [137.3003318, 35.2558658], [137.3002827, 35.2561532], [137.3002653, 35.2562926], [137.3002561, 35.2563658], [137.3002518, 35.2564008], [137.3002398, 35.2565324], [137.3002347, 35.2565778], [137.3002368, 35.2567877], [137.300256, 35.2569005], [137.3002895, 35.2570208], [137.3003258, 35.2571051], [137.3003614, 35.257165], [137.3004078, 35.2572323], [137.3005136, 35.2573396], [137.3007387, 35.2575416], [137.300902, 35.2576919], [137.3009889, 35.2577758], [137.3013943, 35.2581445], [137.3015285, 35.2582627], [137.3015982, 35.258324], [137.3017008, 35.2584205], [137.3019601, 35.2586644], [137.3020921, 35.2588168], [137.3021279, 35.2588838], [137.3021559, 35.2589707], [137.3021615, 35.2590579], [137.3021406, 35.2591495], [137.3021114, 35.2592238], [137.3020524, 35.2593061], [137.3019736, 35.2593887], [137.3018632, 35.2594718], [137.301713, 35.2595776], [137.3013865, 35.2598076], [137.3010924, 35.2600028], [137.3009097, 35.2601234], [137.3005627, 35.2603228], [137.2997688, 35.2607647], [137.2994254, 35.260961], [137.2989301, 35.2612399], [137.2987694, 35.2613356], [137.2985597, 35.2614606], [137.2983767, 35.2615862], [137.2982667, 35.261684], [137.2981872, 35.2617713], [137.2981078, 35.2618713], [137.2980495, 35.261958], [137.2979902, 35.2620845], [137.2979751, 35.2621208], [137.2979341, 35.2622191], [137.2978123, 35.262532], [137.2977732, 35.2626326], [137.2977185, 35.2627732], [137.2974382, 35.2633372], [137.2973494, 35.2634359], [137.2971335, 35.2636856], [137.2970251, 35.2637882], [137.2967335, 35.2640717], [137.2964471, 35.2643367], [137.2961411, 35.2646348], [137.2960903, 35.2647094], [137.296042, 35.2647959], [137.2960153, 35.2648842], [137.2960071, 35.2649569], [137.296011, 35.2650202], [137.2960217, 35.2650771], [137.2960416, 35.2651417], [137.2960764, 35.2652228], [137.2962553, 35.2655028], [137.2963704, 35.2656477], [137.2965019, 35.2657867], [137.2966089, 35.2658841], [137.2967607, 35.2660093], [137.2970142, 35.2661655], [137.2972901, 35.2663563], [137.2974502, 35.2664842], [137.2975038, 35.2665512], [137.2975519, 35.2666275], [137.2975895, 35.2668212], [137.2976234, 35.2670654], [137.2976265, 35.2670876], [137.2976184, 35.2671686], [137.2976023, 35.2672341], [137.2975731, 35.2672967], [137.2975366, 35.2673539], [137.2974452, 35.2674554], [137.2968878, 35.2679539], [137.2967346, 35.2680862], [137.2966133, 35.2681356], [137.2965194, 35.2681696], [137.2964047, 35.2681847], [137.2963183, 35.2681871], [137.2962105, 35.2681902], [137.2961177, 35.2682042], [137.2959796, 35.2682484], [137.2958546, 35.2683095], [137.2958292, 35.2683287], [137.2957565, 35.2683907], [137.2956307, 35.268514], [137.2956155, 35.2685296], [137.2953034, 35.2688494], [137.2950931, 35.26909], [137.2950339, 35.2692393], [137.2950151, 35.2693106], [137.2950013, 35.2693992], [137.295014, 35.2694954], [137.2950596, 35.2696848], [137.2951305, 35.26984], [137.2952275, 35.2699576], [137.2954139, 35.2702388], [137.2954194, 35.2702525], [137.2954555, 35.2703429], [137.2954866, 35.27046], [137.2954981, 35.2705719], [137.2955065, 35.2710677], [137.2955174, 35.2711901], [137.2955536, 35.2713918], [137.2955789, 35.2714925], [137.295611, 35.2715812], [137.295643, 35.2716376], [137.2956732, 35.2716816], [137.2957215, 35.2717341], [137.2957852, 35.271785], [137.2958352, 35.2718167], [137.2958729, 35.2718405], [137.2960094, 35.2719073], [137.2962933, 35.2719994], [137.2964803, 35.2720774], [137.2966989, 35.2722091], [137.2967752, 35.2722638], [137.2969026, 35.2723551], [137.2976788, 35.2729594], [137.2978309, 35.2731119], [137.2979195, 35.2732325], [137.297977, 35.2733372], [137.298025, 35.2734425], [137.2980537, 35.2735467], [137.2980746, 35.2736768], [137.2980798, 35.273795], [137.2980814, 35.2738582], [137.2980838, 35.2739505], [137.2980706, 35.2741881], [137.2980325, 35.2748738], [137.2980195, 35.2751078], [137.2980128, 35.2755107], [137.2980237, 35.2756541], [137.2980532, 35.2757864], [137.2981113, 35.2759554], [137.2981874, 35.2761205], [137.2983714, 35.276527], [137.2984206, 35.2766746], [137.2984432, 35.276793], [137.2984593, 35.2769631], [137.2984652, 35.2771089], [137.2984426, 35.2772999], [137.2984019, 35.2774856], [137.2983634, 35.2776185], [137.2982769, 35.2778009], [137.2980911, 35.2780989], [137.2977231, 35.2787478], [137.2976402, 35.2789494], [137.2975802, 35.2791096], [137.2975299, 35.2793359], [137.2975087, 35.2796678], [137.2975098, 35.2801438], [137.2975061, 35.2804265], [137.2975235, 35.2805905], [137.2975557, 35.2807615], [137.2976243, 35.2809815], [137.2977311, 35.2811644], [137.297844, 35.2813196], [137.298138, 35.281703], [137.2983416, 35.2819692], [137.298484, 35.2821965], [137.2985387, 35.2823281], [137.2985711, 35.2824518], [137.298582, 35.2825505], [137.2985714, 35.2826631], [137.2985188, 35.2828834], [137.2984588, 35.2830092], [137.2981128, 35.2838717], [137.2979394, 35.284305], [137.2978708, 35.2845295], [137.2978185, 35.2847966], [137.2977904, 35.2850354], [137.2977904, 35.2852473], [137.2978132, 35.2854381], [137.2978464, 35.2856252], [137.297907, 35.2858376], [137.2979577, 35.2859909], [137.2980264, 35.286145], [137.2981825, 35.2864019], [137.298903, 35.287259], [137.299564, 35.288002], [137.2998182, 35.2885636], [137.299849, 35.2887742], [137.2998286, 35.2890596], [137.2997446, 35.289331], [137.2996867, 35.2895053], [137.2996004, 35.2897327], [137.2994886, 35.2900518], [137.2993714, 35.2902998], [137.2992011, 35.2905633], [137.2989608, 35.2908336], [137.2986918, 35.2910761], [137.2984343, 35.2912718], [137.2980264, 35.2915326], [137.2978118, 35.2916517], [137.2975715, 35.2917778], [137.2972282, 35.2919739], [137.2969964, 35.2921421], [137.2967647, 35.2922822], [137.2965072, 35.2924223], [137.2962926, 35.2925414], [137.2961553, 35.2925974], [137.2960094, 35.2926115], [137.295812, 35.2926325], [137.295666, 35.2926325], [137.2954686, 35.2925974], [137.295297, 35.2925624], [137.2951253, 35.2925414], [137.2949794, 35.2925414], [137.2947648, 35.2925414], [137.2946103, 35.2925834], [137.2944387, 35.2926535], [137.2943185, 35.2927516], [137.2941812, 35.2928426], [137.294061, 35.2929617], [137.2938894, 35.2930738], [137.2936919, 35.2931579], [137.293546, 35.2932139], [137.2933915, 35.2932279], [137.2933424, 35.2931965], [137.2932136, 35.2931615], [137.2930849, 35.2930564], [137.2929819, 35.2929163], [137.2928961, 35.2927412], [137.2929132, 35.2925801], [137.2928274, 35.2924119], [137.2927587, 35.2922158], [137.2926386, 35.2920616], [137.2925527, 35.2919355], [137.2923296, 35.2918305], [137.2921236, 35.2918305], [137.2919004, 35.2918515], [137.2917116, 35.2919215], [137.2915571, 35.2920196], [137.2914369, 35.2921597], [137.2914369, 35.2924119], [137.2914842, 35.2926126], [137.2916944, 35.2928112], [137.2919262, 35.2929303], [137.2921837, 35.2929864], [137.2922894, 35.2930204], [137.2925556, 35.2931478], [137.2926929, 35.2932593], [137.2927854, 35.2933711], [137.2928721, 35.2935489], [137.2929732, 35.293812], [137.293134, 35.2942928], [137.2932885, 35.2946851], [137.2934602, 35.2950844], [137.2936375, 35.2955794], [137.2937121, 35.2957976], [137.2937168, 35.2958227], [137.2937338, 35.2959135], [137.293744, 35.2959681], [137.2937388, 35.2960923], [137.2937271, 35.2962237], [137.2937349, 35.2963804], [137.2937349, 35.2965205], [137.293649, 35.2966746], [137.2935203, 35.2968147], [137.2933744, 35.2969758], [137.2932199, 35.297186], [137.2930654, 35.2974172], [137.2928766, 35.2976413], [137.2928692, 35.2977657], [137.2928091, 35.2979058], [137.2927233, 35.2980809], [137.2926975, 35.298207], [137.2926718, 35.2983961], [137.2926975, 35.2985572], [137.2927405, 35.2986763], [137.2928323, 35.2988631], [137.2929106, 35.2990259], [137.2930311, 35.2992811], [137.2930482, 35.2994066], [137.2931689, 35.2996312], [137.2931394, 35.2999306], [137.2931072, 35.3001216], [137.2930053, 35.3003733], [137.29282, 35.3005583], [137.292622, 35.300834], [137.2925523, 35.3009311], [137.2923476, 35.3011783], [137.292118, 35.3014171], [137.2918692, 35.3016501], [137.2917277, 35.3017806], [137.2915422, 35.3019691], [137.2914056, 35.3021565], [137.2913343, 35.3023347], [137.2912752, 35.3025383], [137.2912812, 35.3028855], [137.2912886, 35.3029979], [137.2912954, 35.3030462], [137.2913161, 35.3031749], [137.2913827, 35.3037405], [137.2913967, 35.3038512], [137.2914664, 35.3043054], [137.2915729, 35.3049175], [137.2915785, 35.3049465], [137.2916185, 35.3051533], [137.2916215, 35.3052066], [137.2916302, 35.3053633], [137.2915983, 35.3055548], [137.2915292, 35.3057857], [137.2913401, 35.3061836], [137.2912155, 35.3064458], [137.2911907, 35.3065143], [137.291134, 35.3066707], [137.2911104, 35.3067357]]]}, "id": "relation/8456817"}, {"type": "Feature", "properties": {"@id": "relation/8469253", "name": "国道419号", "name:en": "national route 419", "name:ja": "国道419号", "name:ja-Hira": "こくどう419ごう", "name:ja-Latn": "kokudou 419 gou", "network": "JP:national", "route": "road", "type": "route"}, "geometry": {"type": "MultiLineString", "coordinates": [[[136.9812205, 34.9229921], [136.9811826, 34.9233854], [136.9811671, 34.9235465], [136.9811669, 34.9240891], [136.9812665, 34.924633], [136.9813603, 34.9249175], [136.9816093, 34.9255313], [136.9820303, 34.9264627], [136.9822011, 34.9268554], [136.982334, 34.9271685], [136.9824406, 34.9274369], [136.9825472, 34.9277514], [136.9826346, 34.9281246], [136.9826814, 34.9284415], [136.9827155, 34.9289033], [136.9826928, 34.9294076], [136.9825774, 34.9311126], [136.9825168, 34.9318916], [136.9825826, 34.9321419]], [[136.9826111, 34.9318011], [136.9826789, 34.9317079], [136.9827434, 34.9311845], [136.9827991, 34.9305125], [136.9828804, 34.9296662], [136.9829763, 34.9290795], [136.9829736, 34.9287881], [136.9829464, 34.9284023], [136.9828995, 34.9281125], [136.9827655, 34.92764], [136.982514, 34.9270597], [136.9824208, 34.9268447], [136.9823404, 34.9266615], [136.9817725, 34.925368], [136.9815473, 34.9248741], [136.9814647, 34.9245998], [136.9813944, 34.9243361], [136.9813538, 34.9240711], [136.9813372, 34.9235545], [136.981362, 34.9232394], [136.9813963, 34.9229664]], [[136.9826542, 34.9311663], [136.9826111, 34.9318011], [136.9825826, 34.9321419], [136.9824785, 34.9332901], [136.982475, 34.9334095], [136.9824715, 34.9335272], [136.9825029, 34.933772], [136.982594, 34.9341727], [136.9826274, 34.9342887], [136.9827585, 34.9345202], [136.9830541, 34.934858], [136.9833759, 34.9351091], [136.9836518, 34.9352913], [136.9839702, 34.9354414], [136.9844111, 34.9355748], [136.9847972, 34.935646], [136.9853849, 34.9357107], [136.9858751, 34.9357615], [136.9886222, 34.9360268], [136.98961, 34.936107], [136.9897879, 34.9361552], [136.9910412, 34.9363044], [136.9919355, 34.9363593], [136.9926399, 34.936432], [136.9930686, 34.9365017], [136.9934754, 34.9365955], [136.9938627, 34.9367162], [136.9942164, 34.9368619], [136.994616, 34.9370752], [136.9949815, 34.9372637], [136.9953943, 34.9375213], [136.995804, 34.9378414], [136.9959073, 34.9379228], [136.9963607, 34.938368], [136.9971697, 34.939175], [136.9975052, 34.9394809], [136.9991411, 34.9411243], [137.0008414, 34.942744], [137.0013159, 34.9432941], [137.0017742, 34.9437507], [137.0024255, 34.9444102], [137.0028649, 34.9447892], [137.0032737, 34.9452213], [137.0034358, 34.9453851], [137.0041646, 34.9461535], [137.004798, 34.9466993], [137.0058709, 34.9475857], [137.0061033, 34.9477951], [137.0065685, 34.9481998], [137.008667, 34.950086], [137.0100891, 34.9513571], [137.0113656, 34.9525092], [137.011798, 34.9529213], [137.0118955, 34.9530088], [137.0126373, 34.9536764], [137.0128896, 34.9539557], [137.0132527, 34.9544077], [137.0135717, 34.9548949], [137.0137868, 34.9552641], [137.0141018, 34.9557654], [137.0145812, 34.9565823], [137.0153592, 34.9578919], [137.0154086, 34.9579751], [137.0155116, 34.9581536], [137.0162897, 34.9594182], [137.0170511, 34.9606077], [137.0177645, 34.9617832], [137.0178045, 34.9618743], [137.0183178, 34.9627155], [137.0184668, 34.9628968], [137.0185115, 34.9629756], [137.0188896, 34.9636419], [137.0192782, 34.9642061], [137.0195159, 34.9645045], [137.0197667, 34.9647982], [137.0202119, 34.9652156], [137.0206552, 34.9655819], [137.0211689, 34.9659569], [137.0218331, 34.9663549], [137.0234892, 34.9672627], [137.0236222, 34.9673356], [137.0237266, 34.9673931], [137.0249778, 34.9680823], [137.0261318, 34.9686926], [137.0275141, 34.9694448], [137.0276595, 34.9695239], [137.0277417, 34.9695732], [137.0281493, 34.9698173], [137.0290371, 34.9704987], [137.0294313, 34.9709428], [137.0297181, 34.9712658], [137.0298578, 34.971452], [137.0299715, 34.9716036], [137.0300324, 34.9717032], [137.0303408, 34.9722078], [137.0306012, 34.9726339], [137.0311119, 34.9734563], [137.0313427, 34.9737916], [137.0313967, 34.9738832], [137.0313995, 34.9738876], [137.0315695, 34.9741512], [137.0320098, 34.9748341], [137.0320743, 34.9749341], [137.0321307, 34.9750254], [137.0321632, 34.975078], [137.0333585, 34.9770061], [137.0333979, 34.9770668], [137.0334466, 34.9771421], [137.0335013, 34.9772264], [137.0344736, 34.9787267], [137.0347131, 34.979129], [137.0354698, 34.9804003], [137.0360078, 34.9812521], [137.0365138, 34.9820533], [137.036813, 34.9825182], [137.0372583, 34.983212], [137.0380315, 34.9841802], [137.038513, 34.9847492], [137.0401671, 34.9867472], [137.0406394, 34.9873043], [137.0410711, 34.9878467], [137.0416667, 34.98853]], [[137.0381161, 34.9841396], [137.0373734, 34.9832045], [137.0367819, 34.9823042], [137.0360849, 34.981216], [137.0347877, 34.9790913], [137.0345457, 34.9786949], [137.0344074, 34.9784683], [137.0336019, 34.9771963], [137.0335474, 34.9771101], [137.0334994, 34.9770344], [137.0322359, 34.975039], [137.0322077, 34.9749938], [137.0321501, 34.9749014], [137.0320896, 34.9747987], [137.0316008, 34.9739699], [137.0315982, 34.9739654], [137.0315466, 34.973878], [137.0308963, 34.9728417], [137.0307595, 34.9726439], [137.0304432, 34.9721866], [137.0304068, 34.9721293], [137.0301145, 34.9716691], [137.0300462, 34.9715616], [137.0299452, 34.9714115], [137.0298664, 34.9712944], [137.0294372, 34.9707669], [137.0293527, 34.9706829], [137.0288364, 34.9701691], [137.0280535, 34.9696235], [137.0278127, 34.9694867], [137.0277306, 34.9694401], [137.0275858, 34.9693613], [137.0270404, 34.9690644], [137.0262038, 34.9686019], [137.024616, 34.9677403], [137.0237901, 34.9673095], [137.0236845, 34.9672544], [137.0235511, 34.9671796], [137.0225459, 34.9666159], [137.0219089, 34.9662643], [137.0212263, 34.9658554], [137.0207153, 34.9655059], [137.0202969, 34.965163], [137.0198289, 34.9646563], [137.0195097, 34.9643035], [137.0193742, 34.9641695], [137.0189963, 34.9635547], [137.0186456, 34.9629813], [137.0185976, 34.9629029], [137.0184424, 34.9626491], [137.0179241, 34.9618091], [137.0178759, 34.9617329], [137.017151, 34.9605283], [137.0166276, 34.9595269], [137.0158479, 34.9582309], [137.0157008, 34.958023], [137.015642, 34.9579398], [137.0152222, 34.9573463], [137.0147099, 34.9565377], [137.0144926, 34.9561416], [137.0139073, 34.9551499], [137.0138811, 34.9551216], [137.0134155, 34.954374], [137.0133553, 34.9542774], [137.0131622, 34.9540136], [137.0129476, 34.9537762], [137.0127009, 34.9535388], [137.0123897, 34.9532574], [137.011921, 34.9528188], [137.0113906, 34.9523055], [137.0108207, 34.9518339], [137.0101861, 34.9512851], [137.0096217, 34.9508215], [137.0090209, 34.9502675], [137.0087594, 34.9500234], [137.0082583, 34.9495414], [137.0078112, 34.9491463], [137.0072989, 34.9486999], [137.0066297, 34.9480943], [137.0062175, 34.9477129], [137.0050742, 34.9466095], [137.0040934, 34.9457586], [137.0038701, 34.9455533], [137.0036124, 34.9453033], [137.0034193, 34.9450828], [137.0030227, 34.9446094], [137.0027754, 34.9443756], [137.0020722, 34.9436952], [137.0014325, 34.9430702], [137.0007021, 34.9423992], [136.9992531, 34.9410535], [136.9976259, 34.9393947], [136.9972619, 34.9390545], [136.9964849, 34.9382889], [136.9959855, 34.9377987], [136.9959195, 34.9377361], [136.9955107, 34.937401], [136.9950884, 34.9371162], [136.9947001, 34.9368984], [136.9943747, 34.9367523], [136.9938622, 34.9365661], [136.9937727, 34.936541], [136.9934534, 34.9364516], [136.9931286, 34.9363928], [136.9929756, 34.9363754], [136.9924684, 34.9363004], [136.9919761, 34.9362698], [136.9914403, 34.9362319], [136.991088, 34.9361974], [136.9899193, 34.9360921], [136.9897823, 34.9360792], [136.98961, 34.936107]], [[137.0381161, 34.9841396], [137.0382982, 34.9843602], [137.0386207, 34.9847526], [137.0401928, 34.9866301], [137.0406692, 34.9871957], [137.0411094, 34.9877048], [137.0417468, 34.9884833], [137.0421938, 34.9890359], [137.0424241, 34.9892103], [137.0429817, 34.9898242], [137.0434489, 34.990381], [137.0439395, 34.990924], [137.0442144, 34.9911971], [137.0445872, 34.9914606]], [[137.0410711, 34.9878467], [137.0415907, 34.9885577], [137.0420391, 34.9891196], [137.0422855, 34.9893901], [137.0425151, 34.9896659], [137.0429374, 34.990179], [137.0431743, 34.9904807], [137.0434081, 34.9907264], [137.0436689, 34.9909795], [137.0439388, 34.9912213], [137.0444498, 34.9916101], [137.0447569, 34.9918237], [137.0450475, 34.9919719], [137.0456262, 34.9922424], [137.0462466, 34.9924664], [137.0466813, 34.9926139], [137.0471358, 34.9927504], [137.047586, 34.9928615], [137.0494333, 34.993282], [137.0507165, 34.9935628], [137.0512236, 34.9936599], [137.051471, 34.9937869], [137.0517936, 34.9938798], [137.0522618, 34.9940809], [137.0526504, 34.9942682], [137.0530421, 34.9945054], [137.0535902, 34.9948734], [137.0538864, 34.9950821], [137.0541633, 34.9953656]], [[137.0510252, 34.9934227], [137.0499886, 34.9931632], [137.0494135, 34.9930181], [137.0480953, 34.9927233], [137.0479658, 34.992696], [137.0476424, 34.9926814], [137.0463033, 34.9922893], [137.0457975, 34.9921053], [137.0453993, 34.9919243], [137.0448579, 34.991635], [137.0445872, 34.9914606]], [[137.0542181, 34.9954318], [137.0547847, 34.9960796], [137.0554323, 34.9968103], [137.0560157, 34.9975244], [137.0566736, 34.9983441], [137.0570245, 34.9987872], [137.0573468, 34.9992105], [137.0576602, 34.9996035], [137.0577603, 34.9997243], [137.0578848, 34.9998369], [137.0580189, 34.9999995], [137.0586425, 35.000768], [137.0588062, 35.0009705], [137.0589537, 35.0011494], [137.0590043, 35.0012107], [137.0590651, 35.0012923], [137.0594533, 35.0018049], [137.0599066, 35.0023567]], [[137.0568189, 34.9982811], [137.0561479, 34.9974586], [137.0556535, 34.9968465], [137.0555173, 34.9966891], [137.0549589, 34.9959596], [137.0545698, 34.9954097], [137.0542076, 34.9950472], [137.0541504, 34.9949796], [137.0538768, 34.9947295], [137.053543, 34.9944831], [137.0529908, 34.994129], [137.0520573, 34.9936962], [137.0510252, 34.9934227]], [[137.0600808, 35.0023204], [137.0597664, 35.0019064], [137.0595425, 35.00163], [137.0592003, 35.0012383], [137.059131, 35.0011553], [137.059082, 35.0010941], [137.0589748, 35.00096], [137.0589144, 35.0008867], [137.0588469, 35.000842], [137.05875, 35.0007212], [137.058131, 34.9999461], [137.0580546, 34.9998502], [137.0580215, 34.9997699], [137.0578334, 34.9995159], [137.0574988, 34.9991385], [137.057166, 34.9987202], [137.0568189, 34.9982811]], [[137.0636775, 35.0069186], [137.0631793, 35.0063175], [137.0627282, 35.0057573]], [[137.070885, 35.0166757], [137.0708514, 35.0166575], [137.0708209, 35.0166347], [137.0707988, 35.0166125], [137.0707726, 35.0165773], [137.0707559, 35.0165458], [137.0707441, 35.0165084], [137.0707344, 35.0164744], [137.0707244, 35.0164378], [137.0707042, 35.0163805], [137.0706717, 35.0163154], [137.0706325, 35.0162618], [137.0705909, 35.0162173], [137.0702129, 35.0158463], [137.0700102, 35.0156835], [137.0693014, 35.0150726], [137.0691739, 35.0149521], [137.0689193, 35.0146913], [137.0688749, 35.0146448], [137.0686764, 35.0144363], [137.0685138, 35.0142662], [137.0680508, 35.013702], [137.0680286, 35.0136619], [137.0677629, 35.0132846], [137.0674724, 35.0127947], [137.0673705, 35.0126341], [137.0668407, 35.0117037], [137.0668021, 35.0116383], [137.0666594, 35.0113698], [137.0665789, 35.0111592], [137.0663976, 35.0108378], [137.0661288, 35.010419], [137.0660353, 35.010318], [137.0659212, 35.0102404], [137.0658458, 35.0101716], [137.0654918, 35.0096795], [137.0654237, 35.0095633], [137.0653726, 35.0094482], [137.0652999, 35.0091881], [137.065142, 35.0087943], [137.0647473, 35.0082675], [137.0641891, 35.0075456], [137.0636775, 35.0069186]], [[137.0769802, 35.0229885], [137.0765595, 35.0225527], [137.0760943, 35.0220556], [137.0760579, 35.0220167], [137.0752516, 35.0210972], [137.0752085, 35.021049], [137.0747401, 35.0205255], [137.0745127, 35.0202714], [137.0738686, 35.0195516], [137.0732772, 35.0189074], [137.0728656, 35.0184811], [137.07261, 35.0182391], [137.0722774, 35.0179376], [137.0720065, 35.0176806], [137.0717542, 35.0174123], [137.0715483, 35.0171876], [137.0714182, 35.0170368], [137.0713007, 35.0169175], [137.0711641, 35.0167988], [137.0710811, 35.0167498], [137.0709974, 35.0167163], [137.0709406, 35.0166932], [137.070885, 35.0166757], [137.0708246, 35.0166597], [137.0707646, 35.0166509], [137.0706687, 35.0166441], [137.0705732, 35.0166424], [137.0704807, 35.0166444], [137.0703623, 35.0166586], [137.0697306, 35.0167833], [137.0693511, 35.016847], [137.0683817, 35.0170116], [137.0679062, 35.0170871], [137.0672844, 35.0171984], [137.0668204, 35.0173011], [137.0661009, 35.0174736], [137.0656479, 35.0175888], [137.0651212, 35.0176939], [137.0644018, 35.0178312], [137.0643246, 35.0177819], [137.0650829, 35.0176329], [137.0656395, 35.0175269], [137.0660828, 35.0174417], [137.0668077, 35.0172682], [137.067273, 35.0171688], [137.0678691, 35.0170497], [137.0683345, 35.0169585], [137.0696753, 35.0166718], [137.0703598, 35.0165309], [137.0704923, 35.0165068], [137.070564, 35.0164937], [137.0706503, 35.0164799], [137.0707344, 35.0164744], [137.0709365, 35.0164759], [137.0710072, 35.016485], [137.0711572, 35.0165215], [137.0712559, 35.0165542], [137.0713647, 35.0166059], [137.0714546, 35.0166641], [137.071537, 35.0167242], [137.0716919, 35.016847], [137.0719112, 35.0170205], [137.0721323, 35.0172176], [137.0724537, 35.0175299], [137.0726919, 35.0177832], [137.0728764, 35.0180099], [137.073137, 35.0183429], [137.0735186, 35.0188004], [137.0737421, 35.0190499], [137.0744756, 35.0198709], [137.0747111, 35.0201341], [137.0749377, 35.0203872], [137.0754577, 35.0209682], [137.0756188, 35.0211226], [137.0763712, 35.0219261], [137.0769839, 35.0226161], [137.0773742, 35.023099], [137.077742, 35.0235326]], [[137.065142, 35.0087943], [137.0654379, 35.0090944], [137.0656971, 35.0093294], [137.0657642, 35.0093903], [137.0658414, 35.0094809], [137.0660919, 35.0099121], [137.0661475, 35.0100298], [137.0661743, 35.0101045], [137.066205, 35.0102772], [137.0662571, 35.0104006], [137.0664684, 35.0107852], [137.0669781, 35.0115456], [137.0670268, 35.0116298], [137.067534, 35.0124753], [137.0676625, 35.0126799], [137.0678365, 35.0129765], [137.0679594, 35.0131791], [137.0682164, 35.0135356], [137.0683436, 35.0137201], [137.068557, 35.0139811], [137.0687468, 35.0141898], [137.0691428, 35.0146121], [137.0694933, 35.0149473], [137.0696447, 35.0150868], [137.0703847, 35.0157418], [137.0706419, 35.0159807], [137.0706961, 35.0160368], [137.070723, 35.0160836], [137.0707418, 35.0161407], [137.0707498, 35.016188], [137.0707559, 35.0162357], [137.070774, 35.0162967], [137.0707975, 35.0163449], [137.0708363, 35.0163964], [137.0708779, 35.0164313], [137.0709182, 35.0164554], [137.0709547, 35.0164707], [137.0709804, 35.016479], [137.0710072, 35.016485]], [[137.0897302, 35.035009], [137.0901612, 35.0349987]], [[137.0952594, 35.036979], [137.0954845, 35.0371649], [137.0962076, 35.0377783], [137.0965324, 35.0380532], [137.0967291, 35.0382349], [137.0968795, 35.0383829], [137.0973124, 35.0387481], [137.0974318, 35.0388511], [137.097875, 35.0392464], [137.0982487, 35.0395671], [137.0997012, 35.0408155], [137.1001296, 35.041191], [137.1007933, 35.041734], [137.1015325, 35.0421802], [137.1023058, 35.0425609], [137.1029807, 35.0429348], [137.1031188, 35.0430068], [137.1047073, 35.0438805], [137.1048522, 35.043967], [137.1049054, 35.0439943], [137.1049549, 35.0440179], [137.1053728, 35.0442518], [137.1062747, 35.0447717], [137.1066369, 35.0449974], [137.1069191, 35.0451973], [137.1077903, 35.045927], [137.108272, 35.0464158], [137.1084433, 35.0466337], [137.108566, 35.046756], [137.108693, 35.0469333], [137.1088373, 35.0471293], [137.1095462, 35.048108], [137.109621, 35.0482203], [137.1099597, 35.0487284], [137.1100663, 35.0488893], [137.1106793, 35.0497521], [137.1108156, 35.0499397], [137.1115846, 35.0510166], [137.111704, 35.0511821], [137.1118019, 35.0513397], [137.1119989, 35.0516846], [137.1120868, 35.0518581], [137.112162, 35.0520428], [137.11222, 35.0521972], [137.1122991, 35.0524711], [137.1123362, 35.0526111], [137.1123898, 35.0528358], [137.1124903, 35.0531904], [137.1125645, 35.0534483], [137.1126603, 35.0536357], [137.1127462, 35.0538067], [137.1128414, 35.053979], [137.1128678, 35.0540216], [137.1129407, 35.0541396], [137.1129626, 35.0541739], [137.113073, 35.054315], [137.1132125, 35.0544832], [137.1136319, 35.054918], [137.1138426, 35.0551072], [137.1146671, 35.0559009], [137.1149967, 35.0562002], [137.1153367, 35.0564787], [137.115347, 35.0564905], [137.1156096, 35.0567119], [137.1157442, 35.0568155], [137.1158746, 35.056911], [137.1160851, 35.0570566], [137.1163655, 35.0572067], [137.1165991, 35.0573178], [137.1168911, 35.0574539], [137.1172034, 35.0575925], [137.1174766, 35.0576766], [137.1179987, 35.0577889], [137.1184663, 35.0578487], [137.1187086, 35.057876], [137.119355, 35.0579081], [137.1200025, 35.0579297], [137.1203524, 35.0579532], [137.120578, 35.0579809], [137.1208272, 35.0580315], [137.121195, 35.0581562], [137.1216715, 35.0583642], [137.1217675, 35.0584004], [137.1221552, 35.0585636], [137.1222006, 35.0585809], [137.1225139, 35.0586929], [137.1227147, 35.0587453], [137.1229194, 35.0587824], [137.1232037, 35.0588044], [137.1242373, 35.0588307], [137.1250801, 35.0588862], [137.125773, 35.0589569], [137.1263409, 35.0590044], [137.1263609, 35.0590053], [137.1265578, 35.0590138], [137.1273071, 35.0590508], [137.1274704, 35.0590531], [137.1277319, 35.0590708], [137.1279773, 35.0590878], [137.1281976, 35.0591045], [137.1285427, 35.0591726], [137.1287193, 35.059228], [137.1293348, 35.0594597]], [[137.0952594, 35.036979], [137.0950798, 35.0368174], [137.0950546, 35.0367933], [137.0947153, 35.0365128], [137.094327, 35.036197], [137.0942345, 35.0361226], [137.0941465, 35.0360452], [137.093777, 35.0357202], [137.0932825, 35.0354049], [137.0930399, 35.0352826], [137.0927489, 35.035175], [137.0923724, 35.0350835], [137.0923238, 35.0350717], [137.0919617, 35.0350168], [137.0915151, 35.0350026], [137.0910752, 35.0349783], [137.0902189, 35.0349975], [137.0901612, 35.0349987]], [[137.0644018, 35.0178312], [137.0647825, 35.018068], [137.0649319, 35.018183], [137.0650992, 35.0183143], [137.0657711, 35.0188867], [137.0676677, 35.0204826], [137.0689647, 35.021586], [137.0694964, 35.0220436], [137.070335, 35.0227594], [137.0706032, 35.0229678], [137.0708919, 35.0232332], [137.0712158, 35.023505], [137.0729437, 35.0249987], [137.0741922, 35.0260752], [137.0744117, 35.0262523], [137.0753975, 35.0271784], [137.0758217, 35.0275654], [137.0759063, 35.0276185], [137.076662, 35.0283369], [137.0772082, 35.0288562], [137.0777432, 35.0293343], [137.0778164, 35.0294022], [137.0796688, 35.0311199], [137.0797645, 35.0312072], [137.0806357, 35.0320192], [137.0819179, 35.0332162], [137.0821197, 35.0334016], [137.0824098, 35.0336583], [137.0825942, 35.033805], [137.0826849, 35.0338689], [137.08279, 35.0339211], [137.0830054, 35.0340333], [137.0832303, 35.0341279], [137.0835897, 35.0342695], [137.0836864, 35.0343002], [137.0847599, 35.0345811], [137.0854294, 35.0347424], [137.0858873, 35.0348541], [137.0860788, 35.0348928], [137.0864771, 35.0349588], [137.0869311, 35.0350075], [137.0874138, 35.0350449], [137.0876522, 35.035046], [137.0883328, 35.0350398], [137.0884365, 35.0350377], [137.0885553, 35.0350336], [137.0896526, 35.0350107], [137.0897302, 35.035009]]]}, "id": "relation/8469253"}]}