{"type": "FeatureCollection", "generator": "kokudo-quiz tools/fetch_raw.py (Overpass API)", "copyright": "The data included in this document is from www.openstreetmap.org. The data is made available under ODbL.", "timestamp": "2026-09-30T23:39:30Z", "features": [{"type": "Feature", "properties": {"@id": "relation/3527404", "colour": "red", "from": "愛知県豊田市", "name": "国道420号", "name:en": "National Highway Route 420", "name:ja": "国道420号", "name:ja-Hira": "こくどうよんひゃくにじゅうごう", "name:ja-Latn": "kokudou 420 gou", "network": "JP:national", "ref": "420", "route": "road", "to": "愛知県新城市", "type": "route", "wikidata": "Q6157499", "wikipedia": "ja:国道420号"}, "geometry": {"type": "MultiLineString", "coordinates": [[[137.1610092, 35.0838863], [137.161108, 35.0844856], [137.1612068, 35.0852041], [137.161271, 35.0856661], [137.1612897, 35.0858374], [137.1613901, 35.0863965], [137.1614115, 35.0865608], [137.1614342, 35.0866998], [137.1616153, 35.0876553], [137.1617154, 35.0881069], [137.1618953, 35.0886937], [137.1621382, 35.0894825], [137.1624201, 35.0904498], [137.1625354, 35.0909474], [137.1625735, 35.0910315], [137.1627064, 35.0914554], [137.1630788, 35.0926395], [137.1633865, 35.0937723], [137.1634213, 35.0941365], [137.1634534, 35.0943992], [137.1634707, 35.0945552], [137.1634784, 35.0948338], [137.1634619, 35.0955021], [137.1635765, 35.0955072], [137.1635629, 35.0945769], [137.1635191, 35.0940815], [137.1634833, 35.0937551], [137.1634541, 35.0935971], [137.1631754, 35.0926193], [137.1628419, 35.0914687], [137.1626879, 35.0910483], [137.1626447, 35.0909466], [137.1625268, 35.0904475], [137.1622112, 35.0894651], [137.1619371, 35.0885499], [137.1617927, 35.0880966], [137.1617033, 35.0876292], [137.1616353, 35.0872417], [137.161539, 35.0866931], [137.1615124, 35.086544], [137.1614861, 35.0863884], [137.1613893, 35.0858236], [137.1613672, 35.085674], [137.1612962, 35.0851936], [137.1611052, 35.0838749]], [[137.205367, 35.1257228], [137.2051618, 35.1254676], [137.2051212, 35.1254171], [137.204678, 35.124902], [137.2046519, 35.1248774], [137.2041218, 35.124377], [137.2035199, 35.1238228], [137.2032343, 35.1236409], [137.2027566, 35.1234958], [137.2024938, 35.1234226], [137.2019897, 35.1231286], [137.2014776, 35.1228633], [137.201243, 35.1226914], [137.2009166, 35.1223777], [137.2007203, 35.1221979], [137.2004412, 35.1219955], [137.2000256, 35.1217611], [137.1996004, 35.1215223], [137.1992398, 35.121314], [137.1988507, 35.1211117], [137.1985552, 35.120968], [137.1982983, 35.1208574], [137.1977873, 35.1207126], [137.1972831, 35.1205876], [137.1971396, 35.1205481], [137.1970041, 35.1204867], [137.1968968, 35.120423], [137.1967989, 35.1203463], [137.1967345, 35.1202815], [137.1966608, 35.120196], [137.1963336, 35.1197429], [137.1962276, 35.1196102], [137.1961175, 35.1194984], [137.1959835, 35.1193897], [137.1957685, 35.1192685], [137.1957433, 35.1192577], [137.1956557, 35.1192201], [137.1956765, 35.1191844], [137.195769, 35.1189513], [137.1958426, 35.118746], [137.1958992, 35.11857], [137.1959276, 35.1184403], [137.1959634, 35.1182118], [137.1959766, 35.118042], [137.1960163, 35.1176191], [137.196032, 35.1174386], [137.1960589, 35.1172394], [137.1960853, 35.1171282], [137.196091, 35.1170855], [137.1961238, 35.1169323], [137.1961726, 35.1168052], [137.1960828, 35.1167624], [137.1959415, 35.1167048], [137.1955678, 35.1165277], [137.1950743, 35.1163127], [137.1945083, 35.1161064], [137.1942937, 35.116056], [137.1937922, 35.1158497], [137.1933818, 35.1156962], [137.1922982, 35.1153144], [137.1909839, 35.1149173], [137.1901953, 35.1146913], [137.1900854, 35.1146781], [137.1893397, 35.1144488], [137.1891774, 35.1143929]], [[137.1752299, 35.1042327], [137.1755097, 35.1043122], [137.175629, 35.1043538], [137.175885, 35.1044121], [137.176181, 35.1044692], [137.1763429, 35.1044947], [137.176446, 35.1045079], [137.1765436, 35.1045162], [137.1766404, 35.1045234], [137.1767463, 35.1045285], [137.1768935, 35.1045273], [137.1771013, 35.1045236], [137.1773257, 35.1045146], [137.1775191, 35.1044986], [137.1777124, 35.1044827], [137.1785666, 35.1044037], [137.1795658, 35.1043113], [137.1800356, 35.1042635], [137.180438, 35.1042175], [137.1805775, 35.1042096], [137.1809449, 35.1041954], [137.1812166, 35.104214], [137.181179, 35.1045821], [137.1811574, 35.1047937], [137.1811159, 35.1051122], [137.1810764, 35.1053818], [137.1810444, 35.1054813], [137.1809896, 35.1056517], [137.1809633, 35.1057206], [137.1808989, 35.1058897], [137.1807974, 35.1060882], [137.1810495, 35.106147], [137.1814225, 35.1062581], [137.1814387, 35.1062629], [137.1815042, 35.1062824], [137.1817751, 35.1063779], [137.1818854, 35.1064168], [137.182093, 35.1065147], [137.1822113, 35.1065749], [137.1824373, 35.106691], [137.1825667, 35.1067615], [137.1826581, 35.1068114], [137.1829867, 35.1069813], [137.1832258, 35.1070909], [137.1834418, 35.1071744], [137.1837165, 35.1072659], [137.1838199, 35.1072984], [137.1840446, 35.1073683], [137.1842641, 35.1074511], [137.1845243, 35.1075522], [137.184678, 35.1076145], [137.1850251, 35.1077921], [137.185346, 35.1080018], [137.1857466, 35.1082656], [137.1858735, 35.1083567], [137.1860185, 35.1084607], [137.1863041, 35.1086905], [137.1865996, 35.1089711], [137.1866916, 35.1090684], [137.1868394, 35.1092044], [137.1870127, 35.1093761], [137.1870884, 35.1094515], [137.1871793, 35.1095498], [137.1872332, 35.1096081], [137.1873245, 35.1097069], [137.1873956, 35.1097975], [137.1875769, 35.1100554], [137.187875, 35.1105404], [137.1880645, 35.1108197], [137.1881077, 35.1109073], [137.1881838, 35.1111596], [137.1882169, 35.1112723], [137.1882443, 35.1114402], [137.1883402, 35.1117606], [137.1883809, 35.1119358], [137.1884388, 35.1121293], [137.1884611, 35.1122401], [137.1885623, 35.1126067], [137.1886096, 35.1127797], [137.1886543, 35.1130066], [137.1886609, 35.1132528], [137.1886595, 35.1136118], [137.1886571, 35.1139563], [137.1886631, 35.1140073], [137.1886717, 35.1140547], [137.1886866, 35.1140846], [137.1887134, 35.1141318], [137.1887737, 35.1141834], [137.1888153, 35.1142185], [137.1888971, 35.1142744], [137.188991, 35.1143161], [137.1891774, 35.1143929]], [[137.1725449, 35.1030418], [137.1730015, 35.1032754], [137.1733286, 35.1034258], [137.1738976, 35.1036741], [137.1742853, 35.10383], [137.174698, 35.1040128], [137.1751317, 35.1041941], [137.1752299, 35.1042327]], [[137.1718172, 35.1026575], [137.1711845, 35.1023103], [137.1702987, 35.1017945], [137.170148, 35.1016989], [137.1699217, 35.1015229], [137.1696817, 35.1013438], [137.1694281, 35.1010935], [137.1692486, 35.1009608], [137.1684092, 35.1004747], [137.1678854, 35.100128], [137.1675579, 35.0998648], [137.1673985, 35.0997247], [137.1668248, 35.0990863], [137.166301, 35.0984451], [137.1659627, 35.0980077], [137.1656682, 35.0975557], [137.1655729, 35.0974206], [137.1654276, 35.0972479], [137.1649784, 35.0967352], [137.1647489, 35.0964859], [137.164273, 35.0959499], [137.1639825, 35.0956283], [137.1638836, 35.0955591], [137.1638385, 35.0955411], [137.1637396, 35.0955224], [137.1635765, 35.0955072]], [[137.1718172, 35.1026575], [137.1719013, 35.1027017], [137.1725449, 35.1030418]], [[137.205367, 35.1257228], [137.2054552, 35.1258438], [137.2054786, 35.125876], [137.2057112, 35.1261728], [137.2058183, 35.1263097], [137.2059044, 35.1264226], [137.2060343, 35.1265712], [137.2062083, 35.1267356], [137.2064322, 35.1269205], [137.2068058, 35.1272304], [137.2070734, 35.1274943], [137.2077076, 35.1282886], [137.2080598, 35.1287301], [137.2084358, 35.1291721], [137.2087585, 35.1294223], [137.2090383, 35.1295922], [137.2093284, 35.129714], [137.2096248, 35.1297898], [137.210493, 35.129999], [137.2113706, 35.1302464], [137.2114125, 35.1302607], [137.2115873, 35.1303202], [137.2118928, 35.1304659], [137.2120987, 35.1306017], [137.2122434, 35.130707], [137.2123881, 35.1308404], [137.2125216, 35.1310162], [137.2126674, 35.1312384], [137.2129156, 35.1316505], [137.2133311, 35.13231], [137.2137349, 35.1328949], [137.2141906, 35.1334789], [137.2144475, 35.1337492], [137.2148067, 35.1340831], [137.215259, 35.1344159], [137.2155883, 35.1346774], [137.2157247, 35.1347634], [137.215869, 35.1348292], [137.2160102, 35.1348576], [137.216163, 35.1348691], [137.2169487, 35.1348541], [137.2171168, 35.134893], [137.2172392, 35.1349468], [137.2173158, 35.1350044], [137.2173976, 35.1350927], [137.2174561, 35.1351826], [137.217535, 35.1353142], [137.2177891, 35.1356676], [137.218062, 35.1359683], [137.2183731, 35.1362642], [137.2187868, 35.1366409], [137.2193219, 35.1371406], [137.2193895, 35.1372358], [137.2194425, 35.1373256], [137.219468, 35.1374069], [137.2194738, 35.137493], [137.2194611, 35.1376052], [137.2194247, 35.1376776], [137.219343, 35.1377844], [137.2191792, 35.1379713], [137.218936, 35.1381702], [137.2188665, 35.1382627], [137.2188089, 35.1383682], [137.2187809, 35.1384919], [137.2187926, 35.1386251], [137.2188123, 35.1386696], [137.218831, 35.1387117], [137.2188695, 35.1387835], [137.2189516, 35.1388778], [137.2190469, 35.1389451], [137.2192763, 35.1390862], [137.2193987, 35.1391573], [137.2198049, 35.1393932], [137.2199702, 35.1394862], [137.2205708, 35.1398298], [137.2208817, 35.1400097], [137.2210929, 35.1401284], [137.2213711, 35.1402805], [137.2215772, 35.1403745], [137.2217867, 35.1404664], [137.2224805, 35.1407403], [137.2233127, 35.1411139], [137.2235351, 35.1412138], [137.2240584, 35.1414555], [137.2246129, 35.14168], [137.224776, 35.141729], [137.2249392, 35.1417627], [137.2252108, 35.1418048], [137.2254783, 35.141815], [137.225715, 35.1418056], [137.2259214, 35.1417874], [137.2264045, 35.1416666], [137.2264217, 35.1416621], [137.2270261, 35.1415047], [137.228047, 35.141212], [137.2284711, 35.1410961], [137.229073, 35.140924], [137.230553, 35.1404982], [137.2309054, 35.1403942], [137.2311505, 35.1403473], [137.2321794, 35.1402007], [137.2342196, 35.1399099], [137.2352874, 35.1397681], [137.2354184, 35.1397507], [137.2367266, 35.1395757], [137.2396759, 35.1392109], [137.2403405, 35.1391551], [137.2409191, 35.1391288], [137.2415764, 35.1391426], [137.2422423, 35.1391758], [137.2424641, 35.1392074], [137.2427645, 35.1393106], [137.2429273, 35.1393499], [137.2430941, 35.13935], [137.2433023, 35.1393309], [137.2446618, 35.1391181], [137.2456075, 35.1389643], [137.2459452, 35.1389094], [137.2463299, 35.1388856], [137.246917, 35.13888], [137.2475318, 35.1388796], [137.2484897, 35.1388354], [137.2495019, 35.1387951], [137.2503859, 35.1387489], [137.2508244, 35.1387263], [137.2512105, 35.1387122], [137.2516171, 35.1386953], [137.2518852, 35.1386627], [137.2520871, 35.1386292], [137.252503, 35.1385575], [137.2528445, 35.1385136], [137.2532417, 35.1384678], [137.2535792, 35.1384309], [137.2536831, 35.1384271], [137.2541454, 35.1384149], [137.2545916, 35.1384053], [137.2548441, 35.138375], [137.2550073, 35.1383476], [137.25518, 35.1382891], [137.2554253, 35.1382059], [137.2556044, 35.1381365], [137.2557726, 35.138073], [137.2560084, 35.137992], [137.2565086, 35.1378447], [137.2569134, 35.1377201], [137.2574561, 35.1375786], [137.2576964, 35.1374908], [137.2579854, 35.1373789], [137.2582304, 35.1372763], [137.2585458, 35.1371332], [137.259063, 35.1368994], [137.2592264, 35.1367818], [137.2593929, 35.1366099], [137.2595671, 35.1364175], [137.2597986, 35.1361809], [137.2601547, 35.1357809], [137.2603407, 35.135577], [137.2605311, 35.1353754], [137.2608428, 35.1351563], [137.2614433, 35.1347339], [137.2617262, 35.1345149], [137.262162, 35.1340821], [137.262723, 35.1334676], [137.2629623, 35.1332027], [137.2631764, 35.1329657], [137.263392, 35.1327423], [137.2634891, 35.1326417], [137.2639116, 35.1321635], [137.2642034, 35.1318934], [137.2644754, 35.1316928], [137.264835, 35.1314836], [137.2652358, 35.1312512], [137.2655698, 35.1310608], [137.2661755, 35.1307252], [137.2668151, 35.1303698], [137.2679233, 35.1297247], [137.2683043, 35.1295185], [137.2685713, 35.1293913], [137.2687846, 35.1293211], [137.2692262, 35.1292194], [137.2697194, 35.129124], [137.2702749, 35.1290195], [137.270677, 35.1289391], [137.2708643, 35.1288843], [137.2711765, 35.1287692], [137.2714432, 35.1286451], [137.271889, 35.1284355], [137.2724075, 35.1281323], [137.2727105, 35.1279314], [137.2729661, 35.127801], [137.2732555, 35.1277317], [137.2734844, 35.1277268], [137.2737001, 35.1277128], [137.2742232, 35.1276869], [137.274568, 35.1276649], [137.2749096, 35.1276281], [137.275333, 35.1275646], [137.2757028, 35.127504], [137.275946, 35.127465], [137.276308, 35.1273837], [137.2766373, 35.1272975], [137.276913, 35.1272903], [137.2771837, 35.1272991], [137.2777408, 35.1273205], [137.2782736, 35.1273282], [137.2786375, 35.12732], [137.2786651, 35.1273194], [137.278987, 35.1272426], [137.279569, 35.1270233], [137.2797872, 35.1269515], [137.2798855, 35.1269191], [137.280202, 35.1268499], [137.2804605, 35.1268108], [137.2807331, 35.1268061], [137.2813293, 35.1268234], [137.2820968, 35.1268447], [137.2825023, 35.126856], [137.2839685, 35.1269213], [137.2847149, 35.1269592]], [[137.1956557, 35.1192201], [137.1955805, 35.1191988], [137.1956755, 35.1190146], [137.1957428, 35.1188412], [137.195802, 35.1186598], [137.1958414, 35.1184972], [137.1958644, 35.118387], [137.1958743, 35.118313], [137.1958808, 35.1182096], [137.1959022, 35.1180429], [137.1959071, 35.1178373], [137.1959486, 35.1174406], [137.195974, 35.1172353], [137.1959989, 35.1170654], [137.1960017, 35.1170432], [137.1960352, 35.1168887], [137.1958879, 35.1168162], [137.1950679, 35.1164252], [137.1942937, 35.116056]], [[137.2847149, 35.1269592], [137.2848508, 35.1269571], [137.2850296, 35.1269594], [137.285061, 35.1269595], [137.2855318, 35.1269617], [137.285808, 35.1269584], [137.2860843, 35.1269376], [137.2873329, 35.1268586], [137.2874938, 35.1268367], [137.2881657, 35.1267039], [137.2893861, 35.1264977], [137.2894934, 35.1264933], [137.2902712, 35.1264999], [137.2904254, 35.1264769], [137.2923003, 35.1259564], [137.2924224, 35.125901], [137.292529, 35.1258259], [137.2926436, 35.1257157], [137.2929011, 35.1254113], [137.2929879, 35.1253457], [137.2930811, 35.1252958], [137.2931904, 35.1252539], [137.2944422, 35.1250229], [137.2947051, 35.1250025], [137.2949893, 35.1250129], [137.2951982, 35.125042], [137.2953919, 35.1250928], [137.2961077, 35.1253076], [137.2966897, 35.1254831], [137.2972196, 35.1257243], [137.2981651, 35.1262635], [137.2984171, 35.1264086], [137.2986288, 35.1265867], [137.2987822, 35.1267456], [137.2988795, 35.1268655], [137.2989577, 35.1269626], [137.2989784, 35.1269919], [137.2991332, 35.1272115], [137.2993288, 35.1274954], [137.2995014, 35.1276682], [137.2995218, 35.1276886], [137.3002746, 35.1282576], [137.3008363, 35.1287106], [137.3011706, 35.128955], [137.3013613, 35.1290734], [137.3015918, 35.1292164], [137.3016436, 35.1292573], [137.3027194, 35.1299887], [137.3040742, 35.1309184], [137.3049581, 35.1315363], [137.3053359, 35.1317974], [137.3053966, 35.131837], [137.3058869, 35.1321301], [137.3064313, 35.1325073], [137.306917, 35.1329126], [137.3069624, 35.1329505], [137.3073755, 35.1333124], [137.3076973, 35.1336085], [137.3079999, 35.1339102], [137.3081762, 35.1338685], [137.3091216, 35.1336705], [137.3092521, 35.1336469], [137.3093857, 35.133628], [137.3094115, 35.1336243], [137.3095818, 35.1336194], [137.3096659, 35.1336276], [137.3103293, 35.1337529], [137.310835, 35.1338551], [137.3119293, 35.1340529], [137.3121795, 35.1340752], [137.3124218, 35.134095], [137.3124573, 35.1340962], [137.3132485, 35.1341484], [137.3135608, 35.1341656], [137.3138478, 35.1341765], [137.3146659, 35.1343059], [137.3154204, 35.134428], [137.3157849, 35.1344782], [137.3162223, 35.1344666], [137.3167024, 35.1345171], [137.3171403, 35.1345226], [137.3174822, 35.1345012], [137.3179173, 35.1344495], [137.3181105, 35.1344266], [137.3182768, 35.134388], [137.3183043, 35.1343816], [137.3184176, 35.1343422], [137.3186054, 35.1342253], [137.3195167, 35.1333995], [137.3197205, 35.133196], [137.3197956, 35.1330644], [137.3198667, 35.1328001], [137.3198976, 35.1326246], [137.3198949, 35.1324096], [137.319691, 35.1317987], [137.3196783, 35.1317411], [137.3196723, 35.1316693], [137.3196749, 35.1316287], [137.3196917, 35.1315711], [137.3197581, 35.1314598], [137.319856, 35.1313468], [137.3199619, 35.1312503], [137.3201175, 35.1311626], [137.3202959, 35.1311033], [137.3203951, 35.1310606], [137.3204689, 35.1310123], [137.3205292, 35.1309322], [137.3205815, 35.1307557], [137.3206218, 35.130669], [137.3206982, 35.1305922], [137.3208068, 35.1305275], [137.3209785, 35.1304343], [137.321118, 35.1303257], [137.3214023, 35.1300372], [137.3215243, 35.1298727], [137.3218448, 35.1294175], [137.3219267, 35.1292815], [137.3219562, 35.1291993], [137.3219776, 35.1291137], [137.3219615, 35.1288373], [137.3219588, 35.1286487], [137.3219441, 35.1285072], [137.3217892, 35.1279324], [137.3217114, 35.1277048], [137.3216484, 35.1275666], [137.321582, 35.1274695], [137.321352, 35.1272036], [137.32112, 35.1269507], [137.3210234, 35.1268679], [137.3209181, 35.1268169], [137.3205473, 35.1267286], [137.320314, 35.1266738], [137.320202, 35.1266239], [137.3201363, 35.12658], [137.3196327, 35.1261303], [137.3193008, 35.1258511], [137.3191405, 35.1257096], [137.3190366, 35.125601], [137.3189246, 35.1254738], [137.3188133, 35.1253254], [137.3185256, 35.1248338], [137.3181461, 35.124271], [137.3180958, 35.1241712], [137.3180328, 35.1240149], [137.3179872, 35.1239014], [137.3179697, 35.1238158], [137.3179684, 35.1236935], [137.3180026, 35.122929], [137.3180549, 35.1226306], [137.3181052, 35.122403], [137.3181139, 35.1222747], [137.3181045, 35.1221348], [137.3180703, 35.1219445], [137.3180482, 35.1216818], [137.3180267, 35.1216182], [137.3179382, 35.1214432], [137.3179134, 35.1213461], [137.3179007, 35.1212551], [137.317904, 35.121118], [137.31791, 35.1209556], [137.3179047, 35.1207165], [137.3178859, 35.1205574], [137.3178564, 35.1204033], [137.3177344, 35.1199716], [137.3177189, 35.1198883], [137.3177149, 35.119783], [137.3177216, 35.119682], [137.3177458, 35.1195899], [137.3177759, 35.1195043], [137.3178329, 35.1194078], [137.3179288, 35.119303], [137.3187174, 35.1185823], [137.3190761, 35.1182757], [137.3191459, 35.1182011], [137.3191917, 35.1181321], [137.3192863, 35.1179896], [137.319574, 35.1175647], [137.3195784, 35.1175578], [137.3197024, 35.1173647], [137.3197339, 35.1173005], [137.319754, 35.1172331], [137.3198379, 35.1169336], [137.3198587, 35.1168145], [137.3198573, 35.1167317], [137.3198184, 35.1164432], [137.3198037, 35.1163434], [137.3198117, 35.1162721], [137.3198426, 35.1162183], [137.3198882, 35.1161679], [137.319974, 35.1161174], [137.3202952, 35.1159249], [137.3203837, 35.1158563], [137.3204501, 35.1157806], [137.3209141, 35.1150116], [137.3209845, 35.1149145], [137.3211059, 35.1147977], [137.3213111, 35.1146891], [137.322322, 35.1142086], [137.3225087, 35.1140912], [137.3234904, 35.113275], [137.3236151, 35.1131818], [137.3237519, 35.1130907], [137.3239182, 35.1130051], [137.3250782, 35.1125071], [137.3252868, 35.112433], [137.3254739, 35.1123913], [137.326528, 35.1122251], [137.3267379, 35.1121791], [137.3268901, 35.1121297], [137.3278731, 35.1117325], [137.3280803, 35.1116272], [137.3281916, 35.1115515], [137.3285075, 35.1112696], [137.3286724, 35.1111434], [137.3287998, 35.1110677], [137.3291431, 35.1109361], [137.3292779, 35.1108966], [137.3293678, 35.1108834], [137.3296529, 35.1108658], [137.3298701, 35.1108597], [137.3300537, 35.1108702], [137.3301651, 35.1108982], [137.3308618, 35.1112767], [137.3309845, 35.1113321], [137.3310837, 35.1113508], [137.3311796, 35.1113502], [137.3312467, 35.1113403], [137.3313184, 35.1113173], [137.3314036, 35.1112712], [137.331478, 35.1112197], [137.3315357, 35.1111588], [137.3316047, 35.1110414], [137.3317248, 35.1107413], [137.331769, 35.1106728], [137.331822, 35.1106278], [137.3318964, 35.1105905], [137.3320051, 35.1105466], [137.3321472, 35.110517], [137.3322029, 35.1105126], [137.3322813, 35.1105148], [137.3323876, 35.1105293], [137.3324711, 35.1105515], [137.3325505, 35.1105921], [137.332623, 35.110636], [137.3331676, 35.1110708], [137.3333287, 35.1111994], [137.3335165, 35.1113272], [137.3336741, 35.1114149], [137.3338437, 35.1114835], [137.3339072, 35.1114996], [137.334006, 35.1115247], [137.3342253, 35.1115521], [137.3344468, 35.1115609], [137.3345867, 35.1115428], [137.3347121, 35.1115263], [137.3348489, 35.1114945], [137.3349588, 35.1114566], [137.3350809, 35.1113941], [137.3351754, 35.1113299], [137.3353317, 35.1112284], [137.3354819, 35.1110897], [137.3356388, 35.1109235], [137.3357414, 35.1108417], [137.3358922, 35.11076], [137.3361129, 35.1106634], [137.3363274, 35.1105806], [137.3365501, 35.1105263], [137.3366721, 35.1104907], [137.3368706, 35.110393], [137.3372984, 35.1101193], [137.3374298, 35.1100354], [137.3379649, 35.1096613], [137.3383565, 35.109398], [137.3386214, 35.1092246], [137.3387729, 35.1091544], [137.3389171, 35.1091061], [137.3390559, 35.1090716], [137.3391813, 35.1090611], [137.3393476, 35.1090535], [137.3395159, 35.109037], [137.3396426, 35.1090112], [137.339766, 35.108975], [137.3399645, 35.1088949], [137.3403494, 35.1087216], [137.3406123, 35.1086218], [137.3412976, 35.1084391], [137.3418199, 35.1082817], [137.3423745, 35.1080535], [137.3434145, 35.107597], [137.343839, 35.1074133], [137.3441367, 35.1073178], [137.3444264, 35.1072421], [137.34483, 35.1071566], [137.3454604, 35.1070457], [137.3457165, 35.1069832], [137.3459834, 35.1068823], [137.3465849, 35.1065498], [137.3468135, 35.1064297], [137.3469322, 35.1063809], [137.3470502, 35.1063507], [137.3472011, 35.106331], [137.3473111, 35.1063321], [137.3497653, 35.1065839], [137.3506974, 35.1066782], [137.3514189, 35.1068164], [137.3521069, 35.1069673], [137.352654, 35.1070841], [137.3528881, 35.1071154], [137.3531838, 35.1071423], [137.3534654, 35.1071505], [137.3536371, 35.1071467], [137.353733, 35.107128], [137.3538449, 35.1070885], [137.3539542, 35.1070276], [137.3540508, 35.1069421], [137.3541212, 35.1068548], [137.3541681, 35.1067523], [137.3541876, 35.106631], [137.3541983, 35.1064999], [137.3541889, 35.1057182], [137.354195, 35.1054856], [137.3542151, 35.1053452], [137.3542553, 35.1052431], [137.3543371, 35.1051016], [137.3545718, 35.1048975], [137.3548093, 35.1046977], [137.354946, 35.1045635], [137.3550888, 35.1044055], [137.3552269, 35.1042025], [137.3554878, 35.1037302], [137.355585, 35.1036232], [137.3556568, 35.1035672], [137.3557292, 35.1035255], [137.3558003, 35.1035041], [137.3559022, 35.1034893], [137.3560155, 35.1034904], [137.3561134, 35.1035047], [137.3562033, 35.103537], [137.3565888, 35.1036956], [137.3566686, 35.1037208], [137.3567598, 35.1037241], [137.3568785, 35.103717], [137.3569959, 35.1036935], [137.3570844, 35.1036501], [137.3571897, 35.1035645], [137.3572876, 35.1034613], [137.3576054, 35.1030762], [137.3576543, 35.1030005], [137.3576738, 35.1029281], [137.3576872, 35.1028332], [137.3576865, 35.1027537], [137.3576637, 35.1026428], [137.357588, 35.102419], [137.3575558, 35.1022863], [137.3575437, 35.1021458], [137.3575464, 35.1020569], [137.3575665, 35.1019659], [137.3576255, 35.101854], [137.3576979, 35.1017519], [137.3577972, 35.1016652], [137.35805, 35.1015325], [137.3581526, 35.1014694], [137.3582371, 35.1013822], [137.35828, 35.1013141], [137.3583135, 35.1012329], [137.3583188, 35.1012015], [137.3583202, 35.1009938], [137.3583068, 35.1008917], [137.3582062, 35.1005187], [137.3580694, 35.1001138], [137.3580258, 35.1000359], [137.3579389, 35.0999205], [137.3576128, 35.0996014], [137.3575238, 35.0994987], [137.3574753, 35.0994077], [137.3574445, 35.0993397], [137.3574231, 35.0991784], [137.3574324, 35.0990478], [137.3574679, 35.0989156], [137.3575363, 35.0988251], [137.3575987, 35.0987614], [137.3576859, 35.0986973], [137.3577844, 35.0986435], [137.3579085, 35.0985897], [137.358117, 35.0985244], [137.3584322, 35.0984443], [137.3585743, 35.098384], [137.358695, 35.0983231], [137.3588439, 35.0982222], [137.3589881, 35.0980932], [137.3591115, 35.0979418], [137.3591544, 35.0978634], [137.3593122, 35.0974583], [137.3595808, 35.0966629], [137.3596479, 35.0965291], [137.3597109, 35.0964479], [137.3598063, 35.0963542], [137.3600556, 35.0961719], [137.3602474, 35.0960885], [137.3604096, 35.0960139], [137.3605947, 35.0959003], [137.3606712, 35.0958367], [137.361225, 35.0952881], [137.3617467, 35.0947339], [137.3623261, 35.0941622], [137.3629618, 35.0936586], [137.363226, 35.0934358], [137.3633111, 35.0933513], [137.3633849, 35.0932224], [137.3634204, 35.0931127], [137.3636015, 35.0925503], [137.3636967, 35.0923286], [137.3637718, 35.0922024], [137.3638469, 35.0921333], [137.3639783, 35.0920477], [137.3642881, 35.0918502], [137.3644973, 35.0916779], [137.364594, 35.0915803], [137.3647612, 35.0913616], [137.3651706, 35.0907693], [137.3652577, 35.0906629], [137.365365, 35.0905773], [137.3655018, 35.0904906], [137.3656788, 35.090416], [137.3666894, 35.090118], [137.36691, 35.0900714], [137.3671742, 35.0900505], [137.367382, 35.0900582], [137.3675551, 35.0900835], [137.3691208, 35.0904341], [137.3692522, 35.0904538], [137.3693763, 35.0904533], [137.3694997, 35.0904379], [137.3696277, 35.0904], [137.3697243, 35.0903616], [137.3698309, 35.0903029], [137.3699033, 35.0902387], [137.3699623, 35.0901663], [137.370417, 35.0893735], [137.3705095, 35.0892297], [137.3705859, 35.0891562], [137.3707093, 35.089075], [137.3708649, 35.0889839], [137.3720779, 35.0885625], [137.3722536, 35.0885395], [137.3724514, 35.0885268], [137.3725976, 35.0885373], [137.3727103, 35.0885587], [137.3731112, 35.0887348], [137.3731971, 35.088765], [137.3732924, 35.0887839], [137.3734083, 35.0887831], [137.3735049, 35.0887683], [137.3735994, 35.0887348], [137.3736732, 35.0886882], [137.3737644, 35.0885965], [137.3742069, 35.0879814], [137.374282, 35.0879085], [137.3743692, 35.0878487], [137.3744899, 35.0878009], [137.3746106, 35.0877691], [137.375238, 35.087646], [137.3754407, 35.0876484], [137.3756412, 35.0876761], [137.3757263, 35.0877149], [137.3758619, 35.0877867], [137.376641, 35.0884901], [137.3767591, 35.0886415], [137.3768422, 35.0887809], [137.3773773, 35.0899518], [137.3775356, 35.0902898], [137.377673, 35.090586], [137.3777461, 35.0906908], [137.3778138, 35.0907622], [137.3778943, 35.0908357], [137.3779741, 35.0908944], [137.3780988, 35.0909635], [137.3782329, 35.0910173], [137.3783818, 35.0910645], [137.379389, 35.091206], [137.3795928, 35.0912115], [137.3797189, 35.091194], [137.3798624, 35.0911611], [137.3801051, 35.0910952], [137.3816541, 35.0905487], [137.3827203, 35.0900472], [137.3833546, 35.0897038], [137.3842625, 35.0891035], [137.3847628, 35.0888215], [137.3858987, 35.0882563], [137.3860891, 35.0881439], [137.3862192, 35.0880418], [137.3865779, 35.0877236], [137.3866584, 35.0876934], [137.3867691, 35.0876692], [137.3869256, 35.0876492], [137.38796, 35.087565], [137.3890235, 35.0874816], [137.3893118, 35.0874333], [137.3896283, 35.0873247], [137.3904088, 35.086968], [137.3909279, 35.0867927], [137.3916158, 35.0865603], [137.3918391, 35.0864325], [137.3919343, 35.0863611], [137.3921241, 35.0861197], [137.3923279, 35.0858091], [137.3924319, 35.0857257], [137.3925425, 35.085672], [137.3926525, 35.0856286], [137.3927698, 35.0856006], [137.3933324, 35.0855057], [137.3934343, 35.0854903], [137.393547, 35.0854887], [137.393659, 35.0854997], [137.3937616, 35.0855238], [137.3939386, 35.0855918], [137.3946682, 35.0859595], [137.3948318, 35.0860165], [137.3950034, 35.0860407], [137.3951617, 35.0860462], [137.3964404, 35.086022], [137.3966369, 35.0860056], [137.3967724, 35.0859913], [137.396877, 35.0859617], [137.3970017, 35.0858843], [137.3970674, 35.0858245], [137.3971103, 35.085757], [137.3971244, 35.0857131], [137.3971331, 35.0856785], [137.3971391, 35.0855929], [137.3971117, 35.085458], [137.3966698, 35.0844571], [137.3963023, 35.0837377], [137.3961508, 35.0834167], [137.3961293, 35.0833405], [137.3961199, 35.0832461], [137.3961206, 35.0830787], [137.3961528, 35.0829042], [137.3962098, 35.0827064], [137.3963077, 35.0824082], [137.3967938, 35.0808059], [137.397001, 35.0801935], [137.3970795, 35.0800738], [137.3971519, 35.079986], [137.3972605, 35.0798993], [137.3973531, 35.0798401], [137.3974711, 35.079783], [137.3976172, 35.0797314], [137.39797, 35.0796491], [137.3984219, 35.0795536], [137.3989539, 35.0794419], [137.3992896, 35.0793714], [137.3994318, 35.0793495], [137.3995779, 35.0793363], [137.3996933, 35.0793374], [137.3999239, 35.0793736], [137.4008131, 35.0795953], [137.4009325, 35.0796107], [137.401076, 35.0796206], [137.4011886, 35.0796162], [137.4013294, 35.0795931], [137.4014796, 35.0795459], [137.4016151, 35.0794889], [137.4017559, 35.0794099], [137.4026383, 35.0787953], [137.4026931, 35.0787749], [137.4027564, 35.0787514], [137.4028784, 35.078725], [137.4030608, 35.0787031], [137.4033049, 35.0786899], [137.405452, 35.0786888], [137.4057296, 35.07868], [137.4069124, 35.0785725], [137.4070613, 35.0785417], [137.4071994, 35.0784956], [137.4080484, 35.0780764], [137.4081422, 35.0780413], [137.4082535, 35.0780138], [137.4086545, 35.0779908], [137.4089402, 35.0779743], [137.4090448, 35.0779568], [137.409136, 35.0779337], [137.4092124, 35.0778997], [137.4095906, 35.0776824], [137.4096711, 35.0776516], [137.4097475, 35.077633], [137.4098133, 35.0776187], [137.4098843, 35.077611], [137.4099755, 35.0776132], [137.4100962, 35.0776297], [137.4119084, 35.077976], [137.4130762, 35.0782015], [137.4132706, 35.0782278], [137.4144548, 35.0782893], [137.4162908, 35.0784034], [137.4167629, 35.0784539], [137.4169801, 35.0784638], [137.4171518, 35.0784517], [137.4172993, 35.0784232], [137.4178492, 35.078252], [137.4180034, 35.0782136], [137.4181469, 35.078196], [137.4188966, 35.078207], [137.4192868, 35.0782202], [137.4195204, 35.0782355], [137.4198179, 35.0782794], [137.4199842, 35.0783058], [137.4202886, 35.0783727], [137.4205942, 35.0784703], [137.420636, 35.0784836], [137.4212354, 35.0787239], [137.4218188, 35.0789917], [137.4219403, 35.079055], [137.4220294, 35.0791015], [137.4224371, 35.0794131], [137.4226087, 35.0795295], [137.4227495, 35.0795931], [137.4228904, 35.0796502], [137.4231116, 35.0797051], [137.4241389, 35.0797863], [137.424497, 35.079794], [137.4248363, 35.07976], [137.426219, 35.0795778], [137.4264926, 35.0795679], [137.4272771, 35.0795652], [137.4277948, 35.0796019], [137.428409, 35.079715], [137.4286585, 35.0797479], [137.4289401, 35.0797512], [137.4291989, 35.0797237], [137.4301095, 35.0795448], [137.4303335, 35.0795108], [137.4306366, 35.0794889], [137.4309692, 35.0794977], [137.4311849, 35.0795213], [137.4313702, 35.0795416], [137.4326925, 35.0798467], [137.43876, 35.0813509], [137.4404126, 35.0817777], [137.4474351, 35.0835235], [137.4479611, 35.0836409], [137.4486114, 35.0837661], [137.448886, 35.0838002], [137.4491406, 35.0838297], [137.4494721, 35.0838714], [137.449851, 35.083902], [137.449971, 35.083911], [137.4505105, 35.08391], [137.4507861, 35.0838879], [137.4510137, 35.0838336], [137.4511503, 35.0837403], [137.4512657, 35.0836165], [137.451445, 35.083296], [137.4516144, 35.0831175], [137.4517635, 35.0830064], [137.4519516, 35.0829386], [137.4522268, 35.0828818], [137.452546, 35.082852], [137.4527818, 35.0827578], [137.4530176, 35.082659], [137.4532101, 35.0825469], [137.4534109, 35.0823638], [137.4535547, 35.0822092], [137.4536978, 35.0820961], [137.4539811, 35.0819666], [137.4542664, 35.0818498], [137.4546635, 35.0817114], [137.4551781, 35.0815737], [137.4554493, 35.0814077], [137.4555878, 35.0813079], [137.4558119, 35.0810825], [137.455875, 35.0810288], [137.455927, 35.0809909], [137.4559791, 35.0809585], [137.4560312, 35.0809301], [137.4560909, 35.0809061], [137.4561539, 35.08088], [137.4562254, 35.0808644], [137.4563112, 35.0808512], [137.4564139, 35.0808418], [137.4565289, 35.0808406], [137.4567393, 35.0808375], [137.456854, 35.0808312], [137.4569425, 35.0808231], [137.4570253, 35.0808108], [137.4571193, 35.0807915], [137.4572175, 35.0807657], [137.4573176, 35.0807325], [137.4576627, 35.0805935], [137.4577668, 35.080552], [137.4578415, 35.0805247], [137.4579125, 35.0805059], [137.4579784, 35.0804973], [137.4580529, 35.0804966], [137.45813, 35.0805044], [137.4582083, 35.0805214], [137.4582734, 35.0805432], [137.4583371, 35.0805693], [137.4583933, 35.0806056], [137.4584487, 35.0806493], [137.4584913, 35.0806895], [137.458529, 35.0807428], [137.4585648, 35.0808007], [137.4585932, 35.0808708], [137.4586084, 35.0809375], [137.4586074, 35.0810031], [137.458601, 35.0810659], [137.4585816, 35.0811289], [137.4584842, 35.0814352], [137.4584264, 35.0817112], [137.4584304, 35.0818495], [137.4585202, 35.0819935], [137.4586494, 35.0820487], [137.4588546, 35.0820662], [137.4590413, 35.081984], [137.4591829, 35.0818384], [137.4594081, 35.0815433], [137.459612, 35.0812462], [137.4597621, 35.0810881], [137.4600089, 35.0809349], [137.4603117, 35.0808099], [137.460651, 35.0807029], [137.4608526, 35.0806324], [137.4610819, 35.0805244], [137.4613421, 35.0803528], [137.4614339, 35.0802626], [137.461685, 35.0800653], [137.461899, 35.0799636], [137.462133, 35.0798997], [137.4624227, 35.0798749], [137.4626908, 35.0798718], [137.4629499, 35.0799128], [137.4633207, 35.0799628], [137.4637703, 35.0800305], [137.46439, 35.0801472], [137.4647451, 35.0802011], [137.4649103, 35.0801942], [137.465158, 35.0801596], [137.4655335, 35.0800331], [137.4657955, 35.079969], [137.4660638, 35.0799487], [137.4662757, 35.0799938], [137.4665411, 35.0800895], [137.4667982, 35.0801707], [137.4670224, 35.080208], [137.4672987, 35.0802358], [137.467544, 35.0802199], [137.467775, 35.0801663], [137.4679472, 35.0800803], [137.4681508, 35.0798697], [137.4683245, 35.0796581], [137.4684001, 35.0794792], [137.4684313, 35.0793322], [137.4684569, 35.0789903], [137.4684653, 35.0786798], [137.4685044, 35.0785153], [137.468597, 35.0783925], [137.468748, 35.0782862], [137.4689444, 35.0782181], [137.4692043, 35.0781047], [137.469351, 35.0780021], [137.4694206, 35.0778705], [137.4694325, 35.0777025], [137.4694209, 35.0774616], [137.4694205, 35.0770476], [137.4693671, 35.0767719], [137.4692727, 35.0766171], [137.4691573, 35.076483], [137.4691423, 35.0763661], [137.469176, 35.0762486], [137.4693318, 35.0761048], [137.4696383, 35.0758699], [137.4698868, 35.0755757], [137.4700775, 35.0751993], [137.4701963, 35.0749361], [137.4703032, 35.0746604], [137.4703941, 35.0745179], [137.4705462, 35.0743312], [137.4707164, 35.0741962], [137.4710035, 35.0739648], [137.4714938, 35.0735795], [137.4717096, 35.0733814], [137.4718988, 35.0732522], [137.4720732, 35.0731501], [137.4724274, 35.0730092], [137.472812, 35.0728566], [137.4731625, 35.0727711], [137.4734125, 35.0727408], [137.4737305, 35.0727353], [137.4739097, 35.0727135], [137.4741459, 35.0726715], [137.4744496, 35.0726006], [137.4747159, 35.072469], [137.4748456, 35.0723734], [137.4749415, 35.0722525], [137.4750005, 35.0720558], [137.4750099, 35.0718779], [137.4750052, 35.0716908], [137.4749485, 35.0715001], [137.4748112, 35.0712969], [137.4745494, 35.0710318], [137.474201, 35.07068], [137.4738899, 35.0701288], [137.4736956, 35.0697144], [137.4734847, 35.0694209], [137.473218, 35.0690231], [137.4728745, 35.0687653], [137.4724768, 35.0686738], [137.4722487, 35.0686052], [137.4719586, 35.0684741], [137.4717565, 35.0683386], [137.4715669, 35.0681386], [137.4713466, 35.067861], [137.4711891, 35.0675413], [137.4711129, 35.0672781], [137.4710821, 35.067064], [137.4710932, 35.0667911], [137.4711804, 35.0664963], [137.471252, 35.0662623], [137.4714653, 35.0658824], [137.4715652, 35.0657238], [137.4716714, 35.065575], [137.4717775, 35.0654368], [137.4719053, 35.0652883], [137.4720426, 35.0651473], [137.4722027, 35.0649931], [137.4722794, 35.0649266], [137.472733, 35.0645675], [137.4728364, 35.0644824], [137.4731251, 35.0642294], [137.4735669, 35.0638082], [137.4744334, 35.0630468], [137.4746194, 35.0628918], [137.4748135, 35.0627421], [137.4750126, 35.0625947], [137.4752248, 35.06245], [137.4753112, 35.0623958], [137.4754058, 35.0623523], [137.4754937, 35.0623211], [137.4755766, 35.0623046], [137.4756716, 35.0622986], [137.4757779, 35.0623032], [137.4758834, 35.0623156], [137.4759894, 35.0623399], [137.4765961, 35.0624863], [137.4768293, 35.0625419], [137.4770624, 35.0625936], [137.4773136, 35.062635], [137.4774831, 35.062661], [137.4776037, 35.0626847], [137.477703, 35.0627151], [137.4777957, 35.0627522], [137.4778837, 35.0627971], [137.4779586, 35.0628515], [137.4780286, 35.0629126], [137.4781434, 35.0630064], [137.4782453, 35.0630903], [137.478338, 35.063165], [137.478434, 35.0632342], [137.4785283, 35.0632901], [137.4786519, 35.0633461], [137.4790417, 35.0634896], [137.4792268, 35.063547], [137.4794418, 35.0636028], [137.4795593, 35.06363], [137.4796635, 35.0636448], [137.4798651, 35.0636698], [137.4800016, 35.0636788], [137.4821441, 35.0636703], [137.4823631, 35.0636787], [137.4825498, 35.0636939], [137.4826985, 35.0637153], [137.4828086, 35.0637396], [137.4829213, 35.0637773], [137.4837886, 35.0641242], [137.4841666, 35.0642152], [137.4845464, 35.0642422], [137.4848229, 35.0641674], [137.4850394, 35.0640787], [137.4853285, 35.0638466], [137.4855064, 35.0635372], [137.4856221, 35.0632436], [137.4857454, 35.0630139], [137.4858177, 35.0629404], [137.48589, 35.0628911], [137.4859728, 35.0628687], [137.4860438, 35.0628716], [137.4861098, 35.0628967], [137.4861603, 35.0629445], [137.4862231, 35.0630245], [137.486357, 35.063246], [137.486596, 35.0634416], [137.4870185, 35.063651], [137.4873042, 35.0637091], [137.4876245, 35.0637239], [137.4878301, 35.0636965], [137.4881561, 35.0636224], [137.4888318, 35.0633802], [137.4893382, 35.0632057], [137.4895741, 35.0631705], [137.4900427, 35.0631732], [137.4907548, 35.0631388], [137.4914826, 35.063023], [137.4917828, 35.0629548], [137.4920383, 35.0628009], [137.4924766, 35.0624465], [137.4926444, 35.0623723], [137.4928784, 35.062336], [137.4931336, 35.0623223], [137.4935061, 35.0621858], [137.493802, 35.0620028], [137.4942177, 35.0615897], [137.4943623, 35.0614067], [137.4944567, 35.0612393], [137.4945402, 35.0609261], [137.4945939, 35.0607366], [137.4947985, 35.060333], [137.4950765, 35.0597818], [137.4951708, 35.0596485], [137.4953145, 35.0595392], [137.4957788, 35.0592734], [137.4963433, 35.0590009], [137.4966076, 35.0589071], [137.4968084, 35.0588844], [137.4970407, 35.0589156], [137.4975357, 35.0590166], [137.4977804, 35.0590404], [137.4979934, 35.0590155], [137.4981752, 35.058954], [137.4984522, 35.0587276], [137.4987891, 35.0583967], [137.4991436, 35.0580464], [137.4995668, 35.0576266], [137.4997705, 35.0574395], [137.5001952, 35.0571342], [137.5005505, 35.0568847], [137.5009274, 35.0566264], [137.501214, 35.0564705], [137.5017534, 35.0562413], [137.5020361, 35.0561546], [137.5025652, 35.0560722], [137.5032353, 35.0559523], [137.503563, 35.0559247], [137.5038933, 35.0558958], [137.5040982, 35.0558931], [137.5042381, 35.0559175], [137.5043663, 35.0559741], [137.5047948, 35.0562197], [137.504981, 35.0563291], [137.5050773, 35.0563711], [137.5051913, 35.056409], [137.5054604, 35.0564816], [137.5059731, 35.056603], [137.5065197, 35.0567312], [137.5066819, 35.0567614], [137.5067864, 35.0567703], [137.5069072, 35.056757], [137.5070397, 35.0567193], [137.5071558, 35.0566653], [137.5073216, 35.0565622], [137.5074267, 35.0564992], [137.50751, 35.0564436], [137.5076147, 35.0563723], [137.5077065, 35.0563366], [137.5078011, 35.0563119], [137.5079948, 35.0562859], [137.508489, 35.0562515], [137.5090421, 35.0562109], [137.5092213, 35.0562218], [137.5093777, 35.0562377], [137.5096335, 35.0562986], [137.5100885, 35.056391], [137.5102841, 35.0564363], [137.5104462, 35.056502], [137.5106005, 35.0566098], [137.5107952, 35.0568048], [137.511102, 35.0571215], [137.5114234, 35.0574415], [137.5115502, 35.0575581], [137.511654, 35.0576314], [137.511845, 35.0577228], [137.5121267, 35.0578313], [137.5122522, 35.0578817], [137.5123977, 35.0579081], [137.5126935, 35.0579256], [137.512935, 35.0579262], [137.5131502, 35.0578971], [137.5132996, 35.057874], [137.5134851, 35.0578176], [137.5137184, 35.0577224], [137.5139567, 35.057615], [137.5143024, 35.0574688], [137.5144529, 35.0574217], [137.5146254, 35.0573845], [137.514772, 35.0573646], [137.5148916, 35.057341], [137.5151296, 35.0572799], [137.5153307, 35.0572285], [137.5154655, 35.0571769], [137.5156849, 35.057063], [137.5158025, 35.0569491], [137.5159728, 35.0567375], [137.5162028, 35.0562448], [137.5164677, 35.0557582], [137.5166709, 35.0553167], [137.5167768, 35.0550582], [137.5169082, 35.0548153], [137.5170926, 35.0546108], [137.5176861, 35.0539963], [137.5181582, 35.0535491], [137.5188051, 35.052947], [137.5190068, 35.0528411], [137.5195211, 35.0524817], [137.5197844, 35.0522775], [137.5199844, 35.0521382], [137.5200466, 35.0519886], [137.5200303, 35.0518522], [137.5199566, 35.0517179], [137.5197677, 35.0515323], [137.5193981, 35.0512036], [137.519271, 35.0510694], [137.5192011, 35.0509019], [137.519196, 35.0507106], [137.5192581, 35.0505541], [137.5195596, 35.050208], [137.5199048, 35.0498343], [137.5203667, 35.0493441], [137.5205911, 35.0491991], [137.520857, 35.0490292], [137.5212761, 35.0488422], [137.5216399, 35.0487235], [137.5220555, 35.0486648], [137.5226963, 35.0485895], [137.5232148, 35.0485286], [137.5234658, 35.048477], [137.5236204, 35.0484174], [137.5237321, 35.0483455], [137.5238503, 35.0482474], [137.5239037, 35.0481679], [137.5239782, 35.0479566], [137.524021, 35.0476876], [137.5240383, 35.0474988], [137.5240456, 35.0473724], [137.5240096, 35.0470864], [137.5239566, 35.0468682], [137.5238919, 35.0466644], [137.5238443, 35.046539], [137.5238214, 35.0464141], [137.5238591, 35.0463234], [137.52399, 35.0462333], [137.5241947, 35.0461499], [137.5243315, 35.0461327], [137.5245281, 35.0461671], [137.5247338, 35.0461631], [137.5248851, 35.0461368], [137.5251556, 35.0460367], [137.5253674, 35.0458823], [137.5254317, 35.0457988], [137.5255218, 35.0456462], [137.5255396, 35.0454521], [137.5255272, 35.0453391], [137.5254653, 35.0452016], [137.5254415, 35.0451048], [137.525446, 35.0449619], [137.525489, 35.0447715], [137.5255413, 35.0443164], [137.5255624, 35.043807], [137.5255624, 35.0436604], [137.5255586, 35.043568], [137.5255696, 35.0434237], [137.5256259, 35.043336], [137.5257028, 35.0432931], [137.5258197, 35.0432671], [137.5260196, 35.0432669], [137.5261722, 35.0432496], [137.5263908, 35.0432062], [137.5265743, 35.0431769], [137.5267989, 35.0431634], [137.5269936, 35.0431716], [137.5271678, 35.0432045], [137.5273145, 35.0432432], [137.5274257, 35.0432566], [137.5275577, 35.0432621], [137.5276778, 35.0432458], [137.5277817, 35.0432158], [137.5282487, 35.043031], [137.5283981, 35.0429563], [137.5285682, 35.0428632], [137.5288973, 35.0427106], [137.5288574, 35.0426784], [137.5286201, 35.042464], [137.5284964, 35.0423361], [137.5284117, 35.0422476], [137.5283448, 35.0421683], [137.528271, 35.0420508], [137.5282284, 35.0419359], [137.5282022, 35.0417776], [137.5282162, 35.0414536], [137.5282509, 35.041252], [137.5282852, 35.0411352], [137.5283327, 35.0410121], [137.5284239, 35.0408104], [137.528477, 35.0406733], [137.5285045, 35.0405134], [137.5285209, 35.0403267], [137.5285401, 35.0395938], [137.5285318, 35.0392764], [137.5284988, 35.0388904], [137.5283457, 35.0384269], [137.5281176, 35.0378121], [137.5277732, 35.0373195], [137.5276607, 35.0371825], [137.5274981, 35.0370388], [137.5271265, 35.036796], [137.5258877, 35.0361037], [137.5255712, 35.0358982], [137.5254325, 35.0357735], [137.5253347, 35.035646], [137.5252773, 35.0355262], [137.525209, 35.035264], [137.5251427, 35.0349536], [137.5249589, 35.0341008], [137.5249223, 35.0339725], [137.5248804, 35.0338073], [137.5248351, 35.0336763], [137.5247644, 35.0335827], [137.5245866, 35.0334385], [137.5242507, 35.0332406], [137.5240675, 35.0331633], [137.5238891, 35.0331049], [137.5234404, 35.0330103], [137.523146, 35.0329372], [137.5229432, 35.0328534], [137.52276, 35.0327469], [137.5222346, 35.0324045], [137.5218674, 35.032214], [137.5217143, 35.0321043], [137.5215234, 35.0319284], [137.5212931, 35.0316905], [137.5212217, 35.0316183], [137.5211618, 35.0315568], [137.5210835, 35.0314368], [137.5210241, 35.0313098], [137.5209882, 35.0311765], [137.5209868, 35.0309935], [137.5209883, 35.0308361], [137.5210029, 35.0307283], [137.521033, 35.0306218], [137.5211728, 35.0302614], [137.521223, 35.0300935], [137.5212616, 35.0299482], [137.521264, 35.0296786], [137.5212747, 35.0294183], [137.5213063, 35.0291669], [137.5214145, 35.0289467], [137.52158, 35.0286973], [137.5217633, 35.028493], [137.5219845, 35.0283286], [137.5222667, 35.0281595], [137.5228402, 35.0278373], [137.5234547, 35.027474], [137.5236802, 35.027306], [137.5239451, 35.0270235], [137.5240825, 35.0268501], [137.5241692, 35.0266974], [137.5242013, 35.0265868], [137.5242097, 35.0264514], [137.5241567, 35.0263133], [137.5240666, 35.0261886], [137.5239687, 35.026103], [137.5237999, 35.0260358], [137.5233662, 35.0259477], [137.5227917, 35.0258125], [137.5223866, 35.0257154], [137.5220714, 35.0256218], [137.5218964, 35.0255712], [137.521765, 35.0255157], [137.5214905, 35.0253362], [137.5212201, 35.0251445], [137.521023, 35.0249842], [137.5208221, 35.0248448], [137.5206008, 35.0247311], [137.5202716, 35.0245889], [137.5200593, 35.024473], [137.5195229, 35.0241116], [137.5191153, 35.0238482], [137.5188345, 35.0236124], [137.5185472, 35.0233727], [137.518343, 35.0231724], [137.5181649, 35.0229642], [137.5178318, 35.0225288], [137.5175883, 35.0222017], [137.5173772, 35.0218677], [137.517285, 35.0216686], [137.5172249, 35.0214652], [137.5171966, 35.0212298], [137.5172074, 35.0210353], [137.5172388, 35.0209297], [137.5173484, 35.0207098], [137.517402, 35.0205476], [137.5175308, 35.0200848], [137.5176178, 35.0198109], [137.517725, 35.0195595], [137.5180789, 35.018924], [137.5182888, 35.0185536], [137.518506, 35.0181082], [137.5187376, 35.01764], [137.518836, 35.0173866], [137.5189254, 35.0170364], [137.5189984, 35.0166387], [137.5191294, 35.0159914], [137.5192447, 35.0152892], [137.5194094, 35.0143911], [137.5194915, 35.0140484], [137.5196128, 35.013648], [137.5196886, 35.0134113], [137.5197697, 35.0132301], [137.5199717, 35.0127725], [137.5202066, 35.0123411], [137.520322, 35.0121207], [137.5203751, 35.0120371], [137.5206542, 35.0117824], [137.5207592, 35.0116491], [137.5208364, 35.0115356], [137.5209452, 35.0113417], [137.5213552, 35.0108132], [137.5215952, 35.0105884], [137.5220956, 35.0102664], [137.5222903, 35.0101787], [137.522507, 35.0101003], [137.5226726, 35.0100375], [137.5227716, 35.0099919], [137.5228827, 35.0099124], [137.522962, 35.009846], [137.5230622, 35.0097602], [137.5231292, 35.0096646], [137.5232331, 35.0094746], [137.5234504, 35.0090857], [137.523644, 35.0087815], [137.5240444, 35.0082326], [137.5242274, 35.0079827], [137.5243311, 35.0078188], [137.5243934, 35.007674], [137.5244289, 35.0075146], [137.5244389, 35.0073299], [137.5244044, 35.0069368], [137.5243923, 35.0067668], [137.5243774, 35.0065591], [137.5243545, 35.006368], [137.5243114, 35.0061907], [137.5242425, 35.0060198], [137.5241439, 35.0058429], [137.5240055, 35.0056434], [137.52395, 35.0055585], [137.5239278, 35.0054888], [137.5239352, 35.0054321], [137.523964, 35.0053905], [137.5240285, 35.0053429], [137.5244219, 35.0051407], [137.5244666, 35.0050948], [137.5244785, 35.0050273], [137.5244389, 35.0049316], [137.5240432, 35.0042981], [137.5239936, 35.0041993], [137.5236286, 35.0029313], [137.5236148, 35.0027733], [137.5236127, 35.0026146], [137.5236571, 35.0024306], [137.5237856, 35.0017864], [137.5238496, 35.0015144], [137.5238883, 35.0014255], [137.5239538, 35.0013232], [137.524467, 35.000635], [137.5246289, 35.0003575], [137.5250563, 34.9995626], [137.525156, 34.9991304], [137.5251731, 34.9990074], [137.5251706, 34.9989102], [137.5251543, 34.9988222], [137.5250888, 34.9985757], [137.5250365, 34.9984846], [137.5249645, 34.9984016], [137.5248255, 34.99832], [137.5246913, 34.9982733], [137.5245506, 34.998275], [137.5242237, 34.9982763], [137.523938, 34.998246], [137.5235452, 34.998175], [137.52305, 34.9980928], [137.522706, 34.998084], [137.5224671, 34.9980976], [137.5222254, 34.998127], [137.5218196, 34.9981706], [137.5212732, 34.9981866], [137.5204571, 34.9981791], [137.5201835, 34.9981569], [137.5199944, 34.9981192], [137.5197732, 34.9980577], [137.5192845, 34.9978964], [137.5191186, 34.997812], [137.5189861, 34.9977055], [137.5188631, 34.9975484], [137.5187469, 34.9973866], [137.5186808, 34.9972522], [137.5186444, 34.997152], [137.5186382, 34.9970539], [137.5186535, 34.9969492], [137.5186912, 34.9967805], [137.5189451, 34.996095], [137.5189997, 34.9958991], [137.5190265, 34.9956703], [137.5190923, 34.9936881], [137.5191109, 34.9935639], [137.5191524, 34.9934502], [137.5193503, 34.9931749], [137.5199474, 34.9925049], [137.5204938, 34.9919424], [137.5211856, 34.9913174], [137.5242477, 34.9886805], [137.5244428, 34.9884917], [137.524541, 34.9883507], [137.5246234, 34.988195], [137.5246794, 34.9880004], [137.524998, 34.98696], [137.5250879, 34.9866974], [137.5251905, 34.9864362], [137.525351, 34.9861463], [137.5260254, 34.9851438], [137.5262187, 34.984828], [137.5264625, 34.9844567], [137.5266333, 34.9842198], [137.5266967, 34.9841272], [137.5267677, 34.9840535], [137.5269044, 34.9839737], [137.5271241, 34.9838906], [137.5276324, 34.9837676], [137.527786, 34.9837551], [137.5278854, 34.9837599], [137.527967, 34.9837847], [137.528114, 34.9838826], [137.5282478, 34.9840036], [137.5287325, 34.9845482], [137.5287992, 34.9846231], [137.5288999, 34.9847619], [137.5289296, 34.9848644], [137.5289182, 34.9849761], [137.5288863, 34.9850991], [137.5288321, 34.9852448], [137.5282562, 34.9861905], [137.5278503, 34.986855], [137.5278247, 34.9869283], [137.5278361, 34.9870056], [137.5278566, 34.9870582], [137.527925, 34.9871149], [137.5280911, 34.9871995], [137.5288585, 34.9875699], [137.5289068, 34.9876186], [137.5289432, 34.9876664], [137.5289574, 34.9877541], [137.5289098, 34.9880217], [137.5288301, 34.9883814], [137.5287166, 34.9889175], [137.5286687, 34.9891884], [137.5286926, 34.9894364], [137.5287496, 34.9895662], [137.5288483, 34.9897688], [137.5290589, 34.990089], [137.529654, 34.9908898], [137.5298264, 34.9910787], [137.5299626, 34.9911735], [137.5301534, 34.9912521], [137.5303959, 34.9913245], [137.5308715, 34.9914206], [137.5311221, 34.9914273], [137.5312879, 34.9913861], [137.5316076, 34.9912748], [137.5318505, 34.991151], [137.5326006, 34.9907196], [137.5328688, 34.9906317], [137.5330775, 34.9906103], [137.5339187, 34.9905888], [137.5339924, 34.9905538], [137.5340298, 34.9905216], [137.5340596, 34.9904626], [137.5340866, 34.9903737], [137.5342291, 34.9896874], [137.5343615, 34.9891298], [137.5347306, 34.9878662], [137.5349205, 34.9874422], [137.5349681, 34.9872464], [137.5349823, 34.9871327], [137.5349739, 34.9869357], [137.5346651, 34.984668], [137.5346314, 34.9845478], [137.5345902, 34.9844626], [137.5342851, 34.9840079], [137.5341849, 34.9838166], [137.5341735, 34.9837118], [137.5342144, 34.9835929], [137.5343211, 34.9833881], [137.535128, 34.9822204], [137.5353399, 34.9820124], [137.5356278, 34.981815], [137.5358547, 34.9817231], [137.5361299, 34.9816564], [137.5375017, 34.9814497], [137.5377322, 34.9814279], [137.5381828, 34.9814679], [137.5391123, 34.9816358], [137.5396575, 34.9816571], [137.5406686, 34.9815944], [137.5412089, 34.9815669], [137.5414312, 34.9815568], [137.5416997, 34.981508], [137.5420622, 34.9813859], [137.5424837, 34.9812561], [137.5427206, 34.9811627], [137.542855, 34.9811012], [137.5429967, 34.9810253], [137.5430958, 34.9808891], [137.5433933, 34.9803873], [137.5434837, 34.9801422], [137.5435503, 34.9798395], [137.5438391, 34.9792833], [137.5441392, 34.978816], [137.5442514, 34.9787298], [137.544425, 34.9786809], [137.5445407, 34.9786774], [137.5446797, 34.9787161], [137.5448012, 34.9787774], [137.5450743, 34.9789963], [137.5452262, 34.9790834], [137.5455033, 34.9791746], [137.5457623, 34.9792306], [137.5462125, 34.979249], [137.5463826, 34.97924], [137.546718, 34.9791826], [137.547317, 34.9790792], [137.54795, 34.9789593], [137.5481763, 34.9789377], [137.5483795, 34.9789138], [137.5488233, 34.9787845], [137.549397, 34.9786899], [137.5495426, 34.9786831], [137.5496799, 34.9786523], [137.5497971, 34.9786006], [137.550125, 34.9784278], [137.5503261, 34.9783531], [137.5505031, 34.9782696], [137.5508285, 34.9780555], [137.5510936, 34.9779159], [137.5512823, 34.977774], [137.5513629, 34.9776713], [137.5514846, 34.9774584], [137.551594, 34.977236], [137.5516434, 34.9770591], [137.5516431, 34.976963], [137.5516056, 34.9768262], [137.5515448, 34.9767389], [137.55086, 34.9762839], [137.5506287, 34.9761633], [137.5505376, 34.97609], [137.5504552, 34.9759938], [137.5503705, 34.9758384], [137.5502317, 34.9754749], [137.5501277, 34.9751759], [137.5500952, 34.9749257], [137.5501303, 34.9747048], [137.550184, 34.9745482], [137.5501949, 34.9744321], [137.5501706, 34.9742353], [137.5501712, 34.9741196], [137.550195, 34.9739764], [137.5502671, 34.9735871], [137.5502834, 34.9734666], [137.5502968, 34.9733681], [137.5503409, 34.9730982], [137.5503726, 34.9729392], [137.5504254, 34.9727037], [137.5505461, 34.9724476], [137.5507278, 34.9721388], [137.5511375, 34.9714256], [137.5513118, 34.9711399], [137.5514799, 34.970928], [137.5516373, 34.9707898], [137.552091, 34.9703959], [137.5525551, 34.9699453], [137.5531574, 34.9693818], [137.5533806, 34.9691455], [137.5535153, 34.9689606], [137.553615, 34.9687949], [137.5540333, 34.9679062], [137.5543173, 34.9673165], [137.5544183, 34.9670497], [137.5545067, 34.9666525], [137.5545608, 34.9662573], [137.554552, 34.9659647], [137.554489, 34.9656872], [137.5543974, 34.965425], [137.5541878, 34.9649817], [137.5540115, 34.9646866], [137.5538184, 34.9644572], [137.5536427, 34.9642689], [137.5533679, 34.9640215], [137.5531639, 34.9638875], [137.552775, 34.963671], [137.5524223, 34.9634567], [137.5522075, 34.9632971], [137.5520654, 34.9632073], [137.5519278, 34.9631856], [137.5518119, 34.9631716], [137.5516463, 34.9631951], [137.5514001, 34.9632497], [137.551167, 34.9632566], [137.5509775, 34.9632075], [137.5507658, 34.9631018], [137.5506122, 34.962983], [137.5505026, 34.9628471], [137.5502398, 34.9624462], [137.5501469, 34.9622973], [137.5500621, 34.9621254], [137.5499943, 34.9619183], [137.5497209, 34.9606744], [137.5496914, 34.9604251], [137.5496753, 34.9601664], [137.5497041, 34.9598337], [137.5497505, 34.9595855], [137.5499904, 34.9587482], [137.5501762, 34.9573924], [137.5501765, 34.9571184], [137.550139, 34.9568207], [137.5501104, 34.9566901], [137.5500307, 34.9564487], [137.5498762, 34.9560891], [137.549532, 34.9555638], [137.5494657, 34.9554737], [137.5493792, 34.9553142], [137.5493275, 34.9551166], [137.5490843, 34.9540834], [137.5490305, 34.953889], [137.5488847, 34.9535677], [137.5482843, 34.9524683], [137.5478978, 34.9518083], [137.5473424, 34.9508633], [137.5467458, 34.9499633], [137.5466842, 34.9498358], [137.54652, 34.9494161], [137.5463766, 34.9491352], [137.5458367, 34.9484092], [137.5455912, 34.9480229], [137.5455293, 34.9478105], [137.5454971, 34.9476095], [137.5455066, 34.9474232], [137.545554, 34.9471899], [137.5457119, 34.9467303], [137.5461558, 34.9455762], [137.5463546, 34.944945], [137.5465657, 34.9442166], [137.5466301, 34.9440001], [137.5469439, 34.9429365], [137.5471044, 34.9424021], [137.5474337, 34.9412961], [137.5479075, 34.9396865], [137.5479454, 34.9395698], [137.5481525, 34.9388944], [137.548286, 34.9385693], [137.5484433, 34.9381573], [137.5486294, 34.9376536], [137.548765, 34.9373128], [137.5488757, 34.9370379], [137.5490948, 34.936567], [137.5493489, 34.9361699], [137.5496162, 34.9358025], [137.5499587, 34.93536], [137.5501542, 34.9350186], [137.5504046, 34.9344633], [137.5505578, 34.934058], [137.5507764, 34.9334721], [137.5511172, 34.9325259], [137.5513738, 34.9318576], [137.5514352, 34.9316955], [137.5515957, 34.9312716], [137.551701, 34.9309073], [137.5517699, 34.9305993], [137.5518569, 34.9301493], [137.5519642, 34.9296366], [137.5521428, 34.9287883], [137.5521876, 34.928464], [137.552195, 34.9281951], [137.5521479, 34.9279486], [137.5518564, 34.9269609], [137.551673, 34.9263471], [137.5513779, 34.925332]]]}, "id": "relation/3527404"}]}