{"type": "FeatureCollection", "generator": "kokudo-quiz tools/fetch_raw.py (Overpass API)", "copyright": "The data included in this document is from www.openstreetmap.org. The data is made available under ODbL.", "timestamp": "2026-09-30T23:39:30Z", "features": [{"type": "Feature", "properties": {"@id": "relation/8820384", "colour": "red", "from": "大阪府大阪市北区", "name": "国道423号", "name:en": "National Highway Route 423", "name:ja": "国道423号", "name:ja-Hira": "こくどうよんひゃくにじゅうさんごう464ごう", "name:ja-Latn": "kokudou 423 gou", "network": "JP:national", "ref": "423", "route": "road", "to": "京都府亀岡市", "type": "route", "wikidata": "Q6157507", "wikipedia": "ja:国道423号"}, "geometry": {"type": "MultiLineString", "coordinates": [[[135.4263365, 34.8374032], [135.4264135, 34.8376665], [135.4264314, 34.8377555], [135.4264404, 34.8378451], [135.426443, 34.8379308], [135.4264268, 34.8381483], [135.4264232, 34.8382075], [135.4264284, 34.8382743], [135.4264447, 34.8383313], [135.4264737, 34.8383948], [135.4265066, 34.8384473], [135.4265522, 34.8385322], [135.426588, 34.8386085], [135.4266257, 34.8387193], [135.4267782, 34.8391581], [135.4268448, 34.8393946], [135.4271184, 34.8402295], [135.4271553, 34.840317], [135.4272134, 34.8404481], [135.4273596, 34.8407391], [135.4275899, 34.8412053], [135.4276417, 34.8412706], [135.4276165, 34.8411506], [135.4275394, 34.8408987], [135.4273237, 34.8402726], [135.4272164, 34.8399007], [135.4269778, 34.8391593], [135.4268264, 34.8386719], [135.4267678, 34.8385145], [135.4263365, 34.8374032]], [[135.4886251, 34.838594], [135.4886358, 34.8384683], [135.4886476, 34.8380951], [135.4886342, 34.8379411], [135.4886297, 34.8376929], [135.4885833, 34.8374033], [135.4885296, 34.8370819], [135.4885228, 34.8370022], [135.4885171, 34.8369289], [135.4885147, 34.8368545], [135.4885167, 34.836805], [135.4885195, 34.8367341], [135.488524, 34.8366701], [135.4885311, 34.83658], [135.4885282, 34.8365174], [135.4885096, 34.8364541], [135.488524, 34.8362731], [135.4885349, 34.8360948], [135.4885357, 34.8360477], [135.4885343, 34.8359912], [135.4885319, 34.8359306], [135.4885297, 34.835822], [135.4885409, 34.8355512], [135.4885461, 34.8355046], [135.4885559, 34.8354155], [135.4885669, 34.835316], [135.4885692, 34.8352956], [135.4885844, 34.834915], [135.4885935, 34.8347622], [135.488637, 34.8337665], [135.4886445, 34.8336629], [135.4886494, 34.8335844], [135.4886482, 34.8335426], [135.488654, 34.8334116], [135.4886571, 34.8333177], [135.4886651, 34.8332543], [135.4886729, 34.8331824], [135.4886807, 34.8330732], [135.4886741, 34.8329899], [135.4886706, 34.8329139], [135.4886837, 34.8321118], [135.4887272, 34.8306967], [135.4887961, 34.8283466], [135.4888364, 34.826974], [135.4888399, 34.8268485], [135.4888495, 34.8265232], [135.4888477, 34.8264182], [135.4888468, 34.8262978], [135.4888504, 34.8261134], [135.4888734, 34.8256066], [135.4888979, 34.8252908], [135.4889248, 34.8250751], [135.4889882, 34.8246508], [135.4890257, 34.8245072], [135.4890879, 34.824306], [135.4891251, 34.8241746], [135.4892108, 34.8238768], [135.4894838, 34.8231995], [135.4910831, 34.8195022], [135.4916473, 34.8182167], [135.4919815, 34.8174456], [135.4921029, 34.817145], [135.4921688, 34.8169714], [135.4922665, 34.8167205], [135.4923738, 34.816464], [135.4924449, 34.8162834], [135.4925119, 34.8161139], [135.4925609, 34.8159928], [135.4926608, 34.8157302], [135.4927845, 34.8154324], [135.4928941, 34.8151253], [135.4929592, 34.8149517], [135.4931315, 34.8144651], [135.4931851, 34.8143077], [135.4932663, 34.8140037], [135.493327, 34.8137778], [135.4933756, 34.8135589], [135.4933842, 34.8135072], [135.4934091, 34.813378], [135.4934403, 34.8132019], [135.4934698, 34.8130219], [135.4934822, 34.8129346], [135.4934993, 34.8128005], [135.4935218, 34.8126101], [135.4935328, 34.8124884], [135.4935446, 34.8123466], [135.4935533, 34.8122024], [135.4935578, 34.8120949], [135.49356, 34.8120655], [135.493564, 34.8119329], [135.4935687, 34.8117677], [135.4935667, 34.8116317], [135.4935637, 34.8114867], [135.493528, 34.8108669], [135.4931565, 34.8074394], [135.4931047, 34.806961], [135.4930452, 34.8064613], [135.4929502, 34.8056998], [135.4929147, 34.8052857], [135.4929062, 34.8051244], [135.4929009, 34.804974], [135.4928993, 34.8048464], [135.4929003, 34.8047053], [135.4929043, 34.8045836], [135.4929072, 34.8045211], [135.4929085, 34.8044165], [135.4929106, 34.8043656], [135.4929373, 34.8042836], [135.4929581, 34.8039765], [135.4930018, 34.8036186], [135.4930229, 34.8035284], [135.4930517, 34.803388], [135.4930834, 34.8032395], [135.4932126, 34.8027468], [135.4933563, 34.8023486], [135.4934527, 34.8021158], [135.4937678, 34.8014578], [135.4938269, 34.8013301], [135.493965, 34.8010101], [135.494081, 34.8007657], [135.4942989, 34.800318], [135.4943798, 34.8001915], [135.4945294, 34.7998749], [135.4950233, 34.7988505], [135.4959149, 34.7970052], [135.4963489, 34.7961258], [135.4963844, 34.7960595], [135.4966086, 34.795586], [135.4967169, 34.795348], [135.4966086, 34.795586], [135.4963844, 34.7960595], [135.4963489, 34.7961258], [135.4959149, 34.7970052], [135.4963489, 34.7961258], [135.4963844, 34.7960595], [135.4966086, 34.795586], [135.4967169, 34.795348], [135.4968941, 34.7949589], [135.4970683, 34.7945226], [135.497236, 34.7940258], [135.4973, 34.7938168], [135.4973234, 34.7937273], [135.497355, 34.7936062], [135.4974091, 34.7933774], [135.4974533, 34.7931655], [135.4974768, 34.7930413], [135.4974905, 34.7929614], [135.4975279, 34.7926941], [135.4975393, 34.7926052], [135.4975535, 34.7924995], [135.4975592, 34.792443], [135.4975618, 34.7924064], [135.4975662, 34.7923603], [135.4975736, 34.7922796], [135.4975802, 34.7921975], [135.4975861, 34.7921124], [135.497595, 34.7919538], [135.4975964, 34.7918927], [135.4975992, 34.7918288], [135.4976013, 34.7916919], [135.4976007, 34.7914319], [135.4975945, 34.7912383], [135.4975818, 34.7909195]], [[135.4885591, 34.8328631], [135.4885362, 34.8326888], [135.4885174, 34.832484], [135.4884999, 34.832081], [135.4884933, 34.8317564], [135.4884938, 34.831475], [135.4885054, 34.8312489], [135.4885335, 34.8308361], [135.4885367, 34.8306994], [135.4885526, 34.8301064], [135.4885343, 34.829946], [135.4883724, 34.8299106], [135.4874097, 34.8296741], [135.4867933, 34.8295309], [135.4867121, 34.8295111], [135.485752, 34.8292834], [135.4856409, 34.8292571], [135.4855034, 34.8292243], [135.4850757, 34.8291207], [135.4845758, 34.8290029], [135.4843047, 34.8289383], [135.4842252, 34.828921], [135.4840674, 34.8288816], [135.4837924, 34.8288079], [135.4833739, 34.8286994], [135.4832793, 34.8286734], [135.4832195, 34.8286525], [135.4827146, 34.828481], [135.4823027, 34.8283411], [135.4821855, 34.8283004]], [[135.4972473, 34.7871334], [135.4973123, 34.7889744], [135.4973539, 34.7901186], [135.4973727, 34.790621]], [[135.4975818, 34.7909195], [135.4975143, 34.7889709], [135.4974318, 34.7871276]], [[135.4972473, 34.7871334], [135.4971669, 34.7851184], [135.4971241, 34.7840486], [135.4970798, 34.7827571], [135.4970398, 34.7818343], [135.4970391, 34.7818124], [135.4969819, 34.7811366], [135.4969088, 34.7806843], [135.4968497, 34.7803077], [135.4967125, 34.7796677], [135.4965029, 34.7789788], [135.4960133, 34.7776267], [135.495513, 34.7763764], [135.4954354, 34.7760657], [135.4952875, 34.7754351], [135.4952298, 34.7750788], [135.4951797, 34.7746633], [135.4951626, 34.7744232], [135.495149, 34.7737981], [135.4951747, 34.7733018], [135.4952625, 34.772752], [135.4953691, 34.7722057], [135.4954738, 34.7718141], [135.4955582, 34.7715469], [135.4956749, 34.7712286], [135.495925, 34.7706452], [135.496375, 34.7697502], [135.4965721, 34.7693073], [135.4966863, 34.7689977], [135.4967858, 34.768631], [135.4968618, 34.7683103], [135.4974084, 34.7656109], [135.4974398, 34.7652685], [135.4974425, 34.7650438], [135.4974398, 34.7647406], [135.4974162, 34.7643926], [135.4971236, 34.7605674], [135.4970822, 34.7600978], [135.497007, 34.7594506], [135.4969224, 34.7583509], [135.4968867, 34.7577222], [135.4968491, 34.7568742], [135.4966592, 34.7543904], [135.4966198, 34.7537648], [135.4966103, 34.7530589], [135.4966292, 34.7524087], [135.4966901, 34.7513811], [135.4967044, 34.7512454], [135.4968676, 34.7501871], [135.4970107, 34.7493124], [135.4973196, 34.7479216], [135.4976816, 34.7458129], [135.4980087, 34.7439297], [135.4982546, 34.74255], [135.4983042, 34.742187], [135.4983379, 34.741824], [135.4983582, 34.7415221], [135.4983684, 34.7412185], [135.4983758, 34.740606], [135.4983584, 34.7399994], [135.4983415, 34.7382289], [135.4983416, 34.7369909], [135.4983324, 34.7360811], [135.4983553, 34.7351958], [135.4983567, 34.7349539], [135.4983443, 34.7346544], [135.4983611, 34.7335747], [135.4983589, 34.7333264], [135.498386, 34.7325059], [135.4983989, 34.7308539], [135.4983962, 34.730536], [135.4983796, 34.7293706], [135.4983876, 34.7289696], [135.4984033, 34.7279782], [135.4984376, 34.7271804], [135.4984381, 34.7265819], [135.4984542, 34.7254182], [135.498465, 34.7250133], [135.4984784, 34.7248335], [135.4984967, 34.724683], [135.4986128, 34.7240466], [135.4986717, 34.7236933], [135.4986969, 34.7235469], [135.4988147, 34.7229058], [135.4988892, 34.7226208], [135.498961, 34.7221847], [135.4991679, 34.7209631], [135.4994047, 34.7195712], [135.4994775, 34.7191153], [135.4995046, 34.7189404], [135.4995834, 34.7184833], [135.4997321, 34.7175953], [135.4997769, 34.7173347], [135.4998012, 34.7170806], [135.4998129, 34.7167248], [135.4998397, 34.7159059], [135.4998876, 34.7144252], [135.499964, 34.7127736], [135.5000317, 34.7121848], [135.5001153, 34.7116465], [135.5001777, 34.7112199], [135.5004968, 34.7092528], [135.5005273, 34.7088593], [135.5005195, 34.7085402], [135.5005112, 34.7077642], [135.5005034, 34.7070347], [135.5004987, 34.7068058], [135.5005225, 34.7065912], [135.5005698, 34.7063581], [135.5006383, 34.7061814], [135.5007195, 34.7060237], [135.500861, 34.7058352], [135.5012658, 34.7053589], [135.5013567, 34.7052272], [135.5014143, 34.7051326], [135.5014978, 34.704944], [135.5015505, 34.7047554], [135.5017706, 34.7028597]], [[135.4974318, 34.7871276], [135.497354, 34.7851137], [135.497323, 34.7840479], [135.4972663, 34.782757], [135.4972308, 34.7819822], [135.497221, 34.7818232], [135.4971741, 34.7811463], [135.4971104, 34.7806727], [135.4970334, 34.7802658], [135.4968955, 34.7796408], [135.4966919, 34.7789372], [135.4961852, 34.7775791], [135.4958117, 34.7766154], [135.4957306, 34.7763441], [135.4956181, 34.7760344], [135.4954762, 34.7754068], [135.4954156, 34.7750595], [135.4953663, 34.7746402], [135.4953532, 34.7744286], [135.4953514, 34.7741315], [135.4953535, 34.7737975], [135.4953611, 34.7734186], [135.4954053, 34.7729999], [135.4954845, 34.7725692], [135.4955757, 34.7721674], [135.4956601, 34.7718488], [135.495746, 34.7715811], [135.4958616, 34.7712798], [135.496118, 34.7707013], [135.4965547, 34.7698151], [135.4967542, 34.7693502], [135.4968671, 34.7690109], [135.4969664, 34.7686518], [135.4970375, 34.7683488], [135.4975166, 34.7659312], [135.4975677, 34.7656213], [135.4976151, 34.7652989], [135.4976343, 34.7650515], [135.4976329, 34.7647276], [135.4976005, 34.7642599], [135.4972516, 34.7590887], [135.4968304, 34.7539208], [135.4968135, 34.7530849], [135.4968352, 34.7524588], [135.49694, 34.7514165], [135.4970014, 34.7509856], [135.4972101, 34.7497109], [135.4972326, 34.7494856], [135.4973817, 34.7486393], [135.497527, 34.747814], [135.4978706, 34.7458517], [135.4982092, 34.7439533], [135.4983785, 34.7430802], [135.498495, 34.7425437], [135.4985398, 34.7423305], [135.4985744, 34.7421173], [135.4986269, 34.7416954], [135.4986441, 34.7414324], [135.4986723, 34.7399969], [135.4986818, 34.7382768], [135.4986881, 34.7377212], [135.4986942, 34.7369199], [135.498691, 34.7362454], [135.4986851, 34.7359811], [135.4986869, 34.7354512], [135.498688, 34.7350463], [135.4986967, 34.7343172], [135.4987066, 34.7336703], [135.4987103, 34.7334296], [135.4987161, 34.7331416], [135.498732, 34.7326008], [135.4987287, 34.7325067], [135.4987294, 34.7324548], [135.4987259, 34.7321039], [135.4987244, 34.7320002], [135.4987106, 34.7310445], [135.4987286, 34.7300322], [135.498742, 34.728444], [135.4987476, 34.7276289], [135.4987606, 34.726576], [135.4987637, 34.7253111], [135.4987763, 34.7249696], [135.4988117, 34.7246697], [135.4989893, 34.7235798], [135.4990604, 34.7233116], [135.4993346, 34.7215995], [135.4996666, 34.7196043], [135.4997685, 34.7189919], [135.5000829, 34.717119], [135.5001123, 34.7168705], [135.5001274, 34.716527], [135.5001315, 34.7150984], [135.5001566, 34.7147921], [135.5001427, 34.7130622], [135.5001802, 34.7123941], [135.5002887, 34.7116614], [135.5005929, 34.7096725], [135.5005951, 34.7085386], [135.5006072, 34.7078076], [135.5006071, 34.7077765], [135.500604, 34.7070351], [135.5006162, 34.7067354], [135.5006726, 34.7063996], [135.5008067, 34.7060882], [135.5009307, 34.7058837], [135.5012915, 34.7054758], [135.5014498, 34.7052567], [135.501506, 34.7051612], [135.5015866, 34.7049805], [135.5016456, 34.7047866], [135.5018341, 34.7030803], [135.5018718, 34.7027882]], [[135.5017706, 34.7028597], [135.5018584, 34.7021997], [135.501917, 34.7011006], [135.5019463, 34.6996912], [135.5019609, 34.6986886], [135.5019691, 34.6985906], [135.5019894, 34.6984927], [135.502024, 34.6984135], [135.5020666, 34.6983459], [135.5021134, 34.6982876], [135.5021889, 34.6982255], [135.5022605, 34.6981801], [135.5023352, 34.6981494], [135.5024336, 34.6981183], [135.5025955, 34.698086], [135.5027855, 34.6980697], [135.5046379, 34.6979524], [135.5053951, 34.6979033], [135.5057132, 34.6978676], [135.5059994, 34.6978162]], [[135.5021048, 34.6996081], [135.5021051, 34.6995377], [135.5021073, 34.6992447], [135.5021193, 34.6988856], [135.5021215, 34.6988202], [135.5021216, 34.698745], [135.5021225, 34.698578], [135.5021231, 34.6983409], [135.502124, 34.6981989], [135.502118, 34.6980498], [135.5021083, 34.6979215], [135.5019821, 34.6976029], [135.5019193, 34.6974664], [135.5016984, 34.6969992], [135.5015649, 34.6967306], [135.5015548, 34.6967147], [135.5015348, 34.6966833], [135.5014193, 34.6964865], [135.501307, 34.6961505]], [[135.5013822, 34.6967482], [135.5014006, 34.6967903], [135.5017362, 34.6974735], [135.5018944, 34.6978019], [135.5018997, 34.6979347], [135.5018934, 34.69806], [135.5018904, 34.6982143], [135.5018851, 34.6983339], [135.5018688, 34.6987013], [135.5018671, 34.6987408], [135.5018663, 34.6987847], [135.5018392, 34.6993206], [135.5018386, 34.6994888], [135.5018378, 34.6995388], [135.501839, 34.6995942]], [[135.4276417, 34.8412706], [135.4279662, 34.842327], [135.428288, 34.8433254], [135.4283445, 34.8434988], [135.4285163, 34.8440179], [135.4286992, 34.8444968], [135.4288701, 34.8448423], [135.4290245, 34.8451353], [135.4291992, 34.8454282], [135.4294537, 34.8457894], [135.4298696, 34.8462905], [135.4300522, 34.8464882], [135.4304409, 34.8468893], [135.4307276, 34.8471564], [135.4311572, 34.8475266], [135.4316145, 34.8478674], [135.4320553, 34.8481412], [135.4325369, 34.8484519], [135.4329611, 34.848719], [135.433205, 34.8488589], [135.4339765, 34.8492468], [135.4343955, 34.849503], [135.4350415, 34.8498978], [135.4356321, 34.8502885], [135.4357972, 34.8504182], [135.4361884, 34.8507046], [135.4366032, 34.8510633], [135.4375227, 34.8519084], [135.4387737, 34.8530157], [135.439593, 34.8537417], [135.4399031, 34.8540162], [135.4401454, 34.8542376], [135.4403604, 34.8544284], [135.4410257, 34.8550718], [135.4412348, 34.855264], [135.4414028, 34.8553942], [135.4420136, 34.8558367], [135.442263, 34.8560489], [135.4425208, 34.8562614], [135.4426163, 34.8563804], [135.4427293, 34.8565351], [135.4428625, 34.8567782], [135.4429812, 34.8570235], [135.4430114, 34.8571049], [135.44303, 34.8571841], [135.4430306, 34.8572674], [135.4430206, 34.8573813], [135.4429467, 34.8578437], [135.4429421, 34.8579408], [135.442947, 34.8580291], [135.4429789, 34.8582276], [135.4430252, 34.858411], [135.4430627, 34.8586378], [135.4431358, 34.8587452], [135.4432323, 34.8587993], [135.444658, 34.8591172], [135.4447756, 34.8591519], [135.4454809, 34.8595114], [135.4455801, 34.8595729], [135.4457132, 34.8596689], [135.4457965, 34.8597532], [135.445853, 34.8598543], [135.4459108, 34.8600423], [135.4459766, 34.8602562], [135.4463994, 34.8617335], [135.4467533, 34.8629223], [135.4468318, 34.8632517], [135.4468337, 34.8633164], [135.4468208, 34.8633742], [135.4467879, 34.8634411], [135.4467302, 34.8634973], [135.4466623, 34.8635504], [135.4463786, 34.8637036], [135.4461291, 34.8637962], [135.4458585, 34.8638444], [135.4455797, 34.8638529], [135.445078, 34.8638019], [135.4448335, 34.8637492], [135.4446365, 34.8636842], [135.44447, 34.8636108], [135.4442846, 34.8635133], [135.4441362, 34.8634263], [135.4438184, 34.8631547], [135.4437097, 34.8630879], [135.4436111, 34.8630451], [135.4435032, 34.8630273], [135.4434057, 34.8630234], [135.4433028, 34.8630338], [135.4429224, 34.8631567], [135.4428664, 34.8631832], [135.4428039, 34.863221], [135.4427694, 34.8632725], [135.4426915, 34.8634658], [135.442644, 34.8635837], [135.4426052, 34.8636901], [135.4425683, 34.863954], [135.4425641, 34.8640354], [135.4425784, 34.8641154], [135.4426135, 34.8641739], [135.4426562, 34.8642168], [135.4427229, 34.8642431], [135.442836, 34.8642654], [135.4428918, 34.8642783], [135.4429481, 34.8643046], [135.4433106, 34.8645715], [135.4433753, 34.8646262], [135.4434114, 34.8646763], [135.443442, 34.8647355], [135.443546, 34.8650111], [135.4435813, 34.8650855], [135.4436311, 34.865144], [135.4436941, 34.8651994], [135.4437535, 34.8652337], [135.4439054, 34.8652794], [135.4439755, 34.8653042], [135.4440402, 34.8653457], [135.444309, 34.8655776], [135.4443815, 34.8656299], [135.44472, 34.8658063], [135.4447973, 34.8658324], [135.4448764, 34.8658404], [135.4450402, 34.8658252], [135.4451188, 34.865816], [135.4451844, 34.8658205], [135.445253, 34.8658401], [135.4453181, 34.8658792], [135.4453714, 34.8659396], [135.445465, 34.8660901], [135.4457019, 34.8665377], [135.4457416, 34.8665891], [135.4457854, 34.866633], [135.4458421, 34.8666632], [135.445916, 34.8666858], [135.4459916, 34.8666958], [135.4460566, 34.866683], [135.4462231, 34.8666429], [135.4469024, 34.8664687], [135.4470684, 34.8664553], [135.4472138, 34.8664655], [135.447333, 34.8664919], [135.4474555, 34.8665411], [135.4476307, 34.8666337], [135.4476999, 34.8666825], [135.4477385, 34.8667402], [135.4477934, 34.8668588], [135.447831, 34.8669415], [135.4478813, 34.8670273], [135.4479457, 34.8670933], [135.4480681, 34.8671788], [135.4485329, 34.8674255], [135.4486239, 34.8674624], [135.4487225, 34.8674903], [135.4489568, 34.8675264], [135.4490197, 34.8675398], [135.4492042, 34.8676462], [135.4492785, 34.8677353], [135.4493279, 34.8678452], [135.4493946, 34.8681884], [135.4493784, 34.8683354], [135.449292, 34.8686596], [135.4492102, 34.8688462], [135.4491372, 34.868966], [135.4487978, 34.8693773], [135.448748, 34.8694977], [135.4487401, 34.8696165], [135.4487673, 34.8697086], [135.4488275, 34.8697907], [135.4489381, 34.8699149], [135.4490452, 34.8700006], [135.4492754, 34.8701217], [135.4494098, 34.8702105], [135.4495164, 34.8703135], [135.4497041, 34.8705646], [135.4499912, 34.870975], [135.45008, 34.8710532], [135.4502373, 34.8711484], [135.4503394, 34.8712508], [135.4504064, 34.8714633], [135.4505009, 34.8717296], [135.450579, 34.8718367], [135.4506075, 34.8719558], [135.4506243, 34.8720758], [135.4505511, 34.8722583], [135.4504963, 34.8724258], [135.4504932, 34.8725896], [135.4505222, 34.872787], [135.4505588, 34.8731645], [135.450609, 34.8733333], [135.4506563, 34.8734845], [135.450833, 34.8738282], [135.4508437, 34.8739145], [135.4508284, 34.874007], [135.4507446, 34.8741307], [135.4506103, 34.8743088], [135.450578, 34.8743833], [135.4505673, 34.8744515], [135.4505802, 34.8744874], [135.4505983, 34.8745233], [135.4506879, 34.8745683], [135.4507945, 34.8745937], [135.4509756, 34.8746323], [135.4512183, 34.8746531], [135.4515414, 34.8746369], [135.4517075, 34.8746144], [135.4520716, 34.8745344], [135.4526831, 34.8743978], [135.4531836, 34.8742635], [135.4533554, 34.8742239], [135.4534954, 34.8741996], [135.4536447, 34.8741841], [135.4537987, 34.8741792], [135.4539622, 34.8741854], [135.454125, 34.8742044], [135.4542838, 34.874229], [135.4544433, 34.8742659], [135.4545871, 34.8743027], [135.4547436, 34.8743578], [135.4549795, 34.8744751], [135.455202, 34.8746187], [135.4554106, 34.8747902], [135.4555723, 34.8749553], [135.4556911, 34.875094], [135.4557724, 34.875234], [135.4558322, 34.8753828], [135.4559197, 34.8756629], [135.4559397, 34.8758317], [135.4559422, 34.8760959], [135.4559211, 34.8763885], [135.4559177, 34.8766194], [135.4559404, 34.8767887], [135.4560096, 34.8769205], [135.456133, 34.8771029], [135.4562274, 34.8771915], [135.4563685, 34.8773053], [135.4565257, 34.8774207], [135.45675, 34.8775869], [135.4570654, 34.8778222], [135.4584818, 34.8788569], [135.4586745, 34.8790018], [135.4589276, 34.8792154], [135.4592292, 34.8795777], [135.4594167, 34.8798151], [135.459534, 34.8799936], [135.4596071, 34.8801622], [135.459648, 34.8803424], [135.4596546, 34.8805427], [135.4596133, 34.8812793], [135.4596182, 34.8814097], [135.4596392, 34.8815237], [135.4596748, 34.8816492], [135.4597322, 34.881785], [135.4598077, 34.8819306], [135.4599111, 34.8820741], [135.4602648, 34.8824559], [135.4603638, 34.8825753], [135.4604561, 34.8826909], [135.460518, 34.8828308], [135.4605676, 34.8830153], [135.4606375, 34.8834026], [135.4606659, 34.8835253], [135.4607136, 34.8836284], [135.4607864, 34.8837374], [135.4608511, 34.8838149], [135.4609145, 34.8838752], [135.4610528, 34.8839757], [135.4616781, 34.8843342], [135.4620747, 34.8845617], [135.4623195, 34.8846978], [135.4624738, 34.8847567], [135.4626106, 34.8847855], [135.4627286, 34.8847942], [135.4628684, 34.8847839], [135.4630203, 34.8847587], [135.4635057, 34.8846672], [135.4635874, 34.8846552], [135.4638214, 34.8846458], [135.4639541, 34.8846593], [135.4640717, 34.8846862], [135.4641805, 34.8847276], [135.4642989, 34.8848076], [135.4644167, 34.884912], [135.4645918, 34.8850672], [135.4646813, 34.8851465], [135.4647689, 34.8852216], [135.4651625, 34.8855595], [135.4653448, 34.8857061], [135.4656272, 34.8859051], [135.4662612, 34.8862305], [135.4664541, 34.886363], [135.4668215, 34.8866318], [135.4670917, 34.8868795], [135.4671824, 34.8869626], [135.467319, 34.8870883], [135.4674316, 34.8872284], [135.4675008, 34.8873919], [135.4679071, 34.8886348], [135.4679964, 34.8888115], [135.4680979, 34.8889547], [135.4682743, 34.8891242], [135.4684537, 34.8892451], [135.468568, 34.889323], [135.4686418, 34.8893808], [135.4688839, 34.8895765], [135.4693357, 34.8899736], [135.4696683, 34.8902855], [135.470064, 34.8907037], [135.4702676, 34.8908768], [135.4705205, 34.8910403], [135.4707858, 34.891181], [135.4709736, 34.8912738], [135.4719745, 34.8917149], [135.472316, 34.8918935], [135.4725071, 34.8920207], [135.4730474, 34.8924646], [135.4732491, 34.8926256], [135.4733147, 34.8927339], [135.4733479, 34.892861], [135.473346, 34.8930261], [135.4733034, 34.8933437], [135.4732695, 34.8936917], [135.473248, 34.89404], [135.4732554, 34.8941679], [135.4732849, 34.8942588], [135.4733597, 34.8943678], [135.4734667, 34.89447], [135.4735812, 34.894548], [135.4740927, 34.8948059], [135.4756913, 34.8955932], [135.4760301, 34.8957454], [135.4762294, 34.8957953], [135.4764528, 34.895809], [135.4767297, 34.8958037], [135.4780376, 34.8957257], [135.4782517, 34.8957491], [135.478416, 34.8957961], [135.4785867, 34.8958847], [135.4787187, 34.8960262], [135.4788018, 34.8961882], [135.4788295, 34.8963722], [135.4788581, 34.8968582], [135.478859, 34.8973056], [135.4787963, 34.8976992], [135.4786827, 34.8981754], [135.4785997, 34.8986319], [135.4785775, 34.8988393], [135.4786015, 34.8990081], [135.4786458, 34.8991792], [135.478691, 34.8992844], [135.478926, 34.8997562], [135.4790805, 34.9000376], [135.4792005, 34.9001935], [135.47935, 34.9003169], [135.4795097, 34.9004191], [135.4796832, 34.9004925], [135.4805102, 34.9008453], [135.4811714, 34.9011138], [135.4813188, 34.9012286], [135.4814348, 34.9013656], [135.481626, 34.901696], [135.4817907, 34.9020082], [135.4818544, 34.9022046], [135.4818689, 34.90237], [135.4818583, 34.9025547], [135.481823, 34.9027345], [135.4816052, 34.9034371], [135.481588, 34.9035648], [135.4815747, 34.9037233], [135.481664, 34.904783], [135.481655, 34.9053799], [135.4817137, 34.9059151], [135.4817542, 34.9063058], [135.4818286, 34.906551], [135.4819369, 34.9067255], [135.4821413, 34.906881], [135.4827345, 34.9071997], [135.4829931, 34.9074196], [135.4835567, 34.9079519], [135.4843468, 34.9090055], [135.4845055, 34.9091751], [135.4847252, 34.9093098], [135.4861743, 34.9100122], [135.4863386, 34.910103], [135.486466, 34.9101878], [135.4875524, 34.9110421], [135.4877471, 34.9111642], [135.4879723, 34.9112474], [135.4885981, 34.9113837], [135.4888417, 34.9114473], [135.489054, 34.9115305], [135.4891943, 34.9116335], [135.4893586, 34.9118227], [135.4896673, 34.9122835], [135.4897362, 34.9123923], [135.4898189, 34.9125381], [135.4901684, 34.9130596], [135.4902517, 34.9131883], [135.4907469, 34.9143219], [135.4908774, 34.9145604], [135.4910126, 34.9147454], [135.4912122, 34.9149703], [135.4920505, 34.9157671], [135.4922524, 34.9159646], [135.4924914, 34.9162041], [135.4925457, 34.9162563], [135.4929285, 34.9166241], [135.4931408, 34.9168723], [135.4932162, 34.9169809], [135.493327, 34.9171802], [135.4933903, 34.9173794], [135.4934353, 34.9175397], [135.4934566, 34.91767], [135.4934761, 34.9177533], [135.4935954, 34.9183171], [135.4936803, 34.9185979], [135.4938108, 34.9189165], [135.4939295, 34.9191867], [135.4939934, 34.9192938], [135.4940809, 34.9194265], [135.4941972, 34.9195763], [135.4945725, 34.9200013], [135.4949789, 34.9205728], [135.4950599, 34.9207633], [135.4951108, 34.9209452], [135.495129, 34.9211582], [135.4951134, 34.9214332], [135.4950682, 34.9216018], [135.4950181, 34.921704], [135.4949065, 34.9218991], [135.4947874, 34.9220588], [135.4946684, 34.9221897], [135.4944315, 34.922391], [135.4941515, 34.9226099], [135.4935149, 34.9231732], [135.4934073, 34.9233095], [135.4932798, 34.9235432], [135.4932227, 34.9237208], [135.4931993, 34.9238917], [135.4931793, 34.9242613], [135.4931271, 34.9244144], [135.4930165, 34.9246035], [135.4922621, 34.9253973], [135.4922101, 34.9254794], [135.4921711, 34.9255546], [135.4921494, 34.9256688], [135.4921538, 34.9258173], [135.4921922, 34.9259653], [135.492296, 34.9261232], [135.4925447, 34.9265355], [135.4925917, 34.9266832], [135.4926444, 34.9270385], [135.492687, 34.927446], [135.4927096, 34.9275374], [135.4928605, 34.9281644], [135.4929013, 34.9283985], [135.4928908, 34.9285796], [135.4928426, 34.9287455], [135.4927657, 34.9288665], [135.492699, 34.9289666], [135.492375, 34.9291478], [135.4915945, 34.9295785], [135.4914289, 34.929696], [135.4912892, 34.9298426], [135.490715, 34.930554], [135.4906216, 34.9307305], [135.4905129, 34.9309641], [135.4903928, 34.9314047], [135.4903787, 34.931729], [135.4903959, 34.9319792], [135.4904426, 34.9322184], [135.4905333, 34.932522], [135.4911743, 34.9345108], [135.4914948, 34.9354782], [135.4916488, 34.9357993], [135.4916735, 34.9358375], [135.4919105, 34.9362038], [135.4927862, 34.9375111], [135.4929731, 34.93779], [135.4934813, 34.938478], [135.4934991, 34.9385021], [135.4935669, 34.9385665], [135.4937083, 34.9387042], [135.4938767, 34.9388448], [135.4942196, 34.9390917], [135.4944757, 34.9392738], [135.4945355, 34.9393153], [135.4947004, 34.9394296], [135.495004, 34.9396375], [135.49524, 34.9398128], [135.495464, 34.9400225], [135.4956277, 34.9401869], [135.4957494, 34.9403377], [135.4959132, 34.9405663], [135.4961109, 34.9409312], [135.4962159, 34.9412003], [135.4964001, 34.9419102], [135.4965077, 34.9423185], [135.4965418, 34.942459], [135.4965447, 34.9424703], [135.4966014, 34.9426896], [135.4966747, 34.9430093], [135.496785, 34.9434475], [135.4968311, 34.9436739], [135.4968506, 34.9438226], [135.4969068, 34.9456117], [135.4969104, 34.9457275], [135.49693, 34.9465106], [135.4969521, 34.9467648], [135.4970093, 34.946966], [135.4973065, 34.948116], [135.4974708, 34.9487954], [135.4977658, 34.9496236], [135.4978806, 34.949915], [135.4979452, 34.950033], [135.4980726, 34.9501617], [135.4982258, 34.9503084], [135.4987279, 34.9506761], [135.5000293, 34.9516248], [135.5004086, 34.9518387], [135.5017687, 34.9525769], [135.5020819, 34.9527224], [135.5022882, 34.9527781], [135.5028129, 34.9529], [135.5040937, 34.9531828], [135.5043097, 34.9532145], [135.5044924, 34.9532206], [135.504665, 34.9531907], [135.5047287, 34.9531797], [135.5051958, 34.9530697], [135.5071146, 34.9526348], [135.5076204, 34.9525385], [135.5078699, 34.9524917], [135.5079749, 34.9524767], [135.5081016, 34.9524632], [135.5082008, 34.9524758], [135.5082877, 34.9524868], [135.5087472, 34.9526322], [135.5089283, 34.9526895], [135.5097536, 34.9529372], [135.5105878, 34.9532024], [135.5109478, 34.9533235], [135.5110881, 34.9533976], [135.5111252, 34.9534259], [135.5113225, 34.9535761], [135.5115071, 34.9537774], [135.5116326, 34.9539952], [135.5119871, 34.9550846], [135.5120757, 34.9553539], [135.512096, 34.9554946], [135.5120664, 34.9555808], [135.5119631, 34.9557563], [135.5114536, 34.9564729], [135.5113433, 34.9566611], [135.5112967, 34.9568411], [135.5113022, 34.9569833], [135.5113447, 34.9571482], [135.5115666, 34.9579477], [135.5118129, 34.9584451], [135.5120323, 34.9588159], [135.5121058, 34.9590048], [135.5121343, 34.959172], [135.5120996, 34.9593542], [135.5120058, 34.959503], [135.5118426, 34.9596886], [135.5113346, 34.9600029], [135.510841, 34.9602921], [135.5107226, 34.9603975], [135.5106369, 34.9605463], [135.5106002, 34.9607135], [135.5104227, 34.9614792], [135.5104003, 34.9616363], [135.510435, 34.9618136], [135.5105023, 34.9619105], [135.5105769, 34.9619796], [135.5106125, 34.9620125], [135.5109307, 34.9622031], [135.5111286, 34.9623402], [135.5113408, 34.9625525], [135.5120077, 34.9636552], [135.5124567, 34.9644295], [135.5124957, 34.9645096], [135.5126902, 34.9649416], [135.512834, 34.96521], [135.513139, 34.9656922], [135.5131604, 34.9657265], [135.5140829, 34.9671377], [135.514176, 34.9672388], [135.5143334, 34.9673375], [135.5148785, 34.9675778], [135.5151093, 34.9676917], [135.5152838, 34.9678111], [135.515467, 34.9679736], [135.5163173, 34.9690554], [135.5164564, 34.9692377], [135.5165048, 34.9693644], [135.5165295, 34.9694958], [135.516559, 34.970037], [135.5166109, 34.9702178], [135.5166495, 34.9703047], [135.5166996, 34.9703883], [135.5167831, 34.970494], [135.5171807, 34.970933], [135.5172687, 34.9710914], [135.5173235, 34.9712131], [135.5173654, 34.9713893], [135.517426, 34.9720063], [135.5174462, 34.9722347], [135.5174818, 34.9723979], [135.517511, 34.9725203], [135.5176134, 34.9726506], [135.5178533, 34.9729154], [135.5180691, 34.9731289], [135.5182985, 34.9733025], [135.5194426, 34.9740831], [135.5196122, 34.9741808], [135.5196662, 34.9742119], [135.5200917, 34.9744093], [135.5219655, 34.9753632], [135.5229462, 34.9759213], [135.5227791, 34.9761096], [135.5228784, 34.9762377], [135.5229249, 34.9763105], [135.5229811, 34.9764152], [135.5231859, 34.9769743], [135.5234715, 34.977408], [135.5235783, 34.977525], [135.5238769, 34.977726], [135.5239432, 34.9778146], [135.5239865, 34.9779624], [135.5239836, 34.9781373], [135.5239649, 34.9782579], [135.5239115, 34.9783548], [135.5237615, 34.9784824], [135.523659, 34.9785557], [135.523623, 34.9786361], [135.5236331, 34.9787188], [135.5236792, 34.978785], [135.5237586, 34.9788252], [135.5238437, 34.9788216], [135.5241668, 34.9787448], [135.5242793, 34.9787531], [135.5244481, 34.9788134], [135.5247582, 34.9789694], [135.5248837, 34.979058], [135.5250063, 34.9792188], [135.5251737, 34.9794906], [135.5259223, 34.9804763], [135.5260305, 34.9806016], [135.52612, 34.9806288], [135.526184, 34.9806241], [135.5262484, 34.9806194], [135.5263436, 34.9805579], [135.5264215, 34.9804775], [135.5265296, 34.9802329], [135.5266162, 34.9801454], [135.5267662, 34.9800851], [135.5269436, 34.9800556], [135.5273144, 34.9800284], [135.5274991, 34.9800766], [135.5276602, 34.9801803], [135.5278296, 34.9803884], [135.5279668, 34.9805932], [135.5280362, 34.9806452], [135.5283537, 34.9807363], [135.5286898, 34.9807892], [135.5288371, 34.9807522], [135.5289977, 34.9807511], [135.5291002, 34.980808], [135.5295782, 34.9814584], [135.530279, 34.9824257], [135.5304682, 34.9826115], [135.5306806, 34.9827508], [135.5310321, 34.9829144], [135.5312712, 34.9830638], [135.5314218, 34.9831915], [135.531827, 34.9834796], [135.5319864, 34.9835559], [135.5320737, 34.9835913], [135.5321372, 34.9836457], [135.5321639, 34.9837024], [135.532223, 34.9838921], [135.5322648, 34.983979], [135.5323521, 34.9840434], [135.5324783, 34.9840765], [135.532805, 34.9841308], [135.5332688, 34.9842407], [135.5333746, 34.9843073], [135.5334868, 34.9844369], [135.5335542, 34.9845873], [135.533545, 34.9847703], [135.5335215, 34.9849191], [135.5335391, 34.9849978], [135.5335989, 34.9850693], [135.5337172, 34.9851178], [135.5342387, 34.9852336], [135.5343591, 34.9852259], [135.5344377, 34.9851745], [135.5346152, 34.9849198], [135.5346786, 34.9848631], [135.5347731, 34.9848176], [135.5349729, 34.9847549], [135.5350358, 34.9847149], [135.5351046, 34.9846469], [135.5351612, 34.9845522], [135.5352991, 34.9842898], [135.5353768, 34.9841054], [135.5354402, 34.9840574], [135.5355084, 34.9840431], [135.5355654, 34.98406], [135.5356114, 34.984095], [135.5356304, 34.9841262], [135.5356289, 34.9841769], [135.5356051, 34.9842379], [135.5355322, 34.9843795], [135.5354228, 34.9845652], [135.5352849, 34.9847535], [135.5351295, 34.9849288], [135.535017, 34.9850327], [135.5348204, 34.9851782], [135.5347491, 34.9852457], [135.5347269, 34.9853028], [135.5347443, 34.9853496], [135.5347792, 34.985373], [135.5348315, 34.9853743], [135.5348854, 34.9853561], [135.534925, 34.9853236], [135.5352849, 34.9849613], [135.535353, 34.9849158], [135.5354275, 34.9848899], [135.5354973, 34.9848847], [135.5355781, 34.9848989], [135.535632, 34.9849249], [135.5356843, 34.9849769], [135.5357636, 34.9850886], [135.535827, 34.98516], [135.5358841, 34.9852093], [135.5359728, 34.9852522], [135.5360568, 34.9852743], [135.5361329, 34.985273], [135.53619, 34.9852561], [135.5362201, 34.9852171], [135.5362296, 34.9851691], [135.5362058, 34.9851132], [135.5361488, 34.9850613], [135.5360759, 34.9849983], [135.5360077, 34.9849139], [135.5359839, 34.9848386], [135.5359998, 34.9847619], [135.53606, 34.9846983], [135.5364341, 34.9843879], [135.5365324, 34.9842866], [135.5366053, 34.9841788], [135.5366687, 34.9839827], [135.5367939, 34.9837152], [135.5368272, 34.9836178], [135.5368415, 34.9835035], [135.5368383, 34.9833957], [135.5368019, 34.9831502], [135.536805, 34.9830502], [135.5368304, 34.9829982], [135.536889, 34.9829593], [135.5369515, 34.9829597], [135.5370062, 34.9829811], [135.5370421, 34.9830324], [135.5370649, 34.9831096], [135.5370734, 34.9832101], [135.5370682, 34.98338], [135.5370895, 34.9835484], [135.5371342, 34.9839952], [135.5371559, 34.9843887], [135.5371386, 34.9846381], [135.5370275, 34.9850766], [135.5369785, 34.9852479], [135.5367852, 34.9855079], [135.5366106, 34.9856557], [135.5361274, 34.9859405], [135.5358836, 34.986165], [135.5357288, 34.9864259], [135.5357035, 34.9865003], [135.5356809, 34.9866399], [135.5356946, 34.9869238], [135.535735, 34.9871176], [135.5359514, 34.9877321], [135.5359722, 34.9877927], [135.5362243, 34.9885292], [135.5362399, 34.988583], [135.5362838, 34.9887198], [135.5363537, 34.9889435], [135.5363731, 34.9890897], [135.5363602, 34.9894927], [135.5363068, 34.9913852], [135.5362884, 34.9923131], [135.5362833, 34.9925693], [135.5362682, 34.9933716], [135.5362715, 34.9937286], [135.5363103, 34.9939129], [135.5363306, 34.9939761], [135.5363926, 34.9941179], [135.5366138, 34.9944234], [135.5366442, 34.9944653], [135.5372615, 34.9952359], [135.5374345, 34.9954065], [135.5378915, 34.9958586], [135.5381394, 34.9961034], [135.5383056, 34.9962287], [135.5385311, 34.9963549], [135.5387116, 34.9964259], [135.5393769, 34.9965977], [135.540413, 34.9968651], [135.5419369, 34.9972645], [135.5422689, 34.9973414], [135.542448, 34.9973673], [135.5428764, 34.9973948], [135.544181, 34.9974007], [135.5457248, 34.9974094], [135.5459294, 34.9974102], [135.5461368, 34.9974135], [135.5475625, 34.9974365], [135.549106, 34.9974846], [135.5501424, 34.9975004], [135.550407, 34.9975233], [135.5506462, 34.9975759], [135.5509414, 34.9976729], [135.5512311, 34.9978634], [135.5514194, 34.9980721], [135.5522096, 34.9991023], [135.5523388, 34.9992719], [135.5531749, 35.0003706], [135.5538825, 35.0012977], [135.5543373, 35.0019117], [135.5545069, 35.0021343], [135.5555189, 35.0034626], [135.5556501, 35.0036348], [135.5560464, 35.0041351], [135.5564655, 35.0046612], [135.5569032, 35.0051463], [135.5572895, 35.0055189], [135.5577749, 35.0059647], [135.5581897, 35.006312], [135.558218, 35.0063364], [135.5584568, 35.0065399], [135.5584855, 35.0065658], [135.5592896, 35.0072616], [135.5597992, 35.0076986], [135.5603103, 35.008128], [135.5607468, 35.008478], [135.5610115, 35.0087285], [135.5612323, 35.0089112], [135.5620444, 35.0096393], [135.5622191, 35.0097852], [135.5623427, 35.0098896], [135.5626258, 35.0101127], [135.5635732, 35.0109338], [135.5641632, 35.0114312], [135.5648686, 35.0120509], [135.5649051, 35.0120783], [135.5650968, 35.0122221], [135.5653301, 35.0123675], [135.5656034, 35.0125029], [135.5659135, 35.0126432], [135.5661036, 35.0127247], [135.5662085, 35.0127597], [135.5663127, 35.0127893], [135.5665456, 35.0128389], [135.5667428, 35.0128767], [135.5677997, 35.0130832], [135.5683198, 35.0131946], [135.5692139, 35.0134078], [135.5698515, 35.013531], [135.5704557, 35.0136415], [135.5705619, 35.0136623], [135.5709026, 35.013724], [135.571083, 35.0137564], [135.5712698, 35.013781]], [[135.4263365, 34.8374032], [135.4254908, 34.8350036], [135.4251299, 34.8340866], [135.4249677, 34.8336742], [135.4247918, 34.8332556], [135.424662, 34.8329361], [135.4245858, 34.8327483], [135.4244485, 34.8322833], [135.424397, 34.8319029], [135.4244056, 34.8315506], [135.4244142, 34.8310363], [135.4244313, 34.8308549], [135.4244597, 34.8305528], [135.4246448, 34.8296796], [135.4246335, 34.8292799], [135.4246044, 34.8291437], [135.42455, 34.828824], [135.4244815, 34.8284775], [135.4244272, 34.8282083], [135.4243104, 34.8276904], [135.4242505, 34.8273967], [135.4242283, 34.8272853], [135.4242102, 34.8271954], [135.4241216, 34.8267521], [135.424083, 34.8265592], [135.4240328, 34.8263037], [135.4240042, 34.8261891], [135.4239624, 34.826048], [135.4239385, 34.8259468], [135.4237656, 34.8253496], [135.4237442, 34.8252282], [135.4237458, 34.8251581], [135.4237489, 34.8250704], [135.4237616, 34.8249993], [135.4237962, 34.8248742], [135.4238441, 34.824737], [135.4238986, 34.8245734], [135.4240775, 34.8240364], [135.4242088, 34.8236425], [135.4242634, 34.8234785], [135.4243719, 34.8231753], [135.4244399, 34.8230398], [135.4245041, 34.822977], [135.4245896, 34.8228852], [135.4246599, 34.8228325], [135.4246858, 34.8228113], [135.424935, 34.8226567], [135.4250587, 34.8225765], [135.4251521, 34.8225008], [135.4252507, 34.8224291], [135.4255921, 34.8222425], [135.4256313, 34.8222196], [135.4257635, 34.8221476], [135.426568, 34.8217506], [135.4267266, 34.8216726], [135.4269183, 34.8215594], [135.4274723, 34.8212895], [135.4280156, 34.8210018], [135.428389, 34.8207881], [135.4288825, 34.8205056], [135.429782, 34.8199892], [135.4305144, 34.8195762], [135.4308353, 34.8193854], [135.431628, 34.818917], [135.432101, 34.8186474], [135.4324472, 34.8184431], [135.4327319, 34.8182752], [135.4331175, 34.8180478], [135.4335156, 34.8178144], [135.433891, 34.8176002], [135.4340068, 34.8175286], [135.4341554, 34.8174422], [135.4342372, 34.8173934], [135.4351059, 34.8168921], [135.4352184, 34.8168258], [135.4353642, 34.816739], [135.4355067, 34.8166565], [135.4360637, 34.8163426], [135.4363257, 34.8161827], [135.4364678, 34.8160946], [135.4365273, 34.8160515], [135.4365956, 34.8160021], [135.4369614, 34.8157412], [135.4372207, 34.8155585], [135.4373608, 34.8154607], [135.4374901, 34.8153693], [135.4375883, 34.8152991], [135.4376755, 34.8152372], [135.4378691, 34.8150987], [135.4379515, 34.8150401], [135.4380318, 34.8149827], [135.4381982, 34.8148639], [135.4383316, 34.8147534], [135.4385436, 34.8146126], [135.4386183, 34.8145642], [135.4386827, 34.8145226], [135.4388278, 34.814421], [135.4394353, 34.8139894], [135.439665, 34.8138313], [135.4401522, 34.8134774], [135.4402324, 34.8134193], [135.4403075, 34.8133679], [135.4404598, 34.813265], [135.441121, 34.8127969], [135.4412469, 34.8127078], [135.4413739, 34.8126183], [135.4419025, 34.8122445], [135.4423014, 34.811959], [135.4423347, 34.8119355], [135.4423669, 34.8119129], [135.4429322, 34.8115146], [135.4431407, 34.8113665], [135.443315, 34.8112379], [135.4433376, 34.8112218], [135.4435692, 34.8110586], [135.4437432, 34.8109329], [135.4439882, 34.8107697], [135.4440521, 34.8107277], [135.444072, 34.8107139], [135.4443137, 34.8105377], [135.4443956, 34.810478], [135.444469, 34.8104179], [135.4447829, 34.8101985], [135.4449397, 34.8100874], [135.4449605, 34.8100722], [135.4452707, 34.8098576], [135.4456429, 34.8095903], [135.4457731, 34.8094947], [135.4458876, 34.8093996], [135.4463806, 34.808986], [135.4468339, 34.8086017], [135.4469124, 34.8085271], [135.4469663, 34.8084634], [135.4470185, 34.8083846], [135.4470708, 34.8082872], [135.4471121, 34.8081781], [135.4471361, 34.8080646], [135.4472168, 34.8073707], [135.4472387, 34.8071601], [135.4472497, 34.8070232], [135.4472615, 34.8069609], [135.447268, 34.8069267], [135.4473891, 34.806928], [135.4474223, 34.806929], [135.4475718, 34.8069343], [135.4476949, 34.8069561], [135.4478028, 34.8069959], [135.4478921, 34.8070493], [135.4479796, 34.8071135], [135.4480559, 34.8071914], [135.4481046, 34.8072583], [135.4481515, 34.807359], [135.4481641, 34.8074358], [135.4481783, 34.8075218], [135.4481886, 34.8075778], [135.4482072, 34.8076786], [135.4484527, 34.8089356], [135.4485037, 34.809116], [135.4485888, 34.809312], [135.4487672, 34.8096167], [135.4488875, 34.809732], [135.44909, 34.8098637], [135.4492279, 34.8099482], [135.4494126, 34.8100356], [135.4497794, 34.8101752], [135.4504273, 34.8104], [135.4510258, 34.8106096], [135.451333, 34.8107023], [135.4518013, 34.8108535], [135.4520932, 34.8109478], [135.4524997, 34.8111196], [135.4525836, 34.8111472], [135.4531697, 34.8113587], [135.4538187, 34.8115879], [135.4539544, 34.8116829], [135.4537775, 34.8116749], [135.453108, 34.811439], [135.4526547, 34.8112852], [135.4524307, 34.8112431], [135.4518951, 34.8111173], [135.4512247, 34.8110088], [135.4506326, 34.8109438], [135.4501918, 34.8108757], [135.4499859, 34.8108344], [135.4497622, 34.8107489], [135.4494288, 34.8105633], [135.4492893, 34.8104361], [135.4491949, 34.8103426], [135.4491174, 34.8102428], [135.448939, 34.8099577], [135.4488427, 34.8097535], [135.4487672, 34.8096167]], [[135.4539544, 34.8116829], [135.4541023, 34.8117274], [135.4556292, 34.8122602], [135.4561189, 34.8124361], [135.4561294, 34.8124398], [135.4564658, 34.8125585], [135.4568529, 34.8127028], [135.4570038, 34.81276], [135.4571556, 34.8128166], [135.4572167, 34.8128365], [135.457754, 34.8130226], [135.4580229, 34.813117], [135.4589275, 34.8134347], [135.4604247, 34.8139725], [135.4604832, 34.8139964], [135.4607475, 34.8141056], [135.4608984, 34.8141991], [135.46134, 34.8144695], [135.461594, 34.814625], [135.4619262, 34.8148432], [135.4621332, 34.8149791], [135.4621968, 34.8150209], [135.4622809, 34.8150789], [135.4624681, 34.815194], [135.4627795, 34.8154008], [135.4629353, 34.8154973], [135.4630254, 34.8155545], [135.4631054, 34.8156118], [135.4633411, 34.8157636], [135.4636466, 34.8159602], [135.4644565, 34.8164743], [135.4646797, 34.816612], [135.4647541, 34.816666], [135.4648157, 34.8166994], [135.465368, 34.8170636], [135.4664359, 34.8177585], [135.4665311, 34.8178171], [135.4681841, 34.8188988], [135.4684109, 34.819043], [135.4686478, 34.8191977], [135.4687887, 34.8192952], [135.4690886, 34.8194814], [135.4704479, 34.8204631], [135.4712202, 34.8210268], [135.4716467, 34.8213124], [135.4718711, 34.8214757], [135.4722786, 34.8217757], [135.4723744, 34.821862], [135.472523, 34.821959], [135.4732264, 34.8224422], [135.4733523, 34.8225274], [135.4735638, 34.8226812], [135.4740851, 34.8230602], [135.4753127, 34.8238941], [135.4754048, 34.8239595], [135.4755015, 34.8240297], [135.4761615, 34.824493], [135.4764188, 34.8246724], [135.476806, 34.8249437], [135.4769214, 34.8250206], [135.4778684, 34.8256784], [135.4779759, 34.8257539], [135.4780969, 34.8258282], [135.4795714, 34.8268437], [135.4797091, 34.8269439], [135.4800706, 34.8271933], [135.4803776, 34.8273901], [135.4806894, 34.8275718], [135.4810435, 34.8277768], [135.4814301, 34.8279631], [135.4820664, 34.8282511], [135.4821855, 34.8283004]], [[135.4965121, 34.7952627], [135.4964576, 34.7953919], [135.4964003, 34.7955251], [135.4961938, 34.7959847], [135.4957201, 34.7969525]], [[135.4885343, 34.829946], [135.4885183, 34.8298197], [135.4885744, 34.8284189], [135.4885799, 34.8282115], [135.4885995, 34.8275614], [135.4886158, 34.8269717], [135.4886163, 34.8269521], [135.4886212, 34.8268189], [135.4886313, 34.8265269], [135.4886419, 34.8260473], [135.4886132, 34.8258806], [135.4886096, 34.8257951], [135.4886098, 34.8257026], [135.4886207, 34.8255035], [135.4886576, 34.8251134], [135.4886646, 34.8250222], [135.4888331, 34.8242286], [135.4890003, 34.8237039], [135.4892068, 34.8231442], [135.4893887, 34.8227366], [135.4894275, 34.8226472], [135.4894647, 34.8225572], [135.4895528, 34.8223595], [135.4901121, 34.8210791], [135.4907517, 34.8195954], [135.4907865, 34.8195038], [135.4908214, 34.8194214], [135.4908739, 34.8193029], [135.4910418, 34.8189235], [135.4911158, 34.8187491]], [[135.4982592, 34.7347744], [135.4982621, 34.7349011], [135.4982574, 34.7355922], [135.4982565, 34.7377414], [135.4982547, 34.7378576], [135.4982563, 34.7379758], [135.4982806, 34.7387819], [135.4982845, 34.7390523], [135.4982878, 34.7396521], [135.4982905, 34.7398076], [135.498291, 34.7398672], [135.4982916, 34.7399171], [135.4983088, 34.7405788], [135.4983004, 34.7412166], [135.4982961, 34.741541], [135.4982895, 34.7416381]], [[135.4987082, 34.741654], [135.4987186, 34.7415517], [135.4987436, 34.7406013], [135.4987553, 34.7399164], [135.4987554, 34.7398833], [135.4987539, 34.7398153], [135.4987567, 34.7389378], [135.4987657, 34.7380323], [135.4987651, 34.7379269], [135.4987638, 34.7377817], [135.4987686, 34.7369034], [135.4987734, 34.7366018], [135.4987717, 34.7357442], [135.4987717, 34.7350038], [135.4987776, 34.7348798], [135.4987875, 34.7347414], [135.4987992, 34.7345955], [135.4988076, 34.7340329]], [[135.4982355, 34.7337086], [135.4982344, 34.733845]], [[135.4984125, 34.7281092], [135.4984085, 34.7282314], [135.4983718, 34.7296238], [135.4983685, 34.7297456]], [[135.4987541, 34.7281257], [135.4987519, 34.7282347], [135.4987522, 34.7286472], [135.4987453, 34.7289716], [135.4987787, 34.7291163], [135.4987764, 34.7293836], [135.4987795, 34.729532], [135.4987954, 34.7296359], [135.4988264, 34.7297676], [135.4988542, 34.7298598], [135.4988757, 34.7299735], [135.498886, 34.7300852], [135.4988899, 34.730457], [135.4988541, 34.7305499], [135.4988491, 34.7312331], [135.498843, 34.7319997]], [[135.4987625, 34.7269719], [135.4987649, 34.7268171], [135.4987679, 34.7264344], [135.4987687, 34.7262735], [135.4987696, 34.7256882], [135.4987693, 34.7256552], [135.4987714, 34.7252643], [135.4988214, 34.7251555]], [[135.4984946, 34.7251532], [135.4984629, 34.7252652], [135.4984567, 34.7256579], [135.4984556, 34.7256904], [135.4984507, 34.7262571], [135.4984448, 34.7269877], [135.4984444, 34.7270727]], [[135.4969068, 34.753563], [135.496902, 34.7530777], [135.4969188, 34.752457], [135.49694, 34.7514165]], [[135.4958311, 34.7974047], [135.4966998, 34.7956148], [135.4969891, 34.7949827], [135.4971622, 34.7945391], [135.4973283, 34.794041], [135.4973982, 34.7938306], [135.4974232, 34.7937483], [135.4974567, 34.7936209], [135.4975098, 34.7933957], [135.4975535, 34.7931844], [135.4975902, 34.7929808], [135.4976021, 34.7929024], [135.4976087, 34.7928596], [135.4976203, 34.7927831], [135.4976276, 34.7927352], [135.4976459, 34.7926066], [135.4976613, 34.7924774], [135.4976764, 34.7923251], [135.4976836, 34.7922326], [135.4976923, 34.7921014], [135.497699, 34.7919786], [135.4977024, 34.7918986], [135.4977068, 34.7917081], [135.4977077, 34.7914383], [135.4977071, 34.7913868], [135.4977045, 34.7913285], [135.4977005, 34.7912333], [135.4976772, 34.7905555], [135.4976612, 34.7903439], [135.497653, 34.7900788], [135.4976379, 34.7896564], [135.4975899, 34.7885269], [135.4975039, 34.7862715], [135.4974987, 34.7861433], [135.4974975, 34.7860536], [135.4974916, 34.7859369], [135.4974801, 34.7856212], [135.4974798, 34.7854884], [135.4974732, 34.7852268], [135.4974275, 34.7840473], [135.4974026, 34.7834677], [135.4974009, 34.7834194], [135.4973868, 34.783009], [135.4973767, 34.7827558], [135.4973398, 34.7818164], [135.4973135, 34.7814518], [135.4972765, 34.7811447], [135.4972357, 34.7807982], [135.4971874, 34.7804445], [135.4971542, 34.7802581], [135.4971146, 34.7800632], [135.497091, 34.7799519], [135.4969724, 34.7794887], [135.4968235, 34.7789864], [135.4967767, 34.7788268], [135.496736, 34.7786972], [135.4965833, 34.7783154], [135.4965322, 34.7781831], [135.4959203, 34.7766132], [135.4956882, 34.77591], [135.4956292, 34.7756518], [135.4955929, 34.7754576], [135.4955486, 34.7752207], [135.4955002, 34.7748091], [135.4954487, 34.7743718], [135.4954525, 34.7736706], [135.4954914, 34.7731553], [135.4955914, 34.7725375], [135.4957106, 34.7720496], [135.4959394, 34.7713716], [135.4960155, 34.7711806], [135.4962293, 34.7707235], [135.4966031, 34.7699632], [135.4966275, 34.7699039], [135.4966515, 34.7698465], [135.4968916, 34.7692228], [135.4970167, 34.7688311], [135.4971174, 34.7683552], [135.4973809, 34.767042], [135.4974099, 34.766887], [135.4975416, 34.7661941], [135.4975658, 34.7660661], [135.4975885, 34.7659398], [135.4977148, 34.7652944], [135.4977371, 34.7649955], [135.4977412, 34.7648806], [135.4977451, 34.7647758], [135.4977421, 34.7645003], [135.4977308, 34.7643064], [135.4977259, 34.7642475], [135.4977197, 34.7641687], [135.4975464, 34.762079], [135.4975447, 34.7620048], [135.4973928, 34.7599143], [135.4973866, 34.7598239], [135.4973805, 34.759751], [135.4972634, 34.7581406], [135.4972182, 34.757659], [135.4972096, 34.757562], [135.4971933, 34.7574494], [135.4970957, 34.7561849], [135.4970863, 34.7560946], [135.4970764, 34.7560185], [135.4969827, 34.7546979], [135.4969756, 34.7545978]], [[135.4957695, 34.7975308], [135.4956404, 34.7978011], [135.4955938, 34.7978942], [135.4955837, 34.7979131], [135.4955641, 34.7979476], [135.4955126, 34.798039], [135.4954712, 34.7981124], [135.4953202, 34.7984283], [135.4952713, 34.7985641], [135.4948967, 34.7993459], [135.4942477, 34.8006901], [135.4941332, 34.8009289], [135.493849, 34.8015145], [135.4935739, 34.8020853], [135.493509, 34.8022347], [135.4934406, 34.8024035], [135.4933756, 34.8025775], [135.4933181, 34.8027491], [135.4932626, 34.8029266], [135.4932166, 34.8030965], [135.4931731, 34.8032756], [135.493154, 34.8033645], [135.4931264, 34.8035007], [135.4931041, 34.8036319], [135.4930909, 34.8037202], [135.4930725, 34.8038566], [135.4930439, 34.8039637], [135.4930305, 34.8041314], [135.4930182, 34.8043124], [135.4930134, 34.8044891], [135.4930148, 34.8045556], [135.4930259, 34.8046822], [135.4930358, 34.8048185], [135.4930522, 34.8052303], [135.4930621, 34.8052984], [135.4930725, 34.8053946], [135.4930812, 34.8054772], [135.4930886, 34.805567], [135.4931039, 34.805688], [135.4932042, 34.8064765], [135.4932605, 34.8069683], [135.4933414, 34.8077104], [135.4934379, 34.8087416], [135.4934659, 34.80887], [135.4935224, 34.8096405], [135.4935405, 34.8097084], [135.4935673, 34.809998], [135.4936217, 34.8104984], [135.4936619, 34.8107456], [135.4936766, 34.8108689], [135.4936895, 34.8109908], [135.4937136, 34.8114388], [135.4937165, 34.8116757], [135.4937176, 34.8117685], [135.4937162, 34.8119073], [135.4936952, 34.8123212], [135.4936894, 34.8123917], [135.4936791, 34.8124622], [135.4936671, 34.8125387], [135.4936496, 34.8126626], [135.4936136, 34.8129627], [135.4935622, 34.8132609], [135.4935519, 34.8134047], [135.4935419, 34.8134972], [135.4935211, 34.8135914], [135.4934325, 34.8139795], [135.4933206, 34.8143693], [135.4932053, 34.8147442], [135.4930316, 34.8151868], [135.4929692, 34.8153492], [135.4929014, 34.8155243], [135.4928163, 34.8157428], [135.4927195, 34.8160016], [135.4926349, 34.8162169], [135.4925935, 34.8163198], [135.492548, 34.8164325], [135.4924626, 34.8166454], [135.4924355, 34.8166839], [135.4923865, 34.8168114], [135.4923315, 34.8169396], [135.492238, 34.8171921], [135.4921086, 34.817489], [135.492024, 34.8176719], [135.4920153, 34.8177018], [135.4920016, 34.8177626], [135.4919808, 34.8178309], [135.4918752, 34.8180768], [135.4918018, 34.8182372], [135.4917005, 34.8184601], [135.4915204, 34.818896], [135.491328, 34.8193418], [135.4912406, 34.8195393], [135.4912027, 34.8196239], [135.4911641, 34.819718], [135.4908573, 34.820414], [135.4908297, 34.8205109], [135.490802, 34.8206442], [135.4907553, 34.8207683], [135.4907441, 34.820794], [135.4902989, 34.8218224], [135.490192, 34.8220687], [135.4899202, 34.8227018], [135.4898376, 34.8227698], [135.4898065, 34.8228497], [135.4896941, 34.8231174], [135.4896768, 34.8231622], [135.4896556, 34.8232118], [135.4896224, 34.8232622], [135.48956, 34.8233411], [135.48954, 34.8233718], [135.4895256, 34.8234013], [135.4895139, 34.8234327], [135.4894171, 34.8236881], [135.4893362, 34.8239362], [135.4892817, 34.8241254], [135.4892291, 34.8243198], [135.4891592, 34.8246001], [135.4891233, 34.8247954], [135.4890501, 34.8251012], [135.4890326, 34.8252892], [135.4890169, 34.8254452], [135.4890052, 34.8254957], [135.4889801, 34.8255525], [135.4889619, 34.8262152], [135.4889671, 34.8263871], [135.4889622, 34.8265611], [135.4889598, 34.826656], [135.4889532, 34.8267168], [135.48894, 34.8268039], [135.4889354, 34.8268614], [135.4889302, 34.8269833], [135.488904, 34.8274877], [135.4888984, 34.827586], [135.4888978, 34.8276689], [135.488894, 34.8277784], [135.4888954, 34.8280779], [135.4888916, 34.8284783], [135.4889034, 34.8286981], [135.4888969, 34.8294777], [135.4888833, 34.8298872], [135.4888843, 34.8300398], [135.4888647, 34.8301533], [135.4888448, 34.8304884], [135.4888174, 34.8309559], [135.488803, 34.8315252], [135.4887999, 34.8316108], [135.4887848, 34.8320771], [135.4887627, 34.8324388], [135.4887412, 34.8326921], [135.4887168, 34.8328198], [135.4887116, 34.8328568], [135.488704, 34.8329039], [135.4886922, 34.8329637], [135.4886807, 34.8330732], [135.4886729, 34.8331824], [135.4886651, 34.8332543], [135.4886571, 34.8333177]], [[135.4929572, 34.8078533], [135.4929183, 34.807429], [135.492845, 34.8069287], [135.4927988, 34.8064476], [135.4927096, 34.8057213], [135.492664, 34.8053293], [135.492644, 34.8049855], [135.492644, 34.8048793], [135.4926393, 34.8047664], [135.49264, 34.8046618], [135.4926447, 34.8044455], [135.492646, 34.8043601], [135.492648, 34.8042813], [135.4926494, 34.8042098], [135.4926621, 34.8040407], [135.4926741, 34.8038838], [135.4926992, 34.8035718], [135.4928281, 34.8029913], [135.492879, 34.8028129], [135.4929467, 34.8025967], [135.4930266, 34.8023762], [135.4930923, 34.8022077], [135.4931855, 34.8019898], [135.4933162, 34.8017172], [135.4935415, 34.8012461], [135.4935729, 34.8011447], [135.4943639, 34.7995059], [135.4944009, 34.7994354], [135.4944585, 34.7993245], [135.4945638, 34.7991279], [135.4945983, 34.7990576], [135.4946875, 34.7988731], [135.4948088, 34.7986237], [135.4951929, 34.7978238], [135.4952442, 34.7977356], [135.4952976, 34.7976403], [135.4953615, 34.7975216], [135.4954167, 34.7974052], [135.4956374, 34.7969157], [135.4961041, 34.7959554], [135.4963246, 34.7954864], [135.4965733, 34.7948924], [135.4967277, 34.7944521], [135.4968764, 34.793976], [135.4969837, 34.7935597], [135.4971314, 34.7928581], [135.4971375, 34.7928107], [135.4971479, 34.7927349], [135.4971545, 34.7926897], [135.497245, 34.7919476], [135.4972722, 34.7915258], [135.4972767, 34.7913135], [135.497238, 34.7896541], [135.4972313, 34.7894827], [135.4971927, 34.7884981], [135.4971659, 34.7879264], [135.4971221, 34.787293], [135.4971074, 34.7862808], [135.4971009, 34.7861549], [135.4970989, 34.78606], [135.4970975, 34.7859409], [135.4970891, 34.7855068], [135.497086, 34.7854282], [135.4970292, 34.7846463], [135.4969991, 34.784038], [135.4969938, 34.7834556], [135.496964, 34.7827626], [135.496928, 34.7818323], [135.4969108, 34.7815671], [135.4968814, 34.7811844], [135.4968624, 34.7810602], [135.4967488, 34.7803172], [135.4966471, 34.779875], [135.4965215, 34.7794029], [135.4964417, 34.7791032], [135.4963949, 34.7789469], [135.4963567, 34.7788148], [135.4962016, 34.7784001], [135.4961072, 34.7781662], [135.4959204, 34.777691], [135.4958887, 34.7776134], [135.4957708, 34.7773303], [135.4955254, 34.7767248], [135.4952992, 34.7759755], [135.4951584, 34.7753414], [135.4951049, 34.7749883], [135.4950592, 34.774401], [135.4950454, 34.7738035], [135.4950593, 34.7734505], [135.4950995, 34.7730746], [135.4952011, 34.7724859], [135.4953311, 34.7719387], [135.4955641, 34.7712187], [135.4958658, 34.7705079], [135.496218, 34.7698303], [135.4962484, 34.7697688], [135.4962729, 34.7697181], [135.4964689, 34.769289], [135.4965828, 34.7689889], [135.4967066, 34.7686162], [135.4967833, 34.768317], [135.4968502, 34.7679992], [135.4969489, 34.7674791], [135.4971228, 34.7665891], [135.4971569, 34.7664219], [135.4972803, 34.7658164], [135.497313, 34.7655934], [135.4973465, 34.7649198], [135.497338, 34.7647312], [135.4973023, 34.7643204], [135.4972978, 34.7642704], [135.4972923, 34.7641839], [135.4971394, 34.762057], [135.4971339, 34.7619759], [135.4970842, 34.7613751], [135.4969835, 34.7601589], [135.4969744, 34.7599248], [135.4969649, 34.7598385], [135.4969577, 34.7597679], [135.4968865, 34.7588689], [135.4968689, 34.7586008], [135.4968, 34.7576734], [135.4967936, 34.7575735], [135.4967858, 34.7574594], [135.4967654, 34.7571159], [135.4967176, 34.7561976], [135.4967067, 34.7561069], [135.4966953, 34.756027], [135.496599, 34.7547075], [135.4965918, 34.7546093], [135.4965494, 34.7540452], [135.496531, 34.7535351], [135.4965225, 34.753043], [135.4965453, 34.7523948], [135.4966901, 34.7513811]], [[135.4930395, 34.8089155], [135.4930805, 34.8092239], [135.4931033, 34.8093885], [135.4931223, 34.8095098], [135.4932067, 34.8102245], [135.4932696, 34.8108673], [135.4933101, 34.8113883], [135.4933233, 34.8117377], [135.493328, 34.8118571], [135.4933258, 34.8119582], [135.493305, 34.8123056], [135.493295, 34.8124286], [135.4932856, 34.8125087], [135.4932752, 34.8126413], [135.4932308, 34.8130139], [135.4931892, 34.8131746], [135.4931563, 34.8133381], [135.4931329, 34.81347], [135.49312, 34.8135256], [135.4930416, 34.8138635], [135.4930095, 34.8139751], [135.4929826, 34.8140819], [135.4929317, 34.8142597], [135.492892, 34.8143869], [135.4928358, 34.814563], [135.4927914, 34.8146894], [135.4927493, 34.8148124], [135.4927171, 34.8148972], [135.4926325, 34.8151081], [135.4922931, 34.8159672], [135.4922122, 34.8161726], [135.4921543, 34.8163238], [135.4921119, 34.8164277], [135.4919868, 34.8167344], [135.4918494, 34.8170745], [135.4918145, 34.8171604], [135.4917737, 34.8172566], [135.4917448, 34.8173288], [135.4917287, 34.817363], [135.4916804, 34.8174456], [135.4916053, 34.8175667], [135.4915792, 34.8176173], [135.4914907, 34.8178111], [135.4914237, 34.8179523], [135.4913586, 34.8181089], [135.4912017, 34.8184739], [135.4911648, 34.8185609]], [[135.4885935, 34.8347622], [135.488637, 34.8337665], [135.4886445, 34.8336629]], [[135.488479, 34.8346871], [135.4884781, 34.8347293], [135.4884806, 34.8347774], [135.4884817, 34.8348196], [135.4884855, 34.8348534], [135.4884861, 34.8348777], [135.4884829, 34.8349349], [135.4884794, 34.8349977], [135.4884694, 34.8352753], [135.4884641, 34.8353147], [135.4884499, 34.83542]], [[135.4883606, 34.8359098], [135.4882844, 34.8362237], [135.4882218, 34.836578], [135.4882054, 34.8367538], [135.4881835, 34.8372781], [135.4881552, 34.8380096], [135.4881329, 34.8384214], [135.4881124, 34.8385284], [135.4881329, 34.8384214], [135.4881552, 34.8380096], [135.4881835, 34.8372781], [135.4882054, 34.8367538], [135.4882218, 34.836578], [135.4882844, 34.8362237], [135.4883606, 34.8359098], [135.4883856, 34.835821], [135.4884202, 34.8356442], [135.488435, 34.8355313], [135.4884389, 34.8355018], [135.4884499, 34.83542], [135.4884641, 34.8353147], [135.4884694, 34.8352753], [135.4884794, 34.8349977], [135.4884829, 34.8349349], [135.4884861, 34.8348777], [135.4884855, 34.8348534], [135.4884817, 34.8348196], [135.4884806, 34.8347774], [135.4884781, 34.8347293], [135.488479, 34.8346871], [135.4885237, 34.8337635], [135.4885333, 34.8336513], [135.4885399, 34.8335784], [135.4885591, 34.8328631], [135.4886073, 34.8317806], [135.4886418, 34.830696], [135.4887095, 34.8283049], [135.4887475, 34.8269651], [135.4887503, 34.8268364], [135.4887698, 34.8262261], [135.4887962, 34.8256067], [135.4888219, 34.8252767], [135.4888594, 34.8249354], [135.4889198, 34.8246073], [135.4889888, 34.8242778], [135.4890252, 34.8241576], [135.4891164, 34.8238444], [135.4893676, 34.8231764], [135.4909737, 34.8194712], [135.4918802, 34.8173887], [135.4919925, 34.8171155], [135.4920637, 34.8169411], [135.4921605, 34.816698], [135.4922571, 34.8164469], [135.4923289, 34.8162713], [135.4923912, 34.81611], [135.4924442, 34.8159839], [135.4925468, 34.8157197], [135.4926688, 34.8154169], [135.492789, 34.8151191], [135.4928559, 34.8149517], [135.4929478, 34.8146935], [135.4930349, 34.8144315], [135.493087, 34.8142683], [135.4931617, 34.8139933], [135.493222, 34.8137725], [135.4932683, 34.8135567], [135.4932821, 34.8134918], [135.4933062, 34.8133684], [135.493337, 34.8131961], [135.4933656, 34.8130185], [135.4933783, 34.8129277], [135.4933957, 34.8127947], [135.4934169, 34.8126107], [135.4934292, 34.8124779], [135.4934406, 34.8123411], [135.4934483, 34.8122075], [135.4934551, 34.812072], [135.4934597, 34.8119397], [135.4934627, 34.8117581], [135.4934634, 34.8116226], [135.4934596, 34.8114729], [135.4934262, 34.8109445], [135.4934272, 34.8107985], [135.4933843, 34.8103734], [135.4933394, 34.8099484], [135.4932837, 34.8094496], [135.4932126, 34.8089486], [135.493, 34.8069447], [135.4929649, 34.8064669], [135.4928823, 34.8057101], [135.4928365, 34.8052997], [135.4928022, 34.804979], [135.4927725, 34.8046722], [135.4927634, 34.8045633], [135.4927574, 34.8044802], [135.4927567, 34.8043788], [135.4927553, 34.8042885], [135.4927576, 34.8042098], [135.492762, 34.8041228], [135.4927678, 34.8040347], [135.4927826, 34.8038908], [135.4927943, 34.8037811], [135.4928231, 34.8035793], [135.4928599, 34.8033888], [135.4929013, 34.8031879], [135.492932, 34.8030673], [135.4929632, 34.8029508], [135.4929981, 34.8028299], [135.4930357, 34.802705], [135.4931134, 34.8024759], [135.4932005, 34.8022504], [135.4932837, 34.8020563], [135.4933387, 34.8019396], [135.4933977, 34.801813], [135.4936056, 34.8013791], [135.4936968, 34.8011875], [135.4938396, 34.8008956], [135.4939825, 34.8006022], [135.4940398, 34.8004703], [135.494193, 34.8001567], [135.4942547, 34.8000279], [135.4943874, 34.799751], [135.494417, 34.7996892], [135.4944478, 34.7996121], [135.4944759, 34.7995347], [135.4948303, 34.7987992], [135.4951977, 34.7980411], [135.4957201, 34.7969525], [135.4961938, 34.7959847], [135.4964003, 34.7955251], [135.4964576, 34.7953919], [135.4965121, 34.7952627], [135.4966567, 34.7949095], [135.4968148, 34.7944675], [135.4969678, 34.7939895], [135.4970816, 34.7935729], [135.4971863, 34.7930952], [135.4972712, 34.7925871], [135.4973513, 34.7919311], [135.4973769, 34.7914377], [135.4973808, 34.790985], [135.4973727, 34.790621]], [[135.5229462, 34.9759213], [135.5234948, 34.976274], [135.5244121, 34.9769641], [135.5258363, 34.9782652], [135.5267107, 34.9789861], [135.5272847, 34.9792937], [135.5282584, 34.9797728], [135.5287331, 34.9802255], [135.5289397, 34.980509], [135.5290168, 34.9806526], [135.5291002, 34.980808]]]}, "id": "relation/8820384"}]}