{"type": "FeatureCollection", "generator": "kokudo-quiz tools/fetch_raw.py (Overpass API)", "copyright": "The data included in this document is from www.openstreetmap.org. The data is made available under ODbL.", "timestamp": "2026-09-30T23:39:30Z", "features": [{"type": "Feature", "properties": {"@id": "relation/8788010", "colour": "red", "from": "和歌山県田辺市", "name": "国道424号", "name:en": "National Highway Route 424", "name:ja": "国道424号", "name:ja-Hira": "こくどうよんひゃくにじゅうよんごう", "name:ja-Latn": "Kokudou 424 Gou", "network": "JP:national", "ref": "424", "route": "road", "to": "和歌山県紀の川市", "type": "route", "wikidata": "Q2471485", "wikipedia": "ja:国道424号"}, "geometry": {"type": "MultiLineString", "coordinates": [[[135.3893003, 33.729736], [135.3891727, 33.7297901], [135.3891434, 33.7298022], [135.3890534, 33.7298631], [135.3889899, 33.7299176], [135.3888122, 33.73008], [135.3887475, 33.730151], [135.3886889, 33.7302242], [135.3886242, 33.7303167], [135.3885825, 33.7303919], [135.388535, 33.7304864], [135.3885062, 33.7305963], [135.3884894, 33.730681], [135.3884749, 33.730791], [135.3884418, 33.7310574], [135.3883518, 33.7316684], [135.3883462, 33.7317064], [135.38824, 33.7320949], [135.3881551, 33.7323392], [135.3880126, 33.7326592], [135.3879216, 33.7328456], [135.3877745, 33.7331039], [135.3876494, 33.7332823], [135.3875235, 33.7334618], [135.3873668, 33.7336718], [135.3873019, 33.7337571], [135.3869415, 33.7342142], [135.3868281, 33.7343569], [135.386361, 33.734956], [135.3855438, 33.736024], [135.3853226, 33.7362473], [135.384978, 33.7365648], [135.3844811, 33.7369949], [135.3839143, 33.7374566], [135.3832275, 33.7380527], [135.3826672, 33.7385233], [135.3824146, 33.7387376], [135.3818089, 33.7392464], [135.3803994, 33.7404312], [135.3801925, 33.7406111], [135.3797075, 33.7409891], [135.3794659, 33.7411503], [135.3793046, 33.7412439], [135.3791486, 33.7413041], [135.3789862, 33.741334], [135.3788312, 33.7413526], [135.3786587, 33.7413578], [135.3784988, 33.7413251], [135.3778047, 33.741117], [135.3768263, 33.7407921], [135.3763235, 33.7406586], [135.376121, 33.740607], [135.3757997, 33.7405033]], [[135.352328, 33.7486822], [135.3525599, 33.7486254], [135.3531952, 33.7483746], [135.3538894, 33.7480377], [135.3542243, 33.7478869], [135.3546078, 33.7475917], [135.354974, 33.7471396], [135.3550543, 33.7470327], [135.3554619, 33.746465], [135.3556961, 33.7460771], [135.3557897, 33.7457768], [135.355797, 33.7457375], [135.3558078, 33.745695], [135.355808, 33.7456524], [135.355812, 33.7446618], [135.3558211, 33.7445498], [135.3560391, 33.7438127], [135.3560786, 33.7434538], [135.3561004, 33.7432591], [135.3561312, 33.7430544], [135.3561902, 33.742794], [135.3561979, 33.7427092], [135.3562119, 33.7425835], [135.3562748, 33.7422363], [135.3563621, 33.742041], [135.3565016, 33.7418037], [135.3570494, 33.7412049], [135.3574136, 33.740784], [135.3578002, 33.740294], [135.3578778, 33.7401069], [135.3580594, 33.7397453], [135.3582063, 33.7393144], [135.3583039, 33.7388335], [135.3584129, 33.7380866], [135.3584593, 33.7373629], [135.3584497, 33.7371574], [135.3584799, 33.7368582], [135.3585864, 33.736551], [135.3593869, 33.7357769], [135.3596375, 33.7356218], [135.3598937, 33.735485], [135.3601406, 33.735404], [135.360315, 33.7353675], [135.3605604, 33.7353622], [135.3609393, 33.7354148], [135.3611171, 33.735439], [135.3613019, 33.7354617], [135.3623934, 33.7356287], [135.363513, 33.7357795], [135.3643892, 33.7358741], [135.3650005, 33.7360366], [135.3653906, 33.7362011], [135.3657984, 33.73644], [135.3664066, 33.7368182], [135.3667605, 33.7370244], [135.3671144, 33.737171], [135.3674102, 33.7372724], [135.367759, 33.7373884], [135.368228, 33.7374996], [135.3685456, 33.7375408], [135.3695874, 33.7376979], [135.370008, 33.7378045], [135.3703052, 33.7379356], [135.370865, 33.7383353], [135.371711, 33.739121], [135.3719642, 33.7392462], [135.3723741, 33.7394249], [135.3731182, 33.739663], [135.3742086, 33.7399892], [135.3757997, 33.7405033]], [[135.352328, 33.7486822], [135.3520858, 33.7486892], [135.3518569, 33.7486768], [135.3515543, 33.7485837], [135.3509999, 33.7483311], [135.3509461, 33.7483028], [135.3500808, 33.7479129], [135.3499476, 33.7478444], [135.3497227, 33.747765], [135.349121, 33.747608], [135.3481095, 33.7474208], [135.3473706, 33.7472019], [135.3470176, 33.7470642], [135.3459913, 33.7466259], [135.3456552, 33.7465035], [135.3454901, 33.7464238], [135.3451216, 33.7462809], [135.3447609, 33.7462118], [135.3444874, 33.7461931], [135.3441931, 33.7461917], [135.3438376, 33.7462161], [135.3437484, 33.7462268], [135.3430753, 33.7462924], [135.34277, 33.7463124], [135.3416186, 33.7462708], [135.3413546, 33.7462278], [135.3411335, 33.7461599], [135.3404524, 33.7457988], [135.3403402, 33.7457642], [135.3402167, 33.7457375], [135.34011, 33.7457382], [135.339987, 33.7457527], [135.3398236, 33.7457869], [135.3395543, 33.7458802], [135.3393663, 33.7459615], [135.3391754, 33.746025], [135.3389842, 33.7460594], [135.3386276, 33.7461252], [135.3385645, 33.7463425], [135.3381112, 33.7462705], [135.3377283, 33.7462155], [135.3372049, 33.74616], [135.3367811, 33.7460808], [135.3361814, 33.74593], [135.3358758, 33.745838], [135.3356121, 33.7457698], [135.3349105, 33.7454476], [135.33467, 33.745369], [135.3344502, 33.7453434], [135.3333467, 33.7452963], [135.3329971, 33.7452478], [135.3327269, 33.7451688], [135.331977, 33.7448645], [135.3315137, 33.7446583], [135.330917, 33.7444967], [135.330559, 33.7444568], [135.3302116, 33.7444497], [135.3299385, 33.7444563], [135.3296247, 33.7445556], [135.329357, 33.7447173], [135.3291808, 33.7449127], [135.3290742, 33.7451357], [135.3290797, 33.7455618], [135.3292749, 33.7460694], [135.3292668, 33.7463642], [135.3291987, 33.7467461], [135.3289409, 33.7477064], [135.3288813, 33.7478174], [135.3287695, 33.7479574], [135.3285491, 33.7481443], [135.328217, 33.748348], [135.327698, 33.748734], [135.3274051, 33.7491238], [135.327286, 33.749268], [135.326904, 33.749985], [135.326447, 33.750679], [135.3262638, 33.7508845], [135.325943, 33.751232], [135.3258468, 33.7515415], [135.325851, 33.7519], [135.326126, 33.752655], [135.326477, 33.753471], [135.3265995, 33.7538641], [135.3266921, 33.754139], [135.3267602, 33.7544598], [135.3267984, 33.7546395], [135.3269314, 33.7551979], [135.327059, 33.7559773], [135.3270578, 33.7565427], [135.3269926, 33.756849], [135.3268782, 33.7570802], [135.326721, 33.757393], [135.326437, 33.7578108], [135.325957, 33.758305], [135.325768, 33.758511], [135.3256423, 33.7586883], [135.3254038, 33.7590287], [135.325287, 33.7593183], [135.3251122, 33.7598642], [135.3249218, 33.760434], [135.3246832, 33.7609485], [135.3244318, 33.7613747], [135.3241096, 33.7617906], [135.3236278, 33.7624125], [135.3231646, 33.7629512], [135.3227179, 33.7634968], [135.321976, 33.7643034], [135.3214711, 33.7648494], [135.3209113, 33.7654175], [135.3201219, 33.7661934], [135.3198212, 33.7664373], [135.3192953, 33.7667913], [135.3190645, 33.7669287], [135.3180385, 33.7675632], [135.3176352, 33.7678097], [135.3180119, 33.7682473], [135.3183991, 33.7687851], [135.3186417, 33.7690978], [135.3187048, 33.7692518], [135.3187442, 33.7694448], [135.318695, 33.769844], [135.3186538, 33.7702916], [135.3186092, 33.7706273], [135.3185884, 33.7707319], [135.3185417, 33.7710502], [135.3185023, 33.7712748], [135.318526, 33.771517], [135.3186374, 33.7718317], [135.3191016, 33.7723858], [135.3195679, 33.7729294], [135.3199434, 33.7733498], [135.3203801, 33.7739547], [135.3206237, 33.7742757], [135.320785, 33.7744882], [135.3208998, 33.7746348], [135.3211307, 33.7750028], [135.3214192, 33.7754633], [135.3214893, 33.7755746], [135.3216749, 33.7758692], [135.3217774, 33.7760319], [135.3221691, 33.7766049], [135.3223234, 33.7768198], [135.3225321, 33.7771554], [135.3226944, 33.7774083], [135.323068, 33.7778327], [135.3237648, 33.7786548], [135.3239622, 33.7788496], [135.324116, 33.7790753], [135.3242009, 33.7793051], [135.3242472, 33.7795763], [135.324282, 33.7798013], [135.3242926, 33.7802212], [135.3243122, 33.7804912], [135.3242871, 33.7809047], [135.3242352, 33.781476], [135.3241845, 33.7816755], [135.3241292, 33.7819482], [135.323944, 33.782551], [135.3237753, 33.7831926], [135.3237565, 33.7832885], [135.323685, 33.783653], [135.3236426, 33.7839313], [135.3235932, 33.7841151], [135.3235066, 33.7846949], [135.3234695, 33.7849801], [135.3233579, 33.7855474], [135.3233362, 33.7857227], [135.3233248, 33.7859126], [135.3233449, 33.7861238], [135.3234787, 33.7864596], [135.3236127, 33.7866257], [135.323695, 33.7867823], [135.3238751, 33.7869597], [135.324493, 33.787659], [135.324829, 33.788055], [135.325043, 33.788338], [135.3253372, 33.78874], [135.3254698, 33.7889238], [135.326308, 33.7900067], [135.3265775, 33.7903249], [135.3267769, 33.7906359], [135.3269395, 33.7908497], [135.3272259, 33.7912262], [135.3272679, 33.7912765], [135.3277406, 33.7918429], [135.3277654, 33.7918714], [135.3282502, 33.7924279], [135.3284362, 33.7926139], [135.3287608, 33.7930421], [135.3290353, 33.7933848], [135.3291976, 33.7936715], [135.3293261, 33.7939925], [135.329473, 33.7943591], [135.3298202, 33.7950909], [135.32991, 33.795815], [135.3299445, 33.7965839], [135.3299379, 33.7970207], [135.3299445, 33.7977163], [135.3299694, 33.7982481], [135.329955, 33.7985069], [135.3299261, 33.7987624], [135.3298052, 33.7992669], [135.3297421, 33.7994285], [135.3296238, 33.7995749], [135.3294651, 33.7997586], [135.3279512, 33.8008612], [135.3278843, 33.8009436], [135.3277133, 33.8011731], [135.327574, 33.8014403], [135.3272933, 33.8020404], [135.3267804, 33.8030911], [135.3266507, 33.8033848], [135.3265995, 33.8035431], [135.326589, 33.8037353], [135.3266047, 33.8039242], [135.3266954, 33.8041775], [135.3269385, 33.8045892], [135.3270633, 33.8047814], [135.3274052, 33.8051962], [135.3276023, 33.805443], [135.3279549, 33.805877], [135.3280281, 33.8059671], [135.3283947, 33.806489], [135.3285314, 33.8066637], [135.3288231, 33.8070251], [135.3290136, 33.8072643], [135.3291582, 33.807463], [135.3293881, 33.8078724], [135.3294854, 33.8080854], [135.3295209, 33.8081814], [135.3295469, 33.8083471], [135.3295522, 33.8084803], [135.3295327, 33.8086237], [135.3294684, 33.8089027], [135.3292781, 33.8095772], [135.3291319, 33.8100257], [135.3289094, 33.8107081], [135.3288694, 33.8108023], [135.3288239, 33.810868], [135.3287542, 33.8109282], [135.3285962, 33.8110031], [135.3282682, 33.8110957], [135.327917, 33.8112185], [135.3278482, 33.8112656], [135.3277823, 33.811332], [135.3277553, 33.8114215], [135.3277637, 33.8115219], [135.3278259, 33.8116315], [135.3280601, 33.8118376], [135.3281707, 33.8119287], [135.3283101, 33.8119921], [135.3284401, 33.8120059], [135.3288936, 33.8120098], [135.3295096, 33.8118145], [135.3296267, 33.8117813], [135.3299083, 33.8117604], [135.3308031, 33.8117882], [135.3311172, 33.8118137], [135.3313736, 33.8118701], [135.3316347, 33.8119805], [135.3320742, 33.8121936], [135.3322038, 33.8122904], [135.3322759, 33.8123711], [135.3323465, 33.8124677], [135.332408, 33.8125771], [135.3324803, 33.8127541], [135.3326912, 33.8132281], [135.3327646, 33.8133779], [135.3328371, 33.813472], [135.332943, 33.8135801], [135.3331028, 33.8137106], [135.3332747, 33.8138156], [135.3338741, 33.8141074], [135.3341027, 33.8142811], [135.3342597, 33.8144649], [135.3343433, 33.8146301], [135.3344093, 33.8148362], [135.3344279, 33.8150284], [135.3344028, 33.8154739], [135.3343703, 33.8156877], [135.3343268, 33.8157852], [135.3342046, 33.815962], [135.3338525, 33.8163518], [135.3334346, 33.8167361], [135.3329865, 33.8171281], [135.3324766, 33.8176488], [135.3323294, 33.817829], [135.3322085, 33.8181052], [135.3320219, 33.8185834], [135.3318771, 33.818833], [135.331825, 33.8190368], [135.331853, 33.8191945], [135.3319095, 33.8192884], [135.3319857, 33.8193659], [135.3321079, 33.8194379], [135.3322788, 33.81948], [135.3324496, 33.8194794], [135.3325806, 33.8194617], [135.3328195, 33.8194148], [135.3336878, 33.8192264], [135.3340916, 33.8191659], [135.334204, 33.8191706], [135.3343137, 33.8191868], [135.3346705, 33.8193388], [135.3355625, 33.8197611], [135.336318, 33.8201641], [135.3366989, 33.8203941], [135.3369043, 33.8205586], [135.3370297, 33.820733], [135.337105, 33.8208743], [135.3371515, 33.8211121], [135.337223, 33.8215845], [135.3372871, 33.8218724], [135.3373494, 33.8220654], [135.3374795, 33.8223039], [135.3377619, 33.8227741], [135.337918, 33.8230388], [135.3379775, 33.8231747], [135.3380137, 33.8232997], [135.3380342, 33.8235861], [135.3380183, 33.8237325], [135.3379607, 33.8240456], [135.3379436, 33.8242684], [135.337946, 33.8244534], [135.3379773, 33.8246628], [135.3380159, 33.8248264], [135.3380796, 33.8250026], [135.3381838, 33.8251856], [135.3383361, 33.8254018], [135.3384806, 33.8255747], [135.3386945, 33.8258476], [135.3388674, 33.8260434], [135.3390409, 33.8262988], [135.3391736, 33.8265237], [135.3392919, 33.8268326], [135.3393615, 33.827289], [135.3394128, 33.8281841], [135.3394811, 33.8284668], [135.3396177, 33.8287255], [135.3397039, 33.8288583], [135.3400041, 33.8291545], [135.3402042, 33.8293335], [135.3406206, 33.8296765], [135.3413483, 33.830309], [135.3416028, 33.8305352], [135.3419088, 33.830795], [135.343344, 33.8320176], [135.3433976, 33.8320679], [135.3439969, 33.8325903], [135.3442781, 33.8328384], [135.3448243, 33.8333064], [135.3449946, 33.8334673], [135.345284, 33.833767], [135.3453048, 33.8337909], [135.345521, 33.834043], [135.345623, 33.834172], [135.345836, 33.8344304], [135.3460505, 33.8347048], [135.346131, 33.834901], [135.3461597, 33.8350425], [135.3461745, 33.8351428], [135.3461801, 33.8353512], [135.3461485, 33.8356893], [135.3461281, 33.8359486], [135.3461838, 33.8361925], [135.346247, 33.8363284], [135.3464198, 33.8365476], [135.346851, 33.8370353], [135.3470071, 33.8372468], [135.3473992, 33.837855], [135.3475559, 33.8380935], [135.3476965, 33.8383366], [135.3478917, 33.8385543], [135.3481523, 33.8387406], [135.3482923, 33.8387786], [135.3484455, 33.8388337], [135.3486008, 33.8388625], [135.3486796, 33.8388713], [135.3491369, 33.838866], [135.3504057, 33.8386822], [135.3506485, 33.838682], [135.3507646, 33.8386829], [135.3512474, 33.8386868], [135.3514143, 33.8386882], [135.3517083, 33.8387167], [135.3519661, 33.8387565], [135.3521876, 33.8387997], [135.3528953, 33.8389894], [135.3531696, 33.8390792], [135.3562376, 33.8400126], [135.3565895, 33.8401164], [135.3568286, 33.8401918], [135.357095, 33.8402211], [135.3572617, 33.8402276], [135.3574205, 33.8401934], [135.3576263, 33.8401396], [135.3578635, 33.8400037], [135.3583026, 33.839665], [135.3584457, 33.8395755], [135.3586957, 33.8394566], [135.3589348, 33.8393955], [135.3596249, 33.8392954], [135.3600473, 33.8392408], [135.360281, 33.8392198], [135.3603453, 33.839214], [135.3605188, 33.8392164], [135.3606756, 33.8392246], [135.3611014, 33.8393537], [135.3614414, 33.8395541], [135.3616017, 33.8397346], [135.361722, 33.8399231], [135.3618682, 33.8402944], [135.3619153, 33.8409964], [135.3619425, 33.8411829], [135.36205, 33.8415287], [135.3622469, 33.8418506], [135.3627212, 33.842468], [135.3630162, 33.8428602], [135.3631817, 33.8430674], [135.3640074, 33.8441776], [135.3642478, 33.8445194], [135.3645322, 33.8448447], [135.3648232, 33.8452996], [135.364913, 33.8456734], [135.3649197, 33.8460614], [135.3650807, 33.8465159], [135.3652094, 33.8466642], [135.3653864, 33.8468099], [135.3655981, 33.8469668], [135.3659578, 33.8471703], [135.3661613, 33.8472941], [135.3665142, 33.8475171], [135.3666808, 33.8475993], [135.3668239, 33.847627], [135.3669621, 33.8476278], [135.3670944, 33.8476034], [135.3672424, 33.8475416], [135.3673676, 33.847467], [135.3678042, 33.8471354], [135.3680759, 33.8469536], [135.3681355, 33.8469305], [135.3681827, 33.8469179], [135.3683934, 33.8468776], [135.3685847, 33.8468856], [135.369196, 33.8469915], [135.3695952, 33.8470387], [135.3703576, 33.847109], [135.370711, 33.8471458], [135.3715746, 33.8472229], [135.3718574, 33.8472701], [135.3721055, 33.8473565], [135.3727943, 33.847612], [135.3729995, 33.8476636], [135.3731853, 33.8476428], [135.373362, 33.8476175], [135.373624, 33.8475686], [135.373798, 33.8475421], [135.3739262, 33.847553], [135.3740495, 33.8476359], [135.3740988, 33.8477148], [135.3741556, 33.8478229], [135.37433, 33.8483097], [135.3744143, 33.8484855], [135.3746339, 33.8487574], [135.3749554, 33.8491009], [135.3753024, 33.849381], [135.3757768, 33.8497587], [135.3759238, 33.849928], [135.3761458, 33.850406], [135.3762747, 33.8505857], [135.3763551, 33.8506606], [135.3765019, 33.8507556], [135.3770656, 33.8509926]], [[135.3765019, 33.8507556], [135.376657, 33.8507501], [135.3769079, 33.8507241], [135.3772509, 33.8506753], [135.3774842, 33.8506476], [135.3779201, 33.8507066], [135.3805978, 33.8511763], [135.3807631, 33.8512071], [135.3810459, 33.8513108], [135.3812393, 33.8514503], [135.3816877, 33.8517804], [135.3819745, 33.8518621], [135.3821599, 33.8518548], [135.3823831, 33.8517455], [135.3825302, 33.8516865], [135.3827037, 33.8516141], [135.3829213, 33.8514089], [135.3831663, 33.8510524], [135.383329, 33.8508228], [135.3836113, 33.8502058], [135.3840798, 33.8494227], [135.384172, 33.8492143], [135.3842092, 33.8491004], [135.3842229, 33.8489034], [135.3842386, 33.8481268], [135.3842798, 33.8478842], [135.384368, 33.8477393], [135.3845051, 33.8476303], [135.3846786, 33.8475668], [135.3848364, 33.8475628], [135.3851334, 33.8476002], [135.3857313, 33.8477712], [135.3858528, 33.8478143], [135.38594, 33.8478949], [135.3859538, 33.8479502], [135.3859263, 33.8480789], [135.3858548, 33.8484069], [135.3858116, 33.8485022], [135.385744, 33.8486674], [135.3856901, 33.8487277], [135.3853823, 33.8487749], [135.3852118, 33.8488481], [135.3851067, 33.8490133], [135.3850737, 33.8495607], [135.3850959, 33.8500304], [135.385143, 33.8505496], [135.3851624, 33.8507085], [135.3852137, 33.8508547], [135.3851998, 33.8510815], [135.3853107, 33.8513025], [135.3853246, 33.8515293], [135.3853731, 33.8519587], [135.3854493, 33.8524042], [135.3854784, 33.8530604], [135.3855367, 33.8532699], [135.3858388, 33.8535945], [135.3861543, 33.8538306], [135.3864532, 33.8539641], [135.3867914, 33.8540862], [135.3869345, 33.854113], [135.3871089, 33.8540886], [135.3872991, 33.8540015], [135.3875735, 33.8538672], [135.3876814, 33.853776], [135.3878019, 33.8535913], [135.3880019, 33.8532343], [135.3880833, 33.8530454], [135.3881274, 33.8528567], [135.3881113, 33.8525459], [135.3880734, 33.8524746]], [[135.3912032, 33.8526115], [135.3913825, 33.8524691], [135.3914149, 33.8524422], [135.3919422, 33.8520759], [135.3920461, 33.8518806], [135.3920696, 33.851638], [135.3920621, 33.8514745], [135.3920169, 33.8513625], [135.3918665, 33.8512037], [135.3914776, 33.8509835], [135.3912841, 33.85083], [135.3911996, 33.8507895]], [[135.3911061, 33.8509373], [135.3911996, 33.8507895], [135.3912538, 33.8507241], [135.3913302, 33.8506705], [135.391435, 33.8506108], [135.3916418, 33.8505902], [135.3919019, 33.8506119], [135.3928364, 33.8507574], [135.393055, 33.8507765], [135.3932799, 33.8507684], [135.3935213, 33.8506961], [135.3938309, 33.8505346], [135.3940406, 33.8504141], [135.3942112, 33.8503718], [135.3943608, 33.850368], [135.3945425, 33.8504157], [135.394766, 33.8505305], [135.3949662, 33.8506558], [135.3955927, 33.8510414], [135.3958727, 33.851206], [135.3964813, 33.851503], [135.3970385, 33.851777], [135.3975819, 33.8521258], [135.3978106, 33.8522824], [135.3978952, 33.8523595], [135.3980019, 33.8524562], [135.3981875, 33.852762], [135.3982997, 33.8529536], [135.3983969, 33.8530525], [135.3985162, 33.8531481], [135.3985841, 33.8531746], [135.3988156, 33.8532102], [135.400116, 33.8532465], [135.4003708, 33.8532807], [135.4005511, 33.8533772], [135.4006467, 33.8534727], [135.400937, 33.8539908], [135.4011285, 33.8543229], [135.4012442, 33.8545197], [135.401409, 33.8548032], [135.4014465, 33.854876], [135.4015935, 33.8551108], [135.4017917, 33.8552881], [135.4019373, 33.8553501], [135.4021253, 33.8554042], [135.4024489, 33.8554901], [135.4028978, 33.8556383], [135.4032958, 33.8558157], [135.4035467, 33.8559492], [135.4036624, 33.8560664], [135.4037388, 33.8562097], [135.4037928, 33.8564258], [135.4038505, 33.8567302], [135.4039046, 33.856843], [135.404082, 33.8570652], [135.4043343, 33.8574163], [135.4043648, 33.8575291], [135.4043592, 33.8576615], [135.4043357, 33.8577927], [135.4042691, 33.8579216], [135.404143, 33.8581012], [135.4035705, 33.8587769], [135.4034818, 33.8589288], [135.4034229, 33.8590714], [135.4033994, 33.8593879], [135.4033952, 33.8596446], [135.4034437, 33.8598138], [135.403556, 33.8599784], [135.4038194, 33.8601522], [135.4040966, 33.8603203], [135.4042491, 33.8604861], [135.4043018, 33.8606081], [135.4043309, 33.8607543], [135.4043156, 33.8608717], [135.4042782, 33.8609833], [135.4042214, 33.8611157], [135.4040994, 33.8612969], [135.4040398, 33.8614454], [135.4040384, 33.8615697], [135.4040675, 33.8616675], [135.4041313, 33.8617377], [135.4042339, 33.8617976], [135.4043545, 33.8618436], [135.4045277, 33.8618759], [135.4049436, 33.8619012], [135.4054024, 33.8619438], [135.4056242, 33.8619967], [135.4057476, 33.8620692], [135.4058335, 33.862197], [135.4058432, 33.8624007], [135.4058307, 33.8626471], [135.4058682, 33.8627668], [135.4059735, 33.8628911], [135.406144, 33.8629958], [135.406381, 33.8630442], [135.4066121, 33.8630229], [135.4067303, 33.8629803], [135.4068135, 33.8629504], [135.4068762, 33.862931], [135.4074163, 33.8627502], [135.4075892, 33.8626334], [135.4078391, 33.8623645], [135.4079107, 33.8623302], [135.4080117, 33.8623123], [135.4082109, 33.8623801], [135.4082921, 33.8625227], [135.4082469, 33.8626403], [135.4079577, 33.8629308], [135.4079215, 33.8630489], [135.4079557, 33.8632232], [135.4081234, 33.8634446], [135.4084306, 33.8637732], [135.4086752, 33.8639466], [135.4094819, 33.8641867], [135.4096064, 33.864251], [135.4097015, 33.8643861], [135.4096632, 33.8646319], [135.4094858, 33.8648899], [135.409254, 33.8650219], [135.4088534, 33.8651036], [135.4087051, 33.8651761], [135.4085498, 33.8653396], [135.4084056, 33.8656135], [135.4083835, 33.8658874], [135.4084403, 33.8660106], [135.4086496, 33.8662074], [135.4091722, 33.8664975], [135.4097502, 33.8671363], [135.4098334, 33.8673365], [135.4098237, 33.8677739], [135.4100884, 33.868293], [135.4102146, 33.8684081], [135.4106845, 33.8685497], [135.4108342, 33.8686555], [135.4109659, 33.8688846], [135.4110712, 33.8692586], [135.411232, 33.8694071], [135.4114552, 33.8694555], [135.4117643, 33.8694175], [135.4120152, 33.8694762], [135.4121455, 33.8696787], [135.4121573, 33.8700366], [135.4122475, 33.8701986], [135.4123916, 33.8703011], [135.413016, 33.8704834], [135.4131342, 33.8707027], [135.4131569, 33.8711394], [135.4131998, 33.8719636], [135.4134185, 33.8726727], [135.4135997, 33.8728317], [135.4137168, 33.8728657], [135.4144265, 33.8730721], [135.4146483, 33.8732323], [135.4147323, 33.8734304], [135.4146866, 33.8739134], [135.4147264, 33.8742105], [135.4148309, 33.8743303], [135.4152153, 33.8746018], [135.4153906, 33.8749246], [135.4154623, 33.8751332], [135.4155218, 33.8753064], [135.4155692, 33.8755487], [135.4156274, 33.8758614], [135.4156672, 33.876049], [135.4158072, 33.8764649], [135.4158595, 33.8766195], [135.4158757, 33.8766647], [135.4164322, 33.878217], [135.416607, 33.8786895], [135.416855, 33.8792903], [135.417038, 33.8797224], [135.4173998, 33.8806742], [135.4176193, 33.8813593], [135.417721, 33.8817306], [135.4177982, 33.8821018], [135.4178633, 33.8824596], [135.4179242, 33.8829827], [135.4179649, 33.8834485], [135.4179771, 33.8838636], [135.417971, 33.8840551], [135.4179693, 33.8841107], [135.4179568, 33.8845049], [135.4180688, 33.8845047], [135.4181296, 33.8844798], [135.4182029, 33.8843833], [135.4182691, 33.8842785], [135.4186226, 33.8837116], [135.4188047, 33.8835473], [135.4191952, 33.8833303], [135.4196024, 33.8827942], [135.4196857, 33.8826395], [135.4197074, 33.882341], [135.419317, 33.880208], [135.419173, 33.879393], [135.4190336, 33.8786461], [135.4188725, 33.877987], [135.4187456, 33.8777299], [135.4187048, 33.8776153], [135.4187048, 33.8774372], [135.4188086, 33.8771728], [135.4190214, 33.8769209], [135.4190523, 33.8768213], [135.4188955, 33.8766002], [135.418831, 33.8764515], [135.4188069, 33.8760635], [135.4187436, 33.8759932], [135.4186029, 33.8759779], [135.4183651, 33.8761222], [135.4180955, 33.8762359], [135.4179637, 33.8762964], [135.4178363, 33.8764523], [135.4177266, 33.8765324], [135.4175955, 33.8765196], [135.4174617, 33.8764083], [135.417323, 33.876248], [135.4170986, 33.8760777], [135.4168136, 33.8759151], [135.4166619, 33.8758852], [135.4165168, 33.8759341], [135.4164034, 33.8760154], [135.4162532, 33.8762239], [135.4160919, 33.8765378], [135.4159999, 33.8766014], [135.4158595, 33.8766195]], [[135.4179568, 33.8845049], [135.4179023, 33.8852175], [135.4178581, 33.885476], [135.4177508, 33.8860457], [135.4177768, 33.8863811], [135.4178404, 33.8865021], [135.4180091, 33.8865739], [135.4184308, 33.8865142], [135.4186329, 33.8865523], [135.4188984, 33.8867381], [135.4189338, 33.8868756], [135.4187568, 33.8873234], [135.4187734, 33.887466], [135.4189015, 33.8875845], [135.4192525, 33.8876753], [135.4194608, 33.8877946], [135.4195118, 33.8879519], [135.4194889, 33.8880764], [135.4193743, 33.8882752], [135.4193264, 33.888436], [135.4193474, 33.8886569], [135.4193901, 33.8889357], [135.4194611, 33.8892574], [135.4197693, 33.8899395], [135.4198459, 33.8901021], [135.4200241, 33.8902048], [135.4205278, 33.8904077], [135.4209035, 33.8907398], [135.4210263, 33.8908219], [135.42122, 33.8908478], [135.4216054, 33.8907432], [135.4218105, 33.8907156], [135.4219626, 33.8907873], [135.4222783, 33.8911217], [135.4224224, 33.8912277], [135.4225822, 33.8912674], [135.4236804, 33.8912515], [135.4245651, 33.8912236], [135.4249376, 33.8912118], [135.4250949, 33.8911928], [135.4252313, 33.8911115], [135.4255156, 33.8909058], [135.4256999, 33.8908626], [135.425978, 33.8909041], [135.4261467, 33.890943], [135.4263196, 33.8909352], [135.4264349, 33.8909044], [135.4265483, 33.890776], [135.4266602, 33.890188], [135.4267633, 33.8900205], [135.4274968, 33.88954], [135.4277383, 33.8894777], [135.4280829, 33.8895314], [135.4282862, 33.8897222], [135.4285616, 33.8903457], [135.4290962, 33.8906073], [135.4298703, 33.8905452], [135.4300984, 33.8905313], [135.4302182, 33.8904561], [135.4302702, 33.890195], [135.4303327, 33.8900723], [135.4305785, 33.8899141], [135.4308336, 33.8897706], [135.4311565, 33.8897637], [135.4314657, 33.8898951], [135.4315418, 33.8899832], [135.4315793, 33.8901086], [135.4314074, 33.8905538], [135.4314501, 33.8907353], [135.4316345, 33.8908849], [135.4318625, 33.89091], [135.432176, 33.8907812], [135.4323947, 33.8907474], [135.4325707, 33.8908149], [135.432654, 33.8909344], [135.4327686, 33.8916329], [135.4328361, 33.8917146], [135.4329952, 33.8917464], [135.4335872, 33.8917329], [135.4340394, 33.8917451], [135.4346093, 33.8920104], [135.435029, 33.8922056], [135.4353227, 33.89228], [135.4355638, 33.8922369], [135.4362589, 33.8917919], [135.4367553, 33.8911183], [135.43696, 33.8910412], [135.437725, 33.8910566], [135.4379283, 33.891169], [135.438247, 33.8915879], [135.4383747, 33.8916606], [135.4385502, 33.8916632], [135.438696, 33.891572], [135.4390178, 33.8912591], [135.4393076, 33.890934], [135.4393941, 33.8906225], [135.4394894, 33.8906493], [135.4397752, 33.8907297], [135.4403885, 33.8908342], [135.4407467, 33.8909435], [135.4405788, 33.8913117], [135.4405434, 33.8916295], [135.4406082, 33.8918496], [135.4408438, 33.892308], [135.4409484, 33.8925916], [135.4409484, 33.8928007], [135.4408718, 33.8930635], [135.4407069, 33.8932762], [135.4404537, 33.8935492], [135.4401052, 33.8939233], [135.4393992, 33.894684], [135.4392534, 33.8949295], [135.4391555, 33.8951785], [135.4390622, 33.8956615], [135.438934, 33.896547], [135.4389285, 33.8972738], [135.4389909, 33.897623], [135.4392638, 33.898088], [135.4403864, 33.8994486], [135.4405759, 33.8997839], [135.4406613, 33.9000675], [135.4407592, 33.9005688], [135.4408321, 33.9012724], [135.4408446, 33.9017115], [135.4407676, 33.9022612], [135.440678, 33.9025845], [135.4404621, 33.9030275], [135.440117, 33.903754], [135.438883, 33.905616], [135.438528, 33.906142], [135.437986, 33.907085], [135.437838, 33.907416], [135.43778, 33.907673], [135.4377335, 33.907963], [135.437704, 33.908223], [135.4376953, 33.9084516], [135.4377073, 33.9087306], [135.4377373, 33.9089241], [135.437907, 33.9098688], [135.4380236, 33.9105066], [135.438059, 33.9108834], [135.4380361, 33.9111565], [135.4378862, 33.9116111], [135.4377154, 33.9120225], [135.4376321, 33.9124374], [135.4376675, 33.9130164], [135.4377675, 33.9137821], [135.437882, 33.9143577], [135.4380299, 33.9147362], [135.4383485, 33.9152012], [135.4386651, 33.9155226], [135.4394628, 33.9162054], [135.4397648, 33.916494], [135.43991, 33.9167757], [135.4399294, 33.9170298], [135.4398627, 33.9173323], [135.439694, 33.9175604], [135.4388609, 33.9183935], [135.438457, 33.918744], [135.4370623, 33.9197189], [135.4368411, 33.9198737], [135.435985, 33.9204614], [135.4356268, 33.9206048], [135.4351686, 33.9206636], [135.4344292, 33.9206895], [135.4340105, 33.9207431], [135.4336773, 33.9208727], [135.4334274, 33.9210818], [135.4332628, 33.9213636], [135.4331254, 33.9219339], [135.4328067, 33.922423], [135.4322798, 33.9230504], [135.4318611, 33.9233476], [135.4313467, 33.9235999], [135.4306135, 33.9238661], [135.4300741, 33.9238661], [135.4291306, 33.9236103], [135.4277351, 33.9232387], [135.4265084, 33.9229052], [135.4261501, 33.9226978], [135.4256461, 33.9223746], [135.4254355, 33.92229], [135.4251363, 33.922246], [135.4248874, 33.9222716], [135.4245325, 33.9223756], [135.4243734, 33.9224712], [135.4241468, 33.9226775], [135.4240901, 33.9227256], [135.4238399, 33.9230084], [135.4237089, 33.9231399], [135.4231106, 33.9237494], [135.422972, 33.9238783], [135.4226733, 33.9241908], [135.4224186, 33.9243678], [135.422025, 33.9245415], [135.4216491, 33.9246132], [135.4211596, 33.9246357], [135.4206108, 33.9246227], [135.4202463, 33.9245519], [135.4196433, 33.9243603], [135.4188456, 33.9240284], [135.4185396, 33.9238325], [135.4182747, 33.9236667], [135.4182071, 33.9236179], [135.4176281, 33.9232333], [135.4171845, 33.9230103], [135.4168429, 33.9228703], [135.4165305, 33.9228409], [135.4161806, 33.9229239], [135.4154224, 33.9232678], [135.4146893, 33.9236048], [135.414304, 33.9238001], [135.4140457, 33.9241285], [135.4139541, 33.9243653], [135.4139561, 33.924621], [135.4140853, 33.9250669], [135.4142533, 33.9254197], [135.414447, 33.9256535], [135.414819, 33.9259971], [135.4152996, 33.9263238], [135.4160773, 33.9268387], [135.4168096, 33.9272365], [135.4173971, 33.9275191], [135.417716, 33.9275991], [135.4180868, 33.9275648], [135.4184935, 33.9275272], [135.4187878, 33.927538], [135.4192248, 33.9276505], [135.4200816, 33.9278707], [135.4204047, 33.9279713], [135.4206961, 33.9281221], [135.4209096, 33.9282884], [135.4212168, 33.9286894], [135.4212978, 33.9288376], [135.4214058, 33.9290353], [135.4216972, 33.9293405], [135.4224833, 33.9300035], [135.4226807, 33.9301082], [135.4229347, 33.9301564], [135.4235446, 33.9300938], [135.4238323, 33.9301268], [135.4242311, 33.9303578], [135.4247319, 33.9307251], [135.4248594, 33.9309257], [135.4248859, 33.9311338], [135.4247546, 33.9316962], [135.4246955, 33.9320361], [135.424724, 33.933101], [135.4247964, 33.9335332], [135.4249566, 33.9340419], [135.4251296, 33.9342657], [135.4254254, 33.9344751], [135.4259475, 33.9347503], [135.4262418, 33.9348413], [135.4265331, 33.9348521], [135.4269457, 33.9347767], [135.4277188, 33.9345828], [135.4280283, 33.9345661], [135.4282386, 33.9346095], [135.4291934, 33.9349163], [135.429665, 33.935078], [135.4297475, 33.9351239], [135.4298884, 33.9352332], [135.4299649, 33.9353852], [135.4299779, 33.9356078], [135.4297658, 33.9363522], [135.429751, 33.936526], [135.429833, 33.936736], [135.430181, 33.937109], [135.430516, 33.937465], [135.4306057, 33.9375485], [135.4307512, 33.9376454], [135.4308879, 33.9377172], [135.4310889, 33.9377783], [135.4314173, 33.9378297], [135.4318096, 33.9378706], [135.4323838, 33.9379136], [135.4326088, 33.9379095], [135.4327904, 33.9378839], [135.4329682, 33.9378385], [135.4331557, 33.9377576], [135.4332989, 33.9376684], [135.4334626, 33.9375381], [135.4335921, 33.9374015], [135.4339745, 33.9369479], [135.4340656, 33.9368736], [135.4341892, 33.9368039], [135.4343972, 33.9367144], [135.434562, 33.9366965], [135.4352398, 33.9366967], [135.4354778, 33.936747], [135.4357028, 33.9368702], [135.4361659, 33.9372975], [135.4364919, 33.937544], [135.4369751, 33.9379138], [135.4371035, 33.9381435], [135.4371019, 33.9384029], [135.4369958, 33.9388328], [135.4368898, 33.9392863], [135.4368428, 33.9396699], [135.43684, 33.9398757], [135.4368227, 33.9404118], [135.4367444, 33.9406566], [135.4366911, 33.940767], [135.4365234, 33.9410635], [135.435483, 33.942328], [135.4346962, 33.9435238], [135.4345615, 33.9437452], [135.4345019, 33.9439152], [135.4345172, 33.9441708], [135.434915, 33.9451574], [135.4349864, 33.9454282], [135.4349931, 33.9456962], [135.4349366, 33.946008], [135.4347806, 33.9463156], [135.4346133, 33.9465254], [135.4341127, 33.9471139], [135.4328812, 33.9486503], [135.432613, 33.9490891], [135.4325112, 33.9493945], [135.43244, 33.9496363], [135.432121, 33.9518902], [135.4320831, 33.9521636], [135.432048, 33.9522458], [135.4318946, 33.9525852], [135.4316591, 33.9529584], [135.4316286, 33.9529978], [135.4310872, 33.9536685], [135.4308443, 33.9538981], [135.4304702, 33.9541397], [135.4300317, 33.9543311], [135.4288533, 33.9546956], [135.428274, 33.9548198], [135.427786, 33.954838], [135.4273576, 33.9547973], [135.4259223, 33.9545747], [135.4252357, 33.954473], [135.4247135, 33.9543318], [135.4236273, 33.9539681], [135.4229407, 33.9537168], [135.4226029, 33.9535275], [135.4222617, 33.9532798], [135.4220244, 33.953056], [135.4213882, 33.9523701], [135.4211363, 33.9521922], [135.4208405, 33.9520535], [135.4202795, 33.9518504], [135.4199212, 33.9517815], [135.4194808, 33.9517742], [135.4189626, 33.9518023], [135.418589, 33.9518196], [135.4182007, 33.951837], [135.41648, 33.9519095], [135.41603, 33.9519104], [135.4153141, 33.9519068], [135.4150693, 33.9519855], [135.4149021, 33.9521183], [135.4148398, 33.9522656], [135.4148245, 33.9524084], [135.4148735, 33.9525624], [135.4151142, 33.9530345], [135.415255, 33.9534525], [135.415352, 33.9541024], [135.4153259, 33.9543292], [135.4152549, 33.9544993], [135.4150182, 33.9548943], [135.4146833, 33.9553082], [135.4145526, 33.9554472], [135.4133368, 33.9565868], [135.4130556, 33.9568004], [135.4127353, 33.9569452], [135.4124526, 33.9570481], [135.4121713, 33.9571653], [135.411753, 33.9574154], [135.4110635, 33.9578401], [135.4107014, 33.9579873], [135.4103985, 33.9580722], [135.4098853, 33.9581964], [135.4095809, 33.9583052], [135.4092261, 33.9584751], [135.4083346, 33.9589154], [135.4078081, 33.9590925], [135.4072729, 33.9592421], [135.4065575, 33.9593785], [135.4060901, 33.9594167], [135.405477, 33.9594742], [135.4052514, 33.9595163], [135.4048998, 33.959582], [135.4040099, 33.9599154], [135.4033586, 33.9601852], [135.4028573, 33.9603861], [135.4019429, 33.9607415], [135.4018297, 33.960837], [135.4017146, 33.9609879], [135.401667, 33.9611141], [135.4013471, 33.9629463], [135.4013253, 33.9630558], [135.4012096, 33.9633121], [135.401077, 33.963461], [135.4009297, 33.9636076], [135.4006354, 33.9637859], [135.4003138, 33.96389], [135.3998952, 33.9639344], [135.399228, 33.963993], [135.3984134, 33.9640689], [135.3968669, 33.9643436], [135.3966315, 33.964436], [135.3965121, 33.9645012], [135.396361, 33.964608], [135.3962671, 33.9647132], [135.3960403, 33.96504], [135.3954966, 33.9658674], [135.3953651, 33.9661173], [135.3953247, 33.9663722], [135.395342, 33.9666725], [135.395344, 33.967017], [135.3952723, 33.9671949], [135.3951973, 33.9673286], [135.39503, 33.9674821], [135.3946263, 33.9677205], [135.3941204, 33.9679749], [135.3937735, 33.9681257], [135.3934576, 33.9681819], [135.393172, 33.9681544], [135.3923238, 33.9679941], [135.391904, 33.9679068], [135.39163, 33.9677979], [135.3910818, 33.9674773], [135.3906173, 33.9671794], [135.3904183, 33.9669569], [135.390207, 33.966544], [135.390005, 33.966092], [135.3897149, 33.9653677], [135.3896496, 33.9650813], [135.3895657, 33.96445], [135.389523, 33.964002], [135.389343, 33.962898], [135.389252, 33.962554], [135.389161, 33.962206], [135.389085, 33.961898], [135.38905, 33.961685], [135.3890567, 33.9613881], [135.3890634, 33.961301], [135.3891664, 33.9604456], [135.389196, 33.9603555], [135.3892733, 33.9601212], [135.3895997, 33.9597202], [135.3897323, 33.9594241], [135.389769, 33.9589554], [135.3897649, 33.9583073], [135.3897384, 33.9579774], [135.3896568, 33.95771], [135.389363, 33.9571669], [135.3890836, 33.956798], [135.388188, 33.9559486], [135.3876005, 33.9554409], [135.3872782, 33.9551854], [135.3872425, 33.9551623], [135.3864754, 33.9546668], [135.3861807, 33.9544764], [135.3861387, 33.9544569], [135.386119, 33.9544477], [135.3859481, 33.9543681], [135.3857115, 33.9542937], [135.3854414, 33.9542572], [135.3850329, 33.954202], [135.3845742, 33.9541554], [135.384202, 33.9541877], [135.3838835, 33.9542759], [135.3831084, 33.9544978], [135.3829082, 33.9545221], [135.3827347, 33.9545079], [135.3825592, 33.9544487], [135.3818934, 33.9540378], [135.381265, 33.9536491], [135.3811605, 33.9535936], [135.3808816, 33.9534517], [135.3805383, 33.9532986], [135.380169, 33.9532412], [135.3797651, 33.9532495], [135.3794894, 33.9532825], [135.3792962, 33.953302], [135.378926, 33.9533153], [135.3782628, 33.9533008], [135.3771895, 33.9531929], [135.3763927, 33.9529838], [135.3756772, 33.9526331], [135.3752333, 33.9522149], [135.3749438, 33.9518682], [135.3748037, 33.9516427], [135.3747714, 33.9515693], [135.3747548, 33.9515316], [135.3746536, 33.9513016], [135.3745864, 33.9510715], [135.374459, 33.950561], [135.37439, 33.9503487], [135.374329, 33.9502118], [135.3741152, 33.9498165], [135.3736583, 33.9491684], [135.3727831, 33.9478704], [135.3725567, 33.9476454], [135.3723363, 33.9475117], [135.3715702, 33.947202], [135.371419, 33.9471606], [135.3712214, 33.9471105], [135.3709491, 33.9471046], [135.3708105, 33.9471261], [135.3706221, 33.9471554], [135.3702372, 33.947255], [135.3701776, 33.9472675], [135.3695679, 33.9474421], [135.3687614, 33.9476726], [135.36855, 33.9477808], [135.3683422, 33.9479425], [135.3682392, 33.9480728], [135.3681484, 33.9482462], [135.3679719, 33.9489714], [135.3679183, 33.9491105], [135.3674524, 33.9497208], [135.3671105, 33.9501145], [135.3666705, 33.9504244], [135.3661209, 33.9507834], [135.3659377, 33.9509628], [135.365756, 33.9512716], [135.3655439, 33.9515886], [135.365179, 33.9520445], [135.3649597, 33.9524965], [135.3644996, 33.9535613], [135.3643433, 33.9541513], [135.3642903, 33.9545744], [135.3643001, 33.9549592], [135.3642882, 33.9552631], [135.3641975, 33.9558765], [135.3642138, 33.9560948], [135.3643974, 33.9565804], [135.3646503, 33.9570542], [135.365093, 33.9577581], [135.3658947, 33.9586718], [135.3670376, 33.9599073], [135.3672396, 33.9602172], [135.3673506, 33.9605079], [135.3673708, 33.9608501], [135.3673126, 33.9611183], [135.3670434, 33.9619198], [135.3668608, 33.9625061], [135.3667435, 33.9627404], [135.3665466, 33.9630306], [135.3663477, 33.9632632], [135.3656837, 33.9638258], [135.3653808, 33.9641007], [135.365187, 33.9643283], [135.3649656, 33.9646278], [135.3648218, 33.9648841], [135.364524, 33.9653401], [135.3642578, 33.9656269], [135.3639048, 33.965901], [135.3635305, 33.9662156], [135.3630793, 33.9666957], [135.3628399, 33.9669474], [135.3627993, 33.9670094], [135.362546, 33.9673635], [135.3622835, 33.9676877], [135.3620282, 33.9679473], [135.361757, 33.9682093], [135.36163, 33.9683995], [135.3615334, 33.9686244], [135.36148, 33.9689187], [135.3613434, 33.9702573], [135.3613607, 33.9704451], [135.3614134, 33.9705755], [135.3615367, 33.9707243], [135.3624541, 33.9712901], [135.36277, 33.9715509], [135.3629821, 33.9718009], [135.3631609, 33.9721407], [135.3633761, 33.9728199], [135.3634475, 33.9732598], [135.3633394, 33.9740042], [135.3634129, 33.9744203], [135.3636393, 33.9751782], [135.3637474, 33.9758448], [135.3637707, 33.9763221], [135.3637871, 33.9772737], [135.3638193, 33.9776192], [135.3638637, 33.977797], [135.3640228, 33.9780423], [135.364383, 33.978523], [135.3646695, 33.9792112], [135.3649742, 33.9799652], [135.36508, 33.9802643], [135.3650831, 33.9803106], [135.3650823, 33.9804068], [135.365006, 33.9805166], [135.36488, 33.9805825], [135.3640828, 33.9807801], [135.3638864, 33.9808258], [135.363714, 33.9808896], [135.3635459, 33.9809825], [135.3634652, 33.981138], [135.3633988, 33.9814836], [135.3633108, 33.9819708], [135.3632858, 33.9820551], [135.3632639, 33.982129], [135.3630211, 33.9823929], [135.3627845, 33.9825493], [135.3620746, 33.982743], [135.361844, 33.9828631], [135.3615034, 33.9831693], [135.3610933, 33.9835956], [135.360977, 33.9838324], [135.3609811, 33.9840895], [135.3610729, 33.9843821], [135.3611035, 33.9847154], [135.3611382, 33.9853226], [135.3610403, 33.9855391], [135.3609088, 33.9856829], [135.3606658, 33.9858388], [135.3600936, 33.9861526], [135.3597839, 33.9863472], [135.3594343, 33.9865815], [135.3586356, 33.9872707], [135.358423, 33.9874581], [135.3581469, 33.9877014], [135.3574202, 33.9883786], [135.3572785, 33.9885245], [135.3567093, 33.9891429], [135.3565232, 33.9893369], [135.3562077, 33.9896383], [135.3558999, 33.9898655], [135.355461, 33.9901024], [135.3547099, 33.9903832], [135.353919, 33.990647], [135.3536406, 33.9906898], [135.3533019, 33.9907032], [135.3523705, 33.9906513], [135.3519331, 33.9906806], [135.3514662, 33.9907759], [135.3511157, 33.9909212], [135.350908, 33.9910787], [135.3507239, 33.9912655], [135.3506105, 33.9915147], [135.3505693, 33.991754], [135.3505823, 33.9919909], [135.3507302, 33.9924071], [135.3508301, 33.9927767], [135.3508489, 33.993072], [135.3508614, 33.9940822], [135.3508572, 33.995329], [135.3508051, 33.9956899], [135.3506989, 33.996037], [135.3504812, 33.9964665], [135.3504307, 33.9965438], [135.3496693, 33.997514], [135.34936, 33.9980473], [135.347405, 34.00184], [135.346543, 34.003332], [135.345793, 34.004751], [135.343738, 34.008635], [135.341112, 34.013549], [135.341077, 34.013617], [135.340748, 34.014183], [135.3406044, 34.0143317], [135.340432, 34.0144286], [135.3402481, 34.0144896], [135.3400649, 34.0145207], [135.3398196, 34.0145063], [135.3392132, 34.0144256], [135.33796, 34.0142472], [135.3374984, 34.0142041], [135.336933, 34.0142089], [135.336431, 34.0142747], [135.335867, 34.0143942], [135.335453, 34.01454], [135.3348226, 34.0147721], [135.334639, 34.0148267], [135.3344374, 34.0148713], [135.3342677, 34.0148915], [135.3339911, 34.0149137], [135.3336314, 34.0149131], [135.332991, 34.0149034], [135.3322625, 34.0149098], [135.3317829, 34.0148923], [135.3316576, 34.0148876], [135.3315651, 34.0148931], [135.3314349, 34.0148987], [135.331329, 34.0149059], [135.3309647, 34.0149899], [135.3308364, 34.0150189], [135.3305202, 34.0150923], [135.3304332, 34.0151082], [135.3255272, 34.0161648], [135.3246249, 34.0163472], [135.3238697, 34.0165144], [135.3229085, 34.0167427], [135.3220867, 34.0169481], [135.3213719, 34.0171335], [135.3208291, 34.0172758], [135.3204204, 34.0173961]], [[135.3770656, 33.8509926], [135.3794099, 33.851946], [135.3803165, 33.8522489], [135.3811426, 33.8524494], [135.3818882, 33.8525608], [135.3822641, 33.8525788], [135.3853586, 33.8527266], [135.3858305, 33.8527469], [135.3860624, 33.8527569], [135.3864322, 33.8528168], [135.3866744, 33.8528841], [135.3869784, 33.8529145], [135.3872228, 33.8529006], [135.3874032, 33.8528516], [135.3877094, 33.852688], [135.3879704, 33.8525201]], [[135.3912032, 33.8526115], [135.3910738, 33.8526466], [135.3909473, 33.8526563], [135.3904477, 33.8526731], [135.3903507, 33.8526651], [135.390131, 33.8525874], [135.3900249, 33.8525235], [135.3898815, 33.8523681], [135.3897613, 33.8523312], [135.3897123, 33.8522943], [135.389688, 33.8522511]], [[135.3879704, 33.8525201], [135.3880734, 33.8524746], [135.3883361, 33.8523907], [135.388577, 33.8523466], [135.3894697, 33.852266], [135.389688, 33.8522511], [135.3897947, 33.8522417], [135.3902179, 33.8522139], [135.3905089, 33.8521878], [135.3906877, 33.8521497], [135.3908202, 33.8520674], [135.3909152, 33.8519644], [135.3909774, 33.8518599], [135.3910064, 33.8517417], [135.3910612, 33.8512079], [135.3910745, 33.85107], [135.3911061, 33.8509373]], [[135.3204204, 34.0173961], [135.3200745, 34.0174991], [135.3195027, 34.017735], [135.3190391, 34.0179579], [135.3187704, 34.0180878], [135.3184766, 34.0182434], [135.3177807, 34.0185592], [135.3175258, 34.0186485], [135.3174548, 34.0186813], [135.3166966, 34.0189356], [135.3163284, 34.0190284], [135.316116, 34.0190829], [135.3159179, 34.0191287], [135.3157091, 34.0191745], [135.3154861, 34.0192173], [135.315238, 34.0192645], [135.3149828, 34.0193028], [135.314437, 34.0193649], [135.3139841, 34.0194004], [135.3131122, 34.0195184], [135.3129627, 34.0195449], [135.3126671, 34.0196067], [135.3123768, 34.0196714], [135.3120901, 34.019742], [135.3117239, 34.0198487], [135.3105082, 34.0202194], [135.3102504, 34.0202958], [135.3100831, 34.0203332], [135.3099108, 34.0203585], [135.3097283, 34.0203693], [135.3095507, 34.0203644], [135.3093906, 34.0203492], [135.3092391, 34.0203212], [135.3088355, 34.0201759], [135.3085584, 34.0200101], [135.3083086, 34.0198137], [135.3081917, 34.0196957], [135.3080441, 34.0195587], [135.3079304, 34.0194608], [135.30781, 34.0193659], [135.307693, 34.0192899], [135.3075602, 34.0192111], [135.3073783, 34.0191228], [135.3072385, 34.019085], [135.307064, 34.0190458], [135.3068734, 34.0190225], [135.3067099, 34.0190179], [135.3065403, 34.0190241], [135.3060704, 34.0190495], [135.3058295, 34.019063], [135.3056605, 34.0190649], [135.3054836, 34.0190581], [135.3053258, 34.0190379], [135.30518, 34.0190053], [135.3050217, 34.0189537], [135.3049135, 34.0189033], [135.3047829, 34.0188421], [135.3046127, 34.0187367], [135.3044166, 34.0185936], [135.3042896, 34.0184839], [135.3041818, 34.0183873], [135.3040478, 34.0182713], [135.303911, 34.0181724], [135.3037934, 34.0181036], [135.3036738, 34.0180465], [135.3035271, 34.0179886], [135.3033972, 34.0179509], [135.3032508, 34.0179094], [135.3030826, 34.0178844], [135.3029388, 34.0178758], [135.3027783, 34.0178806], [135.3025892, 34.0179], [135.302416, 34.0179319], [135.3021781, 34.0179828], [135.2998681, 34.0184702], [135.2996074, 34.0185249], [135.2994074, 34.0185695], [135.2990554, 34.0186609], [135.2989276, 34.0186978], [135.2988108, 34.0187414], [135.2987014, 34.0187945], [135.2986104, 34.0188463], [135.2985396, 34.0188891], [135.29846, 34.018948], [135.2983668, 34.0190163], [135.2982641, 34.0191143], [135.2982006, 34.0191973], [135.2981391, 34.0192714], [135.2980715, 34.0193672], [135.2980058, 34.0194976], [135.2979422, 34.0196654], [135.2979223, 34.019802], [135.2979077, 34.0200647], [135.2979352, 34.0202637], [135.2981117, 34.0210192], [135.2981297, 34.0211556], [135.298143, 34.021224], [135.2981513, 34.0212894], [135.2981469, 34.0213458], [135.2981331, 34.0213967], [135.2981159, 34.021434], [135.2980959, 34.0214679], [135.2980629, 34.0215167], [135.2980177, 34.0215644], [135.2979765, 34.0216066], [135.2979337, 34.0216444], [135.2978771, 34.0216833], [135.2977853, 34.0217288], [135.2976845, 34.02177], [135.2975683, 34.0218098], [135.297442, 34.0218475], [135.2973945, 34.0218592], [135.2964015, 34.0221973], [135.2962522, 34.0223276], [135.2961707, 34.022481], [135.2961587, 34.022763], [135.296143, 34.023345], [135.2962363, 34.0240675], [135.2964154, 34.0253078], [135.2963239, 34.025758], [135.2960845, 34.0265471], [135.2960676, 34.0270625], [135.2961056, 34.0274007], [135.2961464, 34.0278065], [135.296091, 34.028037], [135.296041, 34.028167], [135.2960154, 34.0282425], [135.2959239, 34.0284107], [135.2957787, 34.0285509], [135.295555, 34.028626], [135.2954284, 34.0286679], [135.2948785, 34.0288316], [135.2941887, 34.029072], [135.293356, 34.029577], [135.2931612, 34.0297062], [135.2925411, 34.0301175], [135.292396, 34.030304], [135.292159, 34.0307112], [135.292005, 34.031156], [135.291956, 34.031305], [135.2918446, 34.0315918], [135.291624, 34.031872], [135.2913352, 34.0321839], [135.2905572, 34.0329523], [135.290447, 34.033121], [135.2903323, 34.0332904], [135.289998, 34.0339516], [135.2898969, 34.0341475], [135.2898119, 34.0342602], [135.2895164, 34.0344431], [135.2889613, 34.0347943], [135.2887762, 34.0349262], [135.2886289, 34.0352445], [135.2884896, 34.0358925], [135.2883703, 34.0361135], [135.2881573, 34.0362421], [135.2878827, 34.0362751], [135.2874151, 34.0361762], [135.2868002, 34.0359766], [135.2863071, 34.0358134], [135.2849894, 34.0353929], [135.2847754, 34.0353662], [135.2844601, 34.0353269], [135.2838134, 34.0352593], [135.2832801, 34.0352874], [135.2830294, 34.0354028], [135.2828224, 34.0355644], [135.2826334, 34.0357013], [135.282514, 34.0358629], [135.2824603, 34.0360278], [135.2824981, 34.0362652], [135.2830612, 34.0375992], [135.2835388, 34.0387387], [135.2837776, 34.0395697], [135.2839069, 34.0403596], [135.2840084, 34.0407751], [135.2846392, 34.0417677], [135.2849237, 34.0422179], [135.2850014, 34.0424718], [135.2849337, 34.0427769], [135.2846472, 34.043194], [135.2844362, 34.0434661], [135.2839149, 34.0438437], [135.2836701, 34.0439195], [135.2833179, 34.0439327], [135.2830811, 34.0438981], [135.2827508, 34.043748], [135.2822533, 34.0434644], [135.2818141, 34.0432179], [135.2815867, 34.0430901], [135.281432, 34.042899], [135.2811549, 34.0425757], [135.2806315, 34.0422888], [135.2802873, 34.0421387], [135.279752, 34.0417249], [135.279284, 34.041327], [135.278161, 34.04044], [135.2776745, 34.040132], [135.277259, 34.039826], [135.276675, 34.039417], [135.2759803, 34.0388931], [135.275661, 34.038645], [135.2751445, 34.0385013], [135.2750726, 34.0384852], [135.2745577, 34.0383696], [135.2741989, 34.0383532], [135.2738584, 34.0383661], [135.2732421, 34.0384185], [135.272894, 34.038495], [135.2727145, 34.0386401], [135.2726103, 34.0388208], [135.2724573, 34.0391644], [135.2722852, 34.0395577], [135.2721638, 34.039777], [135.2715271, 34.0400936], [135.2713271, 34.04019], [135.2711271, 34.040209], [135.2708027, 34.0402222], [135.2698317, 34.0401447], [135.269329, 34.039975], [135.269142, 34.039865], [135.2687412, 34.039591], [135.2686683, 34.0395249], [135.2686156, 34.0394581], [135.2685736, 34.0393859], [135.2685337, 34.039302], [135.2684984, 34.039218], [135.2683988, 34.0389114], [135.2683558, 34.0388127], [135.2683047, 34.0387258], [135.2682537, 34.0386624], [135.268193, 34.0385931], [135.2681243, 34.0385304], [135.2680812, 34.0385031], [135.2680625, 34.0384912], [135.2678732, 34.0384017], [135.2674503, 34.0382075], [135.2672005, 34.0380976], [135.2670462, 34.0380298], [135.2669537, 34.0379896], [135.2668675, 34.0379603], [135.2667586, 34.0379297], [135.2666576, 34.0379086], [135.2665362, 34.0378904], [135.2661518, 34.0378455], [135.2660218, 34.0378154], [135.2659116, 34.0377787], [135.2658293, 34.037746], [135.2657308, 34.0377], [135.2655439, 34.0376146], [135.2654222, 34.0375623], [135.2653045, 34.0375167], [135.2652294, 34.0374901], [135.2651423, 34.0374702], [135.2650448, 34.0374506], [135.2648261, 34.0374211], [135.2645871, 34.0373816], [135.2643844, 34.0373461], [135.2641396, 34.0372903], [135.2638239, 34.0372161], [135.2636574, 34.0371862], [135.2634909, 34.037163], [135.2627981, 34.0371359], [135.2620273, 34.0371283], [135.2616418, 34.0371678], [135.2611167, 34.0372632], [135.260504, 34.0373892], [135.2602475, 34.0374897], [135.2599711, 34.0376437], [135.2596425, 34.0378943], [135.259426, 34.0380954], [135.2589914, 34.0385039], [135.2586505, 34.0389543], [135.2582666, 34.039462], [135.2581407, 34.0397178], [135.2579599, 34.0404219], [135.2578854, 34.0407579], [135.257849, 34.0408895], [135.2578068, 34.0410129], [135.2577705, 34.041119], [135.2577184, 34.0412447], [135.257632, 34.041414], [135.2574942, 34.0416685], [135.2571683, 34.0422643], [135.2570551, 34.0425004], [135.2569722, 34.0426334], [135.2567023, 34.0431614], [135.2565829, 34.0433791], [135.2564135, 34.043712], [135.2563483, 34.0439513], [135.2563179, 34.0442266], [135.2563331, 34.044475], [135.2564786, 34.04495], [135.2564917, 34.0452289], [135.2564526, 34.0454592], [135.2563933, 34.0457051], [135.2562979, 34.0460132], [135.2560176, 34.0468952], [135.2559688, 34.0470488], [135.2557707, 34.0476555], [135.2555532, 34.0483651], [135.2551846, 34.0494235], [135.2549266, 34.0502644], [135.2549118, 34.0502995], [135.2546769, 34.0511074], [135.2543026, 34.0522989], [135.2540401, 34.053121], [135.2539596, 34.0532732], [135.2538232, 34.0534428], [135.2536499, 34.0536313], [135.2535313, 34.0537607], [135.253272, 34.0540329], [135.2530532, 34.0542619], [135.2526158, 34.054736], [135.2519456, 34.0554536], [135.2517846, 34.0556204], [135.2511297, 34.0563148], [135.2504771, 34.0569973], [135.2503091, 34.0572307], [135.2496173, 34.058392], [135.2495699, 34.0584793], [135.2495328, 34.0585476], [135.2494395, 34.0587198], [135.2493289, 34.05901], [135.2493087, 34.0591021], [135.2492944, 34.0591943], [135.2492846, 34.0593205], [135.2492866, 34.0594443], [135.2492909, 34.0595334], [135.2492991, 34.0596052], [135.2493135, 34.0596995], [135.2514703, 34.0590446], [135.2515762, 34.0590083], [135.2527872, 34.0586274], [135.2528358, 34.058612], [135.2532726, 34.0584738], [135.2535955, 34.0583962], [135.253663, 34.058389], [135.2539517, 34.0583582], [135.2543475, 34.0583927], [135.2548266, 34.0585601], [135.2553396, 34.0588031], [135.255937, 34.059115], [135.2561159, 34.0592073], [135.2562874, 34.0593029], [135.2564553, 34.0594168], [135.2565723, 34.0595116], [135.2566874, 34.0596141], [135.2568146, 34.0597624], [135.2569258, 34.0599242], [135.2569801, 34.0600188], [135.2570312, 34.0601253], [135.2570789, 34.0602244], [135.2571198, 34.0603291], [135.2571573, 34.0604406], [135.2574292, 34.0618492], [135.2574503, 34.0619587], [135.2575364, 34.0624571], [135.2575595, 34.0625851], [135.2576156, 34.0628954], [135.257626, 34.0632164], [135.2575604, 34.063533], [135.2574776, 34.0637371], [135.2572526, 34.0641064], [135.2569438, 34.0645521], [135.2563995, 34.0652748], [135.256334, 34.0653798], [135.2562773, 34.0654849], [135.2562378, 34.0655824], [135.2562143, 34.0656763], [135.2562041, 34.0657452], [135.2562056, 34.0658165], [135.2562111, 34.0659034], [135.2562255, 34.0659867], [135.2562506, 34.066084], [135.2562783, 34.0661813], [135.2563542, 34.0663857], [135.2564511, 34.066552], [135.2565701, 34.0667106], [135.2566898, 34.06682], [135.2568208, 34.0669107], [135.2570009, 34.0670199], [135.2575581, 34.0673578], [135.2576116, 34.0673902], [135.2578767, 34.0675434], [135.2581418, 34.0676966], [135.2585865, 34.0679628], [135.2591491, 34.0682732], [135.2598968, 34.0686875], [135.2601387, 34.0687884], [135.2604822, 34.0689316], [135.2606719, 34.0690083], [135.2608482, 34.0690906], [135.2609954, 34.0691645], [135.2611301, 34.0692372], [135.2612552, 34.0693138], [135.2614298, 34.069434], [135.2618017, 34.0696993], [135.2628126, 34.0703675], [135.2631931, 34.0706349], [135.2633877, 34.0707765], [135.2635718, 34.0709118], [135.2638599, 34.0711381], [135.26433, 34.0715156], [135.2645509, 34.0716944], [135.2650909, 34.0721314], [135.2658573, 34.0727565], [135.2658692, 34.0727657], [135.2659374, 34.0728216], [135.2660233, 34.0728872], [135.2661408, 34.0729809], [135.2662617, 34.0730704], [135.2663407, 34.0731247], [135.2664179, 34.0731762], [135.2665344, 34.0732478], [135.2666677, 34.0733168], [135.2668329, 34.073401], [135.2672576, 34.0735809], [135.2672725, 34.073587], [135.267882, 34.0738494], [135.2682056, 34.0739925], [135.2694188, 34.0745043], [135.2695533, 34.0745538], [135.2697101, 34.0745952], [135.2698349, 34.0746206], [135.2699189, 34.074631], [135.2701121, 34.0746423], [135.270273, 34.0746485], [135.2704453, 34.0746466], [135.27099, 34.0746288], [135.2710942, 34.0746306], [135.2711636, 34.0746352], [135.2712195, 34.0746409], [135.2712694, 34.0746465], [135.2713796, 34.0746621], [135.2714687, 34.0746831], [135.271568, 34.0747122], [135.2716587, 34.0747386], [135.271736, 34.0747658], [135.2718186, 34.0748014], [135.2718893, 34.0748353], [135.2719565, 34.0748663], [135.2720221, 34.0748973], [135.2720807, 34.0749284], [135.2721878, 34.0749795], [135.2723016, 34.0750329], [135.2723843, 34.0750706], [135.2724552, 34.0751003], [135.2725243, 34.0751271], [135.2726124, 34.0751579], [135.2726902, 34.0751831], [135.2727693, 34.0752067], [135.272876, 34.0752374], [135.2735809, 34.0754103], [135.2743939, 34.0756843], [135.2753534, 34.0760272], [135.2755527, 34.0761011], [135.2757636, 34.0761772], [135.276322, 34.0763584], [135.2764835, 34.0763986], [135.2767285, 34.0764597], [135.2769942, 34.0765029], [135.2773379, 34.0765256], [135.2775822, 34.0765368], [135.2776862, 34.0765367], [135.2781386, 34.0765492], [135.2783925, 34.0765642], [135.278733, 34.0766098], [135.2792221, 34.076694], [135.2793877, 34.0767345], [135.2796231, 34.0768084], [135.2799049, 34.0769226], [135.2801102, 34.0770426], [135.2803152, 34.0771817], [135.2805383, 34.0773479], [135.2807369, 34.0775233], [135.2809349, 34.0777378], [135.2811539, 34.0780281], [135.2812574, 34.0782148], [135.2812816, 34.0783619], [135.2812937, 34.0785474], [135.2812704, 34.0787506], [135.2812318, 34.0789578], [135.2812382, 34.0791735], [135.2812874, 34.0795153], [135.2814049, 34.0799975], [135.2814557, 34.0802251], [135.2814751, 34.0803214], [135.2815151, 34.0804737], [135.2815595, 34.0807586], [135.2816167, 34.0814011], [135.2816175, 34.0819413], [135.2816524, 34.0820689], [135.2817313, 34.0821781], [135.2819164, 34.0823459], [135.2822344, 34.082538], [135.2824897, 34.0827016], [135.2827418, 34.0828977], [135.2828862, 34.0830103], [135.2829434, 34.0830516], [135.2829866, 34.0830804], [135.2830327, 34.0831049], [135.2830788, 34.0831294], [135.2831227, 34.0831685], [135.283152, 34.0832036], [135.2831681, 34.0832415], [135.2831776, 34.0832768], [135.2831772, 34.083323], [135.2831658, 34.0833745], [135.2831512, 34.0834179], [135.2831187, 34.0834615], [135.2830732, 34.0835056], [135.2828094, 34.0837022], [135.28259, 34.0838569], [135.2824934, 34.0839433], [135.2824358, 34.0840053], [135.2823931, 34.0840604], [135.2823553, 34.0841127], [135.2823349, 34.0841499], [135.282324, 34.084186], [135.2823146, 34.0842343], [135.2823008, 34.0842728], [135.2822474, 34.0843907], [135.2821999, 34.0845067], [135.2821621, 34.0846093], [135.2821399, 34.0846875], [135.2821306, 34.0847294], [135.2821189, 34.0848025], [135.2821137, 34.0848702], [135.2821098, 34.0849814], [135.2821131, 34.0850342], [135.2821196, 34.0850734], [135.2821327, 34.0851088], [135.2821537, 34.0851572], [135.2821845, 34.085211], [135.2822064, 34.0852486], [135.2822397, 34.0852902], [135.2822836, 34.0853329], [135.2823257, 34.0853697], [135.2825694, 34.0855408], [135.2826249, 34.0855846], [135.2826705, 34.0856214], [135.2827031, 34.0856555], [135.2827277, 34.0856919], [135.2827568, 34.0857539], [135.2827697, 34.0858024], [135.2827759, 34.0858508], [135.2827801, 34.0858937], [135.2827746, 34.0859453], [135.2827656, 34.0859807], [135.2827502, 34.0860444], [135.2827453, 34.086107], [135.2827437, 34.086248], [135.2827437, 34.0863055], [135.2827372, 34.0863475], [135.2827211, 34.0864011], [135.2826886, 34.0864708], [135.2826466, 34.0865375], [135.2826014, 34.0865927], [135.2825301, 34.0866694], [135.2824745, 34.0867296], [135.2824157, 34.0867735], [135.2823534, 34.0868102], [135.2821132, 34.0869231], [135.281969, 34.0869982], [135.281658, 34.0871827], [135.2815636, 34.0872459], [135.2814805, 34.0873116], [135.2813912, 34.0873867], [135.2813144, 34.0874683], [135.2812645, 34.087534], [135.2812224, 34.0875953], [135.2811766, 34.0876623], [135.2807528, 34.0884173], [135.2807116, 34.0884865], [135.2806679, 34.0885562], [135.2806089, 34.088629], [135.2804229, 34.0888292], [135.2803869, 34.0888702], [135.2803591, 34.0889187], [135.2802015, 34.0892223], [135.2801583, 34.0892678], [135.2801152, 34.0893085], [135.2800599, 34.0893348], [135.2799958, 34.0893543], [135.2795278, 34.08942], [135.2794664, 34.0894476], [135.2794256, 34.0894842], [135.2794037, 34.0895333], [135.2793957, 34.0895759], [135.2793974, 34.0896291], [135.2794107, 34.0896823], [135.2794304, 34.089731], [135.2794537, 34.0897713], [135.2794847, 34.0898068], [135.279525, 34.0898352], [135.2795797, 34.0898652], [135.2796575, 34.0899017], [135.2801195, 34.0901059], [135.2801659, 34.0901315], [135.2802103, 34.0901651], [135.2802523, 34.0902075], [135.2802886, 34.0902509], [135.2803173, 34.0902943], [135.280346, 34.090341], [135.2803689, 34.0903796], [135.2803896, 34.0904283], [135.2804213, 34.0905119], [135.280478, 34.090707], [135.2805731, 34.0911558], [135.2805881, 34.0911967], [135.280606, 34.0912255], [135.2806331, 34.0912589], [135.2806582, 34.0912851], [135.280676, 34.0912988], [135.2806921, 34.0913112], [135.2807802, 34.091378], [135.280812, 34.0914092], [135.280838, 34.091438], [135.2808859, 34.0915547], [135.2809075, 34.0915917], [135.2809347, 34.0916163], [135.2810645, 34.0917069], [135.281109, 34.0917421], [135.281165, 34.0918087], [135.2812328, 34.091885], [135.2812597, 34.0919154], [135.2812942, 34.0919435], [135.2813462, 34.0919716], [135.2815254, 34.0920297], [135.2816418, 34.0920544], [135.2816767, 34.0920575], [135.2817223, 34.0920644], [135.2817714, 34.0920788], [135.2818175, 34.0921028], [135.2818832, 34.0921467], [135.2819343, 34.0921956], [135.2821286, 34.0925725], [135.2822213, 34.0927696], [135.2822489, 34.0928239], [135.2822584, 34.092868], [135.282262, 34.092912], [135.2822566, 34.0929483], [135.2822367, 34.0929966], [135.2822064, 34.0930358], [135.2821622, 34.0930734], [135.2820392, 34.0931425], [135.2820036, 34.0931715], [135.2819708, 34.0932029], [135.2819386, 34.0932408], [135.2819223, 34.0932799], [135.2819156, 34.093331], [135.2819249, 34.0934195], [135.2819379, 34.0934674], [135.2819626, 34.0935104], [135.2821286, 34.0937654], [135.2821665, 34.0938411], [135.2821854, 34.0939152], [135.2821898, 34.0939772], [135.2821862, 34.0940264], [135.2821771, 34.0940751], [135.282165, 34.0941081], [135.2821441, 34.0941448], [135.2821117, 34.0941927], [135.2820677, 34.094249], [135.2820127, 34.0943015], [135.2813185, 34.0949861], [135.2812966, 34.0950074], [135.2812677, 34.0950213], [135.2812301, 34.0950324], [135.2811814, 34.0950449], [135.2810958, 34.0950625], [135.2808832, 34.0951063], [135.2808266, 34.095121], [135.2807884, 34.0951433], [135.2807637, 34.0951675], [135.2807559, 34.0951863], [135.2807556, 34.0952108], [135.2807651, 34.0952395], [135.2807821, 34.0952596], [135.2808143, 34.0952847], [135.2808561, 34.0953117], [135.2809187, 34.0953426], [135.281056, 34.0953993], [135.2810878, 34.0954143], [135.2811151, 34.0954308], [135.28114, 34.0954497], [135.2811696, 34.0954798], [135.2811986, 34.0955119], [135.2812291, 34.0955473], [135.281257, 34.095588], [135.2813285, 34.0957307], [135.2814, 34.0958458], [135.2815744, 34.0960288], [135.2817769, 34.0962203], [135.2818482, 34.0963061], [135.2818735, 34.096347], [135.2818948, 34.0963906], [135.2819228, 34.0964155], [135.2819621, 34.0964354], [135.2820873, 34.0964719], [135.2822137, 34.0965083], [135.2822773, 34.0965343], [135.2823215, 34.0965678], [135.2823678, 34.0966118], [135.2824482, 34.0966916], [135.2824935, 34.0967279], [135.2825499, 34.0967596], [135.2826004, 34.0967816], [135.2828445, 34.0968888], [135.2828869, 34.096913], [135.2829221, 34.0969395], [135.2829604, 34.0969709], [135.2829905, 34.0970026], [135.2830206, 34.097021], [135.2830545, 34.0970337], [135.283089, 34.0970479], [135.2831425, 34.0970742], [135.283197, 34.0971144], [135.2832529, 34.0971618], [135.283379, 34.097273], [135.2834673, 34.09736], [135.2836117, 34.0975123], [135.2837464, 34.0976885], [135.2839621, 34.0980541], [135.2840627, 34.0982321], [135.2841028, 34.0983115], [135.2841458, 34.0984065], [135.2841897, 34.0985011], [135.2842131, 34.0985557], [135.2842438, 34.0986006], [135.28429, 34.0986534], [135.284348, 34.0986954], [135.2844723, 34.0987711], [135.2845325, 34.0988106], [135.2845738, 34.0988437], [135.2846034, 34.0988768], [135.2846282, 34.0989188], [135.2846413, 34.0989608], [135.2846319, 34.0990392], [135.2845904, 34.099225], [135.2845954, 34.0992708], [135.2846178, 34.0993118], [135.2846477, 34.099344], [135.2847023, 34.0993811], [135.2847541, 34.0994107], [135.2848135, 34.0994364], [135.2848875, 34.0994645], [135.2855434, 34.0996814], [135.2856168, 34.0997167], [135.2856757, 34.0997544], [135.2857267, 34.0998031], [135.2857573, 34.0998518], [135.2857724, 34.0998897], [135.2857859, 34.0999424], [135.2857803, 34.1000204], [135.2857433, 34.1001955], [135.2857292, 34.1002771], [135.2857296, 34.1003586], [135.2857358, 34.1004207], [135.2857537, 34.1004852], [135.2857727, 34.1005316], [135.2857975, 34.100578], [135.2858425, 34.1006571], [135.2859916, 34.1008719], [135.2860272, 34.1009356], [135.2860448, 34.1009934], [135.2860487, 34.1010484], [135.2860402, 34.1011082], [135.2860213, 34.1011566], [135.2859908, 34.1011975], [135.28595, 34.1012341], [135.2858959, 34.1012732], [135.2858353, 34.1013045], [135.2856652, 34.1013789], [135.2855513, 34.1014255], [135.2854956, 34.1014592], [135.2854382, 34.1015072], [135.2853965, 34.101559], [135.2853738, 34.1016066], [135.2853641, 34.101655], [135.2853627, 34.1016963], [135.2853733, 34.101739], [135.2853978, 34.1017996], [135.2854376, 34.1018653], [135.2856277, 34.1021024], [135.2857557, 34.1022436], [135.2858274, 34.1023365], [135.2858612, 34.1024041], [135.285873, 34.102449], [135.2858761, 34.1025124], [135.2858531, 34.1025764], [135.2858015, 34.1026519], [135.2857694, 34.1026922], [135.2857425, 34.1027396], [135.2857288, 34.1027917], [135.2857272, 34.1028481], [135.2857887, 34.1029946], [135.2858315, 34.1030942], [135.2858476, 34.1031591], [135.285852, 34.103206], [135.2858387, 34.1032561], [135.2858172, 34.1032999], [135.2857804, 34.1033532], [135.2855217, 34.1036532], [135.2852396, 34.1039569], [135.2851899, 34.1040027], [135.2851377, 34.1040474], [135.2850898, 34.1040767], [135.2850317, 34.1040955], [135.2849721, 34.1041056], [135.2847356, 34.1041161], [135.2846792, 34.1041277], [135.2846274, 34.1041436], [135.2845157, 34.104197], [135.2844848, 34.1042169], [135.2844578, 34.1042431], [135.2844443, 34.1042703], [135.2844361, 34.1043122], [135.2844305, 34.1044318], [135.2844237, 34.1044711], [135.2844142, 34.1045009], [135.2843758, 34.1045751], [135.2843221, 34.1046661], [135.2843015, 34.1047132], [135.2842784, 34.1047824], [135.284253, 34.1049158], [135.2842207, 34.1050655], [135.2842223, 34.1051095], [135.284229, 34.1051493], [135.2842527, 34.1051863], [135.2842879, 34.1052268], [135.2843184, 34.1052407], [135.2843604, 34.1052502], [135.2843974, 34.1052545], [135.2844437, 34.1052539], [135.2844824, 34.1052429], [135.2845163, 34.1052261], [135.2845527, 34.1051989], [135.2846674, 34.1051172], [135.2847158, 34.1050939], [135.2847641, 34.1050746], [135.2848372, 34.1050583], [135.2851608, 34.1050506], [135.2852595, 34.1050525], [135.2853264, 34.1050603], [135.2853671, 34.1050769], [135.2854078, 34.1050995], [135.2855322, 34.105196], [135.285597, 34.1052508], [135.2856339, 34.1052797], [135.2856615, 34.1052981], [135.2856937, 34.1053057], [135.2857334, 34.1053054], [135.2857733, 34.1052934], [135.2858238, 34.1052698], [135.2861814, 34.1051047], [135.2862344, 34.1050792], [135.2862823, 34.1050652], [135.2863362, 34.1050541], [135.2863865, 34.1050581], [135.2864391, 34.1050795], [135.2864822, 34.1051137], [135.2865116, 34.1051479], [135.2866655, 34.1053429], [135.286977, 34.1057515], [135.2870126, 34.1057956], [135.2870585, 34.1058426], [135.2871366, 34.105908], [135.28744, 34.1061348], [135.2875229, 34.1061991], [135.2875644, 34.1062405], [135.2875876, 34.106281], [135.2876073, 34.1063272], [135.2876193, 34.1063683], [135.2876243, 34.1064237], [135.2876208, 34.1065077], [135.2876091, 34.1068881], [135.2876179, 34.1069492], [135.2876347, 34.1069941], [135.2876617, 34.1070448], [135.2876849, 34.1070805], [135.2877207, 34.1071149], [135.2877661, 34.1071563], [135.2877874, 34.1071863], [135.2878014, 34.1072175], [135.287805, 34.1072544], [135.287802, 34.1072969], [135.2877876, 34.1073399], [135.2877594, 34.1073943], [135.2876673, 34.107568], [135.2876474, 34.1076192], [135.2876349, 34.1076764], [135.2876294, 34.1077337], [135.2876278, 34.1077946], [135.2876238, 34.107855], [135.2876327, 34.1079231], [135.2876484, 34.1079757], [135.2876684, 34.1080264], [135.2877169, 34.1081226], [135.2877554, 34.1081843], [135.2878016, 34.1082443], [135.2878426, 34.1083088], [135.2878738, 34.108368], [135.2878939, 34.1084407], [135.2879038, 34.108504], [135.2879086, 34.1085976], [135.2878566, 34.1089066], [135.2877683, 34.1092412], [135.2877117, 34.1093461], [135.2875895, 34.1094689], [135.2874469, 34.1095495], [135.2871639, 34.1096779], [135.2869806, 34.1098372], [135.2868697, 34.1099646], [135.2868459, 34.1100677], [135.2868742, 34.1101746], [135.2869749, 34.1102701], [135.287353, 34.1104604], [135.2878928, 34.1106947], [135.2879857, 34.1107153], [135.2880853, 34.1106947], [135.2881883, 34.1106038], [135.2883829, 34.1105035], [135.2884995, 34.1104698], [135.2886218, 34.1104922], [135.2886942, 34.1105419], [135.2887383, 34.1106544], [135.2887893, 34.1108868], [135.2888742, 34.1110901], [135.2890156, 34.1111745], [135.2891911, 34.1112232], [135.289302, 34.1112907], [135.2893639, 34.1113564], [135.289735, 34.1118261], [135.2906301, 34.1129141], [135.2912992, 34.1134097], [135.2914609, 34.1135953], [135.2915153, 34.1137464], [135.2915777, 34.1142155], [135.2915793, 34.1143109], [135.2916337, 34.114564], [135.2917298, 34.1147535], [135.2918744, 34.1148635], [135.2922788, 34.1151471], [135.2924741, 34.1152955], [135.2925413, 34.1154267], [135.2925781, 34.1155805], [135.2925413, 34.11641], [135.2924789, 34.1169123], [135.2924208, 34.1171114], [135.29217, 34.1177631], [135.2921171, 34.1180228], [135.2921459, 34.118199], [135.292314, 34.1185462], [135.292346, 34.1187331], [135.2923392, 34.1189251], [135.2923191, 34.119205], [135.2923236, 34.1196686], [135.2923268, 34.120094], [135.29237, 34.1203776], [135.2923572, 34.1206148], [135.2922908, 34.1209052], [135.2922564, 34.1209595], [135.2921796, 34.1210132], [135.2920947, 34.1210463], [135.2917914, 34.1211331], [135.291636, 34.121199], [135.2912968, 34.121414], [135.2910215, 34.121516], [135.2905669, 34.1216221], [135.2900835, 34.1217254], [135.2898754, 34.1217188], [135.2897906, 34.1216777], [135.289456, 34.1213875], [135.2891599, 34.1212643], [135.2889918, 34.1212219], [135.2889054, 34.1212422], [135.2888558, 34.1212866], [135.2888197, 34.1213886], [135.2888285, 34.1215178], [135.2889806, 34.1219021], [135.2889758, 34.1220353], [135.2889294, 34.1221307], [135.2888237, 34.122242], [135.2885812, 34.1224619], [135.2884748, 34.1225183], [135.2883563, 34.1225242], [135.2880082, 34.1224977], [135.287921, 34.1225209], [135.2878033, 34.1225898], [135.287693, 34.122682], [135.2876248, 34.1227879], [135.2875976, 34.1229059], [135.2876224, 34.1231232], [135.2878515, 34.1241202], [135.2879092, 34.124212], [135.2879782, 34.1242616], [135.2880812, 34.1242701], [135.2881967, 34.1242401], [135.2882623, 34.1241951], [135.2885715, 34.123613], [135.2886305, 34.1235432], [135.2887143, 34.123531], [135.2887714, 34.1235549], [135.2888173, 34.123605], [135.2888246, 34.123687], [135.2887986, 34.1239021], [135.2887488, 34.1240426], [135.2886758, 34.1241597], [135.2885066, 34.1243537], [135.2883009, 34.1245946]], [[135.252781, 34.063784], [135.2530133, 34.0640014], [135.2533081, 34.0642836], [135.2535893, 34.0645545], [135.2537247, 34.0647072], [135.2537825, 34.0648056], [135.2538315, 34.0649015], [135.253899, 34.0650465], [135.2539386, 34.0651528], [135.2539825, 34.0652325], [135.2540516, 34.0653339], [135.2541236, 34.0654353], [135.2543964, 34.0658048]], [[135.2584982, 34.0682856], [135.2587043, 34.0682778], [135.2588689, 34.0683008], [135.2590845, 34.0683742], [135.2594063, 34.0685295], [135.2598968, 34.0686875]], [[135.2883009, 34.1245946], [135.2882445, 34.1246306], [135.2881829, 34.1246474], [135.2878827, 34.1246722], [135.2877802, 34.1247087], [135.2876226, 34.1248226], [135.2874953, 34.1248981], [135.2871968, 34.1250167], [135.2868566, 34.1251545], [135.2867382, 34.1251665], [135.2866149, 34.1251446], [135.2864453, 34.1250856], [135.2859976, 34.1249322], [135.2855924, 34.1248301], [135.2854192, 34.1248123], [135.2853301, 34.1248335], [135.2852725, 34.1248806], [135.2852565, 34.1249694], [135.2853109, 34.1250608], [135.2854518, 34.1251396], [135.2863821, 34.1255574], [135.2865486, 34.1256807], [135.2870176, 34.1262067], [135.287075, 34.1263028], [135.2870702, 34.1263671], [135.2870198, 34.1264519], [135.2869182, 34.1265281], [135.2868437, 34.1265579], [135.2867285, 34.1265572], [135.2863459, 34.1264254], [135.2861859, 34.1263498], [135.2856224, 34.1259987], [135.2854928, 34.1259318], [135.2853679, 34.1259132], [135.2852495, 34.1259278], [135.285119, 34.1259861], [135.2848693, 34.1261518], [135.2847669, 34.1262332], [135.2846996, 34.1263545], [135.2846764, 34.1264698], [135.284677, 34.126559], [135.2847581, 34.1267288], [135.2848621, 34.1268428], [135.2855765, 34.1274523], [135.2856021, 34.127553], [135.2855821, 34.1276285], [135.2855381, 34.1276941], [135.2854181, 34.1277736], [135.2852316, 34.1278402], [135.2850851, 34.1278571], [135.2849411, 34.1278187], [135.2845913, 34.127667], [135.2844481, 34.1276411], [135.2841871, 34.1276398], [135.2841199, 34.1276643], [135.2840255, 34.1277272], [135.2838718, 34.1278505], [135.2837534, 34.1279068], [135.2836421, 34.127926], [135.2828106, 34.1279061], [135.2826953, 34.1279386], [135.2826337, 34.1279889], [135.2826145, 34.1280572], [135.2826409, 34.1281585], [135.2827385, 34.1282208], [135.2828698, 34.1282334], [135.2835045, 34.1282864], [135.2838101, 34.1283633], [135.2839844, 34.1284326], [135.2840535, 34.1285038], [135.2842142, 34.1287099], [135.2843726, 34.128798], [135.2845266, 34.1288392], [135.2847246, 34.1288879], [135.284785, 34.1289437], [135.284809, 34.1290649], [135.2847818, 34.129157], [135.2846913, 34.1293697], [135.2846633, 34.1295075], [135.2846097, 34.1297042], [135.2841967, 34.1303801], [135.2839409, 34.1306237], [135.2835765, 34.1309909], [135.2835139, 34.1311047], [135.2835026, 34.1312162], [135.283549, 34.1312846], [135.2841229, 34.1316931], [135.2843606, 34.131813], [135.2846797, 34.1318992], [135.2850883, 34.1320173], [135.2856116, 34.1322731], [135.285834, 34.1323581], [135.2859596, 34.1323787], [135.2860943, 34.132374], [135.2862709, 34.1323806], [135.2864814, 34.1324359], [135.2865828, 34.1324805], [135.286622, 34.1325494], [135.2866116, 34.1325942], [135.2865769, 34.1326456], [135.2864913, 34.1327066], [135.2863569, 34.132749], [135.2861376, 34.1327847], [135.2858158, 34.1328278], [135.2856462, 34.132841], [135.2855261, 34.1328245], [135.2854069, 34.1327847], [135.2850483, 34.132633], [135.2849467, 34.1326059], [135.2847346, 34.1325833], [135.2841383, 34.1325403], [135.2837646, 34.1324422], [135.2832203, 34.1322408], [135.282977, 34.1320858], [135.2827169, 34.1317632], [135.282537, 34.1314677], [135.2824781, 34.1313843], [135.2823819, 34.1313365], [135.2822837, 34.1313362], [135.2821876, 34.1313594], [135.2821516, 34.1314263], [135.2821196, 34.1315284], [135.2820444, 34.1316218], [135.2819107, 34.1316721], [135.2817647, 34.1316989], [135.281506, 34.131765], [135.2813069, 34.1318624], [135.2810294, 34.1320311], [135.2809087, 34.1320739], [135.2807488, 34.1321076], [135.2806187, 34.1321647], [135.2805403, 34.1322309], [135.2804227, 34.1323685], [135.2803459, 34.1324126], [135.2802628, 34.132432], [135.2800982, 34.1324217], [135.2799414, 34.1323749], [135.2797925, 34.1322867], [135.2796436, 34.1321362], [135.2795276, 34.1319415], [135.2795511, 34.1317547], [135.2794719, 34.1316327], [135.2793614, 34.1315639], [135.2789859, 34.1314179], [135.2787398, 34.1313446], [135.2785767, 34.1312356], [135.2784952, 34.1311928], [135.2784106, 34.1311889], [135.2783526, 34.131233], [135.2783047, 34.1313005], [135.2783149, 34.13139], [135.2784012, 34.1314854], [135.2785148, 34.1315516], [135.2786637, 34.1315561], [135.2788291, 34.131536], [135.2789381, 34.1315405], [135.2790815, 34.1316599], [135.2791866, 34.1317319], [135.2792289, 34.13178], [135.2792305, 34.131863], [135.2791842, 34.1320486], [135.2791364, 34.1321485], [135.2791019, 34.1322562], [135.2790996, 34.1324191], [135.2791207, 34.1325015], [135.2791811, 34.1326014], [135.279497, 34.1327474], [135.2796757, 34.1328674], [135.2797917, 34.1329634], [135.279872, 34.1332088], [135.2800287, 34.133338], [135.2801783, 34.1333737], [135.2804473, 34.1333762], [135.2805868, 34.1333438], [135.2807601, 34.1332264], [135.2808494, 34.133203], [135.2809811, 34.1332127], [135.2811536, 34.1332971], [135.281232, 34.133349], [135.281261, 34.1334093], [135.2812602, 34.1335203], [135.2812437, 34.1335806], [135.2812084, 34.1336351], [135.2811293, 34.1336702], [135.2809796, 34.1337266], [135.280793, 34.133835], [135.2807177, 34.133859], [135.2806072, 34.1338577], [135.2804383, 34.1339053], [135.2801171, 34.1340673], [135.2798965, 34.1341453], [135.2796293, 34.1341506], [135.2793158, 34.1341272], [135.2789803, 34.1340899], [135.2787741, 34.1340092], [135.2786034, 34.1338972], [135.2783717, 34.1336935], [135.2782321, 34.1335807], [135.2780259, 34.1335073], [135.2776767, 34.1335008], [135.2774206, 34.1334706], [135.2766723, 34.1332503], [135.276444, 34.1332302], [135.2760804, 34.1332375], [135.2758731, 34.1333155], [135.2757545, 34.1334045], [135.2757112, 34.1335073], [135.275626, 34.134293], [135.2756573, 34.1344336], [135.275767, 34.1345501], [135.2757958, 34.1346327], [135.2757526, 34.1347272], [135.2756639, 34.1347823], [135.2755519, 34.1347988], [135.2753535, 34.134841], [135.2749799, 34.1350346], [135.274807, 34.1351052], [135.2744622, 34.1351722], [135.2742738, 34.135252], [135.2732825, 34.1359903], [135.2730928, 34.1361668], [135.272751, 34.1365651], [135.272624, 34.1366456], [135.2725033, 34.1366417], [135.2720267, 34.1364549], [135.2719921, 34.1364551], [135.271536, 34.1364574], [135.2712883, 34.1364678], [135.2711221, 34.1365574], [135.2710406, 34.1366534], [135.2709622, 34.1368], [135.270934, 34.1368999], [135.2709327, 34.1369475], [135.2709309, 34.1370115], [135.2709434, 34.1371789], [135.2710124, 34.1373307], [135.2711598, 34.137768], [135.2711974, 34.1379341], [135.2711645, 34.1380545], [135.2708854, 34.1384801], [135.2706926, 34.1386371], [135.2705186, 34.1388045], [135.270437, 34.1389265], [135.2702615, 34.1396012], [135.2702521, 34.1397634], [135.2702853, 34.1401389], [135.2702756, 34.1403226], [135.2702144, 34.1404693], [135.2700577, 34.1407625], [135.2700467, 34.1408923], [135.2700608, 34.1410337], [135.2703414, 34.1418005], [135.2704527, 34.1419692], [135.2706879, 34.1422092], [135.2708102, 34.1423611], [135.2709419, 34.1426491], [135.2710108, 34.142858], [135.2710061, 34.1430773], [135.2709701, 34.1432992], [135.2707368, 34.1438636], [135.2706028, 34.1441338], [135.2705464, 34.1443089], [135.270529, 34.1445686], [135.2705682, 34.1449721], [135.2706372, 34.1452822], [135.2707728, 34.1458055], [135.2712101, 34.1473776], [135.2712778, 34.1475134], [135.2714008, 34.1476326], [135.2716436, 34.1477611], [135.2718442, 34.1478345], [135.2724229, 34.1482666], [135.2726524, 34.1483739], [135.2729783, 34.148462], [135.2731257, 34.1485124], [135.273251, 34.1485877], [135.273731, 34.1490354], [135.2738673, 34.1491161], [135.2743152, 34.1491913], [135.2744903, 34.1492289], [135.2746223, 34.1492895], [135.2750047, 34.1496537], [135.2751322, 34.1497959], [135.2751765, 34.1499491], [135.2751779, 34.1501385], [135.2750463, 34.1503967], [135.2745856, 34.151058], [135.2745386, 34.1511773], [135.2745589, 34.151285], [135.2747596, 34.1515094], [135.2750324, 34.1517365], [135.2752158, 34.1518494], [135.2758225, 34.1521062], [135.2760499, 34.1522464], [135.2761423, 34.1523748], [135.276423, 34.1529249], [135.2765621, 34.153088], [135.2768834, 34.1535037], [135.276974, 34.1536489], [135.2770577, 34.153825], [135.2770838, 34.1539364], [135.2771364, 34.1542608], [135.2771768, 34.1544982], [135.2772444, 34.1546982], [135.2773496, 34.154982], [135.2774592, 34.1552242], [135.2775461, 34.1554558], [135.2776001, 34.1555997], [135.2776638, 34.1557606], [135.2780137, 34.1566445], [135.2782169, 34.1572859], [135.2782739, 34.1574657], [135.2784106, 34.1580383], [135.2784375, 34.1585177], [135.2784154, 34.1589283], [135.2783508, 34.1594247], [135.2783255, 34.159583], [135.278298, 34.1597995], [135.2781907, 34.1605041], [135.2779788, 34.1619246], [135.2778862, 34.1624705], [135.2778715, 34.162748], [135.2778688, 34.1629877], [135.277895, 34.1631685], [135.2776884, 34.1632191], [135.2771892, 34.1633413], [135.276855, 34.1633724], [135.2764872, 34.1633509], [135.2761848, 34.1632947], [135.275819, 34.1631823], [135.2755101, 34.1630543], [135.2752927, 34.1629368], [135.2751596, 34.1628378], [135.2748218, 34.1625321], [135.2746171, 34.1623475], [135.2744306, 34.1621674], [135.2741858, 34.1619839], [135.2744381, 34.1616556], [135.2744947, 34.1616134], [135.2747142, 34.161546], [135.2753243, 34.1614233], [135.2757261, 34.1613849], [135.2760351, 34.1613699], [135.276154, 34.1613156], [135.2763158, 34.1612463], [135.2764313, 34.1611836], [135.2764508, 34.161151], [135.2765195, 34.1610365], [135.2766169, 34.1606947], [135.2767029, 34.1603893], [135.2767901, 34.1601777], [135.2768399, 34.1599904], [135.2769178, 34.1595345], [135.2769763, 34.1591815], [135.2770237, 34.1586962], [135.2770977, 34.1579057], [135.2771358, 34.157412], [135.2772008, 34.1563867], [135.2771946, 34.1563692], [135.2771801, 34.1563517], [135.277142, 34.1563224], [135.2771764, 34.1562596], [135.27719, 34.1562349], [135.2772205, 34.1561376], [135.2772476, 34.155862], [135.2772981, 34.1557531], [135.2773646, 34.1556923], [135.2774623, 34.155645], [135.2776001, 34.1555997]], [[135.252781, 34.063784], [135.2524306, 34.0634523], [135.2524006, 34.0634268], [135.2522936, 34.0633361], [135.2520445, 34.0631875], [135.2509886, 34.0626856], [135.2508997, 34.0626343], [135.2508574, 34.0626055], [135.2508151, 34.0625719], [135.2507857, 34.0625466], [135.2507507, 34.0625122], [135.2507157, 34.0624613], [135.2506588, 34.0623513], [135.2503047, 34.0616973], [135.2502981, 34.0616816], [135.2501187, 34.0613447], [135.2497301, 34.0606145], [135.2496397, 34.0604394], [135.249558, 34.0602895], [135.2494773, 34.0601346], [135.2493985, 34.0599786], [135.2493648, 34.0598944], [135.2493389, 34.0598118], [135.2493135, 34.0596995]], [[135.277895, 34.1631685], [135.2779281, 34.1633233], [135.2783637, 34.1642276], [135.2784752, 34.1645412], [135.2785612, 34.1647186], [135.278642, 34.1648281], [135.2787889, 34.1649738], [135.2789544, 34.1650856], [135.2791424, 34.1652082], [135.279386, 34.16532], [135.2802332, 34.1656727], [135.2803497, 34.1657559], [135.280453, 34.1658501], [135.2805351, 34.1659728], [135.2805655, 34.1660867], [135.280758, 34.1667225], [135.2808057, 34.1668507], [135.2808758, 34.1669514], [135.2810188, 34.167107], [135.2812078, 34.1672548], [135.2813601, 34.1673739], [135.2818025, 34.1676798], [135.2820089, 34.1677951], [135.2821797, 34.1678696], [135.2822739, 34.1678951], [135.2823968, 34.1679254], [135.283584, 34.1681495], [135.2844741, 34.1683578], [135.2846564, 34.1683778], [135.2847348, 34.1684115], [135.2855498, 34.1683876], [135.2856381, 34.1683844], [135.2856908, 34.1683503], [135.2858317, 34.1683538], [135.2859833, 34.1683848], [135.28609, 34.168453], [135.286187, 34.1685384], [135.2865802, 34.1689861], [135.287125, 34.1694446], [135.287505, 34.1697002], [135.2877969, 34.1698738], [135.2879313, 34.1699598], [135.2879961, 34.1700272], [135.2881259, 34.1703602], [135.2881984, 34.1705457], [135.2882171, 34.1706638], [135.2882083, 34.1707723], [135.2881429, 34.1711286], [135.2881457, 34.1712541], [135.288171, 34.1713339], [135.2882299, 34.1713928], [135.2883399, 34.1714645], [135.2888926, 34.1716078], [135.2889806, 34.1716419], [135.289034, 34.1716814], [135.289766, 34.1722561], [135.2899346, 34.172382], [135.2911579, 34.1731356], [135.2912969, 34.1732396], [135.2913564, 34.1733207], [135.2914094, 34.1734269], [135.2914571, 34.1737467], [135.2915127, 34.1740414], [135.2915682, 34.1742089], [135.2918117, 34.1748932], [135.2918395, 34.1750378], [135.2918302, 34.1752908], [135.2917627, 34.1759085], [135.2917243, 34.1760684], [135.291674, 34.176202], [135.291482, 34.1764889], [135.291268, 34.1768913], [135.2910734, 34.1773721], [135.2909966, 34.1776262], [135.2909503, 34.1779164], [135.2909741, 34.1780686], [135.2910165, 34.1782702], [135.2911992, 34.1789644], [135.2912442, 34.1790566], [135.2912872, 34.1791038], [135.2914014, 34.1792381], [135.2920005, 34.1798787], [135.2920985, 34.1799554], [135.2922534, 34.1800551], [135.2932118, 34.1804219], [135.2939638, 34.1806629], [135.2948243, 34.1809301], [135.2950255, 34.1810057], [135.2952426, 34.1811743], [135.2953403, 34.1812805], [135.295449, 34.1814317], [135.2955351, 34.1815872], [135.2955939, 34.1817647], [135.2956045, 34.1821261], [135.2955546, 34.1830773], [135.2955836, 34.1833166], [135.29568, 34.1835071], [135.2957531, 34.183607], [135.2958588, 34.1837038], [135.2959992, 34.1838044], [135.2961715, 34.1838974], [135.2962374, 34.1839195], [135.2970102, 34.1843024], [135.2971782, 34.1844036], [135.2973652, 34.1845518], [135.297616, 34.184795], [135.2976622, 34.1848446], [135.2987992, 34.1860663], [135.2989573, 34.1862362], [135.2991612, 34.1864234], [135.2993392, 34.1865364], [135.2995727, 34.186655], [135.2997543, 34.1867038], [135.3000025, 34.1867576], [135.3003957, 34.1867933], [135.301006, 34.1868784], [135.3011502, 34.186911], [135.3019009, 34.1872161], [135.3021686, 34.1873647], [135.3024345, 34.1875707], [135.3031222, 34.188067], [135.3033945, 34.1882427], [135.3035457, 34.1883902], [135.3039011, 34.1886999], [135.304146, 34.1888623], [135.3046811, 34.1892138], [135.3047546, 34.1892642], [135.3048833, 34.1893524], [135.3050125, 34.1894903], [135.3050677, 34.1895987], [135.3050949, 34.189759], [135.3051754, 34.1902375], [135.3052184, 34.19038], [135.3052836, 34.1904814], [135.3054319, 34.1906632], [135.3060196, 34.1912699], [135.3067288, 34.191963], [135.3069635, 34.1922258], [135.3077061, 34.1931605], [135.3083609, 34.1940123], [135.308488, 34.1941054], [135.3086614, 34.1942105], [135.3091539, 34.194447], [135.3093538, 34.1945795], [135.3098171, 34.194931], [135.3100634, 34.1951117], [135.3103003, 34.1952496], [135.3107862, 34.19551], [135.3110567, 34.1956631], [135.3116039, 34.1959522], [135.3121753, 34.1961896], [135.3124672, 34.1962882], [135.3125265, 34.1963138], [135.3126424, 34.1963575], [135.3130632, 34.1965129], [135.3134561, 34.1966782], [135.314017, 34.1969352], [135.3145063, 34.1971682], [135.3147158, 34.197268], [135.3151385, 34.1974768], [135.315502, 34.1976606], [135.3158292, 34.1978273], [135.3165061, 34.1981205], [135.3173043, 34.198495], [135.31792, 34.1987847], [135.3180971, 34.1988877], [135.3182583, 34.199006], [135.3183581, 34.1991104], [135.3185779, 34.1993764], [135.3189843, 34.1999184], [135.3194358, 34.2005946], [135.319558, 34.200891], [135.3197316, 34.2013703], [135.320415, 34.2030565], [135.3204642, 34.2031749], [135.3205601, 34.2033508], [135.3206415, 34.2034638], [135.3208403, 34.2037343], [135.3209925, 34.2038952], [135.3211937, 34.2040414], [135.321456, 34.2042182], [135.3219415, 34.2044449], [135.3220675, 34.2044996], [135.3231504, 34.2049408], [135.3234972, 34.205105], [135.323758, 34.2052528], [135.3239447, 34.2053842], [135.3241208, 34.2055276], [135.324375, 34.2057597], [135.3245073, 34.2059327], [135.3247447, 34.2062547], [135.3248114, 34.2063531], [135.3248646, 34.2064315], [135.3253684, 34.2071739], [135.3255257, 34.2073934], [135.3258402, 34.207835], [135.3259749, 34.2080317], [135.326209, 34.2083661], [135.3265855, 34.2089307], [135.32674, 34.2091624], [135.3268657, 34.2093836], [135.326916, 34.2095303], [135.326928, 34.2097613], [135.3269444, 34.2103973], [135.3269677, 34.2112986], [135.3269696, 34.211407], [135.3269816, 34.2125807], [135.3269794, 34.2127351], [135.326975, 34.2130482], [135.3269922, 34.2135474], [135.3270253, 34.2138123], [135.3270955, 34.21419], [135.3271448, 34.2143083], [135.3271895, 34.2144155], [135.3273338, 34.2146563], [135.3275641, 34.2149705], [135.3276979, 34.2151965], [135.3277403, 34.2153772], [135.3277561, 34.2155457], [135.3277456, 34.2159546], [135.3277425, 34.2161804], [135.3277491, 34.2163719], [135.3277875, 34.2165449], [135.3279093, 34.2168295], [135.3281155, 34.2172893], [135.3283061, 34.2177064], [135.3283962, 34.2178662], [135.3285511, 34.2180053], [135.3287589, 34.2181322], [135.3289151, 34.2182078], [135.3291137, 34.2182625], [135.3292302, 34.2182745], [135.3294777, 34.2183183], [135.3297425, 34.2183359], [135.3300536, 34.2183293], [135.3306004, 34.2183019], [135.3313484, 34.2182539], [135.3314436, 34.218245], [135.332068, 34.218227], [135.33239, 34.218227], [135.3328271, 34.2182496], [135.3330614, 34.2182945], [135.33353, 34.2184346], [135.333812, 34.2185408], [135.3339002, 34.2185758], [135.334713, 34.2188662], [135.3350347, 34.2189943], [135.335269, 34.2191377], [135.3355629, 34.219338], [135.3360196, 34.2197091], [135.3367118, 34.2203105], [135.3370303, 34.2205663], [135.337415, 34.220905], [135.337774, 34.221271], [135.337924, 34.221435], [135.3381556, 34.221684], [135.3387628, 34.2224562], [135.339915, 34.223908], [135.3403379, 34.2244536], [135.340448, 34.2245981], [135.3407444, 34.2249808], [135.340852, 34.22511], [135.3418604, 34.2264303], [135.342252, 34.2270616], [135.3423943, 34.2272829], [135.3425778, 34.2276266], [135.3427648, 34.2278644], [135.342967, 34.2280393], [135.343217, 34.2282142], [135.3434529, 34.2283287], [135.3435206, 34.2283502], [135.3438114, 34.2284425], [135.3441474, 34.228492], [135.3452103, 34.2285689], [135.3452947, 34.2285722], [135.3454827, 34.2285797], [135.3457766, 34.2286238], [135.3459713, 34.2286687], [135.3461492, 34.2287399], [135.346343, 34.2288328], [135.3465161, 34.2289489], [135.3467371, 34.2291563], [135.3468514, 34.2292931], [135.3470488, 34.2295734], [135.3472603, 34.2300022], [135.3473764, 34.230366], [135.3474382, 34.2308063], [135.347447, 34.2310574], [135.347417, 34.2313298], [135.3473253, 34.2317787], [135.3470982, 34.2326331], [135.3469499, 34.2332329], [135.34657, 34.2346211], [135.3464528, 34.2350686], [135.3464437, 34.2351045], [135.3463941, 34.2353195], [135.3463448, 34.2355196], [135.3457626, 34.2376607], [135.345634, 34.238093], [135.3454739, 34.2387196], [135.3453086, 34.2393663], [135.345209, 34.2398236], [135.3451208, 34.2401067], [135.3450536, 34.2402923], [135.3453532, 34.2405374], [135.3455994, 34.2407061], [135.3459201, 34.2408333], [135.3465454, 34.241002], [135.346598, 34.241013], [135.348434, 34.241501], [135.348864, 34.241617], [135.349799, 34.241859], [135.3501776, 34.2419355], [135.3505112, 34.241961], [135.3516225, 34.2420726], [135.3520107, 34.2421097], [135.3532247, 34.2422491], [135.3543631, 34.2423779], [135.3546069, 34.2424136], [135.3547505, 34.242444], [135.354964, 34.2425099], [135.3562203, 34.2431537], [135.3575441, 34.2438165], [135.3587817, 34.244494], [135.359105, 34.2446755], [135.3593381, 34.2447699], [135.3605725, 34.2451741], [135.3612861, 34.2454066], [135.3618043, 34.2455401], [135.3624147, 34.24565], [135.363058, 34.2457621], [135.3646777, 34.2460244], [135.3651724, 34.2460692], [135.366248, 34.2461374], [135.3667263, 34.2461677], [135.367607, 34.2462296], [135.3695603, 34.2463455], [135.3714301, 34.2464014], [135.3718959, 34.2464124], [135.3719119, 34.2466189], [135.3721413, 34.2494591], [135.372146, 34.2495143], [135.372153, 34.2495747], [135.3723873, 34.2523502], [135.3724596, 34.2532134], [135.3724837, 34.2535363], [135.3725213, 34.2540396], [135.3725551, 34.2547843], [135.3725825, 34.2559926], [135.3726415, 34.2585312], [135.3726568, 34.258883], [135.3726901, 34.2596471], [135.3727209, 34.2604575], [135.372738, 34.2609133], [135.3727144, 34.2613862], [135.3726819, 34.2618322], [135.3726632, 34.2619354]], [[135.2720426, 34.1577634], [135.2724951, 34.1577374]], [[135.2846564, 34.1683778], [135.2847404, 34.1683412], [135.2855555, 34.1683172], [135.2856364, 34.1683168], [135.2856908, 34.1683503]]]}, "id": "relation/8788010"}]}