{"type": "FeatureCollection", "generator": "kokudo-quiz tools/fetch_raw.py (Overpass API)", "copyright": "The data included in this document is from www.openstreetmap.org. The data is made available under ODbL.", "timestamp": "2026-09-30T23:39:30Z", "features": [{"type": "Feature", "properties": {"@id": "relation/10018733", "colour": "red", "from": "兵庫県豊岡市", "name": "国道426号", "name:en": "National Route 426", "name:ja": "国道426号", "name:ja-Hira": "こくどうよんひゃくにじゅうろくごう", "name:ja-Latn": "Kokudou 426 Gou", "network": "JP:national", "ref": "426", "route": "road", "to": "京都府福知山市", "type": "route", "wikidata": "Q11421462", "wikipedia": "ja:国道426号"}, "geometry": {"type": "MultiLineString", "coordinates": [[[134.8046579, 35.5542968], [134.8046981, 35.5542027], [134.8047182, 35.5541635], [134.8047429, 35.5541236], [134.8047699, 35.5540879], [134.8048017, 35.5540549], [134.8048375, 35.5540261], [134.8048797, 35.5539978], [134.8049802, 35.5539383], [134.8050725, 35.5538813], [134.8051508, 35.5538268], [134.8052225, 35.553772], [134.8053169, 35.5536948], [134.8054496, 35.5535835], [134.8054676, 35.5535684], [134.8055519, 35.5534919], [134.8056363, 35.5534074], [134.8057106, 35.5533232], [134.8057967, 35.553219], [134.8058551, 35.5531399], [134.8059039, 35.5530577], [134.805936, 35.5529943], [134.805966, 35.5529309], [134.8059873, 35.5528885], [134.8064839, 35.5516613], [134.8068062, 35.5509476], [134.8068764, 35.5507861], [134.8072727, 35.5498704], [134.8075622, 35.5491674], [134.8080583, 35.5480773], [134.8081018, 35.5479939], [134.808186, 35.5478639], [134.8082799, 35.5477154], [134.8085804, 35.5472147], [134.8086438, 35.5471154], [134.8089719, 35.5466051], [134.8090922, 35.5464148], [134.8095428, 35.5457225], [134.8096221, 35.5456006], [134.8098123, 35.5453084], [134.8098755, 35.5452048], [134.8099326, 35.5451003], [134.8099621, 35.5450404], [134.809991, 35.5449804], [134.8100296, 35.5448803], [134.8100577, 35.5447763], [134.810078, 35.5446796], [134.8100938, 35.5445755], [134.8101011, 35.5444738], [134.8101013, 35.5443829], [134.8100633, 35.543614], [134.8099771, 35.5425651], [134.809915, 35.5421485], [134.8097908, 35.5415923], [134.8095434, 35.5405351], [134.8093399, 35.5396195], [134.8090655, 35.5384802], [134.8088336, 35.5373454], [134.8088304, 35.5373293], [134.8088189, 35.537277], [134.8088103, 35.5372195], [134.8088074, 35.537203], [134.8086103, 35.5359584], [134.8084613, 35.5350387], [134.8083075, 35.5340959], [134.8081418, 35.5331398], [134.808026, 35.532657], [134.807937, 35.532297], [134.8078711, 35.5319991], [134.8078406, 35.5318351], [134.8077789, 35.5315332], [134.8077722, 35.5312715], [134.8077816, 35.5311947], [134.8078462, 35.5309713], [134.807856, 35.5309409], [134.8078901, 35.5308559], [134.8079278, 35.5307822], [134.8079935, 35.5306499], [134.8080186, 35.5306059], [134.8080417, 35.5305723], [134.8081104, 35.5304738], [134.8084032, 35.5301274], [134.8085594, 35.5299314], [134.80866, 35.5297219], [134.8086968, 35.5296298], [134.808717, 35.5295488], [134.8087273, 35.5291389], [134.8087264, 35.5290084], [134.8087071, 35.527655], [134.8087046, 35.5273582], [134.808709, 35.527184], [134.8087207, 35.5270633], [134.8087245, 35.5270237], [134.8087474, 35.5268616], [134.8087674, 35.5267268], [134.8087937, 35.5265966], [134.8088184, 35.5264813], [134.8088478, 35.5263705], [134.8089257, 35.5261075], [134.8091447, 35.52615], [134.8094104, 35.5262092], [134.809576, 35.5262281], [134.8097947, 35.5262371], [134.8100414, 35.5262423], [134.8103074, 35.5262422], [134.8110237, 35.526208], [134.8114405, 35.52622], [134.8117742, 35.5262477], [134.8122169, 35.5263363], [134.8126658, 35.5264514], [134.8130274, 35.5265814], [134.8133766, 35.5267158], [134.8136136, 35.5268163], [134.8138108, 35.5269253], [134.814013, 35.52705], [134.814257, 35.527235], [134.814485, 35.527395], [134.814681, 35.527514], [134.8148994, 35.5276245], [134.8151821, 35.5277499], [134.8154071, 35.5278346], [134.8156574, 35.5278975], [134.815872, 35.527949], [134.81628, 35.527995], [134.816574, 35.528023], [134.816916, 35.528048], [134.8175362, 35.5280668], [134.8185476, 35.5280738], [134.8186826, 35.5280764], [134.8204863, 35.5281066], [134.8206818, 35.5281781], [134.8223937, 35.5282685], [134.8227259, 35.528273], [134.8229911, 35.5282593], [134.8232653, 35.5282296], [134.8234677, 35.5281979], [134.8234929, 35.5281921], [134.8237866, 35.5281249], [134.824063, 35.5280431], [134.824455, 35.5278923]], [[134.8243914, 35.5278068], [134.8240266, 35.5279431], [134.8239854, 35.5279585], [134.823746, 35.5280278], [134.8234967, 35.5280978], [134.8231713, 35.5281531], [134.822837, 35.5281882], [134.8224075, 35.5281818], [134.8209877, 35.5281022], [134.8206893, 35.5280855], [134.8204863, 35.5281066]], [[134.824455, 35.5278923], [134.824632, 35.5278081]], [[134.8245882, 35.5277211], [134.8243914, 35.5278068]], [[134.824632, 35.5278081], [134.827419, 35.5264878]], [[134.8273569, 35.526401], [134.8245882, 35.5277211]], [[134.827419, 35.5264878], [134.827534, 35.5263777], [134.8273569, 35.526401]], [[134.827534, 35.5263777], [134.8273178, 35.5261211], [134.8269518, 35.5256407], [134.8268023, 35.5253627], [134.8266535, 35.5251632], [134.8264434, 35.524742], [134.8263152, 35.5244564], [134.8262184, 35.5242407], [134.8260615, 35.523891], [134.8259107, 35.5235417], [134.8256429, 35.5228887], [134.8253648, 35.5221535], [134.8251583, 35.5215532], [134.82494, 35.5209179], [134.8249294, 35.5208871], [134.8248499, 35.5206252], [134.8247645, 35.5203306], [134.8247012, 35.520047], [134.8246323, 35.5197578], [134.8244891, 35.5190895], [134.8243955, 35.5185793], [134.8242964, 35.5180176], [134.8242468, 35.5177367], [134.824248, 35.5176666], [134.8242303, 35.5174944], [134.8242264, 35.517268], [134.8242276, 35.517007], [134.8242413, 35.5167564], [134.8242771, 35.5165278], [134.8243276, 35.5162684], [134.8243983, 35.516101], [134.8244809, 35.5159606], [134.8246241, 35.5158036], [134.8248036, 35.5156318], [134.8250757, 35.5154319], [134.8253152, 35.5152309], [134.8257855, 35.5148331], [134.8260064, 35.5146279], [134.8261606, 35.5144296], [134.8262735, 35.5142231], [134.8263153, 35.5140376], [134.8264167, 35.5137525], [134.8264411, 35.5136839], [134.8264717, 35.513598], [134.8265469, 35.5134611], [134.8266287, 35.5133667], [134.826755, 35.513221], [134.8270059, 35.5129316], [134.8272235, 35.5126948], [134.8274761, 35.5124396], [134.8279394, 35.5119844], [134.8284406, 35.5115631], [134.8286691, 35.5113786], [134.8288931, 35.5112168], [134.8293135, 35.510927], [134.8297127, 35.5106819], [134.8301285, 35.5104258], [134.8304052, 35.5102571], [134.8305808, 35.51015], [134.8309656, 35.5098944], [134.8313456, 35.5096356], [134.83176, 35.5093028], [134.8318496, 35.5092308], [134.8323755, 35.5087908], [134.8328849, 35.5083606], [134.8334341, 35.5078825], [134.8337798, 35.5075621], [134.8339588, 35.5073638], [134.8341834, 35.5071043], [134.8343278, 35.5069205], [134.8345316, 35.5066259], [134.8347326, 35.5063285], [134.8349336, 35.5059815], [134.8350016, 35.5058682], [134.8352723, 35.505417], [134.8355064, 35.505059], [134.8357483, 35.5046955], [134.8359662, 35.5043817], [134.8361782, 35.5040622], [134.8364261, 35.5036822], [134.8366656, 35.5032967], [134.8367485, 35.5031505], [134.8371558, 35.5025257], [134.8373788, 35.5021898], [134.8376029, 35.5018889], [134.8380975, 35.5012866], [134.8386255, 35.5006685], [134.8389484, 35.5002595], [134.8391301, 35.5000034], [134.8392981, 35.4997253], [134.8394549, 35.4994028], [134.8397745, 35.4986239], [134.8399424, 35.4982383], [134.8401196, 35.4978215], [134.840204, 35.497616], [134.8402866, 35.4973792], [134.8403637, 35.4971452], [134.8404298, 35.4968918], [134.8404775, 35.4965219], [134.8405018, 35.4962432], [134.840573, 35.4954269], [134.840634, 35.494729], [134.8406639, 35.4944466], [134.8406997, 35.4941162], [134.8407437, 35.4937747], [134.8407933, 35.493582], [134.8408429, 35.4934691], [134.8409217, 35.4933103], [134.8410687, 35.4931442], [134.8413247, 35.4929184], [134.8415154, 35.4927889], [134.8418128, 35.4925869], [134.8428227, 35.4918307], [134.8433128, 35.4914837], [134.8438454, 35.4911362], [134.8444088, 35.4907926], [134.8449568, 35.4904869], [134.8453951, 35.4902924], [134.8455576, 35.4902248], [134.8460776, 35.4899626], [134.8466392, 35.4897187], [134.8472429, 35.4894836], [134.8474983, 35.4894048], [134.8477544, 35.4893304], [134.8480106, 35.4892695], [134.8480325, 35.4892643], [134.8482956, 35.4892051], [134.8486937, 35.4891152], [134.8489014, 35.4890685], [134.8490265, 35.4890442], [134.849223, 35.4890068], [134.8493242, 35.4889874], [134.8494787, 35.4889583], [134.8495334, 35.4889481], [134.8496808, 35.4889228], [134.8498061, 35.4889094], [134.8505756, 35.4888328], [134.850884, 35.4888108], [134.8513004, 35.4888042], [134.851633, 35.4887844], [134.851829, 35.4887888], [134.8520934, 35.4887976], [134.8523313, 35.4888064], [134.8526904, 35.4888262], [134.8530164, 35.488824], [134.8532719, 35.4888064], [134.8535561, 35.4887733], [134.8537676, 35.488726], [134.8540114, 35.4886569], [134.8542836, 35.4885677], [134.8548588, 35.488371], [134.8552171, 35.4882532], [134.8555064, 35.4881408], [134.8557154, 35.4880271], [134.8558674, 35.4879282], [134.8559965, 35.4878372], [134.8561342, 35.487713], [134.8562534, 35.4875763], [134.8563372, 35.4874597], [134.8564346, 35.4873011], [134.8567151, 35.486826], [134.8569133, 35.4865859], [134.8570806, 35.4864], [134.8572768, 35.4862576], [134.8575455, 35.486077], [134.8578319, 35.485892], [134.85805, 35.4857554], [134.8583077, 35.485643], [134.858669, 35.4854602], [134.8589334, 35.4853346], [134.8592153, 35.4852025], [134.8595105, 35.485046], [134.8597506, 35.4848786], [134.859993, 35.4846782], [134.8604446, 35.4842546], [134.8610349, 35.4836274], [134.8611803, 35.4834335], [134.8613257, 35.4832088], [134.8614469, 35.4830018], [134.8615923, 35.4827484], [134.8617244, 35.4824797], [134.8618258, 35.4822638], [134.8619227, 35.4820325], [134.8619866, 35.4818585], [134.8620505, 35.4816734], [134.8620659, 35.481539], [134.8620637, 35.4813981], [134.8620549, 35.481235], [134.8620174, 35.4810456], [134.8619382, 35.4808428], [134.8618364, 35.4806506], [134.8617537, 35.4804826], [134.8616094, 35.4802056], [134.8613117, 35.4797181], [134.8612082, 35.4795196], [134.8611246, 35.4792813], [134.8610641, 35.4790654], [134.8610195, 35.4788521], [134.8609931, 35.4786533], [134.8609754, 35.4783823], [134.8609843, 35.478129], [134.8610229, 35.4775552], [134.8610601, 35.4773263], [134.861101, 35.4771333], [134.8611507, 35.4769576], [134.8612091, 35.4767878], [134.861631, 35.475709], [134.8614467, 35.4756464], [134.8604684, 35.4753691], [134.860413, 35.4753527], [134.8597365, 35.4751477], [134.8597848, 35.4749758], [134.8599296, 35.473904], [134.8599781, 35.4736965], [134.8600203, 35.4735366], [134.8601187, 35.4732964], [134.8602683, 35.4730343], [134.8607886, 35.4722945], [134.8610693, 35.4719151], [134.8614433, 35.4713963], [134.8616422, 35.4710661], [134.8617482, 35.4707866], [134.8618224, 35.4705007], [134.8618788, 35.4701321], [134.8618909, 35.4698853], [134.8618923, 35.4695446], [134.8618784, 35.4687561], [134.8618811, 35.4679475], [134.8618845, 35.4674456], [134.8618816, 35.4669524], [134.8618837, 35.4665877], [134.8618843, 35.4659832], [134.8618805, 35.4657416], [134.8618721, 35.4650635], [134.8618724, 35.4645347], [134.8618668, 35.464014], [134.8618748, 35.4629689], [134.8619048, 35.4620074], [134.8619088, 35.4616114], [134.8620017, 35.4610158], [134.8621361, 35.4605337], [134.8622971, 35.4600118], [134.8624584, 35.4595671], [134.8628993, 35.458609], [134.8630738, 35.4583327], [134.8633023, 35.4579912], [134.8635364, 35.4576333], [134.8635631, 35.4575954], [134.8636344, 35.4574944], [134.8637244, 35.4573668], [134.8637732, 35.4573083], [134.8641587, 35.4568457], [134.8644131, 35.4565536], [134.864674, 35.4562983], [134.8648351, 35.4561376], [134.86491, 35.4560619], [134.8652161, 35.4557828], [134.8653636, 35.4556463], [134.8655598, 35.4554647], [134.8670251, 35.4540999], [134.8691508, 35.4521659], [134.8693257, 35.4519854], [134.8695277, 35.4517468], [134.8697481, 35.4514565], [134.8698009, 35.4513688], [134.8699661, 35.4510273], [134.8700845, 35.4506611], [134.8701227, 35.4505029], [134.8702442, 35.4500002], [134.8704232, 35.4492072], [134.8705691, 35.4488079], [134.8707113, 35.4485762], [134.8708553, 35.4483964], [134.8709886, 35.4482418], [134.87123, 35.4480589], [134.8715219, 35.447891], [134.8717798, 35.4477878], [134.871811, 35.4477753], [134.872169, 35.4476817], [134.8726343, 35.4475963], [134.8727929, 35.4475731], [134.8729322, 35.4475527], [134.873331, 35.4474944], [134.8735686, 35.447455], [134.8737205, 35.4474307], [134.874449, 35.4473237], [134.8748758, 35.4472687], [134.8750076, 35.4472725], [134.8751656, 35.447277], [134.8752905, 35.4472953], [134.8756723, 35.4473691], [134.8760788, 35.4474996], [134.8772271, 35.447939], [134.8774281, 35.4480178], [134.8785839, 35.4484112], [134.8787822, 35.4484752], [134.8793113, 35.4486868], [134.8796754, 35.4488551], [134.8817703, 35.4499559], [134.8837483, 35.4508331], [134.883881, 35.4508919], [134.8850054, 35.4513339], [134.8854889, 35.4514465], [134.8858418, 35.451493], [134.8861981, 35.4515535], [134.8874183, 35.4517372], [134.8880971, 35.4518365], [134.8886564, 35.4519189], [134.8892648, 35.4520151], [134.8895069, 35.4520514], [134.8897925, 35.4520943], [134.8898966, 35.4521099], [134.8915542, 35.4523723], [134.8919899, 35.4524413], [134.8921264, 35.4524629], [134.8926354, 35.4525331], [134.8932524, 35.4526338], [134.8939241, 35.4527431], [134.8945201, 35.4528347], [134.8967582, 35.4531679], [134.8972065, 35.4532408], [134.8999513, 35.4536711], [134.9006134, 35.4537783], [134.9034409, 35.4542099], [134.9039504, 35.4542888], [134.9048403, 35.4543151], [134.905419, 35.4543158], [134.9057147, 35.4543251], [134.9064229, 35.4542661], [134.9070656, 35.4541771], [134.9075576, 35.4541156], [134.9081054, 35.4540886], [134.9088245, 35.4541115], [134.9094519, 35.4541614], [134.9100009, 35.4542258], [134.9103402, 35.4543324], [134.9106312, 35.4544353], [134.9108327, 35.4545095], [134.911144, 35.4546319], [134.9118036, 35.4548082], [134.9124095, 35.4549277], [134.9148013, 35.4556618], [134.9171474, 35.4560968], [134.9185476, 35.4562341], [134.9207301, 35.4564062], [134.9210936, 35.4564237], [134.9214888, 35.4563946], [134.9217682, 35.4563474], [134.9244413, 35.4558644], [134.924677, 35.4558282], [134.9250021, 35.4558085], [134.9252007, 35.4558153], [134.9254529, 35.4558508], [134.9256453, 35.4559013], [134.9259187, 35.4560065], [134.9261363, 35.4561389], [134.9262769, 35.4562681], [134.9264345, 35.4564411], [134.9265332, 35.4566086], [134.926628, 35.4567999], [134.9266847, 35.457045], [134.926712, 35.457339], [134.9266384, 35.4575371], [134.926535, 35.4578189], [134.9264424, 35.4580195], [134.926362, 35.4581586], [134.9262263, 35.4583763], [134.9260437, 35.4586712], [134.9259198, 35.4588488], [134.9257345, 35.4591262], [134.9255553, 35.4593652], [134.9252955, 35.4596925], [134.9250602, 35.4600049], [134.9248497, 35.4605574], [134.9247599, 35.4608587], [134.9247331, 35.4610397], [134.9246936, 35.4612472], [134.9245889, 35.4615142], [134.9244607, 35.4617628], [134.9242592, 35.4621354], [134.9242256, 35.4622347], [134.9242198, 35.4626057], [134.9243062, 35.4628727], [134.924424, 35.4630742], [134.9246151, 35.4633386], [134.9249209, 35.4636396], [134.9254278, 35.4639872], [134.9259774, 35.4641964], [134.9262203, 35.4642888], [134.9270536, 35.4644575], [134.927524, 35.4644772], [134.9278625, 35.4644913], [134.928396, 35.4644512], [134.9288229, 35.4644111], [134.9289766, 35.4643966], [134.9295483, 35.4643483], [134.9302372, 35.4642961], [134.9302519, 35.4642946], [134.9307828, 35.4642508], [134.9308062, 35.4642489], [134.9310544, 35.4642226], [134.9316857, 35.4641537], [134.9324306, 35.4640394], [134.933274, 35.4638541], [134.9337115, 35.4636886], [134.9339203, 35.4635113], [134.9340902, 35.4632931], [134.9344894, 35.4626417], [134.9345172, 35.4626119], [134.9347748, 35.4623358], [134.9352133, 35.4619559], [134.9354206, 35.4618172], [134.9358162, 35.4616811], [134.9365194, 35.4616369], [134.9372444, 35.4616176], [134.9376762, 35.4616781], [134.9380919, 35.4617885], [134.9384539, 35.461968], [134.9393613, 35.4625097], [134.9402577, 35.4630447], [134.9412534, 35.4636797], [134.9416227, 35.4639097], [134.9419478, 35.4640037], [134.9422951, 35.4640397], [134.9425816, 35.4640307], [134.9431326, 35.4640145], [134.9432559, 35.4640134], [134.9436133, 35.4640942], [134.9438749, 35.4641976], [134.9440652, 35.4642965], [134.9442509, 35.4644557], [134.9444558, 35.4647435], [134.944639, 35.4650438], [134.9448118, 35.4653325], [134.945104, 35.4658428], [134.9452793, 35.4661378], [134.9453432, 35.4662167], [134.9457129, 35.4668313], [134.9458607, 35.4670528], [134.9461823, 35.4674321], [134.9462438, 35.4675121], [134.9468679, 35.468217], [134.9473849, 35.4688218], [134.9477495, 35.4692684], [134.9482767, 35.4698572], [134.9488447, 35.4704339], [134.949097, 35.4702673], [134.9493122, 35.4700917], [134.949475, 35.4699255], [134.9496316, 35.4697438], [134.9497627, 35.469522], [134.9501932, 35.468758], [134.9502109, 35.4687245], [134.9502175, 35.4687124], [134.9502251, 35.4687016], [134.9504355, 35.4683367], [134.9507272, 35.4677627], [134.9508712, 35.4675165], [134.9509667, 35.4672941], [134.9512388, 35.4664219], [134.9514491, 35.4660767], [134.9516636, 35.4658827], [134.952088, 35.4657074], [134.9526621, 35.4655973], [134.9536182, 35.4654605], [134.9540587, 35.4653115], [134.9553623, 35.4646102], [134.9561616, 35.4642549], [134.9565514, 35.464103], [134.9579064, 35.4635048], [134.9579537, 35.4634845], [134.9580419, 35.4634486], [134.9585823, 35.4632105], [134.9585933, 35.4632056], [134.9596925, 35.46272], [134.9600178, 35.4625499], [134.9606523, 35.4621732], [134.9608793, 35.4620235], [134.9609704, 35.4619635], [134.9612466, 35.4617791], [134.9614454, 35.4616729], [134.9616296, 35.4615917], [134.9618202, 35.4615268], [134.9620284, 35.461481], [134.9623077, 35.4614365], [134.9626383, 35.4613838], [134.9627601, 35.4613644], [134.9633773, 35.4612481], [134.9660021, 35.4606611], [134.9668948, 35.4603395], [134.9688177, 35.4594585], [134.9694077, 35.4591364], [134.9703577, 35.4585742], [134.9706564, 35.4583904], [134.9707523, 35.4583205], [134.9712728, 35.4579062], [134.9718909, 35.4574587], [134.9725433, 35.4571231], [134.97323, 35.4569133], [134.9758943, 35.4564151], [134.9761934, 35.4563822], [134.9764685, 35.456375], [134.9767511, 35.4564149], [134.9774755, 35.4565291], [134.9781012, 35.4565897], [134.9785479, 35.4566031], [134.978997, 35.4565879], [134.9794367, 35.4565515], [134.979795, 35.456492], [134.9800513, 35.4564213], [134.9802425, 35.4563444], [134.9805321, 35.4561944], [134.9807432, 35.4560414], [134.9809593, 35.455819], [134.9810885, 35.4556258], [134.9812026, 35.4554061], [134.9812641, 35.4551878], [134.9813056, 35.4549163], [134.9813733, 35.4540474], [134.9814412, 35.4537648], [134.9815272, 35.4535623], [134.9816232, 35.453413], [134.9817471, 35.4532757], [134.9818829, 35.4531374], [134.9822778, 35.4528856], [134.9825261, 35.4527775], [134.9829981, 35.452572], [134.9849502, 35.4517048], [134.985559, 35.4514334], [134.9866983, 35.4509174], [134.9868642, 35.4508448], [134.9873158, 35.4506473], [134.988661, 35.4500589], [134.9890937, 35.4498508], [134.9899521, 35.4493333], [134.9902982, 35.4490572], [134.9907762, 35.448676], [134.9911128, 35.4482739], [134.9914198, 35.447907], [134.9918063, 35.4474452], [134.9919705, 35.4472105], [134.9927162, 35.4461444], [134.9932656, 35.4455011], [134.9941584, 35.4445919], [134.9943519, 35.4443773], [134.9964666, 35.442295], [134.9967775, 35.4419921], [134.9968791, 35.4418853], [134.9969611, 35.4417949], [134.99703, 35.4417089], [134.9970927, 35.4416191], [134.9971428, 35.4415361], [134.9971881, 35.4414506], [134.997226, 35.4413608], [134.9972644, 35.4412521], [134.9972959, 35.4411453], [134.9972986, 35.4411361], [134.9973835, 35.4408221], [134.9974308, 35.4406477], [134.9974684, 35.4405013], [134.9975395, 35.4402401], [134.997652, 35.4398268], [134.9977236, 35.4395638], [134.9977587, 35.4394497], [134.9977638, 35.4394328], [134.9978018, 35.4393237], [134.9978412, 35.4392222], [134.9978859, 35.4391232], [134.9979351, 35.439023], [134.9979964, 35.4389342], [134.9980668, 35.4388356], [134.9981404, 35.4387422], [134.9982241, 35.4386498], [134.9983175, 35.4385653], [134.9984174, 35.4384853], [134.9985502, 35.4383927], [134.9986987, 35.4382976], [134.999101, 35.4380646], [134.9996866, 35.4377661], [135.0000986, 35.4374304], [135.0003733, 35.4371227], [135.0006041, 35.4366684], [135.0007203, 35.4362232], [135.0007068, 35.4358312], [135.0006962, 35.4355805], [135.0006609, 35.4350757], [135.0005004, 35.4338228], [135.0003271, 35.4324708], [135.0002188, 35.4316252], [135.0002703, 35.4312475], [135.0002732, 35.4312385], [135.0004077, 35.4308278], [135.0007511, 35.4303801], [135.0011459, 35.4301423], [135.0020641, 35.4297274], [135.0042019, 35.4287154], [135.0045624, 35.4285056], [135.0047811, 35.4282557], [135.0049165, 35.4280753], [135.0050167, 35.4278725], [135.0051014, 35.4276988], [135.0051341, 35.4276175], [135.0054665, 35.4269558], [135.0056004, 35.4267213], [135.0057269, 35.4264883], [135.0066251, 35.4250253], [135.0071213, 35.4242144], [135.0073622, 35.4238019], [135.0074123, 35.4236767], [135.0074395, 35.4235826], [135.0074543, 35.4234857], [135.0074632, 35.4234024], [135.0074659, 35.423292], [135.0074565, 35.4230166], [135.0074013, 35.4219839], [135.0073952, 35.4218882], [135.0074519, 35.4213338], [135.0075326, 35.4205451], [135.0076292, 35.4201778], [135.0076356, 35.4201534], [135.007876, 35.4197336], [135.0082496, 35.4192294], [135.0083043, 35.4191581], [135.0083614, 35.4190866], [135.0089243, 35.4183996], [135.0093081, 35.4179168], [135.0093377, 35.4178792], [135.0095008, 35.4176723], [135.0095413, 35.417621], [135.0099051, 35.41733], [135.0103367, 35.4171133], [135.0107659, 35.417017], [135.0108643, 35.4170124], [135.0115854, 35.4169828], [135.012975, 35.4169354], [135.0134214, 35.4169634], [135.0138849, 35.4170753], [135.0142686, 35.4172258], [135.0154748, 35.417689], [135.0161683, 35.4179707], [135.0165245, 35.4181679], [135.0166658, 35.4182342], [135.0184174, 35.419216], [135.01919, 35.4195518], [135.0199969, 35.4197791], [135.0209927, 35.4200275], [135.0239972, 35.4211887], [135.0241008, 35.421232], [135.0244092, 35.4213846], [135.0250317, 35.4217436], [135.0253553, 35.4218936], [135.0259311, 35.4221241], [135.0261688, 35.4222049], [135.0265383, 35.4222856], [135.0267041, 35.4223128], [135.0268625, 35.4223235], [135.0271928, 35.4223196], [135.0276089, 35.4222363], [135.0278772, 35.422168], [135.0280998, 35.4220648], [135.0281271, 35.4220483], [135.0282893, 35.4219722], [135.0287872, 35.4215804], [135.029548, 35.4208905], [135.0297605, 35.4206714], [135.0298231, 35.4206057], [135.030003, 35.420463], [135.0304346, 35.4201952], [135.0308045, 35.4200084], [135.0335049, 35.4189331], [135.0338545, 35.4188058], [135.0342312, 35.4187018], [135.0347274, 35.4185864], [135.0350787, 35.4185429], [135.0352289, 35.4185314], [135.0354611, 35.418522], [135.0361063, 35.4185007], [135.0366042, 35.4184115], [135.0370624, 35.4182646], [135.0371739, 35.4181898], [135.0372254, 35.4181552], [135.0373542, 35.4180687], [135.0374091, 35.4180268], [135.0375619, 35.4179104], [135.0381413, 35.4172747], [135.0382733, 35.4170889], [135.0385845, 35.4165463], [135.0387125, 35.4162715], [135.038916, 35.4156829], [135.0390376, 35.4151079], [135.0390856, 35.4144686], [135.0390274, 35.4119873], [135.0389157, 35.4087998], [135.0387706, 35.4057929], [135.0385543, 35.4024034], [135.0384517, 35.4002863], [135.0384825, 35.4000022], [135.0385465, 35.3996663], [135.0387246, 35.3991085], [135.0388727, 35.3987751], [135.0390267, 35.3985163], [135.039375, 35.3980994], [135.0400722, 35.3975327], [135.0404769, 35.3972029], [135.0406998, 35.3969649], [135.0409228, 35.3966944], [135.0411531, 35.3964029], [135.0414645, 35.3959804], [135.0419345, 35.395287], [135.0421034, 35.394948], [135.0422027, 35.394689], [135.0422159, 35.3945775], [135.0422258, 35.394422], [135.0422116, 35.3941084], [135.0421128, 35.3938218], [135.0418749, 35.3933906], [135.0418105, 35.3931846], [135.041767, 35.3929438], [135.0417282, 35.3925767], [135.0416952, 35.3922632], [135.0415524, 35.3916541], [135.0413766, 35.3909823], [135.0413326, 35.3907405], [135.0413216, 35.3897641], [135.0413635, 35.3891408], [135.0413876, 35.3886892], [135.0414176, 35.3885232], [135.0414425, 35.3884563], [135.0416174, 35.3881463], [135.0419919, 35.3875336], [135.0421787, 35.3872469], [135.0429149, 35.3864766], [135.0431017, 35.3862257], [135.0432115, 35.3859928], [135.0432335, 35.3857868], [135.0432005, 35.3855539], [135.0429833, 35.3847743], [135.042761, 35.3840489], [135.0427391, 35.3837891], [135.042794, 35.3835652], [135.0429039, 35.3833412], [135.0430467, 35.3831531], [135.0434972, 35.3828575], [135.0447453, 35.3824103], [135.0449476, 35.3823289], [135.0452003, 35.3822214], [135.0453981, 35.382096], [135.0456952, 35.3817205], [135.0461123, 35.3812091], [135.0462002, 35.3809941], [135.0461782, 35.380806], [135.0460903, 35.3806268], [135.0457168, 35.3802953], [135.0453432, 35.3799728], [135.0452113, 35.3797757], [135.0451234, 35.3795159], [135.0450905, 35.3792292], [135.045131, 35.378869], [135.0451393, 35.3787019], [135.0451522, 35.3785271], [135.0451684, 35.3783205], [135.0452003, 35.3780735], [135.0452333, 35.3772404], [135.0452443, 35.3763982], [135.0451674, 35.3755381], [135.0451893, 35.3752246], [135.045212, 35.375108], [135.045234, 35.374997], [135.0452553, 35.3749199], [135.0456289, 35.3740688], [135.0457107, 35.3738068], [135.0457277, 35.3737463], [135.0457717, 35.3734327], [135.0458157, 35.3727876], [135.0458486, 35.3725009], [135.0459585, 35.3721873], [135.0462991, 35.3714078], [135.0466287, 35.3708523], [135.0467868, 35.3706167], [135.0468155, 35.3705746], [135.0472221, 35.3702072], [135.0476286, 35.3699026], [135.0478704, 35.3695711], [135.0481561, 35.3690245], [135.0484857, 35.3683346], [135.0487164, 35.3679493], [135.0488922, 35.3677433], [135.049101, 35.3675909], [135.0492878, 35.367358], [135.0495295, 35.3670265], [135.04989, 35.366449], [135.0503674, 35.365669], [135.0505469, 35.365371], [135.0507392, 35.3648983], [135.050802, 35.3646224], [135.0508328, 35.3644788], [135.0508561, 35.3635255], [135.050842, 35.3634516], [135.0506925, 35.3624959], [135.0506874, 35.3622704], [135.0507045, 35.3620192], [135.0507765, 35.36178], [135.0515343, 35.3600332], [135.051768, 35.3596358], [135.0518334, 35.3595459], [135.0518732, 35.3594835], [135.0519241, 35.3594035], [135.0520274, 35.359248], [135.052161, 35.3590702], [135.0524037, 35.3588056], [135.0526706, 35.3584822], [135.0527533, 35.3583147], [135.0527984, 35.3581042], [135.052856, 35.357787], [135.0529382, 35.3575728], [135.0530645, 35.3573288], [135.0532409, 35.3570807], [135.0535716, 35.35676], [135.0537052, 35.3565853], [135.0537912, 35.3564188], [135.0538279, 35.3562063], [135.0538279, 35.3557123], [135.0538589, 35.3555423], [135.0539173, 35.3554004], [135.0540259, 35.3552483], [135.0541465, 35.3551154], [135.0543145, 35.3550081], [135.0544776, 35.3549274], [135.0548207, 35.3548627], [135.0557648, 35.3547598], [135.0559856, 35.3547183], [135.0561591, 35.3546308], [135.0563279, 35.3545092], [135.0564404, 35.3543708], [135.0565032, 35.3542212], [135.0565458, 35.3540018], [135.0566185, 35.3532677], [135.0566625, 35.3530903], [135.0567416, 35.3529334], [135.0568346, 35.3528129], [135.0569325, 35.3527129], [135.0570654, 35.3526222], [135.0572764, 35.3525218], [135.0578883, 35.3522886], [135.0581321, 35.3521718], [135.0585391, 35.351926], [135.0589583, 35.351709], [135.0591868, 35.3516168], [135.0594629, 35.3515595], [135.061006, 35.3511446], [135.0612615, 35.3510668], [135.0614589, 35.3509466], [135.061794, 35.3506348], [135.0618517, 35.3505641], [135.0619799, 35.3504333], [135.0624405, 35.3499713], [135.0625034, 35.349859], [135.0625529, 35.3497379], [135.062517, 35.3495899], [135.0623731, 35.3493216], [135.0623251, 35.3491744], [135.0623112, 35.3490629], [135.0623465, 35.3489393], [135.0627966, 35.3481027], [135.0633212, 35.3469032], [135.0634185, 35.3467267], [135.063743, 35.3464049], [135.0639717, 35.3462728], [135.0641775, 35.3462031], [135.064955, 35.3460524], [135.06521, 35.3459745], [135.0653811, 35.345882], [135.06548, 35.3457592], [135.0655234, 35.345574], [135.0655558, 35.3452847], [135.0655867, 35.3450798], [135.0656369, 35.3449415], [135.0657366, 35.3448204], [135.0658368, 35.3447177], [135.0660097, 35.3445391], [135.066138, 35.3444294], [135.0662341, 35.3443154], [135.066342, 35.3441273], [135.0666595, 35.3434017], [135.066748, 35.3432012], [135.066767, 35.3429984], [135.0667534, 35.3428304], [135.0667014, 35.3426777], [135.0666426, 35.3425504], [135.0662712, 35.3420424], [135.0661794, 35.3419045], [135.0661634, 35.3417832], [135.0662014, 35.3416751], [135.0662717, 35.3415724], [135.0664123, 35.341445], [135.0668491, 35.3412166], [135.0670717, 35.3411402], [135.0674188, 35.3410542], [135.0677919, 35.3409974], [135.0682204, 35.3409297], [135.0684446, 35.3408689], [135.0685478, 35.3407944], [135.0686344, 35.3407078], [135.0686832, 35.3405801], [135.0686909, 35.3403951], [135.0686668, 35.3399446], [135.0686207, 35.3391098], [135.0686348, 35.3388899], [135.0686912, 35.3387337], [135.0687858, 35.3385782], [135.0689123, 35.338465], [135.0692286, 35.3382179], [135.0694393, 35.3380235], [135.0696212, 35.3377888], [135.0697222, 35.3375727], [135.0697868, 35.3372943], [135.0698153, 35.336939], [135.0699163, 35.3358925], [135.0699376, 35.33572], [135.0700213, 35.3355234], [135.0702254, 35.3352692], [135.0704335, 35.3351037], [135.0707865, 35.3348265], [135.0709685, 35.3345844], [135.0710579, 35.3344321], [135.0717025, 35.3330592]]]}, "id": "relation/10018733"}]}