{"type": "FeatureCollection", "generator": "kokudo-quiz tools/fetch_raw.py (Overpass API)", "copyright": "The data included in this document is from www.openstreetmap.org. The data is made available under ODbL.", "timestamp": "2026-09-30T23:39:30Z", "features": [{"type": "Feature", "properties": {"@id": "relation/10012952", "colour": "red", "from": "兵庫県神戸市中央区", "name": "国道428号", "name:en": "National Route 428", "name:ja": "国道428号", "name:ja-Hira": "こくどうよんひゃくにじゅうはちごう", "name:ja-Latn": "Kokudou 428", "network": "JP:national", "official_name": "一般国道428号", "ref": "428", "route": "road", "to": "兵庫県三木市", "type": "route", "wikidata": "Q6157514", "wikipedia": "ja:国道428号"}, "geometry": {"type": "MultiLineString", "coordinates": [[[135.1180885, 34.8775029], [135.1182071, 34.8773834], [135.1184024, 34.8771905], [135.1186443, 34.8769996], [135.1188956, 34.8768503], [135.1191761, 34.8767225], [135.1205083, 34.8763163], [135.1219631, 34.8758861], [135.1221777, 34.8758033], [135.1222141, 34.8757861], [135.1223599, 34.8757173], [135.1225386, 34.8756082], [135.1227351, 34.8754733], [135.1231484, 34.8751468], [135.1233549, 34.8749746], [135.1235726, 34.8747775], [135.1236242, 34.8747342], [135.123753, 34.874599], [135.1238769, 34.874419], [135.1239835, 34.8742135], [135.1240542, 34.8739891], [135.1240917, 34.8737601], [135.1241159, 34.8735377], [135.1241497, 34.87332], [135.1242351, 34.8730966], [135.1243564, 34.8728816], [135.1246612, 34.8724809], [135.1247934, 34.8722739], [135.1248939, 34.8720378], [135.1249476, 34.8718163], [135.1249697, 34.8715886], [135.1249715, 34.8709018], [135.1249674, 34.8706698], [135.1249627, 34.870587], [135.1249532, 34.8702673], [135.1248925, 34.869211], [135.1248932, 34.8690108], [135.1249104, 34.8688114], [135.1249826, 34.8681939], [135.1249793, 34.8679923], [135.1249633, 34.8678015], [135.1249251, 34.8675968], [135.1248811, 34.8674506], [135.1248662, 34.8674009], [135.1247864, 34.8672086], [135.1247389, 34.8671284], [135.1246466, 34.866996], [135.124514, 34.8668395], [135.1243586, 34.8667111], [135.1241587, 34.8665626], [135.1239617, 34.8664266], [135.1237715, 34.8662575], [135.1236198, 34.8660763], [135.1235194, 34.8659026], [135.1234447, 34.8657164], [135.1233905, 34.8655254], [135.1233792, 34.8653289], [135.123385, 34.8649809], [135.1234477, 34.8639668], [135.1234574, 34.8637647], [135.1234577, 34.8635597], [135.1234466, 34.863366], [135.1234037, 34.8631592], [135.1233324, 34.8629593], [135.1232325, 34.8627703], [135.123106, 34.8625811], [135.1224782, 34.8616975], [135.1221612, 34.8612164], [135.1210167, 34.8591095], [135.1209485, 34.8589407], [135.1208896, 34.8586626], [135.1208944, 34.85843], [135.1209379, 34.8582019], [135.1210228, 34.8579779], [135.1212137, 34.8575384], [135.1212687, 34.8573332], [135.1212756, 34.8572757], [135.1212829, 34.8570833], [135.1212629, 34.8568898], [135.1212152, 34.8566979], [135.1211337, 34.856499], [135.1210213, 34.8563099], [135.1208854, 34.8561371], [135.1207004, 34.8559487], [135.120503, 34.8557656], [135.1203109, 34.8555927], [135.1200844, 34.8553984], [135.1198551, 34.855209], [135.1196385, 34.8550369], [135.1195515, 34.8549843], [135.1193692, 34.8548686], [135.1191538, 34.8547473], [135.1189326, 34.8546485], [135.1186428, 34.8545486], [135.1183456, 34.8544809], [135.118054, 34.8544455], [135.1177529, 34.8544224], [135.1175111, 34.8543918], [135.1172524, 34.8543314], [135.117099, 34.8542731], [135.1169305, 34.8541975], [135.116739, 34.8540879], [135.1165543, 34.8539414], [135.1161825, 34.8535974], [135.1160029, 34.8534089], [135.1158517, 34.853241], [135.1156957, 34.8530473], [135.1155912, 34.8529037], [135.1155584, 34.8528586], [135.1154514, 34.8526607], [135.1153939, 34.8525061], [135.1153389, 34.852251], [135.1153273, 34.8520061], [135.115363, 34.8517607], [135.1154238, 34.8515347], [135.1156054, 34.8510873], [135.1157009, 34.8508342], [135.1157743, 34.850577], [135.1158107, 34.8503562], [135.1158051, 34.8502747], [135.1157883, 34.8502002], [135.1157713, 34.8501542], [135.1157246, 34.850085], [135.1156755, 34.8500236], [135.1155993, 34.8499574], [135.1154935, 34.8498935], [135.1151877, 34.8497325], [135.1148499, 34.8495439], [135.11476, 34.8494723], [135.11471, 34.8493911], [135.1146963, 34.8493008], [135.1147168, 34.8492137], [135.1147801, 34.8490415], [135.1148038, 34.848957], [135.114805, 34.8488681], [135.1147812, 34.8487569], [135.1145857, 34.8484447], [135.1140684, 34.8476724], [135.1139627, 34.8475491], [135.1138248, 34.8474149], [135.1137287, 34.8472915], [135.1136539, 34.8471604], [135.1135987, 34.8470233], [135.1135524, 34.8468831], [135.1134796, 34.8466884], [135.1134171, 34.8465208], [135.1133624, 34.8462431], [135.113375, 34.8461044], [135.1134114, 34.845947], [135.1134243, 34.8457984], [135.1134227, 34.8456548], [135.1133859, 34.8455091], [135.1132381, 34.8451809], [135.1132014, 34.8450437], [135.113173, 34.8447425], [135.1131225, 34.8445981], [135.1130577, 34.8444595], [135.1129588, 34.8443003], [135.1128959, 34.8441729], [135.1128973, 34.8440348], [135.1129481, 34.8437709], [135.1129326, 34.8436255], [135.1128542, 34.8434809], [135.1126426, 34.8432046], [135.1125904, 34.8430745], [135.112585, 34.8429424], [135.1126085, 34.8428044], [135.1126411, 34.8426584], [135.1126617, 34.8425142], [135.1126472, 34.8423798], [135.1126233, 34.8422319], [135.1125961, 34.8420875], [135.1124216, 34.8413019], [135.1124051, 34.8412301], [135.1123271, 34.8409795], [135.1122534, 34.8407862], [135.1121612, 34.8405832], [135.1120474, 34.8403339], [135.1119763, 34.8402132], [135.1118656, 34.8400782], [135.1116288, 34.8398565], [135.1115238, 34.8397491], [135.1114528, 34.8396272], [135.1113958, 34.8394841], [135.1113508, 34.8393429], [135.111349, 34.8392026], [135.111366, 34.8390636], [135.1114421, 34.8389349], [135.111672, 34.8386609], [135.1117249, 34.8385475], [135.1117352, 34.8384967], [135.1117441, 34.8384062], [135.1117363, 34.8382952], [135.1117274, 34.8382336], [135.1117189, 34.8381749], [135.1116956, 34.838053], [135.1116695, 34.8379384], [135.1115888, 34.8375975], [135.1115597, 34.8374826], [135.1115243, 34.8373473], [135.1114599, 34.8371008], [135.1114154, 34.8369522], [135.1113634, 34.8368184], [135.1112944, 34.8366844], [135.1112062, 34.8365619], [135.111097, 34.8364416], [135.1108276, 34.8361935], [135.1106745, 34.8360935], [135.1105189, 34.83601], [135.1100341, 34.8358125], [135.1099013, 34.8357517], [135.1097539, 34.8356748], [135.1096116, 34.8355743], [135.1094838, 34.835472], [135.1093649, 34.8353615], [135.1092337, 34.835234], [135.1091111, 34.8351012], [135.1090229, 34.8350041], [135.1088944, 34.8348627], [135.1085391, 34.8345351], [135.1082702, 34.8342447], [135.1081529, 34.8340941], [135.1078957, 34.8335872], [135.1077946, 34.8334229], [135.1076883, 34.8332673], [135.1075705, 34.8331084], [135.1074531, 34.8329787], [135.1073402, 34.8328739], [135.1072151, 34.8327808], [135.1069343, 34.8325884], [135.1068083, 34.8324875], [135.1066951, 34.8323777], [135.1065849, 34.8322627], [135.1064822, 34.8321239], [135.1063825, 34.8319748], [135.1063112, 34.83185], [135.1061657, 34.8315809], [135.1061514, 34.8315544], [135.1059299, 34.8311568], [135.105801, 34.830886], [135.1057421, 34.8307509], [135.1056953, 34.8306147], [135.1054434, 34.8298674], [135.1054322, 34.8298341], [135.1052779, 34.8293651], [135.1052537, 34.8292755], [135.1052346, 34.8292049], [135.1052127, 34.8290587], [135.1052006, 34.8289126], [135.1052028, 34.8287529], [135.1052216, 34.8285632], [135.1052334, 34.8284448], [135.1052422, 34.8282779], [135.105232, 34.828066], [135.1052164, 34.8279643], [135.1051961, 34.8278723], [135.105141, 34.827671], [135.1050451, 34.8274635], [135.10489, 34.8272973], [135.1047614, 34.8272044], [135.1045027, 34.8270175], [135.1043626, 34.8269263], [135.1040304, 34.826694], [135.1038581, 34.8265685], [135.1037056, 34.8264421], [135.1035834, 34.8263251], [135.1034711, 34.8262006], [135.1033685, 34.82607], [135.103296, 34.8259306], [135.1032463, 34.8258026], [135.1032303, 34.8257666], [135.1031833, 34.8256582], [135.1031165, 34.8255118], [135.1029858, 34.8252726], [135.1029234, 34.8251872], [135.102799, 34.8250692], [135.1023892, 34.8247758], [135.1022765, 34.8246385], [135.1022167, 34.8245506], [135.1021736, 34.8244511], [135.1021616, 34.8244235], [135.1019769, 34.8239111], [135.1019218, 34.823759], [135.1018778, 34.8236124], [135.1018471, 34.8234713], [135.1018223, 34.8233298], [135.1018079, 34.8231798], [135.101798, 34.822901], [135.1017836, 34.822756], [135.1017591, 34.8225663], [135.1017201, 34.8223725], [135.101656, 34.8220721], [135.101579, 34.821792], [135.1015243, 34.8216504], [135.1014323, 34.8214845], [135.1012853, 34.8213215], [135.1007151, 34.8208894], [135.1005385, 34.8207206], [135.1004056, 34.8205757], [135.1002765, 34.8204165], [135.1000269, 34.8200852], [135.0998696, 34.8198943], [135.0997388, 34.8197617], [135.0995724, 34.8196474], [135.0993527, 34.8195304], [135.0990244, 34.8193747], [135.0988955, 34.8192851], [135.0988381, 34.819242], [135.0987832, 34.819192], [135.0987299, 34.8191355], [135.0986953, 34.8190922], [135.0986695, 34.8190537], [135.0986343, 34.8190002], [135.0986011, 34.8189408], [135.09857, 34.8188751], [135.0985351, 34.8187798], [135.0985046, 34.8186893], [135.0983953, 34.818309], [135.0983482, 34.8181492], [135.0983081, 34.818013], [135.0982739, 34.8178849], [135.0982659, 34.8178549], [135.0979813, 34.8168682], [135.0979026, 34.816594], [135.097665, 34.8157346], [135.0976571, 34.8157071], [135.097577, 34.815431], [135.0975342, 34.8152051], [135.0975124, 34.8150566], [135.0975402, 34.8147626], [135.0975865, 34.8145489], [135.0977515, 34.8138796], [135.0978064, 34.8136916], [135.0978595, 34.8135358], [135.0979472, 34.8131179], [135.0979942, 34.8129125], [135.098034, 34.8128174], [135.0981002, 34.8127034], [135.0982052, 34.8125736], [135.0983868, 34.8124571], [135.0987493, 34.8122889], [135.0991718, 34.8120779], [135.0999667, 34.8115991], [135.100229, 34.8114574], [135.1004498, 34.8113786], [135.1007466, 34.8113054], [135.1017024, 34.8110759], [135.1018794, 34.8110199], [135.102116, 34.8109009], [135.1023136, 34.8107617], [135.1026786, 34.8104089], [135.1037675, 34.8095895], [135.1039501, 34.8094903], [135.1044018, 34.8092971], [135.1049022, 34.8090666], [135.1052264, 34.8088943], [135.1055916, 34.808645], [135.1057528, 34.808502], [135.1058562, 34.8083658], [135.1059125, 34.8081857], [135.1060127, 34.8077363], [135.1060228, 34.8075364], [135.1059658, 34.807211], [135.1059493, 34.8070315], [135.1059543, 34.80689], [135.105994, 34.8067621], [135.1062754, 34.8062848], [135.10638, 34.8060738], [135.1064038, 34.805932], [135.1063508, 34.8057503], [135.1062151, 34.8056037], [135.1059448, 34.8054219], [135.1058908, 34.805365], [135.1058642, 34.8053089], [135.1058785, 34.8052335], [135.1059407, 34.8051615], [135.1061121, 34.8051221], [135.1063671, 34.8050727], [135.1065303, 34.8049864], [135.1066313, 34.8048876], [135.1068241, 34.8045643], [135.1069057, 34.8043449], [135.1069291, 34.8042243], [135.1069597, 34.8041656], [135.107023, 34.8041254], [135.1071393, 34.8040995], [135.1073524, 34.8040903], [135.1074238, 34.8040676], [135.1074534, 34.8040224], [135.107485, 34.8039671], [135.1075299, 34.8036087], [135.1075452, 34.803571], [135.107587, 34.8035358], [135.1080818, 34.8031932], [135.108144, 34.8031145], [135.1082021, 34.803014], [135.1082388, 34.8029629], [135.1082705, 34.8029185], [135.1084714, 34.8027753], [135.1084989, 34.8027326], [135.1085673, 34.8024889], [135.1085968, 34.8024552], [135.1088631, 34.8023082], [135.1088937, 34.8022747], [135.1089187, 34.8022374], [135.1089319, 34.8022001], [135.1089258, 34.8021373], [135.108683, 34.8016658], [135.1086687, 34.8016004], [135.1086606, 34.8015217], [135.1086902, 34.8014346], [135.1088778, 34.80102], [135.1089258, 34.8009664], [135.1089931, 34.8009312], [135.1090645, 34.8009027], [135.1092032, 34.8009002], [135.1098795, 34.8011272], [135.1099784, 34.8011347], [135.1100804, 34.8011272], [135.1101916, 34.8010895], [135.1105282, 34.8009044], [135.1106486, 34.8008592], [135.1107383, 34.8008424], [135.1111693, 34.8008425], [135.1113009, 34.8008257], [135.1114396, 34.8007721], [135.1120812, 34.8003994], [135.1125443, 34.8001507], [135.1127432, 34.8000803], [135.1135704, 34.7998366], [135.1138795, 34.799731], [135.1140121, 34.7996749], [135.1141947, 34.7995719], [135.1144853, 34.7993861], [135.1147292, 34.799218], [135.1149688, 34.7990428], [135.1151343, 34.7988783], [135.1154436, 34.7985361], [135.1155355, 34.7984716], [135.1156772, 34.7984171], [135.1162709, 34.7982881], [135.1164453, 34.7982236], [135.1165442, 34.7981508], [135.1170043, 34.7975929], [135.1171124, 34.7975276], [135.1171889, 34.7975008], [135.1172674, 34.7974916], [135.11745, 34.7975125], [135.1179345, 34.7976616], [135.1180253, 34.7976784], [135.1181701, 34.7976934], [135.1182936, 34.7976867], [135.1184517, 34.797665], [135.1185639, 34.797634], [135.1187067, 34.797572], [135.1192718, 34.7972001], [135.1194625, 34.797092], [135.1196328, 34.7970217], [135.1197899, 34.7969756], [135.1199796, 34.7969413], [135.120151, 34.796927], [135.1205254, 34.7969505], [135.1206722, 34.7969848], [135.1209444, 34.7970435], [135.1218887, 34.7972744], [135.1222222, 34.7973364], [135.1224884, 34.797349], [135.1227038, 34.7973345], [135.1231221, 34.7972474], [135.1234443, 34.7971687], [135.1236839, 34.7971437], [135.1239496, 34.7971437], [135.1241891, 34.7971615], [135.1242576, 34.797174], [135.1243851, 34.7971973], [135.1246029, 34.7972545], [135.1247945, 34.7973153], [135.1249818, 34.7973976], [135.1258418, 34.7979285], [135.1259846, 34.7979877], [135.1261346, 34.7980067], [135.1263149, 34.7979996], [135.1264866, 34.7979498], [135.1266063, 34.7978775], [135.1268688, 34.7976217], [135.1270751, 34.7974393], [135.1273478, 34.7972509], [135.1280431, 34.7969204], [135.1284931, 34.7967309], [135.1286287, 34.7966278], [135.1287614, 34.7964892], [135.1288263, 34.796327], [135.1288682, 34.7961848], [135.1289035, 34.7956673], [135.1288544, 34.7955275], [135.1287852, 34.795415], [135.128527, 34.7952266], [135.1283485, 34.7951095], [135.1282642, 34.7950023], [135.1282137, 34.7948714], [135.1282137, 34.7947239], [135.1282822, 34.7945332], [135.128319, 34.7943994], [135.1283276, 34.7942543], [135.1283096, 34.7941453], [135.1282605, 34.793999], [135.1281891, 34.7938148], [135.1281783, 34.7936694], [135.1282042, 34.793522], [135.1282706, 34.7934059], [135.1284617, 34.7932299], [135.129077, 34.79272], [135.129227, 34.7926211], [135.1294001, 34.7925251], [135.1298256, 34.792329], [135.1307042, 34.7919371], [135.1311031, 34.7917478], [135.1315149, 34.791489], [135.1318241, 34.7912636], [135.1321856, 34.7909989], [135.1325079, 34.7907378], [135.1327213, 34.7904982], [135.1328128, 34.7903408], [135.1328868, 34.7901834], [135.1329434, 34.7900082], [135.1329739, 34.7898114], [135.1329869, 34.789597], [135.1329565, 34.7893464], [135.1329042, 34.7891461], [135.1327923, 34.7888089], [135.1326676, 34.7884386], [135.1325335, 34.7879801], [135.1325234, 34.787896], [135.1324808, 34.7875305], [135.1324981, 34.787232], [135.1325313, 34.7870122], [135.1326698, 34.7865389], [135.1327874, 34.7862185], [135.1328256, 34.7859809], [135.1328054, 34.7858269], [135.1327291, 34.7856497], [135.1322023, 34.7846383], [135.1321796, 34.7844375], [135.1321868, 34.7842988], [135.1322423, 34.7841223], [135.1323296, 34.783976], [135.1324089, 34.7838812], [135.1327083, 34.7835951], [135.1327898, 34.783476], [135.132827, 34.7834004], [135.13299, 34.7826172], [135.1330174, 34.7822713], [135.1329869, 34.7818713], [135.1329652, 34.7815461], [135.1329778, 34.7812976], [135.1330601, 34.780992], [135.1334406, 34.780375], [135.1335528, 34.7802269], [135.1338483, 34.7799719], [135.134134, 34.7797651], [135.1342652, 34.7796141], [135.1343575, 34.7794517], [135.1345506, 34.7790587], [135.1348293, 34.7785972], [135.1350509, 34.7783235], [135.135156, 34.7781366], [135.1353664, 34.7778146], [135.1354566, 34.7777222], [135.1355727, 34.7776457], [135.1357076, 34.7775901], [135.1360999, 34.7774805], [135.1362153, 34.7774265], [135.1363394, 34.7773288], [135.136387, 34.7772399], [135.1364115, 34.7771771], [135.1364548, 34.7766564], [135.1364771, 34.7765616], [135.1365413, 34.7763904], [135.1366683, 34.776205], [135.1368522, 34.7759775], [135.136982, 34.7758625], [135.1371111, 34.7757968], [135.1372135, 34.7757731], [135.1376434, 34.7757547], [135.1377357, 34.7757393], [135.1379031, 34.7756718], [135.1379781, 34.7756084], [135.1380358, 34.7755586], [135.1381663, 34.7753726], [135.1383539, 34.7750829], [135.138457, 34.774904], [135.1385138, 34.7747447], [135.1386186, 34.7744051], [135.1387763, 34.7738244], [135.1389328, 34.7731514], [135.1391938, 34.7718721], [135.1393539, 34.7708951], [135.1393539, 34.7707753], [135.1393396, 34.7706806], [135.1392886, 34.7705256], [135.1392356, 34.7704586], [135.1390907, 34.7703262], [135.1389622, 34.770255], [135.1388368, 34.7702022], [135.1383104, 34.7701117], [135.1381788, 34.7700531], [135.1380891, 34.769986], [135.1380197, 34.7698871], [135.1379861, 34.7697606], [135.1379973, 34.7696928], [135.1380238, 34.769619], [135.1381023, 34.769521], [135.138188, 34.7694548], [135.1383237, 34.7694012], [135.1384461, 34.769397], [135.138594, 34.7694179], [135.1387705, 34.7695252], [135.1392937, 34.7700011], [135.1393825, 34.7700422], [135.1395276, 34.7700776], [135.1396222, 34.7700698], [135.1396278, 34.7700679], [135.139819, 34.7700036], [135.1398843, 34.7699559], [135.139968, 34.7698469], [135.1400057, 34.7696944], [135.1399384, 34.7695042], [135.1395182, 34.7690878], [135.139459, 34.7690291], [135.1392509, 34.768817], [135.1391809, 34.7687244], [135.1390754, 34.7685616], [135.139041, 34.7684692], [135.1390225, 34.7684194], [135.1389894, 34.7682089], [135.1389863, 34.7680315], [135.1389856, 34.767994], [135.1389885, 34.767797], [135.138956, 34.7674972], [135.138878, 34.7671368], [135.1387781, 34.766675], [135.1386245, 34.7658425], [135.1385871, 34.765635], [135.1385108, 34.7652746], [135.1384702, 34.7650832], [135.1387167, 34.7649904], [135.1389564, 34.7648279], [135.1391125, 34.7647248], [135.1393726, 34.7645337], [135.1396622, 34.7644064], [135.1398958, 34.764336], [135.1401381, 34.7643002], [135.1406307, 34.7643085], [135.1428594, 34.7643772], [135.1434119, 34.7644056], [135.143529, 34.7644134], [135.1440257, 34.764488], [135.1442803, 34.7644981], [135.1444686, 34.764488], [135.1448854, 34.7644074], [135.1451682, 34.7643606], [135.1454186, 34.7643465], [135.1456314, 34.7643737], [135.1456731, 34.764379], [135.1457863, 34.7644169], [135.1459766, 34.7645007], [135.1464259, 34.764699], [135.1466697, 34.7647836], [135.1471777, 34.764926], [135.1474317, 34.7649637], [135.1476346, 34.7649604], [135.1478794, 34.7649244], [135.1478979, 34.7649176], [135.1481548, 34.764823], [135.1486046, 34.7645411], [135.1490414, 34.7642504], [135.1494902, 34.7640301], [135.1497946, 34.7639773], [135.1499867, 34.7639326], [135.150149, 34.7638097], [135.1505133, 34.7634119], [135.1506366, 34.7633071], [135.1507902, 34.7632452], [135.1511465, 34.7631979], [135.1515153, 34.7632039], [135.1518251, 34.7631841], [135.1520249, 34.7631091], [135.1522543, 34.7629725], [135.152753, 34.7627767], [135.1534384, 34.7625781], [135.1536508, 34.762472], [135.1538729, 34.7622902], [135.1545329, 34.7619406], [135.1546767, 34.7618768], [135.1547837, 34.7618298], [135.1548759, 34.761792], [135.1549172, 34.7617715], [135.1550207, 34.7617278], [135.1550628, 34.7616966], [135.1551359, 34.7616445], [135.1552157, 34.7615086], [135.1554119, 34.7612959], [135.1556081, 34.7610259], [135.1563437, 34.7599712], [135.1564545, 34.7599413], [135.155855, 34.7595174], [135.1554314, 34.7592114], [135.1553413, 34.759142], [135.1551643, 34.7590057], [135.1550892, 34.758944], [135.1549979, 34.7588539], [135.1549224, 34.7587475], [135.1548194, 34.7585281], [135.1546414, 34.7580588], [135.1544217, 34.7575135], [135.1543188, 34.7573238], [135.1540489, 34.7569268], [135.1536565, 34.7563498], [135.1535663, 34.7564034], [135.154227, 34.7573604], [135.1543299, 34.7575455], [135.1545422, 34.7580871], [135.1547276, 34.7585601], [135.1548278, 34.7587841], [135.1549083, 34.7588924], [135.1550086, 34.7589943], [135.155156, 34.7591063], [135.1554314, 34.7593142], [135.1563437, 34.7599712]], [[135.1536565, 34.7563498], [135.1538517, 34.7562399], [135.1539319, 34.7561852], [135.1540125, 34.7561267], [135.1540904, 34.7560549], [135.1541582, 34.7559845], [135.1541998, 34.7559403], [135.1542791, 34.7558252], [135.1543025, 34.7557837], [135.1543136, 34.7557562], [135.1553024, 34.7529054], [135.1554118, 34.7525599], [135.1554684, 34.7523911], [135.1555327, 34.7521849], [135.1555764, 34.7520439], [135.1556297, 34.7518723], [135.1556461, 34.7516759], [135.1555985, 34.7514287], [135.1555307, 34.7512948], [135.1554043, 34.7510937], [135.1553141, 34.7509856], [135.1551746, 34.7508185], [135.1551133, 34.7507041], [135.1550805, 34.7505648], [135.1550637, 34.7503595], [135.1550851, 34.7501894], [135.1551606, 34.7499949], [135.1552367, 34.74984], [135.1553117, 34.7497167], [135.1555, 34.7494566], [135.1557426, 34.7491531], [135.1559466, 34.7489533], [135.1561999, 34.748711], [135.1565584, 34.7484097], [135.1566043, 34.7483681], [135.1568681, 34.7481424], [135.1572241, 34.7478398], [135.1577381, 34.7474515], [135.1579091, 34.7473222], [135.1582635, 34.7470164], [135.1585827, 34.746708], [135.1587888, 34.7465328], [135.159003, 34.7463694], [135.1595181, 34.746004], [135.159614, 34.7459051], [135.159715, 34.7457399], [135.1597775, 34.7455836], [135.159779, 34.7454082], [135.1597429, 34.7452091], [135.1594415, 34.7443985], [135.1592272, 34.7439621], [135.1591405, 34.7437375], [135.1591139, 34.7435556], [135.1590017, 34.7426663], [135.1589854, 34.7422305], [135.1590361, 34.741885], [135.1591921, 34.7408376], [135.1592034, 34.7407107], [135.1592452, 34.7401764], [135.1592339, 34.7400535], [135.1592099, 34.7399341], [135.1591271, 34.7396022], [135.1590267, 34.7392769], [135.1589728, 34.7390998], [135.1586574, 34.7384444], [135.1585981, 34.7382993], [135.158556, 34.7381674], [135.1584859, 34.7378287], [135.1584636, 34.7376704], [135.1584581, 34.7374932], [135.1584897, 34.7372291], [135.1585231, 34.7369603], [135.158571, 34.7365513], [135.1585974, 34.736326], [135.1586117, 34.736084], [135.1585994, 34.7355779], [135.158599, 34.7355627], [135.1586127, 34.7353407], [135.158647, 34.735198], [135.158853, 34.7346511], [135.1589847, 34.7342794], [135.1590247, 34.7341515], [135.1590472, 34.7340347], [135.1590748, 34.7336136], [135.1591003, 34.7332964], [135.159245, 34.7323454], [135.1592611, 34.7320258], [135.1592593, 34.7317943], [135.1592466, 34.7315502], [135.159267, 34.7313062], [135.1593111, 34.731083], [135.1596219, 34.7303159], [135.1598158, 34.7299408], [135.1600692, 34.7293829], [135.1602054, 34.728906], [135.1602691, 34.7286478], [135.1602835, 34.728395], [135.1602741, 34.7282941], [135.1602287, 34.7281124], [135.1602232, 34.7280907], [135.1602139, 34.7280534], [135.1601415, 34.7278524], [135.1599709, 34.727476], [135.1599479, 34.7274252], [135.1596648, 34.7268006], [135.1593886, 34.7263976], [135.1590172, 34.7259137], [135.1588527, 34.7256509], [135.1588053, 34.7255584], [135.1587578, 34.7254591], [135.1587303, 34.725296], [135.1587379, 34.7251528], [135.1587429, 34.7250583], [135.1587827, 34.7246776], [135.1587727, 34.7243942], [135.1587656, 34.7239848], [135.1587974, 34.7237072], [135.1588133, 34.7235817], [135.1588816, 34.7232617], [135.1589691, 34.7229995], [135.1591059, 34.7226715], [135.1593962, 34.7219485], [135.159481, 34.72174], [135.1596401, 34.7213694], [135.1596768, 34.721284], [135.1597352, 34.7211415], [135.1597935, 34.7209989], [135.1598267, 34.7209147], [135.160152, 34.720089], [135.160305, 34.719544], [135.160421, 34.718968], [135.160481, 34.718477], [135.160496, 34.71809], [135.1603507, 34.716659], [135.1603033, 34.716484], [135.1602679, 34.7163415], [135.1601851, 34.7161881], [135.1601154, 34.7160898], [135.1599827, 34.7159904], [135.1598033, 34.7158577], [135.1597019, 34.715684], [135.1594413, 34.7151609], [135.1594019, 34.7149816], [135.1594088, 34.7148724], [135.1594443, 34.7147762], [135.159494, 34.7146611], [135.1595232, 34.7145058], [135.1595489, 34.7143958], [135.1595588, 34.7142154], [135.1595776, 34.7139844], [135.1596028, 34.7137274], [135.1596003, 34.7136108], [135.1595984, 34.7135231], [135.1595905, 34.7133384], [135.1595995, 34.7132146], [135.1596303, 34.7131306], [135.1596704, 34.7130412], [135.159688, 34.7130198], [135.1597364, 34.7129611], [135.1598165, 34.7128368], [135.1598557, 34.7127331], [135.1598552, 34.7126507], [135.1598357, 34.7125996], [135.1597963, 34.7125191], [135.1597391, 34.71243], [135.1596892, 34.7123355], [135.159653, 34.7122469], [135.1596478, 34.7121384], [135.1596649, 34.712032], [135.1596728, 34.7119391], [135.159682, 34.7118359], [135.1596846, 34.7117252], [135.1596747, 34.7116123], [135.1596274, 34.7113066], [135.159588, 34.7110468], [135.1595512, 34.7108119], [135.1595164, 34.7106968], [135.1594513, 34.7105721], [135.1593508, 34.7104646], [135.1593074, 34.7104095], [135.1592956, 34.7103631], [135.1592759, 34.7102847], [135.1592897, 34.7101913], [135.1593357, 34.7101076], [135.1594316, 34.7100033], [135.1597411, 34.7096588], [135.1598567, 34.7095291], [135.159945, 34.709426], [135.1600334, 34.7093526], [135.160135, 34.7092926], [135.160255, 34.7092526], [135.1603816, 34.7092293], [135.1604835, 34.7092239], [135.1605985, 34.7092106], [135.1607068, 34.7091889], [135.1608355, 34.7091565], [135.1609321, 34.7090965], [135.1610025, 34.7090204], [135.1610335, 34.7089456], [135.1610469, 34.7088764], [135.1610305, 34.7087926], [135.1609951, 34.7087296], [135.1608594, 34.7084881], [135.1606327, 34.7080725], [135.1603922, 34.7076947], [135.1603411, 34.7075824], [135.1603105, 34.7074548], [135.1603105, 34.707406], [135.1603058, 34.7073693], [135.160316, 34.7072692], [135.1603365, 34.7071806], [135.1603681, 34.7071058], [135.1604155, 34.7070225], [135.1605009, 34.7069347], [135.1605987, 34.7068593], [135.1607462, 34.7067742], [135.1608805, 34.7066974], [135.1610129, 34.7066108], [135.1612384, 34.7064627], [135.1613005, 34.7064355], [135.1613889, 34.7063767], [135.1614626, 34.7062997], [135.1615287, 34.7062094], [135.1615668, 34.7061448], [135.1615912, 34.7060911], [135.1616091, 34.7060264], [135.161624, 34.7059699], [135.1616351, 34.705863], [135.1616425, 34.7057698], [135.1616611, 34.7056689], [135.1616853, 34.705533], [135.1617262, 34.7054367], [135.1617708, 34.7053237], [135.1618362, 34.7052244], [135.1619211, 34.7051404], [135.1620209, 34.7050681], [135.1621773, 34.7049862], [135.1624227, 34.7048663], [135.1628788, 34.7046067], [135.162982, 34.7045279], [135.1630617, 34.7044441], [135.1631162, 34.7043573], [135.1631493, 34.7042631], [135.1631433, 34.70417], [135.1631433, 34.704055], [135.1631014, 34.7039281], [135.1630413, 34.7038236], [135.1629984, 34.7037286], [135.1629379, 34.7036129], [135.1629028, 34.7035125], [135.1628877, 34.7034205], [135.1628876, 34.7033277], [135.1628946, 34.7032332], [135.162916, 34.7031582], [135.163035, 34.7029003], [135.1631232, 34.7027516], [135.1632697, 34.7025043], [135.1632874, 34.7024698], [135.1633758, 34.7023334], [135.163456, 34.7022463], [135.1635627, 34.7021656], [135.1636976, 34.7021107], [135.1638252, 34.7020816], [135.1639639, 34.7020534], [135.1641611, 34.7020023], [135.1643539, 34.7019349], [135.1644589, 34.7018877], [135.164541, 34.701823], [135.1646039, 34.7017634], [135.1646625, 34.7016529], [135.1646791, 34.7015248], [135.1647103, 34.7011097], [135.1647227, 34.7009813], [135.1647407, 34.7008071], [135.1647483, 34.7007417], [135.1647574, 34.7006916], [135.1647683, 34.7006284], [135.164795, 34.7005183], [135.16483, 34.70041], [135.1648767, 34.7003005], [135.1651478, 34.6997201], [135.1651812, 34.6996191], [135.1652013, 34.6995357], [135.1652079, 34.6994649], [135.1651999, 34.6994018], [135.1651703, 34.6993153], [135.1651172, 34.6992246], [135.1650359, 34.6991305], [135.1648363, 34.6989411], [135.1646489, 34.6987826], [135.1645844, 34.698728], [135.1644932, 34.6986386], [135.1644, 34.6985092], [135.1642213, 34.6981106], [135.164084, 34.6977903], [135.1640521, 34.6976078], [135.1640981, 34.6974255], [135.1641883, 34.6972983], [135.1642534, 34.6972034], [135.1648139, 34.6965194], [135.1651041, 34.6961584], [135.1651979, 34.6960496], [135.1653132, 34.6959636], [135.1654364, 34.6959088], [135.1659179, 34.6958132], [135.1660273, 34.6957811], [135.1661386, 34.6957377], [135.1662519, 34.6956751], [135.166315, 34.6955867], [135.1663593, 34.6955049], [135.1663769, 34.695423], [135.1663867, 34.695333], [135.1663691, 34.6952463], [135.1662866, 34.6950855], [135.1661538, 34.6949435], [135.1658905, 34.6947081], [135.1657873, 34.6945574], [135.1657365, 34.6944417], [135.1657063, 34.6943401], [135.1657176, 34.694213], [135.1657646, 34.6940501], [135.1658283, 34.6939483], [135.1659266, 34.6937817], [135.166315, 34.6932733], [135.1664717, 34.69308], [135.166519, 34.6930354], [135.166641, 34.6929507], [135.1667487, 34.69286], [135.1669653, 34.6925685], [135.1670859, 34.6923342], [135.1672234, 34.6916948], [135.1672404, 34.6915977], [135.167274, 34.6914065], [135.16745, 34.6905822], [135.1674664, 34.6904464]], [[135.1564545, 34.7599413], [135.1564418, 34.7600287], [135.1557569, 34.7610345], [135.155696, 34.7611271], [135.1554668, 34.7614174], [135.1553349, 34.7615504], [135.1551359, 34.7616445]], [[135.1742265, 34.6790766], [135.1740796, 34.6792118], [135.1739135, 34.6793764], [135.173707, 34.6795614], [135.1735705, 34.6796837], [135.173083, 34.6801522], [135.1723047, 34.6809269], [135.1717254, 34.6815579], [135.1714338, 34.6818789], [135.1713438, 34.6819779], [135.1712505, 34.6820737], [135.1711203, 34.6822299], [135.1709907, 34.6823702], [135.170797, 34.6826199], [135.1706166, 34.6829141], [135.1703619, 34.6836405], [135.1702746, 34.683942], [135.1701938, 34.6840676], [135.170126, 34.6841636], [135.1700503, 34.6842882], [135.1699725, 34.6844161], [135.1698861, 34.6845988], [135.1697752, 34.6849341], [135.1697, 34.6851514], [135.1696093, 34.6854583], [135.1695514, 34.6856395], [135.1694521, 34.6859749], [135.1694235, 34.6860612], [135.1693939, 34.6861539], [135.1693816, 34.6861923], [135.1693227, 34.6863745], [135.1692352, 34.6866284], [135.1691042, 34.6870084], [135.1690225, 34.6871542], [135.1688606, 34.687381], [135.1687825, 34.6874883], [135.1687372, 34.6875544], [135.1685076, 34.6878892], [135.1684178, 34.6880223], [135.1682253, 34.6883033], [135.1680857, 34.6885064], [135.1677044, 34.6890731], [135.1676777, 34.6891166], [135.1676444, 34.6892185], [135.1676124, 34.6893214], [135.1674329, 34.6902128], [135.1674664, 34.6904464], [135.1675245, 34.6902237], [135.1675818, 34.6899553], [135.1676536, 34.6896027], [135.1676755, 34.6894951], [135.1677082, 34.6893349], [135.1677338, 34.6892425], [135.1677886, 34.6891351], [135.1678948, 34.6890129], [135.1681953, 34.688571], [135.1684787, 34.6881466], [135.1685311, 34.6880696], [135.16862, 34.6879363], [135.1688904, 34.6875389], [135.1689578, 34.6874357], [135.1692087, 34.6870736], [135.1692702, 34.6869733], [135.1693523, 34.6867359], [135.1695075, 34.6862159], [135.1695462, 34.6860844], [135.1695721, 34.685997], [135.1697351, 34.6854845], [135.1699854, 34.6846219], [135.1700706, 34.6844477], [135.1701558, 34.6843017], [135.1702137, 34.6841953], [135.1703592, 34.6839603], [135.1704329, 34.6837877], [135.1704933, 34.6835605], [135.1707125, 34.6829549], [135.1707741, 34.6828398], [135.1708904, 34.6826583], [135.1710306, 34.6824757], [135.1711907, 34.6822671], [135.1713235, 34.6821181], [135.1714141, 34.6820192], [135.1715106, 34.6819225], [135.1718191, 34.681589], [135.1720647, 34.6813296], [135.1723815, 34.6809785], [135.1731657, 34.6802029], [135.1736449, 34.6797515], [135.1739898, 34.6794279], [135.1741758, 34.6792672], [135.1743324, 34.6791373]], [[135.1151298, 34.8869175], [135.1147528, 34.8868781], [135.1147293, 34.8868783], [135.1141418, 34.886884], [135.1136889, 34.8868045], [135.1134034, 34.886714], [135.1131892, 34.8865677], [135.1130591, 34.8864578], [135.1129557, 34.8863222], [135.1129035, 34.8861958], [135.1128804, 34.8860484], [135.1128809, 34.8857328], [135.1129334, 34.8854136], [135.1129721, 34.8851783], [135.1129575, 34.8850744], [135.1128777, 34.883963], [135.1128368, 34.8834714], [135.112834, 34.8831782], [135.112853, 34.883023], [135.1129781, 34.8826993], [135.1131548, 34.8824322], [135.1134082, 34.8822275], [135.113579, 34.8821064], [135.1137813, 34.8819995], [135.1144292, 34.881684], [135.1146268, 34.881567], [135.1148069, 34.8814461], [135.1149895, 34.8813089], [135.1150742, 34.881237], [135.115513, 34.8808544], [135.1158008, 34.8805942], [135.1160728, 34.880329], [135.1166048, 34.8797937], [135.1168617, 34.8795219], [135.1170865, 34.8792385], [135.1172459, 34.8789582], [135.1174405, 34.878401], [135.1175885, 34.8781128], [135.1177064, 34.8779168], [135.1178467, 34.8777499], [135.1179483, 34.8776466], [135.1180885, 34.8775029]], [[135.1129575, 34.8850744], [135.1129041, 34.8851712], [135.1128655, 34.8854042], [135.1128108, 34.8857339], [135.1128055, 34.8860665], [135.1128473, 34.8862271], [135.1129177, 34.8863552], [135.1130299, 34.8864916], [135.1131518, 34.8865997], [135.1133915, 34.8867497], [135.1140836, 34.8869785], [135.1145424, 34.8872282], [135.114621, 34.8872448], [135.1150185, 34.8873288]]]}, "id": "relation/10012952"}]}