{"type": "FeatureCollection", "generator": "kokudo-quiz tools/fetch_raw.py (Overpass API)", "copyright": "The data included in this document is from www.openstreetmap.org. The data is made available under ODbL.", "timestamp": "2026-09-30T23:39:45Z", "features": [{"type": "Feature", "properties": {"@id": "relation/572119", "colour": "red", "from": "兵庫県姫路市", "name": "国道436号", "name:en": "National Highway Route 436", "name:ja": "国道436号", "name:ja-Hira": "こくどうよんひゃくさんじゅうろくごう", "name:ja-Latn": "Kokudo 436 Gou", "network": "JP:national", "ref": "436", "route": "road", "to": "香川県高松市", "type": "route", "wikidata": "Q6157539", "wikipedia": "ja:国道436号"}, "geometry": {"type": "MultiLineString", "coordinates": [[[134.0546781, 34.3514327], [134.0544627, 34.3513876], [134.0540393, 34.3512968], [134.0538077, 34.3512389], [134.053738, 34.3512306], [134.0536582, 34.35123], [134.05304, 34.3513078], [134.0523331, 34.3514096], [134.0505651, 34.3516643], [134.050405, 34.3516905], [134.0501606, 34.3517318], [134.0497403, 34.3518041], [134.0494153, 34.3518465], [134.0493597, 34.3518615], [134.0491839, 34.3519106], [134.049156, 34.3516957], [134.0491237, 34.3513912], [134.049119, 34.3513529], [134.0490993, 34.3511752], [134.0490857, 34.3510291], [134.0490631, 34.350776], [134.0490447, 34.350569], [134.0490365, 34.3504766], [134.0490245, 34.3503419], [134.0490148, 34.3502339], [134.0489864, 34.3499147], [134.048983, 34.349877], [134.0489676, 34.3496385], [134.048952, 34.3494247], [134.0488889, 34.348796], [134.0488841, 34.3487491], [134.0488811, 34.348719], [134.0488641, 34.3486006], [134.0488513, 34.3485142], [134.0488264, 34.3483335], [134.0488078, 34.3482019], [134.0487815, 34.3480167], [134.0487357, 34.3476935], [134.0487148, 34.3475459], [134.0486854, 34.3473388], [134.0486797, 34.347298], [134.0486574, 34.3471462], [134.0486368, 34.346998], [134.0486019, 34.346746], [134.0485841, 34.3466171], [134.0485477, 34.346354], [134.0484831, 34.3458766], [134.0484568, 34.3456973], [134.0483819, 34.3451295], [134.0483234, 34.3447186], [134.0483169, 34.3446735], [134.048298, 34.3445409], [134.0482835, 34.3444241], [134.0482515, 34.3441927], [134.0482231, 34.3439373], [134.0482145, 34.3438677], [134.0482054, 34.3437954], [134.0481387, 34.3432644], [134.0481137, 34.3430886], [134.0480851, 34.3428876], [134.0480521, 34.342687], [134.0479889, 34.3421915], [134.0479756, 34.3420837], [134.0479676, 34.3420163], [134.0478601, 34.3413652], [134.0477771, 34.3408583], [134.0476984, 34.3404165], [134.0476721, 34.3402693], [134.0476644, 34.3402264], [134.0476409, 34.340089], [134.0476161, 34.3399496], [134.0475544, 34.3396213], [134.0474711, 34.3391346], [134.0474621, 34.339082], [134.047454, 34.3390347], [134.0473587, 34.3384891], [134.047238, 34.3378328], [134.0471739, 34.3374341], [134.0471532, 34.3373115], [134.0471394, 34.3372277]], [[134.0540393, 34.3512968], [134.0538746, 34.3512938], [134.0537554, 34.3512961], [134.0536302, 34.3513073], [134.0533945, 34.3513391], [134.0532855, 34.351356], [134.0531718, 34.3513847], [134.0529455, 34.3514161], [134.0523483, 34.351499], [134.0506148, 34.3517395], [134.05042, 34.3517678], [134.0501845, 34.3518132], [134.0499756, 34.3518535], [134.0497671, 34.3518937], [134.0497157, 34.3519036], [134.0493813, 34.3519544], [134.0492728, 34.3519662], [134.0491892, 34.351968], [134.0491539, 34.3519661], [134.0491273, 34.3519506], [134.049106, 34.3519284], [134.0490128, 34.3517621], [134.0489931, 34.3515741], [134.0489744, 34.3513575], [134.0489589, 34.3512331], [134.0489523, 34.3511528], [134.0489421, 34.3510378], [134.0489376, 34.3509868], [134.0489332, 34.3509367], [134.0489057, 34.3506261], [134.0488482, 34.3499766], [134.0488397, 34.3498854], [134.0488296, 34.3497816], [134.0488257, 34.3497379], [134.0488181, 34.3496504], [134.0488141, 34.3496072], [134.048798, 34.3494334], [134.0487617, 34.3490691], [134.0487331, 34.3487297], [134.0487177, 34.3486036], [134.048707, 34.3485016], [134.0486868, 34.3483441], [134.0486828, 34.3483172], [134.0486762, 34.3482717], [134.0486517, 34.3481039], [134.0485948, 34.3477134], [134.0485367, 34.3473121], [134.0485129, 34.3471492], [134.0484937, 34.3470103], [134.0484879, 34.3469687], [134.0484056, 34.3463754], [134.04835, 34.3459774], [134.0483133, 34.3457145], [134.0482365, 34.3451532], [134.0481775, 34.3446868], [134.0481612, 34.3445583], [134.0481446, 34.3444389], [134.0481394, 34.3444013], [134.048108, 34.3441844], [134.0480676, 34.3438869], [134.0480576, 34.343808], [134.0480528, 34.3437704], [134.0480149, 34.3434712], [134.0479735, 34.3431444], [134.0479468, 34.3429339], [134.0478431, 34.3421047], [134.0478337, 34.3420393], [134.0478137, 34.3419247], [134.0477205, 34.3414331], [134.0475596, 34.3404813], [134.0475194, 34.3402463], [134.0474966, 34.3401127], [134.0474709, 34.3399648], [134.0474633, 34.3399216], [134.0474214, 34.3396804], [134.0473223, 34.3391001], [134.0473142, 34.3390525], [134.0472891, 34.3389058], [134.0472287, 34.3385529], [134.0471274, 34.3379579], [134.0470185, 34.3373324]], [[134.0491892, 34.351968], [134.0491839, 34.3519106]], [[134.6626156, 34.7863369], [134.6627525, 34.7867029], [134.6628684, 34.7869307], [134.6633578, 34.788092], [134.6635462, 34.788539], [134.6635638, 34.7885809], [134.6636741, 34.7892065], [134.6638374, 34.7900866], [134.6638533, 34.7901721], [134.6638751, 34.7906781], [134.6641389, 34.7908533], [134.6644075, 34.7914539], [134.6645056, 34.7916731], [134.6645333, 34.7919026]], [[134.6627739, 34.7839734], [134.6618985, 34.7827289], [134.6553301, 34.7717881], [134.6507175, 34.7621994], [134.6501822, 34.7581641], [134.6471991, 34.7547567], [134.6435723, 34.7529713], [134.4809323, 34.7009575], [134.4505145, 34.682048], [134.4322499, 34.6595942], [134.3722823, 34.5579605], [134.3604996, 34.5493755], [134.3565733, 34.5468898], [134.351947, 34.5438727], [134.3500362, 34.5433028], [134.3486059, 34.5431685], [134.3450807, 34.542985], [134.344401, 34.542672], [134.3442445, 34.5425872], [134.3441965, 34.5425627], [134.3439959, 34.5425592], [134.343842, 34.5425552], [134.3437075, 34.5425316], [134.3438084, 34.5423087], [134.3438469, 34.5422238], [134.3439616, 34.5419708], [134.3440229, 34.5418355], [134.3440292, 34.5418222], [134.3441806, 34.5415003], [134.3442269, 34.5414018], [134.3444325, 34.5409649], [134.3445423, 34.5407751], [134.3446095, 34.5406841], [134.3447278, 34.5405576], [134.3447789, 34.5405112], [134.3448854, 34.5404259], [134.3450066, 34.5403439], [134.3451407, 34.5402709], [134.3452611, 34.5402167], [134.3452813, 34.5402074], [134.34567, 34.5400804], [134.3457893, 34.5400443], [134.346078, 34.5399452], [134.3463269, 34.5398451], [134.3464309, 34.5397811], [134.3465249, 34.5397081], [134.3466059, 34.5396291], [134.3466719, 34.5395471], [134.3467239, 34.5394581], [134.3467649, 34.5393651], [134.3467919, 34.5392671], [134.3468049, 34.5391681], [134.3468438, 34.5384924], [134.3468568, 34.5383914], [134.3468748, 34.5382934], [134.3469058, 34.5381994], [134.3469762, 34.538071], [134.3470302, 34.537985], [134.3470569, 34.5379518], [134.3470952, 34.537904], [134.3472016, 34.5378152], [134.3472582, 34.537768], [134.3474562, 34.537661], [134.3476902, 34.537589], [134.34809, 34.537518], [134.3481817, 34.5375076], [134.3482609, 34.5375076], [134.3483178, 34.5375184], [134.3484154, 34.5375517], [134.3484728, 34.5375895], [134.3487848, 34.5378539], [134.3488732, 34.5379271], [134.3489824, 34.5379849], [134.3490924, 34.5380351], [134.349209, 34.5380638], [134.3493268, 34.5380716], [134.3494396, 34.5380603], [134.3495507, 34.5380297], [134.3496536, 34.5379801], [134.3497355, 34.5379198], [134.3498033, 34.5378461], [134.3498542, 34.5377587], [134.3498829, 34.5376618], [134.3499368, 34.5373496], [134.3499648, 34.5372705], [134.350006, 34.5372024], [134.3500662, 34.5371476], [134.3501514, 34.5370968], [134.3502482, 34.5370628], [134.3503515, 34.5370475], [134.350442, 34.5370499], [134.3505379, 34.5370686], [134.3506307, 34.5371054], [134.3509566, 34.5372776], [134.3511741, 34.5373646], [134.3513299, 34.5374206], [134.3516979, 34.5375267], [134.3519002, 34.5375827], [134.3520098, 34.5376064], [134.3521111, 34.5376155], [134.3524164, 34.5376338], [134.3524717, 34.5376342], [134.3525379, 34.537646], [134.3527162, 34.5377273], [134.3528019, 34.5377733], [134.3528871, 34.5378022], [134.3529789, 34.537833], [134.353289, 34.5378723], [134.3533669, 34.5378718], [134.3534277, 34.5378565], [134.3534822, 34.5378285], [134.353527, 34.5377888], [134.3535658, 34.5377357], [134.3536458, 34.5375911], [134.3537007, 34.5375104], [134.3537633, 34.5374445], [134.353861, 34.5373823], [134.3539707, 34.5373453], [134.3541074, 34.5373334], [134.3542277, 34.5373516], [134.3543275, 34.5373903], [134.3544246, 34.5374581], [134.3545036, 34.5375535], [134.3545233, 34.5375703], [134.3545522, 34.5375851], [134.3545849, 34.537593], [134.3546081, 34.537594], [134.354631, 34.5375916], [134.3546685, 34.5375792], [134.3546875, 34.5375676], [134.3547035, 34.5375533], [134.3547163, 34.5375362], [134.3547249, 34.5375175], [134.3549084, 34.5370689], [134.3549389, 34.5370224], [134.3549503, 34.5369768], [134.3549527, 34.5369295], [134.3549464, 34.5368778], [134.3549256, 34.5368256], [134.3548917, 34.5367781], [134.3547133, 34.5366305], [134.3546608, 34.5365882], [134.3546264, 34.5365268], [134.3546089, 34.5364524], [134.3545754, 34.5361701], [134.3545588, 34.5359606], [134.3545721, 34.5357055], [134.3545787, 34.5356377], [134.3545987, 34.5355876], [134.3546407, 34.5355351], [134.3547091, 34.5354903], [134.3547861, 34.5354646], [134.3548587, 34.5354623], [134.3552384, 34.5354783], [134.3553445, 34.5354799], [134.3554231, 34.5354712], [134.355524, 34.535446], [134.3559348, 34.5353353], [134.3560187, 34.5353057], [134.3560842, 34.5352716], [134.3561462, 34.5352258], [134.3562041, 34.5351714], [134.3564493, 34.5349444], [134.356511, 34.534856], [134.3565207, 34.5347734], [134.3565149, 34.5346822], [134.3564783, 34.5345818], [134.35648, 34.534503], [134.3565037, 34.5344064], [134.3565219, 34.5343576], [134.3565751, 34.534292], [134.3566333, 34.5341857], [134.3566529, 34.5341097], [134.3566612, 34.5340257], [134.3566088, 34.5336053], [134.3565996, 34.5334775], [134.3566139, 34.5333372], [134.3566974, 34.5330549], [134.3567334, 34.532932], [134.3567567, 34.5328072], [134.3567895, 34.532606], [134.3568395, 34.5321902], [134.3568419, 34.5321092], [134.3568335, 34.5320326], [134.356801, 34.5319597], [134.3567571, 34.5318881], [134.3566964, 34.5318264], [134.3566102, 34.5317708], [134.3558067, 34.5314194], [134.3556605, 34.5313477], [134.3556399, 34.5313339], [134.3556226, 34.5313172], [134.3556094, 34.5312982], [134.3555974, 34.531263], [134.3555967, 34.5312411], [134.3556009, 34.5312194], [134.3556089, 34.5312004], [134.3556208, 34.5311827], [134.3556458, 34.5311593], [134.3556868, 34.5311385], [134.3557388, 34.5311228], [134.3557962, 34.5311115], [134.3558975, 34.5311029], [134.3560921, 34.5310996], [134.3561367, 34.5311022], [134.3561893, 34.5311014], [134.3562365, 34.5310932], [134.3562732, 34.5310801], [134.3564426, 34.5310079], [134.3564797, 34.5309985], [134.3565208, 34.5309924], [134.3565624, 34.5309963], [134.3570126, 34.5311319], [134.3570919, 34.5311518], [134.3571612, 34.5311588], [134.3572337, 34.531156], [134.3574102, 34.5311382], [134.3574753, 34.531145], [134.3575439, 34.5311694], [134.3577703, 34.5313043], [134.357829, 34.5313536], [134.3578793, 34.5313988], [134.3579518, 34.5314541], [134.3579752, 34.5314715], [134.3580028, 34.5314839], [134.3580469, 34.531492], [134.3580899, 34.5314881], [134.3581203, 34.5314778], [134.3581467, 34.5314618], [134.358168, 34.5314407], [134.3581825, 34.531416], [134.3581885, 34.5313941], [134.3581892, 34.5313715], [134.358185, 34.5313513], [134.3581763, 34.5313321], [134.3581619, 34.5313126], [134.3581459, 34.5312981], [134.3581276, 34.5312863], [134.3580937, 34.5312733], [134.3579441, 34.5312446], [134.3578891, 34.5312335], [134.3578426, 34.5312193], [134.3578077, 34.5311995], [134.357762, 34.5311622], [134.3575611, 34.5309973], [134.3574888, 34.5309637], [134.3574234, 34.5309366], [134.3573699, 34.5309244], [134.3571651, 34.5309188], [134.357073, 34.5309033], [134.3570006, 34.5308749], [134.3569428, 34.5308384], [134.3568816, 34.5307822], [134.3568423, 34.5307307], [134.356806, 34.5306799], [134.3567668, 34.5305916], [134.3567485, 34.5305122], [134.3567525, 34.5304736], [134.3567644, 34.5304283], [134.3569209, 34.5302429], [134.3569588, 34.5301691], [134.3569766, 34.5301138], [134.3569904, 34.5300219], [134.3569921, 34.5299246], [134.3570033, 34.5296609], [134.3570126, 34.5295564], [134.357022, 34.5294299], [134.3570201, 34.5293376], [134.3570142, 34.5292446], [134.3568971, 34.5286297], [134.3567763, 34.5279952], [134.3567375, 34.5278135], [134.3566906, 34.5276628], [134.3566283, 34.5275192], [134.3563661, 34.526998], [134.3563204, 34.5268768], [134.356308, 34.526761], [134.3563043, 34.526651], [134.3563549, 34.526184], [134.3563563, 34.5261029], [134.3563412, 34.5260027], [134.3563092, 34.525913], [134.3562542, 34.525828], [134.356192, 34.5257499], [134.3561066, 34.5256719], [134.3557796, 34.5254439], [134.3556864, 34.5253652], [134.3556273, 34.5253021], [134.355563, 34.5252231], [134.355386, 34.5249418], [134.355324, 34.5248573], [134.3552577, 34.5247838], [134.3551714, 34.5247147], [134.3550806, 34.5246623], [134.3549751, 34.52462], [134.3548619, 34.5245836], [134.3546959, 34.5245595], [134.3543738, 34.5245219], [134.3542212, 34.5244892], [134.354167, 34.5244745], [134.3541098, 34.5244538], [134.354058, 34.5244265], [134.3540105, 34.5243967], [134.353963, 34.5243603], [134.353899, 34.5242947], [134.3538344, 34.5242207], [134.3537682, 34.5241299], [134.3537056, 34.5240367], [134.3536421, 34.5239252], [134.3536002, 34.5238333], [134.3535569, 34.5237096], [134.3535423, 34.5236351], [134.353539, 34.5236012], [134.3535348, 34.5235497], [134.3535315, 34.5234612], [134.3535282, 34.5233774], [134.3535232, 34.5232687], [134.3535374, 34.523175], [134.3535727, 34.5230534], [134.3535954, 34.5229834], [134.3536702, 34.5227535], [134.3536847, 34.5227089], [134.353801, 34.5223509], [134.3538227, 34.5222842], [134.3540383, 34.521581], [134.3541075, 34.5213923], [134.3542009, 34.5211901], [134.3542705, 34.5210473], [134.3543575, 34.520918], [134.3545883, 34.5205626], [134.3546263, 34.5204771], [134.3546858, 34.520288], [134.3547322, 34.520088], [134.3549683, 34.5188824], [134.3549815, 34.5186297], [134.3549813, 34.5183483], [134.3549551, 34.5176919], [134.3549503, 34.5176306], [134.354919, 34.5172982], [134.3548874, 34.5169322], [134.3548193, 34.5165404], [134.3545949, 34.5156301], [134.3545771, 34.5155452], [134.3545643, 34.5154712], [134.3545617, 34.5152788], [134.3545764, 34.5150787], [134.354639, 34.514564], [134.3546539, 34.5143979], [134.3546569, 34.5142227], [134.3546352, 34.5140911], [134.3545906, 34.5139626], [134.3545165, 34.5137999], [134.3539052, 34.5126215], [134.3537505, 34.5123373], [134.353629, 34.5120591], [134.3535817, 34.5119237], [134.3534921, 34.5116476], [134.3534682, 34.5115741], [134.3533548, 34.5112006], [134.3531762, 34.5106316], [134.3531698, 34.5106113], [134.353123, 34.510462], [134.3530824, 34.5103633], [134.3530127, 34.510279], [134.3529285, 34.5102078], [134.352825, 34.5101484], [134.3527192, 34.5101052], [134.3525115, 34.5100599], [134.3524152, 34.5100335], [134.3523454, 34.5099948], [134.3522978, 34.5099506], [134.3522698, 34.5099018], [134.35226, 34.5098375], [134.3522619, 34.5097787], [134.3522752, 34.5097146], [134.3524863, 34.509289], [134.3525035, 34.5092204], [134.352505, 34.509157], [134.3525014, 34.5091189], [134.3524874, 34.5090776], [134.3524627, 34.5090131], [134.3524256, 34.5089547], [134.3523682, 34.5089016], [134.3518214, 34.5085279], [134.351748, 34.5084668], [134.351318, 34.507983], [134.3512278, 34.5078849], [134.3511767, 34.507844], [134.3511162, 34.507802], [134.350686, 34.5076673], [134.3505816, 34.5076389], [134.3504847, 34.5076033], [134.3503999, 34.5075601], [134.3503219, 34.5075025], [134.350269, 34.5074432], [134.350171, 34.5073298], [134.3499177, 34.5070303], [134.349778, 34.506908], [134.3497143, 34.5068514], [134.34967, 34.506812], [134.349348, 34.506551], [134.349261, 34.506458], [134.3492239, 34.5064027], [134.3491961, 34.5063619], [134.3491359, 34.5062595], [134.349095, 34.5061771], [134.3490701, 34.5061001], [134.3490477, 34.5060283], [134.34903, 34.5059324], [134.3490228, 34.5057339], [134.3490128, 34.5055786], [134.348995, 34.5055167], [134.3489637, 34.5054374], [134.3489017, 34.5053543], [134.3488387, 34.5052904], [134.348752, 34.5052116], [134.3486577, 34.5050886], [134.348559, 34.5049306], [134.3482222, 34.5043083], [134.3481212, 34.5041181], [134.3481159, 34.5041082], [134.3481003, 34.5040787], [134.3480379, 34.5039367], [134.3479844, 34.5037877], [134.3479139, 34.5035442], [134.3478255, 34.5032436], [134.347735, 34.5030421], [134.3477151, 34.5030029], [134.3476892, 34.5029516], [134.3476742, 34.5029221], [134.3476191, 34.5028132], [134.3475205, 34.5026186], [134.3474435, 34.5024292], [134.3474075, 34.5023176], [134.3473764, 34.5021802], [134.3473568, 34.5020995], [134.347247, 34.5016114], [134.3471521, 34.5011873], [134.3471304, 34.5010504], [134.3471212, 34.5009565], [134.3471201, 34.5009229], [134.3471192, 34.5008939], [134.3471202, 34.5007193], [134.3471341, 34.5005461], [134.347159, 34.5003944], [134.3472019, 34.5002502], [134.3472888, 34.5000718], [134.3474196, 34.499851], [134.3475262, 34.4996987], [134.3476127, 34.4995991], [134.3477127, 34.4995116], [134.3478163, 34.4994331], [134.3479293, 34.4993646], [134.3480373, 34.4993126], [134.3481371, 34.4992738], [134.3481508, 34.4992685], [134.348204, 34.4992478], [134.3482164, 34.499243], [134.3484545, 34.4991504], [134.3486504, 34.4990789], [134.3488031, 34.4990409], [134.3493251, 34.4989348], [134.3493952, 34.4989158], [134.349464, 34.4988901], [134.3495274, 34.4988586], [134.3495902, 34.4988157], [134.349664, 34.4987438], [134.3500546, 34.4983337], [134.3501813, 34.4982002], [134.350263, 34.4980379], [134.3502872, 34.4979312], [134.3503018, 34.4978228], [134.3502776, 34.4975811], [134.3501753, 34.4970804], [134.3501586, 34.4970121], [134.3500551, 34.4966812], [134.3500368, 34.4965795], [134.3500287, 34.4964661], [134.3500517, 34.4961871], [134.3500608, 34.4961431], [134.3500802, 34.496107], [134.3501079, 34.4960759], [134.3501624, 34.4960315], [134.3503611, 34.4959223], [134.3504769, 34.4958481], [134.3505207, 34.4957992], [134.3505524, 34.4957492], [134.3505597, 34.495693], [134.3505598, 34.4956431], [134.3505396, 34.495587], [134.3504977, 34.4955275], [134.3504014, 34.4954328], [134.3503778, 34.4953932], [134.3502901, 34.495208], [134.3502625, 34.4951352], [134.3502646, 34.495055], [134.3503344, 34.4948693], [134.3503314, 34.4948209], [134.3503074, 34.4947618], [134.3502719, 34.4947275], [134.3502139, 34.4946819], [134.3500555, 34.4946001], [134.3499995, 34.4945562], [134.3499723, 34.4945042], [134.3499524, 34.4944012], [134.349927, 34.4943016], [134.3498909, 34.4942087], [134.3497755, 34.4940182], [134.3497472, 34.4939687], [134.3497351, 34.4939235], [134.3497444, 34.4938728], [134.3497729, 34.493818], [134.349824, 34.4937466], [134.3499057, 34.4936557], [134.3500396, 34.4935196], [134.3500865, 34.4934785], [134.3501521, 34.4934212], [134.3502901, 34.4933003], [134.3503454, 34.4932248], [134.3503713, 34.4931378], [134.3503731, 34.4930731], [134.3503582, 34.4929868], [134.3503339, 34.4928932], [134.3503043, 34.4928127], [134.3502955, 34.4927873], [134.3502729, 34.4927218], [134.3502005, 34.4926113], [134.3500892, 34.4924839], [134.3499131, 34.4923282], [134.3497554, 34.4922041], [134.3496806, 34.4921527], [134.3495706, 34.492077], [134.3493644, 34.4919469], [134.3492824, 34.4918886], [134.349247, 34.491862], [134.3492008, 34.4918272], [134.349136, 34.4917693], [134.3489989, 34.4916251], [134.3489123, 34.4915535], [134.3488138, 34.491486], [134.3487214, 34.491428], [134.348562, 34.491381], [134.3484184, 34.4913422], [134.3479884, 34.4912877], [134.3478519, 34.4912553], [134.3477171, 34.4912098], [134.3474559, 34.491071], [134.3473687, 34.4910261], [134.3472896, 34.4910032], [134.3471911, 34.4909929], [134.3471055, 34.4910016], [134.346954, 34.4910236], [134.3467952, 34.4910689], [134.3466884, 34.4911186], [134.3465856, 34.491183], [134.3465275, 34.4912512], [134.3464615, 34.4913668], [134.3463663, 34.4915651], [134.3463021, 34.4916376], [134.3462412, 34.491684], [134.3461789, 34.4917161], [134.3461067, 34.4917369], [134.3460144, 34.4917429], [134.3459209, 34.4917382], [134.3458126, 34.4917247], [134.3456528, 34.4916957], [134.3452208, 34.4915999], [134.3450606, 34.4915563], [134.344903, 34.491505], [134.3447267, 34.4914345], [134.3445927, 34.4914116], [134.3444936, 34.4914103], [134.3443985, 34.4914292], [134.344213, 34.4914902], [134.3441321, 34.4915102], [134.3440418, 34.4915215], [134.3439704, 34.491524], [134.3438895, 34.4915225], [134.3438322, 34.491519], [134.343774, 34.4915053], [134.3435845, 34.4914291], [134.3433619, 34.491331], [134.3432567, 34.4912937], [134.3430948, 34.4912413], [134.3429884, 34.4912258], [134.3429122, 34.491218], [134.3428664, 34.4912144], [134.3428206, 34.4912108], [134.3425975, 34.4911833], [134.3424747, 34.4911589], [134.3423639, 34.4911293], [134.3422695, 34.4910936], [134.3421455, 34.4910368], [134.3421096, 34.4910204], [134.3420483, 34.4909924], [134.3420359, 34.4909868], [134.3420057, 34.490973], [134.3416017, 34.4907612], [134.3414746, 34.4906839], [134.3414391, 34.4906538], [134.3414141, 34.4906197], [134.3414046, 34.4905929], [134.3413977, 34.4905358], [134.3414038, 34.4904719], [134.341427, 34.4903967], [134.3415555, 34.4901225], [134.3415775, 34.4900803], [134.3415959, 34.4900397], [134.3416321, 34.4899527], [134.3416522, 34.4898635], [134.3416489, 34.4897556], [134.3416506, 34.4896598], [134.3416563, 34.4895773], [134.3416677, 34.4894942], [134.3417034, 34.4893151], [134.3417334, 34.4891556], [134.3417486, 34.4890725], [134.3417692, 34.4890157], [134.34185, 34.4888677], [134.3419258, 34.4887671], [134.3419723, 34.4886957], [134.342001, 34.4886264], [134.3420093, 34.4885486], [134.3419992, 34.4884754], [134.3419855, 34.4883816], [134.3419723, 34.4882886], [134.3419784, 34.4882158], [134.3419933, 34.4881582], [134.3420221, 34.4880847], [134.3421917, 34.4876563], [134.3422077, 34.4875894], [134.3422139, 34.4875108], [134.3422053, 34.4874443], [134.3421729, 34.4873644], [134.3421291, 34.487289], [134.3420683, 34.4872025], [134.3420243, 34.4871312], [134.342001, 34.487067], [134.3419938, 34.4870072], [134.3420015, 34.486952], [134.3420242, 34.4869006], [134.3420759, 34.4868329], [134.3421292, 34.4867931], [134.3422038, 34.4867544], [134.3425968, 34.486645], [134.3426516, 34.486615], [134.3427101, 34.4865732], [134.3427499, 34.4865215], [134.3427725, 34.4864734], [134.3427739, 34.4864115], [134.3427597, 34.4863556], [134.3427335, 34.4863098], [134.3426936, 34.4862648], [134.3426492, 34.4862329], [134.342583, 34.4862039], [134.342525, 34.4861894], [134.3420439, 34.4861203], [134.3419793, 34.486107], [134.3418854, 34.4860838], [134.3417942, 34.4860516], [134.3416936, 34.4860104], [134.3415876, 34.4859531], [134.3415255, 34.485915], [134.3414702, 34.4858744], [134.3414055, 34.4858214], [134.3413422, 34.4857595], [134.3412744, 34.4856835], [134.3412011, 34.4855757], [134.3410998, 34.4854104], [134.3407206, 34.4847412], [134.3401986, 34.4838475], [134.3398504, 34.4833129], [134.3394991, 34.4828527], [134.3390945, 34.4824106], [134.3385856, 34.4819596], [134.3380851, 34.4815654], [134.3375801, 34.4812386], [134.3370792, 34.480949], [134.3365219, 34.4806732], [134.3360515, 34.4804776], [134.3355821, 34.4803405], [134.3353992, 34.4802973], [134.3351556, 34.4802397], [134.3347233, 34.4801739], [134.3342165, 34.4801404], [134.3335534, 34.4801287], [134.3329512, 34.4801373], [134.3322298, 34.480181], [134.3318932, 34.4802014], [134.3311829, 34.4802563], [134.3307868, 34.4803021], [134.3307093, 34.4803111], [134.330036, 34.4804026], [134.3290889, 34.4805521], [134.3283305, 34.4807045], [134.3274093, 34.4808906], [134.3267804, 34.4810492], [134.3267611, 34.4810567], [134.3263882, 34.4812016], [134.3261459, 34.4813076], [134.326037, 34.4813376], [134.3259645, 34.4813517], [134.3259028, 34.4813597], [134.3256783, 34.4813844], [134.3247307, 34.4814827], [134.3245414, 34.4815087], [134.3242897, 34.4815858], [134.3234689, 34.4818544], [134.323287, 34.4818968], [134.3231777, 34.4819218], [134.3230738, 34.4819455], [134.3227203, 34.482016], [134.3226016, 34.4820347], [134.3223051, 34.4820731], [134.3221148, 34.4820918], [134.3219209, 34.4821005], [134.3216975, 34.4821071], [134.3210707, 34.4821017], [134.320636, 34.4821005], [134.320248, 34.4820995], [134.3202185, 34.4820998], [134.3201088, 34.4821006]], [[134.6638123, 34.791405], [134.6641235, 34.7915753], [134.6642094, 34.791633], [134.6642899, 34.7916907], [134.6643935, 34.7917711], [134.6644618, 34.7918314], [134.6645333, 34.7919026], [134.6645978, 34.7919753], [134.6646587, 34.792051], [134.6647026, 34.7921062], [134.6647476, 34.7921786], [134.6648527, 34.7923691], [134.6650213, 34.792728], [134.665234, 34.7931808], [134.6653556, 34.7934632], [134.6653813, 34.7935258], [134.6654085, 34.7936068], [134.6654635, 34.7938069], [134.6655182, 34.794036], [134.6655903, 34.7943011], [134.6656076, 34.7943565], [134.6656295, 34.7944159], [134.6657538, 34.7947334], [134.665774, 34.7947845], [134.6659037, 34.7951129], [134.6660665, 34.795525], [134.6661649, 34.7957787], [134.6661868, 34.7958352], [134.6662203, 34.7959107], [134.666379, 34.7962886], [134.6664962, 34.7965718], [134.6665038, 34.7965908], [134.6665362, 34.796674], [134.6665603, 34.7967388], [134.6665924, 34.7968245]], [[134.3201088, 34.4821006], [134.319751, 34.4821035], [134.3196191, 34.4821211], [134.3195936, 34.482124], [134.3194483, 34.4821404], [134.3194319, 34.4821423], [134.3191267, 34.4821768], [134.3190281, 34.4821793], [134.3189598, 34.4821619], [134.3189256, 34.4821278], [134.3188942, 34.4820872], [134.3188718, 34.4820359], [134.318758, 34.4816511], [134.3186944, 34.4814978], [134.3185199, 34.4811974], [134.3183555, 34.4810045], [134.3171383, 34.4797403], [134.3168334, 34.4794425], [134.3167054, 34.479328], [134.3166292, 34.4792598], [134.3162013, 34.4788554], [134.3161134, 34.4788012], [134.3159827, 34.4787207], [134.3158265, 34.4786288], [134.3156195, 34.4785358], [134.3150555, 34.4783157], [134.314857, 34.4782355], [134.31475, 34.4781923], [134.3143913, 34.4782835], [134.3135315, 34.4785022], [134.3124432, 34.4787871], [134.3123323, 34.4788161], [134.3121943, 34.4788521], [134.3114177, 34.4790549], [134.3112467, 34.4791013], [134.3111328, 34.4791286], [134.3110937, 34.4791359], [134.3109873, 34.4791516], [134.3109483, 34.479154], [134.3109033, 34.479154], [134.3108276, 34.4791528], [134.3093101, 34.4789977], [134.3091297, 34.47898], [134.3089525, 34.4789623], [134.3074907, 34.4788167], [134.3074513, 34.4788133], [134.307173, 34.4787889], [134.307158, 34.4787875], [134.306068, 34.4786794], [134.3060289, 34.4786732], [134.3055096, 34.478621], [134.3054293, 34.4786171], [134.3051488, 34.4786036], [134.3042059, 34.4786826], [134.3041749, 34.4786854], [134.3038542, 34.4787119], [134.3038355, 34.4787136], [134.3035295, 34.4787392], [134.3030348, 34.4787808], [134.3025413, 34.4788157], [134.3025282, 34.4788168], [134.3024825, 34.4788205], [134.3021492, 34.4788479], [134.3019582, 34.4788636], [134.3017767, 34.4788798], [134.3009427, 34.4789545], [134.3007112, 34.4789773], [134.3006461, 34.4789834], [134.3003487, 34.4790087], [134.3000612, 34.4790336], [134.2999046, 34.4790534], [134.299837, 34.4790699], [134.2997885, 34.4790839], [134.2997373, 34.4791064], [134.2995392, 34.4791983], [134.298881, 34.4795476], [134.2987791, 34.479603], [134.2986966, 34.4796453], [134.2986351, 34.4796768], [134.2984326, 34.4797619], [134.2982888, 34.4798165], [134.2981049, 34.4798822], [134.2978913, 34.4799402], [134.2976549, 34.4799863], [134.2973174, 34.4800159], [134.296921, 34.4800721], [134.29678, 34.4800808], [134.2965947, 34.4800772], [134.2963878, 34.4800548], [134.2961832, 34.4800088], [134.2958648, 34.4799127], [134.2953785, 34.479764], [134.2951675, 34.4796661], [134.294913, 34.4795177], [134.294885, 34.479497], [134.294641, 34.4793192], [134.2944636, 34.4791757], [134.2943734, 34.4790892], [134.2942698, 34.4790065], [134.2941736, 34.4788777], [134.2940341, 34.4786865], [134.2936503, 34.4781772], [134.2933322, 34.4777364], [134.293208, 34.477555], [134.2931389, 34.4774416], [134.293059, 34.4772972], [134.2929908, 34.4771636], [134.2929154, 34.4769861], [134.2927943, 34.4766228], [134.2926633, 34.4762393], [134.2926198, 34.4761441], [134.2925683, 34.47606], [134.2925165, 34.4759911], [134.2924486, 34.4759311], [134.2923296, 34.4758643], [134.2921573, 34.4757892], [134.2916817, 34.4755664], [134.2914823, 34.475463], [134.2912059, 34.4752818], [134.2907688, 34.4749832], [134.2905199, 34.4748187], [134.2903023, 34.4747112], [134.2900265, 34.4745885], [134.2895672, 34.4743984], [134.2892542, 34.4742683], [134.2888154, 34.4741146], [134.288515, 34.4740367], [134.2884527, 34.4740203], [134.2883504, 34.474002], [134.2881898, 34.4739729], [134.287313, 34.4737972], [134.2868762, 34.4737033], [134.2860817, 34.473489], [134.2858491, 34.4734295], [134.285725, 34.4733988], [134.2855661, 34.4733576], [134.2854017, 34.4733018], [134.2851096, 34.473191], [134.2848349, 34.4730531], [134.2845799, 34.4729068], [134.2845063, 34.4728614], [134.2844408, 34.4728126], [134.2843952, 34.4727741], [134.2843384, 34.4727308], [134.2842829, 34.4726853], [134.2839881, 34.4723851], [134.2836747, 34.4720632], [134.2831315, 34.4715054], [134.2829841, 34.4713801], [134.2828192, 34.4712918], [134.2826292, 34.4712393], [134.2824133, 34.4711982], [134.282167, 34.471161], [134.28193, 34.4711845], [134.2814796, 34.4712636], [134.2810294, 34.4713541], [134.2806129, 34.4714381], [134.280374, 34.4714719], [134.2801602, 34.471485], [134.2799255, 34.4714594], [134.2795634, 34.4713607], [134.2789351, 34.4711788], [134.2788225, 34.4711364], [134.2785737, 34.4710009], [134.2784232, 34.4709136], [134.2783363, 34.4708547], [134.2782189, 34.4707546], [134.2779889, 34.4705218], [134.2778756, 34.470416], [134.2776336, 34.470208], [134.2775457, 34.470145], [134.277399, 34.4700833], [134.2772576, 34.4700525], [134.2770317, 34.470022], [134.2767182, 34.4699935], [134.2761745, 34.4699554], [134.2757798, 34.4699296], [134.2757622, 34.4699285], [134.2756645, 34.4699221], [134.2752987, 34.469898], [134.2744712, 34.4698465], [134.2742911, 34.469836], [134.2741559, 34.4698281], [134.2727692, 34.4697487], [134.272462, 34.4697429], [134.2721977, 34.4697548], [134.2720068, 34.4697694], [134.2718132, 34.4697929], [134.271582, 34.4698299], [134.2714126, 34.469878], [134.2713273, 34.4699097], [134.2712473, 34.4699526], [134.2711903, 34.4700021], [134.2711307, 34.4700538], [134.2710731, 34.4700998], [134.2707447, 34.4703075], [134.2705642, 34.4703918], [134.2704134, 34.4704418], [134.2702552, 34.4704805], [134.2701267, 34.4704988], [134.2699806, 34.4705171], [134.2693508, 34.470552], [134.2690287, 34.4705698], [134.2689144, 34.4705752], [134.2686978, 34.4705853], [134.2682323, 34.470593], [134.2680999, 34.4705887], [134.2679569, 34.47058], [134.2666569, 34.4703867], [134.2661054, 34.4703136], [134.2660003, 34.4703113], [134.265891, 34.4703089], [134.2657436, 34.4703197], [134.2656691, 34.4703353], [134.2655776, 34.4703545], [134.2654214, 34.4704085], [134.2652705, 34.4704825], [134.265183, 34.4705464], [134.2650836, 34.4706191], [134.2646795, 34.4709695], [134.2645282, 34.4710472], [134.264381, 34.4711093], [134.2642158, 34.4711456], [134.2640345, 34.4711575], [134.2638576, 34.4711472], [134.2631937, 34.4709867], [134.2631153, 34.4709677], [134.2629091, 34.4709281], [134.2627323, 34.4709163], [134.2625609, 34.4709243], [134.262387, 34.470954], [134.2621245, 34.4710389], [134.2619155, 34.4711094], [134.2617097, 34.4711569], [134.2615073, 34.4711715], [134.2608906, 34.4711516], [134.2606481, 34.4711665], [134.2604057, 34.471208], [134.258821, 34.4716013], [134.2584336, 34.4717032], [134.2583651, 34.4717287], [134.25822, 34.4717827], [134.2580164, 34.4718815], [134.2578181, 34.472009], [134.2572937, 34.4724562], [134.2571103, 34.4726012], [134.2560724, 34.4732653], [134.2558758, 34.4733768], [134.2556684, 34.4734793], [134.2554689, 34.4735622], [134.2552693, 34.4736362], [134.2546417, 34.4738511], [134.254473, 34.4739229], [134.2543556, 34.4739917], [134.2542732, 34.4740524], [134.2541763, 34.4741499], [134.2539614, 34.4744215], [134.2537474, 34.4746579], [134.2536066, 34.4747838], [134.2534389, 34.4749074], [134.2530703, 34.4751583], [134.2525955, 34.4754574], [134.2524841, 34.4755188], [134.2523792, 34.4755659], [134.2522354, 34.4756144], [134.2520037, 34.4756793], [134.2516697, 34.4757479], [134.2514971, 34.4757846], [134.2513111, 34.4758368], [134.2511192, 34.4759027], [134.2509086, 34.475984], [134.2503983, 34.4762079], [134.2502522, 34.4762836], [134.2501325, 34.4763601], [134.2499728, 34.4764882], [134.2498321, 34.4766344], [134.2496853, 34.4768412], [134.2496398, 34.4769708], [134.249618, 34.4770328], [134.2495385, 34.4773], [134.2494789, 34.4776172], [134.2493733, 34.4780896], [134.2493267, 34.4782081], [134.2492807, 34.4783064], [134.2492132, 34.4784048], [134.2491363, 34.4784916], [134.2490352, 34.4785734], [134.2488763, 34.4787032], [134.2487254, 34.4788176], [134.2480711, 34.4792902], [134.2464988, 34.4804373], [134.2463164, 34.4805616], [134.2461317, 34.4806662], [134.2459499, 34.4807541], [134.2457802, 34.4808211], [134.2456025, 34.4808785], [134.244685, 34.4811231], [134.24441, 34.4812207], [134.2442603, 34.4812837], [134.2441026, 34.4813588], [134.2439267, 34.4814526], [134.2437401, 34.4815756], [134.2435868, 34.4816943], [134.2434645, 34.4818032], [134.2433462, 34.481922], [134.243241, 34.4820381], [134.2429695, 34.4823766], [134.2428403, 34.482525], [134.2427411, 34.4826164], [134.242653, 34.4826852], [134.2425663, 34.4827429], [134.2424646, 34.4828039], [134.2420599, 34.4830056], [134.2416789, 34.483198], [134.2416003, 34.4832307], [134.2415056, 34.4832523], [134.24141, 34.483269], [134.2413204, 34.4832751], [134.2412433, 34.483271], [134.2411581, 34.4832591], [134.2409572, 34.4832142], [134.2406745, 34.4831401], [134.2387356, 34.4826425], [134.2386007, 34.4826179], [134.2384715, 34.482614], [134.2383487, 34.4826197], [134.2382727, 34.4826349], [134.238213, 34.482651], [134.2381061, 34.4826818], [134.2370144, 34.4830252], [134.2363613, 34.4832369], [134.2361881, 34.4832924], [134.2355146, 34.4835118], [134.2353941, 34.4835499], [134.2352877, 34.4835672], [134.235143, 34.4835767], [134.2350109, 34.4835672], [134.2348926, 34.4835536], [134.2347603, 34.4835218], [134.2345261, 34.4834391], [134.2344307, 34.483409], [134.2343101, 34.4833709], [134.2339949, 34.4832453], [134.2336739, 34.4831209], [134.2332792, 34.4829783], [134.2330971, 34.4829134], [134.2329577, 34.4828643], [134.2321564, 34.482569], [134.2319061, 34.4824863], [134.231721, 34.4824348], [134.2315399, 34.4823955], [134.2313843, 34.4823676], [134.231206, 34.4823453], [134.2310773, 34.4823389], [134.2310064, 34.4823354], [134.2305043, 34.4823123], [134.2302039, 34.4822879], [134.2301012, 34.4822775], [134.230008, 34.4822635], [134.2299532, 34.4822522], [134.2299131, 34.4822376], [134.2298652, 34.4822082], [134.2298193, 34.4821771], [134.2298072, 34.4821663], [134.229733, 34.4820998], [134.2292803, 34.4817062], [134.2290802, 34.4815122], [134.2286727, 34.4809938], [134.228513, 34.4810645], [134.2283287, 34.4811265], [134.2282417, 34.481152], [134.2281413, 34.4811709], [134.2278774, 34.4811908], [134.2275114, 34.4812356], [134.2274718, 34.4812413], [134.2269465, 34.4812804], [134.2267275, 34.4812901], [134.226584, 34.4812821], [134.2264567, 34.4812603], [134.22633, 34.4812196], [134.2261793, 34.4811558], [134.2255795, 34.4808561], [134.2251673, 34.4806438], [134.2250332, 34.4806089], [134.2249207, 34.4805796], [134.2247648, 34.4805595], [134.2246127, 34.4805429], [134.2245289, 34.4805409], [134.2242611, 34.48054], [134.2238595, 34.4805441], [134.2235541, 34.4805404], [134.2233995, 34.4805165], [134.2232449, 34.4804793], [134.223048, 34.4804014], [134.2224788, 34.4801325], [134.2222998, 34.4800717], [134.2221606, 34.4800386], [134.2220101, 34.4800226], [134.2218758, 34.4800243], [134.2217434, 34.4800361], [134.2216191, 34.480059], [134.2210931, 34.4801839], [134.2208726, 34.4802516], [134.2206304, 34.4803479], [134.2204357, 34.4804691], [134.2201522, 34.48071], [134.2196797, 34.4811118], [134.2194652, 34.4812438], [134.2191878, 34.4813476], [134.2189413, 34.4813938], [134.218673, 34.4814256], [134.2174256, 34.4815672], [134.2169239, 34.4816314], [134.2165747, 34.4816849], [134.2161324, 34.4818025], [134.2155909, 34.4819424], [134.2144588, 34.4822591], [134.2139104, 34.4824163], [134.2117679, 34.4830029], [134.21167, 34.4830319], [134.2107162, 34.4833142], [134.2104033, 34.4834068], [134.2086393, 34.4838982], [134.2074498, 34.4842321], [134.2071537, 34.4843164], [134.2069115, 34.4843693], [134.2066962, 34.4843995], [134.2064637, 34.4844026], [134.2062294, 34.4843714], [134.2056263, 34.4842143], [134.2054213, 34.4841479], [134.2052351, 34.4840992], [134.2050654, 34.4840626], [134.2049, 34.4840082], [134.2047703, 34.4839278], [134.2044355, 34.4836559], [134.2040841, 34.4834629], [134.203944, 34.4834282], [134.2037753, 34.4834128], [134.2035255, 34.483425], [134.2030345, 34.4834911], [134.2027466, 34.4835244], [134.2025563, 34.4835208], [134.2023703, 34.4834781], [134.2013417, 34.4831305], [134.2009777, 34.4830075], [134.200795, 34.4829713], [134.2006344, 34.4829664], [134.2004673, 34.4829936], [134.2002692, 34.4830453], [134.1999286, 34.4831762], [134.1994356, 34.4833757], [134.1992062, 34.4835008], [134.1989471, 34.483667], [134.1986892, 34.4838864], [134.198458, 34.484139], [134.1983095, 34.4843491], [134.1981139, 34.48469], [134.1978131, 34.4852491], [134.1975903, 34.4856633], [134.1973874, 34.4860042], [134.1972275, 34.4862523], [134.1970646, 34.4864578], [134.1969199, 34.4866109], [134.1966878, 34.4868017], [134.196421, 34.4869564], [134.1960726, 34.487116], [134.1954978, 34.4872747], [134.1954418, 34.4872902], [134.194493, 34.4874813], [134.1936662, 34.4876538], [134.1933662, 34.4877168], [134.1932329, 34.4877447], [134.1930812, 34.4877708], [134.1929507, 34.4876406], [134.1925748, 34.4872935], [134.1922384, 34.4869829], [134.1920691, 34.4868267], [134.1918192, 34.486596], [134.1916514, 34.486441], [134.1916062, 34.4863992], [134.1913162, 34.4861104], [134.1910376, 34.4858582], [134.1907728, 34.4856013], [134.1906211, 34.4854529], [134.1904663, 34.4852897], [134.1904082, 34.4852212], [134.1903813, 34.4851884], [134.1899629, 34.4846692], [134.1899571, 34.48466], [134.189925, 34.4846093], [134.1898779, 34.4845364], [134.1897627, 34.4843531], [134.1896692, 34.4841929], [134.1895659, 34.4840018], [134.1894504, 34.4837767], [134.1892725, 34.483392], [134.1891969, 34.4831846], [134.1890495, 34.4827055], [134.1890379, 34.4826575], [134.189026, 34.4826096], [134.1889292, 34.4822099], [134.1889175, 34.4821601], [134.188833, 34.481766], [134.188796, 34.481606], [134.1887562, 34.4814738], [134.1887443, 34.4814295], [134.1887322, 34.4813871], [134.1886996, 34.4812888], [134.18861, 34.4810854], [134.1885849, 34.4810085], [134.1885621, 34.4809699], [134.1883891, 34.4806981], [134.1882233, 34.4804246], [134.1881514, 34.4803131], [134.1880658, 34.4801831], [134.187977, 34.4800742], [134.1879342, 34.4800342], [134.1878451, 34.4799588], [134.187752, 34.4799041], [134.1876561, 34.479857], [134.1875334, 34.4798127], [134.187437, 34.4797804], [134.1873115, 34.4797625], [134.1871602, 34.4797483], [134.1848012, 34.4797448], [134.1846182, 34.4797413], [134.1844574, 34.479733], [134.1843174, 34.4797194], [134.184159, 34.4797036], [134.1841602, 34.4797633], [134.1841612, 34.4798307], [134.1841905, 34.4802332], [134.1842305, 34.4807378], [134.1842944, 34.481637], [134.1843352, 34.481918], [134.1844549, 34.482325], [134.1844842, 34.4824057], [134.1845929, 34.4825623], [134.1847193, 34.4827145], [134.1848779, 34.4828921], [134.1850959, 34.4831508], [134.1851258, 34.4831863], [134.1852431, 34.4833283], [134.1851309, 34.4833935], [134.1849807, 34.4834807], [134.1848284, 34.4835661], [134.1846427, 34.4836651], [134.1845983, 34.4836888], [134.1833921, 34.4843604], [134.1830136, 34.4845514], [134.1827784, 34.4846469], [134.1825091, 34.4847456], [134.18213, 34.4848579], [134.1819558, 34.484905], [134.1818634, 34.4849256], [134.1817651, 34.4849412], [134.1816342, 34.4849574], [134.1815143, 34.4849591], [134.1809966, 34.4849493], [134.1804783, 34.4849474], [134.1804033, 34.4849457], [134.1803178, 34.4849517], [134.180243, 34.4849654], [134.1801496, 34.4850023], [134.1800669, 34.4850447], [134.1799893, 34.485102], [134.1799461, 34.4851354], [134.1795794, 34.4854512], [134.1794325, 34.4855722], [134.1793538, 34.4856319], [134.1792523, 34.4857015], [134.1791446, 34.4857656], [134.1789427, 34.4858696], [134.1786405, 34.4860084], [134.1781467, 34.486244], [134.1778849, 34.4863714], [134.1776111, 34.4865045], [134.1774905, 34.486563], [134.1773538, 34.486637], [134.1769517, 34.4868758], [134.1766551, 34.4870629], [134.1765459, 34.4871375], [134.1764004, 34.4872384], [134.1762341, 34.4873714], [134.1759048, 34.4876884], [134.1755115, 34.4880673], [134.1754716, 34.4881113], [134.1754199, 34.4881683], [134.174926, 34.4886478], [134.1746038, 34.4889793], [134.1745115, 34.4890729], [134.1744327, 34.4891502], [134.174379, 34.4891857], [134.1743359, 34.4892322], [134.1743252, 34.4892528], [134.1743208, 34.489275]], [[134.048933, 34.3540415], [134.0500782, 34.3548051], [134.0533324, 34.3598535], [134.0539053, 34.3614257], [134.0544985, 34.3643882], [134.0743611, 34.3907613], [134.100321, 34.4331401], [134.116856, 34.4559576], [134.1325642, 34.4785871], [134.1439182, 34.4937155], [134.1463984, 34.496123], [134.1489889, 34.497622], [134.1515242, 34.4984397], [134.1544454, 34.4985759], [134.1586343, 34.4981217], [134.1626578, 34.4971678], [134.1661852, 34.4959413], [134.1676444, 34.4950948], [134.1693204, 34.4938325], [134.1709242, 34.4924869], [134.1722679, 34.4911055], [134.1724216, 34.4906911], [134.1726713, 34.4899289], [134.1727603, 34.4896343], [134.1729376, 34.4890475]], [[134.6635269, 34.791347], [134.6636034, 34.7913356], [134.6636662, 34.7913456], [134.6638123, 34.791405]], [[134.0494153, 34.3518465], [134.0493534, 34.3518343], [134.0493374, 34.3518313], [134.0493115, 34.3518249], [134.0492837, 34.3518178], [134.0492578, 34.3518083], [134.0492127, 34.3517822], [134.0491733, 34.3517402], [134.049156, 34.3516957]]]}, "id": "relation/572119"}, {"type": "Feature", "properties": {"@id": "relation/2499877", "name": "国道436号旧道", "old_ref": "436", "route": "road", "type": "route"}, "geometry": {"type": "MultiLineString", "coordinates": [[[134.3413422, 34.4857595], [134.341244, 34.485817], [134.341191, 34.4858349], [134.3411366, 34.4858434], [134.3410161, 34.4858398], [134.340859, 34.485801], [134.3407999, 34.4857773], [134.340574, 34.4856828], [134.340449, 34.485611], [134.3403384, 34.4855204], [134.3401464, 34.4853394], [134.3401152, 34.4852932], [134.3400913, 34.4852371], [134.3400678, 34.4851578], [134.3400609, 34.4850856], [134.3400777, 34.4849874], [134.3401062, 34.4849108], [134.3401876, 34.4848011], [134.3403194, 34.4847076], [134.3404497, 34.4846411], [134.3405564, 34.4846065], [134.3407719, 34.4845814], [134.341108, 34.4845828], [134.3414134, 34.4845861], [134.341515, 34.4845637], [134.3415702, 34.4845294], [134.341611, 34.4844892], [134.3416207, 34.4844371], [134.3416119, 34.4843513], [134.341497, 34.4840995], [134.3414721, 34.4840161], [134.3414679, 34.4839611], [134.3414905, 34.4839083], [134.3415325, 34.4838649], [134.3415961, 34.4838222], [134.3417469, 34.483764], [134.3418153, 34.4837332], [134.341865, 34.4836917], [134.341883, 34.4836458], [134.3418868, 34.4835916], [134.3418619, 34.4835267], [134.3418208, 34.4834839], [134.3417535, 34.4834402], [134.3416043, 34.4833483], [134.3412686, 34.4831545], [134.3411276, 34.4830689], [134.341071, 34.4830086], [134.3410332, 34.4829528], [134.3410025, 34.4828799], [134.3409965, 34.4828148], [134.3410011, 34.4827585], [134.3410325, 34.4826927], [134.3410822, 34.4826333], [134.3411346, 34.4825848], [134.3412498, 34.4824647], [134.3413137, 34.4823817], [134.3413586, 34.4822947], [134.3415355, 34.481877], [134.3415447, 34.4817996], [134.3415399, 34.4817034], [134.3415156, 34.4816026], [134.3414872, 34.481524], [134.3414261, 34.4814469], [134.3413573, 34.4813658], [134.3411664, 34.4812116], [134.341115, 34.481157], [134.3410884, 34.4811058], [134.3410982, 34.4809572], [134.341081, 34.4809037], [134.3410375, 34.4808472], [134.340856, 34.4807227], [134.3408059, 34.4806845], [134.3407522, 34.4806267], [134.3407177, 34.4805652], [134.3406939, 34.4805147], [134.3406903, 34.480456], [134.3407053, 34.4803955], [134.3407496, 34.4803427], [134.3409348, 34.4802392], [134.3409984, 34.4801819], [134.3410594, 34.4801069], [134.3410922, 34.4800407], [134.3411058, 34.4799577], [134.341095, 34.479888], [134.3410565, 34.4798419], [134.3410063, 34.4797934], [134.3409131, 34.4797614], [134.3407881, 34.4797575], [134.3402982, 34.4797701], [134.340201, 34.4797618], [134.3401368, 34.4797348], [134.3400903, 34.4796935], [134.3400748, 34.4796247], [134.3401016, 34.479437], [134.3401019, 34.4793603], [134.3400942, 34.479308], [134.3400615, 34.4792544], [134.340003, 34.4791966], [134.339735, 34.478983], [134.3396756, 34.4789241], [134.3395302, 34.478843], [134.3394489, 34.4788238], [134.3393515, 34.4788224], [134.3392473, 34.4788345], [134.339131, 34.4788593], [134.3383694, 34.4790877], [134.3380567, 34.4791955], [134.3379941, 34.4792287], [134.3379396, 34.4792792], [134.3379002, 34.4793314], [134.3378852, 34.4793817], [134.3378836, 34.4794382], [134.3379074, 34.4795035], [134.3379999, 34.4796553], [134.3380327, 34.4797177], [134.3380468, 34.4797868], [134.3380424, 34.4798564], [134.3380164, 34.4799211], [134.3378635, 34.4801586], [134.3378394, 34.48021], [134.3378288, 34.4802673], [134.3378419, 34.4803314], [134.3378616, 34.480397], [134.3378921, 34.4804603], [134.3380684, 34.4807203], [134.3381005, 34.4807708], [134.3381087, 34.4808242], [134.3380929, 34.4808665], [134.3380703, 34.4808941], [134.338033, 34.4809082], [134.3379934, 34.4809103], [134.3379637, 34.4808989], [134.3379251, 34.4808631], [134.3379089, 34.4807749], [134.337869, 34.4806271], [134.3378506, 34.4805835], [134.3376987, 34.4803538], [134.3376708, 34.4803005], [134.3376526, 34.4802436], [134.3376497, 34.480202], [134.3376706, 34.4799264], [134.3376607, 34.4798777], [134.3376448, 34.4798242], [134.3375075, 34.4796023], [134.3374657, 34.4795492], [134.3374207, 34.4795235], [134.3373733, 34.4795185], [134.3373294, 34.4795312], [134.3372929, 34.4795554], [134.337272, 34.4795947], [134.3372694, 34.4796354], [134.3372896, 34.4796731], [134.3373897, 34.4797801], [134.3374464, 34.4798391], [134.33747, 34.4798865], [134.3374797, 34.4799482], [134.337479, 34.4799961], [134.3374506, 34.4802467], [134.3374559, 34.4802811], [134.3375146, 34.480416], [134.3375178, 34.4804673], [134.3375076, 34.4805121], [134.3374836, 34.480545], [134.3374534, 34.4805682], [134.3374196, 34.4805831], [134.3373762, 34.4805893], [134.3373072, 34.480582], [134.3372561, 34.4805675], [134.3371564, 34.4805307], [134.3369186, 34.4804544], [134.336782, 34.4804303], [134.3366809, 34.4804281], [134.3365991, 34.4804346], [134.3365335, 34.4804544], [134.3364824, 34.4804851], [134.3364394, 34.4805314], [134.336361, 34.4806591], [134.3363282, 34.480734], [134.3363037, 34.4807975], [134.3362974, 34.480862], [134.3363163, 34.4809474], [134.3363397, 34.4810342], [134.3363893, 34.4812542], [134.33637, 34.4813152], [134.3363534, 34.4813497], [134.3363191, 34.4813721], [134.3362739, 34.4813829], [134.3362296, 34.4813828], [134.3361694, 34.4813713], [134.3356551, 34.4811963], [134.3356045, 34.4811889], [134.3355522, 34.4811903], [134.3355062, 34.4811989], [134.3354645, 34.4812109], [134.3351141, 34.4813915], [134.3350633, 34.4814157], [134.3349996, 34.4814308], [134.3349358, 34.4814304], [134.3348717, 34.481426], [134.3348055, 34.4814086], [134.3347511, 34.4813851], [134.334326, 34.4812094], [134.3342726, 34.4811973], [134.3341861, 34.4812022], [134.3341353, 34.4812143], [134.3340725, 34.4812328], [134.3340317, 34.4812607], [134.3338156, 34.4814596], [134.3337742, 34.4814924], [134.3337365, 34.4815071], [134.3336872, 34.4815171], [134.333645, 34.4815082], [134.3335989, 34.4814838], [134.3335524, 34.4814558], [134.3333602, 34.4812909], [134.3332803, 34.481199], [134.333193, 34.4810567], [134.3330438, 34.4807887], [134.3328674, 34.4805542], [134.3328251, 34.4805099], [134.3327795, 34.4804772], [134.3327285, 34.4804489], [134.332661, 34.4804335], [134.3325747, 34.4804358], [134.332483, 34.4804579], [134.3324118, 34.4804851], [134.3323677, 34.4805204], [134.3323308, 34.4805691], [134.3322414, 34.4807302], [134.3321961, 34.4807764], [134.3321423, 34.4808013], [134.3320735, 34.4808077], [134.3319913, 34.4808022], [134.331853, 34.4807837], [134.3316237, 34.4807297], [134.331542, 34.4807093], [134.3314227, 34.4806978], [134.3312119, 34.4807], [134.3310108, 34.4807195], [134.330966, 34.4807395], [134.3309398, 34.4807687], [134.3309225, 34.4808001], [134.3309079, 34.4808442], [134.3309038, 34.4811204], [134.3308871, 34.4811759], [134.3308558, 34.4812174], [134.3308058, 34.4812567], [134.3307486, 34.4812847], [134.3306494, 34.4812951], [134.3300299, 34.4813023], [134.3299562, 34.4813093], [134.329904, 34.4813295], [134.3298456, 34.4813593], [134.3298113, 34.4813957], [134.3296724, 34.4815606], [134.3296005, 34.4816193], [134.3295325, 34.4816522], [134.3294602, 34.4816686], [134.3293802, 34.4816686], [134.3293014, 34.4816456], [134.329202, 34.4815964], [134.3288697, 34.4814762], [134.3287515, 34.4814382], [134.3286681, 34.4814246], [134.3284719, 34.4814061], [134.3284177, 34.4813861], [134.3283768, 34.481366], [134.3283279, 34.4813282], [134.3282428, 34.4812389], [134.3281476, 34.4811548], [134.3280685, 34.4811214], [134.3280069, 34.4811035], [134.3279449, 34.4810954], [134.3278801, 34.4811053], [134.327826, 34.4811346], [134.3277908, 34.4811684], [134.3277597, 34.4812114], [134.3277416, 34.4812538], [134.3277422, 34.4813059], [134.3278312, 34.4815256], [134.3278553, 34.4816011], [134.3278602, 34.4816728], [134.3278492, 34.4817351], [134.3278124, 34.4817778], [134.3277298, 34.4818176], [134.3276669, 34.4818289], [134.3275861, 34.4818285], [134.3274583, 34.4818065], [134.3272239, 34.4817556], [134.3270785, 34.4817033], [134.3267995, 34.4815577], [134.3265373, 34.4814464], [134.3263948, 34.4813968], [134.3262784, 34.4813722], [134.3262063, 34.48135], [134.3261745, 34.481334], [134.3261459, 34.4813076]]]}, "id": "relation/2499877"}]}