{"type": "FeatureCollection", "generator": "kokudo-quiz tools/fetch_raw.py (Overpass API)", "copyright": "The data included in this document is from www.openstreetmap.org. The data is made available under ODbL.", "timestamp": "2026-09-30T23:39:45Z", "features": [{"type": "Feature", "properties": {"@id": "relation/9743152", "colour": "red", "from": "愛媛県松山市", "name": "国道440号", "name:en": "National Highway Route 440", "name:ja": "国道440号", "name:ja-Hira": "こくどうよんひゃくよんじゅう", "name:ja-Latn": "Kokudou 440 Gou", "network": "JP:national", "ref": "440", "route": "road", "to": "高知県高岡郡檮原町", "type": "route", "wikidata": "Q5390636", "wikipedia": "ja:国道440号"}, "geometry": {"type": "MultiLineString", "coordinates": [[[132.7646248, 33.8394548], [132.7646895, 33.8395048], [132.7647424, 33.8395649], [132.7647799, 33.8396575], [132.7648053, 33.8397671], [132.764809, 33.8398824], [132.7648104, 33.8399263], [132.76482, 33.8402227], [132.7648574, 33.8408409], [132.7648668, 33.8409002], [132.7648789, 33.840943], [132.7648976, 33.8409911], [132.7649091, 33.8410062], [132.7649331, 33.8410376], [132.7649503, 33.841052], [132.7649706, 33.8410692], [132.7649958, 33.8410864], [132.7650305, 33.8411077], [132.7650879, 33.8411323], [132.7651493, 33.8411492], [132.7652131, 33.8411578], [132.7652781, 33.8411562], [132.7659369, 33.8411401], [132.7664053, 33.8411287], [132.7669715, 33.8411149], [132.7679163, 33.8411425], [132.7680408, 33.8411461], [132.7681491, 33.8411504], [132.7688008, 33.8411761], [132.7690731, 33.8411876], [132.7691727, 33.8411916], [132.7695559, 33.8412208], [132.7700922, 33.8412633], [132.7701333, 33.8412665], [132.7701837, 33.8412705], [132.7702275, 33.8412735], [132.7702926, 33.841278], [132.7707039, 33.8413063], [132.7709302, 33.8413258], [132.7722892, 33.8414245], [132.7730724, 33.8415289], [132.7734242, 33.8415764], [132.774185, 33.8416822], [132.7743286, 33.841702], [132.7749825, 33.8417961], [132.775006, 33.8418], [132.7751003, 33.8418142], [132.775204, 33.8418194], [132.7753289, 33.8418038], [132.7754357, 33.8417829]], [[132.7753191, 33.8417241], [132.7751671, 33.8416875], [132.7750425, 33.841681], [132.7743307, 33.8415753], [132.7741847, 33.8415514], [132.7734454, 33.8414537], [132.7730051, 33.8413942], [132.7722771, 33.8412999], [132.7709088, 33.8411957], [132.7706808, 33.8411734], [132.7704202, 33.841154], [132.7702866, 33.8411462], [132.770217, 33.8411422], [132.7701713, 33.8411395], [132.7701239, 33.8411364], [132.7700861, 33.8411339], [132.7695528, 33.8410988], [132.7692481, 33.8410773], [132.7690751, 33.8410651], [132.7687955, 33.8410533], [132.7681523, 33.8410279], [132.7680416, 33.8410235], [132.76792, 33.8410193], [132.7669729, 33.8409849], [132.7663985, 33.8410047], [132.7659334, 33.8410207], [132.7653969, 33.8410288], [132.7652753, 33.8410269], [132.7652687, 33.8410268], [132.7652206, 33.8410208], [132.7651743, 33.8410081], [132.7651313, 33.8409891], [132.765103, 33.840971], [132.7650928, 33.8409644], [132.7650599, 33.8409346], [132.7650335, 33.8409006], [132.7650143, 33.8408634], [132.765003, 33.8408241], [132.7649672, 33.8402171], [132.7649484, 33.8398802], [132.7649465, 33.8398451], [132.7649449, 33.8398171], [132.7649411, 33.8397011], [132.7649187, 33.839619], [132.7648729, 33.8395326], [132.7648195, 33.8394583], [132.7647482, 33.8393842]], [[132.7753191, 33.8417241], [132.7753234, 33.8415594], [132.7753131, 33.8410435], [132.7752879, 33.8404411], [132.7752771, 33.8399226], [132.7752669, 33.8394792], [132.7752636, 33.8390723], [132.775251, 33.8385483], [132.7752483, 33.8381675], [132.7752478, 33.8381042], [132.7752445, 33.8380259], [132.7752323, 33.8377318], [132.775235, 33.837608], [132.7752305, 33.8373525], [132.7752262, 33.8371087], [132.7752233, 33.8369403], [132.7752215, 33.836697], [132.7752314, 33.8366028], [132.7752449, 33.8365403], [132.7752742, 33.8364767], [132.775365, 33.8363181], [132.7756393, 33.8359938], [132.775912, 33.8357163]], [[132.7760105, 33.8356067], [132.7759774, 33.8356424]], [[132.7808047, 33.8296741], [132.7804695, 33.8301123], [132.7800704, 33.8306414], [132.7795772, 33.8312962], [132.7792823, 33.8317017], [132.7783864, 33.8328816], [132.777799, 33.8336597], [132.7774872, 33.8340441], [132.7772454, 33.8343035]], [[132.7757423, 33.836049], [132.7760212, 33.8357779]], [[132.7760892, 33.8357082], [132.7761241, 33.835672]], [[132.7769447, 33.8348083], [132.7769885, 33.834762], [132.7770826, 33.8346592], [132.7773511, 33.8343702]], [[132.7754357, 33.8417829], [132.7754352, 33.8417479], [132.7754326, 33.8415589], [132.7754323, 33.8415369], [132.7754245, 33.8410424], [132.7754126, 33.8404572], [132.7754051, 33.8399412], [132.7753952, 33.8394746], [132.7753782, 33.8390646], [132.7753608, 33.838546], [132.7753552, 33.8381661], [132.7753542, 33.8381021], [132.7753541, 33.8380253], [132.7753536, 33.8377298], [132.7753529, 33.8376065], [132.7753432, 33.837355], [132.7753274, 33.8369413], [132.7753247, 33.8368232], [132.7753328, 33.836649], [132.7753461, 33.8365878], [132.7753618, 33.8365278], [132.7754321, 33.8363839], [132.7757423, 33.836049]], [[132.7759774, 33.8356424], [132.775912, 33.8357163]], [[132.7760212, 33.8357779], [132.7760892, 33.8357082]], [[132.7768209, 33.8347493], [132.7760105, 33.8356067]], [[132.7761241, 33.835672], [132.7769447, 33.8348083]], [[132.7768209, 33.8347493], [132.7768797, 33.8346956], [132.7769856, 33.8345859], [132.7772454, 33.8343035]], [[132.7773511, 33.8343702], [132.7775816, 33.8341206], [132.7779861, 33.8336259], [132.7782215, 33.8333141], [132.7784996, 33.8329318], [132.7786678, 33.8327092], [132.7787123, 33.8326524], [132.7790023, 33.8322849], [132.7791539, 33.8320764], [132.7794289, 33.8316984], [132.7802526, 33.8306387], [132.7805523, 33.8302149], [132.7807412, 33.8299568], [132.7809134, 33.8297272], [132.780942, 33.8296909]], [[132.7815384, 33.8287137], [132.7814503, 33.828827], [132.7808961, 33.8295408], [132.7808047, 33.8296741]], [[132.780942, 33.8296909], [132.7814734, 33.8289845], [132.7816497, 33.8287559]], [[132.7830802, 33.8265595], [132.782763, 33.8269757], [132.7826742, 33.8270966], [132.7825022, 33.827299], [132.7821691, 33.8277213], [132.7818132, 33.8282491], [132.781623, 33.8285274], [132.7815384, 33.8287137]], [[132.7816497, 33.8287559], [132.7817887, 33.8286329], [132.7819778, 33.8284119], [132.7822574, 33.8280799], [132.7825025, 33.8277342], [132.7827259, 33.8274188], [132.7829608, 33.8270986], [132.7832644, 33.826674], [132.7830802, 33.8265595]], [[132.7833217, 33.8265966], [132.7831552, 33.8264669], [132.782969, 33.8263361], [132.7824672, 33.8260084]], [[132.7830802, 33.8265595], [132.7827354, 33.8263212], [132.7825534, 33.8261992], [132.7823955, 33.8260887], [132.7812537, 33.8253402], [132.779331, 33.8240922]], [[132.7824672, 33.8260084], [132.7813422, 33.8252498], [132.7804886, 33.8246861], [132.7794047, 33.8240109]], [[132.7756406, 33.8224124], [132.7757726, 33.8224493], [132.7761296, 33.8225561], [132.7771103, 33.8228493], [132.7771369, 33.8228573], [132.777277, 33.8229112], [132.7775881, 33.8230393], [132.7779054, 33.8231867], [132.7782461, 33.8233791], [132.7785666, 33.823578], [132.7786344, 33.8236242], [132.7789826, 33.8238468], [132.779331, 33.8240922]], [[132.7794047, 33.8240109], [132.7790538, 33.8237794], [132.7786207, 33.8234956], [132.7784759, 33.8233969], [132.7780371, 33.8231094], [132.777808, 33.8229732], [132.7776978, 33.8229078], [132.7772333, 33.8227079], [132.7766578, 33.8225182], [132.7758255, 33.822305], [132.7757726, 33.8224493]], [[132.7770442, 33.8179401], [132.7770407, 33.8180186], [132.7770205, 33.8183135], [132.7770041, 33.8184363], [132.7769903, 33.8185593], [132.7768715, 33.8190383], [132.7768295, 33.8192077], [132.776684, 33.8196019], [132.7763906, 33.8203967], [132.7763021, 33.8205991], [132.7759119, 33.8217105], [132.7756963, 33.8222704], [132.7756406, 33.8224124]], [[132.7758255, 33.822305], [132.7760314, 33.8217122], [132.7764062, 33.8206143], [132.776477, 33.8204195], [132.7767786, 33.8196141], [132.7769232, 33.8192281], [132.7769679, 33.8190546], [132.7770259, 33.8188565], [132.7770893, 33.818582], [132.7771197, 33.8183804], [132.7771289, 33.8182334], [132.777142, 33.8180233], [132.777143, 33.8179606], [132.7771436, 33.8179178]], [[132.7770431, 33.8176665], [132.7770442, 33.8179401]], [[132.7771436, 33.8179178], [132.7771413, 33.817634]], [[132.7770431, 33.8176665], [132.7770423, 33.8176213], [132.7770359, 33.8166421], [132.7770351, 33.8165129], [132.7770738, 33.8161321], [132.7772208, 33.8156122], [132.7773071, 33.8153073], [132.7775116, 33.8148434], [132.7775942, 33.8146548], [132.7780395, 33.8137131], [132.7781482, 33.813494], [132.7781966, 33.8133843], [132.7782365, 33.8132707], [132.7784485, 33.8128222], [132.7787255, 33.8122152], [132.7789117, 33.8118011], [132.7790464, 33.811518], [132.7791632, 33.811267], [132.7794362, 33.8106802], [132.7796124, 33.8102832], [132.7798731, 33.8096959], [132.7799754, 33.8094799], [132.7800904, 33.8092687], [132.780341, 33.8087407], [132.7804029, 33.8085855], [132.7804918, 33.8083922], [132.7806882, 33.8079647], [132.781229, 33.8067934], [132.7813588, 33.8065189], [132.7817218, 33.805707], [132.7819387, 33.8052519], [132.7821689, 33.8047344], [132.7824208, 33.8041817], [132.7825071, 33.8039924], [132.7826141, 33.8037575], [132.7830124, 33.8028778], [132.7830861, 33.8027286], [132.7831064, 33.8026873], [132.7831388, 33.8026197], [132.7831821, 33.802524], [132.7831981, 33.8024903], [132.7833267, 33.8022156], [132.7834225, 33.8020124], [132.783478, 33.8018734], [132.7836202, 33.8015763], [132.7836912, 33.8014278], [132.7837147, 33.8013787], [132.7837996, 33.8012007], [132.7840332, 33.8006692], [132.7844202, 33.7998214], [132.7853774, 33.7977698], [132.7855395, 33.7974193], [132.7857964, 33.7968054], [132.7859063, 33.7965643], [132.7859653, 33.7964347], [132.7861092, 33.7961579], [132.7863196, 33.795694], [132.7867112, 33.794888], [132.7869235, 33.7944203], [132.7869898, 33.7942742], [132.7870698, 33.7940972], [132.7870768, 33.7940817], [132.7871429, 33.7938682], [132.7871891, 33.7936384], [132.7872153, 33.7934262], [132.7872144, 33.7930902], [132.7871914, 33.792873], [132.7871525, 33.7921286], [132.7871362, 33.7918653], [132.7871164, 33.7915467], [132.7871023, 33.7913954], [132.7870683, 33.7909917], [132.7869945, 33.7898907], [132.7869653, 33.7894521], [132.7869022, 33.7884422], [132.7867448, 33.7859436], [132.7867446, 33.7857431], [132.7867277, 33.7855995], [132.7867093, 33.7853909], [132.7867017, 33.7850031], [132.7867092, 33.7846963], [132.7867541, 33.7844352], [132.7868102, 33.7841688], [132.7869128, 33.7838001], [132.7871894, 33.7829197], [132.7872673, 33.7825837], [132.7873203, 33.7821976], [132.7873415, 33.78181], [132.7873401, 33.7813481], [132.7873028, 33.7807366]], [[132.7873967, 33.7807396], [132.7874327, 33.7813572], [132.7874384, 33.7817976], [132.7874162, 33.7821972], [132.7873596, 33.782586], [132.7872855, 33.7829141], [132.7870007, 33.7838402], [132.78691, 33.7841898], [132.7868639, 33.7844347], [132.7868278, 33.7847006], [132.7868097, 33.7850441], [132.7868104, 33.7853876], [132.7868353, 33.7856992], [132.7868385, 33.7859059], [132.7870047, 33.7883961], [132.7870639, 33.7894579], [132.7870919, 33.7898811], [132.7871519, 33.7908327], [132.7871796, 33.7909823], [132.7872236, 33.7913802], [132.7872348, 33.7914861], [132.7872738, 33.7921193], [132.7873131, 33.7927573], [132.7873204, 33.7928711], [132.7873302, 33.7930961], [132.7873315, 33.7934357], [132.7873129, 33.793646], [132.7872646, 33.7938896], [132.7871896, 33.7941043], [132.7871797, 33.7941286], [132.7871054, 33.7943122], [132.7870373, 33.7944581], [132.7869632, 33.7946168], [132.7868066, 33.7949116], [132.7866036, 33.7953125], [132.7864183, 33.795723], [132.7863809, 33.7958041], [132.7862051, 33.7961848], [132.7860759, 33.7964495], [132.7860195, 33.7965785], [132.7859189, 33.7968086], [132.7856254, 33.7974491], [132.7854664, 33.7977871], [132.7845269, 33.7998254], [132.7845132, 33.7998551], [132.7842384, 33.8004516], [132.784125, 33.8006977], [132.7838798, 33.8012286], [132.7838174, 33.801366], [132.7838032, 33.8014437], [132.7837164, 33.8015998], [132.7835886, 33.8018648], [132.7835096, 33.8020411], [132.7834316, 33.8022113], [132.7832827, 33.8025539], [132.783247, 33.802636], [132.7832105, 33.8027136], [132.7831493, 33.802826], [132.783107, 33.8029082], [132.7830942, 33.8029368], [132.782716, 33.8037589], [132.7822784, 33.8047374], [132.7821431, 33.80503], [132.7818339, 33.8057111], [132.781448, 33.8065333], [132.7813206, 33.806817], [132.7807989, 33.8079625], [132.7804832, 33.8086273], [132.7803698, 33.8088812], [132.7802018, 33.8092647], [132.7799839, 33.8097174], [132.7795815, 33.8105786], [132.7795198, 33.8107106], [132.7792817, 33.8112483], [132.7791494, 33.8115471], [132.7790277, 33.8118013], [132.7787887, 33.8123182], [132.7785394, 33.8128575], [132.7783327, 33.8132914], [132.7781408, 33.8136944], [132.7779081, 33.814223], [132.7776962, 33.814661], [132.7775577, 33.8149624], [132.7773853, 33.8153817], [132.7772959, 33.8156316], [132.7772229, 33.8159029], [132.7771777, 33.8161629], [132.7771594, 33.816517], [132.7771571, 33.8166503], [132.7771412, 33.8175857], [132.7771413, 33.817634]], [[132.7872265, 33.7792221], [132.7873028, 33.7807366]], [[132.7873967, 33.7807396], [132.7873232, 33.7794035], [132.7873069, 33.7791579], [132.7873074, 33.7789096]], [[132.7872265, 33.7792221], [132.7872178, 33.7790091], [132.7872136, 33.7788032], [132.7872129, 33.778767], [132.7872064, 33.7774595], [132.7872159, 33.7772314], [132.7872963, 33.7757727], [132.7873239, 33.7752777], [132.7873727, 33.7744255], [132.7874139, 33.7736866], [132.7874204, 33.7735485], [132.7874363, 33.7733329], [132.7874585, 33.7729216], [132.7875667, 33.7721678], [132.7876344, 33.7718578], [132.7877328, 33.7714425], [132.7878583, 33.7709614], [132.7880108, 33.7702122], [132.7880484, 33.7700137], [132.7880828, 33.7697922], [132.7881238, 33.7694211], [132.7881632, 33.768592], [132.7881817, 33.7680997], [132.7882104, 33.7674666], [132.7882197, 33.7672299], [132.7882562, 33.7666587], [132.7883026, 33.7662737], [132.7883501, 33.7659823], [132.7884179, 33.7656275], [132.7884653, 33.7654138], [132.7887859, 33.7639383], [132.7888738, 33.7635322], [132.7889316, 33.7631554], [132.7889552, 33.7630015], [132.7889878, 33.7623896], [132.7889927, 33.7615175], [132.7889876, 33.7610956], [132.7889837, 33.7609009], [132.7890204, 33.7603319], [132.7890745, 33.7599188], [132.7891116, 33.7597336], [132.7895056, 33.7583933], [132.7896685, 33.7575648], [132.7897206, 33.7572723], [132.7897434, 33.7569883], [132.7897659, 33.7567099], [132.789828, 33.7559375], [132.7899182, 33.7553405], [132.7899492, 33.7550382], [132.7899778, 33.7547596], [132.7900431, 33.7543265], [132.7900709, 33.753982], [132.79015, 33.753359], [132.7902469, 33.7525699], [132.7902983, 33.7522642], [132.7904446, 33.7516872], [132.7908325, 33.7503009], [132.7909816, 33.7497827], [132.7912518, 33.7488438], [132.7919158, 33.7465468], [132.7920855, 33.7459168], [132.7923412, 33.7449679], [132.7925153, 33.7444289], [132.7926849, 33.7440839], [132.7929125, 33.7436571], [132.7931687, 33.7433117], [132.7934736, 33.7429572], [132.7938867, 33.7426008], [132.794187, 33.7423735], [132.7945723, 33.7421342]], [[132.7946245, 33.7422445], [132.7948918, 33.7421067], [132.7951491, 33.7419615], [132.7952711, 33.741889], [132.7953695, 33.7418106], [132.7955112, 33.7416738], [132.7956332, 33.7415177], [132.7956828, 33.7414184], [132.7957137, 33.7413337], [132.795744, 33.7411471], [132.7956533, 33.7413158], [132.7956144, 33.7413872], [132.7955595, 33.7414675], [132.7954388, 33.7416113], [132.7952879, 33.7417452], [132.7951471, 33.7418316], [132.794805, 33.7420265], [132.7945723, 33.7421342]], [[132.7899648, 33.7559429], [132.789876, 33.7567145], [132.789828, 33.7571315], [132.7898097, 33.7572669], [132.7897727, 33.7575404], [132.7897174, 33.757821], [132.7896025, 33.7583937], [132.7891995, 33.7597796], [132.789173, 33.7598989], [132.7891181, 33.7603509], [132.7890749, 33.7609036], [132.7890792, 33.761148]], [[132.7890874, 33.7616045], [132.7890888, 33.762349], [132.7890497, 33.7629799], [132.7890245, 33.7631551], [132.7889715, 33.7635241], [132.7888966, 33.7638706], [132.7885851, 33.7654493], [132.7885361, 33.765649], [132.7884575, 33.7660089], [132.7884017, 33.7662857], [132.7883856, 33.7663691], [132.7883482, 33.7666656], [132.7883169, 33.7672369], [132.7883119, 33.7674761], [132.788277, 33.7681079], [132.788262, 33.7685965], [132.7882143, 33.769466], [132.7881455, 33.7700154], [132.7881079, 33.7702327], [132.7879546, 33.7709669], [132.7878322, 33.7714525], [132.787722, 33.7718814], [132.7876603, 33.7722013], [132.7875592, 33.7729335], [132.7875105, 33.7737144], [132.7874733, 33.7744452], [132.787425, 33.7752971], [132.7873998, 33.7757865], [132.7873691, 33.7762641], [132.7873345, 33.7768686], [132.7873117, 33.7772661], [132.7873072, 33.7774628], [132.7873091, 33.778769], [132.7873074, 33.7789096]], [[132.7890874, 33.7616045], [132.7890792, 33.761148]], [[132.7899648, 33.7559429], [132.7900853, 33.7547677], [132.7901392, 33.7543306], [132.7901544, 33.7541346], [132.7901658, 33.7539886], [132.7901836, 33.7538468], [132.7902514, 33.7533056], [132.7903437, 33.7525683], [132.7903912, 33.752279], [132.7905414, 33.7517053], [132.79094, 33.7503172], [132.7911233, 33.7496848], [132.7913815, 33.7487939], [132.7918366, 33.7471837], [132.7920118, 33.7465637], [132.7922041, 33.7459081], [132.7924801, 33.7449675], [132.7926401, 33.7444569], [132.7930045, 33.743759], [132.7932991, 33.7433815], [132.7935774, 33.7430307], [132.7938071, 33.7428158], [132.7941363, 33.7425476], [132.7946245, 33.7422445]], [[132.795744, 33.7411471], [132.7957848, 33.7409991], [132.7958349, 33.7408191], [132.7958857, 33.7407002], [132.7959482, 33.7405958], [132.7960603, 33.7404789], [132.7962714, 33.7402727], [132.7966937, 33.73989], [132.7976718, 33.7389985], [132.7978182, 33.7388787], [132.7979839, 33.7387953], [132.798109, 33.7387687], [132.798232, 33.7387681], [132.7983356, 33.7387876], [132.7984494, 33.7388247], [132.7986726, 33.7389367], [132.799012, 33.739124], [132.7992059, 33.7392403], [132.799328, 33.7393385], [132.7994537, 33.7394525], [132.7995311, 33.7395608], [132.7996352, 33.7397268], [132.7997468, 33.7399642], [132.8000124, 33.7405873], [132.8000606, 33.740653], [132.8001323, 33.7407088], [132.8001984, 33.7407422], [132.8002704, 33.7407645], [132.8003528, 33.7407688], [132.8004324, 33.7407544], [132.8004968, 33.7407321], [132.8005642, 33.7406834], [132.8006117, 33.7406183], [132.8006303, 33.7406004], [132.8006728, 33.7405062], [132.8007042, 33.7403558], [132.8007564, 33.7400233], [132.800805, 33.7398864], [132.8008723, 33.7397806], [132.8009409, 33.7397077], [132.8010285, 33.7396553], [132.8011458, 33.7396064], [132.8012882, 33.739579], [132.8015985, 33.7395705], [132.8021259, 33.7395632], [132.8022737, 33.7395425], [132.8024107, 33.739511], [132.8025266, 33.7394656], [132.8026374, 33.7394093], [132.8027479, 33.7393267], [132.8028311, 33.7392303], [132.8029007, 33.7391133], [132.8029482, 33.7389884], [132.8029694, 33.7388282], [132.8029597, 33.738704], [132.8029236, 33.7385966], [132.8028618, 33.7384798], [132.8027779, 33.7383708], [132.8026844, 33.7382759], [132.8025211, 33.7381553], [132.8021887, 33.7379367], [132.8020831, 33.7378627], [132.8019807, 33.7377727], [132.8019109, 33.7376846], [132.8018229, 33.7375835], [132.8017248, 33.7374893], [132.8015944, 33.7373991], [132.8014122, 33.7372889], [132.8012774, 33.7372385], [132.8010721, 33.7371741], [132.8009607, 33.737113], [132.8008486, 33.7370311], [132.800741, 33.7369364], [132.8006423, 33.7368382], [132.8005849, 33.7367445], [132.800549, 33.73665], [132.8005417, 33.736556], [132.8005521, 33.7364508], [132.8005819, 33.7363586], [132.8006364, 33.7362779], [132.8006972, 33.736217], [132.8007687, 33.736162], [132.8008448, 33.7361166], [132.8009526, 33.7360747], [132.8010915, 33.736053], [132.8012324, 33.7360497], [132.8013758, 33.7360699], [132.8015474, 33.7361225], [132.8025378, 33.7365128], [132.8051382, 33.7374511], [132.8053281, 33.7374962], [132.8055497, 33.7375299], [132.8057444, 33.7375438], [132.8060587, 33.737544], [132.8062574, 33.7375262], [132.8064573, 33.7374895], [132.8066305, 33.7374404], [132.8068825, 33.7373355], [132.8072995, 33.7371192], [132.8077292, 33.7368725], [132.8078391, 33.7367922], [132.8079564, 33.7366912], [132.8080532, 33.736575], [132.8081171, 33.7364537], [132.8081632, 33.7363296], [132.808186, 33.7362039], [132.8081897, 33.7360609], [132.8081657, 33.7359338], [132.8081135, 33.7357841], [132.8080366, 33.7356368], [132.8078895, 33.7353554], [132.8078303, 33.7352011], [132.8077945, 33.7350385], [132.8077957, 33.7348909], [132.807825, 33.7347546], [132.8078889, 33.7346065], [132.8079486, 33.7345184], [132.8080361, 33.7344158], [132.8081232, 33.7343405], [132.8082155, 33.7342762], [132.808352, 33.7342057], [132.8084811, 33.7341569], [132.8086003, 33.7341252], [132.8087117, 33.7341069], [132.8088248, 33.7340994], [132.8089638, 33.7341046], [132.8090926, 33.7341216], [132.8092039, 33.7341497], [132.8093168, 33.7341887], [132.8096838, 33.7343538], [132.810443, 33.7347615], [132.811179, 33.7351332], [132.8116694, 33.7353972], [132.8119719, 33.7355645], [132.8122122, 33.7357161], [132.8124091, 33.7358847], [132.813501, 33.7367526], [132.8136967, 33.7369292], [132.813757, 33.7370213], [132.8137924, 33.7371257], [132.8137954, 33.7372321], [132.8137559, 33.7373455], [132.8137239, 33.73744], [132.8132923, 33.738295], [132.8131234, 33.7385914], [132.8130287, 33.7387118], [132.8129407, 33.7388047], [132.8128044, 33.7388853], [132.8127053, 33.738917], [132.812577, 33.7389329], [132.8124297, 33.7389405], [132.8121856, 33.7389], [132.8117841, 33.7388211], [132.811342, 33.7387119], [132.811228, 33.7386613], [132.8111301, 33.7386079], [132.8110653, 33.7385625], [132.8110066, 33.7384914], [132.8109567, 33.7383728], [132.8109446, 33.7383103], [132.8109422, 33.7381999], [132.8109738, 33.7380625], [132.8110972, 33.7377586], [132.8111676, 33.7375612], [132.8112101, 33.737409], [132.8112128, 33.7372307], [132.8112412, 33.7368366], [132.8112653, 33.736697], [132.8113062, 33.7365937], [132.8113461, 33.7365168], [132.8114312, 33.7364335], [132.8115171, 33.7363697], [132.8116718, 33.7362911], [132.8118273, 33.7362581], [132.8120428, 33.7362512], [132.812305, 33.7362726], [132.8125142, 33.7362897], [132.8126525, 33.736293], [132.8127909, 33.7362811], [132.8129122, 33.736257], [132.813023, 33.7362217], [132.8130984, 33.7361841], [132.8131955, 33.7361131], [132.8132864, 33.7360212], [132.8135753, 33.7356997], [132.8137066, 33.7355755], [132.8138446, 33.7354696], [132.8140204, 33.7353863], [132.8144391, 33.7352199], [132.8145454, 33.7351682], [132.8146614, 33.7351084], [132.8147571, 33.7350471], [132.8149636, 33.7348804], [132.8151932, 33.7346745], [132.8154142, 33.7344998], [132.8155636, 33.7343986], [132.8157414, 33.7342776], [132.8159797, 33.7341885], [132.8162208, 33.7341093], [132.8165647, 33.7340285], [132.8168143, 33.7339489], [132.8169745, 33.7338798], [132.8171446, 33.7337716], [132.8176295, 33.7334465], [132.8178835, 33.7332804], [132.8181549, 33.7330794], [132.818299, 33.7329623], [132.8184285, 33.7328106], [132.8185069, 33.7326502], [132.8185364, 33.7325553], [132.8185547, 33.7324393], [132.818554, 33.7322186], [132.8185447, 33.7319401], [132.8185546, 33.7317964], [132.8185794, 33.7316476], [132.8186263, 33.731421], [132.8186585, 33.7312127], [132.8186576, 33.7309827], [132.8186184, 33.730791], [132.8185576, 33.7306115], [132.8184275, 33.7303172], [132.8179673, 33.7292839], [132.8179272, 33.7291464], [132.8179043, 33.7289794], [132.8179086, 33.7288205], [132.8180778, 33.7283775], [132.8181083, 33.7281665], [132.8181101, 33.7278583], [132.8180616, 33.72729], [132.8180563, 33.7269006], [132.8180993, 33.7266516], [132.8182668, 33.7260698], [132.8184385, 33.7256928], [132.8185164, 33.7255459], [132.818617, 33.7254064], [132.8188472, 33.7251899], [132.8190168, 33.7250451], [132.8200003, 33.7244122], [132.8202147, 33.724303], [132.8204616, 33.724242], [132.8207736, 33.7242166], [132.8214585, 33.7241913], [132.8217172, 33.7241533], [132.8219084, 33.7240761], [132.8224126, 33.723568], [132.8225978, 33.7234117], [132.8229374, 33.7232779], [132.8238163, 33.723217], [132.8241265, 33.7231944], [132.8242994, 33.7231791], [132.8244305, 33.7231688], [132.8245528, 33.7231483], [132.8246689, 33.7231075], [132.8247862, 33.7230324], [132.8249122, 33.7229153], [132.8251117, 33.7227041], [132.8253161, 33.7224995], [132.8254483, 33.7223853], [132.8255358, 33.722333], [132.8256344, 33.7222901], [132.8257464, 33.722246], [132.8258661, 33.722216], [132.8260267, 33.7221869], [132.8262109, 33.7221589], [132.8262965, 33.7221426], [132.8263485, 33.7221389], [132.8264717, 33.722108], [132.8265898, 33.7220771], [132.8266716, 33.7220479], [132.8267616, 33.7220129], [132.8268772, 33.721944], [132.8270549, 33.7218089], [132.8272006, 33.7216616], [132.8273724, 33.7214546], [132.8274717, 33.7213384], [132.8275718, 33.7212425], [132.8276883, 33.7211562], [132.8278077, 33.7210881], [132.8279257, 33.7210346], [132.8280697, 33.7209882], [132.8282583, 33.7209599], [132.8284011, 33.7209568], [132.8285573, 33.7209666], [132.8287114, 33.7209939], [132.8288685, 33.7210246], [132.8290141, 33.7210453], [132.8291457, 33.7210543], [132.8292185, 33.7210525], [132.8292898, 33.721046], [132.8293786, 33.721019], [132.8294599, 33.7209822], [132.8295428, 33.7209327], [132.8296584, 33.7208182], [132.8297958, 33.7206589], [132.8305774, 33.7197314], [132.8307113, 33.7195644], [132.8308757, 33.719264], [132.8309346, 33.719117], [132.8309767, 33.7189509], [132.8309997, 33.7187514], [132.8309985, 33.7186643], [132.8309963, 33.718502], [132.8309072, 33.7181642], [132.8307447, 33.7175957], [132.8306781, 33.7174106], [132.8305835, 33.717249], [132.8304877, 33.7171084], [132.8302978, 33.7169432], [132.8301494, 33.7168546], [132.8298982, 33.7167501], [132.8296585, 33.716709], [132.8294683, 33.7166773], [132.8293313, 33.7166267], [132.8292462, 33.7165597], [132.8292043, 33.7165011], [132.8291791, 33.7164352], [132.8291701, 33.7163809], [132.8291739, 33.7162954], [132.8291967, 33.7161862], [132.8292576, 33.7159979], [132.8292671, 33.7158919], [132.8292595, 33.7158175], [132.8292472, 33.7157534], [132.8291834, 33.715607], [132.829035, 33.7154234], [132.828427, 33.7147664], [132.8283131, 33.7146136], [132.8282493, 33.7144536], [132.8282593, 33.7142834], [132.8283085, 33.7141179], [132.8285047, 33.7137105], [132.8285936, 33.7135852], [132.8288694, 33.7133811], [132.8297038, 33.7128601], [132.8301542, 33.712587], [132.8305954, 33.7122916], [132.831221, 33.7117641], [132.8313541, 33.7116157], [132.8314325, 33.7114642], [132.8314514, 33.7113213], [132.8314759, 33.7109994], [132.8315317, 33.7107831], [132.831607, 33.7106712], [132.831694, 33.7105948], [132.8318775, 33.7105105], [132.8320489, 33.7104697], [132.832255, 33.7104546], [132.8324223, 33.7104273], [132.8325433, 33.7103959], [132.8326483, 33.7103512], [132.8327155, 33.710293], [132.8327667, 33.7102214], [132.8327882, 33.7101542], [132.8327874, 33.7100434], [132.8327389, 33.7098961], [132.8326894, 33.709741], [132.8326798, 33.709607], [132.832707, 33.7094826], [132.8329309, 33.7092592], [132.8330879, 33.7091346], [132.8333221, 33.7089956], [132.8335141, 33.7089231], [132.8337117, 33.7088977], [132.8338946, 33.7089156], [132.8341759, 33.7089773], [132.834365, 33.7089636], [132.8346011, 33.7089009], [132.8348289, 33.7087714], [132.834997, 33.7086203], [132.8352612, 33.708309], [132.8353571, 33.7081177], [132.8353894, 33.7079513], [132.8353959, 33.7076935], [132.8354336, 33.7075189], [132.8355305, 33.7073578], [132.8356381, 33.707228], [132.8357961, 33.7070901], [132.8359581, 33.706997], [132.8362467, 33.7069037], [132.8366629, 33.7068364], [132.8371767, 33.7067639], [132.8375591, 33.7066953], [132.8380542, 33.7065386], [132.8384524, 33.7063864], [132.8389213, 33.7061436], [132.8393618, 33.7059477], [132.8396779, 33.7058486], [132.8400277, 33.7057889], [132.8403333, 33.7057747], [132.8409324, 33.7058094], [132.8413617, 33.7058273], [132.8415573, 33.7058134], [132.8418909, 33.7057284], [132.8423515, 33.7055431], [132.8436168, 33.7049598], [132.8439203, 33.7047659], [132.8439976, 33.7046786], [132.8440379, 33.7046092], [132.8440433, 33.7045063], [132.8439979, 33.7044216], [132.8439393, 33.7043725], [132.8438668, 33.7043419], [132.8437752, 33.7043323], [132.843681, 33.7043524], [132.8435679, 33.7043903], [132.8434464, 33.7044627], [132.8428457, 33.7049247], [132.8423984, 33.7051668], [132.8419733, 33.7053287], [132.8416002, 33.7054451], [132.8412696, 33.7055048], [132.8410624, 33.7055126], [132.8408826, 33.7054722], [132.8407331, 33.7053863], [132.8406363, 33.7053076], [132.8405728, 33.7052221], [132.8405221, 33.7051011], [132.8405069, 33.7049682], [132.8405031, 33.7048447], [132.8405348, 33.7047246], [132.8406096, 33.7046263], [132.8406933, 33.7045503], [132.8408525, 33.7044451], [132.8431916, 33.7032977], [132.8433682, 33.7032525], [132.8436198, 33.7032355], [132.8438553, 33.7032588], [132.844044, 33.7033172], [132.844445, 33.7034709], [132.8446048, 33.7035184], [132.8447647, 33.7035501], [132.8449874, 33.7035698], [132.845187, 33.7036039], [132.8454229, 33.7036767], [132.8458957, 33.7038726], [132.846222, 33.7040375], [132.846416, 33.7041262], [132.8465987, 33.70418], [132.8467775, 33.7041863], [132.8469259, 33.7041673], [132.8470933, 33.7040945], [132.8472696, 33.7039697], [132.8483553, 33.7030914], [132.8485851, 33.7028767], [132.8488626, 33.7026827], [132.8490853, 33.702604], [132.8493014, 33.7025961], [132.8495079, 33.7026499], [132.8496876, 33.7027396], [132.8497961, 33.7028752], [132.8498916, 33.7030834], [132.8500109, 33.7034001], [132.8501595, 33.703536], [132.8503161, 33.7036292], [132.8504988, 33.7036735], [132.8507461, 33.703664], [132.8513385, 33.7035599], [132.8518925, 33.7034582], [132.8521427, 33.7034668], [132.8524536, 33.7035523], [132.8525989, 33.7036472], [132.852964, 33.7038742], [132.8533038, 33.704255], [132.8534738, 33.7043928], [132.8536341, 33.7044716], [132.853774, 33.7044948], [132.8541778, 33.7044532], [132.8544228, 33.7044401], [132.8546298, 33.7044801], [132.8548774, 33.7045965], [132.8550997, 33.7048105], [132.8554483, 33.7049976], [132.8556987, 33.7050888], [132.8560832, 33.7052209], [132.8562887, 33.7053791], [132.8564225, 33.7055368], [132.856555, 33.7057273], [132.8566768, 33.705835], [132.8570649, 33.7059996], [132.8575443, 33.7061325], [132.8579096, 33.7062528], [132.8581835, 33.706449], [132.8584815, 33.706921], [132.8586477, 33.7071489], [132.8588738, 33.7073724], [132.859141, 33.7075439], [132.8594696, 33.7076329], [132.8598425, 33.7076329], [132.8601774, 33.7076455], [132.8604646, 33.7077044], [132.8611899, 33.7080073], [132.862045, 33.7083668], [132.8622675, 33.7084211], [132.8624701, 33.708443], [132.8627419, 33.7084052], [132.86304, 33.7082821], [132.863217, 33.7081736], [132.8638296, 33.7078544], [132.8644224, 33.7074749], [132.8654529, 33.7068529], [132.8659112, 33.7066102], [132.8663947, 33.7063034], [132.866726, 33.7061361], [132.8671177, 33.7059869], [132.8675222, 33.7059257], [132.8688085, 33.7058476], [132.8698156, 33.7058144], [132.870068, 33.7057722], [132.8703203, 33.7057271], [132.8705556, 33.7056139], [132.8707865, 33.7054595], [132.871351, 33.7049532], [132.8716456, 33.7048094], [132.8719728, 33.7047144], [132.8723945, 33.7046554], [132.8737419, 33.7045212], [132.873981, 33.7044709], [132.8741873, 33.7043662], [132.8744686, 33.7041915], [132.8746972, 33.7041003], [132.8750193, 33.7040379], [132.875998, 33.7039674], [132.8761211, 33.7039481], [132.8762477, 33.7039089], [132.8763363, 33.703864], [132.8764118, 33.7038017], [132.8764639, 33.7037256], [132.8765154, 33.7036074], [132.8765275, 33.7034738], [132.8765377, 33.7030787], [132.876565, 33.7029275], [132.8765986, 33.7028126], [132.8766595, 33.702688], [132.8767312, 33.7025767], [132.8768068, 33.7024795], [132.8769107, 33.7023832], [132.8770251, 33.7022872], [132.877245, 33.702144], [132.8773635, 33.7020642], [132.8774573, 33.7019868], [132.8775308, 33.701908], [132.8775951, 33.7018318], [132.877667, 33.7017045], [132.8777088, 33.701584], [132.8777287, 33.7014753], [132.8777348, 33.7013547], [132.8777328, 33.7012614], [132.8777154, 33.701168], [132.8776797, 33.7010764], [132.8776235, 33.7009725], [132.8775565, 33.7008821], [132.8774492, 33.7007845], [132.8773553, 33.7007183], [132.8772003, 33.7006301], [132.8770575, 33.7005605], [132.8769248, 33.7005063], [132.8766893, 33.7004299], [132.8765537, 33.700384], [132.8764275, 33.7003328], [132.8763191, 33.7002754], [132.8762318, 33.7002125], [132.8761457, 33.7001345], [132.8760644, 33.7000425], [132.8759927, 33.6999394], [132.8759379, 33.699823], [132.8758454, 33.6995326], [132.8758011, 33.6993667], [132.875784, 33.6992107], [132.8757867, 33.6990789], [132.8758158, 33.6989727], [132.8758667, 33.698837], [132.8759335, 33.6987242], [132.8760148, 33.6986204], [132.8761375, 33.6985053], [132.8762543, 33.6984284], [132.8764279, 33.6983387], [132.8767241, 33.6981811], [132.8769005, 33.6980725], [132.8770581, 33.6979504], [132.8771657, 33.6978519], [132.8772454, 33.6977609], [132.8773218, 33.6976526], [132.8774335, 33.6974641], [132.8775312, 33.6972521], [132.877849, 33.6965462], [132.8783319, 33.6954781], [132.8787908, 33.6944487], [132.8789652, 33.6940545], [132.8791179, 33.6937174], [132.8791968, 33.6935118], [132.8792578, 33.6933069], [132.8792856, 33.6930887], [132.8792983, 33.6928709], [132.8792899, 33.6928011], [132.8792069, 33.6921436], [132.8791967, 33.6919469], [132.8792248, 33.6917767], [132.8792946, 33.6916068], [132.8793996, 33.6914665], [132.8795326, 33.691335], [132.8798371, 33.6910791], [132.8800179, 33.6908778], [132.8801296, 33.6907053], [132.8802146, 33.6905067], [132.8804573, 33.6898351], [132.8806301, 33.6893344], [132.8809351, 33.6884565], [132.8810513, 33.6881215], [132.8810795, 33.6880094], [132.8810996, 33.6878985], [132.8811155, 33.6877851], [132.881101, 33.6876444], [132.8810797, 33.6875199], [132.881042, 33.6874119], [132.8809885, 33.6872763], [132.8808127, 33.6869482], [132.8807303, 33.6867729], [132.8806932, 33.6866425], [132.8806642, 33.6865235], [132.8806457, 33.686387], [132.880646, 33.686204], [132.8806618, 33.6860042], [132.8807412, 33.6854834], [132.8807699, 33.6853516], [132.8808259, 33.6852384], [132.8808864, 33.6851533], [132.8809498, 33.6850787], [132.8811118, 33.6849516], [132.8814351, 33.6847243], [132.8818281, 33.684414], [132.8819633, 33.6843068], [132.8820623, 33.6842099], [132.8821321, 33.6841286], [132.8822408, 33.6839778], [132.8834152, 33.6821108], [132.8837441, 33.6815797], [132.8840323, 33.6811197], [132.8845251, 33.6803308], [132.8846147, 33.6801835], [132.8847294, 33.680015], [132.884844, 33.6798618], [132.8849781, 33.6796988], [132.8850934, 33.679561], [132.8853207, 33.6793242], [132.8854841, 33.6791765], [132.8856498, 33.6790211], [132.8868655, 33.6779011], [132.8873666, 33.6774826], [132.8880399, 33.6768692], [132.8880895, 33.6768301], [132.8891487, 33.6758975], [132.8893183, 33.6757344], [132.889407, 33.6756211], [132.8894856, 33.6754564], [132.8895264, 33.6753078], [132.8895347, 33.6751495], [132.889518, 33.6749704], [132.8895053, 33.6747834], [132.8895143, 33.6746404], [132.8895446, 33.6745121], [132.8898992, 33.673933], [132.8900636, 33.6736996], [132.8906524, 33.6728226], [132.8908983, 33.672459], [132.8910467, 33.6722855], [132.8911884, 33.6721725], [132.8913338, 33.672083], [132.8934347, 33.6712307], [132.8936603, 33.6711224], [132.8938042, 33.671029], [132.8939222, 33.6709078], [132.8941175, 33.6706338], [132.894675, 33.6698034], [132.8947307, 33.6696893], [132.8947733, 33.6695527], [132.8948053, 33.6694107], [132.8948151, 33.6692022], [132.894813, 33.6689458], [132.8947763, 33.6683034], [132.8948022, 33.6681304], [132.8948219, 33.6680264], [132.8948535, 33.6679355], [132.8949049, 33.6678256], [132.8949993, 33.6676754], [132.8952575, 33.6673494], [132.8960881, 33.6664983], [132.8965593, 33.6659934], [132.8968506, 33.6656688], [132.8969271, 33.6655793], [132.8970054, 33.6654626], [132.897057, 33.6653895], [132.8971091, 33.6652986], [132.8971672, 33.6651465], [132.8972106, 33.6650376], [132.8972315, 33.6649852], [132.897273, 33.6648381], [132.8975331, 33.6639039], [132.8976293, 33.6636197], [132.8977344, 33.6633609], [132.8978846, 33.6630491], [132.8979755, 33.662901], [132.8981417, 33.6626302], [132.8985456, 33.6619489], [132.8990396, 33.6611414], [132.8991123, 33.6610019], [132.8994688, 33.660445], [132.8995856, 33.6602359], [132.8997163, 33.6599922], [132.8997998, 33.659812], [132.8998823, 33.6595998], [132.9000803, 33.6590152], [132.9006528, 33.6573012], [132.9008656, 33.6566769], [132.9012182, 33.6556428], [132.9013985, 33.6551106], [132.9014126, 33.6550744], [132.9015179, 33.6548004], [132.9015424, 33.6547151], [132.9019065, 33.653614], [132.9019924, 33.6533516], [132.9021394, 33.6529134], [132.9025611, 33.6516681], [132.9025933, 33.6515587], [132.9026783, 33.6513046], [132.9028505, 33.6508019], [132.9029363, 33.6505552], [132.9030369, 33.6503286], [132.9031724, 33.650064], [132.9032609, 33.6499256], [132.9034031, 33.6497232], [132.9039138, 33.6491277], [132.9043619, 33.6486361], [132.904826, 33.6481114], [132.9057328, 33.647086], [132.9064927, 33.6462332], [132.9075712, 33.6450245], [132.9079125, 33.6446222], [132.9080781, 33.6443803], [132.9081707, 33.6442061], [132.9082391, 33.6440409], [132.9083075, 33.6438745], [132.9083669, 33.6436779], [132.9084081, 33.6433835], [132.9085583, 33.6422523], [132.9086199, 33.641929], [132.9087214, 33.6416024], [132.9088197, 33.6413792], [132.9089405, 33.6411481], [132.9090182, 33.6410258], [132.909091, 33.6409225], [132.909198, 33.6407685], [132.9093334, 33.640601], [132.9094688, 33.6404513], [132.9096338, 33.6402873], [132.9100377, 33.6399409], [132.9105187, 33.6395447], [132.9109245, 33.6392241], [132.9112445, 33.6390368], [132.9117161, 33.6388012], [132.9119687, 33.6386583], [132.9123174, 33.6384204], [132.912544, 33.6382027], [132.9127888, 33.6378331], [132.9128632, 33.6376679], [132.9129199, 33.6374857], [132.912953, 33.6371967], [132.9129845, 33.6368942], [132.9129906, 33.6367445], [132.9129826, 33.6366038], [132.9129557, 33.6364475], [132.9128927, 33.6363102], [132.9127935, 33.6361695], [132.9126521, 33.6360453], [132.9125118, 33.6359517], [132.9123133, 33.6358792], [132.9120883, 33.6358415], [132.9118493, 33.6358312], [132.9110138, 33.6358524], [132.9107818, 33.6358468], [132.9105964, 33.6358167], [132.9104277, 33.6357764], [132.9102722, 33.6357083], [132.9101273, 33.6356168], [132.9098023, 33.6353278], [132.9097344, 33.6352595], [132.9096928, 33.6351802], [132.9096747, 33.6351004], [132.9096774, 33.635027], [132.9096981, 33.6349711], [132.9097297, 33.6348848], [132.9099502, 33.6343743], [132.9103619, 33.6334145], [132.9108266, 33.6323225], [132.9109065, 33.6321609], [132.9109804, 33.6320139], [132.9110768, 33.6318985], [132.9111958, 33.63179], [132.9113156, 33.6317076], [132.9115114, 33.6316082], [132.9116991, 33.6315591], [132.911903, 33.631539], [132.9121311, 33.631549], [132.9124246, 33.6315937], [132.9126593, 33.6316406], [132.9128351, 33.6316517], [132.9130283, 33.6316163], [132.9131944, 33.6315513], [132.913295, 33.631482], [132.9133621, 33.6313826], [132.9134023, 33.6312911], [132.9134213, 33.6311809], [132.9134144, 33.631032], [132.9133089, 33.6305939], [132.9132736, 33.6304235], [132.9132628, 33.630285], [132.9132709, 33.6301487], [132.9133098, 33.6299924], [132.9133517, 33.6298533], [132.913409, 33.6297188], [132.913527, 33.6294999], [132.9136612, 33.6292364], [132.9137966, 33.6290109], [132.9139587, 33.6288161], [132.9140916, 33.6286893], [132.9142271, 33.628572], [132.9143853, 33.6284615], [132.914561, 33.6283487], [132.9148038, 33.6282225], [132.9151336, 33.6280891], [132.9155217, 33.6279462], [132.9158694, 33.6278233], [132.9161379, 33.6276983], [132.9169948, 33.6271937], [132.9170819, 33.6271027], [132.9171453, 33.6269875], [132.917435, 33.6261712], [132.9176657, 33.6255391], [132.9177706, 33.6253625], [132.9178943, 33.625208], [132.9180593, 33.625045], [132.9182833, 33.6248892], [132.9184887, 33.6247457], [132.9186822, 33.6245743], [132.9188003, 33.6244112], [132.9189022, 33.6242069], [132.9190014, 33.6239601], [132.9190642, 33.6236962], [132.9192093, 33.623194], [132.9193528, 33.6225854], [132.919389, 33.6223687], [132.9194064, 33.6221257], [132.9194172, 33.621549], [132.9194327, 33.6209696], [132.9194604, 33.6199877], [132.9194722, 33.6198795], [132.9195004, 33.6197879], [132.9195808, 33.6196449], [132.9196626, 33.61954], [132.9197803, 33.6194329], [132.9199819, 33.6192779], [132.9204275, 33.6189338], [132.9204757, 33.6188961], [132.921013, 33.6184441], [132.9211809, 33.6183037], [132.9213336, 33.6181842], [132.9214653, 33.6180963], [132.9216246, 33.6180334], [132.9217722, 33.6179954], [132.9219331, 33.6179776], [132.9221155, 33.6179676], [132.9223193, 33.6179653], [132.9225506, 33.6179718], [132.9230529, 33.6179809], [132.9236497, 33.61799], [132.9245912, 33.6179999], [132.9250565, 33.6180111], [132.9254428, 33.6180323], [132.925656, 33.6180513], [132.9258849, 33.6180871], [132.9260704, 33.6181406], [132.9263226, 33.6182266], [132.9265223, 33.6183193], [132.9267346, 33.6184364], [132.9269848, 33.6186035], [132.9272304, 33.618756], [132.9274464, 33.6188542], [132.927606, 33.6189257], [132.9277668, 33.6189705], [132.9279667, 33.6190128], [132.928188, 33.6190497], [132.9284146, 33.6190665], [132.9286332, 33.6190653], [132.9288773, 33.6190531], [132.9291118, 33.6190101], [132.9293132, 33.6189581], [132.9295626, 33.6188777], [132.9298402, 33.6187716], [132.9301457, 33.6186644], [132.9303606, 33.618603], [132.9305765, 33.6185628], [132.9309989, 33.6184991], [132.9318827, 33.6183807], [132.9336679, 33.6181506], [132.933892, 33.6181177], [132.9349753, 33.6179676], [132.9352409, 33.6179407], [132.9353911, 33.617934], [132.9355521, 33.6179444], [132.9356807, 33.6179742], [132.9358152, 33.6180265], [132.9359516, 33.6181038], [132.9360857, 33.6181976], [132.9361903, 33.618316], [132.9362839, 33.6184859], [132.936643, 33.6193276], [132.9368743, 33.619607], [132.9372171, 33.6198654], [132.9374698, 33.6200559], [132.9378482, 33.6202153], [132.9381323, 33.6202815], [132.9384005, 33.6202614], [132.9386718, 33.6202145], [132.9398462, 33.6197861], [132.9401171, 33.6196204], [132.9403591, 33.619413], [132.9406702, 33.6189595], [132.9407877, 33.6188141], [132.9408628, 33.6186756], [132.9409571, 33.6184526], [132.9410237, 33.6181217], [132.9412107, 33.6172028], [132.9412576, 33.6170632], [132.9413107, 33.6169602], [132.9413939, 33.6168686], [132.9415172, 33.6167971], [132.9416554, 33.6167591], [132.9418289, 33.6167382], [132.9420872, 33.6167658], [132.9423855, 33.6167896], [132.9425566, 33.6167815], [132.9427417, 33.6167524], [132.9430453, 33.6166612], [132.9433143, 33.6165704], [132.9435126, 33.6165443], [132.9436773, 33.616539], [132.9439467, 33.6165502], [132.944239, 33.6165717], [132.944545, 33.6166035], [132.9449336, 33.6166591], [132.9451825, 33.61671], [132.9454225, 33.6167681], [132.9468071, 33.6171525], [132.9472357, 33.6171835], [132.9482474, 33.6170185], [132.9487351, 33.6169267], [132.9491836, 33.616822], [132.9504195, 33.6162097], [132.9508567, 33.6161337], [132.9511928, 33.6161385], [132.9517343, 33.6162234], [132.9523808, 33.6162836], [132.9529113, 33.6162811], [132.9535433, 33.61622], [132.9539606, 33.6161608], [132.9541853, 33.616098], [132.9544589, 33.6159707], [132.9547606, 33.6157913], [132.9549691, 33.6157223], [132.955654, 33.6156176], [132.9567351, 33.6154556], [132.9577318, 33.6153531], [132.9579645, 33.6154011], [132.9581469, 33.615515], [132.9582801, 33.6156609], [132.9590809, 33.6170864], [132.9592844, 33.6175347], [132.9595014, 33.6186868], [132.9597814, 33.6201633], [132.9598233, 33.6203418], [132.9598931, 33.6205294], [132.9599708, 33.6206534], [132.9600865, 33.6207863], [132.9603034, 33.6209895], [132.9606172, 33.621099], [132.9608613, 33.6211303], [132.961177, 33.6211073], [132.9614409, 33.621036], [132.9616982, 33.6209081], [132.9620014, 33.6206311], [132.9628795, 33.6197637], [132.9629802, 33.6196861], [132.963219, 33.6195176], [132.9633504, 33.6194428], [132.963483, 33.6194027], [132.9636294, 33.6193859], [132.9638211, 33.6193981], [132.9639974, 33.6194306], [132.9641752, 33.6195121], [132.9643035, 33.6196083], [132.9643777, 33.6196807], [132.9644345, 33.6197379], [132.964993, 33.6206289], [132.9651368, 33.6207517], [132.9652467, 33.6208176], [132.9653768, 33.6208722], [132.9655242, 33.6209023], [132.9656779, 33.6209069], [132.9658391, 33.6208978], [132.9662137, 33.6208533], [132.9663733, 33.6208064], [132.9665141, 33.620735], [132.9666146, 33.6206322], [132.9666696, 33.6205562], [132.9667365, 33.6204496], [132.9669245, 33.620066], [132.967092, 33.6197102], [132.9671887, 33.6194439], [132.9672349, 33.6192539], [132.9672477, 33.6190933], [132.9672557, 33.6189347], [132.967245, 33.6187694], [132.9672182, 33.6185952], [132.9671779, 33.6184143], [132.9670003, 33.6179734], [132.9668504, 33.6176015], [132.9668153, 33.6173991], [132.9667989, 33.6172263], [132.9668138, 33.6169886], [132.9668543, 33.6168009], [132.9670701, 33.6161559], [132.9671394, 33.6160286], [132.9672009, 33.6159443], [132.9673453, 33.6158204], [132.9675349, 33.615708], [132.9678779, 33.6155576], [132.9680561, 33.6154524], [132.9682136, 33.6153099], [132.9685968, 33.6148929], [132.9686907, 33.6148013], [132.9687918, 33.6147393], [132.9689348, 33.614674], [132.9691225, 33.614626], [132.9695453, 33.6145394], [132.9695766, 33.6145344], [132.9698011, 33.6144987], [132.9701082, 33.6144696], [132.9702826, 33.6144696], [132.9703496, 33.6144696], [132.9705312, 33.6144883], [132.9707859, 33.6145527], [132.9716633, 33.6148136], [132.9718295, 33.6148332], [132.9720233, 33.6148371], [132.9721737, 33.6148304], [132.9724391, 33.6148114], [132.9731884, 33.6147452], [132.9732853, 33.6147299], [132.9734074, 33.6147053], [132.9735307, 33.6146729], [132.9737426, 33.6146092], [132.9739001, 33.6145396], [132.9740417, 33.6144395], [132.9741302, 33.61432], [132.9741812, 33.6142496], [132.9742308, 33.6141904], [132.9743032, 33.6141491], [132.9744373, 33.6140921], [132.9746371, 33.6140251], [132.9747686, 33.6139525], [132.9748963, 33.6138472], [132.9750579, 33.6136779], [132.9751328, 33.6135993], [132.9751903, 33.6135319], [132.9752025, 33.6135176], [132.9760392, 33.612553], [132.976074, 33.6125116], [132.9762036, 33.6124101], [132.9763243, 33.612354], [132.9763921, 33.6123266], [132.9765818, 33.6122806], [132.9768513, 33.6122381], [132.9770793, 33.6122102], [132.9772966, 33.6122102], [132.977538, 33.6122303], [132.9777324, 33.6122717], [132.9779282, 33.6123308], [132.9781421, 33.6124024], [132.9784378, 33.6124984], [132.9787731, 33.6126201], [132.9791191, 33.6127474], [132.9794027, 33.6128825], [132.9796126, 33.6130401], [132.9801445, 33.6135027], [132.9803514, 33.6136136], [132.9805407, 33.6136588], [132.9808089, 33.6136655], [132.9810423, 33.6136074], [132.9812323, 33.6135069], [132.9817635, 33.6128942], [132.9821286, 33.6124772], [132.9825717, 33.6120963], [132.9827133, 33.6118182], [132.9828038, 33.6113766], [132.9829302, 33.6108207], [132.9829175, 33.6106609], [132.9827076, 33.6100081], [132.9825416, 33.6098011], [132.98218, 33.6095459], [132.9820523, 33.6093782], [132.9819966, 33.6090272], [132.9820593, 33.6082109], [132.9819608, 33.6078364], [132.9818249, 33.6075038], [132.9817477, 33.6072523], [132.9817793, 33.6070672], [132.9820333, 33.6067083], [132.9823349, 33.6063455], [132.982897, 33.6058394], [132.98301, 33.6057017], [132.9830472, 33.6055679], [132.9830593, 33.6054339], [132.9829292, 33.6048921], [132.9829211, 33.6047212], [132.98296, 33.6044844], [132.9831381, 33.6041573], [132.9832618, 33.6038723], [132.983408, 33.6036623], [132.9835599, 33.6035327], [132.9837205, 33.6034278], [132.9839645, 33.6032982], [132.9840986, 33.6031642], [132.9841864, 33.6030115], [132.9843521, 33.6026571], [132.9845747, 33.6022773], [132.9848829, 33.6019488], [132.9852399, 33.6016205], [132.985617, 33.601339], [132.9860204, 33.6011491], [132.9868487, 33.6008524], [132.9886521, 33.6005377], [132.9891077, 33.6004074], [132.9894268, 33.6002532], [132.9897122, 33.6000827], [132.9901123, 33.5997861], [132.9904622, 33.5994266], [132.990681, 33.5991861], [132.9909933, 33.5984883], [132.9912564, 33.5978605], [132.9915324, 33.5973132], [132.9917979, 33.5964955], [132.9919989, 33.5957432], [132.9920769, 33.59526], [132.9921895, 33.5949293], [132.9923376, 33.5946013], [132.9927433, 33.5937998], [132.9927945, 33.593583], [132.992732, 33.59313], [132.9926535, 33.5927509], [132.9925747, 33.5924723], [132.9924014, 33.5922505], [132.9919804, 33.5918844], [132.9917791, 33.5917187], [132.9916236, 33.5915254], [132.991576, 33.591362], [132.9914814, 33.5909679], [132.9913929, 33.590577], [132.9911082, 33.5899352], [132.9908246, 33.5892155], [132.9907783, 33.5890094], [132.9907623, 33.5887332], [132.9907512, 33.5885413], [132.9907331, 33.5882287], [132.9908011, 33.5878599], [132.9911951, 33.5870832], [132.9914573, 33.5865953], [132.9917389, 33.5862624], [132.9919191, 33.5858898], [132.9920608, 33.5854491], [132.9921558, 33.5850199], [132.9921547, 33.5847005], [132.992078, 33.5843771], [132.9919589, 33.5839252], [132.9919207, 33.5836018], [132.9919374, 33.5832436], [132.991983, 33.582942], [132.9920709, 33.5826609], [132.9925116, 33.5811319], [132.9925409, 33.5807946], [132.9925731, 33.5806024], [132.9928333, 33.5801019], [132.993078, 33.5793735], [132.9932007, 33.5792281], [132.9935837, 33.5789655], [132.9944127, 33.5783224], [132.9946303, 33.578055], [132.9947323, 33.577798], [132.9947773, 33.5776014], [132.9949415, 33.5767857], [132.99496, 33.5764391], [132.994911, 33.5756598], [132.9948019, 33.5754381], [132.9945865, 33.5750022], [132.9945677, 33.5748302], [132.9945804, 33.5747598], [132.9946703, 33.5746134], [132.9947018, 33.574562], [132.994852, 33.5744123], [132.9952021, 33.5739877], [132.9957381, 33.5734627], [132.9959688, 33.5731297], [132.9962302, 33.5728787], [132.9965481, 33.5727028], [132.9974095, 33.5723463], [132.9979528, 33.5721904], [132.9985137, 33.5719801], [132.9989359, 33.571965], [132.9995978, 33.5720168], [133.0002148, 33.572114], [133.0007434, 33.5721028], [133.0011265, 33.5720426], [133.0014362, 33.5719852], [133.0019232, 33.5718514], [133.0025382, 33.5716719], [133.0027518, 33.5715772], [133.0028513, 33.571505], [133.0029694, 33.5714043], [133.0031067, 33.5712012], [133.0031884, 33.5709906], [133.00324, 33.5707353], [133.0032323, 33.5704548], [133.0031775, 33.5700491], [133.0031279, 33.5696832], [133.0030708, 33.5691823], [133.0030528, 33.5689779], [133.0030793, 33.5688277], [133.0031111, 33.5686994], [133.0032434, 33.5684573], [133.0035433, 33.5679494], [133.0037698, 33.5675627], [133.0038303, 33.5674264], [133.0038596, 33.5672893], [133.0038394, 33.5670813], [133.0037946, 33.5668726], [133.0037726, 33.5666195], [133.0037659, 33.566414], [133.0037991, 33.5661676], [133.003833, 33.5659044], [133.0038915, 33.5655681], [133.003967, 33.5652622], [133.0040717, 33.5649411], [133.0041916, 33.56466], [133.004466, 33.5641209], [133.0047379, 33.5636579], [133.0049783, 33.5633409], [133.0052405, 33.5630057], [133.0053431, 33.5628313], [133.005429, 33.5626526], [133.0054933, 33.5624245], [133.0055521, 33.5621467], [133.0056327, 33.5617397], [133.0058589, 33.5611794], [133.0062173, 33.5605539], [133.0066863, 33.5598623], [133.0067521, 33.5597209], [133.0068089, 33.5595021], [133.0068545, 33.5593345], [133.0068887, 33.5591654], [133.0069095, 33.5590506], [133.0069346, 33.5589652], [133.0069564, 33.5588271], [133.0069747, 33.5586411], [133.0069698, 33.5584785], [133.0069534, 33.5583119], [133.0068176, 33.5579277], [133.0066896, 33.5576458], [133.0063958, 33.5569355], [133.006341, 33.5567848], [133.0064719, 33.5567447], [133.0066597, 33.5567299], [133.0069062, 33.5567345], [133.0071315, 33.5567614], [133.0073091, 33.5568054], [133.007478, 33.5568601], [133.0076089, 33.5569216], [133.0077214, 33.5569757], [133.007853, 33.5570619], [133.0079522, 33.5571372], [133.0080374, 33.55722], [133.0081331, 33.5573175], [133.0082184, 33.5574284], [133.0082945, 33.5575324], [133.0083579, 33.5576498], [133.0084109, 33.5577917], [133.0084521, 33.5579386], [133.0084631, 33.5580193], [133.0084699, 33.5581186], [133.008468, 33.5582519], [133.0084568, 33.5583717], [133.0084414, 33.558461], [133.0084372, 33.5584758], [133.0084189, 33.5585407], [133.0084001, 33.5586089], [133.008369, 33.558685], [133.0083354, 33.5587581], [133.0082962, 33.5588263], [133.0082486, 33.5588964], [133.0082005, 33.5589552], [133.0081523, 33.5590185], [133.0080937, 33.5590842], [133.0080367, 33.5591373], [133.0079857, 33.5591853], [133.0079297, 33.5592293], [133.0078633, 33.559275], [133.0078087, 33.5593127], [133.007741, 33.5593529], [133.007655, 33.5594011], [133.0075559, 33.559448], [133.0074534, 33.5594941], [133.007369, 33.5595221], [133.0072642, 33.5595541], [133.007146, 33.5595819], [133.0069413, 33.5596055], [133.006701, 33.5596156], [133.0065603, 33.5596166], [133.0064375, 33.559611], [133.0059439, 33.5595703], [133.0053893, 33.5594841], [133.0047262, 33.5593334], [133.0042604, 33.5591642], [133.0038357, 33.5589355], [133.0034379, 33.5586811], [133.002964, 33.558303], [133.0026509, 33.5579693], [133.0023846, 33.5576324], [133.0021202, 33.5572476], [133.0017209, 33.5565434], [133.0012393, 33.5555537], [133.0008418, 33.5545445], [133.0003675, 33.5531159], [133.0003577, 33.5530876], [133.0001018, 33.552346], [132.999992, 33.5520277], [132.9996186, 33.5510051], [132.9993342, 33.5500243], [132.9991893, 33.549273], [132.9991053, 33.5483947], [132.999115, 33.547663], [132.9991939, 33.5467726], [132.9993081, 33.5459104], [132.9994962, 33.5450252], [132.9997158, 33.5443098], [132.9999798, 33.5435888], [133.0001235, 33.5432278], [133.0002978, 33.5428813], [133.0004749, 33.5425706], [133.0006579, 33.5422973], [133.0011883, 33.5416451], [133.0017155, 33.5409764], [133.0020815, 33.5405116], [133.0023283, 33.5400855], [133.0025589, 33.5398119], [133.0027033, 33.5395735], [133.0027586, 33.5393635], [133.0027673, 33.5391878], [133.0027736, 33.5389941], [133.0027869, 33.5388818], [133.0028309, 33.5387689], [133.0029157, 33.5386225], [133.0030697, 33.5384627], [133.0031726, 33.5382962], [133.0031812, 33.5382067], [133.0031571, 33.5380994], [133.003113, 33.5379731], [133.0029722, 33.537665], [133.0029318, 33.5375561], [133.0029318, 33.5374152], [133.0029345, 33.5372856], [133.0029381, 33.5371629], [133.0029119, 33.5370293], [133.0028567, 33.5369234], [133.002773, 33.5368363], [133.002626, 33.5367423], [133.0024479, 33.5366447], [133.0022666, 33.5365925], [133.0021486, 33.5365791], [133.0019958, 33.5365807], [133.0018213, 33.5366171], [133.0016363, 33.5366819], [133.0013922, 33.5368228], [133.0005203, 33.5372406], [133.0002773, 33.5373379], [133.0000457, 33.5374264], [132.9998391, 33.5374689], [132.9996407, 33.537489], [132.9994261, 33.5374667], [132.9992475, 33.5374139], [132.9990855, 33.5373348], [132.9989701, 33.5372498], [132.9988253, 33.5371246], [132.9983967, 33.5366214], [132.9981601, 33.536275], [132.998136, 33.5361252], [132.9981601, 33.5359486], [132.9982084, 33.5357943], [132.9983055, 33.5356288], [132.9985276, 33.5352578], [132.9986215, 33.535061], [132.9986772, 33.534872], [132.9987844, 33.5345157], [132.9988677, 33.5342793], [132.998887, 33.5341779], [132.9988655, 33.5340706], [132.998828, 33.5339588], [132.998747, 33.5337875], [132.9987422, 33.5336972], [132.9987663, 33.5336145], [132.9988334, 33.5335452], [132.998957, 33.5334706], [132.9994047, 33.5331921], [132.9995079, 33.5331125], [132.9995576, 33.5330108], [132.999579, 33.5329147], [132.9995512, 33.5328168], [132.999512, 33.5327515], [132.9993816, 33.5326232], [132.9991731, 33.5324224], [132.9988481, 33.5321813], [132.9987542, 33.5321489], [132.9986443, 33.5321299], [132.998494, 33.5321299], [132.9982178, 33.5321165], [132.9981187, 33.5320809], [132.9980019, 33.5320181], [132.9977243, 33.5318102], [132.9973474, 33.5315609], [132.9971972, 33.5314748], [132.9970572, 33.5313996], [132.9969048, 33.5313462], [132.9967654, 33.5313194], [132.9965595, 33.5312929], [132.9964153, 33.5312971], [132.9962772, 33.5313183], [132.9961471, 33.5313418], [132.9960263, 33.5313543], [132.9959352, 33.5313373], [132.9958547, 33.5313049], [132.9957622, 33.5312568], [132.9956931, 33.5312344], [132.9956201, 33.5312289], [132.9955584, 33.5312456], [132.9954775, 33.5313176], [132.9953988, 33.5313664], [132.9953074, 33.5313785], [132.9952097, 33.5313686], [132.9951466, 33.531344], [132.995089, 33.5312993], [132.9950394, 33.5312322], [132.9950085, 33.5311495], [132.9949535, 33.53106], [132.9948878, 33.5309963], [132.9948167, 33.5309438], [132.9947182, 33.530903], [132.9945391, 33.5308572], [132.9944191, 33.5308068], [132.9943246, 33.5307376], [132.9942652, 33.5306577], [132.9942233, 33.5305782], [132.9941408, 33.5303228], [132.9939917, 33.5298857], [132.993823, 33.5293843], [132.9937901, 33.5293136], [132.9937392, 33.5292512], [132.9936835, 33.5291987], [132.9936097, 33.5291613], [132.99353, 33.5291333], [132.9934341, 33.5291093], [132.9933348, 33.5291048], [132.9932155, 33.5291255], [132.9931216, 33.5291437], [132.9930478, 33.5291534], [132.9929607, 33.5291568], [132.9928742, 33.5291467], [132.992785, 33.5291176], [132.9927072, 33.5290752], [132.9926561, 33.5290238], [132.9926133, 33.5289645], [132.9925878, 33.5288991], [132.992573, 33.5288202], [132.9925543, 33.5286068], [132.9925389, 33.5285352], [132.9925107, 33.5284603], [132.9924738, 33.528401], [132.9924162, 33.528339], [132.9923544, 33.5282929], [132.9922653, 33.5282406], [132.9919984, 33.528093], [132.9918032, 33.5280027], [132.9916906, 33.5279706], [132.9915062, 33.5279259], [132.9914264, 33.5279013], [132.99135, 33.5278666], [132.9912722, 33.5278225], [132.9912139, 33.5277548], [132.9911354, 33.5276436], [132.9910529, 33.5275212], [132.9910045, 33.527466], [132.9909457, 33.5274139], [132.9908846, 33.5273753], [132.9907894, 33.5273412], [132.9906931, 33.5273211], [132.9905746, 33.5273152], [132.9900686, 33.5273132], [132.9897078, 33.527316], [132.9895925, 33.5273244], [132.9894987, 33.527339], [132.9893947, 33.5273675], [132.9893115, 33.5274049], [132.9892129, 33.5274709], [132.9891392, 33.5275279], [132.9890341, 33.5276409], [132.9887784, 33.5279276], [132.9884809, 33.5282926], [132.9884358, 33.528344], [132.9883788, 33.5283815], [132.9883218, 33.5284139], [132.9882427, 33.5284368], [132.9881608, 33.5284513], [132.9880723, 33.5284567], [132.9876888, 33.5284664], [132.9875788, 33.5284866], [132.987493, 33.5285128], [132.9873841, 33.5285632], [132.9871537, 33.5287224], [132.9870806, 33.5287834], [132.9870437, 33.5288387], [132.9870048, 33.5289063], [132.9869639, 33.52896], [132.9868801, 33.5290204], [132.9867983, 33.5290668], [132.9867299, 33.5291093], [132.9866843, 33.5291551], [132.9866481, 33.5292356], [132.9866186, 33.5293373], [132.986577, 33.5294245], [132.9865234, 33.529524], [132.9864522, 33.5295968], [132.986345, 33.5296582], [132.9862458, 33.5296973], [132.9861318, 33.5297197], [132.9860314, 33.5297586], [132.9859762, 33.5298069], [132.9859547, 33.5298568], [132.9859489, 33.529935], [132.9859976, 33.5300651], [132.9860312, 33.5301411], [132.9861049, 33.530225], [132.9861344, 33.5302797], [132.9861385, 33.5303491], [132.9861032, 33.5304147], [132.9860406, 33.5304564], [132.9859708, 33.5304888], [132.9858837, 33.5304989], [132.9858166, 33.530491], [132.9857242, 33.5304652], [132.9851418, 33.5302905], [132.9849502, 33.5302607], [132.98394, 33.5301453], [132.9828644, 33.5300152], [132.982669, 33.5300003], [132.9824813, 33.5299969], [132.9822882, 33.5300215], [132.9820776, 33.5300506], [132.9819301, 33.5300651], [132.9817812, 33.530064], [132.9816254, 33.5300451], [132.9814808, 33.5300193], [132.9813226, 33.5299656], [132.9811092, 33.5298914], [132.9809296, 33.5298393], [132.9807606, 33.5298046], [132.9805849, 33.5297979], [132.9804129, 33.5298131], [132.9802269, 33.5298527], [132.979883, 33.5299258], [132.9796958, 33.5299846], [132.9795657, 33.5300461], [132.9794638, 33.5301109], [132.9793605, 33.530187], [132.9793029, 33.5302104], [132.9792277, 33.5302152], [132.9791526, 33.5302071], [132.9790775, 33.5301825], [132.9788214, 33.5300226], [132.9787195, 33.5299712], [132.9786189, 33.5299488], [132.978525, 33.5299455], [132.9784104, 33.5299593], [132.9782609, 33.53], [132.9780821, 33.5300642], [132.9779309, 33.5301176], [132.9777646, 33.5301948], [132.9776573, 33.5302551], [132.9775313, 33.5303423], [132.9769479, 33.5307996], [132.9768325, 33.5309002], [132.97674, 33.531012], [132.9766394, 33.5311484], [132.9765576, 33.5312579], [132.976482, 33.5313235], [132.9763886, 33.5313608], [132.9762894, 33.5313753], [132.9761901, 33.5313697], [132.9761058, 33.5313468], [132.9760091, 33.5312881], [132.9758736, 33.5311964], [132.9757583, 33.5311227], [132.9756391, 33.5310838], [132.9755357, 33.5310802], [132.9754311, 33.5310891], [132.9752219, 33.5311092], [132.9751167, 33.5311058], [132.9750153, 33.531088], [132.9748853, 33.5310433], [132.9745607, 33.5309103], [132.9739643, 33.5306216], [132.9738486, 33.5305961], [132.973737, 33.530584], [132.9736273, 33.5305916], [132.9735321, 33.5306151], [132.9734127, 33.5306654], [132.9733336, 33.5306779], [132.9732625, 33.5306721], [132.9731914, 33.5306375], [132.9731485, 33.5305916], [132.9730976, 33.5305145], [132.9730399, 33.5304575], [132.972962, 33.530424], [132.9728749, 33.5304195], [132.9726163, 33.5304656], [132.9721039, 33.5305048], [132.9714315, 33.5305899], [132.9712555, 33.530632], [132.9711033, 33.5306911], [132.9709974, 33.5307549], [132.9708874, 33.5308287], [132.9707702, 33.5309445], [132.9706661, 33.5310175], [132.9705109, 33.5310487]], [[132.9632292, 33.5174134], [132.9633021, 33.5175544], [132.9634054, 33.5176909], [132.9635449, 33.5178295], [132.9636843, 33.5179458], [132.9638198, 33.5180576], [132.9639646, 33.5182041], [132.9640599, 33.5183271], [132.9641323, 33.5184485], [132.9641873, 33.5185831], [132.9642208, 33.5187374], [132.9642329, 33.5188615], [132.9642154, 33.5190068], [132.9641876, 33.5191236], [132.9641578, 33.5192349], [132.9641028, 33.5193781], [132.9640692, 33.5194675], [132.9640451, 33.5195815], [132.9640277, 33.5197012], [132.9640317, 33.5198208], [132.9640478, 33.5199214], [132.9640959, 33.5200703], [132.9641725, 33.520258], [132.9642342, 33.5203664], [132.9643227, 33.5204738], [132.9644488, 33.5206314], [132.9645575, 33.5207802], [132.9646473, 33.5208617], [132.9648001, 33.5209635], [132.9649463, 33.521035], [132.965055, 33.5211077], [132.9651636, 33.5212184], [132.9652521, 33.5213727], [132.9653379, 33.5214957], [132.9654935, 33.5216544], [132.9656306, 33.5217867], [132.9656947, 33.5218423], [132.9657309, 33.5218792], [132.9657429, 33.5219272], [132.9657148, 33.5219686], [132.9656437, 33.5220156], [132.9653964, 33.5221989], [132.9653688, 33.5222481], [132.9653782, 33.522304], [132.9654305, 33.5223599], [132.9655257, 33.522389], [132.9656182, 33.5224181], [132.9656544, 33.5224426], [132.9656798, 33.5225006], [132.965688, 33.5225612], [132.9656491, 33.522635], [132.9655968, 33.5226931], [132.9655623, 33.5227539], [132.9655458, 33.5228295], [132.9655498, 33.5229066], [132.9655753, 33.522967], [132.9655954, 33.5230274], [132.9655766, 33.5230777], [132.9655646, 33.5231135], [132.9655673, 33.5231615], [132.9655941, 33.5232074], [132.9655964, 33.5232752], [132.9655834, 33.5233248], [132.9655418, 33.5233896], [132.9654894, 33.5234302], [132.9654264, 33.5234701], [132.9653153, 33.5235227], [132.9651341, 33.5236099], [132.9650877, 33.5236426], [132.9650643, 33.5236971], [132.9650613, 33.5237579], [132.9650724, 33.5238055], [132.965122, 33.523867], [132.965185, 33.5239106], [132.9653337, 33.5240228], [132.9653949, 33.52406], [132.9654935, 33.5240929], [132.9655564, 33.5241477], [132.9656035, 33.5242091], [132.9656826, 33.5243668], [132.965759, 33.5245412], [132.9657875, 33.524621], [132.9658282, 33.5248418], [132.9659086, 33.5251678], [132.9659615, 33.5253892], [132.9659933, 33.5255002], [132.9660329, 33.5255785], [132.9660856, 33.5256525], [132.9661553, 33.5257212], [132.9662184, 33.5257694], [132.9663221, 33.5258119], [132.9664441, 33.5258438], [132.9665074, 33.5258537], [132.9665919, 33.525875], [132.9666824, 33.5259225], [132.9669727, 33.5261723], [132.9670613, 33.5262372], [132.9671691, 33.5262934], [132.9672891, 33.5263295], [132.9674475, 33.5263579], [132.967599, 33.5263859], [132.9677341, 33.5264246], [132.9678364, 33.5264787], [132.9679182, 33.5265402], [132.9679799, 33.5266112], [132.9680295, 33.5266989], [132.9680716, 33.5267998], [132.9681261, 33.5269292], [132.9681838, 33.5270712], [132.9682681, 33.5272347], [132.9684547, 33.5275553], [132.9687165, 33.5279185], [132.9688556, 33.5281344], [132.968975, 33.528273], [132.9690662, 33.5283524], [132.9691882, 33.5284318], [132.9693003, 33.528483], [132.9694288, 33.528523], [132.9695557, 33.5285547], [132.9696643, 33.528567], [132.9698156, 33.5285767], [132.9701139, 33.5285808], [132.9703829, 33.5285879], [132.9705159, 33.5286073], [132.9706366, 33.5286375], [132.9707581, 33.5286929], [132.971014, 33.5289003], [132.9711382, 33.5290221], [132.9711885, 33.5290944], [132.9712106, 33.5291719], [132.9712173, 33.529249], [132.9712091, 33.5293414], [132.9711653, 33.5294389], [132.9710913, 33.5295307], [132.9708995, 33.5296626], [132.970572, 33.529873], [132.9704069, 33.5299859], [132.9703161, 33.5300673], [132.9702222, 33.5301735], [132.9701667, 33.5302696], [132.9701324, 33.5303781], [132.9700989, 33.5305212], [132.9701024, 33.5306561], [132.9701125, 33.5308359], [132.9701578, 33.5309213], [132.9702058, 33.5309688], [132.9702739, 33.5310026], [132.970342, 33.5310274], [132.9704144, 33.5310475], [132.9705109, 33.5310487]], [[132.9632292, 33.5174134], [132.9631365, 33.5172663], [132.9630782, 33.5171385], [132.9630232, 33.5169909], [132.9629709, 33.5167651], [132.9629494, 33.5165973], [132.9629482, 33.5164297], [132.9629612, 33.5161899], [132.9629906, 33.515857], [132.9630037, 33.5156561], [132.9630091, 33.5155516], [132.962904, 33.514925], [132.962807, 33.514545], [132.962663, 33.514182], [132.962509, 33.513868], [132.962181, 33.513457], [132.961786, 33.513094], [132.961141, 33.512617], [132.9601406, 33.5118972], [132.9600647, 33.5118486], [132.9599315, 33.5117688], [132.9595469, 33.51151], [132.9594491, 33.5114371], [132.9593566, 33.5113555], [132.9592426, 33.5112448], [132.959154, 33.5111331], [132.9590776, 33.511026], [132.9590197, 33.5109261], [132.9589731, 33.5108296], [132.9589194, 33.5107069], [132.9588859, 33.5106007], [132.9588581, 33.5104756], [132.9588497, 33.5103569], [132.9588389, 33.5102049], [132.9588325, 33.5100307], [132.9588443, 33.5099186], [132.9588805, 33.5097867], [132.9591322, 33.5091332], [132.9592341, 33.5088585], [132.9594228, 33.5083598], [132.9594957, 33.5081947], [132.9595497, 33.5080668], [132.9595712, 33.5079751], [132.9595819, 33.5078767], [132.9595782, 33.507648], [132.9595863, 33.5073001], [132.9595836, 33.5069609], [132.9595626, 33.5067792], [132.9595229, 33.5065774], [132.9594666, 33.5063783], [132.9594223, 33.5061692], [132.9593923, 33.5059795], [132.9593727, 33.505704], [132.9593781, 33.5052936], [132.9594035, 33.5051315], [132.959425, 33.5049906], [132.9594333, 33.5048953], [132.959429, 33.5047949], [132.9594129, 33.5047166], [132.9593807, 33.5046394], [132.9592622, 33.5044065], [132.9590629, 33.5040288], [132.9590079, 33.5039025], [132.9589878, 33.5038264], [132.9589717, 33.5037191], [132.9589676, 33.5033936], [132.9589476, 33.5033266], [132.9589047, 33.5032528], [132.9588564, 33.5032035], [132.9587813, 33.5031521], [132.9586391, 33.5030772], [132.958375, 33.5029446], [132.9582301, 33.5028714], [132.9581147, 33.5027987], [132.9579968, 33.5027025], [132.9578103, 33.5024789], [132.9577003, 33.5023492], [132.9576141, 33.5022686], [132.9575314, 33.5021993], [132.9574549, 33.5021468], [132.9573543, 33.5020897], [132.9567192, 33.5017924], [132.9562506, 33.5015473], [132.9560401, 33.501431], [132.9558118, 33.5012322], [132.9557306, 33.5011224], [132.9554715, 33.5007865], [132.9554107, 33.5007081], [132.9549045, 33.499844], [132.9547992, 33.499555], [132.9547573, 33.4994265], [132.9547291, 33.4993079], [132.9547108, 33.4991525], [132.954711, 33.4989327], [132.9547511, 33.4987847], [132.9548196, 33.4986061], [132.9549269, 33.498416], [132.9550549, 33.4981867], [132.9552354, 33.4979363], [132.9553521, 33.4977786], [132.9554317, 33.4976552], [132.9555143, 33.4974733], [132.9555573, 33.4973502], [132.9555979, 33.4972267], [132.9557196, 33.4968603], [132.9557728, 33.4966934], [132.9558193, 33.4964973], [132.9558188, 33.4963918], [132.9558, 33.4962934], [132.9557638, 33.4961871], [132.9557195, 33.4960898], [132.9556521, 33.4959965], [132.9555452, 33.4958706], [132.9552441, 33.495585], [132.9544628, 33.4947915], [132.953584, 33.4939826], [132.9533966, 33.4938531], [132.9532412, 33.4937636], [132.9530856, 33.4936875], [132.9528308, 33.4935958], [132.9524982, 33.4934974], [132.9520208, 33.4933788], [132.9515567, 33.4932849], [132.9512807, 33.4932346], [132.9511595, 33.4932067], [132.950964, 33.4931507], [132.9507521, 33.4930612], [132.9506314, 33.4929919], [132.9505214, 33.4929181], [132.9503873, 33.4928017], [132.9502156, 33.4926429], [132.9500037, 33.4924573], [132.9498589, 33.4923767], [132.9497382, 33.4923231], [132.9495932, 33.4922906], [132.9487407, 33.4921933], [132.9485929, 33.4921486], [132.9484561, 33.4920815], [132.948322, 33.4919831], [132.9482043, 33.4918611], [132.9481289, 33.491728], [132.9480779, 33.4915827], [132.9480538, 33.4914417], [132.9480513, 33.4912793], [132.9480404, 33.4910055], [132.9480296, 33.4909138], [132.9480082, 33.4908266], [132.9479435, 33.4907073], [132.9478593, 33.4906141], [132.9477453, 33.4905324], [132.9476313, 33.4904676], [132.9474527, 33.4903981], [132.9472344, 33.4903333], [132.9470238, 33.4902785], [132.9467093, 33.4902017], [132.9464947, 33.4901662], [132.9462946, 33.4901365], [132.9462198, 33.490118], [132.9460988, 33.4900811], [132.9459663, 33.490036], [132.9458597, 33.4899889], [132.9457531, 33.4899372], [132.9457039, 33.4899124], [132.9456505, 33.4898854], [132.9454763, 33.4897828], [132.9452663, 33.4896533], [132.9451168, 33.4895515], [132.9449746, 33.4894403], [132.9448391, 33.4893189], [132.9447319, 33.4892099], [132.9445951, 33.4890555], [132.9444354, 33.4888648], [132.9442008, 33.4885718], [132.9440412, 33.4883279], [132.9439232, 33.4880942], [132.9438548, 33.4879074], [132.9437849, 33.4876757], [132.9437188, 33.487342], [132.9436463, 33.4869871], [132.9436214, 33.4868921], [132.9435678, 33.486667], [132.9435209, 33.4864343], [132.9434589, 33.4860417], [132.9434206, 33.4854393], [132.9434165, 33.4853721], [132.9434088, 33.4851375], [132.9433733, 33.4848371], [132.9433405, 33.4846421], [132.9433123, 33.4845114], [132.943194, 33.4838632], [132.9425993, 33.4815685], [132.9420888, 33.4794028], [132.941455, 33.4768719], [132.9407881, 33.4741765], [132.9399768, 33.4708764], [132.9392274, 33.4677657], [132.9386441, 33.4654207], [132.9379627, 33.4625357], [132.9377304, 33.4604723], [132.9378343, 33.4587987], [132.9380458, 33.4574567], [132.9382211, 33.4565296], [132.9382751, 33.4563478], [132.9383174, 33.4562026], [132.9383683, 33.4560471], [132.9384479, 33.4557695], [132.9386079, 33.4552871], [132.9387626, 33.4548801], [132.9389203, 33.4545289], [132.9390697, 33.4541976], [132.9391894, 33.4539525], [132.9394249, 33.4534613], [132.9394619, 33.4533761], [132.9395512, 33.4531883], [132.9398055, 33.452809], [132.9400326, 33.452424], [132.9402107, 33.4520725], [132.9404371, 33.4515776], [132.9404967, 33.4513812], [132.9405483, 33.4512211], [132.9405825, 33.4510148], [132.9405932, 33.4509156], [132.9405957, 33.4507639], [132.9405852, 33.4506611], [132.9405805, 33.4505274], [132.9405543, 33.450415], [132.9405369, 33.450335], [132.940498, 33.4502142], [132.9404099, 33.4500085], [132.9402962, 33.4497951], [132.9402304, 33.4496663], [132.9401614, 33.4494723], [132.940149, 33.4493456], [132.9401412, 33.4492684], [132.9401372, 33.4492283], [132.9401413, 33.4490638], [132.94016, 33.4489743], [132.9401884, 33.4488544], [132.9402405, 33.4487505], [132.9403009, 33.4486554], [132.9403699, 33.4485743], [132.940502, 33.4484875], [132.94062, 33.4484316], [132.9407759, 33.4483802], [132.9409647, 33.4483465], [132.9411383, 33.4483276], [132.941398, 33.4483341], [132.9416688, 33.4483342], [132.9417908, 33.4483286], [132.941833, 33.4483193], [132.9420027, 33.4482939], [132.9421018, 33.4482603], [132.9421737, 33.4482273], [132.9422387, 33.4481921], [132.9422971, 33.4481613], [132.9423541, 33.4481249], [132.9424074, 33.4480858], [132.942444, 33.448059], [132.9424976, 33.4480049], [132.9425787, 33.4479095], [132.9426578, 33.4478161], [132.9427323, 33.447721], [132.9428065, 33.4476245], [132.9429181, 33.4474769], [132.943101, 33.4472331], [132.9431726, 33.4471396], [132.9432499, 33.4470295], [132.9433358, 33.4468885], [132.9433773, 33.4468012], [132.9434361, 33.4466665], [132.943472, 33.4465784], [132.9435141, 33.4464353], [132.9435477, 33.4462954], [132.9435656, 33.4461734], [132.9436094, 33.4458522], [132.9436482, 33.4456698], [132.9436765, 33.4454595], [132.9437086, 33.4451741], [132.943751, 33.4448419], [132.9437837, 33.4446717], [132.9438146, 33.4445575], [132.9438763, 33.4444333], [132.9439651, 33.4443096], [132.9441029, 33.4441558], [132.9442048, 33.4440708], [132.9443014, 33.4440036], [132.9444395, 33.4439287], [132.9445861, 33.4438659], [132.9447884, 33.4437972], [132.9450854, 33.443682], [132.9452173, 33.4436265], [132.9453858, 33.4435377], [132.9455132, 33.4434739], [132.9456634, 33.4433708], [132.945752, 33.4432959], [132.9458126, 33.4432351], [132.9458664, 33.4431609], [132.9459228, 33.443072], [132.9459522, 33.4429875], [132.9459665, 33.4428987], [132.945971, 33.442828], [132.945963, 33.442767], [132.9459416, 33.4426675], [132.9459181, 33.4426031], [132.9458892, 33.4425454], [132.9458484, 33.442472], [132.9458094, 33.442414], [132.9457631, 33.4423518], [132.9457008, 33.4422747], [132.9456458, 33.442231], [132.9455586, 33.4421588], [132.9454448, 33.4420923], [132.9453367, 33.4420452], [132.9452133, 33.4420038], [132.9448303, 33.4419076], [132.9444059, 33.4418125], [132.9441035, 33.4417372], [132.9439523, 33.4416897], [132.9438228, 33.4416377], [132.9437207, 33.4415909], [132.9436133, 33.441517], [132.9435047, 33.4414196], [132.9434126, 33.4413214], [132.9433679, 33.441239], [132.9433123, 33.4411606], [132.9432714, 33.4410582], [132.9432379, 33.440963], [132.9432178, 33.4408587], [132.9432057, 33.440756], [132.943203, 33.4406352], [132.9432083, 33.4404718], [132.9432238, 33.4402234], [132.9432538, 33.4396099], [132.9432852, 33.4391624], [132.9432989, 33.4389188], [132.9433227, 33.438699], [132.9433699, 33.4385318], [132.9434471, 33.4383455], [132.9436328, 33.4380137], [132.9437545, 33.4377652], [132.9439708, 33.4373657], [132.9441909, 33.4369978], [132.9443376, 33.4368078], [132.9444335, 33.4367144], [132.9445508, 33.4365931], [132.9447819, 33.436389], [132.9449408, 33.4362699], [132.9450335, 33.4361935], [132.9453439, 33.4359485], [132.9454909, 33.4358084], [132.9456599, 33.4356517], [132.9459216, 33.4354041], [132.9461052, 33.4352612], [132.9462399, 33.4351771], [132.946431, 33.4350552], [132.9465887, 33.4349595], [132.9468615, 33.4347934], [132.9469947, 33.4347177], [132.9470794, 33.4346579], [132.9471914, 33.4345712], [132.9472922, 33.4344763], [132.9473631, 33.4343999], [132.9474327, 33.4343064], [132.9475004, 33.4342043], [132.9475541, 33.4340921], [132.9476233, 33.4339565], [132.9476741, 33.433847], [132.9477707, 33.4335909], [132.9478232, 33.4334811], [132.9478426, 33.4334055], [132.9478487, 33.4333515], [132.9478511, 33.4332944], [132.9478419, 33.4332075], [132.9478198, 33.433136], [132.9477802, 33.4330715], [132.9477154, 33.4329963], [132.947616, 33.4329182], [132.9475857, 33.4329003], [132.9474665, 33.4328391], [132.9453704, 33.4318896], [132.9447216, 33.4315945], [132.9445253, 33.4315085], [132.9443443, 33.4314318], [132.9441478, 33.431354], [132.9439621, 33.4312919], [132.9437689, 33.4312298], [132.9428047, 33.4309341], [132.9422481, 33.430772], [132.9418324, 33.4306937], [132.941599, 33.4306545], [132.9413255, 33.4306221], [132.9407644, 33.4305801], [132.9403505, 33.4305594], [132.9402291, 33.4305504], [132.9401171, 33.4305353], [132.9399945, 33.430504], [132.9399086, 33.4304766], [132.9398107, 33.4304357], [132.9397217, 33.4303852], [132.9396337, 33.4303327], [132.9395552, 33.4302662], [132.9394774, 33.4301912], [132.9394144, 33.4301145], [132.9393627, 33.4300401], [132.9393202, 33.4299599], [132.9390724, 33.4293831], [132.9390081, 33.4291874], [132.9389696, 33.4290269], [132.9388603, 33.4284325], [132.9388331, 33.4283219], [132.9388022, 33.4282219], [132.938772, 33.4281334], [132.9387331, 33.428045], [132.9387016, 33.4279784], [132.9386714, 33.4279152], [132.9385811, 33.427732], [132.9384348, 33.4274538], [132.9379372, 33.4266633], [132.9379132, 33.4266323], [132.9375859, 33.4261313], [132.937492, 33.4259617], [132.9372203, 33.4254858], [132.93694, 33.4250291], [132.9368824, 33.4249558], [132.9368287, 33.4248802], [132.9367429, 33.4247789], [132.9366505, 33.4246705], [132.9365679, 33.4245931], [132.9364901, 33.4245233], [132.9363862, 33.4244454], [132.936303, 33.4243934], [132.9361971, 33.4243324], [132.9360411, 33.4242442], [132.9354894, 33.4239814], [132.9353442, 33.4239099], [132.935255, 33.4238622], [132.9351785, 33.4238107], [132.9351108, 33.4237632], [132.9350485, 33.4237152], [132.9349996, 33.4236642], [132.9349612, 33.4236182], [132.9349116, 33.4235517], [132.9348587, 33.4234638], [132.9348245, 33.4233748], [132.934797, 33.4232891], [132.9347749, 33.4232065], [132.9347466, 33.4230804], [132.9346937, 33.4228716], [132.9346548, 33.4226511], [132.9345992, 33.4224133], [132.9345649, 33.4222751], [132.9345451, 33.4221594], [132.934526, 33.4220445], [132.9345073, 33.4219292], [132.9344959, 33.4218223], [132.9344768, 33.4216281], [132.9344694, 33.4214442], [132.9344553, 33.4212976], [132.9344305, 33.4212125], [132.9344114, 33.4211311], [132.9343846, 33.42106], [132.9343409, 33.4209727], [132.9342826, 33.4208888], [132.9342042, 33.4208054], [132.9341304, 33.4207365], [132.934068, 33.4206946], [132.9339741, 33.4206458], [132.9338689, 33.4205925], [132.9330708, 33.4202761], [132.9329637, 33.4202239], [132.9328718, 33.4201741], [132.9327826, 33.4201119], [132.9326734, 33.4200235], [132.9326063, 33.4199541], [132.9325486, 33.4198791], [132.9324936, 33.4197957], [132.9324517, 33.4197155], [132.9324205, 33.4196216], [132.9324004, 33.4195282], [132.932393, 33.4194375], [132.9323924, 33.4193491], [132.9323983, 33.4192741], [132.9324218, 33.4191728], [132.9324487, 33.4190384], [132.9325173, 33.4187854], [132.9326177, 33.4184026], [132.9327139, 33.4179904], [132.9327295, 33.4179241], [132.932745, 33.4178441], [132.9327507, 33.417775], [132.9327612, 33.4176404], [132.9327568, 33.4175404], [132.9327317, 33.4174593], [132.9326949, 33.4173719], [132.9326566, 33.4172855], [132.9325995, 33.4172083], [132.9325466, 33.4171478], [132.9324701, 33.4170885], [132.9323901, 33.4170257], [132.9322003, 33.4169114], [132.9317969, 33.4166598], [132.9312961, 33.416287], [132.9305071, 33.4156247], [132.9302894, 33.4154161], [132.9302406, 33.4153601], [132.9300159, 33.4151273], [132.9297692, 33.414853], [132.9295559, 33.4145945], [132.9294684, 33.4145108], [132.9293695, 33.4144243], [132.9292368, 33.4143112], [132.9291106, 33.4142194], [132.9289632, 33.414141], [132.9288264, 33.4140728], [132.9286705, 33.4140075], [132.9285293, 33.4139608], [132.9283878, 33.4139183], [132.9272886, 33.4136792], [132.9270454, 33.4136171], [132.9269622, 33.4135936], [132.9268656, 33.4135512], [132.9267973, 33.4135102], [132.9267182, 33.4134621], [132.9266461, 33.4134028], [132.9265683, 33.4133175], [132.9264888, 33.4132113], [132.9264375, 33.4131229], [132.9264053, 33.4130395], [132.9263748, 33.4129511], [132.9263198, 33.4127529], [132.9262048, 33.4123263], [132.9261334, 33.4120477], [132.9260494, 33.4117241], [132.9259792, 33.4114734], [132.9258939, 33.4112004], [132.9258388, 33.4110382], [132.9257939, 33.410922], [132.925719, 33.4107861], [132.9253609, 33.4101681], [132.9252798, 33.4100455], [132.9252281, 33.4099514], [132.9251712, 33.4098563], [132.9251101, 33.4097371], [132.9250543, 33.409599], [132.9250212, 33.4095049], [132.9249928, 33.409404], [132.9249767, 33.4092943], [132.9249626, 33.4092047], [132.924962, 33.4090984], [132.92497, 33.4089915], [132.9249861, 33.4088757], [132.925005, 33.4087306], [132.9250833, 33.4083411], [132.9251577, 33.4079442], [132.925234, 33.4075771], [132.9252852, 33.4072949], [132.925314, 33.4071605], [132.925341, 33.4070263], [132.9253566, 33.4069382], [132.9254578, 33.4063975], [132.9255192, 33.4060874], [132.9255325, 33.4059855], [132.9255438, 33.4058293], [132.9255313, 33.405708], [132.9255005, 33.4055893], [132.9254488, 33.4054478], [132.9253764, 33.4053054], [132.9252892, 33.4051286], [132.925194, 33.4049523], [132.9251042, 33.404758], [132.9250082, 33.4045554], [132.9249186, 33.4043669], [132.9247697, 33.4040631], [132.9246237, 33.4037481], [132.924571, 33.4035707], [132.9245281, 33.403311], [132.9245076, 33.4030287], [132.924504, 33.4023208], [132.9245281, 33.4019563], [132.9245491, 33.4016706], [132.9245941, 33.4011685], [132.9245948, 33.3998987], [132.9245906, 33.3998072], [132.9245999, 33.3996801], [132.924614, 33.3995681], [132.9246435, 33.3994467], [132.9246598, 33.3993741], [132.9246985, 33.3992782], [132.9247474, 33.3991926], [132.9248117, 33.3991011], [132.9249154, 33.3989861], [132.9251154, 33.3988007], [132.9257211, 33.3983126], [132.9258757, 33.3981916], [132.9260715, 33.3980445], [132.9262277, 33.3979456], [132.9264147, 33.3978351], [132.9266791, 33.3977003], [132.9271967, 33.3974395], [132.9276155, 33.3972239], [132.9283391, 33.3968023], [132.9284521, 33.3967395], [132.9285292, 33.3966905], [132.9286068, 33.3966308], [132.928666, 33.3965652], [132.9287178, 33.3964916], [132.9287472, 33.3964072], [132.9287646, 33.3963337], [132.9287501, 33.3962471], [132.9287236, 33.396157], [132.9286672, 33.39606], [132.9286075, 33.3959899], [132.9285165, 33.3958984], [132.9283923, 33.3957922], [132.9283172, 33.3957215], [132.9282524, 33.3956282], [132.9280347, 33.395275], [132.927958, 33.3951817], [132.9274288, 33.3944689], [132.9272234, 33.3941678], [132.927056, 33.3938898], [132.9269118, 33.3936325], [132.9268663, 33.3935321], [132.9268155, 33.393433], [132.9267592, 33.393304], [132.9266163, 33.3929406], [132.9264085, 33.3923577], [132.926259, 33.3919383], [132.9262336, 33.3918655], [132.9261944, 33.3917752], [132.9261359, 33.391653], [132.9260781, 33.3915639], [132.9259996, 33.3914564], [132.9259451, 33.391389], [132.9258729, 33.3913166], [132.925621, 33.3910858], [132.9255087, 33.3909797], [132.9254692, 33.3909266], [132.9254398, 33.3908653], [132.9254314, 33.3908341], [132.9254414, 33.3907814], [132.9254652, 33.3906724], [132.9255063, 33.3905667]], [[132.8775312, 33.6972521], [132.8773176, 33.6972398], [132.8771972, 33.6972473], [132.8770997, 33.6972642], [132.8768383, 33.6973425], [132.8763934, 33.6974721], [132.8757937, 33.6976652], [132.8750336, 33.6979016], [132.8739923, 33.6982064], [132.8737956, 33.6982598], [132.8735514, 33.6983173], [132.8729368, 33.6984425], [132.8721033, 33.6985737], [132.8704127, 33.6987707], [132.8437681, 33.70149], [132.8431457, 33.7015691], [132.842704, 33.7016425], [132.8422134, 33.7017483], [132.841715, 33.701877], [132.8412303, 33.7020254], [132.8407661, 33.7021895], [132.8402881, 33.7023799], [132.8397787, 33.7025812], [132.8390748, 33.7028971], [132.8383155, 33.7032496], [132.8382633, 33.7032788], [132.8380951, 33.7033808], [132.8379576, 33.70345], [132.8371701, 33.7037859], [132.8369058, 33.70389], [132.8361063, 33.7041751], [132.8352971, 33.7044411], [132.8360798, 33.7041237], [132.8371411, 33.7037062], [132.8379275, 33.703378], [132.838179, 33.7032896], [132.8383155, 33.7032496]], [[132.8352971, 33.7044411], [132.8352152, 33.704469], [132.8349111, 33.7045533], [132.8346185, 33.7046203], [132.83437, 33.7046629], [132.8341025, 33.704698], [132.8338018, 33.7047191], [132.8335225, 33.7047327], [132.8332042, 33.7047415], [132.8315076, 33.7047181], [132.8312187, 33.7047386], [132.8308744, 33.7047702], [132.8304651, 33.7047972], [132.8301823, 33.7048146], [132.8299403, 33.7048245], [132.8295429, 33.7048458], [132.8292297, 33.7048439], [132.8282869, 33.7048371], [132.827699, 33.7048247], [132.827301, 33.7048255], [132.826891, 33.7048403], [132.8265438, 33.7048663], [132.8262278, 33.7048961], [132.825893, 33.7049501], [132.8255008, 33.7050341], [132.8250773, 33.7051446], [132.8248233, 33.705231], [132.8250686, 33.7051188], [132.8252701, 33.7050405], [132.8254857, 33.704973], [132.825874, 33.7048809], [132.8262107, 33.704822], [132.8265311, 33.7047816], [132.8268844, 33.7047514], [132.8273106, 33.7047348], [132.8276931, 33.7047313], [132.8295422, 33.7047312], [132.8303826, 33.7047229], [132.831012, 33.7047181], [132.8315076, 33.7047181]], [[132.8248233, 33.705231], [132.8246273, 33.7053095], [132.8243302, 33.7054579], [132.8238964, 33.7057147], [132.8236502, 33.7058968], [132.8234298, 33.706081], [132.8231875, 33.7063177], [132.8229856, 33.7065487], [132.8227573, 33.706849], [132.822082, 33.7077982]], [[132.8220165, 33.7078867], [132.8178792, 33.7136537], [132.8174518, 33.7142775], [132.8171198, 33.7147907], [132.8168595, 33.7152616], [132.8166408, 33.7157582], [132.8164814, 33.7162275], [132.8163652, 33.7167264], [132.81629, 33.7172207], [132.8162126, 33.7179087], [132.8161796, 33.7183629], [132.8161702, 33.7184282], [132.8161523, 33.7187535], [132.8161466, 33.7190302], [132.8161506, 33.7192083], [132.8161646, 33.7193854], [132.8161909, 33.7195534], [132.816236, 33.7197385], [132.8162698, 33.7198568], [132.8165841, 33.7208393], [132.8167365, 33.7212404], [132.8170298, 33.7220882], [132.8171314, 33.7223551], [132.8172556, 33.7226008], [132.8174047, 33.722841], [132.8176091, 33.7231018], [132.8178055, 33.7233114], [132.8181177, 33.7235979], [132.8184837, 33.7238752], [132.8186533, 33.724014], [132.8187397, 33.7241113], [132.8188445, 33.7242712], [132.8189038, 33.7243973], [132.8189285, 33.7244904], [132.8189549, 33.724611], [132.8190168, 33.7250451]]]}, "id": "relation/9743152"}]}