{"type": "FeatureCollection", "generator": "kokudo-quiz tools/fetch_raw.py (Overpass API)", "copyright": "The data included in this document is from www.openstreetmap.org. The data is made available under ODbL.", "timestamp": "2026-09-30T23:39:59Z", "features": [{"type": "Feature", "properties": {"@id": "relation/9663861", "colour": "red", "from": "宮崎県えびの市", "name": "国道447号", "name:en": "National Highway Route 447", "name:ja": "国道447号", "name:ja-Hira": "こくどうよんひゃくよんじゅうななごう", "name:ja-Latn": "Kokudou 447 Gou", "network": "JP:national", "ref": "447", "route": "road", "to": "鹿児島県出水市", "type": "route", "wikidata": "Q6157569", "wikipedia": "ja:国道447号"}, "geometry": {"type": "MultiLineString", "coordinates": [[[130.3400564, 32.117513], [130.34007, 32.1171506], [130.3400762, 32.1169864], [130.3401187, 32.1158865], [130.3401692, 32.1151668], [130.340173, 32.1151115], [130.3402349, 32.1147826]], [[130.3833604, 32.0784316], [130.382955, 32.0785008], [130.3828325, 32.0785039], [130.3826714, 32.0785079], [130.3823884, 32.0784986], [130.3821049, 32.0784608], [130.3817388, 32.0784208], [130.3811484, 32.0782759], [130.3805811, 32.0781632], [130.3799844, 32.0779972], [130.3799586, 32.0779908], [130.3795544, 32.0778905], [130.3792238, 32.0778205], [130.378628, 32.0776768], [130.377984, 32.0775003], [130.3775765, 32.0773777], [130.3768859, 32.0771101], [130.3763782, 32.07689], [130.3758941, 32.0767199], [130.3748471, 32.0763414], [130.3746897, 32.0762997], [130.3742882, 32.0762297], [130.3738749, 32.0762397], [130.3735443, 32.0762697], [130.3732375, 32.0763741], [130.3729076, 32.0765208], [130.3724237, 32.0767052], [130.3720362, 32.0768484], [130.371736, 32.0769895], [130.3714103, 32.0771148], [130.3709791, 32.0773002], [130.3706384, 32.0774632], [130.370291, 32.0776507], [130.369616, 32.0780245], [130.3693752, 32.0781676], [130.3689942, 32.0783741], [130.3684534, 32.0786677], [130.3681777, 32.0788159], [130.367944, 32.0789543], [130.3678085, 32.0790397], [130.3677384, 32.0790855], [130.3675949, 32.0792047], [130.3674341, 32.0793791], [130.3672643, 32.0795691], [130.3671531, 32.0797128], [130.3666847, 32.0802707], [130.3663204, 32.0807067], [130.3662505, 32.0807852], [130.366138, 32.0809072], [130.3658877, 32.0811347], [130.3656607, 32.0812749], [130.3653806, 32.08141], [130.3649382, 32.0815644], [130.3644644, 32.0817301], [130.3639773, 32.0818789], [130.3636959, 32.082012], [130.3629511, 32.0823655], [130.3626671, 32.0824564], [130.3623146, 32.0825693], [130.3615678, 32.0827758], [130.360677, 32.0829892], [130.3604131, 32.083065], [130.3599055, 32.0832109], [130.3595788, 32.0833127], [130.3591559, 32.0834363], [130.359068, 32.083462], [130.3589376, 32.0835001], [130.358827, 32.0835759], [130.3588047, 32.0835911], [130.3586194, 32.083718], [130.3582355, 32.0840404], [130.3579948, 32.0842425], [130.3577888, 32.0844381], [130.3575337, 32.0846803], [130.3575065, 32.0847062], [130.3574401, 32.0847692], [130.3572333, 32.0849846], [130.3571922, 32.0850274], [130.3571738, 32.0850465], [130.356923, 32.0853077], [130.3564526, 32.0857977], [130.3563229, 32.0859328], [130.3557764, 32.0864591], [130.3556947, 32.0865377], [130.3556548, 32.0865783], [130.3556091, 32.0866245], [130.3551902, 32.0870516], [130.3550738, 32.0871702], [130.3548163, 32.0874325], [130.3547977, 32.0874514], [130.3547061, 32.0875448], [130.3546112, 32.0876454], [130.3545959, 32.0876617], [130.3539608, 32.0883354], [130.3533309, 32.0889964], [130.3527485, 32.0897203], [130.3525352, 32.089947], [130.3519582, 32.0907321], [130.3512887, 32.0917095], [130.3507515, 32.0926235], [130.35025, 32.0936439], [130.3495384, 32.0951076], [130.3493692, 32.0954557], [130.349088, 32.0960341], [130.3489325, 32.0963726], [130.3479585, 32.0983437], [130.3477199, 32.0988364], [130.3468927, 32.1005445], [130.3458487, 32.1027478], [130.3452707, 32.1039676], [130.3444337, 32.1056084], [130.3444205, 32.1056354], [130.3434025, 32.1077207], [130.3431907, 32.1081545], [130.3428079, 32.1089387], [130.3419291, 32.1107388], [130.341394, 32.1118025], [130.3411144, 32.1124076], [130.3407735, 32.113106], [130.340631, 32.113414], [130.3403971, 32.1139172], [130.3402941, 32.1142705], [130.3402349, 32.1147826]], [[130.3833604, 32.0784316], [130.3835914, 32.0783922], [130.3836418, 32.0783836], [130.383654, 32.0783819], [130.3839141, 32.0783427], [130.3842182, 32.0781877], [130.3845353, 32.077872], [130.3846417, 32.0775225], [130.3846672, 32.07674], [130.384677, 32.0766383], [130.3847624, 32.075747], [130.3848561, 32.0752492], [130.3849623, 32.0750691], [130.3851277, 32.074849], [130.3858874, 32.0741979], [130.3863444, 32.0738179], [130.3866518, 32.0735758], [130.3867405, 32.0735011], [130.3869466, 32.0733274], [130.3872183, 32.0730988], [130.3875616, 32.0728994], [130.3882399, 32.0726908], [130.3891984, 32.0725119], [130.3897052, 32.0724462], [130.3900788, 32.0724151], [130.390397, 32.0724383], [130.3910855, 32.0725592], [130.3916863, 32.0726646], [130.3923612, 32.0726994], [130.392389, 32.0727008], [130.3940679, 32.072731], [130.395017, 32.072748], [130.3952003, 32.0727513], [130.3965809, 32.0728163], [130.3969394, 32.0727601], [130.3972551, 32.0726669], [130.397719, 32.0724462], [130.3995648, 32.0716011], [130.4004311, 32.0712045], [130.4008485, 32.0709998], [130.4011288, 32.0709093], [130.4012661, 32.0708916], [130.4016357, 32.0709266], [130.4019344, 32.0710225], [130.4025887, 32.0711982], [130.402906, 32.0712696], [130.403177, 32.0712695], [130.4034346, 32.0711625], [130.4036935, 32.0709925], [130.405214, 32.0696565], [130.4055098, 32.0692517], [130.4056112, 32.0691129], [130.4057126, 32.0689742], [130.4059806, 32.0683409], [130.4061252, 32.0680602], [130.4062075, 32.067933], [130.4062869, 32.0678105], [130.4065117, 32.0675913], [130.4067946, 32.067437], [130.4071311, 32.0673782], [130.4071421, 32.067378], [130.407521, 32.0673704], [130.4079766, 32.067411], [130.4083745, 32.0674735], [130.4093824, 32.0677411], [130.4129887, 32.0691924], [130.4140433, 32.0696888], [130.4144049, 32.0697683], [130.4148112, 32.069801], [130.4151339, 32.0697358], [130.4153764, 32.0696444], [130.4156424, 32.0694506], [130.4158691, 32.0691874], [130.416203, 32.0687552], [130.4163884, 32.068578], [130.4167886, 32.0682057], [130.4172469, 32.0678772], [130.4178561, 32.0673513], [130.4185132, 32.0668908], [130.4187026, 32.0667922], [130.4189263, 32.0667459], [130.4190912, 32.0667228], [130.4193273, 32.0667206], [130.4196059, 32.0667596], [130.4198244, 32.0668493], [130.420276, 32.0671088], [130.4207103, 32.0673766], [130.4213841, 32.0679044], [130.4227034, 32.0689673], [130.423555, 32.0695857], [130.4241144, 32.0699527], [130.4244619, 32.0701603], [130.4249922, 32.0703973], [130.4254913, 32.0705491], [130.4260028, 32.0706469], [130.4265524, 32.0707419], [130.4270376, 32.0707903], [130.4273793, 32.0708628], [130.4276921, 32.0709753], [130.4281615, 32.0712228], [130.4287615, 32.071504], [130.4289204, 32.0715733], [130.4290218, 32.0716083], [130.4291112, 32.0716336], [130.4291983, 32.071654], [130.4293298, 32.0716583], [130.4295602, 32.0716472], [130.4298211, 32.0715689], [130.4300398, 32.0714506], [130.4302026, 32.0712456], [130.4307782, 32.0704478], [130.4313997, 32.0696095], [130.4315579, 32.0694663], [130.4317197, 32.0693629], [130.4320024, 32.0692511], [130.4330045, 32.0689649], [130.4339202, 32.0687301], [130.4342514, 32.0686397], [130.4345993, 32.0685582], [130.4348739, 32.068524], [130.4351136, 32.0685321], [130.4352615, 32.0685465], [130.4353986, 32.0685689], [130.4355563, 32.0686233], [130.4357484, 32.0687191], [130.4363362, 32.069137], [130.4368407, 32.0695562], [130.4370363, 32.0697285], [130.4372562, 32.0699149], [130.4375411, 32.0701017], [130.4377658, 32.0702467], [130.4391498, 32.0709968], [130.4402335, 32.071565], [130.4403901, 32.0716594], [130.4409137, 32.0719751], [130.441253, 32.0721701], [130.4415795, 32.0723316], [130.4416278, 32.0723535], [130.4421462, 32.0725883], [130.4426558, 32.072802], [130.4428689, 32.0729293], [130.443254, 32.0732474], [130.4437153, 32.0736656], [130.4437465, 32.0736918], [130.444068, 32.0739615], [130.4442303, 32.0741066], [130.4443215, 32.0741884], [130.4445629, 32.0742975], [130.444705, 32.0743657], [130.4449518, 32.074452], [130.4452227, 32.0745066], [130.4455338, 32.0745384], [130.4457779, 32.0745293], [130.4460488, 32.074502], [130.4463461, 32.0744521], [130.4464192, 32.0744394], [130.4466433, 32.0743977], [130.4469098, 32.074352], [130.4471298, 32.0743247], [130.4473282, 32.0743247], [130.4475133, 32.074352], [130.4477386, 32.0743884], [130.4481463, 32.0745111], [130.4483025, 32.0745579], [130.4495867, 32.0749429], [130.4498361, 32.075002], [130.4501289, 32.0750702], [130.4503779, 32.0750793], [130.4506086, 32.0750702], [130.4508232, 32.075052], [130.4514947, 32.0749526], [130.4517592, 32.0749111], [130.4519524, 32.0748884], [130.4521374, 32.0748702], [130.4522876, 32.0748702], [130.4524915, 32.0749066], [130.4527141, 32.0749839], [130.4532559, 32.0751839], [130.4534177, 32.0752439], [130.4537709, 32.0753748], [130.4546668, 32.0757384], [130.4553802, 32.0760521], [130.4563512, 32.0764475], [130.4573171, 32.0768511], [130.4573302, 32.0768566], [130.4576494, 32.0770202], [130.4579712, 32.077243], [130.4581617, 32.0774339], [130.4583012, 32.0776293], [130.4583736, 32.0777839], [130.4584245, 32.0779566], [130.4584406, 32.0781339], [130.4584326, 32.0785611], [130.4584004, 32.0789657], [130.4584084, 32.0792018], [130.4584487, 32.0793657], [130.4585211, 32.07952], [130.458623, 32.0796654], [130.4587893, 32.0798018], [130.4589529, 32.0799247], [130.4592721, 32.0800927], [130.460286, 32.0806381], [130.4604952, 32.0807609], [130.460699, 32.0809245], [130.4608788, 32.0811111], [130.4611389, 32.0814017], [130.461906, 32.082279], [130.4620723, 32.0824789], [130.4622279, 32.0826198], [130.4624318, 32.0827244], [130.4629897, 32.0829516], [130.4633491, 32.0830698], [130.4635234, 32.0831564], [130.4636924, 32.0832834], [130.4640223, 32.0836064], [130.4641752, 32.0837061], [130.4643469, 32.0837834], [130.4645668, 32.0838652], [130.4650898, 32.0840609], [130.4653124, 32.0841152], [130.4657684, 32.0841424], [130.4660581, 32.0841925], [130.4665114, 32.0841927], [130.4667179, 32.0841743], [130.4669379, 32.0841288], [130.4670773, 32.0840925], [130.4675494, 32.0839334], [130.4680054, 32.0837744], [130.4681255, 32.0837421], [130.4684909, 32.08362], [130.4686491, 32.0835607], [130.4687832, 32.0834925], [130.4688959, 32.0834198], [130.4689871, 32.083338], [130.4690729, 32.0832334], [130.4693248, 32.0829282], [130.469443, 32.0828289], [130.4695772, 32.0827471], [130.4697327, 32.082688], [130.4699205, 32.0826926], [130.4700465, 32.0827292], [130.470355, 32.0827971], [130.4705267, 32.0828244], [130.4707225, 32.0828155], [130.4709075, 32.0827926], [130.4710899, 32.0827198], [130.471393, 32.0825792], [130.4715835, 32.0824699], [130.4717552, 32.0822926], [130.4718409, 32.0821062], [130.4718463, 32.0819835], [130.4718463, 32.0818563], [130.4717712, 32.0815563], [130.4717551, 32.0813931], [130.471798, 32.0812476], [130.4718892, 32.0810736], [130.472093, 32.0808474], [130.4724685, 32.0804747], [130.4726831, 32.0802884], [130.4728333, 32.0801929], [130.473005, 32.0801372], [130.4731659, 32.0801202], [130.473418, 32.0801566], [130.4738955, 32.0802384], [130.4742603, 32.0803247], [130.4746143, 32.080452], [130.4748611, 32.080552], [130.4750703, 32.0806747], [130.4752151, 32.0807963], [130.4753278, 32.0809474], [130.4754351, 32.081102], [130.4755745, 32.0812656], [130.4756926, 32.0813701], [130.4759769, 32.081502], [130.4763309, 32.0816144], [130.4764972, 32.0816429], [130.4766903, 32.0816383], [130.4768781, 32.0816065], [130.4770658, 32.0815201], [130.4773663, 32.0813599], [130.4775916, 32.0812417], [130.4777632, 32.0811792], [130.4779242, 32.0811474], [130.4780636, 32.0811656], [130.478246, 32.0812156], [130.4784499, 32.0813008], [130.4788737, 32.081511], [130.4791258, 32.0815826], [130.4793135, 32.0816156], [130.4794745, 32.0816099], [130.4797373, 32.0815792], [130.4800163, 32.0815383], [130.4802255, 32.0815247], [130.4804132, 32.0815201], [130.4806493, 32.0815508], [130.4809497, 32.0815917], [130.4811589, 32.0816156], [130.4813413, 32.0816235], [130.4815344, 32.081611], [130.4817651, 32.0815565], [130.4827092, 32.0812656], [130.4833261, 32.0810792], [130.4835568, 32.0810145], [130.4837177, 32.0809838], [130.4838947, 32.0809781], [130.4840289, 32.0810054], [130.484163, 32.0810463], [130.4842917, 32.0811383], [130.4849033, 32.0816326], [130.4852305, 32.0818883], [130.4854075, 32.0819735], [130.4855845, 32.0820201], [130.4857562, 32.0820326], [130.485901, 32.082011], [130.486121, 32.081961], [130.4863517, 32.0818565], [130.4866306, 32.0817519], [130.4868398, 32.0817019], [130.4870007, 32.0816747], [130.4872153, 32.081661], [130.4873977, 32.0816792], [130.4877518, 32.081711], [130.4879449, 32.0817201], [130.4880683, 32.0817019], [130.4882185, 32.0816519], [130.4883311, 32.0815929], [130.4884384, 32.081502], [130.4885135, 32.0814054], [130.4885779, 32.0812417], [130.4887066, 32.0809645], [130.4888032, 32.0808293], [130.4889051, 32.0807293], [130.4890607, 32.0806338], [130.4892002, 32.080602], [130.4893986, 32.0805918], [130.489581, 32.0806247], [130.4898814, 32.080702], [130.4908256, 32.0809554], [130.4910777, 32.081052], [130.4916892, 32.0813201], [130.4919467, 32.0814235], [130.492156, 32.0814735], [130.4923437, 32.0814974], [130.49251, 32.0815156], [130.4926817, 32.0815008], [130.4928533, 32.0814781], [130.4930143, 32.0814383], [130.4931966, 32.0813838], [130.4933576, 32.0813065], [130.4935453, 32.081169], [130.4937492, 32.0810111], [130.4938833, 32.0808974], [130.494012, 32.0807838], [130.4941504, 32.0806205], [130.4942856, 32.0804645], [130.4944841, 32.080202], [130.4946076, 32.080027], [130.4947364, 32.0798702], [130.4948569, 32.0796668], [130.4949268, 32.0795202], [130.4949509, 32.0793861], [130.4949429, 32.0792566], [130.4949123, 32.0791526], [130.4947703, 32.078845], [130.4947431, 32.0786023], [130.4947588, 32.0783895], [130.4948258, 32.0781595], [130.494862, 32.0780841], [130.4949443, 32.0779131], [130.4952822, 32.0773501], [130.4954963, 32.0771878], [130.4957554, 32.0770157], [130.4959646, 32.0769111], [130.4961148, 32.0767566], [130.4962865, 32.0763429], [130.4964152, 32.076152], [130.4965762, 32.0760566], [130.4968337, 32.0759793], [130.4972521, 32.0759384], [130.4974667, 32.0758884], [130.4976759, 32.0757929], [130.4978905, 32.0756338], [130.4980299, 32.0754656], [130.4985932, 32.0746929], [130.4987273, 32.0745247], [130.4988453, 32.0744065], [130.4989794, 32.074302], [130.4991833, 32.074252], [130.4994086, 32.0742202], [130.5004064, 32.0741292], [130.5006692, 32.0740474], [130.5008784, 32.0738701], [130.50092, 32.0736422], [130.5008717, 32.073424], [130.5006786, 32.073274], [130.5003299, 32.0731512], [130.500063, 32.0730656], [130.4998538, 32.0729156], [130.4997787, 32.0726746], [130.4998056, 32.0724428], [130.5000148, 32.0722564], [130.5002454, 32.0721701], [130.5004823, 32.0721325], [130.5005029, 32.0721292], [130.5010286, 32.0720791], [130.5013076, 32.0719837], [130.50149, 32.0718291], [130.5018172, 32.0714564], [130.5020573, 32.0713064], [130.5022681, 32.0712418], [130.5027917, 32.0711248], [130.5030349, 32.07107], [130.503625, 32.0708654], [130.5038825, 32.0707927], [130.5045477, 32.0706972], [130.5048749, 32.0706745], [130.5050949, 32.0706745], [130.5053041, 32.07072], [130.5055026, 32.0708063], [130.5057332, 32.0709654], [130.5059317, 32.0710609], [130.5061463, 32.0711382], [130.5063609, 32.0711518], [130.5065754, 32.0710745], [130.5067565, 32.0708966], [130.5067833, 32.0706375], [130.5067364, 32.0702381], [130.50679, 32.0700063], [130.5069453, 32.0698019], [130.5073852, 32.0696656], [130.5078122, 32.0694937], [130.5082156, 32.0690646], [130.5085053, 32.0686828], [130.5087478, 32.0682291], [130.5090053, 32.0676108], [130.5092628, 32.0672744], [130.5096061, 32.0670471], [130.5099279, 32.0669562], [130.5100674, 32.066738], [130.5100996, 32.0663925], [130.5098958, 32.0662561], [130.5096383, 32.0661379], [130.5093207, 32.065977], [130.5090771, 32.0657211], [130.5090433, 32.0653301], [130.509179, 32.064958], [130.509252, 32.064738], [130.509391, 32.064496], [130.509501, 32.064365], [130.509861, 32.064023], [130.510225, 32.063667], [130.510595, 32.063324], [130.510774, 32.063127], [130.510926, 32.062913], [130.511038, 32.062643], [130.511111, 32.062389], [130.511171, 32.062073], [130.51123, 32.061882], [130.511349, 32.061673], [130.511389, 32.061634], [130.511521, 32.061538], [130.511713, 32.061453], [130.511859, 32.061397], [130.5124, 32.061244], [130.512625, 32.061166], [130.512863, 32.061053], [130.512916, 32.061019], [130.513082, 32.060873], [130.513234, 32.060608], [130.513353, 32.060343], [130.513446, 32.060202], [130.513538, 32.060101], [130.513657, 32.059999], [130.51373, 32.059959], [130.513922, 32.059885], [130.513988, 32.059857], [130.514213, 32.059864], [130.514345, 32.059897], [130.514583, 32.059992], [130.514987, 32.060224], [130.515106, 32.060274], [130.515232, 32.060302], [130.515404, 32.060302], [130.515543, 32.060252], [130.515635, 32.060191], [130.515735, 32.060101], [130.51592, 32.059869], [130.516132, 32.059559], [130.516277, 32.059367], [130.516383, 32.059271], [130.516508, 32.059192], [130.516647, 32.05917], [130.51671, 32.059169], [130.517178, 32.059164], [130.517343, 32.059136], [130.517521, 32.059074], [130.517773, 32.05895], [130.517846, 32.058884], [130.518042, 32.058687], [130.518206, 32.0585], [130.518309, 32.058415], [130.518402, 32.058365], [130.51844, 32.058349], [130.518574, 32.058297], [130.518646, 32.05828], [130.518878, 32.05828], [130.519103, 32.058325], [130.519275, 32.058382], [130.519764, 32.05859], [130.520062, 32.058663], [130.520373, 32.058692], [130.5208692, 32.0587367], [130.521061, 32.058754], [130.5215397, 32.058758], [130.521954, 32.058759], [130.522115, 32.058756], [130.522275, 32.058746], [130.522801, 32.058714], [130.523502, 32.058624], [130.524018, 32.058562], [130.524613, 32.058461], [130.524951, 32.058382], [130.525613, 32.058193], [130.525644, 32.058184], [130.526167, 32.058027], [130.526746, 32.057855], [130.527219, 32.057699], [130.52745, 32.057627], [130.527517, 32.057599], [130.528047, 32.057412], [130.528072, 32.057395], [130.528529, 32.057232], [130.528905, 32.057142], [130.529184, 32.057102], [130.529422, 32.057057], [130.529667, 32.056995], [130.529958, 32.056893], [130.530344, 32.056695], [130.530428, 32.056635], [130.530825, 32.056448], [130.530852, 32.056437], [130.531381, 32.056262], [130.53152, 32.056233], [130.531553, 32.056217], [130.531764, 32.056211], [130.53191, 32.056228], [130.532115, 32.056285], [130.532545, 32.056498], [130.533067, 32.05682], [130.533259, 32.056905], [130.533412, 32.056945], [130.53363, 32.05695], [130.533769, 32.056938], [130.533954, 32.0569], [130.534185, 32.056825], [130.534344, 32.056758], [130.534457, 32.056685], [130.534701, 32.056449], [130.5349, 32.056223], [130.535264, 32.055722], [130.535568, 32.055372], [130.5358, 32.055158], [130.536031, 32.054978], [130.53615, 32.054904], [130.536296, 32.054831], [130.536322, 32.054809], [130.536481, 32.054735], [130.536644, 32.05469], [130.536746, 32.054662], [130.536944, 32.054645], [130.537763, 32.054628], [130.539106, 32.054611], [130.539384, 32.0546], [130.539675, 32.054583], [130.539848, 32.054555], [130.539933, 32.054542], [130.540133, 32.05451], [130.540609, 32.054476], [130.541125, 32.054465], [130.541998, 32.054493], [130.542679, 32.054561], [130.54305, 32.054611], [130.543401, 32.054611], [130.543679, 32.054589], [130.54391, 32.054555], [130.544122, 32.054493], [130.544393, 32.054397], [130.544717, 32.054267], [130.544909, 32.054172], [130.545153, 32.054033], [130.545246, 32.05398], [130.545484, 32.053777], [130.545577, 32.053659], [130.545656, 32.053524], [130.545901, 32.053073], [130.546014, 32.052898], [130.546186, 32.052677], [130.546325, 32.052547], [130.546464, 32.052457], [130.546583, 32.052401], [130.547059, 32.052237], [130.547251, 32.052158], [130.547476, 32.05204], [130.547641, 32.051883], [130.547774, 32.051685], [130.547946, 32.051399], [130.548243, 32.050812], [130.548362, 32.050553], [130.54845, 32.0503], [130.548502, 32.050188], [130.54858, 32.050062], [130.54872, 32.049894], [130.548859, 32.049792], [130.548944, 32.049753], [130.549117, 32.049696], [130.549232, 32.049687], [130.549348, 32.049691], [130.549434, 32.049717], [130.549533, 32.049747], [130.549692, 32.049832], [130.549857, 32.049973], [130.550167, 32.050311], [130.5503, 32.050435], [130.550525, 32.050564], [130.550736, 32.050632], [130.55104, 32.050677], [130.55149, 32.050677], [130.552815, 32.050662], [130.554363, 32.050644], [130.554514, 32.050598], [130.554885, 32.050413], [130.555143, 32.050271], [130.555467, 32.050136], [130.555784, 32.050023], [130.556096, 32.049916], [130.556539, 32.049804], [130.556889, 32.04973], [130.557379, 32.049674], [130.558199, 32.049679], [130.558398, 32.049696], [130.558788, 32.049764], [130.559172, 32.049798], [130.560104, 32.049804], [130.560323, 32.049821], [130.560712, 32.049871], [130.560963, 32.049899], [130.561757, 32.0499], [130.563027, 32.049888], [130.563432, 32.049917], [130.563607, 32.049959], [130.564495, 32.050064], [130.56466, 32.050087], [130.565006, 32.050125], [130.565198, 32.050159], [130.565291, 32.05017], [130.565496, 32.050215], [130.565999, 32.050339], [130.566455, 32.050492], [130.566653, 32.050559], [130.56711, 32.050757], [130.567388, 32.050892], [130.567844, 32.05114], [130.568195, 32.05132], [130.568491, 32.051471], [130.568614, 32.051534], [130.568836, 32.051647], [130.569742, 32.052074], [130.570185, 32.052284], [130.57078, 32.052572], [130.570879, 32.052611], [130.571038, 32.052656], [130.571627, 32.052899], [130.572283, 32.05316], [130.572379, 32.053182], [130.572421, 32.053186], [130.57252, 32.053179], [130.572607, 32.053163], [130.572918, 32.053067], [130.57313, 32.052994], [130.573613, 32.052859], [130.573804, 32.052819], [130.574035, 32.05281], [130.574274, 32.052819], [130.574572, 32.052853], [130.574631, 32.05287], [130.574863, 32.052932], [130.574969, 32.052949], [130.575054, 32.052985], [130.575183, 32.053064], [130.575324, 32.053118], [130.575624, 32.053197], [130.575934, 32.053271], [130.576391, 32.053327], [130.576933, 32.053327], [130.577138, 32.05331], [130.577361, 32.053277], [130.577482, 32.053259], [130.57776, 32.053209], [130.578064, 32.053113], [130.578303, 32.052994], [130.578469, 32.052893], [130.57857, 32.052849], [130.578971, 32.05271], [130.578997, 32.052701], [130.579176, 32.052645], [130.5802, 32.052397], [130.580326, 32.052358], [130.580617, 32.05229], [130.580703, 32.052273], [130.581067, 32.052177], [130.581715, 32.052014], [130.582867, 32.051725], [130.583, 32.051687], [130.583119, 32.051659], [130.583165, 32.051642], [130.583502, 32.05159], [130.58374, 32.051567], [130.583965, 32.051567], [130.584157, 32.051567], [130.584295, 32.05159], [130.584369, 32.051607], [130.58448, 32.05163], [130.584785, 32.05176], [130.585083, 32.051924], [130.585428, 32.052137], [130.585838, 32.052368], [130.586062, 32.052465], [130.586261, 32.052527], [130.586486, 32.052555], [130.586849, 32.052548], [130.587068, 32.052515], [130.587081, 32.052503], [130.587174, 32.052487], [130.587511, 32.052362], [130.587637, 32.052307], [130.588411, 32.051974], [130.588689, 32.051907], [130.588967, 32.051879], [130.589291, 32.051862], [130.589489, 32.051839], [130.589985, 32.051789], [130.59019, 32.05176], [130.590925, 32.051686], [130.5918634, 32.051616], [130.5923142, 32.051537], [130.592591, 32.051511], [130.592756, 32.0515], [130.5930992, 32.0514265], [130.593444, 32.0513373], [130.593715, 32.051241], [130.5941783, 32.050973], [130.5945277, 32.0507337], [130.5947488, 32.0505984], [130.5950528, 32.0504123], [130.5951392, 32.0503593], [130.5953892, 32.0502445], [130.5956707, 32.050143], [130.5960046, 32.0500377], [130.5966741, 32.0498866], [130.5971425, 32.0497705], [130.5972161, 32.0497513], [130.5972603, 32.0499983], [130.5973394, 32.0502479], [130.5974535, 32.0505171], [130.5976135, 32.0507978], [130.5977421, 32.0510299], [130.5977649, 32.0510687], [130.5983532, 32.0520226], [130.5983901, 32.0520813], [130.5987295, 32.052579], [130.5988688, 32.0527897], [130.5989847, 32.0529451], [130.5994065, 32.0534425], [130.5997593, 32.0537577], [130.6003638, 32.0543095], [130.6007428, 32.0546502], [130.6011619, 32.0550372], [130.6014171, 32.0553171], [130.6016882, 32.0556899], [130.6019533, 32.0561484], [130.6020454, 32.0563043], [130.6021897, 32.0565935], [130.6022591, 32.0567396], [130.6023767, 32.0570431], [130.6024208, 32.0571454], [130.6024799, 32.0572655], [130.6025795, 32.0574774], [130.6027142, 32.0577054], [130.6030018, 32.0580019], [130.6040742, 32.058687], [130.604094, 32.0586995], [130.6053057, 32.0594638], [130.6054164, 32.05953], [130.6055979, 32.0591484], [130.6059965, 32.05831], [130.6064869, 32.0572602], [130.6066972, 32.0567981], [130.6068918, 32.0563954], [130.6070528, 32.0561593], [130.6072077, 32.0559839], [130.6073899, 32.055829], [130.6075699, 32.0556969], [130.6077726, 32.055599], [130.6080711, 32.0554919], [130.608349, 32.0554167], [130.6086223, 32.0553848], [130.608882, 32.0553712], [130.6091668, 32.0554008], [130.6101498, 32.0556165], [130.6110723, 32.0558367], [130.6112232, 32.055872], [130.6125807, 32.0561663], [130.6128088, 32.0562051], [130.6136881, 32.0563331], [130.6138547, 32.0563458], [130.6142163, 32.0563606], [130.6145241, 32.0563723], [130.6147359, 32.0563769], [130.6151942, 32.056363], [130.6154637, 32.0563456], [130.6156557, 32.0563199], [130.6157713, 32.0563012], [130.6159222, 32.0562767], [130.6161614, 32.0562277], [130.6170806, 32.0560056], [130.6178494, 32.0558108], [130.6185259, 32.0556445], [130.6186535, 32.0556024], [130.6187537, 32.0555568], [130.6188733, 32.0554862], [130.6189815, 32.0554008], [130.6190294, 32.0553507], [130.6190396, 32.0553415], [130.6192822, 32.0550807], [130.6193228, 32.0550418], [130.6201957, 32.0540737], [130.6215099, 32.0526289], [130.6219752, 32.0521094], [130.6224931, 32.0515715], [130.6225833, 32.0516376], [130.623106, 32.051981], [130.623663, 32.052361], [130.623961, 32.052569], [130.6244174, 32.0528564], [130.6259584, 32.0538386], [130.6270278, 32.05451], [130.6276222, 32.0547765], [130.6282526, 32.0550342], [130.6287776, 32.0552266], [130.628957, 32.055269], [130.6292831, 32.0552965], [130.6295346, 32.0552904], [130.6298023, 32.0552448], [130.6298913, 32.0552168], [130.6299525, 32.0552049], [130.6305117, 32.0549688], [130.6310441, 32.0547138], [130.6318613, 32.0543065], [130.632687, 32.0539101], [130.6329051, 32.0538332], [130.6330903, 32.0537794], [130.6333925, 32.0537002], [130.6336275, 32.0536667], [130.6338957, 32.0536462], [130.6341712, 32.0536493], [130.6343461, 32.0536593], [130.6345423, 32.0536842], [130.6347898, 32.0537171], [130.635063, 32.053781], [130.635652, 32.054001], [130.636174, 32.054193], [130.636413, 32.054289], [130.636549, 32.054339], [130.6366074, 32.0543627], [130.6366701, 32.0543876], [130.6388878, 32.0552673], [130.6391661, 32.0553692], [130.6393271, 32.0554369], [130.6399045, 32.0556702], [130.640394, 32.0558979], [130.640567, 32.056008], [130.640752, 32.056126], [130.6409869, 32.0562891], [130.6413428, 32.0565845], [130.6416636, 32.0569166], [130.642071, 32.0573249], [130.6424053, 32.0576585], [130.6429438, 32.0582043], [130.643123, 32.058419], [130.6436844, 32.058933], [130.6441159, 32.0593059], [130.6445069, 32.0596146], [130.6450507, 32.0600195], [130.6456134, 32.0604569], [130.6457108, 32.0605265], [130.6458093, 32.060591], [130.646494, 32.061126], [130.646752, 32.061318], [130.6472144, 32.0616642], [130.6474771, 32.0618526], [130.6477042, 32.0620166], [130.6477915, 32.0620785], [130.6478663, 32.0621526], [130.648193, 32.0623313], [130.6485594, 32.0625246], [130.648734, 32.0626523], [130.6490056, 32.0629003], [130.6492593, 32.0631164], [130.6495937, 32.0633316], [130.6499603, 32.0635193], [130.6503662, 32.0636552], [130.6517067, 32.0640843], [130.6535023, 32.0646588], [130.6537686, 32.0647615], [130.6541369, 32.0649247], [130.654635, 32.065197], [130.654987, 32.065383], [130.655543, 32.065642], [130.656014, 32.065822], [130.65643, 32.065963], [130.656477, 32.065981], [130.656834, 32.066121], [130.657058, 32.0662], [130.657364, 32.066262], [130.657535, 32.066273], [130.65786, 32.066324], [130.658177, 32.066397], [130.658527, 32.066487], [130.65897, 32.066634], [130.65911, 32.066673], [130.659218, 32.066702], [130.659302, 32.066724], [130.659319, 32.066726], [130.659632, 32.066764], [130.660835, 32.066758], [130.661115, 32.066801], [130.661562, 32.066807], [130.661911, 32.066873], [130.66226, 32.066997], [130.662744, 32.067255], [130.662974, 32.067366], [130.663003, 32.06738], [130.663333, 32.067543], [130.663495, 32.067605], [130.663755, 32.067667], [130.664078, 32.067729], [130.664297, 32.067756], [130.664661, 32.067752], [130.665636, 32.067747], [130.665993, 32.067745], [130.667865, 32.067668], [130.668245, 32.067655], [130.668725, 32.06764], [130.669084, 32.067605], [130.66947, 32.067552], [130.669991, 32.067501], [130.670474, 32.067428], [130.670798, 32.067388], [130.671143, 32.067372], [130.671394, 32.067376], [130.671604, 32.067395], [130.671868, 32.067477], [130.672089, 32.067581], [130.672492, 32.067785], [130.672622, 32.06787], [130.672794, 32.06803], [130.673026, 32.068243], [130.67411, 32.06945], [130.674443, 32.069806], [130.674925, 32.070481], [130.675297, 32.071058], [130.675398, 32.071209], [130.675485, 32.071343], [130.675581, 32.07146], [130.676046, 32.071951], [130.676556, 32.07243], [130.676719, 32.072609], [130.676883, 32.072725], [130.677065, 32.072864], [130.677267, 32.072964], [130.678133, 32.073324], [130.678361, 32.073371], [130.678695, 32.073434], [130.679181, 32.073465], [130.679446, 32.073476], [130.680884, 32.073568], [130.680991, 32.073576], [130.681733, 32.07363], [130.682226, 32.073625], [130.682533, 32.073605], [130.6831, 32.073548], [130.684075, 32.073383], [130.684557, 32.07329], [130.68559, 32.073159], [130.68664, 32.073109], [130.687127, 32.073045], [130.687548, 32.072989], [130.687958, 32.072881], [130.688028, 32.072849], [130.688739, 32.072557], [130.6888307, 32.0725379], [130.689042, 32.072494], [130.689281, 32.072444], [130.689393, 32.072424], [130.6894944, 32.0724287], [130.689652, 32.072436], [130.689964, 32.072497], [130.6902262, 32.0725185], [130.6904616, 32.0725717], [130.6906244, 32.0725885], [130.6908147, 32.0726133], [130.6909505, 32.072614], [130.6911247, 32.0726367], [130.6913124, 32.0726632], [130.6916201, 32.0726811], [130.6917554, 32.0726801], [130.6919234, 32.0727131], [130.6921365, 32.0727358], [130.6927371, 32.0727564], [130.6932923, 32.0727337], [130.6937912, 32.0726587], [130.6941828, 32.0725723], [130.694567, 32.072452], [130.69468, 32.072413], [130.695123, 32.072339], [130.69542, 32.072249], [130.695751, 32.072114], [130.695916, 32.072081], [130.696082, 32.072063], [130.6962578, 32.0720637], [130.69634, 32.072064], [130.696685, 32.072131], [130.696956, 32.072227], [130.697069, 32.072278], [130.697174, 32.072357], [130.697519, 32.072644], [130.697577, 32.072672], [130.69767, 32.072666], [130.697704, 32.072644], [130.697744, 32.072593], [130.697802, 32.072469], [130.697916, 32.072396], [130.698027, 32.072402], [130.698147, 32.072436], [130.698212, 32.072475], [130.698259, 32.072526], [130.698312, 32.072627], [130.698312, 32.072734], [130.698266, 32.072881], [130.698252, 32.072988], [130.698286, 32.073061], [130.698319, 32.073106], [130.698377, 32.07314], [130.698417, 32.073146], [130.698491, 32.073134], [130.698564, 32.073084], [130.69861, 32.072999], [130.69863, 32.072881], [130.698656, 32.072819], [130.698745, 32.072769], [130.698837, 32.072744], [130.698924, 32.072744], [130.699, 32.072757], [130.699112, 32.072796], [130.699252, 32.072909], [130.699417, 32.072983], [130.699708, 32.073067], [130.69986, 32.07314], [130.700006, 32.073259], [130.700171, 32.073394], [130.700244, 32.073428], [130.700383, 32.073428], [130.700548, 32.073338], [130.700694, 32.073281], [130.700767, 32.073276], [130.700879, 32.073315], [130.701064, 32.07345], [130.701197, 32.073495], [130.701282, 32.073507], [130.701408, 32.073473], [130.701461, 32.07345], [130.701627, 32.073315], [130.701726, 32.073219], [130.701918, 32.073129], [130.702123, 32.073112], [130.702282, 32.07305], [130.702493, 32.072943], [130.702606, 32.07292], [130.702679, 32.07292], [130.702851, 32.072954], [130.703082, 32.072988], [130.7034358, 32.0730208], [130.703777, 32.073052], [130.704115, 32.0730883], [130.7044636, 32.0731883], [130.7048445, 32.0734838], [130.7051396, 32.0738027], [130.7052147, 32.073852], [130.7053756, 32.0738747], [130.7055473, 32.0737702], [130.7056081, 32.0736959], [130.7056063, 32.0735929], [130.705558, 32.0734474], [130.7054239, 32.0733936], [130.7052576, 32.0733436], [130.7051718, 32.0732247], [130.7051718, 32.0730792], [130.7051557, 32.0729345], [130.7050376, 32.0728747], [130.7048928, 32.0728845], [130.704807, 32.0728208], [130.7047319, 32.0726845], [130.704646, 32.0725526], [130.7044958, 32.0724981], [130.7041954, 32.0724299], [130.7039916, 32.0723474], [130.7038789, 32.072211], [130.7038199, 32.0718201], [130.7038038, 32.071598], [130.7036804, 32.071561], [130.7034592, 32.0716649], [130.703082, 32.071865], [130.702983, 32.071906], [130.702824, 32.071906], [130.702705, 32.071861], [130.702619, 32.071799], [130.702513, 32.071697], [130.702421, 32.071652], [130.702368, 32.071635], [130.702182, 32.07164], [130.702076, 32.071657], [130.702037, 32.071674], [130.701885, 32.071707], [130.701679, 32.071702], [130.701514, 32.071646], [130.701223, 32.07151], [130.701124, 32.071442], [130.700866, 32.071116], [130.7008, 32.071077], [130.700237, 32.070976], [130.700132, 32.070897], [130.700066, 32.070777], [130.700045, 32.070711], [130.700052, 32.070587], [130.700079, 32.070512], [130.700137, 32.070446], [130.700211, 32.070377], [130.700291, 32.070332], [130.700879, 32.070157], [130.701118, 32.070046], [130.701283, 32.069939], [130.701356, 32.069865], [130.701382, 32.069797], [130.701402, 32.069685], [130.701411, 32.069347], [130.7014342, 32.0692705], [130.7015113, 32.0691769], [130.7015829, 32.0691256], [130.7016662, 32.0691048], [130.7018272, 32.0691449], [130.7020522, 32.0691609], [130.7022302, 32.0691439], [130.7023362, 32.0690989], [130.7024552, 32.0690199], [130.7025742, 32.0688959], [130.7026542, 32.0687439], [130.7026542, 32.0686199], [130.7025542, 32.0684959], [130.7023622, 32.0683099], [130.7022962, 32.0681629], [130.7022962, 32.0679319], [130.7023432, 32.0676449], [130.7023692, 32.0675539], [130.7023872, 32.0675119], [130.7024362, 32.0674759], [130.7025182, 32.0674419], [130.7027002, 32.0674589], [130.7028382, 32.0675966], [130.7031429, 32.0677253], [130.7033821, 32.0677823], [130.703658, 32.0678225], [130.7038662, 32.0678012], [130.70393, 32.0677258], [130.703949, 32.067249], [130.703909, 32.067075], [130.70387, 32.066878], [130.703847, 32.066738], [130.703872, 32.066653], [130.703916, 32.066591], [130.704009, 32.066545], [130.704194, 32.066557], [130.704386, 32.066619], [130.704498, 32.066619], [130.704555, 32.066582], [130.704581, 32.066526], [130.704578, 32.066387], [130.704518, 32.066185], [130.704491, 32.066055], [130.704399, 32.065914], [130.704286, 32.065818], [130.704088, 32.065683], [130.704024, 32.065616], [130.704013, 32.065574], [130.704022, 32.065525], [130.704161, 32.06535], [130.704194, 32.065283], [130.704194, 32.065153], [130.704108, 32.064911], [130.704042, 32.064764], [130.704038, 32.064703], [130.704055, 32.064657], [130.704088, 32.064623], [130.704181, 32.064578], [130.704425, 32.064488], [130.704598, 32.064392], [130.704703, 32.064341], [130.704836, 32.064325], [130.704915, 32.064342], [130.704988, 32.064387], [130.705166, 32.064516], [130.705424, 32.064595], [130.705656, 32.064606], [130.705761, 32.064652], [130.705993, 32.064758], [130.706205, 32.064877], [130.706337, 32.064922], [130.706423, 32.064989], [130.706436, 32.065114], [130.70639, 32.065187], [130.706304, 32.065288], [130.706211, 32.065356], [130.706059, 32.065441], [130.70598, 32.065491], [130.705934, 32.065559], [130.705911, 32.065638], [130.705911, 32.065695], [130.70592, 32.065745], [130.70598, 32.065852], [130.706066, 32.065954], [130.706092, 32.065982], [130.706264, 32.066055], [130.706357, 32.066072], [130.706608, 32.066072], [130.706864, 32.066018], [130.706959, 32.065999], [130.707462, 32.065852], [130.707634, 32.065846], [130.7077, 32.065891], [130.707832, 32.066083], [130.707898, 32.066156], [130.707964, 32.066179], [130.708176, 32.066201], [130.708335, 32.066235], [130.708408, 32.066309], [130.708566, 32.066512], [130.708612, 32.066737], [130.708652, 32.06681], [130.708732, 32.066884], [130.70901, 32.067058], [130.709142, 32.067115], [130.709294, 32.06712], [130.709425, 32.067075], [130.709492, 32.067024], [130.70969, 32.066608], [130.709803, 32.066495], [130.709849, 32.066421], [130.709842, 32.066275], [130.709737, 32.066004], [130.709704, 32.065875], [130.709691, 32.065858], [130.709651, 32.065633], [130.709658, 32.065215], [130.709744, 32.064962], [130.709797, 32.064877], [130.709876, 32.064781], [130.709962, 32.064719], [130.710055, 32.06468], [130.710181, 32.064657], [130.710406, 32.064657], [130.710828, 32.064748], [130.71106, 32.064748], [130.711172, 32.064714], [130.71143, 32.064612], [130.711807, 32.064426], [130.712078, 32.064308], [130.712224, 32.064291], [130.712283, 32.064325], [130.71247, 32.064482], [130.712615, 32.064657], [130.712826, 32.06495], [130.712938, 32.064996], [130.713024, 32.065007], [130.713196, 32.064996], [130.713315, 32.064979], [130.713626, 32.064979], [130.713779, 32.065001], [130.713876, 32.065039], [130.714096, 32.065125], [130.714256, 32.065142], [130.714448, 32.065103], [130.714653, 32.065041], [130.714977, 32.064922], [130.715043, 32.064838], [130.715043, 32.064748], [130.715016, 32.064697], [130.714949, 32.064669], [130.714858, 32.064669], [130.714785, 32.064691], [130.714428, 32.064832], [130.714322, 32.064854], [130.71413, 32.06486], [130.713793, 32.064736], [130.713533, 32.064663], [130.713448, 32.064584], [130.713445, 32.064532], [130.713455, 32.064488], [130.713487, 32.064437], [130.713533, 32.064409], [130.713626, 32.064375], [130.713798, 32.064336], [130.714136, 32.064297], [130.714301, 32.064263], [130.714388, 32.064218], [130.71444, 32.064127], [130.71444, 32.063908], [130.714408, 32.063654], [130.714407, 32.063372], [130.714447, 32.063248], [130.714453, 32.063175], [130.71444, 32.063045], [130.714374, 32.062933], [130.714195, 32.062724], [130.714103, 32.062583], [130.714043, 32.062435], [130.714036, 32.062323], [130.714116, 32.062018], [130.714242, 32.06158], [130.714341, 32.06141], [130.71448, 32.061252], [130.714546, 32.061202], [130.714638, 32.061162], [130.714897, 32.061117], [130.715168, 32.061095], [130.715783, 32.061072], [130.716193, 32.061022], [130.716431, 32.06097], [130.716524, 32.06096], [130.716901, 32.060886], [130.717068, 32.06084], [130.717167, 32.060801], [130.717246, 32.060733], [130.717372, 32.060615], [130.717471, 32.060468], [130.717537, 32.060401], [130.71761, 32.060378], [130.717723, 32.060367], [130.717881, 32.060401], [130.718159, 32.060508], [130.718318, 32.060592], [130.718417, 32.060626], [130.718582, 32.060626], [130.718635, 32.060604], [130.718986, 32.060368], [130.719131, 32.060283], [130.719277, 32.060233], [130.719462, 32.060227], [130.719548, 32.060272], [130.719581, 32.060345], [130.719555, 32.060514], [130.719628, 32.060644], [130.719727, 32.060718], [130.719819, 32.060751], [130.719971, 32.060746], [130.720064, 32.060701], [130.72021, 32.060571], [130.720342, 32.060357], [130.720421, 32.060289], [130.720461, 32.060272], [130.720607, 32.060261], [130.720699, 32.060312], [130.720792, 32.060407], [130.720851, 32.060452], [130.720964, 32.060497], [130.721096, 32.060503], [130.721189, 32.06043], [130.721209, 32.060374], [130.721209, 32.060306], [130.721189, 32.06025], [130.721143, 32.060193], [130.72099, 32.060097], [130.720712, 32.059951], [130.720679, 32.059923], [130.720607, 32.059838], [130.720593, 32.059743], [130.720712, 32.059619], [130.720799, 32.059596], [130.720918, 32.05959], [130.721189, 32.059686], [130.721586, 32.059866], [130.721665, 32.059923], [130.721705, 32.059979], [130.721764, 32.060182], [130.721844, 32.060379], [130.721956, 32.060588], [130.722062, 32.060763], [130.722379, 32.061135], [130.722981, 32.061704], [130.723326, 32.062104], [130.723372, 32.062177], [130.723392, 32.062206], [130.723399, 32.062238], [130.723425, 32.062347], [130.723411, 32.062431], [130.723293, 32.062627], [130.723253, 32.062746], [130.723239, 32.063084], [130.723193, 32.063293], [130.723166, 32.063355], [130.723107, 32.063417], [130.723001, 32.063467], [130.722775, 32.063518], [130.722711, 32.063543], [130.722618, 32.063603], [130.722584, 32.063687], [130.722591, 32.063795], [130.722656, 32.063997], [130.722649, 32.064121], [130.722557, 32.064352], [130.722563, 32.06441], [130.72261, 32.064465], [130.722742, 32.064465], [130.722788, 32.064443], [130.722848, 32.064392], [130.722914, 32.064252], [130.722987, 32.06389], [130.723011, 32.06384], [130.72304, 32.0638], [130.723103, 32.063752], [130.723192, 32.063755], [130.723229, 32.063789], [130.723263, 32.06384], [130.723245, 32.063992], [130.723146, 32.064252], [130.722967, 32.064567], [130.722934, 32.06463], [130.722815, 32.064753], [130.722641, 32.0648625], [130.7225491, 32.0649316], [130.722488, 32.0649861], [130.7224517, 32.0650798]], [[130.7250885, 32.0667874], [130.7250674, 32.0668827], [130.7250156, 32.0669881], [130.7249658, 32.0671301], [130.7248788, 32.0672446], [130.7247627, 32.0674225], [130.7246339, 32.0676533], [130.724608, 32.067978], [130.724575, 32.068057], [130.724529, 32.068113], [130.7244749, 32.0681734], [130.7243359, 32.0682799], [130.7242059, 32.0683285], [130.724129, 32.0683894], [130.7241004, 32.0684284], [130.72408, 32.0684659], [130.7240713, 32.068537], [130.7241126, 32.0685931], [130.7241513, 32.0686507], [130.7243337, 32.0687615], [130.7247131, 32.068965], [130.7250819, 32.068941], [130.7253341, 32.0689205], [130.7255083, 32.0688471], [130.7256691, 32.0688259], [130.725843, 32.0688727], [130.7260662, 32.0689926], [130.7263129, 32.0690426], [130.7264035, 32.0690449], [130.7266483, 32.0689894], [130.7266981, 32.0689865], [130.7267708, 32.069007], [130.7268563, 32.0690529], [130.7269059, 32.0691212], [130.726955, 32.0693054], [130.7269174, 32.0694033], [130.7270517, 32.0694562], [130.7271772, 32.0695091], [130.7275938, 32.0696934], [130.7278367, 32.0698277], [130.7279822, 32.0699475], [130.7281684, 32.0701307], [130.7284845, 32.0705318], [130.7286819, 32.0708399], [130.728792, 32.0710872], [130.7288272, 32.0713642], [130.7287859, 32.0715833], [130.7285294, 32.0722821], [130.7285122, 32.0724365], [130.7285107, 32.0726957], [130.7285389, 32.0729769], [130.7286641, 32.0733854], [130.7288192, 32.0735794], [130.7290075, 32.0737385], [130.72914, 32.0738237], [130.7293438, 32.0739224], [130.729693, 32.0740058], [130.7302875, 32.0740551], [130.7305059, 32.0740134], [130.7308033, 32.0738746], [130.7309789, 32.0737189], [130.7313174, 32.0732342], [130.7314957, 32.0729671], [130.7316004, 32.0727144], [130.7316571, 32.0725319], [130.7316828, 32.0723137], [130.7317036, 32.0720268], [130.7317776, 32.0717814], [130.7318798, 32.0716032], [130.7320697, 32.0714177], [130.7322972, 32.0712084], [130.7325702, 32.0709977], [130.7329334, 32.0707106], [130.7333615, 32.0703779], [130.7337465, 32.0700682], [130.7342192, 32.0697845], [130.7344615, 32.0696837], [130.735198, 32.0693869], [130.735462, 32.0692626], [130.7359447, 32.0690562], [130.7362677, 32.0689405], [130.7364627, 32.0688664], [130.7368151, 32.0686277], [130.7370301, 32.0684225], [130.7372017, 32.0681171], [130.7374598, 32.0674967], [130.7376232, 32.0672442], [130.7378138, 32.0670336], [130.7380498, 32.0669003], [130.7385084, 32.0667207], [130.7386852, 32.0666731], [130.7389052, 32.0665623], [130.7391108, 32.0664256], [130.7393054, 32.0661787], [130.739404, 32.0659308], [130.7394934, 32.0655859], [130.7395517, 32.0653265], [130.7396782, 32.0650302], [130.7398562, 32.0647141], [130.740109, 32.0643968], [130.7404617, 32.0640358], [130.7408925, 32.0636074], [130.7413388, 32.0632001], [130.741701, 32.0628097], [130.7418975, 32.0625305], [130.7420812, 32.0622261], [130.7422434, 32.0619407], [130.7423721, 32.061728], [130.7424292, 32.0614652], [130.7424577, 32.0612829], [130.7424102, 32.0610131], [130.7422572, 32.0606762], [130.7421821, 32.06045], [130.7420187, 32.0600622], [130.741914, 32.0598326], [130.7418544, 32.059696], [130.7417874, 32.0594819], [130.7417807, 32.0592546], [130.7419094, 32.05895], [130.7421259, 32.0587206], [130.7424099, 32.058484], [130.7427409, 32.0582166], [130.7430591, 32.0579046], [130.7432613, 32.0575648], [130.7434123, 32.0571203], [130.7434674, 32.0568571], [130.7435488, 32.0565876], [130.7437191, 32.0563476], [130.7439981, 32.0561521], [130.7443669, 32.0560302], [130.7448016, 32.0559945], [130.745152, 32.0559742], [130.745396, 32.0559324], [130.7455673, 32.0558981], [130.7458067, 32.0558278], [130.7461625, 32.0556568], [130.7464265, 32.0553896], [130.7466339, 32.0551296], [130.7469013, 32.054837], [130.7471204, 32.054642], [130.7475329, 32.0543707], [130.7481861, 32.053944], [130.7486517, 32.0535615], [130.7490418, 32.0531723], [130.7490594, 32.0531533], [130.7493343, 32.0529902], [130.749665, 32.0528485], [130.7500755, 32.0527208], [130.7506128, 32.0525908], [130.750891, 32.0525344], [130.751381, 32.0524924], [130.7520391, 32.0524343], [130.7525822, 32.0523946], [130.7529033, 32.0523684], [130.7533437, 32.0523154], [130.754024, 32.0522222], [130.75448, 32.0521629], [130.7550256, 32.0520964], [130.755322, 32.0520945], [130.7562129, 32.0520984], [130.7568648, 32.0521117], [130.7572238, 32.05213], [130.757475, 32.0521432], [130.7576335, 32.0521531], [130.7579799, 32.0522278], [130.7582386, 32.052303], [130.7584394, 32.0523626], [130.7585803, 32.0524253], [130.7586682, 32.0524847], [130.7591907, 32.0529149], [130.759706, 32.0533396], [130.7601805, 32.05373], [130.7606907, 32.054151], [130.7608375, 32.0542814], [130.7614661, 32.0548202], [130.7618196, 32.0550949], [130.7619811, 32.0552203], [130.7623506, 32.0555001], [130.7626948, 32.0556955], [130.7630068, 32.0558005], [130.7634138, 32.0559131], [130.76386, 32.0559723], [130.7643181, 32.0559466], [130.7646256, 32.055898], [130.7648494, 32.0558657], [130.7650548, 32.0558336], [130.7651775, 32.0558384], [130.765189, 32.0557856], [130.7652129, 32.0556763], [130.7652554, 32.055482], [130.7652988, 32.0552072], [130.7653535, 32.0548612], [130.7654744, 32.0540782], [130.7655602, 32.0536199], [130.7656429, 32.0532928], [130.7657098, 32.0530284], [130.7658003, 32.0527563], [130.7658181, 32.0526751], [130.7658603, 32.0524922], [130.7659119, 32.052234], [130.7658922, 32.0520823], [130.7658445, 32.0519311], [130.7658039, 32.0518776], [130.7656114, 32.0516827], [130.7648567, 32.0508856], [130.7647114, 32.0507038], [130.7647147, 32.0503424], [130.7647623, 32.0499252], [130.7648046, 32.0493375], [130.7648277, 32.0485708], [130.7648343, 32.0483496], [130.7648315, 32.0477687], [130.7648313, 32.0477309], [130.7648497, 32.04723], [130.7648543, 32.0471034], [130.7653818, 32.0466908]]]}, "id": "relation/9663861"}]}