{"type": "FeatureCollection", "generator": "kokudo-quiz tools/fetch_raw.py (Overpass API)", "copyright": "The data included in this document is from www.openstreetmap.org. The data is made available under ODbL.", "timestamp": "2026-09-30T23:39:59Z", "features": [{"type": "Feature", "properties": {"@id": "relation/6605962", "colour": "red", "from": "北海道夕張市", "name": "国道452号", "name:en": "National Highway Route 452", "name:ja": "国道452号", "name:ja-Hira": "こくどうよんひゃくごじゅうにごう", "name:ja-Latn": "Kokudo 452 Gou", "network": "JP:national", "operator": "北海道開発局", "ref": "452", "route": "road", "to": "北海道旭川市", "type": "route", "wikidata": "Q6157586", "wikipedia": "ja:国道452号"}, "geometry": {"type": "MultiLineString", "coordinates": [[[142.0413716, 42.9387965], [142.0413815, 42.9390094], [142.0414475, 42.9391768], [142.0415688, 42.9393467], [142.0422533, 42.9400951], [142.0427098, 42.9405999], [142.0428058, 42.9407457], [142.042908, 42.9409321], [142.042979, 42.9411085], [142.0430226, 42.9413068], [142.0430368, 42.9413844], [142.0430343, 42.9414627], [142.0430056, 42.9416431], [142.0429695, 42.9417769], [142.0428902, 42.9419422], [142.0428294, 42.9420511], [142.0427286, 42.9421872], [142.0424821, 42.9424716], [142.0423884, 42.9425804], [142.0416169, 42.9434265], [142.0398827, 42.9453286], [142.0397067, 42.9455214], [142.0395246, 42.9457368], [142.0394192, 42.9458923], [142.0393536, 42.9460276], [142.0393127, 42.9461786], [142.0392986, 42.9463003], [142.0393039, 42.9463859], [142.0393215, 42.9465031], [142.03937, 42.9466338], [142.0394492, 42.9467871], [142.0395762, 42.946971], [142.0401595, 42.9478812], [142.0402386, 42.9480385], [142.0403053, 42.948214], [142.0403652, 42.9483924], [142.0404067, 42.9486069], [142.0404111, 42.9488056], [142.0403909, 42.9490404], [142.0403533, 42.9492443], [142.040281, 42.9494462], [142.0401901, 42.9496414], [142.0400461, 42.9498718], [142.0398466, 42.9501112], [142.0395339, 42.9504503], [142.038968, 42.9510337], [142.0384609, 42.9515476], [142.0379353, 42.9520298], [142.0371456, 42.9527762], [142.036867, 42.9529998], [142.0365598, 42.9531977], [142.0363374, 42.9533034], [142.0358504, 42.9535156], [142.03546, 42.9537121], [142.0351686, 42.9538636], [142.0341758, 42.9546469], [142.033506, 42.9551914], [142.0326214, 42.9559049], [142.0319625, 42.9564795], [142.0313509, 42.9569722], [142.0304875, 42.9575356], [142.0299265, 42.9578862], [142.0295268, 42.9581064], [142.0288944, 42.9584222], [142.0285812, 42.9585821], [142.0282051, 42.958742], [142.0279109, 42.9588415], [142.0272719, 42.9590605], [142.0268254, 42.959238], [142.0262783, 42.9594388], [142.0254189, 42.959775], [142.0219591, 42.9610584], [142.0212888, 42.9613172], [142.0206947, 42.9615723], [142.0203442, 42.9617388], [142.0199715, 42.9619235], [142.0195559, 42.9621475], [142.0191969, 42.9623834], [142.0188177, 42.9626494], [142.0173928, 42.9637877], [142.0161501, 42.9648078], [142.0145503, 42.966135], [142.012599, 42.9677354], [142.0104718, 42.9694457], [142.0100893, 42.9697532], [142.009298, 42.9704093], [142.0092163, 42.9704703], [142.0082669, 42.9711728], [142.0079384, 42.9714243], [142.0076671, 42.971699], [142.0074403, 42.9720003], [142.0072713, 42.9722361], [142.0070906, 42.9726578], [142.0069724, 42.973041], [142.0065306, 42.9750708], [142.0063427, 42.9759827], [142.0061596, 42.9767821], [142.0061059, 42.9770088], [142.006078, 42.97716], [142.006059, 42.9773187], [142.0060399, 42.9776485], [142.0060559, 42.9779171], [142.0060842, 42.9784883], [142.0061807, 42.9800992], [142.0062821, 42.9815452], [142.0063226, 42.9825476], [142.006365, 42.9834349], [142.0064572, 42.9850913], [142.0065788, 42.9866867], [142.0066576, 42.9880357], [142.0066647, 42.988158], [142.0066818, 42.9883868], [142.0066938, 42.9885838], [142.0067025, 42.9887263], [142.0067231, 42.9889608], [142.0067457, 42.989136], [142.0068448, 42.9896435], [142.0069839, 42.9901814], [142.0072291, 42.9909363], [142.0073863, 42.9914018], [142.0075435, 42.9918673], [142.007823, 42.992769], [142.0080117, 42.9933835], [142.0080494, 42.9935757], [142.0080579, 42.9938251], [142.008034, 42.9940681], [142.0079673, 42.9943338], [142.0078418, 42.99463], [142.0073611, 42.9954643], [142.0075431, 42.9954988], [142.007623, 42.9955102], [142.0084686, 42.9956307], [142.0089639, 42.9956895], [142.0092325, 42.9957209], [142.0093605, 42.9957416], [142.0095859, 42.9957874], [142.0096347, 42.9957973], [142.009809, 42.9958556], [142.010014, 42.9959358], [142.0101803, 42.9960344], [142.0104767, 42.9962486], [142.0111696, 42.996835], [142.0115004, 42.9971149], [142.0119607, 42.9975033], [142.0124029, 42.9978765], [142.0128853, 42.9982836], [142.0132764, 42.998594], [142.0137252, 42.9989441], [142.014161, 42.9992868], [142.0148347, 42.9998165], [142.0152171, 43.0001223], [142.0152822, 43.0001743], [142.0157458, 43.0005203], [142.0161635, 43.0008137], [142.0161872, 43.0008303], [142.0166593, 43.0011314], [142.01726, 43.0015197], [142.0179446, 43.0019656], [142.0185451, 43.0023531], [142.0187336, 43.0024735], [142.01911, 43.0027491], [142.0197268, 43.0031861], [142.0205877, 43.0038293], [142.0213347, 43.0044177], [142.021851, 43.0048276], [142.022186, 43.0050425], [142.0226584, 43.0053016], [142.0238602, 43.0059254], [142.0240937, 43.0060883], [142.0243307, 43.0062677], [142.02454, 43.0064647], [142.0247242, 43.006708], [142.025026, 43.007178], [142.0255713, 43.0080333], [142.0258051, 43.0083225], [142.0261253, 43.0086973], [142.0265729, 43.0091457], [142.0267816, 43.009314], [142.0270012, 43.0094814], [142.027268, 43.0096511], [142.0275088, 43.0097803], [142.0277678, 43.0098971], [142.0279751, 43.009983], [142.0282575, 43.0100807], [142.0296794, 43.0104552], [142.0300366, 43.0105405], [142.0303547, 43.0105988], [142.0306567, 43.0106375], [142.0309323, 43.0106555], [142.0311372, 43.0106587], [142.0313206, 43.010654], [142.0316517, 43.0106184], [142.0319058, 43.010581], [142.032133, 43.0105357], [142.0335576, 43.0101582], [142.0357544, 43.0095715], [142.0365073, 43.0093717], [142.0370064, 43.0092392], [142.0387144, 43.0087814], [142.0392216, 43.0086486], [142.0395426, 43.0085873], [142.0398559, 43.0085564], [142.0402103, 43.0085364], [142.04056, 43.0085387], [142.0410424, 43.0085746], [142.0422398, 43.008718], [142.0425067, 43.0087488], [142.0427688, 43.0087576], [142.0430733, 43.0087508], [142.0434004, 43.0087264], [142.0438249, 43.0086836], [142.0440751, 43.008693], [142.0443098, 43.0087238], [142.0444994, 43.0087708], [142.0446419, 43.00881], [142.0448383, 43.0089045], [142.0452093, 43.0091607], [142.0456106, 43.0094685], [142.0462109, 43.0099565], [142.0463788, 43.0100845], [142.0465123, 43.0101592], [142.0466298, 43.0102181], [142.0470819, 43.0103814], [142.048076, 43.0106904], [142.0483726, 43.0107872], [142.048895, 43.0109577], [142.0501299, 43.0113604], [142.0509297, 43.0116192], [142.0514055, 43.0117675], [142.0518797, 43.0119175], [142.0528988, 43.0122494], [142.0537568, 43.0125527], [142.054582, 43.0128611], [142.0557362, 43.0133349], [142.0574176, 43.013981], [142.0598634, 43.0148631], [142.0605706, 43.0151279], [142.0613342, 43.0154078], [142.0615175, 43.0154695], [142.0616787, 43.015523], [142.0619138, 43.0155807], [142.0621082, 43.0156254], [142.0629668, 43.01578], [142.0631094, 43.0158082], [142.0632613, 43.0158519], [142.0634331, 43.0159092], [142.063595, 43.0159744], [142.0637803, 43.0160589], [142.0639573, 43.0161523], [142.0641773, 43.0162924], [142.0648288, 43.0167666], [142.0651989, 43.0170422], [142.0664554, 43.0179828], [142.0668733, 43.0182739], [142.0671012, 43.0184109], [142.0674583, 43.0186005], [142.0675396, 43.0186437], [142.0695874, 43.0196898], [142.0697045, 43.0197431], [142.0719093, 43.0208667], [142.0738765, 43.0219092], [142.0742808, 43.0221224], [142.0747836, 43.022379], [142.0749307, 43.0224456], [142.0750639, 43.0224922], [142.0751958, 43.0225201], [142.0753464, 43.0225234], [142.0754771, 43.022513], [142.0762855, 43.0224582], [142.076766, 43.0224283], [142.077804, 43.022421], [142.0783889, 43.0224241], [142.0787099, 43.0224059], [142.0789773, 43.0223569], [142.0791719, 43.0223142], [142.0793684, 43.022271], [142.0797835, 43.0221564], [142.0800216, 43.0220906], [142.0801391, 43.0220603], [142.0804561, 43.0219911], [142.0806641, 43.0219655], [142.081037, 43.0219214], [142.0812101, 43.0219117], [142.0813336, 43.0219361], [142.0815419, 43.0220054], [142.0817747, 43.0220932], [142.0819176, 43.0221538], [142.0823726, 43.0223087], [142.0826071, 43.0223717], [142.0828744, 43.0224435], [142.0831608, 43.0225142], [142.0836473, 43.0226601], [142.0839182, 43.0227488], [142.0841472, 43.0228402], [142.0843881, 43.0229422], [142.0845418, 43.0230153], [142.0847947, 43.0231578], [142.0850176, 43.0232975], [142.0852824, 43.0234928], [142.0854058, 43.023589], [142.0855689, 43.0237343], [142.0857244, 43.0238964], [142.0859086, 43.0241134], [142.0860669, 43.0242946], [142.0862141, 43.0245072], [142.0963527, 43.0439474], [142.0963732, 43.0440098], [142.0964819, 43.0443204], [142.096567, 43.0446007], [142.0966311, 43.0448639], [142.0966675, 43.0450262], [142.0966995, 43.0451979], [142.0969531, 43.0470559], [142.097228, 43.0491047], [142.0972782, 43.0493856], [142.0973623, 43.0496767], [142.0974679, 43.0499805], [142.097631, 43.0503613], [142.0980258, 43.0511799], [142.0982726, 43.0516896], [142.0983551, 43.0519184], [142.0983943, 43.052065], [142.0984206, 43.0522179], [142.0984306, 43.052338], [142.0984291, 43.052644], [142.0984197, 43.0527465], [142.0984017, 43.0528427], [142.0983224, 43.0531595], [142.0981878, 43.0534849], [142.0980746, 43.0537437], [142.0979786, 43.054034], [142.0979376, 43.0541765], [142.0978968, 43.0544346], [142.0978894, 43.0545968], [142.0978992, 43.0547905], [142.09792, 43.0549906], [142.0979696, 43.055158], [142.0980261, 43.0553383], [142.0981025, 43.0555352], [142.0982294, 43.0558279], [142.0983115, 43.0559938], [142.0983768, 43.0561573], [142.0984299, 43.0563318], [142.0984686, 43.0565292], [142.0984929, 43.056752], [142.0985139, 43.0574506], [142.098532, 43.0581064], [142.0985572, 43.0582615], [142.0986051, 43.0584508], [142.0986698, 43.05865], [142.0987581, 43.0588343], [142.0988836, 43.0590838], [142.0991444, 43.0595373], [142.0993236, 43.0598329], [142.0994418, 43.0600556], [142.0995112, 43.0602354], [142.0995795, 43.0604694], [142.0996225, 43.0606642], [142.0996413, 43.0608436], [142.099638, 43.0610369], [142.0996189, 43.0612994], [142.0994306, 43.0623516], [142.0994033, 43.0625664], [142.0993954, 43.0627109], [142.0993916, 43.062851], [142.0994062, 43.0629611], [142.0994675, 43.0631837], [142.0995777, 43.0635072], [142.0996858, 43.0637183], [142.0998171, 43.063933], [142.099926, 43.0640806], [142.1000467, 43.0642186], [142.1015157, 43.0657773], [142.1031756, 43.0675448], [142.1036257, 43.0680521], [142.103795, 43.0682613], [142.1039386, 43.068474], [142.1041066, 43.0687559], [142.104269, 43.0691424], [142.1043628, 43.0694485], [142.1044107, 43.0697035], [142.1044322, 43.0698698], [142.1044344, 43.0700643], [142.1044179, 43.0703386], [142.1043831, 43.0705393], [142.1043512, 43.0706979], [142.1043048, 43.0708652], [142.1041847, 43.0711932], [142.104045, 43.0715014], [142.1030607, 43.073221], [142.102721, 43.0738066], [142.1025698, 43.0740853], [142.1024685, 43.0743252], [142.1023779, 43.0745654], [142.1023042, 43.0748232], [142.1022446, 43.0750628], [142.102192, 43.0753264], [142.1021598, 43.0755746], [142.1021173, 43.0758765], [142.1020062, 43.0768585], [142.1019751, 43.077144], [142.1019299, 43.0774682], [142.1018649, 43.0777314], [142.1017961, 43.0779589], [142.1017064, 43.0781992], [142.1015995, 43.0784223], [142.1014663, 43.0786662], [142.1011229, 43.0791818], [142.100833, 43.0795698], [142.1003004, 43.0802798], [142.1000365, 43.0806401], [142.0997823, 43.0810039], [142.0996453, 43.0812162], [142.0995107, 43.0814621], [142.0993776, 43.0817211], [142.0992906, 43.081928], [142.0992298, 43.0820858], [142.0991738, 43.0822578], [142.099127, 43.0824171], [142.0990898, 43.0825729], [142.0990447, 43.0828091], [142.0990156, 43.0829932], [142.0989914, 43.0833078], [142.0989955, 43.0835309], [142.0990029, 43.0839334], [142.0990333, 43.0847836], [142.0990662, 43.0856815], [142.0990639, 43.0860417], [142.0990507, 43.0862465], [142.0990296, 43.0864195], [142.0989989, 43.0865678], [142.0989453, 43.0868005], [142.0988289, 43.0871444], [142.0987246, 43.087399], [142.0981253, 43.0885876], [142.0979278, 43.088975], [142.097755, 43.0893261], [142.0969052, 43.0910186], [142.0959227, 43.0929778], [142.0956378, 43.0935327], [142.0953863, 43.0940455], [142.0952486, 43.0943284], [142.0951724, 43.0945174], [142.0951011, 43.09474], [142.0950501, 43.0949297], [142.0950185, 43.0951476], [142.0950005, 43.0954744], [142.0950078, 43.0957114], [142.0950616, 43.0960584], [142.0951412, 43.0963415], [142.0953641, 43.0969857], [142.0955179, 43.09742], [142.0956504, 43.0977903], [142.0957268, 43.098027], [142.0958397, 43.0983675], [142.0959143, 43.0986364], [142.0959749, 43.0989053], [142.0960132, 43.0991486], [142.0960434, 43.099414], [142.096056, 43.0996918], [142.096042, 43.1005879], [142.0960205, 43.1010624], [142.096017, 43.1013137], [142.0960504, 43.1016459], [142.0960898, 43.1018001], [142.0961428, 43.1019603], [142.0962107, 43.1021002], [142.0963549, 43.10233], [142.0965127, 43.1025299], [142.0967223, 43.1027486], [142.097037, 43.1030778], [142.0972522, 43.1033512], [142.0973386, 43.1034667], [142.0974553, 43.1037021], [142.0975402, 43.1039151], [142.097604, 43.1041697], [142.0980453, 43.1067316], [142.0980734, 43.1069104], [142.0982731, 43.1080103], [142.0984094, 43.1085745], [142.0985591, 43.1090982], [142.0987089, 43.109554], [142.0988437, 43.1099569], [142.09896, 43.110295], [142.0990053, 43.1104329], [142.0992344, 43.1111018], [142.0994408, 43.1116896], [142.0995557, 43.1120454], [142.0996861, 43.1124364], [142.0996949, 43.1125004], [142.0997406, 43.1127035], [142.0997653, 43.1129468], [142.0997523, 43.1132324], [142.0997146, 43.1135354], [142.0996526, 43.1138101], [142.0995911, 43.1140345], [142.099503, 43.1142783], [142.0993683, 43.1145756], [142.0992452, 43.1148194], [142.0989593, 43.1153109], [142.0988769, 43.1155268], [142.0987945, 43.1157755], [142.0987122, 43.1160759], [142.0986709, 43.1163651], [142.0986616, 43.1166341], [142.0986834, 43.1169508], [142.0987335, 43.1171946], [142.0988388, 43.1175353], [142.0989524, 43.11781], [142.0992352, 43.1183389], [142.0996059, 43.1190404], [142.0998189, 43.1194053], [142.0999006, 43.1195208], [142.1000017, 43.1196304], [142.1001258, 43.1197338], [142.1003023, 43.1198482], [142.1012458, 43.1202748], [142.1024611, 43.1208206], [142.1032276, 43.121176], [142.103405, 43.1212855], [142.1035296, 43.1213876], [142.1036273, 43.1214875], [142.1037019, 43.1216054], [142.1037655, 43.121764], [142.1037992, 43.1218874], [142.1038075, 43.122025], [142.1037804, 43.1221726], [142.1037098, 43.1223815], [142.1035889, 43.1226348], [142.1033685, 43.1229976], [142.1025032, 43.1243618], [142.1019203, 43.1252922], [142.1017194, 43.1256204], [142.1016594, 43.1257837], [142.1016131, 43.1259457], [142.1015932, 43.1261186], [142.1015969, 43.1263131], [142.1016323, 43.1265097], [142.1018139, 43.1270985], [142.1018911, 43.1274246], [142.1019242, 43.1276853], [142.1019208, 43.127844], [142.1019014, 43.1279936], [142.101848, 43.1281517], [142.1017543, 43.1283183], [142.1016266, 43.1284801], [142.1014586, 43.1286089], [142.1012055, 43.1287146], [142.1008746, 43.1288216], [142.1005914, 43.1288826], [142.1003391, 43.1289204], [142.09996, 43.1289358], [142.0986997, 43.1289263], [142.0981763, 43.1289253], [142.097875, 43.128949], [142.097577, 43.1289873], [142.0971314, 43.129081], [142.0967961, 43.1291879], [142.0965085, 43.1293238], [142.0962278, 43.1294905], [142.0958072, 43.1297735], [142.0953766, 43.1300832], [142.0950917, 43.1303689], [142.0949521, 43.1305489], [142.0948431, 43.1307713], [142.0947925, 43.1309767], [142.0947555, 43.1312044], [142.0947328, 43.1313817], [142.0947112, 43.1317185], [142.09463, 43.1327544], [142.0945637, 43.133448], [142.0945093, 43.1338365], [142.0945114, 43.1341704], [142.0945322, 43.1343519], [142.0945941, 43.1345259], [142.0946628, 43.1346772], [142.0955301, 43.1357862], [142.0957095, 43.1360996], [142.0963353, 43.1368993], [142.0967721, 43.1374369], [142.0968775, 43.1375995], [142.0969536, 43.1377635], [142.0970311, 43.1379402], [142.0970726, 43.1381169], [142.0970951, 43.1383184], [142.0970929, 43.1385561], [142.097045, 43.1387331], [142.096974, 43.1389153], [142.0968214, 43.1391599], [142.0966869, 43.1393182], [142.0965166, 43.139499], [142.0962074, 43.1397115], [142.0957565, 43.1399587], [142.0938499, 43.140896], [142.0922139, 43.1416987], [142.0919418, 43.1418459], [142.0917609, 43.1419866], [142.0916211, 43.1421453], [142.0914512, 43.1423792], [142.0912688, 43.1427983], [142.0910896, 43.1432231], [142.0907965, 43.1437971], [142.0906791, 43.1439412], [142.0904804, 43.1441098], [142.0903103, 43.1442302], [142.090112, 43.1443449], [142.0898518, 43.1444739], [142.0891904, 43.1448341], [142.0886734, 43.1451571], [142.0881753, 43.1454939], [142.087196, 43.14614], [142.0867769, 43.1464068], [142.0864092, 43.1466186], [142.0860961, 43.1467534], [142.0857447, 43.1468833], [142.0854197, 43.1469867], [142.0850133, 43.1471157], [142.0848192, 43.1472117], [142.0846533, 43.1473321], [142.0845199, 43.1474688], [142.0843185, 43.1477223], [142.0838185, 43.1483779], [142.0836757, 43.1485392], [142.0835312, 43.1486609], [142.0833448, 43.1487693], [142.0829513, 43.1489297], [142.0826012, 43.1490737], [142.08242, 43.1491848], [142.0823097, 43.1492781], [142.0822286, 43.1494176], [142.0821672, 43.1495711], [142.0821075, 43.1497827], [142.0820287, 43.1500723], [142.0819795, 43.1501709], [142.0819095, 43.1502512], [142.0817759, 43.1503445], [142.0812211, 43.1505803], [142.0809573, 43.1506865], [142.0808104, 43.1507785], [142.0806898, 43.1509014], [142.0805954, 43.151027], [142.0805037, 43.1511831], [142.0804157, 43.151375], [142.0803622, 43.1515675], [142.0803125, 43.1517766], [142.0803032, 43.1518892], [142.0803143, 43.1520155], [142.0803509, 43.1521317], [142.0804061, 43.1522533], [142.0809221, 43.1531696], [142.0811248, 43.1535005], [142.0812702, 43.1537381], [142.0814138, 43.1539385], [142.0816653, 43.1542111], [142.0819289, 43.1545127], [142.0820095, 43.1546294], [142.0820778, 43.1547654], [142.0821081, 43.1548972], [142.0821023, 43.155003], [142.0820636, 43.1551076], [142.0817753, 43.1555872], [142.0817368, 43.1556788], [142.0816936, 43.1558005], [142.0816778, 43.1559344], [142.0816696, 43.1560796], [142.0816838, 43.156305], [142.0817793, 43.1571784], [142.0818557, 43.1578477], [142.0818939, 43.1580128], [142.0819513, 43.1581869], [142.0820673, 43.1584062], [142.082335, 43.1589209], [142.0823881, 43.1590413], [142.0824111, 43.1591595], [142.0824132, 43.1593186], [142.0823889, 43.159515], [142.0822893, 43.1601458], [142.0822829, 43.1603179], [142.0822956, 43.1604629], [142.0823183, 43.1605859], [142.0823566, 43.1607335], [142.0825746, 43.1612232], [142.0826328, 43.1614337], [142.0826593, 43.1616137], [142.0826593, 43.1617995], [142.0826343, 43.1619489], [142.0825804, 43.1621238], [142.0825015, 43.1623169], [142.0821963, 43.1631311], [142.0812247, 43.1657108], [142.0806704, 43.1672674], [142.0805766, 43.1674066], [142.0803727, 43.1675617], [142.0801264, 43.1676802], [142.0797975, 43.1677796], [142.0789904, 43.1679981], [142.0787806, 43.1681126], [142.0786232, 43.1682501], [142.0785524, 43.1683877], [142.0785135, 43.16856], [142.0784896, 43.169151], [142.078446, 43.1692691], [142.0783706, 43.1693524], [142.0782734, 43.1694424], [142.0781126, 43.1695237], [142.0778616, 43.1695608], [142.0776313, 43.1695415], [142.0774686, 43.1694903], [142.077276, 43.1693849], [142.076599, 43.1689349], [142.0763862, 43.1688252], [142.0761764, 43.1687635], [142.0759748, 43.1687425], [142.0757812, 43.1687679], [142.0751947, 43.1690074], [142.0750116, 43.1690168], [142.0748102, 43.1689728], [142.0746452, 43.1689033], [142.0745118, 43.1688165], [142.0741411, 43.1684188], [142.0739967, 43.168325], [142.0738261, 43.1682646], [142.0736277, 43.1682419], [142.0734322, 43.1682573], [142.0732447, 43.1683074], [142.0730284, 43.1684019], [142.0722328, 43.1688919], [142.072129, 43.1689968], [142.0720609, 43.1691046], [142.072033, 43.1692209], [142.0720289, 43.1693518], [142.0720606, 43.1694711], [142.072132, 43.1695932], [142.0722549, 43.1697471], [142.073098, 43.1704441], [142.0732184, 43.1705831], [142.0732991, 43.1707249], [142.0733341, 43.1708774], [142.0733335, 43.1710328], [142.0732662, 43.1711742], [142.0731413, 43.1713115], [142.0729965, 43.1714256], [142.0727964, 43.1715305], [142.0718437, 43.1719682], [142.0716761, 43.1720686], [142.0715566, 43.1721593], [142.0714234, 43.1722915], [142.071329, 43.1724156], [142.0712505, 43.172557], [142.0706886, 43.1736266], [142.0705771, 43.1737716], [142.070455, 43.1738713], [142.0702972, 43.1739623], [142.0701182, 43.1740212], [142.0699155, 43.1740628], [142.0691968, 43.1741103], [142.0689862, 43.1741446], [142.0688185, 43.1742161], [142.0686751, 43.1742982], [142.0685555, 43.1743918], [142.0684655, 43.174508], [142.0684047, 43.1746299], [142.0683755, 43.1747604], [142.0683806, 43.1748811], [142.068403, 43.1749849], [142.0684572, 43.1751119], [142.0685666, 43.1752401], [142.0686894, 43.1753537], [142.0695238, 43.175782], [142.0696898, 43.1758812], [142.0698285, 43.1759988], [142.0699216, 43.1760952], [142.0699711, 43.1762118], [142.0700093, 43.1763495], [142.0700117, 43.1764698], [142.0699712, 43.1766166], [142.0698866, 43.1767912], [142.0694001, 43.1774955], [142.0692891, 43.1776265], [142.0691605, 43.1777323], [142.0690081, 43.1778149], [142.0688729, 43.1778845], [142.0687349, 43.1779301], [142.0685969, 43.1779583], [142.0683685, 43.1779917], [142.0675575, 43.1780638], [142.0673937, 43.1780927], [142.067226, 43.178144], [142.0670707, 43.1782072], [142.0669472, 43.178282], [142.0668306, 43.1783709], [142.0667312, 43.1784645], [142.0666397, 43.1785842], [142.0665758, 43.1787309], [142.0665354, 43.1788854], [142.0664399, 43.1797411], [142.0664067, 43.1798966], [142.0663623, 43.1800264], [142.0662981, 43.1801504], [142.0661858, 43.1802668], [142.0660815, 43.1803571], [142.0659117, 43.1804577], [142.0656966, 43.1805516], [142.0654814, 43.1806108], [142.0652258, 43.1806597], [142.0643673, 43.1807667], [142.0641803, 43.1807952], [142.0640114, 43.1808601], [142.0638871, 43.1809385], [142.0637947, 43.1810168], [142.0637369, 43.1811306], [142.063687, 43.1812848], [142.0636961, 43.1813925], [142.0637244, 43.1814926], [142.0637765, 43.1815985], [142.0638635, 43.1816965], [142.0639783, 43.1817743], [142.0641237, 43.1818167], [142.0642809, 43.1818533], [142.0664345, 43.1819715], [142.0665651, 43.1819829], [142.0668412, 43.182041], [142.0670722, 43.1821153], [142.0672815, 43.1822256], [142.067395, 43.1823148], [142.0674652, 43.1824032], [142.0675355, 43.1825006], [142.067614, 43.1826368], [142.0676659, 43.182778], [142.0676867, 43.1828919], [142.0677141, 43.1831092], [142.0677318, 43.1833511], [142.0677383, 43.1838033], [142.0677346, 43.1840041], [142.0677209, 43.1842008], [142.0676628, 43.1844012], [142.0675565, 43.1846509], [142.0672818, 43.185135], [142.0672274, 43.1852759], [142.0671953, 43.1853956], [142.0671681, 43.1855295], [142.0670948, 43.1860963], [142.0670518, 43.1862263], [142.0669917, 43.1863493], [142.066888, 43.186483], [142.066463, 43.1869277], [142.0663687, 43.1870787], [142.066307, 43.1872123], [142.0662671, 43.1873458], [142.0662356, 43.1874679], [142.0662392, 43.1876046], [142.0662596, 43.1877272], [142.0662881, 43.1878405], [142.0663552, 43.1879644], [142.0667527, 43.1885925], [142.0667997, 43.1887276], [142.0668225, 43.1888874], [142.0668248, 43.1890485], [142.0668033, 43.1892307], [142.0667518, 43.1894237], [142.066611, 43.1897611], [142.0665905, 43.1898755], [142.0665748, 43.189981], [142.0665767, 43.1900916], [142.066593, 43.1902075], [142.0666302, 43.1903281], [142.0666818, 43.1904419], [142.0669098, 43.190804], [142.0669603, 43.1909268], [142.066988, 43.1910323], [142.0669964, 43.1911237], [142.0669793, 43.19129], [142.0669443, 43.1914008], [142.0668803, 43.1915115], [142.0667777, 43.1916276], [142.0666866, 43.1917155], [142.0665665, 43.1918035], [142.0659752, 43.1921662], [142.0656423, 43.1924092], [142.0649233, 43.1929798], [142.0642041, 43.1936089], [142.0637129, 43.1940052], [142.0631563, 43.1944648], [142.0628768, 43.1947315], [142.062637, 43.1949866], [142.06235, 43.19535], [142.0619677, 43.1958495], [142.0618972, 43.1960306], [142.0618727, 43.196173], [142.0618797, 43.1962994], [142.0619072, 43.1964395], [142.0619651, 43.1965936], [142.0620737, 43.1968621], [142.0621137, 43.1970106], [142.0621226, 43.1971537], [142.0621123, 43.1972833], [142.0620731, 43.1974093], [142.0620027, 43.1975314], [142.0614987, 43.1981205], [142.0613838, 43.1982798], [142.061312, 43.198405], [142.0612428, 43.1985481], [142.0611937, 43.1986874], [142.0611494, 43.1988549], [142.0609739, 43.2000943], [142.0609042, 43.2003488], [142.0608217, 43.2005174], [142.0607126, 43.2006613], [142.0605913, 43.2007647], [142.0604435, 43.2008628], [142.060257, 43.2009571], [142.0600656, 43.201018], [142.0598432, 43.2010446], [142.059616, 43.2010552], [142.0587556, 43.2010433], [142.0584552, 43.2010661], [142.0582056, 43.2011148], [142.0580343, 43.2011741], [142.0578921, 43.2012475], [142.057706, 43.2013541], [142.0575857, 43.2014405], [142.0574364, 43.2015692], [142.0568915, 43.2020521], [142.0567799, 43.2021262], [142.0566369, 43.2022198], [142.056495, 43.2022978], [142.0562497, 43.2024099], [142.0552369, 43.2028186], [142.0550882, 43.2029034], [142.0549033, 43.2030323], [142.0547493, 43.2031749], [142.0546763, 43.2033172], [142.0546404, 43.203499], [142.0545814, 43.2040687], [142.054555, 43.2041973], [142.0544813, 43.2043331], [142.0543495, 43.2044812], [142.0542032, 43.2046085], [142.0540286, 43.2047193], [142.0538234, 43.2048431], [142.0534359, 43.2051026], [142.0532453, 43.2052555], [142.0530859, 43.2054207], [142.0529482, 43.2055997], [142.0528246, 43.2058035], [142.0527349, 43.2060121], [142.0526675, 43.2062348], [142.0525382, 43.2071876], [142.0524691, 43.2076587], [142.0524161, 43.2081047], [142.0523239, 43.2087819], [142.0521841, 43.2098092], [142.0521008, 43.2105686], [142.0521039, 43.2108702], [142.0521207, 43.2111834], [142.0521626, 43.2115195], [142.0522273, 43.2118289], [142.0523178, 43.2121699], [142.0524359, 43.2125244], [142.0525824, 43.2128473], [142.0527427, 43.2131651], [142.0528933, 43.2134159], [142.0530498, 43.2136498], [142.0532453, 43.2138853], [142.0536032, 43.2142474], [142.0537521, 43.2144287], [142.0538683, 43.2146187], [142.0539481, 43.2148098], [142.0539774, 43.2149993], [142.053981, 43.2152343], [142.0539282, 43.2154461], [142.0538341, 43.2156596], [142.0536888, 43.2158744], [142.0534563, 43.2160993], [142.0528172, 43.2165359], [142.0525726, 43.2167177], [142.0523509, 43.2169145], [142.0521443, 43.2171496], [142.0519905, 43.2173915], [142.0515562, 43.2181662], [142.0511402, 43.2189258], [142.0509624, 43.2192273], [142.0507663, 43.2194886], [142.050603, 43.2196716], [142.0504167, 43.2198446], [142.0500809, 43.2200834], [142.0488698, 43.2209017], [142.0485102, 43.2211444], [142.0483022, 43.2213201], [142.0481566, 43.2214749], [142.0480455, 43.2216281], [142.0479635, 43.2218263], [142.047909, 43.2220345], [142.0479012, 43.2222401], [142.0479445, 43.2225804], [142.047976, 43.2227911], [142.0479754, 43.2229984], [142.0479355, 43.2232043], [142.0478498, 43.2234018], [142.0477195, 43.2236061], [142.0475191, 43.2238133], [142.0473279, 43.2239619], [142.0470209, 43.2241443], [142.0464568, 43.2244891], [142.0460489, 43.2247501], [142.045618, 43.225058], [142.0451744, 43.2254011], [142.0447057, 43.2257961], [142.0440667, 43.2264354], [142.0438572, 43.2266747], [142.0435997, 43.2269881], [142.0434477, 43.2271851], [142.0432951, 43.2273882], [142.0431416, 43.2275845], [142.0429191, 43.2278159], [142.0426158, 43.2280587], [142.042359, 43.2282168], [142.0421373, 43.2283275], [142.0418483, 43.228452], [142.0414344, 43.2286173], [142.0411366, 43.2287718], [142.0408793, 43.2289455], [142.04073, 43.2290604], [142.0405706, 43.2292145], [142.0404395, 43.2293526], [142.0403249, 43.2294985], [142.0402154, 43.229665], [142.0401301, 43.2298272], [142.0400443, 43.2300312], [142.0399564, 43.2302279], [142.0393146, 43.2317887], [142.0390905, 43.232355], [142.0389711, 43.232598], [142.0388239, 43.2327942], [142.0386918, 43.2329431], [142.0384836, 43.2331635], [142.0383042, 43.2333644], [142.0381655, 43.2335377], [142.0380447, 43.2337186], [142.0379546, 43.233859], [142.0378638, 43.2340185], [142.0377946, 43.2341851], [142.0377531, 43.2343524], [142.0377118, 43.2344913], [142.037678, 43.2346616], [142.0374708, 43.236439], [142.0374229, 43.2365984], [142.0373468, 43.236793], [142.0372728, 43.236952], [142.0371528, 43.237121], [142.0369839, 43.2372832], [142.036837, 43.2373945], [142.0366393, 43.2375148], [142.0364439, 43.2376334], [142.0362464, 43.2377117], [142.0360596, 43.2377646], [142.035898, 43.2378019], [142.0356192, 43.2378362], [142.0354645, 43.2378515], [142.0353054, 43.2378625], [142.0350743, 43.2378556], [142.0349425, 43.2378446], [142.0346609, 43.2378149], [142.0342951, 43.2377732], [142.0338853, 43.2377189], [142.0336614, 43.2376781], [142.0334853, 43.2376313], [142.0333386, 43.2375825], [142.0331347, 43.2374935], [142.0329797, 43.237412], [142.0328259, 43.2373073], [142.0320119, 43.236693], [142.0318014, 43.2365358], [142.0316015, 43.2364072], [142.03145, 43.2363314], [142.0313109, 43.2362805], [142.0311283, 43.2362491], [142.0309579, 43.2362445], [142.0308089, 43.236256], [142.0306843, 43.2362788], [142.030535, 43.2363297], [142.0303884, 43.2364046], [142.0302828, 43.2364739], [142.030169, 43.2365697], [142.0300853, 43.236684], [142.0300381, 43.2367686], [142.030007, 43.2368609], [142.0299874, 43.2369787], [142.0299869, 43.2371611], [142.0299925, 43.2374561], [142.0299766, 43.2376338], [142.0299327, 43.2378004], [142.02988, 43.2379559], [142.0298112, 43.2380855], [142.0297376, 43.2382039], [142.0295972, 43.238394], [142.0293911, 43.2386553], [142.0292167, 43.238836], [142.0268398, 43.241636], [142.0266807, 43.2418106], [142.0265527, 43.2419237], [142.0264354, 43.2420166], [142.0262719, 43.2421293], [142.0260785, 43.2422384], [142.0258635, 43.2423408], [142.0255724, 43.2424581], [142.0251332, 43.2426031], [142.0247324, 43.2427326], [142.0243736, 43.2428517], [142.0231674, 43.2432513], [142.0229124, 43.2433515], [142.0227221, 43.243445], [142.0225114, 43.2435655], [142.0198882, 43.2452161], [142.0194251, 43.2455171], [142.0196463, 43.2456973], [142.0198876, 43.2458764], [142.0200865, 43.2460128], [142.0202316, 43.2461126], [142.0203413, 43.2461798], [142.0204867, 43.2462515], [142.0207538, 43.246358], [142.0209248, 43.2464246], [142.0211112, 43.2465025], [142.0212128, 43.2465639], [142.0213193, 43.2466414], [142.0214074, 43.2467278], [142.0215188, 43.2468513], [142.0216598, 43.2470511], [142.0223092, 43.2478983], [142.0229422, 43.2487252], [142.0236418, 43.2496474], [142.0237313, 43.2497727], [142.0238239, 43.2499272], [142.0238956, 43.2500832], [142.0239586, 43.250233], [142.0239985, 43.2503648], [142.0240261, 43.2505008], [142.024043, 43.2506045], [142.0240476, 43.2507352], [142.0240494, 43.2517869], [142.0240562, 43.2519154], [142.0240831, 43.2520271], [142.0241274, 43.2521264], [142.0241902, 43.2522313], [142.024262, 43.2523169], [142.0243479, 43.2523977], [142.0244246, 43.2524606], [142.024578, 43.2525505], [142.0253433, 43.2529228], [142.0258859, 43.2531992], [142.0260187, 43.2532826], [142.0261253, 43.2533626], [142.0262257, 43.2534561], [142.0263153, 43.2535503], [142.0264019, 43.2536502], [142.026463, 43.2537537], [142.0265159, 43.2538457], [142.0265535, 43.2539322], [142.0265819, 43.2540332], [142.0266057, 43.2541332], [142.0266394, 43.254878], [142.0266547, 43.2550119], [142.0266885, 43.255157], [142.0267283, 43.2552987], [142.0267797, 43.2554244], [142.0268433, 43.2555457], [142.0272701, 43.2563085], [142.0277, 43.2570377], [142.0277376, 43.2571252], [142.0277553, 43.2572116], [142.0277659, 43.2573171], [142.0277598, 43.2574118], [142.0277414, 43.2575017], [142.0277061, 43.2575905], [142.0276541, 43.257674], [142.027588, 43.2577543], [142.0274941, 43.2578513], [142.0271645, 43.2581352], [142.0270704, 43.2582303], [142.0270128, 43.2583438], [142.0269927, 43.2584535], [142.026994, 43.2585678], [142.0270275, 43.2586606], [142.0270919, 43.2587583], [142.0272018, 43.258852], [142.0273327, 43.2589179], [142.0274823, 43.25897], [142.0277062, 43.2590309], [142.028079, 43.2591431], [142.0283364, 43.2592427], [142.0284928, 43.2593228], [142.0286412, 43.2594342], [142.0287447, 43.2595181], [142.0297414, 43.2604811], [142.0299278, 43.2606749], [142.0299986, 43.2607633], [142.0300593, 43.2608532], [142.0300936, 43.2609348], [142.0301137, 43.261018], [142.0301186, 43.2611183], [142.0301032, 43.2612068], [142.0300718, 43.2612888], [142.0300282, 43.2613693], [142.0299612, 43.2614464], [142.0298699, 43.2615264], [142.0292842, 43.2618982], [142.0291888, 43.2619701], [142.029126, 43.262036], [142.0290802, 43.2621141], [142.029063, 43.2621951], [142.029061, 43.2622891], [142.0290799, 43.2623741], [142.0291253, 43.2624531], [142.029196, 43.262527], [142.0292803, 43.2625841], [142.029393, 43.2626383], [142.0295431, 43.2626799], [142.0302746, 43.2627644], [142.0304513, 43.2627926], [142.0306158, 43.2628297], [142.0307867, 43.2628848], [142.0309392, 43.2629473], [142.0310689, 43.263015], [142.0312026, 43.2630946], [142.0313208, 43.2631876], [142.0314267, 43.2632806], [142.0315064, 43.2633678], [142.0315882, 43.263467], [142.0316671, 43.2635902], [142.0317202, 43.2637045], [142.0317551, 43.2637966], [142.0317841, 43.2639069], [142.0318057, 43.2640651], [142.0318776, 43.2650325], [142.0318918, 43.2651814], [142.0319098, 43.2653068], [142.0319399, 43.2654351], [142.0319739, 43.2655572], [142.0320201, 43.2656956], [142.0321133, 43.2659134], [142.0324856, 43.2668197], [142.0325155, 43.2669344], [142.0325373, 43.2670328], [142.0325497, 43.2671387], [142.032548, 43.2672491], [142.0325239, 43.2675516], [142.0325202, 43.2676789], [142.0325282, 43.2677636], [142.0325382, 43.2678438], [142.0325664, 43.2679245], [142.0326038, 43.2680014], [142.0326472, 43.2680887], [142.0327029, 43.2681597], [142.0327626, 43.2682247], [142.0328339, 43.2682841], [142.0329153, 43.2683391], [142.033025, 43.2683934], [142.0331488, 43.2684463], [142.0332945, 43.2684934], [142.033491, 43.2685377], [142.0342404, 43.2686745], [142.0344325, 43.2687106], [142.0345758, 43.268757], [142.0347086, 43.2688048], [142.0348171, 43.2688527], [142.034922, 43.268912], [142.0350128, 43.2689698], [142.0351082, 43.2690368], [142.0351849, 43.2691003], [142.0352589, 43.2691713], [142.0353451, 43.269263], [142.0353939, 43.2693326], [142.0354274, 43.2693865], [142.0354598, 43.2694498], [142.035506, 43.2695559], [142.0355443, 43.2696739], [142.0355667, 43.2697702], [142.0355757, 43.2698849], [142.0355728, 43.2699979], [142.0355575, 43.2701019], [142.0355312, 43.2702048], [142.0354218, 43.2704752], [142.0353827, 43.2705841], [142.0353631, 43.2706866], [142.0353557, 43.2707832], [142.0353622, 43.2708658], [142.0353799, 43.2709415], [142.0354235, 43.2710272], [142.0354885, 43.2711045], [142.0355659, 43.2711696], [142.0356433, 43.2712178], [142.0357434, 43.271259], [142.0358943, 43.2712985], [142.036032, 43.2713239], [142.036159, 43.2713389], [142.0363803, 43.2713519], [142.0365681, 43.2713606], [142.0367172, 43.2713753], [142.0368627, 43.2714003], [142.0369861, 43.2714339], [142.0371113, 43.271483], [142.0372116, 43.2715332], [142.0373172, 43.2716067], [142.0373994, 43.2716772], [142.0374869, 43.2717736], [142.0375858, 43.2718967], [142.0378753, 43.2723173], [142.0379878, 43.2724596], [142.0381014, 43.2725973], [142.0382107, 43.2727201], [142.0383571, 43.2728621], [142.0384891, 43.2729904], [142.0394558, 43.2737384], [142.03979, 43.2740058], [142.0400712, 43.2742216], [142.0402443, 43.2743467], [142.0403887, 43.2744349], [142.0405614, 43.274536], [142.0407495, 43.2746297], [142.0409908, 43.2747466], [142.04132, 43.2748758], [142.0417181, 43.2750076], [142.0419828, 43.2750805], [142.0423588, 43.2751652], [142.0432932, 43.2753585], [142.0459698, 43.2759238], [142.0466958, 43.276086], [142.047351, 43.2762225], [142.0482296, 43.2764079], [142.0486748, 43.276503], [142.0504396, 43.2768769], [142.0506846, 43.2769267], [142.0508896, 43.2769636], [142.0511371, 43.2769954], [142.0513897, 43.2770176], [142.0516506, 43.2770389], [142.0528167, 43.2771349], [142.0535853, 43.2772061], [142.0537558, 43.2772265], [142.0539268, 43.2772504], [142.0540615, 43.2772782], [142.0542023, 43.2773143], [142.0543391, 43.2773655], [142.0544826, 43.2774246], [142.054581, 43.2774755], [142.0546928, 43.277545], [142.054807, 43.2776226], [142.0549104, 43.277706], [142.0550288, 43.2778222], [142.0551619, 43.2779653], [142.0556818, 43.2785962], [142.0557681, 43.2786915], [142.0558624, 43.278783], [142.0559584, 43.2788629], [142.0560651, 43.2789321], [142.056192, 43.2789959], [142.0563277, 43.2790475], [142.056466, 43.2790893], [142.0565898, 43.2791104], [142.056742, 43.27912], [142.0568888, 43.2791189], [142.057029, 43.2791116], [142.0574374, 43.2790613], [142.0576615, 43.2790389], [142.0578485, 43.2790288], [142.0580194, 43.2790275], [142.0581541, 43.2790418], [142.0583101, 43.279074], [142.0584516, 43.2791124], [142.0585529, 43.2791567], [142.0586598, 43.2792072], [142.0587494, 43.2792684], [142.0588281, 43.2793367], [142.0589096, 43.2794246], [142.0589784, 43.2795215], [142.0590351, 43.2796419], [142.0590854, 43.2797641], [142.0593637, 43.2806976], [142.0594112, 43.2808335], [142.0594627, 43.280939], [142.0595197, 43.2810271], [142.0596021, 43.2811182], [142.0596872, 43.2811842], [142.059787, 43.2812424], [142.0598982, 43.2812892], [142.0600187, 43.2813193], [142.0601508, 43.2813303], [142.0602748, 43.2813296], [142.0604101, 43.2813145], [142.0605527, 43.2812802], [142.0607423, 43.2812176], [142.0611314, 43.2810533], [142.0613596, 43.2809632], [142.0614741, 43.2809289], [142.0616033, 43.2808996], [142.061741, 43.2808729], [142.0618775, 43.280858], [142.0620149, 43.2808551], [142.0621443, 43.2808591], [142.0622932, 43.2808747], [142.0624528, 43.2809042], [142.0626004, 43.2809395], [142.0627401, 43.2809855], [142.0628503, 43.2810393], [142.062985, 43.2811137], [142.0630957, 43.2811859], [142.0632011, 43.2812688], [142.0632915, 43.2813698], [142.0633752, 43.2814825], [142.0634243, 43.2815771], [142.063464, 43.2816746], [142.0634935, 43.2817786], [142.0635083, 43.2818768], [142.063507, 43.2819704], [142.0634982, 43.2820623], [142.0634801, 43.2821531], [142.0634399, 43.2822649], [142.0633849, 43.2823767], [142.0633167, 43.2824917], [142.0628811, 43.2831329], [142.0628283, 43.2832296], [142.0627979, 43.2833316], [142.0627906, 43.2834363], [142.0628013, 43.2835488], [142.0628423, 43.2836471], [142.0629117, 43.2837531], [142.0630014, 43.2838457], [142.0631064, 43.2839123], [142.0632255, 43.2839648], [142.0633637, 43.2839961], [142.0635065, 43.2840105], [142.063637, 43.2840018], [142.0637692, 43.2839748], [142.0639004, 43.2839319], [142.0644401, 43.2837037], [142.0645922, 43.2836392], [142.0647361, 43.283594], [142.0648701, 43.2835738], [142.0650005, 43.2835665], [142.0651303, 43.2835778], [142.0652646, 43.2836096], [142.0653883, 43.2836543], [142.065545, 43.2837227], [142.0662972, 43.2841216], [142.0664761, 43.2842037], [142.0666595, 43.2842773], [142.0668148, 43.2843322], [142.0670372, 43.2844025], [142.06768, 43.2845663], [142.0678333, 43.2846148], [142.0679564, 43.2846526], [142.0681095, 43.2847123], [142.0682937, 43.284791], [142.0685027, 43.2848956], [142.0691335, 43.2852747], [142.0692792, 43.2853632], [142.0694001, 43.2854569], [142.0695019, 43.2855432], [142.0695948, 43.285641], [142.0696884, 43.2857444], [142.0697696, 43.2858452], [142.0698707, 43.2859861], [142.0701918, 43.2865829], [142.0703094, 43.2867662], [142.0704088, 43.2869015], [142.0705013, 43.2870129], [142.0705956, 43.2871204], [142.070711, 43.2872374], [142.0708475, 43.2873519], [142.0716459, 43.2879949], [142.0754969, 43.2909722], [142.0760145, 43.2913806], [142.0761214, 43.2914672], [142.0761999, 43.291546], [142.0762629, 43.2916296], [142.0763064, 43.2917158], [142.0763309, 43.2918007], [142.0763394, 43.2919063], [142.0763324, 43.2920077], [142.0762523, 43.2925475], [142.0762539, 43.2926743], [142.0762714, 43.2927896], [142.0763112, 43.292902], [142.0763694, 43.2929998], [142.0764418, 43.2930989], [142.0765328, 43.293179], [142.0766433, 43.2932647], [142.0767608, 43.2933286], [142.0769341, 43.2933966], [142.0771993, 43.2934827], [142.0795188, 43.2941485], [142.0805119, 43.2944369], [142.0806922, 43.2944986], [142.0808788, 43.2945648], [142.0810885, 43.294659], [142.081245, 43.294739], [142.0813831, 43.2948168], [142.0815268, 43.2949163], [142.081641, 43.2950056], [142.0817567, 43.2951038], [142.0819143, 43.2952555], [142.0821718, 43.2955257], [142.0831977, 43.296572], [142.0833499, 43.2967115], [142.0835237, 43.2968578], [142.0836913, 43.2969715], [142.0838559, 43.2970662], [142.0848622, 43.2975271], [142.0850813, 43.2975962], [142.0852762, 43.2976354], [142.0854739, 43.2976512], [142.0857113, 43.2976492], [142.0859634, 43.2976216], [142.087324, 43.2973963], [142.0876894, 43.2973232], [142.0880272, 43.2972316], [142.0883458, 43.2971311], [142.0908254, 43.2963196], [142.0930834, 43.2955888], [142.0935193, 43.295445], [142.09383, 43.2953692], [142.0941244, 43.2953261], [142.0943608, 43.2953135], [142.0946322, 43.2953106], [142.0949183, 43.2953399], [142.0959922, 43.295503], [142.0972189, 43.2956867], [142.0975912, 43.2957609], [142.0978644, 43.2958331], [142.098212, 43.2959541], [142.0984584, 43.296054], [142.0994776, 43.2965726], [142.1003765, 43.2970496], [142.1006027, 43.297148], [142.1007968, 43.2972231], [142.1010109, 43.2972762], [142.1012196, 43.2973058], [142.1014403, 43.2973146], [142.1016691, 43.2973078], [142.1018671, 43.2972884], [142.1020492, 43.2972474], [142.1027251, 43.2970531], [142.1027936, 43.2970373], [142.1030174, 43.2969857], [142.1033355, 43.2969332], [142.103673, 43.2968884], [142.10394, 43.2968677], [142.1042096, 43.2968587], [142.1044796, 43.2968618], [142.1047955, 43.2968837], [142.1052857, 43.2969369], [142.105929, 43.2970163], [142.1062343, 43.2970469], [142.1065695, 43.2970605], [142.1069162, 43.2970519], [142.1077838, 43.2970149], [142.1091027, 43.2969779], [142.1093262, 43.296986], [142.1095252, 43.2970146], [142.109752, 43.2970622], [142.1099352, 43.297112], [142.1101538, 43.2971999], [142.1117518, 43.2979362], [142.1119696, 43.2980499], [142.11217, 43.2981897], [142.1123489, 43.2983608], [142.1124748, 43.2984951], [142.1125579, 43.2986547], [142.1126549, 43.2988301], [142.1127145, 43.2989919], [142.1128585, 43.2994663], [142.1129889, 43.2998725], [142.1130951, 43.3001441], [142.1133337, 43.3006963], [142.1134944, 43.3009928], [142.1136229, 43.3012814], [142.1138965, 43.3019421], [142.1141619, 43.3025378], [142.1142558, 43.3027447], [142.1143396, 43.3028673], [142.1144528, 43.3029802], [142.1145762, 43.3030901], [142.1147234, 43.3031826], [142.1154926, 43.3036904], [142.1161302, 43.304113], [142.1164445, 43.3043003], [142.1167418, 43.3044433], [142.118189, 43.3050967], [142.1186955, 43.3053227], [142.1215629, 43.306629], [142.1238182, 43.307653], [142.1240527, 43.3077537], [142.1242933, 43.3078396], [142.1245374, 43.3079022], [142.1247419, 43.3079338], [142.124937, 43.3079501], [142.1251592, 43.3079486], [142.1253971, 43.307928], [142.1256116, 43.307892], [142.1260624, 43.3077905], [142.1263356, 43.3077365], [142.1264939, 43.3077109], [142.1266522, 43.3076955], [142.1268754, 43.3076935], [142.1271, 43.3077052], [142.1273021, 43.3077304], [142.1274809, 43.3077691], [142.1276719, 43.3078278], [142.1278372, 43.3078932], [142.1280315, 43.3079872], [142.1281978, 43.3080913], [142.1283578, 43.3082134], [142.1285108, 43.3083559], [142.128644, 43.3085254], [142.1287684, 43.3087075], [142.1291734, 43.3094749], [142.1292795, 43.3096511], [142.1294415, 43.3098633], [142.1295979, 43.3100067], [142.1297916, 43.3101501], [142.1300566, 43.3102936], [142.1304862, 43.3104856], [142.1309766, 43.3107014], [142.1313864, 43.3108903], [142.1316468, 43.3110358], [142.1318616, 43.3111658], [142.132087, 43.3113278], [142.1323961, 43.3115815], [142.1327549, 43.3118863], [142.1329641, 43.3120446], [142.1331425, 43.3121529], [142.1333237, 43.3122436], [142.1335723, 43.3123528], [142.1338862, 43.3124614], [142.1346917, 43.3127257], [142.1351408, 43.3128724], [142.1354703, 43.312964], [142.135772, 43.3130313], [142.1361139, 43.3130889], [142.1370661, 43.313209], [142.1373465, 43.3132665], [142.1376168, 43.3133596], [142.137826, 43.3134567], [142.1380461, 43.3135965], [142.1382411, 43.3137687], [142.1383743, 43.3139154], [142.1385546, 43.3141852], [142.1388711, 43.3146975], [142.139044, 43.3149396], [142.1392414, 43.3151468], [142.1394496, 43.3153346], [142.1401071, 43.3158422], [142.1406581, 43.3162629], [142.1408401, 43.3164071], [142.1416527, 43.3170308], [142.1420744, 43.3173555], [142.1422734, 43.3175124], [142.1430318, 43.3180887], [142.1442783, 43.3190124], [142.1445096, 43.3192036], [142.1446853, 43.3193739], [142.1448235, 43.3195326], [142.1449464, 43.3196904], [142.145064, 43.3198619], [142.1454011, 43.3204431], [142.1458606, 43.3212263], [142.1459752, 43.3214149], [142.1460858, 43.3215522], [142.1462178, 43.3216857], [142.1464076, 43.3218212], [142.1466424, 43.3219581], [142.1469631, 43.3221048], [142.149525, 43.3232384], [142.1498591, 43.3234157], [142.1501289, 43.3235773], [142.1503424, 43.3237245], [142.1506444, 43.3239635], [142.1512217, 43.3244181], [142.1529751, 43.3258105], [142.1533784, 43.3261398], [142.1536423, 43.3264079], [142.1538407, 43.3266234], [142.1540181, 43.3268419], [142.1552129, 43.328389], [142.1553537, 43.3285958], [142.1554699, 43.3287914], [142.1555425, 43.3290079], [142.1556093, 43.3292385], [142.1556417, 43.3293785], [142.1557021, 43.3296268], [142.1557592, 43.3299134], [142.1557895, 43.3301298], [142.1557883, 43.330305], [142.1557623, 43.3304737], [142.1557033, 43.3306381], [142.1556175, 43.3307986], [142.1555132, 43.3309478], [142.1553713, 43.331099], [142.1550762, 43.3313956], [142.154939, 43.3315519], [142.1547884, 43.3317648], [142.1542907, 43.3325909], [142.1539426, 43.333079], [142.1537071, 43.3333877], [142.1535843, 43.3335368], [142.1534427, 43.3337016], [142.1532681, 43.3338747], [142.1527985, 43.3342723], [142.152638, 43.3344239], [142.1525399, 43.3345558], [142.1524686, 43.3346936], [142.1524311, 43.3348398], [142.1524164, 43.3349988], [142.1524607, 43.3354739], [142.1524473, 43.3356371], [142.1524285, 43.3358256], [142.1523883, 43.3360451], [142.1522085, 43.3370608], [142.1521844, 43.3372537], [142.1522006, 43.3374311], [142.1522329, 43.3376223], [142.1523052, 43.3377916], [142.1523924, 43.3379606], [142.1524957, 43.338118], [142.15267, 43.3383342], [142.1531339, 43.3389042], [142.1532171, 43.3390454], [142.1532788, 43.3391951], [142.1533255, 43.3393493], [142.153348, 43.339523], [142.1533427, 43.339765], [142.1532863, 43.3409286], [142.1532621, 43.3412523], [142.1532142, 43.3414776], [142.1531402, 43.3417186], [142.1530313, 43.3419714], [142.1528849, 43.3423019], [142.152481, 43.3432117], [142.1521843, 43.3438876], [142.1519145, 43.3444855], [142.1514901, 43.3454647], [142.1513679, 43.3457522], [142.1512887, 43.3459714], [142.1512214, 43.3461871], [142.1511676, 43.3463969], [142.1511126, 43.346698], [142.1510853, 43.3470533], [142.151037, 43.3476264], [142.1510246, 43.3479218], [142.1510368, 43.3482145], [142.1510593, 43.3484462], [142.1510985, 43.3487162], [142.1512833, 43.3495426], [142.1513603, 43.3498058], [142.1514484, 43.3500344], [142.1515672, 43.350263], [142.1517477, 43.3505215], [142.1519466, 43.350753], [142.1521095, 43.3509103], [142.1523262, 43.3510841], [142.152623, 43.3512735], [142.1540278, 43.35207], [142.1564216, 43.3534243], [142.1570344, 43.353784], [142.1572257, 43.3539111], [142.1574107, 43.3540517], [142.1576269, 43.3542298], [142.1578611, 43.3544494], [142.1581016, 43.3547], [142.1583821, 43.3549864], [142.1586209, 43.3551955], [142.1588384, 43.355361], [142.1590405, 43.3555108], [142.160091, 43.3562147], [142.1609794, 43.3568165], [142.1619239, 43.3574526], [142.1622263, 43.3576778], [142.162449, 43.3578567], [142.1626889, 43.35809], [142.1628812, 43.3582957], [142.1630641, 43.3585184], [142.1632265, 43.3587515], [142.1633836, 43.359003], [142.1635314, 43.3592613], [142.1637477, 43.3596439], [142.1638708, 43.3598929], [142.1639192, 43.3600552], [142.1639359, 43.360225], [142.1639377, 43.3603588], [142.1639157, 43.360498], [142.1638751, 43.3606388], [142.1637996, 43.3608198], [142.1634392, 43.3616275], [142.1633618, 43.3618408], [142.1633221, 43.3620302], [142.1632962, 43.3622217], [142.1632886, 43.3624207], [142.1633006, 43.3626478], [142.1633248, 43.3629341], [142.163393, 43.363572], [142.1635558, 43.3651918], [142.1635886, 43.3657407], [142.1635897, 43.3661319], [142.163531, 43.3667075], [142.1634643, 43.3673886], [142.1634743, 43.3676461], [142.163503, 43.3678729], [142.1635574, 43.3680982], [142.1636619, 43.3683675], [142.1637808, 43.3685974], [142.1639138, 43.3687832], [142.1641236, 43.3690325], [142.164713, 43.3696909], [142.1651159, 43.3701466], [142.1652436, 43.3702663], [142.165376, 43.3703622], [142.1655358, 43.3704617], [142.1657513, 43.3705555], [142.1659762, 43.3706391], [142.1663499, 43.3707461], [142.1668715, 43.3709064], [142.1671329, 43.3710046], [142.1673013, 43.3710954], [142.1674738, 43.371204], [142.167618, 43.3713265], [142.1677764, 43.3714771], [142.1678843, 43.371623], [142.1680579, 43.3719718], [142.1681734, 43.3722248], [142.1682374, 43.3723783], [142.1682908, 43.3724855], [142.168384, 43.3726102], [142.1685002, 43.372744], [142.1686032, 43.3728301], [142.1687168, 43.3729239], [142.1688236, 43.3729928], [142.1689428, 43.3730656], [142.1690679, 43.3731241], [142.1692497, 43.373198], [142.1694813, 43.3732684], [142.1696777, 43.3733084], [142.1698545, 43.3733312], [142.1700171, 43.3733424], [142.1701927, 43.3733397], [142.1703837, 43.3733233], [142.1705906, 43.3732928], [142.1714767, 43.3731256], [142.1718168, 43.3730593], [142.1720012, 43.3730316], [142.172188, 43.3730173], [142.1723625, 43.3730158], [142.1725466, 43.3730223], [142.1727149, 43.3730416], [142.1728674, 43.3730674], [142.1730429, 43.3731129], [142.1732154, 43.373158], [142.1733808, 43.3732263], [142.1735254, 43.3732968], [142.1736842, 43.373384], [142.1738204, 43.3734774], [142.1739264, 43.3735836], [142.1740152, 43.3736815], [142.1740948, 43.373789], [142.1741656, 43.373903], [142.1742246, 43.374021], [142.1742712, 43.3741441], [142.1742961, 43.3742595], [142.1743298, 43.3744778], [142.1743483, 43.3746519], [142.174365, 43.3747797], [142.1743958, 43.3748962], [142.1744444, 43.3750152], [142.1744983, 43.3751262], [142.1745769, 43.3752436], [142.1746513, 43.3753442], [142.1747346, 43.3754333], [142.1748605, 43.375556], [142.1751794, 43.3758426], [142.1753157, 43.3759838], [142.1754025, 43.3760889], [142.1754735, 43.3762078], [142.1755285, 43.3763126], [142.1755763, 43.3764432], [142.1756044, 43.3765611], [142.1757216, 43.3770064], [142.1757693, 43.3771526], [142.1758311, 43.3772834], [142.1758901, 43.3773984], [142.1759739, 43.3775148], [142.1761132, 43.3776672], [142.1762571, 43.3778058], [142.1764479, 43.3779571], [142.1766924, 43.3781317], [142.1769583, 43.3783357], [142.1771038, 43.3784819], [142.177235, 43.378641], [142.1773485, 43.3788187], [142.1774262, 43.3789579], [142.1775218, 43.3791628], [142.1776841, 43.3795822], [142.1780516, 43.380399], [142.1782678, 43.3809147], [142.1783041, 43.3809943], [142.1785393, 43.3815381], [142.1786498, 43.3818149], [142.1786896, 43.3819567], [142.1787119, 43.3820971], [142.1787141, 43.3822388], [142.1786214, 43.3837115], [142.1785708, 43.3845831], [142.1785768, 43.3847474], [142.1785948, 43.3849262], [142.1786327, 43.3851441], [142.1786829, 43.3853324], [142.1787494, 43.3855358], [142.179133, 43.3866983], [142.1791875, 43.3868743], [142.1792181, 43.3869996], [142.1792382, 43.3871198], [142.1792437, 43.3872572], [142.1792305, 43.3873933], [142.1792102, 43.3875295], [142.1791668, 43.3876773], [142.1791148, 43.387812], [142.1789691, 43.3880664], [142.178412, 43.3889317], [142.1776831, 43.3900844], [142.1775884, 43.3902619], [142.1775232, 43.3904342], [142.1775007, 43.3905785], [142.1775042, 43.3907151], [142.1775342, 43.3908509], [142.1775807, 43.3909852], [142.1778145, 43.3914523], [142.1780036, 43.3918285], [142.1781867, 43.3921662], [142.1785259, 43.392844], [142.1787563, 43.3932781], [142.1789498, 43.3936396], [142.179048, 43.3937738], [142.1791636, 43.3939119], [142.1792549, 43.3940013], [142.1793833, 43.3940971], [142.1795117, 43.3941881], [142.1796677, 43.3942672], [142.1798507, 43.3943464], [142.1807436, 43.3946725], [142.1809403, 43.3947579], [142.1810941, 43.3948404], [142.1812242, 43.3949296], [142.1813247, 43.39501], [142.1814018, 43.3950872], [142.1814655, 43.3951741], [142.1815124, 43.39526], [142.1815466, 43.3953719], [142.1815593, 43.3954681], [142.1815646, 43.3955766], [142.1815432, 43.3956831], [142.1814967, 43.3958012], [142.1814398, 43.3958949], [142.1813476, 43.3960002], [142.1812452, 43.3960877], [142.181134, 43.3961675], [142.1809993, 43.3962509], [142.1808771, 43.396319], [142.1803978, 43.3965414], [142.180212, 43.3966421], [142.1800778, 43.3967338], [142.1799318, 43.3968442], [142.1798388, 43.3969404], [142.1797295, 43.3970847], [142.1796192, 43.3972597], [142.1792649, 43.3979122], [142.1791681, 43.3980517], [142.179042, 43.3982047], [142.1788508, 43.398396], [142.1785858, 43.3986181], [142.1783645, 43.3988071], [142.1782469, 43.398929], [142.1781552, 43.3990806], [142.1780957, 43.3992186], [142.1780726, 43.3993617], [142.1780752, 43.3994943], [142.1781202, 43.3996466], [142.1781671, 43.3997523], [142.1782384, 43.3999186], [142.1785249, 43.4004395], [142.1785709, 43.4005628], [142.1786069, 43.4006931], [142.1786348, 43.4008396], [142.1786474, 43.4010799], [142.1786682, 43.4013867], [142.1786891, 43.4015256], [142.1787263, 43.4016497], [142.1787702, 43.4017772], [142.1788222, 43.4018929], [142.1788834, 43.4019929], [142.1789662, 43.4021042], [142.1792178, 43.4024049], [142.1794279, 43.402681], [142.1795034, 43.4028125], [142.1795481, 43.4029314], [142.1795763, 43.4030535], [142.1797176, 43.4037881], [142.1797482, 43.4039918], [142.1797559, 43.404187], [142.1797555, 43.4042188], [142.1797463, 43.4043321], [142.1797023, 43.4044845], [142.1796277, 43.4046694], [142.1794996, 43.4048658], [142.1793734, 43.405015], [142.1789869, 43.4055409], [142.1787772, 43.4058586], [142.1787063, 43.4060196], [142.1786599, 43.4061763], [142.1786513, 43.4063011], [142.1786589, 43.4064511], [142.1786829, 43.4066058], [142.178725, 43.4067357], [142.1787975, 43.4068833], [142.1789304, 43.4071017], [142.1792714, 43.4076287], [142.1793744, 43.4078117], [142.1794291, 43.4079654], [142.1794635, 43.4080983], [142.1794675, 43.4082113], [142.1794512, 43.408349], [142.1793984, 43.408472], [142.1793074, 43.4086031], [142.1792097, 43.4087064], [142.1791038, 43.4087831], [142.1789981, 43.4088417], [142.1788507, 43.4089108], [142.1787074, 43.4089652], [142.1785141, 43.4090125], [142.1780176, 43.4091006], [142.177732, 43.409157], [142.1775268, 43.4092193], [142.1773524, 43.4092866], [142.1771904, 43.4093697], [142.1770577, 43.4094572], [142.1769465, 43.4095415], [142.1768337, 43.4096442], [142.1767517, 43.4097458], [142.1766706, 43.4098682], [142.1766172, 43.4099705], [142.176578, 43.4100756], [142.1765482, 43.4101897], [142.1765226, 43.4103285], [142.1764734, 43.4106825], [142.1763384, 43.4116524], [142.1762863, 43.4121586], [142.1762046, 43.4127025], [142.176038, 43.4139077], [142.1758531, 43.4151982], [142.1758007, 43.4156226], [142.17572, 43.4162988], [142.1756539, 43.416712], [142.1756374, 43.4168759], [142.1756199, 43.4171588], [142.17561, 43.417389], [142.1756124, 43.4180668], [142.1756063, 43.4188091], [142.1755924, 43.4189719], [142.1755683, 43.4191082], [142.1755322, 43.419242], [142.1754858, 43.4193787], [142.1754084, 43.4195679], [142.1753066, 43.4197836], [142.1750391, 43.4203318], [142.1748541, 43.4206813], [142.1747169, 43.420924], [142.1744659, 43.4213512], [142.1743899, 43.4214988], [142.1743365, 43.4216658], [142.1742773, 43.4218897], [142.1741232, 43.4226218], [142.1740894, 43.4227628], [142.1740466, 43.4228699], [142.1739794, 43.4229991], [142.1739084, 43.4231139], [142.1738352, 43.4232258], [142.1737381, 43.4233304], [142.173641, 43.4234305], [142.1734496, 43.423574], [142.1726915, 43.4241412], [142.1721919, 43.4245232], [142.1720377, 43.4246469], [142.1719023, 43.4247765], [142.171771, 43.4249002], [142.1716309, 43.4250572], [142.1714115, 43.4253308], [142.1709352, 43.4259973], [142.1707668, 43.4262198], [142.1706759, 43.4263258], [142.1705789, 43.426423], [142.1704014, 43.4265852], [142.1701365, 43.4268021], [142.1693364, 43.427465], [142.1691585, 43.4276234], [142.1689784, 43.4277976], [142.1687592, 43.4280362], [142.1677994, 43.4291664], [142.1674969, 43.4295272], [142.1671266, 43.4299581], [142.166134, 43.4311156], [142.165774, 43.4315364], [142.1651398, 43.4322848], [142.1649163, 43.4325398], [142.1647821, 43.4327043], [142.1646456, 43.4328877], [142.164466, 43.4331609], [142.1638041, 43.4341321], [142.1631113, 43.4351583], [142.1622753, 43.4363858], [142.1619245, 43.4369165], [142.1617364, 43.4371866], [142.1613866, 43.4377073], [142.160459, 43.4390387], [142.1601766, 43.4394566], [142.1592634, 43.4407591], [142.1587714, 43.4414577], [142.1583364, 43.4421334], [142.1581738, 43.4423929], [142.158066, 43.4425838], [142.1579968, 43.44273], [142.157948, 43.4428717], [142.1579218, 43.4430107], [142.1579096, 43.4431712], [142.1579095, 43.4433465], [142.1579576, 43.4441446], [142.1579924, 43.4448061], [142.1580957, 43.4468116], [142.1581261, 43.4470203], [142.1581761, 43.4472425], [142.1582238, 43.4474125], [142.1582808, 43.4475556], [142.1586843, 43.4484743], [142.1590597, 43.4493072], [142.1594645, 43.4501672], [142.1595135, 43.4502711], [142.1599807, 43.4512675], [142.1600083, 43.4513297], [142.1603142, 43.451973], [142.1604455, 43.4522697], [142.1604944, 43.4523715], [142.1606116, 43.4526164], [142.1606733, 43.4527453], [142.160734, 43.4528815], [142.1607978, 43.453014], [142.1608838, 43.453197], [142.1612939, 43.4540606], [142.1613179, 43.4541119], [142.1617037, 43.4549175], [142.1620434, 43.4556462], [142.1621186, 43.4557687], [142.1622117, 43.4558686], [142.162318, 43.4559534], [142.1624674, 43.456036], [142.1631654, 43.4564117], [142.1633739, 43.456548], [142.1635678, 43.4566855], [142.1637586, 43.4568453], [142.1638931, 43.4569597], [142.1640184, 43.4570763], [142.164153, 43.4572121], [142.1642634, 43.4573404], [142.164383, 43.4574945], [142.164487, 43.457646], [142.1645772, 43.4577953], [142.1646826, 43.4580026], [142.1650291, 43.4587851], [142.1653868, 43.4595933], [142.1655529, 43.459955], [142.1656641, 43.4602017], [142.1661132, 43.4612233], [142.1662644, 43.4615313], [142.1667775, 43.46241], [142.1668394, 43.462507], [142.1669049, 43.4626058], [142.1670051, 43.4627239], [142.167152, 43.4628826], [142.1674506, 43.4631712], [142.168632, 43.4643732], [142.168729, 43.4644771], [142.1694268, 43.4651751], [142.1715755, 43.4673387], [142.1714776, 43.4675148], [142.1708592, 43.4684766], [142.1704987, 43.4693039], [142.1699982, 43.4704205], [142.1699608, 43.4704905], [142.1696432, 43.4711863], [142.1690339, 43.4725154], [142.1688902, 43.4728609], [142.1688063, 43.4731032], [142.1687735, 43.4732826], [142.1687562, 43.4734619], [142.1687442, 43.4736376], [142.1687569, 43.473811], [142.1687826, 43.4739502], [142.1688242, 43.4741279], [142.1689373, 43.4745352], [142.168993, 43.4747856], [142.1690159, 43.474958], [142.169022, 43.4751696], [142.1690111, 43.4753262], [142.1689908, 43.4754693], [142.1689553, 43.4756265], [142.1689096, 43.475778], [142.1688545, 43.4759109], [142.1684676, 43.4767245], [142.1680599, 43.4775477], [142.1679608, 43.4777676], [142.1679102, 43.4779102], [142.1678712, 43.4780664], [142.1678389, 43.4782698], [142.1678274, 43.4784638], [142.1678415, 43.4786271], [142.1678683, 43.4788139], [142.167923, 43.4790194], [142.1679775, 43.4791657], [142.1680332, 43.4792956], [142.1680968, 43.4794218], [142.1681743, 43.4795496], [142.1682702, 43.4796901], [142.1683981, 43.4798336], [142.1685271, 43.4799688], [142.168648, 43.480076], [142.1688149, 43.4802184], [142.1696688, 43.48088], [142.1698812, 43.4810499], [142.170159, 43.4812965], [142.1702941, 43.4814339], [142.1704612, 43.4816216], [142.1705726, 43.4817892], [142.1706603, 43.4819403], [142.1707419, 43.4820948], [142.1710367, 43.4827337], [142.1710845, 43.4828372], [142.1716878, 43.4841251], [142.171733, 43.484224], [142.1722982, 43.4854278], [142.1728498, 43.4866201], [142.1728898, 43.4867063], [142.1734493, 43.4879285], [142.1734894, 43.4880121], [142.1737646, 43.4885981], [142.173892, 43.4888669], [142.1740512, 43.4892088], [142.1740879, 43.4892875], [142.1741215, 43.4893611], [142.1747007, 43.4905902], [142.1753162, 43.4919003], [142.1759797, 43.4933223], [142.1761056, 43.4936], [142.1762664, 43.4939417], [142.1764592, 43.494351], [142.1771947, 43.495921], [142.177494, 43.4965591], [142.1775681, 43.4967121], [142.1776514, 43.496854], [142.1777424, 43.4969869], [142.1778426, 43.497102], [142.1779293, 43.4972035], [142.17803, 43.4972941], [142.1781445, 43.4973835], [142.1782566, 43.4974693], [142.178381, 43.4975495], [142.1786885, 43.4977371], [142.1795817, 43.4982947], [142.1796969, 43.4983583], [142.1797842, 43.4984008], [142.1798778, 43.4984378], [142.1799798, 43.4984661], [142.1800924, 43.4984845], [142.1803, 43.4985056], [142.1804762, 43.498524], [142.1806201, 43.4985446], [142.1807476, 43.4985706], [142.1809074, 43.4986111], [142.181602, 43.4987846], [142.181912, 43.4988508], [142.1822226, 43.4989185], [142.1825194, 43.4989784], [142.182858, 43.4990445], [142.183044, 43.4990895], [142.1832792, 43.4991535], [142.1835972, 43.4992404], [142.184498, 43.499485], [142.1848621, 43.4995783], [142.1851061, 43.499638], [142.1852853, 43.4996821], [142.1855092, 43.4997283], [142.1856883, 43.499759], [142.186457, 43.499888], [142.1868769, 43.4999438], [142.1870669, 43.4999806], [142.1876472, 43.500079], [142.1878169, 43.500119], [142.1880036, 43.5001803], [142.1881746, 43.5002362], [142.1883509, 43.5003081], [142.1885434, 43.5004056], [142.1887181, 43.5005107], [142.1889963, 43.5007089], [142.1895241, 43.5010927], [142.1907004, 43.5019671], [142.1919853, 43.5029045], [142.1923406, 43.5031509], [142.1927067, 43.5034011], [142.193117, 43.503675], [142.193474, 43.5039181], [142.1940734, 43.5043138], [142.1945286, 43.5046248], [142.1947627, 43.50481], [142.1943045, 43.5050494], [142.1941052, 43.5051466], [142.1939309, 43.5052439], [142.1937347, 43.5053795], [142.1935658, 43.5055014], [142.1934253, 43.5056366], [142.1932732, 43.505808], [142.1931156, 43.5060488], [142.1927568, 43.5065994], [142.1926989, 43.5066909], [142.1926402, 43.5067951], [142.1925937, 43.5069145], [142.1925735, 43.5070193], [142.1925653, 43.5071263], [142.1925771, 43.5072464], [142.19262, 43.5073732], [142.1926752, 43.5074897], [142.1927674, 43.5076447], [142.192852, 43.5077968], [142.1932429, 43.508495], [142.1933022, 43.5086276], [142.1933453, 43.5087469], [142.1933791, 43.5088508], [142.1934008, 43.5089849], [142.1934052, 43.5091525], [142.1933587, 43.509327], [142.1933215, 43.5094491], [142.1932645, 43.5096281], [142.1931607, 43.5098209], [142.1931373, 43.5098644], [142.1930711, 43.5099488], [142.1929703, 43.5100675], [142.1923784, 43.5107112], [142.1916599, 43.5114809], [142.1913566, 43.5118239], [142.1912079, 43.5119666], [142.1911278, 43.5120575], [142.1910632, 43.5121309], [142.1909633, 43.5122419], [142.1898057, 43.5134973], [142.1895147, 43.5138144], [142.189372, 43.5139355], [142.1892099, 43.5140376], [142.18901, 43.514186], [142.1888891, 43.5142749], [142.188005, 43.5149117], [142.1878164, 43.5150476], [142.1870684, 43.5155903], [142.1870005, 43.5156491], [142.1869371, 43.5157225], [142.1868926, 43.5158019], [142.1868542, 43.5159155], [142.1867582, 43.5165668], [142.1867398, 43.5166958], [142.1867183, 43.5168386], [142.1865899, 43.5176899], [142.1865762, 43.5177875], [142.1865254, 43.5180924], [142.1864788, 43.5183891], [142.1864607, 43.5185135], [142.1864442, 43.5186272], [142.1863492, 43.5192884], [142.1863068, 43.5195604], [142.1862937, 43.5196465], [142.1862687, 43.519821], [142.1861813, 43.5203975], [142.1861674, 43.5204835], [142.1861568, 43.520559], [142.1861103, 43.5208597], [142.1860049, 43.5215944], [142.1859878, 43.521709], [142.1859662, 43.5218487], [142.1858294, 43.5227416], [142.1857848, 43.5230402], [142.185755, 43.5232391], [142.1857132, 43.5235096], [142.1856287, 43.5240746], [142.185608, 43.5241825], [142.1855517, 43.5245411], [142.185544, 43.5246368], [142.1854649, 43.5251954], [142.1854194, 43.5254725], [142.1852458, 43.5266305], [142.1852322, 43.5267208], [142.1852181, 43.5268097], [142.1851433, 43.5272814], [142.1850896, 43.5276926], [142.1850387, 43.5278987], [142.1853088, 43.52765], [142.1853689, 43.5275946], [142.1857447, 43.5272269], [142.1861661, 43.5267969], [142.1862889, 43.5266681], [142.1865931, 43.5263587], [142.1872997, 43.5256549], [142.1877043, 43.525245], [142.1881646, 43.5247646], [142.188386, 43.5245468], [142.188518, 43.5244352], [142.1887844, 43.5244035], [142.188984, 43.5243798], [142.1896325, 43.5243014], [142.1928933, 43.5239528], [142.1932687, 43.5239184], [142.193502, 43.5239088], [142.1936739, 43.5239148], [142.1938538, 43.5239345], [142.1940508, 43.5239671], [142.1942004, 43.5240009], [142.1942662, 43.5240218], [142.1943554, 43.5240502], [142.1944991, 43.5241045], [142.1946351, 43.5241687], [142.1947739, 43.5242465], [142.1949574, 43.5243727], [142.1952771, 43.5246149], [142.1954453, 43.5247422], [142.1956116, 43.5248588], [142.1957465, 43.5249359], [142.1959115, 43.5250182], [142.1960909, 43.5250911], [142.1962168, 43.5251359], [142.1963853, 43.5251871], [142.1965614, 43.5252273], [142.1967151, 43.5252551], [142.1968687, 43.5252727], [142.1969986, 43.5252857], [142.1971781, 43.5252925], [142.1973336, 43.5252929], [142.1974044, 43.5252893], [142.1975097, 43.525284], [142.197706, 43.5252606], [142.1978582, 43.5252368], [142.1980153, 43.5252015], [142.1982191, 43.5251408], [142.1984108, 43.5250762], [142.1986041, 43.5249997], [142.1989717, 43.5248464], [142.1992645, 43.5247354], [142.1995875, 43.5246152], [142.1998544, 43.5245341], [142.2002295, 43.5244309], [142.2006023, 43.5243446], [142.2009913, 43.5242735], [142.2021019, 43.5240925], [142.2028931, 43.523935], [142.2032489, 43.523847], [142.2037054, 43.5237248], [142.2040372, 43.5236163], [142.2043446, 43.5235173], [142.2046728, 43.5233922], [142.2051456, 43.5231925], [142.2055068, 43.5230226], [142.2059702, 43.5227749], [142.206429, 43.5225083], [142.2066539, 43.5223608], [142.2069543, 43.5221503], [142.2072385, 43.521934], [142.2074671, 43.5217489], [142.2077358, 43.5215106], [142.2079658, 43.5212886], [142.2081466, 43.5211068], [142.2083624, 43.5208639], [142.2085802, 43.5206121], [142.2090549, 43.5200755], [142.2095728, 43.5194732], [142.2100276, 43.5189622], [142.2103188, 43.518655], [142.2104852, 43.5184934], [142.2106892, 43.5183123], [142.2109355, 43.5181174], [142.2112198, 43.5179197], [142.2114262, 43.5177881], [142.2117105, 43.5176272], [142.2120109, 43.5174761], [142.2122637, 43.5173676], [142.2125396, 43.5172578], [142.2128292, 43.5171555], [142.2130951, 43.5170789], [142.2133327, 43.5170127], [142.213657, 43.5169351], [142.2139688, 43.5168798], [142.2143087, 43.5168304], [142.2146911, 43.5167878], [142.2150036, 43.5167723], [142.215287, 43.5167643], [142.2155948, 43.5167666], [142.2159095, 43.5167804], [142.2162527, 43.5168119], [142.216679, 43.516866], [142.2170944, 43.5169347], [142.2178324, 43.5170751], [142.2182044, 43.5171504], [142.2184799, 43.5172199], [142.2187918, 43.5173202], [142.2189976, 43.5173973], [142.2191176, 43.5174524], [142.219252, 43.5175239], [142.2194645, 43.5176477], [142.219629, 43.5177628], [142.2197829, 43.5178842], [142.2199137, 43.5180078], [142.2200602, 43.518167], [142.2201346, 43.5182566], [142.2201983, 43.5183333], [142.2203276, 43.5185112], [142.2206941, 43.5190742], [142.2210527, 43.5196286], [142.2213112, 43.5200394], [142.2214446, 43.5202118], [142.2215882, 43.5203695], [142.2217384, 43.5205175], [142.2218927, 43.520633], [142.2221992, 43.520846], [142.2224482, 43.521015], [142.2226816, 43.5211832], [142.2229074, 43.5213932], [142.2231036, 43.5216125], [142.2233202, 43.5219425], [142.2234891, 43.5222115], [142.2236569, 43.522477], [142.2237832, 43.5226494], [142.2239138, 43.5228026], [142.2240288, 43.5229201], [142.2241662, 43.5230316], [142.2243104, 43.5231481], [142.2245095, 43.5232764], [142.2247671, 43.5234204], [142.2253114, 43.5237117], [142.2255739, 43.5238593], [142.2257005, 43.5239399], [142.2258084, 43.5240205], [142.2259001, 43.5241059], [142.2259813, 43.5241947], [142.2260542, 43.5242956], [142.2261155, 43.5244149], [142.2261688, 43.5245579], [142.2262193, 43.5247356], [142.2264994, 43.5258222], [142.2265549, 43.5259967], [142.2266291, 43.5261496], [142.2267056, 43.5262653], [142.226786, 43.5263631], [142.226878, 43.5264515], [142.2269888, 43.5265402], [142.2270913, 43.5266053], [142.2272124, 43.5266654], [142.2279727, 43.5269822], [142.2290646, 43.5274278], [142.2302927, 43.5279289], [142.2304534, 43.5280113], [142.2306013, 43.5280962], [142.2307236, 43.5281766], [142.2308412, 43.5282638], [142.2309356, 43.5283428], [142.2310451, 43.5284456], [142.2311286, 43.5285401], [142.2312225, 43.5286635], [142.2313025, 43.5287807], [142.2313695, 43.5288937], [142.2314378, 43.529037], [142.2319538, 43.5302959], [142.2320382, 43.5304783], [142.2321179, 43.5306295], [142.2322061, 43.5307695], [142.2323098, 43.5309207], [142.2324186, 43.531063], [142.2325351, 43.5312008], [142.2326724, 43.531346], [142.2328235, 43.5314902], [142.232967, 43.5316181], [142.2331705, 43.5317762], [142.2345891, 43.5327866], [142.2346837, 43.5328562], [142.2349312, 43.533073], [142.2350504, 43.5331997], [142.2351555, 43.5333682], [142.2354743, 43.5340012], [142.235716, 43.5344921], [142.2358813, 43.5348062], [142.2360321, 43.5351061], [142.2362989, 43.5356399], [142.2373768, 43.537789], [142.2385052, 43.540028], [142.2386164, 43.5402469], [142.238735, 43.5404176], [142.2389999, 43.5407799], [142.2390749, 43.5409255], [142.2391305, 43.5410586], [142.2391616, 43.5411901], [142.2391855, 43.5413397], [142.2391951, 43.5415054], [142.2392702, 43.5428309], [142.2392939, 43.5432655], [142.239296, 43.5433281], [142.2393025, 43.5435207], [142.2392912, 43.5436992], [142.2392665, 43.5438576], [142.239223, 43.5440313], [142.2391442, 43.5442178], [142.2390448, 43.5444125], [142.2389578, 43.5445597], [142.2388569, 43.5447212], [142.2387771, 43.5448802], [142.2387229, 43.5450192], [142.2386864, 43.5451544], [142.2386695, 43.5453051], [142.2386755, 43.5454405], [142.2386964, 43.5456108], [142.2387403, 43.5457875], [142.2388145, 43.5460914], [142.238828, 43.5462856], [142.2388201, 43.5464331], [142.2387888, 43.546567], [142.238752, 43.5466979], [142.2386869, 43.5468531], [142.2385985, 43.547054], [142.2380383, 43.5482906], [142.2378289, 43.5487604], [142.2377445, 43.5489242], [142.237676, 43.5490529], [142.2375747, 43.5491994], [142.2374804, 43.549312], [142.2373175, 43.5494696], [142.2371991, 43.5495635], [142.2370985, 43.549637], [142.2369431, 43.5497376], [142.2365657, 43.5499705], [142.236386, 43.5500919], [142.2362338, 43.5502187], [142.2361237, 43.550332], [142.2360304, 43.550447], [142.2359426, 43.55059], [142.2358535, 43.5507707], [142.2358071, 43.5509304], [142.2357795, 43.5510885], [142.2357746, 43.5512446], [142.2357813, 43.551377], [142.2358129, 43.5515492], [142.2358748, 43.5517807], [142.2361659, 43.5529121], [142.2362277, 43.5531799], [142.2362627, 43.5533452], [142.2362836, 43.5534902], [142.2362926, 43.5536486], [142.2362829, 43.5537968], [142.2362682, 43.5539511], [142.2362246, 43.5541049], [142.2361834, 43.5542366], [142.2361145, 43.5543861], [142.2360181, 43.5545815], [142.2355607, 43.5554103], [142.2354615, 43.5556069], [142.2353935, 43.5557619], [142.2353325, 43.5559348], [142.2352747, 43.5561485], [142.2352362, 43.5563425], [142.2352172, 43.5565173], [142.2352057, 43.5566998], [142.235196, 43.5569824], [142.2351763, 43.55735], [142.2351513, 43.5575128], [142.2351027, 43.5576695], [142.23504, 43.557834], [142.2349807, 43.5579435], [142.2348554, 43.5581248], [142.2344988, 43.5585954], [142.2344015, 43.5587466], [142.2343231, 43.5589195], [142.234278, 43.5590635], [142.2342551, 43.5592109], [142.2342487, 43.5593515], [142.2342622, 43.5595217], [142.2342896, 43.5596655], [142.2343333, 43.5597907], [142.2343962, 43.5599294], [142.2344683, 43.5600436], [142.2345718, 43.5601844], [142.2346788, 43.560304], [142.2348162, 43.5604253], [142.2349386, 43.5605173], [142.2350692, 43.5606083], [142.2356476, 43.5609725], [142.236581, 43.5615579], [142.236744, 43.5616713], [142.2369398, 43.5618099], [142.2370081, 43.5618681], [142.2371215, 43.5619765], [142.2372152, 43.5620876], [142.2373012, 43.562192], [142.2373688, 43.5622989], [142.2374437, 43.5624463], [142.2375179, 43.5626232], [142.2377262, 43.5632042], [142.2378952, 43.5636559], [142.2379597, 43.5637896], [142.2380365, 43.5639266], [142.238116, 43.5640447], [142.238215, 43.5641798], [142.2383279, 43.5643049], [142.2384524, 43.564433], [142.2386064, 43.5645659], [142.2387404, 43.5646648], [142.2388706, 43.5647566], [142.2390161, 43.5648484], [142.239205, 43.5649526], [142.2393833, 43.5650383], [142.2395383, 43.5651054], [142.2397347, 43.5651762], [142.2399252, 43.5652378], [142.2401016, 43.5652868], [142.240287, 43.5653276], [142.2421734, 43.565696], [142.242548, 43.5657869], [142.2428582, 43.5658622], [142.2430807, 43.5659486], [142.2432298, 43.5660611], [142.243387, 43.5661582], [142.2435498, 43.5662878], [142.2436793, 43.5664186], [142.2437732, 43.5665321], [142.2437891, 43.5665514], [142.2438912, 43.566748], [142.2439701, 43.5669765], [142.2444989, 43.5690232], [142.2446352, 43.5693774], [142.2447759, 43.5696247], [142.244941, 43.5698631], [142.2451084, 43.5700583], [142.245264, 43.5702061], [142.245486, 43.5703737], [142.2456831, 43.5705159], [142.2459555, 43.5706805], [142.2462984, 43.5708012], [142.2466523, 43.5709041], [142.246945, 43.5709639], [142.2473031, 43.5710041], [142.2476076, 43.5710187], [142.2478888, 43.5710226], [142.2481858, 43.5710101], [142.2491334, 43.5707603], [142.2499702, 43.5706671], [142.2503568, 43.5706977], [142.2507108, 43.5707754], [142.2512577, 43.570978], [142.2527035, 43.5714981], [142.2531659, 43.5716114], [142.2536609, 43.5716776], [142.2541483, 43.5717146], [142.2547982, 43.5717398], [142.2568581, 43.571491], [142.2587035, 43.5711645], [142.2591544, 43.5710308], [142.2595403, 43.5708381], [142.2607531, 43.5701973], [142.2616655, 43.5692767], [142.2623634, 43.5682629], [142.2627608, 43.567078], [142.2630835, 43.56547], [142.2636208, 43.5637688], [142.2639552, 43.5629707], [142.2641726, 43.5625872], [142.2644183, 43.5622036], [142.2649873, 43.5614882], [142.2655281, 43.5609267], [142.2660046, 43.5604645], [142.266552, 43.5600229], [142.2668794, 43.5598281], [142.2672634, 43.5596231], [142.2677201, 43.5594592], [142.2683614, 43.5592344], [142.2690169, 43.5590199], [142.2696651, 43.5588627], [142.2702708, 43.5587362], [142.2711745, 43.5585114], [142.271683, 43.5583364], [142.2720782, 43.5581], [142.2727888, 43.5574553], [142.273079, 43.5570243], [142.2732419, 43.5566241], [142.2735196, 43.5563183], [142.2738398, 43.5560844], [142.2741321, 43.5558771], [142.2745236, 43.5557313], [142.2749021, 43.5556572], [142.2751108, 43.5556037], [142.2753834, 43.5554876], [142.2757409, 43.5552895], [142.2760192, 43.5550719], [142.2762693, 43.5548132], [142.2763977, 43.55459], [142.2765402, 43.5542437], [142.2768755, 43.5536897], [142.2770097, 43.5535849], [142.2772148, 43.5534904], [142.2777257, 43.5533223], [142.2785572, 43.5531813], [142.2793887, 43.5530813], [142.279832, 43.5530985], [142.280247, 43.5531979], [142.2805618, 43.5532822], [142.2808907, 43.5533767], [142.2813424, 43.5535602], [142.2816525, 43.5537538], [142.2820709, 43.5542243], [142.2822269, 43.5543346], [142.2824537, 43.5544039], [142.282638, 43.55445], [142.2828224, 43.5544655], [142.2831438, 43.554405], [142.2834227, 43.5543292], [142.2836695, 43.5542428], [142.2839163, 43.5541154], [142.2840916, 43.5539237], [142.284281, 43.5538141], [142.2844776, 43.5537467], [142.2846458, 43.5537305], [142.2848889, 43.5537197], [142.2851179, 43.55375], [142.2854398, 43.5537969], [142.2857616, 43.5539055], [142.2860459, 43.5540687], [142.2863302, 43.5543448], [142.2865255, 43.5544918], [142.2867916, 43.5546286], [142.287178, 43.5547507], [142.287607, 43.5548113], [142.2878679, 43.5547935], [142.2881005, 43.5547141], [142.2882961, 43.5545809], [142.2885555, 43.5544477], [142.288793, 43.5543566], [142.2890446, 43.5543169], [142.2896823, 43.5542271], [142.2902771, 43.5541881], [142.2908718, 43.554221], [142.2913596, 43.5542702], [142.2918191, 43.554381], [142.300388, 43.5568535], [142.3351055, 43.5674646], [142.3360514, 43.5677917], [142.3368001, 43.5682522], [142.342208, 43.5738076], [142.3425686, 43.5745846], [142.3425389, 43.5754911], [142.3424011, 43.5760617], [142.3418256, 43.5779241], [142.3415168, 43.5790725], [142.341805, 43.5803999], [142.3425256, 43.580907], [142.3434932, 43.58125], [142.3445021, 43.5815632], [142.3450374, 43.5819957], [142.3452021, 43.5825326], [142.3453874, 43.5830993], [142.3459432, 43.5837257], [142.3468697, 43.5841731], [142.3484959, 43.5848453], [142.3501558, 43.585824], [142.350802, 43.5864552], [142.3511491, 43.5871151], [142.3515039, 43.5882754], [142.351796, 43.58911], [142.352114, 43.589934], [142.352382, 43.590471], [142.352564, 43.590772], [142.3526609, 43.5908929], [142.3527965, 43.5910931], [142.3531259, 43.5913317], [142.3534644, 43.5914953], [142.3537218, 43.5915885], [142.354033, 43.5916507], [142.3543656, 43.591674], [142.3547625, 43.5916352], [142.3587215, 43.5906094], [142.3588931, 43.5905628], [142.3591506, 43.5905317], [142.3594618, 43.5905317], [142.3597085, 43.5905317], [142.360084, 43.5905939], [142.3603523, 43.5906638], [142.360599, 43.5907804], [142.3608565, 43.590928], [142.3624766, 43.5924511], [142.3625531, 43.5925113], [142.3627233, 43.5926453], [142.3630345, 43.592793], [142.363292, 43.5928707], [142.363554, 43.5929165], [142.3636031, 43.5929251], [142.363638, 43.592929], [142.3655665, 43.5931038], [142.3661244, 43.5931582], [142.3667252, 43.5932281], [142.3672294, 43.5932981], [142.3677444, 43.5934146], [142.3682594, 43.5935933], [142.3683552, 43.5936233], [142.3684263, 43.5936456], [142.3686564, 43.5937177], [142.3687851, 43.593755], [142.3688109, 43.5937625], [142.3689782, 43.5938109], [142.3692036, 43.5938731], [142.3694503, 43.5938964], [142.3697078, 43.5939197], [142.3700297, 43.5939119], [142.3703086, 43.5938886], [142.3708255, 43.5938025], [142.3733878, 43.5933758], [142.3737097, 43.5933291], [142.374053, 43.5933214], [142.3743534, 43.5933369], [142.3747396, 43.5933991], [142.3750186, 43.5935079], [142.3751825, 43.5936242], [142.3754477, 43.5938653], [142.3756409, 43.5941372], [142.3758125, 43.5944869], [142.3759091, 43.5947899], [142.3760164, 43.5950308], [142.3761321, 43.5952173], [142.3763305, 43.5954219], [142.3765226, 43.595567], [142.3767523, 43.5957036], [142.3774068, 43.595981], [142.3776732, 43.5961138], [142.3779114, 43.5962843], [142.378539, 43.5967984], [142.3787867, 43.5969331], [142.3790298, 43.5970607], [142.379306, 43.5971432], [142.3795606, 43.5971573], [142.3808093, 43.597244], [142.3811754, 43.5972696], [142.382337, 43.5971177], [142.3825101, 43.5971061], [142.3826488, 43.5971247], [142.3827799, 43.5971598], [142.3835652, 43.5974423], [142.3836527, 43.5974653], [142.3837403, 43.597462], [142.3838309, 43.597441], [142.383952, 43.5973952], [142.3840401, 43.5973484], [142.3841706, 43.5972846], [142.3842965, 43.5972422], [142.3844312, 43.5972188], [142.3845565, 43.5972179], [142.3862839, 43.597424], [142.3866701, 43.5975638], [142.3870349, 43.5977426], [142.3872758, 43.5978898], [142.3881292, 43.5983641], [142.3886871, 43.598706], [142.3888802, 43.5988614], [142.3890948, 43.5991178], [142.3893952, 43.599615], [142.3898351, 43.6002832], [142.3899209, 43.6005163], [142.3899746, 43.6008115], [142.3899746, 43.601301], [142.3899209, 43.6020003], [142.3898888, 43.6021479], [142.38976, 43.6023576], [142.3896313, 43.6024975], [142.389363, 43.6026063], [142.38901, 43.602683], [142.3888588, 43.6028083], [142.3886979, 43.6029481], [142.3886657, 43.6030879], [142.3886227, 43.603321], [142.3885798, 43.6037794], [142.3885906, 43.6041368], [142.3887193, 43.6045641], [142.3889232, 43.6048593], [142.3890733, 43.6050224], [142.389288, 43.6052089], [142.3894811, 43.6053177], [142.3896956, 43.605372], [142.3899209, 43.6054109], [142.3903608, 43.6053954], [142.3909938, 43.605442], [142.3917985, 43.6055507], [142.3922598, 43.6058459], [142.3926032, 43.6061178], [142.3928285, 43.6064208], [142.3928928, 43.6066383], [142.3928799, 43.606752], [142.3927562, 43.6069061], [142.392679, 43.6069445], [142.3925834, 43.6069921], [142.3924106, 43.6070782], [142.3922723, 43.6072278], [142.3922186, 43.6074183], [142.392174, 43.6079046], [142.3921525, 43.6081066], [142.3921418, 43.6084329], [142.3921847, 43.6088834], [142.3922384, 43.6092019], [142.3923349, 43.6094428], [142.3926353, 43.6099865], [142.3929465, 43.6106002], [142.3930645, 43.6107556], [142.3932147, 43.6108954], [142.3933864, 43.6110119], [142.3951137, 43.6117654], [142.3955643, 43.6119441], [142.3958218, 43.6120062], [142.3960042, 43.6120295], [142.3962617, 43.6119985], [142.3966801, 43.6119441], [142.3970449, 43.6119053], [142.3974526, 43.611913], [142.3978388, 43.6119829], [142.3982939, 43.6120987], [142.3985471, 43.6121744], [142.3987907, 43.6122066], [142.3990426, 43.6122121], [142.3997915, 43.6121299], [142.3997164, 43.6133656], [142.3997164, 43.6136375], [142.3998022, 43.6139327], [142.3999417, 43.6141579], [142.4001992, 43.6144764], [142.4017227, 43.6161853], [142.4026188, 43.6171196], [142.4027778, 43.6172393], [142.4030139, 43.6173631], [142.4031512, 43.6173997], [142.4032934, 43.6174289], [142.4035358, 43.6174555], [142.4048813, 43.617391], [142.4050884, 43.6174029], [142.4052657, 43.6174426], [142.4054589, 43.6175039], [142.4059474, 43.6177227], [142.4073407, 43.618394], [142.4085753, 43.6189888], [142.4087509, 43.619092], [142.4088901, 43.6192213], [142.4090461, 43.6193616], [142.4092126, 43.6195786], [142.4093206, 43.6197751], [142.4094121, 43.6200268], [142.4095605, 43.6207505], [142.4099548, 43.6226899], [142.4100078, 43.6230997], [142.4100072, 43.6232984], [142.4099624, 43.6234862], [142.4096298, 43.6239988], [142.4093723, 43.6244492], [142.4092328, 43.6248065], [142.4091786, 43.6250648], [142.4091529, 43.625375], [142.4091954, 43.6256725], [142.4092637, 43.6259166], [142.4095849, 43.6268075], [142.4098526, 43.6275722], [142.4100275, 43.6279601], [142.4100899, 43.6282176], [142.4101117, 43.6284426], [142.4100832, 43.6286809], [142.4097969, 43.6297259], [142.4097754, 43.6299449], [142.4097751, 43.6301364], [142.4098002, 43.6303386], [142.4102161, 43.6320549], [142.4104263, 43.6328605], [142.4104528, 43.6330377], [142.4104629, 43.633164], [142.4104324, 43.633285], [142.4103632, 43.6334118], [142.4097214, 43.6341061], [142.4081446, 43.6357851], [142.4076135, 43.6363616], [142.4060502, 43.638295], [142.4059554, 43.6384075], [142.4058396, 43.6385039], [142.4056769, 43.6386112], [142.4054891, 43.6387254], [142.403053, 43.6400731], [142.4028578, 43.6401416], [142.402699, 43.6401974], [142.4023771, 43.6402517], [142.4019372, 43.6402828], [142.4014222, 43.6402595], [142.4009395, 43.6402595], [142.4005425, 43.6402905], [142.4001455, 43.6403837], [142.3998558, 43.6404924], [142.3992658, 43.6407331], [142.3983716, 43.6411519], [142.3978493, 43.6414172], [142.397524, 43.6416315], [142.3971819, 43.6419381], [142.3968775, 43.6423277], [142.3968091, 43.6424858], [142.3967781, 43.6426262], [142.396791, 43.6428102], [142.3968673, 43.6429773], [142.3970127, 43.6431415], [142.3971663, 43.6432788], [142.3974697, 43.6435259], [142.3979771, 43.6439528], [142.3986942, 43.6445361], [142.3990853, 43.6448822], [142.3994393, 43.6452583], [142.3996876, 43.6455522], [142.3998976, 43.6458285], [142.4001028, 43.6461831], [142.4003143, 43.6465934], [142.4005227, 43.646933], [142.4006204, 43.6471213], [142.4006653, 43.6472078], [142.4008965, 43.6474595], [142.4029342, 43.6496738], [142.403331, 43.6500669], [142.4038012, 43.6504926], [142.404123, 43.650729], [142.4056677, 43.6519746], [142.4057138, 43.6520117], [142.4072213, 43.6532325], [142.4079895, 43.6538481], [142.4080657, 43.6539297], [142.4081216, 43.6539791], [142.4081452, 43.6540902], [142.4081228, 43.6542285], [142.4079365, 43.6551225], [142.4077505, 43.6559189], [142.4074799, 43.6570749], [142.407389, 43.6575207], [142.4070402, 43.659074], [142.4070329, 43.6591131], [142.4069261, 43.6596827], [142.4068389, 43.6600884], [142.4065634, 43.6613361], [142.4064622, 43.6618404], [142.4062877, 43.6624923], [142.4062278, 43.6627669], [142.4061813, 43.6629979], [142.4061188, 43.6638463], [142.4061078, 43.6639574], [142.4061038, 43.6640505], [142.4060654, 43.6649348], [142.4060635, 43.6649599], [142.4060615, 43.6655638], [142.4060559, 43.6664498]]]}, "id": "relation/6605962"}]}