{"type": "FeatureCollection", "generator": "kokudo-quiz tools/fetch_raw.py (Overpass API)", "copyright": "The data included in this document is from www.openstreetmap.org. The data is made available under ODbL.", "timestamp": "2026-09-30T23:39:59Z", "features": [{"type": "Feature", "properties": {"@id": "relation/9383269", "colour": "red", "from": "山形県新庄市", "name": "国道458号", "name:en": "National Highway Route 458", "name:ja": "国道458号", "name:ja-Hira": "こくどうよんひゃくごじゅうはちごう", "name:ja-Latn": "Kokudou 458 Gou", "network": "JP:national", "official_name": "一般国道458号", "ref": "458", "route": "road", "to": "山形県上山市", "type": "route", "wikidata": "Q6157605", "wikipedia": "ja:国道458号"}, "geometry": {"type": "MultiLineString", "coordinates": [[[140.2595317, 38.1285662], [140.2591959, 38.1290956], [140.2591482, 38.1291917], [140.2588032, 38.1298095], [140.2586608, 38.1300719], [140.2581279, 38.1310889], [140.2579367, 38.1314107], [140.2574471, 38.1322774], [140.2573278, 38.1324665], [140.257102, 38.1327718], [140.256801, 38.133138], [140.256563, 38.1333847], [140.2562952, 38.1336267], [140.2559269, 38.1339256], [140.2569831, 38.1348285], [140.2571566, 38.1350329], [140.2579346, 38.1357607], [140.2582224, 38.1360043], [140.258922, 38.136851], [140.2593413, 38.1374487], [140.2606704, 38.139761], [140.2614545, 38.141128], [140.2619083, 38.141976], [140.262303, 38.142929], [140.262662, 38.143856], [140.262857, 38.144356], [140.2638115, 38.1467389], [140.264465, 38.1483041], [140.2647493, 38.1489444], [140.2648125, 38.1491219], [140.265475, 38.150824], [140.2658774, 38.1518356], [140.2664892, 38.1533022], [140.2666479, 38.1537072], [140.2666563, 38.1537287], [140.2670745, 38.1547935], [140.2671118, 38.1548924], [140.2673948, 38.155603], [140.267417, 38.1556517], [140.2674408, 38.1557048], [140.2677082, 38.1563798], [140.2677271, 38.1564177], [140.2678592, 38.1566819], [140.2679013, 38.1567694], [140.2681091, 38.1570956], [140.2683365, 38.1573916], [140.2686789, 38.1577445], [140.2688815, 38.1579276], [140.269256, 38.1581824], [140.2696214, 38.1584247], [140.2697502, 38.158492], [140.270386, 38.1588334], [140.270658, 38.1589748], [140.2707782, 38.1590434], [140.2718647, 38.1595876], [140.2736165, 38.1605055], [140.273781, 38.1605958], [140.2738228, 38.1606187], [140.2739626, 38.1606913], [140.274573, 38.1610285], [140.2751103, 38.1613134], [140.2751575, 38.1613381], [140.2756453, 38.1615841], [140.2756879, 38.1616056], [140.2770658, 38.1623008], [140.27882, 38.1632519], [140.2789925, 38.1633454], [140.279078, 38.1633899], [140.2791018, 38.1634023], [140.2801657, 38.1639556], [140.2810693, 38.1644127], [140.2816979, 38.1646991], [140.2822136, 38.1649345], [140.2821473, 38.1650701], [140.2821232, 38.1651988], [140.2821292, 38.1653995], [140.2821703, 38.1659328], [140.2822171, 38.1662166], [140.2823168, 38.1665223], [140.2825007, 38.1669042], [140.2827248, 38.1673694], [140.2830193, 38.1679239], [140.2830916, 38.1680313], [140.2832307, 38.1681512], [140.2832034, 38.1682685], [140.2831693, 38.1683995], [140.2831229, 38.1685682], [140.2830586, 38.1686597], [140.2829901, 38.1687456], [140.2828682, 38.1688293], [140.2827427, 38.1688842], [140.2826107, 38.1689149], [140.2824545, 38.1689369], [140.2822446, 38.1689363], [140.2822204, 38.168935], [140.2817652, 38.1689264], [140.2815907, 38.1689381], [140.2814673, 38.1689543], [140.2813594, 38.1689834], [140.2812615, 38.1690129], [140.2811483, 38.1690702], [140.2810151, 38.1691626], [140.2809473, 38.1692446], [140.2808878, 38.1693454], [140.2808596, 38.1694626], [140.2808666, 38.1695781], [140.280894, 38.1696856], [140.2809605, 38.1697931], [140.2810872, 38.1699218], [140.28124, 38.170023], [140.2815177, 38.1701525], [140.2818576, 38.1702585], [140.2840441, 38.1710235], [140.2842361, 38.1711195], [140.2844059, 38.1712313], [140.2845554, 38.171361], [140.2846706, 38.1714885], [140.2847645, 38.1716172], [140.2848553, 38.1717836], [140.2849456, 38.1720233], [140.2853161, 38.1730037], [140.2854189, 38.1733209], [140.2855407, 38.1736833], [140.2858954, 38.1749138], [140.2859773, 38.175242], [140.2860688, 38.1755648], [140.2860761, 38.1755907], [140.2860955, 38.175657], [140.2861273, 38.176045], [140.2860787, 38.1762558], [140.2860059, 38.1763931], [140.2858187, 38.1766352], [140.2856301, 38.1767858], [140.2854363, 38.1768916], [140.285078, 38.1770074], [140.2846909, 38.1770826], [140.2841619, 38.1771801], [140.2838227, 38.1772298], [140.2835924, 38.1772834], [140.2834192, 38.1773533], [140.2832408, 38.1774457], [140.2831239, 38.1775187], [140.2830005, 38.1776072], [140.2829031, 38.1776917], [140.2827876, 38.17782], [140.2826383, 38.1780595], [140.2819285, 38.179318], [140.2809469, 38.1811584], [140.2802328, 38.1825238], [140.2798934, 38.1831726], [140.2794275, 38.1840414], [140.2794139, 38.1840867], [140.2792087, 38.1847721], [140.279135, 38.1849842], [140.2789869, 38.1854968], [140.2787075, 38.1864228], [140.2786489, 38.1866142], [140.2785629, 38.1868759], [140.2781659, 38.1881564], [140.2778044, 38.1894556], [140.2751956, 38.1977186], [140.2751097, 38.1984816], [140.275048, 38.1991203], [140.2750239, 38.1995503], [140.2750373, 38.2002691], [140.2750588, 38.2009078], [140.2751473, 38.2016792], [140.275327, 38.202438], [140.2756569, 38.2034244], [140.2762121, 38.2052076], [140.2765715, 38.2061476], [140.2769202, 38.207332], [140.2772243, 38.2084071], [140.2775082, 38.2092391], [140.277841, 38.21059], [140.2784227, 38.2126243], [140.2785016, 38.2128542], [140.2786305, 38.2131618], [140.2787481, 38.2134448], [140.2789255, 38.2138214], [140.2791442, 38.2142841], [140.2791521, 38.2143026], [140.2792527, 38.2145373], [140.2792846, 38.2147253], [140.2792775, 38.2148703], [140.2792301, 38.2150411], [140.2790921, 38.2153665], [140.2789164, 38.2156803], [140.2788469, 38.2158033], [140.2787402, 38.2159317], [140.278639, 38.216033], [140.2779804, 38.2165622], [140.2772464, 38.2171265], [140.276237, 38.2179014], [140.2755421, 38.2184585], [140.2745442, 38.2192505], [140.2741287, 38.2195798], [140.2738486, 38.2199011], [140.273639, 38.2202494], [140.2735074, 38.2205783], [140.2734364, 38.2209592], [140.2734131, 38.2212897], [140.273461, 38.2220751], [140.2736033, 38.2234244], [140.2736725, 38.2240128], [140.2738189, 38.2253342], [140.2739165, 38.2260817], [140.27401, 38.227317], [140.2740698, 38.2280757], [140.2740899, 38.228305], [140.2741939, 38.2293598], [140.2742183, 38.2295058], [140.2742264, 38.2295963], [140.2742671, 38.2302301], [140.2743093, 38.230887], [140.2743058, 38.2310857], [140.2741848, 38.2315788], [140.2738779, 38.2328504], [140.2733077, 38.2347296], [140.2732366, 38.2350147], [140.2730394, 38.235682], [140.2727318, 38.2365554], [140.2725866, 38.2368933], [140.2720898, 38.2383291], [140.2720404, 38.2384297], [140.2719812, 38.238565], [140.2715586, 38.2397511], [140.2711936, 38.2407271], [140.2710112, 38.2412095], [140.2707791, 38.2418889], [140.2704954, 38.2426849], [140.2704174, 38.2428884], [140.2702682, 38.2433037], [140.2701173, 38.2436969], [140.2699789, 38.2439399], [140.2698459, 38.2441181], [140.2695487, 38.2444634], [140.268696, 38.245228], [140.2682798, 38.2455866], [140.2678935, 38.2459472], [140.2676344, 38.2462277], [140.2673979, 38.24653], [140.267247, 38.24685], [140.2670914, 38.2473051], [140.2670824, 38.2473548], [140.2670787, 38.2475158], [140.2670246, 38.2477483], [140.2670361, 38.2482585], [140.2670446, 38.2486386], [140.266983, 38.2500285], [140.2669393, 38.2509014], [140.2668735, 38.2520746], [140.2668417, 38.2528091], [140.2668346, 38.2529734], [140.2668031, 38.2535063], [140.2667998, 38.2535694], [140.2667347, 38.2548298], [140.2667146, 38.255213], [140.2666783, 38.2563034], [140.2666435, 38.2567485], [140.2666245, 38.2572979], [140.2666102, 38.2575725], [140.2665636, 38.2578324], [140.2664292, 38.2582765], [140.2663449, 38.2584405], [140.2661877, 38.2586814], [140.2659981, 38.2589531], [140.2655941, 38.2595218], [140.265358, 38.2598625], [140.2650674, 38.2602361], [140.2648843, 38.2607414], [140.2648379, 38.26108], [140.2648191, 38.2612438], [140.2648037, 38.2616401], [140.2648038, 38.2626414], [140.264804, 38.2631327], [140.2647783, 38.2650521], [140.264742, 38.26695], [140.2647323, 38.2688367], [140.2647248, 38.2710647], [140.2647095, 38.2721538], [140.2646909, 38.2725074], [140.2646945, 38.2734379], [140.2646866, 38.2735796], [140.2647039, 38.273792], [140.2647324, 38.2741405], [140.2648394, 38.2745834], [140.2649804, 38.2749724], [140.265378, 38.275771], [140.2655117, 38.2760502], [140.2656817, 38.2764245], [140.2663008, 38.2776463], [140.2668005, 38.2786616], [140.2674016, 38.2798594], [140.2676596, 38.2804967], [140.2677986, 38.281085], [140.2678526, 38.2812369], [140.2678987, 38.2816688], [140.2679396, 38.2819479], [140.2678827, 38.2822705], [140.2678258, 38.2825387], [140.2677875, 38.2827132], [140.2674928, 38.2833793], [140.2669965, 38.2844179], [140.2669706, 38.2844999], [140.2669138, 38.2847738], [140.2669076, 38.2848663], [140.2668695, 38.285298], [140.2668438, 38.286244], [140.2668348, 38.2867992], [140.2668391, 38.2868655], [140.2668913, 38.2872548], [140.2670462, 38.2877297], [140.267214, 38.288084], [140.2673711, 38.2883995], [140.2674942, 38.2886679], [140.2675874, 38.2889418], [140.267671, 38.2894163], [140.2677351, 38.2899867], [140.2677496, 38.2901692], [140.267752, 38.2902052], [140.2677647, 38.2903008], [140.2677735, 38.2903673], [140.2677844, 38.2904853], [140.2678077, 38.2908497], [140.2678367, 38.2912558], [140.2678662, 38.2916686], [140.267885, 38.292017], [140.2679529, 38.2929568], [140.2679891, 38.2938078]], [[140.2691794, 38.2938143], [140.2691972, 38.2945931], [140.269204, 38.2953918], [140.2692505, 38.2961541], [140.269258, 38.2963738], [140.2692792, 38.2970117], [140.2693081, 38.297771], [140.2693334, 38.298598], [140.2693493, 38.29904], [140.2693888, 38.2994868], [140.2694141, 38.2996758], [140.2694342, 38.3003417], [140.2694448, 38.3008079], [140.2693399, 38.3021545], [140.2693509, 38.3021799], [140.2693798, 38.3022465], [140.2694199, 38.3022903], [140.2694841, 38.3023279], [140.2693487, 38.3024863], [140.2691954, 38.3026314], [140.269022, 38.3027587], [140.2687901, 38.302877], [140.2686314, 38.3029414], [140.2661521, 38.3038046], [140.2634348, 38.3047382], [140.2627492, 38.3049821], [140.2628244, 38.3051965], [140.2628483, 38.305304], [140.2628522, 38.3054684], [140.2628186, 38.3062048], [140.2627614, 38.3073891], [140.2626964, 38.3082145], [140.2626602, 38.3089412], [140.2626395, 38.3094378], [140.2626252, 38.3096723], [140.2626191, 38.3099371], [140.2626469, 38.3101958], [140.2626977, 38.3105116], [140.2628664, 38.3114605], [140.2629985, 38.3121672], [140.2630189, 38.3123506], [140.263027, 38.3125101], [140.2630107, 38.3126824], [140.2629619, 38.3129114], [140.2628827, 38.3131114], [140.2628505, 38.3131801], [140.2626936, 38.3135149], [140.2625981, 38.3137063], [140.2623914, 38.3141607], [140.2623757, 38.3141888], [140.2623073, 38.3143112], [140.2622281, 38.3144926], [140.2620208, 38.314936], [140.2618724, 38.3151976], [140.2616834, 38.3154687], [140.2614524, 38.315744], [140.261228, 38.3160317], [140.2610837, 38.3162327], [140.2610369, 38.3163395], [140.2610024, 38.3164815], [140.2609678, 38.31681], [140.2609638, 38.3169504], [140.2609333, 38.3170588], [140.260776, 38.3172491], [140.2605389, 38.3175245], [140.2603499, 38.3177701], [140.2600999, 38.3180189], [140.2600612, 38.3180827], [140.2600267, 38.3182613], [140.2598986, 38.3186553], [140.2597855, 38.3188526], [140.2597726, 38.3189009], [140.2595612, 38.3192709], [140.2594372, 38.3195404], [140.2592522, 38.3197748], [140.2587826, 38.3202533], [140.2586465, 38.3204478], [140.2585326, 38.3206488], [140.258309, 38.3213505], [140.2582175, 38.3214286], [140.2581078, 38.3215211], [140.2579817, 38.3216216], [140.2579126, 38.3217173], [140.2578161, 38.3219478], [140.257747, 38.3220753], [140.2576608, 38.3223568], [140.2575104, 38.3227443], [140.2574027, 38.322915], [140.2573173, 38.3230458], [140.2572863, 38.3231114], [140.2572502, 38.3231877], [140.2570653, 38.32358], [140.2569921, 38.3236502], [140.2568884, 38.3236948], [140.2563985, 38.3238734], [140.2563009, 38.323934], [140.256242, 38.324009], [140.2562074, 38.3240728], [140.2561902, 38.3241493], [140.2562111, 38.3246002], [140.2562566, 38.324988], [140.2562736, 38.3252458], [140.2562629, 38.3254799], [140.2562557, 38.3256547], [140.2562561, 38.3258954], [140.2562753, 38.3260521], [140.2564099, 38.3264721], [140.2564255, 38.3265768], [140.2564277, 38.3266742], [140.2561728, 38.3278667], [140.2584726, 38.3279068], [140.2585243, 38.3279053], [140.2605429, 38.3279449], [140.2608353, 38.3279378], [140.2609567, 38.3279187], [140.2612383, 38.3278538], [140.2614751, 38.3277759], [140.2617062, 38.3276789], [140.2620364, 38.3275116], [140.2621548, 38.3274388], [140.2621816, 38.3274255], [140.2623772, 38.3273251], [140.2625104, 38.3272801], [140.2626773, 38.3272465], [140.2628705, 38.3272364], [140.2631546, 38.3272471], [140.2660013, 38.3275056], [140.2658814, 38.328357], [140.2657885, 38.3289619], [140.2657954, 38.3291141], [140.2657788, 38.3303084], [140.265764, 38.3320125], [140.265746, 38.3338075], [140.2657445, 38.3339111], [140.26575, 38.3355047], [140.2657278, 38.3363407], [140.2657317, 38.3380428], [140.2657307, 38.3381309], [140.265706, 38.339163], [140.2656631, 38.3395534], [140.2656205, 38.3397601], [140.2655416, 38.3400102], [140.2655157, 38.3400925], [140.2654247, 38.3402449], [140.2652712, 38.3404428], [140.2650906, 38.3406479], [140.2645925, 38.3412145], [140.2642383, 38.3416011], [140.2632701, 38.342648], [140.2630751, 38.3428798], [140.26294, 38.3430999], [140.2628798, 38.3432154], [140.2628228, 38.3433339], [140.2627671, 38.3434715], [140.2627286, 38.3436262], [140.2627027, 38.3438102], [140.262611, 38.3449646], [140.2625816, 38.345271], [140.2624457, 38.3468628], [140.2622862, 38.3487408], [140.2621537, 38.3503666], [140.2621415, 38.3505954], [140.2621028, 38.3508208], [140.2620563, 38.3510053], [140.2619957, 38.3511602], [140.2611176, 38.3526691], [140.2603539, 38.3540525], [140.2600736, 38.354439], [140.2599498, 38.3545752], [140.2597997, 38.3547027], [140.2596457, 38.3548046], [140.2594954, 38.3548933], [140.2591754, 38.3550457], [140.258917, 38.3551826], [140.2586904, 38.3553401], [140.2582503, 38.3557419], [140.2577916, 38.3562295], [140.2571705, 38.3568647], [140.2568929, 38.3573063], [140.256797, 38.357492], [140.2566364, 38.3577478], [140.2565288, 38.3578747], [140.2564422, 38.3579659], [140.2563554, 38.3580505], [140.2560244, 38.3583079], [140.2550921, 38.3589342], [140.2546918, 38.3591773], [140.254385, 38.3593123], [140.2534144, 38.3596103], [140.2523347, 38.3599169], [140.2519091, 38.3600436], [140.2498752, 38.3606781], [140.2492722, 38.3608603], [140.2491222, 38.3609078], [140.2479884, 38.3612618], [140.2468535, 38.3616149], [140.2446604, 38.3622879], [140.2434777, 38.3626572], [140.2420186, 38.3631516], [140.2412801, 38.3634747], [140.2403623, 38.3638841]], [[140.2679891, 38.2938078], [140.2681683, 38.2938006], [140.2691794, 38.2938143]], [[140.2403623, 38.3638841], [140.2401459, 38.364009], [140.2399133, 38.3641145], [140.2394564, 38.3643145], [140.2387485, 38.3646824], [140.2377806, 38.3650894], [140.237373, 38.365245], [140.237015, 38.365369], [140.2362822, 38.3656133], [140.2356232, 38.36581], [140.2349052, 38.3661203], [140.2346869, 38.3662499], [140.2345085, 38.3663713], [140.2342198, 38.3666012], [140.2340013, 38.3668065], [140.2337447, 38.3670559], [140.2334973, 38.3673452], [140.2332511, 38.367581], [140.232994, 38.3677498], [140.2325327, 38.3679261], [140.2318222, 38.3681292], [140.2310066, 38.3683688], [140.2304369, 38.3685514], [140.2284297, 38.3691154], [140.2270777, 38.3695079], [140.2254224, 38.3700041], [140.225236, 38.37006], [140.223712, 38.37055], [140.223469, 38.370652], [140.2231201, 38.3708113], [140.2227419, 38.3710589], [140.2224358, 38.3713099], [140.2220669, 38.3716514], [140.2220064, 38.3717172], [140.2214531, 38.3724606], [140.2210288, 38.3730148], [140.2207677, 38.3733322], [140.220477, 38.3737265], [140.2201761, 38.3741263], [140.2197642, 38.3746423], [140.219605, 38.374869], [140.2194081, 38.3751396], [140.219248, 38.3753595], [140.2181047, 38.3768104], [140.2179607, 38.3770035], [140.2169672, 38.3782253], [140.2166347, 38.3785276], [140.2165733, 38.378568], [140.2160921, 38.3788842], [140.2156943, 38.3790905], [140.2153489, 38.3792505], [140.2149714, 38.3793896], [140.2146877, 38.379466], [140.2144118, 38.3795337], [140.214103, 38.3795869], [140.2137836, 38.3796232], [140.2136766, 38.379636], [140.2121612, 38.3797974], [140.2115406, 38.3798679], [140.2108092, 38.379924], [140.2102859, 38.379971], [140.2094703, 38.3800484], [140.2088107, 38.3801165], [140.208573, 38.3801305], [140.2072088, 38.3802769], [140.2062444, 38.3803477], [140.20609, 38.38036], [140.205878, 38.3803838], [140.2057613, 38.3804017], [140.2055804, 38.3804476], [140.2051619, 38.3806246], [140.2049966, 38.3806949], [140.2056119, 38.3814036], [140.2059077, 38.3817407], [140.2060153, 38.3819032], [140.2060399, 38.3819631], [140.2060485, 38.3819972], [140.2060752, 38.3820785], [140.2060947, 38.3821748], [140.2060899, 38.3822436], [140.2060701, 38.3823382], [140.2060687, 38.3823851], [140.206009, 38.3826165], [140.2059649, 38.3827876], [140.2057098, 38.3836078], [140.2055979, 38.3839363], [140.205532, 38.3841537], [140.2054509, 38.3843529], [140.2052869, 38.3847392], [140.204756, 38.3857851], [140.2045498, 38.3861956], [140.2041459, 38.3869961], [140.2040305, 38.3872381], [140.2039483, 38.3874382], [140.2039093, 38.3877186], [140.2039223, 38.3879696], [140.2040074, 38.3882003], [140.2041069, 38.3884004], [140.2042642, 38.3886446], [140.204367, 38.388728], [140.20443, 38.388781], [140.204559, 38.388866], [140.2047806, 38.388994], [140.2051513, 38.3891251], [140.2056028, 38.3892484], [140.2059259, 38.3893117], [140.2062375, 38.3893026], [140.2064668, 38.3892732], [140.2067842, 38.3890969], [140.206953, 38.3889488], [140.2071477, 38.3887238], [140.2075083, 38.388241], [140.2076612, 38.3880001], [140.2077925, 38.3878667], [140.2080074, 38.3877197], [140.2082238, 38.3876078], [140.2085368, 38.3875366], [140.2087807, 38.3875097], [140.2090186, 38.3874834], [140.2095312, 38.3874251], [140.2101106, 38.387376], [140.2103761, 38.3873536], [140.2104552, 38.3873526], [140.2105531, 38.3873618], [140.2107006, 38.3873999], [140.2107857, 38.3874348], [140.2109212, 38.3875072], [140.2110612, 38.3876485], [140.2111595, 38.3878991], [140.2111473, 38.3879775], [140.211082, 38.3881694], [140.2109065, 38.388382], [140.2105883, 38.3887258], [140.2103823, 38.3889017], [140.2102252, 38.3890936], [140.2101421, 38.3892826], [140.210026, 38.3896791], [140.2098833, 38.390099], [140.209597, 38.390507], [140.2093699, 38.3907136], [140.2087788, 38.3910586], [140.2084378, 38.3912788], [140.2082824, 38.3914721], [140.2081724, 38.3916503], [140.2081127, 38.3918207], [140.2080944, 38.3919475], [140.2080638, 38.3921565], [140.2080878, 38.3923811], [140.20814, 38.3926144], [140.2083076, 38.3931149], [140.2083504, 38.3932779], [140.2087747, 38.3945538], [140.2088523, 38.394832], [140.2090032, 38.3951054], [140.209093, 38.3952557], [140.2093133, 38.3954796], [140.2100457, 38.3961559], [140.2103802, 38.3964644], [140.210574, 38.3966675], [140.2107229, 38.3968401], [140.2107943, 38.3969457], [140.2109025, 38.3972079], [140.2109453, 38.3974029], [140.2109494, 38.3977275], [140.2108596, 38.3979657], [140.2108045, 38.3981128], [140.2106475, 38.398343], [140.2104149, 38.3985796], [140.210062, 38.3989042], [140.2093929, 38.3994078], [140.2088747, 38.3997403], [140.2085463, 38.3999353], [140.2083769, 38.400076], [140.2082811, 38.4002295], [140.208194, 38.400379], [140.2081564, 38.4007102], [140.2081294, 38.400917], [140.2080851, 38.401147], [140.2079734, 38.401374], [140.2078646, 38.4014904], [140.2077608, 38.4015802], [140.2075353, 38.4017183], [140.2071292, 38.4018404], [140.206467, 38.4019612], [140.206105, 38.4020476], [140.2059199, 38.402143], [140.2056836, 38.4022974], [140.2055287, 38.4024126], [140.2052835, 38.4025844], [140.2049844, 38.402829], [140.203372, 38.4040424], [140.203058, 38.404275], [140.2028729, 38.4046053], [140.2028123, 38.4047726], [140.2027604, 38.4049648], [140.2027748, 38.4051547], [140.2028642, 38.4056004], [140.2028913, 38.4057995], [140.2029476, 38.4062122], [140.2031143, 38.40713], [140.2032661, 38.4078108], [140.2033345, 38.4081818], [140.2034253, 38.4085985], [140.2037313, 38.4101804], [140.2038262, 38.4106623], [140.2038527, 38.4108017], [140.2039229, 38.4111287], [140.2040086, 38.4115357], [140.2034557, 38.4115952], [140.2031334, 38.4116671], [140.2027785, 38.4117518], [140.2025235, 38.4118269], [140.2022114, 38.4119308], [140.2015689, 38.4121434], [140.2010405, 38.4123192], [140.2005632, 38.4124695], [140.2002226, 38.412583], [140.1999961, 38.4126453], [140.1997309, 38.4127316], [140.1994821, 38.4127971], [140.1991129, 38.412893], [140.198248, 38.4130673], [140.1974468, 38.4132249], [140.1962849, 38.4134715], [140.196068, 38.4135265], [140.1960404, 38.4136381], [140.196021, 38.413788], [140.196071, 38.413952], [140.196214, 38.414295], [140.196235, 38.414391], [140.1962873, 38.4145255], [140.1963505, 38.4147573], [140.1962954, 38.4149907], [140.1962791, 38.4151377], [140.1962771, 38.4152624], [140.1963566, 38.4154877], [140.196521, 38.415703], [140.196643, 38.415927], [140.1967524, 38.4162309], [140.1968544, 38.4164275], [140.1971114, 38.4167999], [140.197251, 38.417037], [140.1974561, 38.4174967], [140.1975622, 38.41781], [140.1976336, 38.4180481], [140.1976805, 38.4185627], [140.1978384, 38.4196119], [140.1979443, 38.4209924], [140.1979721, 38.421122], [140.1980978, 38.4214159], [140.1983812, 38.4218041], [140.1986406, 38.4221592], [140.1986925, 38.4226866], [140.1986768, 38.4231463], [140.1986841, 38.4236614], [140.1987208, 38.4242665], [140.1987881, 38.4247659], [140.1990125, 38.425323], [140.199224, 38.4256504], [140.1995283, 38.4259446], [140.1998768, 38.426278], [140.2000564, 38.4264765], [140.2001924, 38.4266819], [140.200263, 38.4269273], [140.2003262, 38.4272229], [140.2004914, 38.4281865], [140.2006567, 38.4292332], [140.2007892, 38.4297893], [140.2008851, 38.4302623], [140.200928, 38.4307129], [140.2008994, 38.4311124], [140.2009246, 38.4314152], [140.2012882, 38.4320499], [140.2014273, 38.4322947], [140.2015201, 38.4326903], [140.2016905, 38.4334693], [140.2017518, 38.4338161], [140.2017465, 38.4344795], [140.2016766, 38.4347796], [140.201597, 38.434988], [140.2013033, 38.4353756], [140.2010055, 38.4358006], [140.2008606, 38.4362768], [140.2007138, 38.4367785], [140.2005934, 38.437245], [140.200469, 38.4377004], [140.2003792, 38.4379033], [140.2002426, 38.4381094], [140.1998188, 38.4387999], [140.1995919, 38.439279], [140.1995143, 38.4396209], [140.1995225, 38.4402249], [140.1995694, 38.4407569], [140.1995959, 38.4413305], [140.1996306, 38.4417587], [140.1996694, 38.4422508], [140.1997142, 38.4427301], [140.199855, 38.4432094], [140.1999794, 38.4435225], [140.2005547, 38.4446137], [140.2007199, 38.4449157], [140.2007954, 38.4453774], [140.2007933, 38.4456138], [140.2007933, 38.4459941], [140.2008178, 38.4464174], [140.2008647, 38.4467913], [140.2010238, 38.4472849], [140.2012115, 38.4477163], [140.2014073, 38.4481716], [140.201546, 38.4485789], [140.2016623, 38.449055], [140.2017255, 38.4493218], [140.2018439, 38.449825], [140.2018704, 38.4499736], [140.2018133, 38.4503123], [140.2017276, 38.4505519], [140.201579, 38.450777], [140.201439, 38.451036], [140.2013359, 38.4512212], [140.2012441, 38.451488], [140.2012401, 38.4516462], [140.2012462, 38.4518235], [140.2012503, 38.4519609], [140.2013482, 38.4521765], [140.2014644, 38.4523475], [140.2016807, 38.4526861], [140.2019132, 38.4530855], [140.2020356, 38.4535376], [140.2021376, 38.454397], [140.2022539, 38.4552963], [140.2024375, 38.455865], [140.2026741, 38.4564544], [140.2028495, 38.4568777], [140.2035512, 38.4585246], [140.2037552, 38.4590086], [140.2040408, 38.4596395], [140.2042264, 38.4601219], [140.2043406, 38.4605356], [140.2043529, 38.4607832], [140.2043712, 38.4612576], [140.2044263, 38.4615467], [140.2045487, 38.4618901], [140.2047486, 38.4621345], [140.2050444, 38.4624316], [140.2053626, 38.4627334], [140.2055034, 38.4629539], [140.2057298, 38.4634825], [140.2057951, 38.4637684], [140.2059521, 38.4642859], [140.20606, 38.464821], [140.2060324, 38.4651573], [140.2060266, 38.465255], [140.2059469, 38.4656718], [140.205882, 38.4659541], [140.2056973, 38.4664415], [140.2054983, 38.4668859], [140.2053194, 38.4673156], [140.2051781, 38.4676905], [140.2051204, 38.4679729], [140.2050223, 38.4683258], [140.2049134, 38.4687351], [140.2049199, 38.4691581], [140.2049026, 38.4694658], [140.2049307, 38.4697877], [140.2051156, 38.4703977], [140.205355, 38.4707094], [140.2054473, 38.4709894], [140.2054127, 38.4716535], [140.2054473, 38.4719132], [140.206031, 38.472727], [140.206103, 38.472936], [140.2060848, 38.4737878], [140.206031, 38.474786], [140.2055626, 38.4758351], [140.2054973, 38.475982], [140.2054443, 38.476389], [140.2053549, 38.476599], [140.205207, 38.476791], [140.2050419, 38.4768802], [140.2048616, 38.4769299], [140.204675, 38.476975], [140.2045385, 38.4770146], [140.2044418, 38.477088], [140.204209, 38.477443], [140.2040654, 38.4776063], [140.2038259, 38.4777519], [140.2036875, 38.4778626], [140.2036456, 38.4779337], [140.203673, 38.4781788], [140.2036211, 38.4782872], [140.2035973, 38.4783193], [140.2031004, 38.4788156], [140.2029475, 38.4789748], [140.2027606, 38.4794043], [140.2026692, 38.4795628], [140.2025134, 38.4796583], [140.2022719, 38.479741], [140.2020083, 38.4797677], [140.201996, 38.47977], [140.2018966, 38.4798184], [140.2018533, 38.4798852], [140.2016938, 38.4801164], [140.2015222, 38.4802921], [140.2012575, 38.480558], [140.201113, 38.480689], [140.2010121, 38.4807309], [140.2007918, 38.4808499], [140.2006068, 38.4809564], [140.200422, 38.4811498], [140.2003171, 38.4812806], [140.2002669, 38.4813686], [140.2002098, 38.4815267], [140.2001654, 38.4817144], [140.2001506, 38.4818589], [140.2001307, 38.4821807], [140.2001144, 38.4824059], [140.2001032, 38.4825832], [140.200069, 38.4827433], [140.2000522, 38.4828683], [140.2000088, 38.4829633], [140.1998961, 38.4830983], [140.1997344, 38.4832205], [140.1995742, 38.4832844], [140.19949, 38.483345], [140.1994018, 38.4834449], [140.1993102, 38.4835718], [140.1992401, 38.4836801], [140.1991503, 38.4838537], [140.1990555, 38.4839683], [140.1989427, 38.4841309], [140.1988603, 38.4843248], [140.1986577, 38.4849936], [140.1985557, 38.4853514], [140.1981497, 38.4860589], [140.1978722, 38.4864502], [140.1975764, 38.48676], [140.1972989, 38.486974], [140.1969255, 38.4872104], [140.1961767, 38.487541], [140.195328, 38.487999], [140.1949045, 38.4883995], [140.1946066, 38.4885703], [140.1942658, 38.4886821], [140.1934518, 38.4889952], [140.1929662, 38.4894311], [140.1927111, 38.4897633], [140.1925357, 38.4899023], [140.1923031, 38.4901386], [140.1921888, 38.4901929], [140.1917501, 38.4903334], [140.1912543, 38.4903638], [140.1905933, 38.4904309], [140.190318, 38.490531], [140.19022, 38.49059], [140.1899604, 38.4907137], [140.1894395, 38.4910361], [140.1892053, 38.4911766], [140.1889967, 38.491314], [140.188812, 38.491455], [140.188259, 38.492567], [140.187862, 38.493522], [140.187764, 38.4936268], [140.1875938, 38.4936946], [140.1873701, 38.493759], [140.186883, 38.493894], [140.1863559, 38.4943077], [140.1860775, 38.4944884], [140.1858235, 38.4946442], [140.1852854, 38.4948845], [140.1848995, 38.4951561], [140.1847162, 38.4954785], [140.1843822, 38.495798], [140.1837763, 38.4960972], [140.1835693, 38.496366], [140.1835527, 38.4965353], [140.183674, 38.496938], [140.183604, 38.497101], [140.1834611, 38.4972439], [140.1824549, 38.4974984], [140.1814352, 38.4979882], [140.1810665, 38.4982251], [140.1809224, 38.4983073], [140.1808624, 38.4983455], [140.1807257, 38.4984041], [140.1806278, 38.4984552], [140.1804956, 38.4985099], [140.1803727, 38.4985519], [140.1802324, 38.4986026], [140.180086, 38.4986357], [140.1799964, 38.498638], [140.1799274, 38.4986397], [140.1797437, 38.4986747], [140.179203, 38.4988824], [140.1790145, 38.4990134], [140.1788587, 38.4992211], [140.1787289, 38.4994131], [140.1787164, 38.4994843], [140.1786414, 38.4997372], [140.1787112, 38.499978], [140.1784062, 38.5001532], [140.1780035, 38.5002862], [140.1772854, 38.5006132], [140.1768589, 38.5007822], [140.1766717, 38.5010195], [140.1764732, 38.5016853], [140.1764795, 38.5018747], [140.1764015, 38.5020888], [140.176169, 38.5022153], [140.175591, 38.502244], [140.1753213, 38.5024803], [140.1751304, 38.5025907], [140.175012, 38.5026373], [140.1748269, 38.5027755], [140.1744646, 38.5031558], [140.1743385, 38.503218], [140.1742274, 38.5032213], [140.1739982, 38.5031711], [140.173682, 38.503174], [140.173353, 38.503274], [140.172992, 38.503468], [140.172396, 38.504221], [140.171956, 38.504381], [140.171834, 38.504472], [140.17165, 38.504824], [140.171638, 38.505072], [140.172252, 38.506182], [140.172286, 38.506323], [140.172227, 38.506737], [140.172533, 38.507285], [140.172514, 38.5073783], [140.1724912, 38.5074074], [140.172438, 38.5074105], [140.172373, 38.507389], [140.171551, 38.505977], [140.171356, 38.505742], [140.171203, 38.505658], [140.169296, 38.505495], [140.168345, 38.5055], [140.168079, 38.505557], [140.167429, 38.506038], [140.16722, 38.506115], [140.16629, 38.506295], [140.166034, 38.50638], [140.165961, 38.506495], [140.166084, 38.506546], [140.166914, 38.506418], [140.167376, 38.506519], [140.167796, 38.506763], [140.167886, 38.506869], [140.168009, 38.507261], [140.168188, 38.507379], [140.168464, 38.507346], [140.168775, 38.50703], [140.168905, 38.507018], [140.168989, 38.507066], [140.169035, 38.507159], [140.169016, 38.50736], [140.168867, 38.507709], [140.168623, 38.507879], [140.168431, 38.50791], [140.167751, 38.507846], [140.167061, 38.507714], [140.166992, 38.507613], [140.167022, 38.507184], [140.166876, 38.507073], [140.166723, 38.50704], [140.166502, 38.507067], [140.16636, 38.507148], [140.166302, 38.507238], [140.166488, 38.507676], [140.166921, 38.508186], [140.167144, 38.508276], [140.16815, 38.508405], [140.168391, 38.508591], [140.168386, 38.508807], [140.168064, 38.508895], [140.166457, 38.508505], [140.166316, 38.508511], [140.166171, 38.508629], [140.165898, 38.509214], [140.165214, 38.509626], [140.1649458, 38.5101166], [140.164854, 38.510184], [140.164677, 38.510192], [140.1641828, 38.5100033], [140.1639071, 38.5100066], [140.163773, 38.510075], [140.1637031, 38.5102362], [140.1636194, 38.5106327], [140.163518, 38.5106757], [140.162785, 38.510762], [140.1624978, 38.5106918], [140.1622512, 38.5103052], [140.162039, 38.510139], [140.161405, 38.510084], [140.160762, 38.510231], [140.160577, 38.510323], [140.160516, 38.510449], [140.160665, 38.510899], [140.1606294, 38.5113197], [140.160668, 38.511453], [140.1611828, 38.511762], [140.1612309, 38.5118581], [140.1613146, 38.5121491], [140.161288, 38.512324], [140.161072, 38.512497], [140.1608768, 38.5126036], [140.1605554, 38.5126563], [140.160247, 38.512562], [140.1599954, 38.512349], [140.1597525, 38.5122399], [140.159177, 38.512067], [140.1586325, 38.5120597], [140.1583646, 38.512127], [140.1582029, 38.5122598], [140.158127, 38.512414], [140.1578785, 38.5140435], [140.157799, 38.514402], [140.157554, 38.514669], [140.1570032, 38.5149323], [140.1561137, 38.5155811], [140.1561095, 38.5156838], [140.1561968, 38.51575], [140.1565395, 38.515769], [140.158579, 38.516016], [140.158983, 38.516236], [140.15981, 38.516801], [140.159955, 38.517064], [140.1599318, 38.5171626], [140.1598127, 38.5174401], [140.1598281, 38.5175217], [140.1600078, 38.517743], [140.1600824, 38.5179732], [140.1600504, 38.5185344], [140.1600522, 38.5189134], [140.1599738, 38.5190523], [140.159535, 38.5192428], [140.1593914, 38.5193009], [140.1593174, 38.5193651], [140.1593568, 38.5194253], [140.159597, 38.519612], [140.15965, 38.51973], [140.159645, 38.51988], [140.15948, 38.520077], [140.159412, 38.52025], [140.1592512, 38.5203478], [140.1583854, 38.5204053], [140.1582585, 38.5204759], [140.1582079, 38.5206555], [140.158103, 38.520776], [140.15811, 38.520899], [140.158288, 38.521283], [140.1583711, 38.5214076], [140.158465, 38.521487], [140.159277, 38.521736], [140.159428, 38.521847], [140.1595, 38.521983], [140.159667, 38.522771], [140.1596815, 38.5229099], [140.1596265, 38.5229993], [140.159108, 38.52337], [140.15904, 38.523523], [140.1589121, 38.5245125], [140.158888, 38.525056], [140.15889, 38.525229]], [[140.158909, 38.525341], [140.15892, 38.525373], [140.159033, 38.52557], [140.159068, 38.52564], [140.15908, 38.525682], [140.1590951, 38.5257999], [140.1589704, 38.526307], [140.1589598, 38.5264538], [140.1589972, 38.5265401], [140.1591496, 38.5266738], [140.159378, 38.526814], [140.159442, 38.52689], [140.159477, 38.526954], [140.1596128, 38.5271861], [140.1596335, 38.527297], [140.1596764, 38.5274665], [140.159677, 38.527645], [140.1596918, 38.5277044], [140.1597475, 38.5277474], [140.159826, 38.527767], [140.1600298, 38.5278176], [140.160436, 38.527975], [140.160554, 38.528027], [140.160596, 38.528052], [140.160631, 38.528095], [140.160653, 38.528149], [140.160664, 38.528209], [140.160653, 38.52831], [140.16063, 38.528439], [140.16058, 38.528535], [140.160534, 38.52858], [140.160501, 38.528602], [140.16045, 38.52861], [140.160333, 38.528599], [140.160053, 38.528557], [140.159995, 38.528554], [140.159927, 38.528569], [140.159889, 38.528587], [140.159861, 38.52862], [140.159858, 38.528659], [140.159861, 38.5287], [140.159884, 38.528742], [140.15993, 38.528785], [140.160132, 38.528899], [140.160391, 38.52901], [140.16067, 38.529127], [140.160746, 38.529169], [140.160796, 38.529217], [140.160826, 38.529265], [140.160841, 38.52931], [140.160848, 38.529355], [140.160852, 38.529439], [140.160879, 38.529488], [140.160921, 38.529551], [140.160989, 38.529616], [140.16108, 38.529688], [140.161133, 38.529745], [140.161161, 38.529799], [140.161176, 38.529869], [140.161176, 38.529928], [140.161157, 38.529998], [140.16113, 38.530046], [140.161088, 38.530088], [140.161026, 38.530129], [140.160956, 38.530154], [140.160874, 38.530169], [140.160781, 38.530171], [140.160686, 38.530159], [140.160428, 38.530084], [140.160244, 38.530033], [140.160172, 38.530028], [140.160104, 38.530033], [140.160062, 38.530052], [140.160012, 38.530102], [140.159936, 38.530196], [140.1598755, 38.5302563], [140.1598026, 38.5302743], [140.1596899, 38.5302809], [140.159583, 38.530279], [140.159534, 38.530285], [140.159499, 38.530298], [140.159476, 38.530319], [140.159453, 38.530361], [140.159435, 38.530415], [140.159411, 38.530534], [140.159384, 38.53061], [140.159235, 38.530925], [140.159215, 38.530979], [140.159215, 38.531006], [140.159233, 38.531033], [140.159278, 38.53108], [140.159329, 38.531108], [140.159394, 38.531132], [140.159513, 38.531147], [140.159917, 38.531159], [140.160023, 38.531171], [140.160119, 38.531189], [140.160188, 38.531216], [140.160267, 38.531267], [140.160367, 38.531355], [140.160492, 38.531508], [140.160529, 38.531576], [140.160551, 38.531636], [140.160567, 38.531717], [140.160575, 38.531798], [140.160578, 38.532031], [140.1605312, 38.5322395], [140.1605042, 38.5323934], [140.160477, 38.532508], [140.160454, 38.532556], [140.160431, 38.532589], [140.160385, 38.532625], [140.160316, 38.532664], [140.160243, 38.53271], [140.160201, 38.532743], [140.160178, 38.532784], [140.160159, 38.532836], [140.160152, 38.532938], [140.160143, 38.533121], [140.160154, 38.533181], [140.160176, 38.533226], [140.160226, 38.533286], [140.160421, 38.533466], [140.160474, 38.533522], [140.160496, 38.533567], [140.160519, 38.533621], [140.160523, 38.533702], [140.160526, 38.533959], [140.160537, 38.533992], [140.160564, 38.534013], [140.160603, 38.53404], [140.160744, 38.534076], [140.160888, 38.534103], [140.16098, 38.53411], [140.161101, 38.534082], [140.161323, 38.53401], [140.161399, 38.533979], [140.16146, 38.533943], [140.161536, 38.533887], [140.161604, 38.533806], [140.161813, 38.533557], [140.162023, 38.533351], [140.162061, 38.533326], [140.162095, 38.533316], [140.1621421, 38.5332993], [140.1621731, 38.5332966], [140.1622249, 38.5333004], [140.1622684, 38.5333309], [140.1622865, 38.5333812], [140.1622999, 38.5334489], [140.1623153, 38.5336028], [140.1623319, 38.5337206], [140.1623399, 38.533882], [140.1623175, 38.534128], [140.1623127, 38.5342142], [140.1623998, 38.5343349], [140.162697, 38.534906], [140.1628379, 38.5351648], [140.1629034, 38.5352359], [140.1629614, 38.5352819], [140.1630301, 38.5352985], [140.163153, 38.5352715], [140.163219, 38.535248], [140.163302, 38.535219], [140.163429, 38.535171], [140.163661, 38.535116], [140.163718, 38.535105], [140.163783, 38.535105], [140.163851, 38.535108], [140.163916, 38.535123], [140.163966, 38.535144], [140.164015, 38.535162], [140.164053, 38.535171], [140.164088, 38.535171], [140.164114, 38.535162], [140.164153, 38.53512], [140.164244, 38.535012], [140.164285, 38.534977], [140.164327, 38.534943], [140.164391, 38.534905], [140.164445, 38.534871], [140.16451, 38.534823], [140.164567, 38.534758], [140.164735, 38.534515], [140.164948, 38.534254], [140.165001, 38.534204], [140.16505, 38.534165], [140.165116, 38.534117], [140.165185, 38.534078], [140.165376, 38.533999], [140.165649, 38.533889], [140.165696, 38.533865], [140.16573, 38.533835], [140.165756, 38.533799], [140.165768, 38.53376], [140.165783, 38.533703], [140.165786, 38.533369], [140.165786, 38.533268], [140.1658, 38.533169], [140.165828, 38.533059], [140.165869, 38.532926], [140.165884, 38.532897], [140.165915, 38.532878], [140.165953, 38.532867], [140.166014, 38.532864], [140.166094, 38.532872], [140.166175, 38.532888], [140.16627, 38.532906], [140.166338, 38.532909], [140.166422, 38.532903], [140.166506, 38.532879], [140.166579, 38.532849], [140.16664, 38.532815], [140.16669, 38.532773], [140.166735, 38.532717], [140.166776, 38.532629], [140.16685, 38.532437], [140.166934, 38.532269], [140.166964, 38.53223], [140.167055, 38.532164], [140.167094, 38.532155], [140.16712, 38.532164], [140.167146, 38.532194], [140.167171, 38.532245], [140.167196, 38.532317], [140.167205, 38.532413], [140.167209, 38.532521], [140.167212, 38.532608], [140.167199, 38.532807], [140.167151, 38.533058], [140.16712, 38.533295], [140.167117, 38.533367], [140.167132, 38.533415], [140.167167, 38.533448], [140.16721, 38.533469], [140.167262, 38.533487], [140.167324, 38.533496], [140.167457, 38.533505], [140.167512, 38.533514], [140.167561, 38.533544], [140.167614, 38.533586], [140.16763, 38.533619], [140.167632, 38.533652], [140.16763, 38.533703], [140.167604, 38.53376], [140.167537, 38.53386], [140.167484, 38.533911], [140.167417, 38.53395], [140.167269, 38.534034], [140.167174, 38.534105], [140.167127, 38.534165], [140.167116, 38.534207], [140.167124, 38.534243], [140.167159, 38.534273], [140.167247, 38.534346], [140.167319, 38.534372], [140.167411, 38.53439], [140.167526, 38.534406], [140.167722, 38.534418], [140.167894, 38.534429], [140.167944, 38.53443], [140.167982, 38.534439], [140.168021, 38.534459], [140.168071, 38.534495], [140.16828, 38.534664], [140.168341, 38.534708], [140.16841, 38.534738], [140.16859, 38.534802], [140.168684, 38.534835], [140.168717, 38.534868], [140.168752, 38.534925], [140.168764, 38.534969], [140.168764, 38.535015], [140.16873, 38.53506], [140.168669, 38.535095], [140.168532, 38.535179], [140.168444, 38.535224], [140.168337, 38.535254], [140.168072, 38.535354], [140.167949, 38.535414], [140.167827, 38.535497], [140.167732, 38.535575], [140.16769, 38.535626], [140.167664, 38.535677], [140.167664, 38.535731], [140.167677, 38.535794], [140.167705, 38.535875], [140.167717, 38.535924], [140.167709, 38.535959], [140.167682, 38.535998], [140.167636, 38.536028], [140.167579, 38.53604], [140.167521, 38.536047], [140.167452, 38.53604], [140.167285, 38.536008], [140.167227, 38.53599], [140.167174, 38.535963], [140.167105, 38.535933], [140.167021, 38.535909], [140.166921, 38.535891], [140.166749, 38.535879], [140.166631, 38.535885], [140.166577, 38.535894], [140.166532, 38.535919], [140.166482, 38.535972], [140.166364, 38.536128], [140.166217, 38.536345], [140.166144, 38.536491], [140.166117, 38.536555], [140.166102, 38.536624], [140.16609, 38.536729], [140.166072, 38.536841], [140.166002, 38.537158], [140.165947, 38.537378], [140.165924, 38.537542], [140.165882, 38.537734], [140.165855, 38.537812], [140.165817, 38.537886], [140.165771, 38.537946], [140.165722, 38.538], [140.165667, 38.538048], [140.165584, 38.538114], [140.165462, 38.53819], [140.165325, 38.538301], [140.165275, 38.538355], [140.165255, 38.538376], [140.165204, 38.538457], [140.165109, 38.53864], [140.1651, 38.538679], [140.165104, 38.538715], [140.165135, 38.538742], [140.165172, 38.538766], [140.165249, 38.538794], [140.165301, 38.538802], [140.165381, 38.538806], [140.165442, 38.5388], [140.165504, 38.538776], [140.165562, 38.538766], [140.165977, 38.53877], [140.166494, 38.538793], [140.166769, 38.538812], [140.166891, 38.538824], [140.167122, 38.538869], [140.167299, 38.538893], [140.167631, 38.538944], [140.167822, 38.538983], [140.168038, 38.539034], [140.168138, 38.539046], [140.168283, 38.539054], [140.168393, 38.539066], [140.168481, 38.539082], [140.168683, 38.539145], [140.168809, 38.539177], [140.168928, 38.539207], [140.169031, 38.539222], [140.169206, 38.539246], [140.169271, 38.539258], [140.169462, 38.539321], [140.169533, 38.539342], [140.16959, 38.539346], [140.169656, 38.53934], [140.1699, 38.539292], [140.170149, 38.539211], [140.170247, 38.539157], [140.17045, 38.539039], [140.170488, 38.539007], [140.170514, 38.538968], [140.170534, 38.538917], [140.170546, 38.538863], [140.170553, 38.538794], [140.170538, 38.538458], [140.17053, 38.538259], [140.170541, 38.538209], [140.170556, 38.538155], [140.170575, 38.53811], [140.170594, 38.538077], [140.170621, 38.538048], [140.170667, 38.538014], [140.170751, 38.53796], [140.171079, 38.537805], [140.171167, 38.537766], [140.171251, 38.537718], [140.171315, 38.537676], [140.171407, 38.537609], [140.171579, 38.537459], [140.17164, 38.5374], [140.171689, 38.537328], [140.171732, 38.537249], [140.171821, 38.5371804], [140.171868, 38.5370965], [140.171899, 38.5370403], [140.1719619, 38.5369566], [140.1719949, 38.5368161], [140.172013, 38.5367513], [140.172032, 38.5366591], [140.172069, 38.5365895], [140.172135, 38.5365611], [140.172189, 38.5365789], [140.1722319, 38.5366093], [140.1722939, 38.5366677], [140.1723539, 38.5367601], [140.1723849, 38.5369264], [140.1724179, 38.5371136], [140.1723669, 38.5373362], [140.1723249, 38.5375087], [140.172283, 38.537681], [140.172294, 38.5377746], [140.172284, 38.5378801], [140.172361, 38.5380761], [140.172376, 38.538184], [140.172392, 38.5382691], [140.172421, 38.5383619], [140.172416, 38.538498], [140.172439, 38.53856], [140.172459, 38.538626], [140.172474, 38.538773], [140.172501, 38.538849], [140.172531, 38.538905], [140.172546, 38.538932], [140.172573, 38.538947], [140.172619, 38.538959], [140.172668, 38.538966], [140.172736, 38.53896], [140.17279, 38.538944], [140.172824, 38.538924], [140.172882, 38.538891], [140.173088, 38.538758], [140.17314, 38.538723], [140.173175, 38.538674], [140.173194, 38.538626], [140.173209, 38.53858], [140.173216, 38.538426], [140.173235, 38.538162], [140.173246, 38.538011], [140.173277, 38.537928], [140.173323, 38.537868], [140.173372, 38.537826], [140.173426, 38.537808], [140.173483, 38.537808], [140.173548, 38.537829], [140.173621, 38.537861], [140.173693, 38.537924], [140.173757, 38.537984], [140.173811, 38.53802], [140.173868, 38.538038], [140.173925, 38.53805], [140.173985, 38.538044], [140.174043, 38.538018], [140.174153, 38.53796], [140.174356, 38.537865], [140.174435, 38.537838], [140.174508, 38.53782], [140.174592, 38.537821], [140.174657, 38.537831], [140.17471, 38.537851], [140.174767, 38.537881], [140.174805, 38.53791], [140.174836, 38.537941], [140.174851, 38.537973], [140.174856, 38.538011], [140.174845, 38.53805], [140.174806, 38.538105], [140.174715, 38.538186], [140.174523, 38.538329], [140.174447, 38.538406], [140.174416, 38.538459], [140.174382, 38.538534], [140.174325, 38.538694], [140.174273, 38.538864], [140.174243, 38.538927], [140.174175, 38.53902], [140.174155, 38.53914], [140.174116, 38.5392195], [140.174052, 38.5392952], [140.17399, 38.5393753], [140.173948, 38.5394468], [140.173924, 38.5395389], [140.173944, 38.5395777], [140.173982, 38.5396074], [140.174015, 38.5396586], [140.174063, 38.5396936], [140.174141, 38.5397205], [140.174316, 38.539776], [140.17454, 38.539839], [140.174693, 38.539887], [140.174795, 38.539941], [140.174887, 38.539995], [140.174951, 38.540036], [140.175025, 38.540078], [140.175096, 38.540112], [140.175185, 38.540132], [140.175256, 38.540143], [140.175303, 38.5401555], [140.175346, 38.5401558], [140.175406, 38.5401597], [140.175494, 38.5401625], [140.175563, 38.5400949], [140.17559, 38.539994], [140.175606, 38.539894], [140.175696, 38.5396328], [140.175746, 38.5395338], [140.1758129, 38.5394801], [140.1758919, 38.5394376], [140.1760209, 38.5393988], [140.1762489, 38.5393195], [140.1763789, 38.5392694], [140.1764459, 38.5392143], [140.176489, 38.5391648], [140.176528, 38.5391309], [140.1765729, 38.5390823], [140.1766199, 38.539037], [140.176741, 38.5389939], [140.176823, 38.5389576], [140.177027, 38.538888], [140.177117, 38.538882], [140.177186, 38.538869], [140.17725, 38.538851], [140.177285, 38.538831], [140.177324, 38.538791], [140.177373, 38.538735], [140.177472, 38.538635], [140.177513, 38.538602], [140.177563, 38.538582], [140.17767, 38.538567], [140.177889, 38.538528], [140.178018, 38.538491], [140.178139, 38.538447], [140.178243, 38.538405], [140.178331, 38.538371], [140.178406, 38.53836], [140.178475, 38.538351], [140.178551, 38.538351], [140.178624, 38.538355], [140.178681, 38.538374], [140.178732, 38.538401], [140.178797, 38.538444], [140.178911, 38.538549], [140.178995, 38.538645], [140.179037, 38.538711], [140.179071, 38.538804], [140.17909, 38.538891], [140.17912, 38.53905], [140.179147, 38.539269], [140.179165, 38.539421], [140.17921, 38.539598], [140.179233, 38.539721], [140.179237, 38.539892], [140.179248, 38.540046], [140.179262, 38.540171], [140.179278, 38.540234], [140.1793, 38.540279], [140.179331, 38.540321], [140.179385, 38.540378], [140.179521, 38.540495], [140.179575, 38.540552], [140.179624, 38.540615], [140.179654, 38.540669], [140.179682, 38.540744], [140.179712, 38.540823], [140.179747, 38.540885], [140.179773, 38.540921], [140.179807, 38.540946], [140.179846, 38.540964], [140.179891, 38.540972], [140.179964, 38.540978], [140.180036, 38.540972], [140.18009, 38.540957], [140.180124, 38.540939], [140.180174, 38.540909], [140.180319, 38.540791], [140.180508, 38.540627], [140.180554, 38.540583], [140.180592, 38.540555], [140.180649, 38.540529], [140.180722, 38.540501], [140.180868, 38.540453], [140.180974, 38.540429], [140.181063, 38.540411], [140.181127, 38.540408], [140.181168, 38.540396], [140.181226, 38.540354], [140.181321, 38.540276], [140.181467, 38.540131], [140.181509, 38.540083], [140.181577, 38.539972], [140.181635, 38.539904], [140.181764, 38.539777], [140.181809, 38.539718], [140.181863, 38.539661], [140.181978, 38.539439], [140.181993, 38.539376], [140.181991, 38.539316], [140.181988, 38.539223], [140.181978, 38.538858], [140.181973, 38.538721], [140.1820341, 38.5385601], [140.1820696, 38.538403], [140.1821324, 38.5383026], [140.1822195, 38.5381406], [140.1823114, 38.538034], [140.182409, 38.5379748], [140.1825141, 38.5379644], [140.1825681, 38.5380212], [140.1825743, 38.5380877], [140.1825597, 38.5382197], [140.1825665, 38.5383422], [140.1825837, 38.5385401], [140.182616, 38.5386765], [140.1826811, 38.5388103], [140.1827434, 38.5389026], [140.1828864, 38.5390601], [140.1829635, 38.5391963], [140.1829948, 38.5393179], [140.1829777, 38.5394448], [140.1830196, 38.5395691], [140.1830571, 38.5397224], [140.1831094, 38.539906], [140.1830689, 38.5401065], [140.183039, 38.5402483], [140.1830517, 38.5403445], [140.1830226, 38.5404545], [140.1829738, 38.5405603], [140.1829121, 38.5406431], [140.1828149, 38.5407275], [140.1827543, 38.5407683], [140.182682, 38.540809], [140.182559, 38.540939], [140.1825665, 38.5410215], [140.1825917, 38.5411251], [140.1826619, 38.5412252], [140.1826912, 38.5414019], [140.1826466, 38.5415435], [140.1825635, 38.541649], [140.1825305, 38.541757], [140.1825059, 38.5418448], [140.182457, 38.5419504], [140.1824359, 38.5420303], [140.18238, 38.5421178], [140.1823422, 38.5422115], [140.182323, 38.542273], [140.182349, 38.542324], [140.182395, 38.5424], [140.182475, 38.542517], [140.182611, 38.5427], [140.18274, 38.542838], [140.182831, 38.542933], [140.182877, 38.542981], [140.182899, 38.543008], [140.182911, 38.543028], [140.182915, 38.543058], [140.182907, 38.543182], [140.182883, 38.543379], [140.182891, 38.543428], [140.182907, 38.543458], [140.182933, 38.543476], [140.182968, 38.543488], [140.183017, 38.543497], [140.18307, 38.543494], [140.1831798, 38.5434485], [140.1833161, 38.5433983], [140.1834659, 38.5433617], [140.1835768, 38.5433165], [140.183756, 38.5433246], [140.1838433, 38.5433685], [140.1839327, 38.5434711], [140.1838083, 38.5436014], [140.183688, 38.5437167], [140.183577, 38.5438196], [140.183486, 38.5439136], [140.1833784, 38.5439668], [140.183259, 38.543973], [140.1831386, 38.5439514], [140.1830509, 38.5439561], [140.1829519, 38.5439744], [140.1827817, 38.5440391], [140.1826872, 38.5440875], [140.182597, 38.544115], [140.182506, 38.544142], [140.182363, 38.544122], [140.1821999, 38.5440909], [140.1820867, 38.5440761], [140.1819961, 38.5440632], [140.1818846, 38.5440496], [140.1817298, 38.5440457], [140.1815327, 38.5440469], [140.1814218, 38.5440504], [140.1812584, 38.5440611], [140.1811266, 38.5440593], [140.1809656, 38.5440417], [140.1808238, 38.5440117], [140.1807398, 38.5439842], [140.1806645, 38.5439479], [140.1806038, 38.5438963], [140.1805613, 38.5438203], [140.1805179, 38.543747], [140.1804785, 38.5436708], [140.1804147, 38.5436031], [140.1803232, 38.5435625], [140.1802209, 38.5435398], [140.1801566, 38.5435555], [140.1801004, 38.5435631], [140.180035, 38.5435872], [140.179963, 38.5436059], [140.179898, 38.543629], [140.179844, 38.543653], [140.179806, 38.543683], [140.17978, 38.543713], [140.179753, 38.543755], [140.179737, 38.543797], [140.179727, 38.543881], [140.1798104, 38.5441828], [140.1798002, 38.5443068], [140.1797449, 38.5444052], [140.1796957, 38.5444745], [140.1795594, 38.5446232], [140.1795225, 38.5447116], [140.1795439, 38.5448287], [140.1796536, 38.5451817], [140.1796983, 38.5453105], [140.1796326, 38.5454709], [140.1795253, 38.5455862], [140.1794812, 38.5456787], [140.1793853, 38.5457961], [140.1792659, 38.545937], [140.1791113, 38.5460477], [140.179026, 38.5461194], [140.1789315, 38.5462006], [140.1788685, 38.546247], [140.1787614, 38.5463042], [140.178621, 38.5463938], [140.1785554, 38.546442], [140.1784798, 38.5464915], [140.1783842, 38.5465606], [140.178361, 38.546647], [140.178293, 38.546807], [140.178247, 38.546915], [140.178069, 38.547217], [140.178008, 38.54733], [140.177992, 38.547373], [140.177992, 38.547412], [140.177995, 38.547445], [140.178004, 38.547484], [140.17803, 38.547531], [140.178146, 38.547661], [140.178281, 38.547779], [140.178327, 38.547826], [140.178361, 38.547878], [140.178384, 38.547923], [140.178396, 38.547968], [140.178401, 38.548059], [140.178393, 38.548106], [140.178378, 38.548154], [140.17837, 38.548203], [140.178372, 38.548349], [140.178372, 38.548377], [140.1784, 38.54859], [140.178432, 38.548778], [140.178441, 38.548961], [140.178423, 38.549168], [140.178388, 38.549435], [140.178363, 38.549696], [140.178308, 38.549993], [140.178287, 38.550121], [140.178309, 38.550341], [140.178319, 38.550455], [140.178309, 38.550515], [140.17829, 38.55056], [140.178248, 38.550605], [140.178198, 38.55065], [140.177895, 38.550849], [140.177804, 38.550918], [140.177754, 38.550978], [140.177725, 38.551024], [140.177717, 38.551071], [140.177721, 38.551149], [140.177741, 38.551315], [140.177751, 38.551493], [140.17777, 38.551558], [140.177804, 38.551604], [140.177842, 38.551649], [140.17797, 38.551736], [140.178065, 38.551814], [140.178146, 38.551865], [140.178245, 38.551913], [140.178325, 38.551959], [140.178352, 38.551989], [140.178368, 38.552019], [140.178374, 38.552067], [140.178368, 38.552127], [140.178313, 38.552376], [140.178264, 38.552563], [140.178256, 38.55262], [140.178252, 38.552674], [140.178256, 38.552721], [140.178264, 38.552779], [140.178283, 38.552817], [140.178353, 38.552977], [140.178428, 38.553105], [140.178449, 38.553157], [140.178467, 38.553229], [140.178501, 38.553312], [140.178554, 38.553384], [140.178622, 38.55346], [140.178791, 38.553643], [140.179015, 38.553899], [140.179224, 38.554173], [140.179447, 38.554471], [140.179544, 38.554588], [140.179597, 38.554639], [140.179665, 38.554696], [140.179742, 38.554746], [140.179965, 38.554869], [140.180017, 38.554895], [140.180052, 38.554901], [140.180097, 38.554897], [140.180147, 38.554884], [140.180427, 38.554757], [140.180652, 38.554661], [140.180747, 38.554625], [140.180885, 38.554592], [140.18131, 38.554487], [140.181447, 38.554464], [140.181532, 38.554461], [140.181612, 38.554466], [140.181682, 38.554476], [140.181749, 38.554494], [140.181795, 38.554515], [140.181815, 38.554524], [140.181884, 38.55456], [140.181933, 38.554592], [140.182105, 38.554743], [140.18212, 38.554779], [140.182124, 38.554812], [140.182116, 38.55486], [140.182094, 38.554915], [140.182068, 38.554951], [140.182019, 38.554993], [140.181955, 38.55502], [140.181838, 38.555056], [140.181743, 38.555077], [140.181617, 38.555099], [140.181315, 38.555159], [140.181142, 38.555207], [140.181077, 38.555229], [140.181032, 38.555265], [140.181012, 38.555301], [140.18099, 38.555379], [140.1810144, 38.5554722], [140.181043, 38.5556584], [140.1810491, 38.5557549], [140.1810179, 38.5558482], [140.18098, 38.5559529], [140.1808605, 38.5560974], [140.1806551, 38.5562179], [140.1804426, 38.5562839], [140.180322, 38.5562905], [140.180235, 38.5562978], [140.180159, 38.556292], [140.180074, 38.556292], [140.179985, 38.556279], [140.179852, 38.556227], [140.179705, 38.556165], [140.17963, 38.556117], [140.179582, 38.556075], [140.17944, 38.555922], [140.179387, 38.555862], [140.179334, 38.555827], [140.17925, 38.555772], [140.179104, 38.555697], [140.178999, 38.555657], [140.17894, 38.555621], [140.178871, 38.555564], [140.178622, 38.555312], [140.17857, 38.555257], [140.178547, 38.555244], [140.178496, 38.555237], [140.178382, 38.555237], [140.178209, 38.555262], [140.178152, 38.555279], [140.178118, 38.555297], [140.178095, 38.555324], [140.178083, 38.555357], [140.17808, 38.555387], [140.178083, 38.555427], [140.178194, 38.555612], [140.178366, 38.555889], [140.17839, 38.555952], [140.178393, 38.555982], [140.17839, 38.556015], [140.178355, 38.556051], [140.178328, 38.556087], [140.178313, 38.556122], [140.178309, 38.556162], [140.178321, 38.556196], [140.178348, 38.556232], [140.178415, 38.556292], [140.178523, 38.556369], [140.178626, 38.556417], [140.178704, 38.556466], [140.178742, 38.556499], [140.178775, 38.55655], [140.178802, 38.556607], [140.17881, 38.556671], [140.17881, 38.556851], [140.178787, 38.556953], [140.178757, 38.557034], [140.178704, 38.557169], [140.178604, 38.557341], [140.178527, 38.557476], [140.178512, 38.557518], [140.178501, 38.557584], [140.178516, 38.557786], [140.178535, 38.55784], [140.17858, 38.557908], [140.178647, 38.558008], [140.178677, 38.558071], [140.178697, 38.558137], [140.178712, 38.5582], [140.178704, 38.55837], [140.1787247, 38.5584819], [140.1787431, 38.558579], [140.1787379, 38.5586864], [140.1787296, 38.558812], [140.1787002, 38.5589421], [140.1785835, 38.5590828], [140.1785324, 38.5591889], [140.1784201, 38.5594546], [140.1783532, 38.5595854], [140.1783023, 38.5596095], [140.1779722, 38.559766], [140.177903, 38.5598182], [140.1778269, 38.5598923], [140.1777195, 38.5599978], [140.1776523, 38.5600758], [140.1776097, 38.5601361], [140.1775967, 38.5602001], [140.1775969, 38.5602633], [140.1775989, 38.5603299], [140.1776022, 38.5603979], [140.1776281, 38.5604709], [140.1776652, 38.5605444], [140.1777494, 38.5607156], [140.1777957, 38.560841], [140.1778377, 38.560926], [140.1778674, 38.5609739], [140.1779064, 38.5610352], [140.1779418, 38.5610828], [140.1779826, 38.561137], [140.1780181, 38.561178], [140.1780582, 38.5612321], [140.1781383, 38.5613035], [140.178225, 38.561354], [140.17831, 38.561378], [140.17839, 38.561406], [140.17845, 38.561432], [140.17849, 38.561464], [140.178524, 38.561502], [140.178547, 38.56155], [140.1786105, 38.561588], [140.1786226, 38.5616818], [140.178672, 38.5619318], [140.1787519, 38.5622884], [140.1787279, 38.5625236], [140.1786875, 38.562784], [140.1786531, 38.5629656], [140.1787116, 38.5630698], [140.1787751, 38.5631973], [140.1787469, 38.5633842], [140.1787098, 38.5635169], [140.1786828, 38.5636528], [140.1786666, 38.5637487], [140.1786745, 38.563858], [140.1786875, 38.5639545], [140.1786864, 38.5640298], [140.1786723, 38.5641601], [140.1786605, 38.5642509], [140.1786253, 38.5643491], [140.1785729, 38.5644658], [140.178504, 38.564694], [140.178495, 38.564765], [140.17848, 38.56483], [140.178458, 38.564883], [140.17842, 38.564948], [140.17837, 38.565021], [140.17831, 38.565099], [140.178199, 38.565261], [140.178153, 38.56537], [140.178122, 38.565463], [140.178095, 38.565562], [140.178093, 38.565635], [140.1781, 38.565743], [140.178123, 38.565853], [140.178154, 38.565971], [140.17825, 38.566312], [140.178288, 38.566429], [140.178299, 38.566512], [140.178296, 38.566603], [140.178266, 38.566794], [140.178228, 38.566919], [140.178193, 38.567039], [140.178137, 38.567326], [140.178057, 38.567714], [140.1780285, 38.5679288], [140.177953, 38.568066], [140.177926, 38.568134], [140.177919, 38.5682], [140.177908, 38.56851], [140.177903, 38.568571], [140.177885, 38.568616], [140.177858, 38.568664], [140.177804, 38.568736], [140.177633, 38.56891], [140.177563, 38.568988], [140.177514, 38.569046], [140.177479, 38.569109], [140.177403, 38.569307], [140.177316, 38.569583], [140.177247, 38.569761], [140.177182, 38.569896], [140.177057, 38.570168], [140.176999, 38.570321], [140.176911, 38.570589], [140.176835, 38.570757], [140.17675, 38.570918], [140.176636, 38.571105], [140.176423, 38.571447], [140.17634, 38.57162], [140.176271, 38.57177], [140.176234, 38.571863], [140.176287, 38.57207], [140.17643, 38.572474], [140.176498, 38.572641], [140.176576, 38.5727692], [140.176621, 38.572816], [140.176684, 38.572837], [140.176782, 38.57286], [140.177104, 38.572906], [140.177279, 38.572942], [140.177363, 38.572972], [140.177428, 38.573002], [140.177482, 38.573032], [140.177524, 38.573069], [140.177573, 38.573129], [140.177783, 38.573412], [140.177981, 38.573692], [140.178294, 38.574114], [140.178503, 38.57439], [140.178566, 38.574487], [140.178607, 38.574544], [140.178642, 38.574577], [140.178691, 38.574607], [140.178772, 38.57463], [140.179371, 38.574754], [140.179455, 38.574784], [140.17952, 38.57481], [140.179581, 38.574845], [140.179653, 38.574897], [140.179924, 38.575133], [140.180125, 38.575335], [140.180155, 38.575379], [140.180175, 38.575415], [140.18019, 38.575469], [140.180209, 38.575647], [140.180217, 38.575691], [140.180235, 38.57573], [140.180258, 38.575769], [140.180297, 38.575799], [140.180598, 38.576036], [140.181202, 38.576505], [140.181936, 38.577064], [140.182616, 38.577579], [140.182921, 38.577808], [140.182959, 38.577844], [140.182979, 38.577865], [140.182989, 38.577886], [140.182998, 38.577913], [140.182998, 38.577944], [140.182994, 38.57798], [140.182918, 38.578193], [140.182815, 38.578412], [140.182777, 38.578478], [140.182732, 38.578534], [140.182671, 38.578592], [140.18251, 38.578743], [140.182479, 38.578775], [140.182472, 38.578799], [140.182472, 38.578819], [140.182483, 38.578847], [140.182506, 38.578868], [140.182541, 38.578886], [140.182579, 38.578901], [140.182621, 38.578913], [140.182682, 38.578921], [140.182762, 38.578925], [140.182795, 38.578925], [140.182987, 38.578925], [140.183067, 38.578929], [140.183147, 38.578944], [140.183274, 38.578974], [140.183461, 38.579], [140.183598, 38.579006], [140.183728, 38.579002], [140.183892, 38.578972], [140.184003, 38.578961], [140.184087, 38.578958], [140.184152, 38.578958], [140.184209, 38.578961], [140.184286, 38.578978], [140.18434, 38.578996], [140.184428, 38.579028], [140.184462, 38.57906], [140.184473, 38.579102], [140.184477, 38.579135], [140.184466, 38.579165], [140.184428, 38.579201], [140.184378, 38.579228], [140.184294, 38.579261], [140.184144, 38.579294], [140.183946, 38.579322], [140.183706, 38.57935], [140.183481, 38.579361], [140.183183, 38.579383], [140.183133, 38.57939], [140.183088, 38.579413], [140.183038, 38.579455], [140.182999, 38.579501], [140.182979, 38.579537], [140.18295, 38.579753], [140.182944, 38.57994], [140.182956, 38.580029], [140.182976, 38.580099], [140.182996, 38.580141], [140.183029, 38.580185], [140.183255, 38.580383], [140.183354, 38.580497], [140.183369, 38.58053], [140.183372, 38.580563], [140.183369, 38.580593], [140.183351, 38.580626], [140.183316, 38.580653], [140.183179, 38.580762], [140.183156, 38.580789], [140.183145, 38.580821], [140.183148, 38.580857], [140.183159, 38.5809], [140.183171, 38.580927], [140.183197, 38.580954], [140.183235, 38.580988], [140.183281, 38.581018], [140.183533, 38.581123], [140.183584, 38.581153], [140.183606, 38.581176], [140.183617, 38.581206], [140.183614, 38.581246], [140.183599, 38.581284], [140.183542, 38.581354], [140.1834, 38.58154], [140.183378, 38.581585], [140.183378, 38.581621], [140.183384, 38.581657], [140.183403, 38.581706], [140.183557, 38.581934], [140.18361, 38.582048], [140.183633, 38.582119], [140.183644, 38.582179], [140.183644, 38.582248], [140.183629, 38.582344], [140.183594, 38.582573], [140.183584, 38.582728], [140.183571, 38.582936], [140.18356, 38.582988], [140.183541, 38.583036], [140.183508, 38.583096], [140.18345, 38.583164], [140.183378, 38.583236], [140.183316, 38.583286], [140.183262, 38.58332], [140.183163, 38.583363], [140.183079, 38.583396], [140.182987, 38.583417], [140.182873, 38.583438], [140.182274, 38.583501], [140.182113, 38.583523], [140.182036, 38.583543], [140.181987, 38.583565], [140.181932, 38.583601], [140.181891, 38.583639], [140.181859, 38.583683], [140.181837, 38.583729], [140.181833, 38.58377], [140.181833, 38.583821], [140.181844, 38.583854], [140.181874, 38.583899], [140.18192, 38.583941], [140.182115, 38.584094], [140.182173, 38.584152], [140.182206, 38.584196], [140.182222, 38.584244], [140.182222, 38.584304], [140.182207, 38.584503], [140.182165, 38.584722], [140.182143, 38.584928], [140.182126, 38.585161], [140.182104, 38.585269], [140.182077, 38.585365], [140.182052, 38.585433], [140.182047, 38.585446], [140.182004, 38.585509], [140.18192, 38.585606], [140.181775, 38.58578], [140.181698, 38.585894], [140.181634, 38.585999], [140.181561, 38.586153], [140.181511, 38.586248], [140.181309, 38.586551], [140.181046, 38.586885], [140.181033, 38.58696], [140.181056, 38.587024], [140.181153, 38.587097], [140.181359, 38.587287], [140.181383, 38.587413], [140.181372, 38.587464], [140.181344, 38.587504], [140.181188, 38.587584], [140.181044, 38.587675], [140.180892, 38.587927], [140.180644, 38.588406], [140.180536, 38.588638], [140.180463, 38.588801], [140.180321, 38.589191], [140.180296, 38.589303], [140.180326, 38.589343], [140.180412, 38.589378], [140.180505, 38.589376], [140.180603, 38.589317], [140.180905, 38.589029], [140.181326, 38.588835], [140.181676, 38.588645], [140.182017, 38.588415], [140.182162, 38.588373], [140.18235, 38.588353], [140.182453, 38.588393], [140.182549, 38.588471], [140.182688, 38.588935], [140.182224, 38.589105], [140.182126, 38.589163], [140.182022, 38.589252], [140.181949, 38.589325], [140.181666, 38.589553], [140.181436, 38.589702], [140.181365, 38.589773], [140.180973, 38.590423], [140.180842, 38.5906], [140.18064, 38.590742], [140.180479, 38.590795], [140.180371, 38.59083], [140.179732, 38.591035], [140.179584, 38.591152], [140.179554, 38.591208], [140.179549, 38.591275], [140.1796, 38.591584], [140.179727, 38.592194], [140.17981, 38.592582], [140.179877, 38.592906], [140.180021, 38.593141], [140.180146, 38.593305], [140.180272, 38.593403], [140.180504, 38.593502], [140.181044, 38.593634], [140.181124, 38.59367], [140.181158, 38.593708], [140.181163, 38.593762], [140.18115, 38.593829], [140.181112, 38.593863], [140.181022, 38.593896], [140.180916, 38.593894], [140.180254, 38.593776], [140.180079, 38.593761], [140.17951, 38.593813], [140.179389, 38.593899], [140.179331, 38.594007], [140.179299, 38.594141], [140.179289, 38.594444], [140.179268, 38.594504], [140.178837, 38.595231], [140.178705, 38.59577], [140.178592, 38.596852], [140.178618, 38.596961], [140.178666, 38.597003], [140.178752, 38.597013], [140.178851, 38.596988], [140.178957, 38.596931], [140.178994, 38.596911], [140.179076, 38.596913], [140.179115, 38.59698], [140.179112, 38.59707], [140.17885, 38.597447], [140.178823, 38.597508], [140.17884, 38.597661], [140.17893, 38.597878], [140.17903, 38.598019], [140.179156, 38.598133], [140.179305, 38.598199], [140.179473, 38.598239], [140.179853, 38.598247], [140.179895, 38.59828], [140.17997, 38.598395], [140.17998, 38.59844], [140.179902, 38.598512], [140.179863, 38.598581], [140.179818, 38.598799], [140.179783, 38.598874], [140.179697, 38.598926], [140.17959, 38.598952], [140.17952, 38.598937], [140.179313, 38.598835], [140.178271, 38.598345], [140.17801, 38.59833], [140.177746, 38.598459], [140.177167, 38.59865], [140.176119, 38.599341], [140.175876, 38.599517], [140.1756633, 38.5998181], [140.1755542, 38.5999201], [140.1755031, 38.5999692], [140.1753471, 38.599993], [140.1751057, 38.5999704], [140.1749538, 38.5999851], [140.1748153, 38.6000406], [140.1746939, 38.6001337], [140.1745643, 38.6002535], [140.1745004, 38.6003424], [140.174525, 38.6006482], [140.1745958, 38.6010934], [140.1745977, 38.6012008], [140.1745679, 38.6012662], [140.174455, 38.601365], [140.1743258, 38.6014598], [140.1743207, 38.6015623], [140.1744053, 38.6017494], [140.174447, 38.6018921], [140.1744448, 38.6019916], [140.1744359, 38.6020901], [140.1743944, 38.6021631], [140.1742161, 38.6022388], [140.1741762, 38.60233], [140.1742305, 38.6024319], [140.1742219, 38.6026018], [140.1741939, 38.6027238], [140.1742141, 38.6028272], [140.1742376, 38.6029051], [140.1741978, 38.602979], [140.1741341, 38.6030331], [140.1740445, 38.6030786], [140.1739527, 38.6030974], [140.1736297, 38.6030778], [140.173502, 38.6030811], [140.1733902, 38.6031399], [140.1732606, 38.6032682], [140.1728549, 38.6033465], [140.1727503, 38.6034281], [140.1727048, 38.6034959], [140.1727715, 38.603576], [140.1730771, 38.604111], [140.1731445, 38.6042737], [140.173171, 38.6043455], [140.1731617, 38.6044133], [140.1731046, 38.6044868], [140.1730296, 38.6045535], [140.1729526, 38.6045665], [140.1727874, 38.604549], [140.1726646, 38.6044573], [140.1725556, 38.6043766], [140.1723186, 38.6043427], [140.1721906, 38.6043721], [140.172108, 38.6044558], [140.1720457, 38.6045596], [140.1719868, 38.6047494], [140.1719265, 38.6051348], [140.1719104, 38.6052445], [140.1720183, 38.6056718], [140.1720173, 38.6059159], [140.1719358, 38.6061315], [140.1717436, 38.6062916], [140.1715153, 38.606355], [140.1712363, 38.6063596], [140.171172, 38.606785], [140.1710423, 38.607286], [140.1710082, 38.6074609], [140.1710131, 38.6079085], [140.1710284, 38.6080756], [140.1710997, 38.6082551], [140.1711884, 38.6084549], [140.1712797, 38.6086076], [140.171418, 38.6087837], [140.172988, 38.609898], [140.175381, 38.611452], [140.175996, 38.611766], [140.176439, 38.611898], [140.1769896, 38.6120811], [140.1780585, 38.6122236], [140.1786184, 38.6123786], [140.1791718, 38.612541], [140.180403, 38.613011], [140.180647, 38.613082], [140.180843, 38.613096], [140.181005, 38.613078], [140.181123, 38.613044], [140.1812, 38.612997], [140.181302, 38.612897], [140.181478, 38.612303], [140.181592, 38.612159], [140.182409, 38.611481], [140.182456, 38.611396], [140.182462, 38.611325], [140.182435, 38.61127], [140.182108, 38.610918], [140.182093, 38.610817], [140.18212, 38.610714], [140.182163, 38.610639], [140.182245, 38.610601], [140.182363, 38.610601], [140.182487, 38.610682], [140.183447, 38.611368], [140.183615, 38.611472], [140.18377, 38.611545], [140.183991, 38.611579], [140.184227, 38.611578], [140.184412, 38.611522], [140.18454, 38.61142], [140.184827, 38.611057], [140.1856125, 38.6101694], [140.1857065, 38.610042], [140.185894, 38.609911], [140.1862286, 38.6098972], [140.1865902, 38.6099703], [140.1867549, 38.6101126], [140.1875568, 38.610897], [140.1881295, 38.6114547], [140.1901329, 38.613323], [140.1913028, 38.6144455], [140.1915308, 38.6145847], [140.19179, 38.6147573], [140.1918831, 38.6148674], [140.1919506, 38.6150058], [140.1919676, 38.6151368], [140.1920651, 38.617272], [140.1921103, 38.6178635], [140.1921337, 38.6179856], [140.1922406, 38.6183876], [140.1923333, 38.6185569], [140.1924635, 38.6187877], [140.1926047, 38.6190177], [140.193088, 38.6194295], [140.1941185, 38.6202016], [140.195099, 38.620834], [140.1957403, 38.6212188], [140.1961788, 38.6213576], [140.1970991, 38.6215496], [140.1987065, 38.6221273], [140.199479, 38.6227317], [140.2000105, 38.6230721], [140.2008946, 38.6237634], [140.2011781, 38.6239185], [140.202199, 38.6241785], [140.2028428, 38.6244048], [140.2032138, 38.6247323], [140.2034168, 38.6251012], [140.203485, 38.6254931], [140.203509, 38.6260122], [140.203519, 38.6262643], [140.20356, 38.6263599], [140.2036799, 38.6264838], [140.2040992, 38.6270779], [140.204181, 38.6273474], [140.2042293, 38.6275772], [140.2042312, 38.6279676], [140.2042935, 38.6282387], [140.2043826, 38.6287459], [140.2046657, 38.6298241], [140.2046711, 38.6300516], [140.2045049, 38.6305563], [140.2041118, 38.6311415], [140.2034526, 38.6316799], [140.2030951, 38.6321362], [140.2029739, 38.6332349], [140.2029577, 38.6337277], [140.2031818, 38.6347711], [140.2033487, 38.6359051], [140.2032445, 38.6363042], [140.20218, 38.638888], [140.2020027, 38.639517], [140.2020316, 38.6402828], [140.2020719, 38.641415], [140.2020737, 38.6417695], [140.2020858, 38.6420069], [140.2021305, 38.6421773], [140.202199, 38.6423255], [140.202304, 38.6424457], [140.2024504, 38.6425534], [140.2026042, 38.6425749], [140.2028106, 38.6425523], [140.2034096, 38.6423504], [140.2037586, 38.6422885], [140.2041941, 38.6423119], [140.2045806, 38.642473], [140.2049896, 38.6426488], [140.2052859, 38.6428721], [140.2054392, 38.6430866], [140.2055174, 38.6433111], [140.2056221, 38.6437362], [140.2058196, 38.644039], [140.2058712, 38.6440842], [140.2060219, 38.6441186], [140.2061895, 38.6440792], [140.206459, 38.6439732], [140.2067059, 38.6438868], [140.2068787, 38.6438832], [140.2070344, 38.6439441], [140.2071409, 38.6440412], [140.2072221, 38.6443398], [140.2073652, 38.6449757], [140.2074781, 38.6452171], [140.2075655, 38.6453604], [140.207792, 38.645453], [140.2083672, 38.6455395], [140.2088192, 38.6455986], [140.2090955, 38.6457426], [140.2098316, 38.6462742], [140.2099846, 38.6464536], [140.2102151, 38.6469914], [140.2102017, 38.647204], [140.2100242, 38.6475094], [140.2097564, 38.6479091], [140.2097035, 38.6480758], [140.209677, 38.6485023], [140.2096821, 38.6487368], [140.2097267, 38.6489344], [140.2099249, 38.649285], [140.2102323, 38.649695], [140.2103573, 38.6498986], [140.2106459, 38.650365], [140.2108614, 38.6505868], [140.2110141, 38.6507151], [140.2112985, 38.6508194], [140.2115377, 38.6508874], [140.2116796, 38.6509458], [140.2117565, 38.6510298], [140.2117855, 38.6511117], [140.2117615, 38.6513079], [140.2116626, 38.6516544], [140.2116899, 38.6517344], [140.2117511, 38.651871], [140.2118371, 38.6519529], [140.2119839, 38.6520392], [140.2121761, 38.6521587], [140.2124491, 38.6523756], [140.2127794, 38.6528189], [140.2128974, 38.653162], [140.2129278, 38.6533035], [140.2129092, 38.6534453], [140.2127703, 38.6535771], [140.2125517, 38.6537474], [140.2115499, 38.6544653], [140.2114553, 38.6545686], [140.2114003, 38.6546837], [140.2114033, 38.6547863], [140.2114418, 38.6548776], [140.2116155, 38.6551083], [140.2123492, 38.6559849], [140.2124289, 38.6561628], [140.2124455, 38.6562724], [140.2124453, 38.6563795], [140.212387, 38.6565096], [140.2120167, 38.6569631], [140.2119155, 38.6571805], [140.2119375, 38.6579111], [140.2118553, 38.6582118], [140.2113676, 38.659303], [140.2111061, 38.6595711], [140.2107915, 38.6599248], [140.2106811, 38.6601417], [140.2106173, 38.6605435], [140.2105793, 38.6614523], [140.210618, 38.6617327], [140.2106876, 38.6619562], [140.2107406, 38.6622245], [140.2107408, 38.6628877], [140.2107212, 38.6631056], [140.2106439, 38.663815], [140.2105684, 38.6640862], [140.2104611, 38.6643063], [140.2102422, 38.664572], [140.2100131, 38.6648548], [140.2099627, 38.6649743], [140.2099447, 38.6651208], [140.2100017, 38.6652911], [140.2100682, 38.6655898], [140.2100772, 38.6659337], [140.2100013, 38.6662706], [140.2098377, 38.6667145], [140.2096429, 38.6673028], [140.2095924, 38.6674254], [140.2095621, 38.6676805], [140.2095565, 38.6680094], [140.2096883, 38.6682763], [140.2097957, 38.6684678], [140.2099456, 38.6687724], [140.2102098, 38.6692454], [140.2103809, 38.6695409], [140.2104023, 38.6695778], [140.2106558, 38.6701785], [140.2108616, 38.6703744], [140.211221, 38.6707612], [140.211631, 38.6710487], [140.2120705, 38.6712405], [140.2128432, 38.6714251], [140.2130749, 38.6715124], [140.2141158, 38.6720193], [140.2145086, 38.672163], [140.215086, 38.672587], [140.2156669, 38.6729655], [140.2160928, 38.6732587], [140.2163878, 38.6735233], [140.2165967, 38.6737166], [140.2168027, 38.6740946], [140.217004, 38.6744869], [140.2175259, 38.6755551], [140.2176394, 38.6757591], [140.2177958, 38.6760529], [140.2186791, 38.676951], [140.219231, 38.677512], [140.219803, 38.6779631], [140.220616, 38.6787359], [140.2210049, 38.6791324], [140.2218215, 38.6797415], [140.2219874, 38.6798703], [140.2222885, 38.6801605], [140.2224325, 38.6804007], [140.2226016, 38.6806812], [140.2227826, 38.6809677], [140.2229325, 38.681376], [140.223178, 38.6823083], [140.2232893, 38.6826752], [140.2234061, 38.6828537], [140.223673, 38.6831829], [140.22369, 38.6832038], [140.2239362, 38.6835055], [140.2241184, 38.6837347], [140.2242275, 38.6838631], [140.224751, 38.6845028], [140.2255517, 38.6854804], [140.2263343, 38.6864229], [140.2269645, 38.6871945], [140.2271263, 38.6873944], [140.2276567, 38.6880197], [140.2281813, 38.6886712], [140.2283427, 38.6889408], [140.2284644, 38.6891481], [140.2285652, 38.6894302], [140.2287717, 38.6901142], [140.2288707, 38.690382], [140.2289889, 38.6906316], [140.2291246, 38.6908609], [140.2292938, 38.6911188], [140.22948, 38.6913485], [140.229657, 38.691536], [140.2298562, 38.6917236], [140.2300534, 38.6918781], [140.2302681, 38.6920429], [140.2307229, 38.6923619], [140.2309057, 38.6925065], [140.2311643, 38.6927274], [140.2313343, 38.6929045], [140.2314789, 38.6930655], [140.2316281, 38.6932626], [140.2318133, 38.693528], [140.2331042, 38.6957818], [140.2332608, 38.6960871], [140.2334628, 38.6965237], [140.2336, 38.6968835], [140.2337119, 38.6972271], [140.2338157, 38.6976438], [140.233876, 38.697989], [140.2339295, 38.698352], [140.2339427, 38.6985983], [140.2339652, 38.6992708], [140.233953, 38.6994444], [140.2338811, 38.7003111], [140.2338681, 38.7004676], [140.23364, 38.7025502], [140.2336378, 38.7026503], [140.2335555, 38.7032134], [140.2334663, 38.7035669], [140.2333693, 38.7037517], [140.2332338, 38.7039551], [140.2330817, 38.7041671], [140.2329057, 38.7043971], [140.2326002, 38.7047484], [140.2320652, 38.7053993], [140.2295681, 38.7084944], [140.2291836, 38.7090364], [140.2289451, 38.7094311], [140.2288875, 38.7095559], [140.2288796, 38.709573], [140.2287793, 38.7097904], [140.2286763, 38.7101392], [140.2286275, 38.7104459], [140.2286334, 38.7109956], [140.2288116, 38.7121296], [140.2289764, 38.7127297], [140.2290247, 38.7128935], [140.2290756, 38.7131752], [140.2291735, 38.7134667], [140.2294856, 38.7142681], [140.229542, 38.7144751], [140.2295677, 38.7147926], [140.2295033, 38.71644], [140.2294447, 38.716862], [140.2292856, 38.7178032], [140.2291415, 38.718799], [140.2290887, 38.7193056], [140.2290784, 38.7194043], [140.2290421, 38.7196718], [140.2289285, 38.7198707], [140.228663, 38.7202729], [140.2284722, 38.7207173], [140.2284611, 38.720965], [140.2285024, 38.721173], [140.2285517, 38.721417], [140.2285123, 38.7216852], [140.2283781, 38.7221506], [140.2282315, 38.7225873], [140.2281785, 38.7226997], [140.228031, 38.722866], [140.227629, 38.723235], [140.227522, 38.723334], [140.227291, 38.723457], [140.22709, 38.723531], [140.226228, 38.723795], [140.226135, 38.723852], [140.2252982, 38.7245509], [140.2251975, 38.7246718], [140.2251788, 38.7248335], [140.2252518, 38.7249983], [140.225467, 38.725185], [140.2257392, 38.7253572], [140.2260362, 38.7255122], [140.2262502, 38.7257222], [140.2263497, 38.7259227], [140.2264515, 38.7261036], [140.2267141, 38.7264534], [140.2268783, 38.726667], [140.2269495, 38.7268202], [140.2270647, 38.7269209], [140.2273189, 38.7271054], [140.2273412, 38.7271196], [140.2275337, 38.7272431], [140.2281276, 38.7276239], [140.2283554, 38.7277701], [140.228406, 38.7278026], [140.2285454, 38.7280039], [140.2289857, 38.7294847], [140.2291105, 38.7298031], [140.2292329, 38.7300552], [140.2292437, 38.7301573], [140.2292057, 38.7302781], [140.2291249, 38.7304017], [140.2293008, 38.7304814], [140.2294642, 38.7305978], [140.2296216, 38.7307425], [140.2298158, 38.7309586], [140.2301833, 38.7313567], [140.2304164, 38.7316175], [140.230856, 38.732129], [140.2310341, 38.7323329], [140.2321459, 38.7335307], [140.2326071, 38.734035], [140.2334279, 38.7349576], [140.2336809, 38.7352809], [140.2339317, 38.7357034], [140.2341455, 38.7361643], [140.2342679, 38.7365044], [140.2343898, 38.7369619], [140.2348801, 38.7387343], [140.2349826, 38.7390222], [140.2351309, 38.7393094], [140.2352671, 38.7395286], [140.2354418, 38.7397236], [140.2356068, 38.7398866], [140.2359288, 38.7401288], [140.236257, 38.7402978], [140.2365227, 38.7403967], [140.2367708, 38.7404597], [140.237012, 38.7404922], [140.237368, 38.7405167], [140.2377097, 38.740519], [140.238412, 38.740505], [140.239216, 38.740455], [140.239395, 38.740426], [140.23992, 38.740241], [140.240097, 38.740175], [140.240811, 38.739909], [140.2410894, 38.7398196], [140.241355, 38.7397503], [140.2415964, 38.7396971], [140.2417641, 38.7396637], [140.2419287, 38.7396389], [140.2420387, 38.7407556], [140.2420559, 38.7412495], [140.2420437, 38.7416768], [140.2420007, 38.74206], [140.2419741, 38.7424509], [140.2418948, 38.7428187], [140.2417628, 38.7431407], [140.2416358, 38.7435601], [140.2415736, 38.7437791], [140.2415502, 38.7443169], [140.2415359, 38.7444423], [140.2414721, 38.7450023], [140.2414657, 38.7451545], [140.2414576, 38.7453475], [140.2413652, 38.7463282], [140.2414489, 38.7472569], [140.2414739, 38.7479565], [140.2414755, 38.7480019], [140.2414912, 38.7487988], [140.2414615, 38.749195], [140.2414177, 38.7493568], [140.2413126, 38.749612], [140.2409294, 38.750342], [140.2408001, 38.750682], [140.2406783, 38.7512366], [140.2405426, 38.7523064], [140.2405246, 38.7524207], [140.2404924, 38.7526324], [140.2401755, 38.7539488], [140.2401072, 38.7541601], [140.2400274, 38.754386], [140.2399387, 38.7545776], [140.239576, 38.755066], [140.239383, 38.755442], [140.238388, 38.757042], [140.2379631, 38.7577411], [140.23702, 38.759328], [140.236371, 38.760416], [140.23564, 38.76152], [140.2346665, 38.7630573], [140.2337276, 38.7645394], [140.2337031, 38.7645903], [140.2327927, 38.7661029], [140.2324908, 38.7665797], [140.2322644, 38.7669105], [140.2321503, 38.7670371], [140.2318983, 38.767325], [140.2308402, 38.7684087], [140.2307254, 38.7685478], [140.2306807, 38.7686212], [140.2305149, 38.7688646], [140.2303054, 38.7691758], [140.2301119, 38.7692352], [140.23003, 38.769353], [140.22984, 38.769546], [140.229728, 38.769637], [140.22957, 38.769766], [140.228446, 38.770511], [140.228088, 38.770737], [140.227875, 38.770849], [140.227725, 38.770907], [140.227519, 38.770986], [140.227151, 38.771089], [140.226248, 38.771306], [140.225874, 38.771379], [140.225411, 38.771463], [140.225188, 38.771524], [140.224984, 38.771618], [140.224806, 38.771741], [140.224662, 38.771888], [140.224556, 38.772054], [140.224206, 38.772748], [140.22415, 38.772827], [140.224089, 38.772885], [140.224008, 38.772912], [140.223923, 38.772914], [140.223857, 38.772895], [140.223789, 38.772853], [140.223749, 38.772805], [140.223683, 38.77266], [140.223616, 38.772466], [140.223413, 38.771937], [140.223345, 38.771826], [140.223249, 38.771782], [140.223136, 38.771778], [140.22304, 38.771818], [140.223001, 38.771871], [140.222995, 38.771959], [140.223029, 38.772051], [140.223097, 38.772162], [140.223221, 38.772338], [140.223266, 38.772422], [140.223283, 38.772501], [140.223283, 38.772616], [140.223232, 38.773742], [140.223254, 38.773901], [140.223271, 38.77395], [140.223384, 38.774188], [140.223508, 38.774377], [140.223962, 38.774953], [140.22412, 38.775191], [140.224244, 38.775421], [140.224368, 38.775686], [140.22491, 38.776762], [140.225086, 38.777112], [140.226221, 38.779369], [140.226647, 38.780296], [140.226875, 38.780781], [140.226914, 38.780909], [140.226942, 38.781063], [140.22694, 38.781176], [140.226914, 38.781342], [140.2268985, 38.7813792], [140.226557, 38.782201], [140.2265491, 38.782292], [140.2265013, 38.7823635], [140.2260569, 38.7825731], [140.2254079, 38.7828111], [140.2249619, 38.7829831], [140.2248349, 38.7830381], [140.2246829, 38.7831311], [140.2243099, 38.7833651], [140.223649, 38.783673], [140.2224288, 38.7842685], [140.2221431, 38.7844485], [140.221852, 38.7846369], [140.2216297, 38.7848056], [140.2214108, 38.7849743], [140.2212559, 38.7851531], [140.2210615, 38.7853919], [140.2209136, 38.78559], [140.2207045, 38.7859952], [140.2206116, 38.7862558], [140.2205207, 38.7865885], [140.2203913, 38.7871093], [140.2203573, 38.7873804], [140.2203287, 38.7875595], [140.2202919, 38.7877433], [140.220177, 38.7879909], [140.2199152, 38.7883141], [140.2198452, 38.7884319], [140.2197948, 38.788566], [140.2198138, 38.7890203], [140.2198962, 38.7896326], [140.2200504, 38.7908142], [140.2201559, 38.7913905], [140.2201939, 38.7915683], [140.2202763, 38.7920424], [140.2202637, 38.7922236], [140.2202053, 38.792464], [140.2201306, 38.7926843], [140.2201116, 38.7928818], [140.2200925, 38.79342], [140.2200494, 38.7936452], [140.2199785, 38.7938842], [140.2199912, 38.7940422], [140.2200672, 38.7944372], [140.2201179, 38.794773], [140.2201521, 38.7950502], [140.2202763, 38.7953211], [140.2203633, 38.7952558], [140.2204586, 38.7951839], [140.220634, 38.7950664], [140.2209348, 38.7949333], [140.2214183, 38.7947694], [140.2218648, 38.7945814], [140.2221087, 38.7944374], [140.2224411, 38.7942421], [140.2226647, 38.7940767], [140.2229815, 38.7938694], [140.2231398, 38.793741], [140.2234186, 38.793578], [140.2250209, 38.7924356], [140.2254718, 38.7920747], [140.2264268, 38.7913598], [140.2284931, 38.7897768], [140.2289854, 38.7893913], [140.2297641, 38.7887761], [140.2310368, 38.7878281], [140.2313968, 38.7875379], [140.2330482, 38.7862572], [140.2333337, 38.7860347], [140.233758, 38.7856169], [140.234257, 38.785], [140.234369, 38.784912], [140.234524, 38.784826], [140.234689, 38.784756], [140.2355241, 38.7844899], [140.2375781, 38.7839202], [140.2395033, 38.783314], [140.2395253, 38.7833036], [140.2397135, 38.7832422], [140.2410356, 38.7828975], [140.2429525, 38.7825589], [140.2432701, 38.7824601], [140.244413, 38.782106], [140.244833, 38.781958], [140.245327, 38.781763], [140.245781, 38.781571], [140.246073, 38.781437], [140.24706, 38.780909], [140.2475066, 38.7807014], [140.2476974, 38.7805869], [140.2477969, 38.7804981], [140.2479465, 38.7803255], [140.248516, 38.77956], [140.248567, 38.779511], [140.248623, 38.779458], [140.248847, 38.779275], [140.24899, 38.779205], [140.249123, 38.779171], [140.249295, 38.779157], [140.249443, 38.77918], [140.250375, 38.779455], [140.251863, 38.779911], [140.253199, 38.78032], [140.253593, 38.780421], [140.253764, 38.78045], [140.254029, 38.78048], [140.254288, 38.780491], [140.254501, 38.780478], [140.254771, 38.780432], [140.255053, 38.780354], [140.255561, 38.780182], [140.256137, 38.779986], [140.25632, 38.779927], [140.25648, 38.779893], [140.256692, 38.779861], [140.256922, 38.779849], [140.257412, 38.779854], [140.258035, 38.779879], [140.258526, 38.779918], [140.259196, 38.780013], [140.263247, 38.780645], [140.26362, 38.780697], [140.263883, 38.780717], [140.264084, 38.780722], [140.264355, 38.780691], [140.264579, 38.78065], [140.264838, 38.780572], [140.265074, 38.780467], [140.265298, 38.780337], [140.265556, 38.78014], [140.265715, 38.779966], [140.265921, 38.779686], [140.265944, 38.77965], [140.266288, 38.77912], [140.266441, 38.778872], [140.266445, 38.778866], [140.2666255, 38.778618], [140.266672, 38.778554], [140.266862, 38.778351], [140.267089, 38.778167], [140.267304, 38.778047], [140.267566, 38.777944], [140.267816, 38.777883], [140.268107, 38.777828], [140.268453, 38.777787], [140.2688257, 38.777765], [140.268878, 38.777762], [140.269488, 38.777762], [140.269799, 38.777758], [140.270188, 38.77773], [140.270494, 38.777698], [140.270735, 38.777655], [140.270968, 38.777584], [140.271224, 38.777441], [140.271575, 38.777179], [140.272025, 38.776846], [140.272941, 38.77617], [140.273029, 38.776105], [140.2741011, 38.7753158], [140.274151, 38.775279], [140.2744721, 38.7750425], [140.27564, 38.774182], [140.276105, 38.773835], [140.276352, 38.77367], [140.276389, 38.773655], [140.2766498, 38.7735453], [140.276691, 38.773528], [140.2771963, 38.7733114], [140.277561, 38.773155], [140.277955, 38.772992], [140.278162, 38.772896], [140.278324, 38.772792], [140.278662, 38.772527], [140.2792139, 38.7720254], [140.2793118, 38.7719575], [140.27947, 38.77181], [140.2797397, 38.7715735], [140.279836, 38.771489], [140.279981, 38.771398], [140.280287, 38.771262], [140.2808599, 38.7710684], [140.2823361, 38.770499], [140.2830121, 38.7702636], [140.2836161, 38.7700623], [140.284792, 38.769565], [140.2857498, 38.7692013], [140.2858897, 38.7691419], [140.2859998, 38.7690937], [140.2862985, 38.7689695], [140.2873192, 38.7685477], [140.2873824, 38.7685213], [140.2875045, 38.7685097], [140.2876268, 38.7685415], [140.2881968, 38.7688071], [140.2883222, 38.7688656], [140.2893412, 38.7695051], [140.289624, 38.7696826], [140.2899446, 38.7698549], [140.2900589, 38.7698993], [140.2901866, 38.7699489], [140.290231, 38.7699562], [140.2904366, 38.7699902], [140.2911124, 38.7699956], [140.2912844, 38.7699803], [140.2913877, 38.7699622], [140.291731, 38.769856], [140.291754, 38.76985], [140.2920658, 38.7697684], [140.292289, 38.76971], [140.292595, 38.76962], [140.292913, 38.769546], [140.2929791, 38.7695343], [140.2931794, 38.7694928], [140.293456, 38.769455], [140.2936822, 38.7694351], [140.2949629, 38.7693894], [140.2954262, 38.7693644], [140.2956883, 38.7693077], [140.296451, 38.7689797], [140.2967228, 38.7693853], [140.2969133, 38.7696695], [140.2969506, 38.7697252], [140.297399, 38.770379], [140.2974488, 38.7704474], [140.2978379, 38.7710695], [140.298071, 38.77148], [140.2981353, 38.7716102], [140.29824, 38.7718223], [140.298362, 38.772086], [140.298387, 38.772183], [140.2984798, 38.772476], [140.298558, 38.77268], [140.298663, 38.772879], [140.2990161, 38.7734276], [140.29956, 38.773198], [140.299868, 38.773065], [140.300255, 38.772894], [140.3008925, 38.7726404], [140.3010167, 38.7725829], [140.3011091, 38.7725356], [140.3011232, 38.7725206], [140.3011227, 38.7725021], [140.301051, 38.7723724], [140.3010052, 38.7721844], [140.3011108, 38.7721843], [140.3012286, 38.7721668], [140.3014335, 38.7721139], [140.3023483, 38.7717694], [140.3035746, 38.7713745], [140.3038763, 38.7712788], [140.3041997, 38.7711749], [140.3044277, 38.7711144], [140.3045613, 38.7710829], [140.3047062, 38.7710515], [140.3048411, 38.7710278], [140.3049557, 38.7710121], [140.3050558, 38.771003], [140.3051832, 38.7709929], [140.3053175, 38.7709863], [140.3054553, 38.7709845], [140.305598, 38.770986], [140.3058138, 38.7709981], [140.3062005, 38.7710275], [140.3069197, 38.7710915], [140.3074016, 38.7711412], [140.3076131, 38.7711595], [140.3078846, 38.7711837], [140.3081566, 38.7712081], [140.3088841, 38.7712749], [140.3090108, 38.7712886], [140.3097142, 38.7713511], [140.3100342, 38.7713821], [140.3105954, 38.771431]]]}, "id": "relation/9383269"}]}