{"type": "FeatureCollection", "generator": "kokudo-quiz tools/fetch_raw.py (Overpass API)", "copyright": "The data included in this document is from www.openstreetmap.org. The data is made available under ODbL.", "timestamp": "2026-09-30T23:39:59Z", "features": [{"type": "Feature", "properties": {"@id": "relation/8725735", "colour": "red", "from": "新潟県新発田市", "name": "国道460号", "name:en": "National Highway Route 460", "name:ja": "国道460号", "name:ja-Hira": "こくどうよんひゃくろくじゅうごう", "name:ja-Latn": "kokudou 460 gou", "network": "JP:national", "official_name": "一般国道460号", "ref": "460", "route": "road", "to": "新潟県柏崎市", "type": "route", "wikidata": "Q11421467"}, "geometry": {"type": "MultiLineString", "coordinates": [[[139.0227569, 37.7637077], [139.0225878, 37.7634091], [139.0225069, 37.7632661], [139.0222042, 37.7626865], [139.0220345, 37.7623615], [139.0219659, 37.7622154], [139.0219212, 37.7620716], [139.0219003, 37.7619632], [139.0218794, 37.7617888], [139.0218671, 37.7612643], [139.0218688, 37.7606343], [139.0218143, 37.7602644], [139.0216989, 37.7599296], [139.021629, 37.7597869], [139.0215558, 37.7596373], [139.0213318, 37.7592301], [139.0211068, 37.7588014], [139.0207864, 37.7582226], [139.0205061, 37.7576632], [139.0204189, 37.7574862], [139.0202832, 37.7572169], [139.0202322, 37.7571365], [139.0202163, 37.7571114], [139.0199765, 37.7568649], [139.0197521, 37.7567052], [139.0195547, 37.7566042], [139.0193458, 37.7565162], [139.0191194, 37.756447], [139.0188858, 37.7564134], [139.018645, 37.7563994], [139.0182546, 37.7564039], [139.0178915, 37.7564155], [139.0178196, 37.7564178], [139.0177221, 37.7564223], [139.0167099, 37.7564694], [139.0165577, 37.7564766], [139.0164226, 37.7564822], [139.014892, 37.7565452], [139.0136546, 37.7566068], [139.013311, 37.7566065], [139.0130223, 37.7565735], [139.0127509, 37.7565074], [139.0122884, 37.7563241], [139.0117128, 37.7561], [139.01107, 37.7558309], [139.0108942, 37.7557521], [139.0107277, 37.7556544], [139.0105456, 37.7555467], [139.010034, 37.7552409], [139.0096582, 37.7550109], [139.0096179, 37.7549858], [139.0095577, 37.754947], [139.0085147, 37.75432], [139.0084327, 37.7542728], [139.008246, 37.7541543], [139.0080431, 37.75404], [139.0078975, 37.7539729], [139.0077677, 37.7539119], [139.0076558, 37.7538809], [139.0075291, 37.7538552], [139.0073785, 37.7538348], [139.0072454, 37.7538265], [139.0070756, 37.7538264], [139.0069366, 37.7538372], [139.0067754, 37.7538646], [139.0065412, 37.7539201], [139.0061538, 37.7540282], [139.0057408, 37.7541495], [139.0052549, 37.7542875], [139.004559, 37.7544768], [139.0042169, 37.7545573], [139.0040843, 37.7545876], [139.0039804, 37.7546064], [139.0035805, 37.7546553], [139.0032115, 37.7546955], [139.0021492, 37.7548149], [139.0018827, 37.7548404], [139.0009583, 37.7549465], [139.0000956, 37.7550426], [138.9984771, 37.7552289], [138.9967942, 37.7554178], [138.9950698, 37.7556163], [138.994984, 37.7556272], [138.993355, 37.7558035], [138.9926944, 37.755881], [138.9924629, 37.7559081], [138.9919527, 37.7559624], [138.991489, 37.7560019], [138.9904729, 37.7560886], [138.9894994, 37.7561633], [138.9893341, 37.756176], [138.9882405, 37.7562599], [138.9877134, 37.7563056], [138.9871257, 37.7563565], [138.9864694, 37.7564134], [138.9853676, 37.7565071], [138.98512, 37.756531], [138.9849617, 37.756544], [138.9839538, 37.7566245], [138.9838031, 37.7566365], [138.9825, 37.7567471], [138.9824055, 37.7567489], [138.9819366, 37.7567987], [138.9816303, 37.7568173], [138.9811474, 37.7568596], [138.9808081, 37.7568817], [138.9802683, 37.7569395], [138.9799323, 37.7571097], [138.9796938, 37.7572552], [138.9791967, 37.7575583], [138.9788943, 37.7577743], [138.9786293, 37.7579776], [138.9781902, 37.758375], [138.9779792, 37.7585704], [138.9779225, 37.7585911], [138.9777854, 37.7586403], [138.9774489, 37.7587012], [138.9771756, 37.7587016], [138.9769817, 37.7586908], [138.9765451, 37.7586809], [138.975878, 37.7586921], [138.9754358, 37.7587209], [138.9746107, 37.7587775], [138.9740333, 37.7588161], [138.9738957, 37.7588211], [138.9725354, 37.7589103], [138.9711466, 37.7589977], [138.9710938, 37.759001], [138.9708657, 37.7590145], [138.97015, 37.7590325], [138.9688286, 37.7590346], [138.9685705, 37.7590393], [138.9684377, 37.7590358], [138.9675475, 37.7590347], [138.9674079, 37.7590012], [138.9671806, 37.7589651], [138.9668372, 37.7588375], [138.9665133, 37.7586754], [138.9662854, 37.7585613], [138.9660197, 37.7584808], [138.9656866, 37.7584058], [138.9648576, 37.7582898], [138.9642228, 37.7581795], [138.9639151, 37.7581338], [138.9631653, 37.7580067], [138.96278, 37.757969], [138.9618408, 37.7578024], [138.9611019, 37.7577236], [138.9606777, 37.7576492], [138.9605319, 37.757599], [138.9603599, 37.7575226], [138.9602418, 37.75748], [138.960168, 37.7574404], [138.9591755, 37.7569083], [138.9580124, 37.7563183], [138.9570925, 37.7558486], [138.9568902, 37.755746], [138.9564168, 37.7555027], [138.9561897, 37.755386], [138.9557221, 37.7551461], [138.9551089, 37.7548663], [138.9540019, 37.7542564], [138.9527187, 37.7535974], [138.9517232, 37.7530868], [138.9514394, 37.7529454], [138.9512101, 37.7528262], [138.9500844, 37.752307], [138.9489424, 37.7517721], [138.9487376, 37.7516685], [138.9486097, 37.7515946], [138.9484628, 37.751531], [138.9479071, 37.7512615], [138.9477346, 37.7511928], [138.9476134, 37.7511622], [138.9474555, 37.7511377], [138.9472977, 37.7511334], [138.9471016, 37.7511518], [138.9468908, 37.7511967], [138.9464387, 37.7513303], [138.946261, 37.7513657], [138.9460551, 37.7513594], [138.9458669, 37.7513413], [138.9456526, 37.7513181], [138.945616, 37.7513041], [138.9452065, 37.7512648], [138.9449188, 37.7511859], [138.9443817, 37.7509584], [138.9441058, 37.7508842], [138.9437792, 37.7508568], [138.9433582, 37.7508321], [138.9431519, 37.7508215], [138.9427975, 37.7508082], [138.9422772, 37.7508052], [138.9420659, 37.7507612], [138.9418428, 37.750659], [138.9406459, 37.7500686], [138.9404304, 37.7499676], [138.9400181, 37.7497652], [138.9399006, 37.7496928], [138.939778, 37.7496362], [138.9391552, 37.7493485], [138.9389906, 37.7492725], [138.9380038, 37.7487935], [138.9379293, 37.7487559], [138.9372889, 37.7484385], [138.9370225, 37.7483064], [138.936929, 37.7482601], [138.9367512, 37.7484903], [138.9364268, 37.7489104], [138.9361213, 37.7493239], [138.9359946, 37.7495113], [138.9358601, 37.7496917], [138.9357134, 37.7498387], [138.9355361, 37.7499992], [138.9353428, 37.7501448], [138.9351287, 37.7502794], [138.934895, 37.750408], [138.934645, 37.7505223], [138.934439, 37.7505986], [138.934294, 37.7506469], [138.9342194, 37.7506686], [138.9341521, 37.7506891], [138.9339603, 37.750733], [138.9337723, 37.7507705], [138.9335065, 37.750802], [138.9325172, 37.7509001], [138.9312993, 37.7510228], [138.9312098, 37.7510316], [138.9299113, 37.7511536], [138.9287545, 37.7512716], [138.9286895, 37.7512744], [138.9285941, 37.7512845], [138.9261832, 37.7515051], [138.9258132, 37.7515448], [138.9252338, 37.7516021], [138.9246652, 37.7515873], [138.9237183, 37.7514672], [138.9224718, 37.7513643], [138.9212014, 37.7513424], [138.9210055, 37.7513423]], [[138.9026572, 37.7535523], [138.9026992, 37.7535449], [138.9028304, 37.753517], [138.9030596, 37.7534411], [138.9032632, 37.7533417], [138.9033951, 37.7532773], [138.903517, 37.7532222], [138.9045866, 37.7527036], [138.9049963, 37.7525206], [138.9051111, 37.7524722], [138.9052214, 37.7524184], [138.9055913, 37.7522469], [138.9056982, 37.7522024], [138.9060418, 37.7519907], [138.9062479, 37.7518038], [138.9067394, 37.7514448], [138.9068339, 37.7513709], [138.9075531, 37.7508319], [138.9076922, 37.7506244], [138.9077857, 37.7505442], [138.9081428, 37.7502002], [138.9086148, 37.7500645], [138.9095561, 37.7500198], [138.9096877, 37.7500136], [138.9103744, 37.7497591], [138.9112291, 37.7492242], [138.9114779, 37.7490837], [138.911989, 37.7487835], [138.9136403, 37.7504396], [138.9137414, 37.7505735], [138.914053, 37.7508541], [138.9142779, 37.7510415], [138.9145764, 37.7512231], [138.9149234, 37.7513709], [138.9153431, 37.751461], [138.9156222, 37.7514954], [138.915765, 37.7514888], [138.9171027, 37.75144], [138.9184468, 37.7514053], [138.9190004, 37.7513709], [138.9196099, 37.7513623], [138.9206968, 37.751327], [138.9210055, 37.7513423]], [[138.9026572, 37.7535523], [138.9025459, 37.7535747], [138.9024778, 37.7535826], [138.9024462, 37.7535843], [138.901814, 37.753618], [138.9014151, 37.7536437], [138.9012209, 37.7536535], [138.901011, 37.7536623], [138.9006605, 37.7536697], [138.8992504, 37.7535941], [138.898122, 37.7534407], [138.8977987, 37.7534407], [138.8963633, 37.7534407], [138.8961265, 37.7534407], [138.8959547, 37.7534662], [138.8958295, 37.753508], [138.8957321, 37.7535542], [138.8956375, 37.7536114], [138.8948848, 37.7543224], [138.8943726, 37.7547965], [138.8940944, 37.7549679], [138.8939071, 37.7550649], [138.8937526, 37.7551292], [138.8935534, 37.7551887], [138.8930231, 37.7552774], [138.8922684, 37.7554036], [138.8918124, 37.7554722], [138.8909443, 37.7556127], [138.8908334, 37.7556258], [138.8907423, 37.7556222], [138.8904089, 37.7555659], [138.8902263, 37.755535], [138.8901827, 37.7555322], [138.8900909, 37.7555262], [138.889987, 37.7555265], [138.8898831, 37.7555335], [138.8897663, 37.7555557], [138.8896612, 37.7555834], [138.8893747, 37.7556806], [138.8889106, 37.7558265], [138.8887235, 37.7558775], [138.8886176, 37.7558918], [138.8878288, 37.7559979], [138.8874358, 37.7560019], [138.8869645, 37.755996], [138.8862918, 37.7559876], [138.8858198, 37.7559792], [138.8853603, 37.755955], [138.8848177, 37.7559529], [138.8844729, 37.7559322], [138.8841618, 37.7558957]], [[139.0227569, 37.7637077], [139.023102, 37.764318], [139.0233498, 37.7648015], [139.0234122, 37.7648854], [139.0235877, 37.7652209], [139.0237589, 37.7655597], [139.0239618, 37.7658834], [139.0241469, 37.7662178], [139.0242881, 37.7665561], [139.0244051, 37.766779], [139.0245442, 37.7670424], [139.0246747, 37.7672789], [139.0248244, 37.767496], [139.0249757, 37.7677006], [139.0251771, 37.7679093], [139.0252984, 37.7680602], [139.0255528, 37.7682574], [139.0258436, 37.7684007], [139.0260347, 37.7685505], [139.0263937, 37.7687426], [139.0268198, 37.7689604], [139.027386, 37.7692474], [139.0275651, 37.7693456], [139.0283441, 37.7696873], [139.0284147, 37.7697105], [139.028784, 37.7698316], [139.0290036, 37.769876], [139.0291052, 37.7698919], [139.0293651, 37.7699326], [139.0293943, 37.7699362], [139.029645, 37.7699674], [139.0302508, 37.7700426], [139.0307149, 37.7701095], [139.0309597, 37.7701752], [139.031095, 37.7702116], [139.0311606, 37.7702261], [139.0312173, 37.7702556], [139.0315295, 37.7704181], [139.0317359, 37.7705457], [139.0321501, 37.7708912], [139.0326453, 37.7713008], [139.0328607, 37.7714789], [139.0330553, 37.7716398], [139.0332045, 37.7717627], [139.0335434, 37.7720416], [139.0338228, 37.7722717], [139.0344227, 37.7728139], [139.0349414, 37.7732945], [139.0352944, 37.7736433], [139.0355684, 37.773914], [139.0359365, 37.7742503], [139.0360648, 37.7743675], [139.0361218, 37.7744128], [139.0363358, 37.774583], [139.0370047, 37.7750767], [139.0373974, 37.7753747], [139.0376313, 37.7755522], [139.03806, 37.7758635], [139.0382619, 37.7760147], [139.0383932, 37.7761106], [139.0384345, 37.7761459], [139.0385107, 37.7762068], [139.0385813, 37.7762594], [139.0388869, 37.7764344], [139.0389387, 37.7764627], [139.0391534, 37.7765543], [139.0391794, 37.7765666], [139.0394572, 37.7766615], [139.039516, 37.7766837], [139.039762, 37.7767766], [139.0399399, 37.776826], [139.0407294, 37.7771012], [139.0421807, 37.7775571], [139.0447615, 37.7784442], [139.0477799, 37.7794543], [139.0500105, 37.7802199], [139.0529729, 37.7812173], [139.0536975, 37.7814426], [139.0544197, 37.7816946], [139.0549836, 37.7818722], [139.0555662, 37.7820492], [139.0559472, 37.7821633], [139.0568613, 37.7824074], [139.0577222, 37.782624], [139.0580482, 37.7827276], [139.063507, 37.7841642], [139.0638261, 37.7842445], [139.0657208, 37.7847393], [139.0672063, 37.7851416], [139.0677791, 37.7852894], [139.0680442, 37.7853666], [139.0682744, 37.7854456], [139.0685344, 37.7855482], [139.0687348, 37.7856356], [139.0690587, 37.785787], [139.0697758, 37.7861846], [139.0701575, 37.7863781], [139.0703494, 37.7864775], [139.0705591, 37.7865742], [139.0709066, 37.786704], [139.0714526, 37.7868747], [139.0718833, 37.7870091], [139.0736697, 37.7875749], [139.0740057, 37.7876864], [139.0747629, 37.7879426], [139.0758591, 37.7882865], [139.0760822, 37.7883586], [139.0762602, 37.7884376], [139.0765068, 37.7885727], [139.0772654, 37.7891862], [139.0777667, 37.7896021], [139.0780178, 37.7898005], [139.0780497, 37.7898222], [139.078295, 37.7900333], [139.0783254, 37.7900522], [139.0785285, 37.7902393], [139.0785794, 37.7902725], [139.0788371, 37.7904309], [139.0791638, 37.7905317], [139.0801571, 37.7909212], [139.0802491, 37.790954], [139.0804765, 37.7910095], [139.0805552, 37.7910405], [139.0829207, 37.7918692], [139.0831743, 37.7920036], [139.0849228, 37.7926177], [139.0851096, 37.7927139], [139.0853338, 37.7928928], [139.0854663, 37.7930942], [139.0856462, 37.7935334], [139.0859269, 37.7942035], [139.0865136, 37.7952265], [139.0867777, 37.7955295], [139.087036, 37.7957142], [139.0876388, 37.7959185], [139.0882115, 37.7961161], [139.088393, 37.7961751], [139.08857, 37.7962049], [139.0886213, 37.7962062], [139.0887378, 37.7961996], [139.0888917, 37.7961855], [139.0892747, 37.7961051], [139.0905313, 37.7957695], [139.0907914, 37.7956928], [139.0913314, 37.7955616], [139.0919499, 37.7951969], [139.0921042, 37.7951318], [139.0923511, 37.7950709], [139.092791, 37.795062], [139.0930405, 37.7950581], [139.093806, 37.795057], [139.0946487, 37.7951052], [139.0952085, 37.7951283], [139.0954941, 37.795127], [139.0968109, 37.7951216], [139.097324, 37.795108], [139.0976605, 37.795116], [139.098558, 37.795131], [139.098905, 37.795136], [139.099253, 37.795136], [139.099458, 37.795147], [139.099544, 37.795147], [139.099885, 37.795164], [139.1001811, 37.795173], [139.1007816, 37.795181], [139.1010652, 37.795164], [139.1015301, 37.7951136], [139.101834, 37.795058], [139.102409, 37.794973], [139.102551, 37.794962], [139.1028592, 37.794918], [139.103368, 37.7948459], [139.1037638, 37.7948004], [139.104268, 37.794707], [139.104438, 37.794697], [139.1046341, 37.7946867], [139.1049797, 37.7946361], [139.105232, 37.7946006], [139.1059551, 37.7945138], [139.1063881, 37.7944687], [139.1065301, 37.7944503], [139.1070136, 37.7944365], [139.107564, 37.7944046], [139.1083394, 37.7943827], [139.1087676, 37.7943672], [139.1092875, 37.7943265], [139.1083697, 37.7953001], [139.1070787, 37.7966519], [139.1067983, 37.7969477], [139.1053338, 37.7985542], [139.1046901, 37.7993935], [139.1042288, 37.8000632], [139.1038479, 37.8006651], [139.1036065, 37.8010763], [139.1033758, 37.8015128], [139.1031912, 37.8018341], [139.1029379, 37.8023843], [139.1027957, 37.8026965], [139.1025948, 37.8031366], [139.1027534, 37.8032773], [139.1030317, 37.8034565], [139.1031456, 37.8035298], [139.1053138, 37.8048125], [139.1063666, 37.8054591], [139.1079328, 37.8064194], [139.1082383, 37.8065501], [139.1088572, 37.8067497], [139.1093352, 37.8068307], [139.1097136, 37.8068677], [139.1101861, 37.8068701], [139.1106681, 37.8068525], [139.1122675, 37.8067975], [139.1149176, 37.8067024], [139.1151324, 37.8066984], [139.1163747, 37.8066232], [139.1185736, 37.8065541], [139.1262013, 37.8062689], [139.1264656, 37.8062595], [139.1266127, 37.8062553], [139.1271532, 37.8062248], [139.1276511, 37.8062], [139.1278697, 37.8061753], [139.1280675, 37.806144], [139.1284688, 37.8060587], [139.1289589, 37.8059393], [139.1292406, 37.8058721], [139.1294349, 37.8058427], [139.1296988, 37.8058146], [139.1299014, 37.8057986], [139.129706, 37.8057732], [139.1294375, 37.8057721], [139.1293836, 37.8057772], [139.1290029, 37.8058415], [139.1284603, 37.8059786], [139.1279865, 37.8060792], [139.1277833, 37.8061112], [139.1275763, 37.8061319], [139.1271524, 37.8061531], [139.1266069, 37.8061743], [139.1264627, 37.806181], [139.1261963, 37.8061881], [139.1185695, 37.8064873], [139.1163743, 37.806555], [139.115126, 37.8065987], [139.1149255, 37.8066011], [139.1128951, 37.806691], [139.1106731, 37.8067658], [139.1100665, 37.8067907], [139.1097411, 37.8067818], [139.1095279, 37.8067596], [139.1093183, 37.8067329], [139.1088442, 37.806645], [139.1082835, 37.806462], [139.1080211, 37.8063472], [139.1064557, 37.8054121], [139.1053682, 37.8047373], [139.1032489, 37.8034672], [139.1029169, 37.8032697], [139.1025948, 37.8031366]], [[139.1299014, 37.8057986], [139.1300383, 37.8058095], [139.1303626, 37.8058427], [139.130438, 37.8058534], [139.1322971, 37.806073], [139.1323546, 37.8060747], [139.1327888, 37.806121], [139.133253, 37.8061864], [139.1336663, 37.8062151], [139.1338512, 37.806223], [139.1339616, 37.8062266], [139.1343392, 37.8062306], [139.1361303, 37.8062667], [139.136983, 37.8062998], [139.1385254, 37.8063027], [139.140096, 37.8063711], [139.1402494, 37.8063669], [139.1415729, 37.8064248], [139.1431033, 37.8064169], [139.144237, 37.8064622], [139.1446034, 37.8064648], [139.1447469, 37.8064775], [139.1448956, 37.806478], [139.1451042, 37.8064835], [139.1457801, 37.8064856], [139.1462495, 37.8065084], [139.1466277, 37.8065407], [139.146971, 37.8065873], [139.1476506, 37.8067346], [139.1480738, 37.8068525], [139.1481797, 37.8068816], [139.1484397, 37.8069674], [139.1487479, 37.8070566], [139.148875, 37.8071036], [139.149495, 37.807431], [139.150086, 37.807822], [139.1508973, 37.8083583], [139.1510842, 37.8084769], [139.1512406, 37.8085585], [139.1514282, 37.8086577], [139.1517198, 37.8087945], [139.1524114, 37.8091248], [139.1617314, 37.8130971], [139.1617954, 37.8131249], [139.1636177, 37.8139151], [139.1638814, 37.8140262], [139.164088, 37.8141154], [139.16431, 37.8141925], [139.1644442, 37.8142322], [139.1650015, 37.8143406], [139.1653522, 37.8144264], [139.1655276, 37.8145077], [139.1656934, 37.8146203], [139.1658242, 37.8147821], [139.1659077, 37.8149515], [139.16592, 37.8150754], [139.165901, 37.815254], [139.1658299, 37.8155464], [139.165735, 37.8158468], [139.1657409, 37.8160859], [139.1657792, 37.8162193], [139.1658428, 37.8163403], [139.1659309, 37.8164499], [139.1660902, 37.8165768], [139.1663789, 37.8167102], [139.1666465, 37.8168188], [139.1669808, 37.8169696], [139.168638, 37.8175667], [139.1691062, 37.8177409], [139.1695143, 37.8179317], [139.1699993, 37.8181074], [139.1705989, 37.8183605], [139.1714953, 37.8187112], [139.1717725, 37.8188046], [139.1719378, 37.8188335], [139.1721734, 37.8188149], [139.1725946, 37.8187141], [139.1730804, 37.8186029], [139.1739844, 37.8183933], [139.1744621, 37.8183393], [139.1745883, 37.818337], [139.1746183, 37.8183365], [139.1747746, 37.8183415], [139.1754294, 37.8183388], [139.1758444, 37.8183371], [139.1760856, 37.81833], [139.1766195, 37.818338], [139.1769703, 37.818273], [139.1772207, 37.8182224], [139.1775981, 37.8181487], [139.1781081, 37.818046], [139.1785944, 37.8179789], [139.1788583, 37.8179765], [139.1791533, 37.8179998], [139.1797219, 37.8181945], [139.1798919, 37.8182938], [139.1800929, 37.818443], [139.180311, 37.818605], [139.181261, 37.8193495], [139.1815815, 37.819579], [139.1830442, 37.820708], [139.1833476, 37.8209323], [139.18382, 37.821308], [139.184289, 37.821657], [139.1846084, 37.8219114], [139.1847949, 37.822046], [139.1850336, 37.8222486], [139.1853468, 37.822482], [139.1854047, 37.8225231]], [[139.2119616, 37.8357674], [139.2118241, 37.8356962], [139.2110311, 37.8353288], [139.2109341, 37.8352898], [139.2108935, 37.8352704], [139.209808, 37.834751], [139.209707, 37.834706], [139.209161, 37.834458], [139.2087048, 37.8342377], [139.207686, 37.833777], [139.20758, 37.833729], [139.207473, 37.833681], [139.20736, 37.833624], [139.2066417, 37.8332853], [139.20592, 37.8329467], [139.2052886, 37.832645], [139.205146, 37.8325801], [139.2051105, 37.8325639], [139.2047383, 37.8323899], [139.2043514, 37.8322089], [139.2037461, 37.8319257], [139.2036922, 37.8319006], [139.2031954, 37.8316674], [139.2031604, 37.8316478], [139.2031385, 37.8316361], [139.2029122, 37.8315316], [139.2025653, 37.8313775], [139.2023228, 37.8312654], [139.2021791, 37.8311937], [139.2018654, 37.8310523], [139.2015713, 37.8309102], [139.2012966, 37.8307862], [139.2009653, 37.8306183], [139.2008796, 37.8305775], [139.2006035, 37.8304523], [139.1999059, 37.8301292], [139.1998501, 37.8301061], [139.1997961, 37.8300792], [139.1997495, 37.8300574], [139.1987537, 37.8295906], [139.198671, 37.8295555], [139.1986182, 37.8295316], [139.1977233, 37.8291344], [139.1976214, 37.829082], [139.1975623, 37.8290574], [139.1974719, 37.8290048], [139.1965823, 37.8285797], [139.196524, 37.82855], [139.1964744, 37.8285271], [139.1960863, 37.828352], [139.1959424, 37.8282786], [139.1959097, 37.8282654], [139.1953389, 37.8280004], [139.1952339, 37.8279597], [139.1951469, 37.8279159], [139.1947616, 37.8277348], [139.1946583, 37.8276862], [139.1942134, 37.8274735], [139.1941334, 37.8274333], [139.1936088, 37.82719], [139.1930694, 37.8269395], [139.193008, 37.8269127], [139.1924682, 37.8266539], [139.1923676, 37.8266187], [139.1913064, 37.8261231], [139.1913005, 37.8261195], [139.1909137, 37.8258816], [139.1908131, 37.8258246], [139.1907511, 37.8257898], [139.1906731, 37.8257496], [139.189665, 37.825152], [139.1895844, 37.8251059], [139.1888364, 37.824672], [139.1887526, 37.8246231], [139.1884595, 37.8244521], [139.1880693, 37.8242219], [139.1878784, 37.8240955], [139.1877285, 37.8240189], [139.1873326, 37.823794], [139.1871804, 37.8237097], [139.1870654, 37.8236514], [139.186304, 37.823183], [139.1854047, 37.8225231]], [[139.226888, 37.8409393], [139.227072, 37.8411126], [139.2271499, 37.8412188], [139.227203, 37.8413222], [139.2272313, 37.8414312], [139.2272525, 37.8415346], [139.2272773, 37.8417107], [139.2272879, 37.8419623], [139.2272985, 37.8421132], [139.2273162, 37.8425688], [139.2273304, 37.8429237], [139.227341, 37.8430607], [139.2273516, 37.8431669], [139.2273764, 37.843301], [139.2274153, 37.8434212], [139.2274614, 37.8435162], [139.2275439, 37.8436579], [139.2276666, 37.8437957], [139.227771, 37.843895], [139.2279108, 37.8440137], [139.2283199, 37.8442985], [139.2283886, 37.8443463], [139.2287885, 37.8446314], [139.2288841, 37.8446956], [139.2289655, 37.8447432], [139.2290965, 37.8448046], [139.2292245, 37.8448528], [139.2293619, 37.8448997], [139.229461, 37.8449248], [139.2295778, 37.8449472], [139.2297123, 37.8449639], [139.2298928, 37.8449751], [139.2301441, 37.8449751], [139.2312518, 37.8449472], [139.2319294, 37.8449322], [139.2334486, 37.8449012], [139.2338509, 37.8449065], [139.2341009, 37.8449164], [139.2341929, 37.8449304], [139.2343097, 37.8449528], [139.2344123, 37.8449835], [139.234515, 37.8450226], [139.2346211, 37.8450701], [139.2347238, 37.8451316], [139.234791, 37.8451875], [139.2348477, 37.8452462], [139.235439, 37.846031], [139.23647, 37.8474066], [139.237475, 37.848789], [139.2384824, 37.8501565], [139.2391336, 37.8510284], [139.2395125, 37.8515349], [139.2401823, 37.8524287], [139.240274, 37.852551], [139.24058, 37.852957], [139.2408476, 37.8533314], [139.2408638, 37.853354], [139.240886, 37.8533836], [139.2413128, 37.8539712], [139.2413464, 37.8540179], [139.2413771, 37.8540597], [139.2418058, 37.8546416], [139.2418888, 37.8547543], [139.241982, 37.8548785], [139.2424014, 37.8554375], [139.2428189, 37.8560071], [139.2431231, 37.8564201], [139.243752, 37.857274], [139.2441642, 37.8578337], [139.2444712, 37.8582505], [139.244876, 37.8588002], [139.2457706, 37.8600147], [139.2466254, 37.8611753], [139.2474837, 37.8623407], [139.2481306, 37.8632189], [139.2485012, 37.8637221], [139.248748, 37.864129], [139.248774, 37.864165], [139.2495729, 37.8651503], [139.2496322, 37.8652447], [139.2506745, 37.866672], [139.2508678, 37.8669231], [139.2518832, 37.8682843], [139.2523544, 37.8689483], [139.2524052, 37.8690152], [139.2525899, 37.8692673], [139.252639, 37.8693392], [139.25348, 37.870497], [139.253593, 37.8706491], [139.2542672, 37.8715739], [139.2548403, 37.8723106], [139.2555884, 37.8733759], [139.2556856, 37.8735109], [139.2559106, 37.8738309], [139.2560932, 37.8740555], [139.2565467, 37.8746828], [139.2567422, 37.8749504], [139.2572275, 37.8756277], [139.257569, 37.8760988], [139.2579155, 37.8765969], [139.2579889, 37.876713], [139.2582358, 37.8770471], [139.2584444, 37.8773356], [139.2585899, 37.8775237], [139.2587225, 37.8776859], [139.2589081, 37.8778711], [139.2590403, 37.8779878], [139.2591689, 37.8780895], [139.2597105, 37.8785158], [139.2613913, 37.879832], [139.2624992, 37.8807157], [139.2626862, 37.8809082], [139.2628693, 37.8811738], [139.2629613, 37.8813402], [139.2631506, 37.8817449], [139.2632072, 37.8819189], [139.2632486, 37.8820811], [139.2633666, 37.8824936], [139.2634561, 37.8828182], [139.263513, 37.8830032], [139.26357, 37.883177], [139.263691, 37.883463], [139.263769, 37.88361], [139.2641116, 37.8843186], [139.2641467, 37.8843736], [139.2642632, 37.88454], [139.2643622, 37.8847021], [139.2649996, 37.8856734], [139.2650412, 37.8857377], [139.2650783, 37.8857939], [139.2656588, 37.8866737], [139.2663374, 37.8877305], [139.2667464, 37.8883572], [139.2667709, 37.8883971], [139.2670794, 37.888867], [139.2671006, 37.8888975]], [[139.226888, 37.8409393], [139.226704, 37.8410399], [139.2265277, 37.8411139], [139.226389, 37.8411517], [139.2262439, 37.8411769], [139.2260216, 37.8412005], [139.2258438, 37.8412173], [139.2255226, 37.8412369], [139.2236715, 37.8413319], [139.2234213, 37.841344], [139.2213584, 37.8414175], [139.220976, 37.8414204], [139.2209668, 37.8412958], [139.2209418, 37.8408622], [139.2208983, 37.8399976], [139.2208797, 37.8398925], [139.220817, 37.8397482], [139.220731, 37.8397568], [139.2206183, 37.8397428], [139.2204923, 37.8397094], [139.220381, 37.8396642], [139.2200147, 37.8394879], [139.2191732, 37.8390919], [139.2190326, 37.8390258], [139.2177632, 37.8384506], [139.2173269, 37.8382485], [139.2168109, 37.8380071], [139.2167746, 37.8379894], [139.2163669, 37.837799], [139.215539, 37.8374124], [139.2141266, 37.8367421], [139.2136913, 37.8365516], [139.2132349, 37.8363272], [139.213144, 37.8362847], [139.212072, 37.8358095], [139.2119616, 37.8357674]], [[139.2671006, 37.8888975], [139.2671789, 37.8890114], [139.2672122, 37.8890598], [139.2677975, 37.8899056], [139.268463, 37.890893], [139.2687489, 37.8913241], [139.2689382, 37.8916021], [139.269535, 37.892503], [139.2702171, 37.8935334], [139.2705761, 37.8940746], [139.2706144, 37.8941311], [139.2707086, 37.8942742], [139.2712389, 37.8950601], [139.271985, 37.896174], [139.27211, 37.896354], [139.272127, 37.896379], [139.272143, 37.896404], [139.2722061, 37.8965058], [139.272361, 37.896737], [139.272958, 37.897392], [139.273151, 37.897547], [139.2735354, 37.8978248], [139.2766802, 37.8995383], [139.2809826, 37.9018468], [139.2853097, 37.9041648], [139.289701, 37.906516], [139.2897797, 37.9065551], [139.289864, 37.9066035], [139.2919037, 37.9076915], [139.2919676, 37.9077289], [139.2920046, 37.9077505], [139.292685, 37.9081108], [139.2944316, 37.9090379], [139.2954714, 37.9095813], [139.2957557, 37.9097416], [139.2965253, 37.9101795], [139.2969908, 37.9104434], [139.2975209, 37.9107439], [139.2987226, 37.9114427], [139.2996785, 37.9120403], [139.2999938, 37.9122632], [139.3004394, 37.9124984], [139.3015309, 37.9131404], [139.3015663, 37.9131657], [139.3016061, 37.9131888], [139.3025438, 37.9137316], [139.3035723, 37.9143605], [139.3043035, 37.9147751], [139.3051315, 37.9152868], [139.3058531, 37.9160251], [139.307045, 37.9174267], [139.3072002, 37.9175996], [139.3075205, 37.9179309], [139.3078019, 37.9182539], [139.3084909, 37.9189268], [139.3090688, 37.9195005], [139.3090952, 37.9195267], [139.3091666, 37.9195953], [139.310327, 37.920696], [139.3111735, 37.9214885], [139.3116402, 37.9219497], [139.3116909, 37.9220166], [139.3125694, 37.9228641], [139.3138846, 37.9241124], [139.3139097, 37.9241365], [139.3141235, 37.9243425], [139.3153443, 37.9255373], [139.3158293, 37.926012], [139.3158501, 37.9260308], [139.3159875, 37.9261584], [139.3160007, 37.9261716], [139.317744, 37.9278845], [139.3188909, 37.9290394], [139.3193466, 37.9294883], [139.3202039, 37.9303327], [139.3204954, 37.9306198], [139.3206289, 37.9308282], [139.321138, 37.9320065], [139.3213109, 37.9324237], [139.3215746, 37.933063], [139.3218574, 37.9337486], [139.3222122, 37.9346302], [139.3210105, 37.9353203], [139.3208287, 37.9354374], [139.3206612, 37.9355628], [139.3205064, 37.9356949], [139.3201318, 37.9360564], [139.3198381, 37.936403], [139.3182964, 37.9384596], [139.31811, 37.9387109], [139.3178838, 37.9389967], [139.3176492, 37.9392434], [139.3175178, 37.9393478], [139.3173783, 37.9394451], [139.3171844, 37.939555], [139.3169645, 37.9396532], [139.3167196, 37.9397422], [139.3163537, 37.9398428], [139.312442, 37.9407285], [139.3106064, 37.9411441], [139.3089603, 37.9415298], [139.3072541, 37.9419307], [139.3046674, 37.9425724], [139.3026157, 37.9430814], [139.3013003, 37.9434212], [139.2988045, 37.9440833], [139.2975449, 37.9444203], [139.2973391, 37.944483], [139.2971336, 37.9445638], [139.2969123, 37.9446627], [139.2966108, 37.9448339], [139.2964069, 37.9449704], [139.2962426, 37.9451103], [139.2960879, 37.9452703], [139.2959678, 37.9454109], [139.2958587, 37.9455595], [139.2958043, 37.9456584], [139.2956787, 37.9459234], [139.2955874, 37.9461983], [139.29555, 37.9463901], [139.2955278, 37.9466767], [139.2955344, 37.9470845], [139.2955775, 37.9478601], [139.2956326, 37.9485677], [139.2956932, 37.9496274], [139.2957129, 37.9499047], [139.2957968, 37.9509928], [139.2958249, 37.9514141], [139.2959869, 37.9534886], [139.2960511, 37.9543561], [139.2960376, 37.9545474], [139.2959996, 37.9547184], [139.2959327, 37.9548944], [139.295846, 37.9550495], [139.2957394, 37.955211], [139.2956249, 37.9553455], [139.2953377, 37.9556638]], [[139.2954175, 37.9557638], [139.2954839, 37.9556858], [139.2957372, 37.9553504], [139.2958301, 37.9552342], [139.2959084, 37.9551189], [139.2960053, 37.9549364], [139.2960821, 37.9547407], [139.2961222, 37.9545734], [139.2961367, 37.9543114], [139.2960922, 37.9534813], [139.2960676, 37.9531333], [139.2960354, 37.9526782], [139.2959459, 37.9514111], [139.2958719, 37.9504444], [139.2958419, 37.9496374], [139.2958107, 37.9492135], [139.2957996, 37.9490633], [139.2957612, 37.9485416], [139.2957115, 37.9478098], [139.2956585, 37.9471602], [139.2956476, 37.946706], [139.2956727, 37.9463917], [139.2957099, 37.9461625], [139.2957917, 37.9459312], [139.2959135, 37.9456844], [139.2960828, 37.9454321], [139.2962743, 37.9452327], [139.2964066, 37.9451], [139.2966944, 37.9449005], [139.296952, 37.9447599], [139.2971447, 37.9446677], [139.2973416, 37.9445889], [139.2975766, 37.9445134], [139.2988381, 37.9441716], [139.3001403, 37.9438228], [139.30133, 37.9435179], [139.3026553, 37.9431753], [139.3047222, 37.9426602], [139.3061951, 37.9422932], [139.3072894, 37.9420204], [139.3087638, 37.9416756], [139.3096099, 37.9414777], [139.3106405, 37.9412367], [139.3124732, 37.9408143], [139.3139267, 37.9404833], [139.3163686, 37.9399465], [139.3167665, 37.9398355], [139.317017, 37.9397463], [139.3172519, 37.9396405], [139.3174413, 37.9395394], [139.3175813, 37.9394452], [139.3177508, 37.939304], [139.3178881, 37.9391519], [139.3180432, 37.9389671], [139.318407, 37.9384966], [139.3199439, 37.9364687], [139.3202159, 37.9361425], [139.3206411, 37.9357297], [139.3207915, 37.935602], [139.32094, 37.9354952], [139.321138, 37.9353709], [139.3222557, 37.934718]], [[138.8839815, 37.7558747], [138.8839077, 37.7558703], [138.8835173, 37.7558511], [138.883425, 37.7558544], [138.883368, 37.7558776], [138.8828917, 37.7568026], [138.8824934, 37.7574122], [138.8823703, 37.7575041], [138.8822452, 37.7575998], [138.881174, 37.7581398], [138.8809223, 37.7582758], [138.8802095, 37.7586596], [138.880101, 37.7587019], [138.8797907, 37.7588015], [138.8792812, 37.7589286], [138.8792061, 37.7589485], [138.8788033, 37.7590745], [138.8782322, 37.7592422], [138.8781632, 37.7592624], [138.8779307, 37.7593394], [138.8777666, 37.7594205], [138.8776299, 37.7594935], [138.8775324, 37.7595408], [138.8772572, 37.7596557], [138.8769051, 37.7597354], [138.876476, 37.7597881], [138.876011, 37.7598003], [138.8756982, 37.759753], [138.8752776, 37.75958], [138.875213, 37.759559], [138.874999, 37.7594381], [138.8748417, 37.759303], [138.8745767, 37.7589637], [138.8744732, 37.7588559], [138.874395, 37.7588072], [138.8741716, 37.7587205], [138.8739545, 37.7586448], [138.8736724, 37.7585975], [138.8734092, 37.7585907], [138.8725476, 37.7586826], [138.8723074, 37.7587218], [138.872233, 37.758734], [138.8719495, 37.7588392], [138.8716889, 37.7589708], [138.8711249, 37.7592983], [138.8707768, 37.7594675], [138.8707072, 37.7595013], [138.8705007, 37.759586], [138.8702799, 37.7596291], [138.8701019, 37.7596708], [138.8698793, 37.759708], [138.8691982, 37.7597246], [138.8683813, 37.7597756], [138.8681008, 37.7597931], [138.8674046, 37.7598125], [138.8669362, 37.7598129], [138.8664894, 37.7598098], [138.8663375, 37.7595076], [138.8662205, 37.7592749], [138.8659943, 37.7588392], [138.8655737, 37.7582692], [138.8653565, 37.7580417], [138.865077, 37.757749], [138.8648868, 37.7575443], [138.8646725, 37.757326], [138.8643906, 37.7570156], [138.8639741, 37.7566219], [138.8634365, 37.7561995], [138.8632652, 37.7560813], [138.8625095, 37.7556227], [138.8614586, 37.7550862], [138.8605524, 37.7546581], [138.8602007, 37.7544894], [138.8595838, 37.7541219], [138.8594025, 37.7540076], [138.8584489, 37.7533266], [138.8583491, 37.753262], [138.8574627, 37.7527182], [138.8571866, 37.7525945], [138.8564756, 37.7523178], [138.8553187, 37.7519044], [138.8552102, 37.7518656], [138.8549564, 37.7517749], [138.8544157, 37.7515713], [138.8539515, 37.7514342], [138.8537722, 37.7513591], [138.8536984, 37.7513308], [138.8531275, 37.7511468], [138.8528276, 37.751044], [138.8526723, 37.7509619], [138.8523728, 37.7507784], [138.852227, 37.7506891]], [[138.8515088, 37.7511725], [138.8517442, 37.7510773], [138.851998, 37.7508922], [138.8521125, 37.7507907], [138.852227, 37.7506891], [138.8523348, 37.7505998], [138.8528598, 37.7501645], [138.8546197, 37.7486868], [138.8555566, 37.7479481], [138.8560403, 37.7475731], [138.8563312, 37.7473707], [138.8566194, 37.7472182], [138.8569217, 37.7470943], [138.8572317, 37.7469634], [138.8575077, 37.7469005], [138.8578458, 37.7468432], [138.8581701, 37.7468169], [138.8585119, 37.7468154], [138.8588515, 37.7468436], [138.8591653, 37.746895], [138.8594209, 37.7469754], [138.8596974, 37.7470608], [138.859988, 37.7471671], [138.8603138, 37.7473182], [138.8605704, 37.7474661], [138.862047, 37.7485811], [138.862792, 37.7490901], [138.863115, 37.7492395], [138.8635829, 37.7494177], [138.864025, 37.7494987], [138.8645776, 37.7495381], [138.864675, 37.7495403], [138.8647783, 37.7495491], [138.8676068, 37.7495782], [138.8690694, 37.7495731], [138.8705647, 37.7495679], [138.8729534, 37.7495707], [138.8753082, 37.749586], [138.8754217, 37.7495881], [138.8758075, 37.7495819], [138.876069, 37.7495652], [138.8763034, 37.7495517], [138.8764443, 37.749531], [138.8764939, 37.749523], [138.8766163, 37.7495021], [138.8766454, 37.7494964], [138.8771127, 37.7494047], [138.8778107, 37.7491912], [138.8790301, 37.7487716], [138.880222, 37.7483485], [138.8814332, 37.7479462], [138.8826295, 37.747533], [138.8840592, 37.7470291], [138.8850406, 37.7467743], [138.8857203, 37.7466586], [138.8859702, 37.7466103], [138.8863825, 37.7465611], [138.8868192, 37.746532], [138.8870468, 37.746519], [138.8871304, 37.7465109], [138.887478, 37.7465005], [138.8879855, 37.7465061], [138.8886583, 37.7465441], [138.8889472, 37.7465637], [138.8895175, 37.746614], [138.8902746, 37.7466771], [138.8908626, 37.7467199], [138.8925236, 37.7468761], [138.892887, 37.746914], [138.893965, 37.747021], [138.894107, 37.747026], [138.894341, 37.747049], [138.8956213, 37.7471671], [138.8956904, 37.7471733], [138.8957638, 37.7471842], [138.8969158, 37.7472993], [138.8981902, 37.747409], [138.8988633, 37.7474774], [138.899392, 37.747528], [138.899543, 37.747543], [138.8998746, 37.7475584], [138.900041, 37.7475662]], [[138.8528276, 37.751044], [138.8527005, 37.7510828], [138.8523451, 37.7511232], [138.852091, 37.7511497], [138.8516004, 37.7512534], [138.8515523, 37.7512239], [138.8515088, 37.7511725], [138.8512422, 37.7511921], [138.8497837, 37.7513315], [138.849066, 37.7514196], [138.8490028, 37.7514395], [138.8488904, 37.7514958], [138.8488024, 37.7515553], [138.8487476, 37.7515948], [138.848665, 37.7516744], [138.8484417, 37.7518857], [138.8482823, 37.7521154], [138.8481865, 37.752296], [138.8480731, 37.7526891], [138.8478777, 37.7533305], [138.8478142, 37.7534376], [138.8476619, 37.7535513], [138.8474899, 37.753617], [138.8471008, 37.7536549], [138.8462266, 37.7537408], [138.845857, 37.753861], [138.8455794, 37.7539381], [138.8454046, 37.7540329], [138.8451858, 37.7541893], [138.8444303, 37.754743], [138.8442667, 37.7548199], [138.8440421, 37.7548854], [138.8437129, 37.7549681], [138.8429336, 37.755066], [138.8428387, 37.755076], [138.8426692, 37.7551077], [138.8423905, 37.7551799], [138.8414705, 37.7554322], [138.84115, 37.755519], [138.8402016, 37.7557826], [138.84004, 37.7558484], [138.8396409, 37.7560166], [138.8385818, 37.756421], [138.8384902, 37.7564577], [138.8384393, 37.7564933], [138.8382779, 37.7565738], [138.8379248, 37.756714], [138.8373518, 37.7570251], [138.8365963, 37.7573754], [138.8360439, 37.7576803], [138.8354886, 37.758049], [138.8352421, 37.7581989], [138.8350828, 37.7583043], [138.8347188, 37.7584773], [138.8345603, 37.7585438], [138.8344782, 37.7585707], [138.8340596, 37.758652], [138.8323823, 37.7590023], [138.8321289, 37.7590552], [138.8315254, 37.7591812], [138.8306709, 37.7593765], [138.82979, 37.7596121], [138.828132, 37.7602265], [138.8278434, 37.7603876], [138.8276152, 37.7605874], [138.8274473, 37.7608126], [138.8272909, 37.7611478], [138.8268811, 37.7621214], [138.826673, 37.7624201], [138.8264437, 37.7626703], [138.8260573, 37.7629271], [138.8247154, 37.7637194], [138.8189857, 37.7672816], [138.8184375, 37.7674662], [138.8178698, 37.7675852], [138.8173548, 37.7676547], [138.8171776, 37.7676936], [138.8169753, 37.767742], [138.8168226, 37.7678158], [138.8167003, 37.7678969], [138.8165928, 37.7679886], [138.8163221, 37.7682695], [138.8161891, 37.768446], [138.8161106, 37.7685206], [138.8160043, 37.7685635], [138.8158801, 37.7685699], [138.8157327, 37.7685354], [138.8155329, 37.7684446], [138.8159223, 37.7680314], [138.816112, 37.7678596], [138.8162608, 37.7677653], [138.8164559, 37.7676668], [138.8167097, 37.7675396], [138.8169038, 37.7674445], [138.8171128, 37.7673057], [138.8172733, 37.7671684], [138.8174196, 37.7670082], [138.8175296, 37.7668345], [138.8176391, 37.7666252], [138.8176779, 37.766457], [138.8176711, 37.766275], [138.8176199, 37.7660787], [138.817453, 37.7658014], [138.8139224, 37.7611985], [138.8135347, 37.7606431], [138.8134629, 37.760536], [138.8134206, 37.7604365], [138.8134018, 37.7603081], [138.8134048, 37.7601552], [138.8134285, 37.7600436], [138.8134789, 37.7599311], [138.813526, 37.7598503], [138.8138785, 37.7594466], [138.8140092, 37.7593087], [138.814145, 37.7591199], [138.8141948, 37.7590285], [138.8142196, 37.7589099], [138.8142221, 37.7587749], [138.8141989, 37.7586513], [138.8141405, 37.7585158], [138.8140775, 37.7584122], [138.8139536, 37.7582723], [138.813802, 37.7581428], [138.8135455, 37.757875], [138.8133838, 37.7576412], [138.8132418, 37.7574074], [138.8107939, 37.7530988], [138.8106354, 37.7528835], [138.8104698, 37.7526995], [138.8104517, 37.7526852], [138.8103623, 37.7526148], [138.8103335, 37.7525921], [138.8101957, 37.7525078], [138.8098754, 37.7523667], [138.8095782, 37.7522662], [138.8093149, 37.7522238], [138.8085703, 37.7521109], [138.8078871, 37.7520061], [138.8073629, 37.7519369], [138.8070623, 37.7518978], [138.8068566, 37.7518775], [138.806631, 37.7518744], [138.8064301, 37.7518828], [138.8062447, 37.7519038], [138.806069, 37.7519318], [138.8058472, 37.7519741], [138.8056347, 37.7520296], [138.8053812, 37.7521059], [138.8051145, 37.7521903], [138.8048546, 37.7522701], [138.8046759, 37.7523197], [138.8045198, 37.7523458], [138.8043328, 37.7523742], [138.8040434, 37.7523741], [138.8038503, 37.7523663], [138.803674, 37.7523299], [138.8034513, 37.7522618], [138.8030933, 37.7521502], [138.8027868, 37.7520331], [138.8025284, 37.7519586], [138.8023072, 37.7519119], [138.80203, 37.7518867], [138.801648, 37.7518492], [138.8013174, 37.7518245], [138.8010707, 37.7517952], [138.8008994, 37.7517482], [138.8007391, 37.7516857], [138.8005762, 37.7515912], [138.8004369, 37.7514836], [138.8002774, 37.7513111], [138.8001918, 37.7511774], [138.7999801, 37.7507492], [138.7997401, 37.7502399], [138.7996624, 37.7500726], [138.7996171, 37.7499087], [138.7996023, 37.7497476], [138.7996066, 37.7495338], [138.7997123, 37.7491403], [138.7998139, 37.7486466], [138.7998372, 37.7484578], [138.7998599, 37.7482521], [138.7998652, 37.748086], [138.7998394, 37.7479277], [138.7997964, 37.7477996], [138.7996299, 37.7474685], [138.7994492, 37.7470439], [138.7992392, 37.7466138], [138.7991921, 37.7464553], [138.7991746, 37.7463612], [138.7991777, 37.7462672], [138.7992039, 37.7461498], [138.7992583, 37.7460104], [138.7995202, 37.7453397], [138.7995774, 37.7451567], [138.7995885, 37.7450439], [138.7995936, 37.744929], [138.7995569, 37.7448313], [138.7995096, 37.7447456], [138.7994148, 37.7446211], [138.7993071, 37.7445486], [138.7992035, 37.7444935], [138.7991053, 37.7444652], [138.7989488, 37.7444349], [138.7987469, 37.7443958], [138.798556, 37.7443429], [138.7983936, 37.7442872], [138.7982644, 37.7442181], [138.7981749, 37.7441717], [138.7980534, 37.7440607], [138.7978959, 37.7438216], [138.7975962, 37.7434253], [138.7974871, 37.7432971], [138.7973982, 37.7432254], [138.796988, 37.7429993], [138.7967498, 37.7428779], [138.7966011, 37.7427857], [138.7964934, 37.7426721], [138.7964241, 37.742547], [138.7963982, 37.7424353], [138.7964039, 37.7423415], [138.7964217, 37.742241], [138.7964665, 37.7421345], [138.7965509, 37.7420176], [138.7966883, 37.7418461], [138.796829, 37.7416947], [138.7968976, 37.7416025], [138.7969812, 37.7414719], [138.7970127, 37.7413579], [138.7970139, 37.7411804], [138.7969667, 37.7409085], [138.7969594, 37.7407105], [138.7969998, 37.7404573], [138.7970599, 37.7401875], [138.797073, 37.740038], [138.7968208, 37.7386043], [138.7967632, 37.7384323], [138.7964476, 37.7375716], [138.7962278, 37.7369196], [138.7961635, 37.7366397], [138.7961193, 37.7363367], [138.795998, 37.7352747], [138.7959518, 37.7349873], [138.7959454, 37.7349095], [138.7958437, 37.7345758], [138.7957425, 37.7343285], [138.7953389, 37.7337226], [138.7950258, 37.733142], [138.794846, 37.7327779], [138.7946907, 37.7324294], [138.7945475, 37.7320491], [138.7941892, 37.7308292], [138.7940904, 37.7305766], [138.7939554, 37.7300185], [138.7938359, 37.7296174], [138.7937716, 37.7293799], [138.7937407, 37.7292454], [138.7937387, 37.7290813], [138.7937608, 37.7288794], [138.7937945, 37.7286405], [138.7939464, 37.7280872], [138.7939834, 37.7278466], [138.7939725, 37.7276127], [138.7938702, 37.7265762], [138.7938156, 37.7263092], [138.7937042, 37.7261007], [138.7935317, 37.7258009], [138.7929534, 37.7250389], [138.7925253, 37.7245998], [138.7923344, 37.7243906], [138.7921863, 37.7242026], [138.7917459, 37.7235314], [138.7915573, 37.7233033], [138.7913822, 37.7231262], [138.7902961, 37.7222054], [138.7900609, 37.722006], [138.7896016, 37.7216115], [138.7890841, 37.721167], [138.7888797, 37.7209914], [138.7886183, 37.7207897], [138.7885492, 37.72073], [138.7883089, 37.720551], [138.7879923, 37.720318], [138.7873675, 37.7198596], [138.7862721, 37.7190776], [138.7861357, 37.7189954], [138.7859595, 37.7188592], [138.7858699, 37.7187799], [138.7857837, 37.7186851], [138.7857128, 37.7186123], [138.7856526, 37.718528], [138.7855894, 37.7183921], [138.7855366, 37.7182369], [138.7855059, 37.7180654], [138.7854991, 37.7177509], [138.7854829, 37.7175862], [138.7854554, 37.7174619], [138.7854112, 37.7173477], [138.7853523, 37.7172415], [138.7852688, 37.7170941], [138.7851496, 37.7169147], [138.7849823, 37.7165863], [138.7848563, 37.7162404], [138.7847919, 37.7160391], [138.7846764, 37.7156719], [138.784638, 37.7155627], [138.7846184, 37.7154636], [138.7846186, 37.7153809], [138.7846284, 37.7153074], [138.7846456, 37.7152083], [138.7846724, 37.7151463], [138.7847112, 37.7150713], [138.7847714, 37.7149979], [138.7848505, 37.7149216], [138.7849544, 37.714846], [138.7850645, 37.7147849], [138.7851485, 37.7147509], [138.7852461, 37.7147337], [138.7853723, 37.7147213], [138.7854633, 37.7146924], [138.7856407, 37.7145906], [138.7857382, 37.714522], [138.7858649, 37.7144125], [138.7860066, 37.7143076], [138.7861456, 37.7141942], [138.7862691, 37.714042], [138.7863754, 37.7139508], [138.7864853, 37.7138748], [138.7865524, 37.7138198], [138.7866483, 37.7137233], [138.786716, 37.7136171], [138.786783, 37.7134708], [138.7869025, 37.7133015], [138.7870304, 37.713191], [138.7871376, 37.7130407], [138.7872136, 37.7128642], [138.7872788, 37.7127205], [138.7873135, 37.7125548], [138.7873029, 37.7124348], [138.7873795, 37.7122148], [138.7874454, 37.7120558], [138.7875289, 37.711924], [138.7877415, 37.7114556], [138.7879535, 37.7110011]], [[138.7864577, 37.6958533], [138.7866852, 37.6973681], [138.7868103, 37.6982168], [138.7868407, 37.6983858], [138.7868671, 37.6985688], [138.7868827, 37.6986839], [138.7869576, 37.6992666], [138.7870066, 37.6997377], [138.7870326, 37.7000467], [138.787043, 37.7002973], [138.7870875, 37.7005409], [138.7871691, 37.7008247], [138.7871851, 37.7009038], [138.7871911, 37.7009588], [138.7872162, 37.7011228], [138.7872037, 37.7012792], [138.7871471, 37.7015477], [138.7869711, 37.7020553], [138.786934, 37.7022217], [138.7868904, 37.7025425], [138.7868423, 37.7028282], [138.7867775, 37.7032084], [138.786702, 37.7036119], [138.7866081, 37.7038943], [138.786492, 37.7041604], [138.7863568, 37.7044395], [138.7862991, 37.704616], [138.7862834, 37.7047738], [138.7862773, 37.7049599], [138.786296, 37.7051237], [138.7863368, 37.7053917], [138.7863164, 37.7055277], [138.7862764, 37.7056424], [138.786242, 37.7057409], [138.7861881, 37.7058275], [138.7861213, 37.7059044], [138.7859893, 37.7060176], [138.7859229, 37.7060673], [138.7858607, 37.7061304], [138.7857989, 37.7062017], [138.7857569, 37.706268], [138.7857207, 37.7063291], [138.7856908, 37.706418], [138.7856726, 37.7065277], [138.7856659, 37.7066887], [138.7856689, 37.7068836], [138.7856851, 37.7069751], [138.7857144, 37.707061], [138.7857511, 37.7071227], [138.7857878, 37.7071641], [138.7858227, 37.7072029], [138.785866, 37.7072401], [138.7859493, 37.7073008], [138.7863789, 37.7075508], [138.7864708, 37.7076009], [138.7865521, 37.7076527], [138.786689, 37.7077599], [138.7868084, 37.7078708], [138.7870329, 37.7080864], [138.7872986, 37.7083353], [138.7874509, 37.7085221], [138.7875675, 37.7086914], [138.787648, 37.7088519], [138.7876978, 37.7089748], [138.7877361, 37.7090693], [138.7877712, 37.7091597], [138.7878188, 37.7092897], [138.7879235, 37.709643], [138.78799, 37.7099084], [138.7880296, 37.7100275], [138.7880552, 37.7101679], [138.7880622, 37.7102546], [138.788067, 37.710343], [138.7880616, 37.7104832], [138.7880531, 37.7105695], [138.7880339, 37.7106943], [138.7880124, 37.7107933], [138.787985, 37.7109172], [138.7879535, 37.7110011]], [[138.7864577, 37.6958533], [138.7864454, 37.6957632], [138.7863421, 37.6950147], [138.7862905, 37.6946837], [138.7862139, 37.6941277], [138.786126, 37.693502], [138.7860559, 37.6930067], [138.7859873, 37.6925362], [138.7859707, 37.6923316], [138.7859703, 37.6921109], [138.7859922, 37.6919036], [138.7860438, 37.6916395], [138.7861337, 37.6913228], [138.7863714, 37.6905604], [138.7865818, 37.689737], [138.7866154, 37.6895911], [138.7866451, 37.6894451], [138.7866865, 37.6890921], [138.7867022, 37.6886909], [138.7867042, 37.688496], [138.7866995, 37.6883011], [138.7866764, 37.6881786], [138.7866535, 37.6880237], [138.7865996, 37.6877872], [138.7864831, 37.6871938], [138.7864579, 37.6870245], [138.7864479, 37.6869817], [138.7864271, 37.6868676], [138.7863771, 37.6866457], [138.7863241, 37.6864411], [138.7862024, 37.6860324], [138.7860855, 37.685584], [138.7860476, 37.6853935], [138.7859817, 37.684905], [138.7858787, 37.684127], [138.7858387, 37.6838829], [138.7857905, 37.6836589], [138.7855388, 37.6828383], [138.7855114, 37.6826993], [138.785493, 37.6825473], [138.7854936, 37.6823816], [138.7855244, 37.6820742], [138.7855266, 37.6820257], [138.7855344, 37.6819576], [138.7855432, 37.6818662], [138.7855548, 37.6817782], [138.7855641, 37.6816535], [138.7855474, 37.6815276], [138.7855199, 37.6814146], [138.7854534, 37.6812531], [138.7852758, 37.6806938], [138.7852431, 37.680596], [138.784982, 37.6798484], [138.784918, 37.6796902], [138.7848187, 37.6793828], [138.7847422, 37.6791734], [138.7846132, 37.6788222], [138.7845741, 37.6786906], [138.7845199, 37.6785128], [138.7844847, 37.6784183], [138.7844099, 37.678183], [138.7843779, 37.6780158], [138.7843818, 37.677742], [138.7844059, 37.6775051], [138.7844269, 37.6772601], [138.7844354, 37.6771631], [138.7844381, 37.6770932], [138.7844312, 37.6770436], [138.7844211, 37.6769731], [138.7843814, 37.676863], [138.7843439, 37.6767855], [138.7843015, 37.6767237], [138.7842192, 37.6766135], [138.7841443, 37.6765174], [138.7840872, 37.6764185], [138.7840302, 37.6762956], [138.7839514, 37.6760617], [138.7838269, 37.6756531], [138.7836704, 37.6751499], [138.7834588, 37.674652], [138.7834453, 37.6746229], [138.7830127, 37.6736876], [138.7829259, 37.6734947], [138.7828241, 37.6732677], [138.7827343, 37.6731268], [138.7826614, 37.6730322], [138.7825328, 37.6728767], [138.7823911, 37.672735], [138.7821164, 37.6724789], [138.7817805, 37.6721735], [138.781617, 37.6720247], [138.7814916, 37.6719125], [138.7809699, 37.6714456], [138.7807083, 37.6712043], [138.7805955, 37.6710846], [138.7804896, 37.6709655], [138.7803796, 37.6708136], [138.7803418, 37.6707332], [138.7802943, 37.67064], [138.7802423, 37.6704892], [138.7802087, 37.6703626], [138.7801892, 37.6702022], [138.7801818, 37.6700793], [138.780202, 37.6697634], [138.7802197, 37.6695204], [138.7802734, 37.6689918], [138.7802781, 37.6688532], [138.7803033, 37.6686932], [138.7803339, 37.6685699], [138.7804055, 37.6683742], [138.7806656, 37.6677404], [138.7807385, 37.6675487], [138.7807824, 37.6674738], [138.780828, 37.6673989], [138.7808954, 37.6673024], [138.7809853, 37.6671853], [138.7811524, 37.6670198], [138.7813403, 37.6668837], [138.7813785, 37.6668583], [138.7817673, 37.6665998], [138.7820484, 37.6664107], [138.7821628, 37.6663435], [138.7824668, 37.6661627], [138.7826069, 37.6660868], [138.7827377, 37.6660228]], [[138.7741955, 37.6513515], [138.7742152, 37.6513669], [138.77435, 37.6515504], [138.7745022, 37.6517545], [138.7745814, 37.6519001], [138.7746648, 37.6521007], [138.7747343, 37.6522601], [138.7749404, 37.6527184], [138.7753279, 37.6535882], [138.77557, 37.6541214], [138.7756801, 37.6543968], [138.7758555, 37.6547818], [138.7760085, 37.6551114], [138.7762537, 37.6556445], [138.7764929, 37.6561858], [138.7765858, 37.6563712], [138.7766289, 37.6564486], [138.7766956, 37.6565388], [138.7767804, 37.6566608], [138.776951, 37.6568769], [138.7774525, 37.6575351], [138.7775599, 37.657688], [138.7778614, 37.6580728], [138.7779193, 37.6581614], [138.7782586, 37.6585863], [138.7783886, 37.6587873], [138.7784691, 37.6589361], [138.7785184, 37.6590673], [138.7786333, 37.6593628], [138.778746, 37.6596337], [138.7788716, 37.6599334], [138.7789644, 37.6601734], [138.7790785, 37.6604133], [138.779163, 37.6605368], [138.7793377, 37.6607603], [138.7797811, 37.6613013], [138.780254, 37.6618693], [138.7803495, 37.6619949], [138.7803866, 37.6620751], [138.7804137, 37.6621438], [138.7804282, 37.6624328], [138.780525, 37.6626264], [138.7806257, 37.6627438], [138.7806608, 37.6627725], [138.7807868, 37.6628761], [138.7809327, 37.6629649], [138.7810442, 37.6630073], [138.7812073, 37.6630563], [138.7814007, 37.6631568], [138.7815289, 37.663243], [138.7816322, 37.6633409], [138.7817009, 37.6634361], [138.7817571, 37.6635477], [138.78183, 37.6637303], [138.7818961, 37.6638889], [138.7826624, 37.6658888], [138.7826832, 37.6659325], [138.7827377, 37.6660228]], [[138.7741955, 37.6513515], [138.7740147, 37.6511071], [138.7739655, 37.6510415], [138.7736176, 37.6505754], [138.7732413, 37.6501248], [138.7729552, 37.6497628], [138.7728276, 37.6496034], [138.772552, 37.6492558], [138.7722897, 37.6489333], [138.7720063, 37.6485373], [138.7717236, 37.6481638], [138.771616, 37.6480205], [138.7714895, 37.6478655], [138.7713926, 37.6477601], [138.771276, 37.6476334], [138.771076, 37.6474311], [138.7706667, 37.6470467], [138.7704156, 37.646845], [138.7703861, 37.6468213], [138.7701211, 37.6466377], [138.7698088, 37.6463707], [138.7697322, 37.6463165], [138.7693404, 37.6459978], [138.7690786, 37.6457819], [138.7689398, 37.6456607], [138.7688393, 37.645544], [138.768795, 37.6454785], [138.7687716, 37.6454218], [138.7687703, 37.6452806], [138.7687829, 37.6451494], [138.7687819, 37.6450887], [138.7687742, 37.645046], [138.7687405, 37.6449861], [138.7686891, 37.6449111], [138.7685458, 37.6447365], [138.7681466, 37.6442689], [138.7678977, 37.6439706], [138.7678675, 37.643934], [138.7677415, 37.6438087], [138.7676198, 37.6437037], [138.7675192, 37.6436229], [138.7673083, 37.6434684], [138.7672306, 37.6433967], [138.7671625, 37.6433377], [138.7670974, 37.6432579], [138.76655, 37.6425338], [138.7660657, 37.6418607], [138.765863, 37.6416651], [138.7656616, 37.64143], [138.7655703, 37.6413113], [138.7654651, 37.6411738], [138.7653286, 37.6409939], [138.7651438, 37.6407363], [138.7648823, 37.6403959], [138.7647249, 37.6401814], [138.7643418, 37.6396727], [138.7642203, 37.6394891], [138.7640878, 37.6392912], [138.7639677, 37.6391013], [138.7638872, 37.6389708], [138.7638145, 37.6388476], [138.7636668, 37.6385952], [138.7635708, 37.6384432], [138.7634913, 37.6383417], [138.763414, 37.6382439], [138.7633172, 37.6381389], [138.7631512, 37.6380103], [138.7629816, 37.6378951], [138.7627927, 37.6377506], [138.7626501, 37.6376357], [138.762545, 37.6375444], [138.7624709, 37.637465], [138.7624233, 37.6374014], [138.7623848, 37.6373446], [138.7623463, 37.6372746], [138.7623187, 37.6371672], [138.7621671, 37.6368592], [138.7620498, 37.63664], [138.7618516, 37.6362601], [138.7616419, 37.6358616], [138.7615694, 37.635716], [138.7615126, 37.6356272], [138.7613895, 37.6353903], [138.7612625, 37.6350271], [138.7612317, 37.6349162], [138.7611701, 37.6347289], [138.7611082, 37.6344977], [138.7610705, 37.6343778], [138.7610432, 37.6342712], [138.7610438, 37.6341966], [138.7610537, 37.6341331], [138.7610915, 37.6340143], [138.7611315, 37.6339497], [138.7611914, 37.6338748], [138.7612534, 37.6338276], [138.7613259, 37.6337748], [138.7614266, 37.6337175], [138.761447, 37.6337078], [138.7616686, 37.6336408], [138.7621599, 37.6334799], [138.7620939, 37.6332471], [138.7620508, 37.6330884], [138.7620246, 37.6329614], [138.7620021, 37.6328489], [138.7619847, 37.6326767], [138.7619719, 37.6324871], [138.76201, 37.6322053], [138.7620427, 37.6320137], [138.7620965, 37.6316655], [138.7621188, 37.6315403], [138.7621509, 37.6313558], [138.7621772, 37.6310897], [138.7621825, 37.6309488], [138.7621895, 37.6307466], [138.7621877, 37.6306265], [138.7621794, 37.6305536], [138.7621587, 37.6304266], [138.7621312, 37.6303005], [138.7620772, 37.6301353], [138.7620216, 37.6299983], [138.7619647, 37.6298764], [138.7618581, 37.6296799], [138.7618079, 37.629601], [138.7617178, 37.6294827], [138.7615835, 37.6293259], [138.7614594, 37.6291668], [138.7613443, 37.6290665], [138.7612343, 37.628972], [138.7608913, 37.62868], [138.7603554, 37.6282622], [138.7600552, 37.6280305], [138.7595632, 37.6276429], [138.7592943, 37.6274019], [138.759138, 37.6272314], [138.7588269, 37.626911], [138.7584177, 37.6264849], [138.758132, 37.626195], [138.7578158, 37.6258899], [138.7576651, 37.6257518], [138.7575887, 37.6256811], [138.7575233, 37.6256159], [138.7574595, 37.6255475], [138.7574192, 37.6255034], [138.7573691, 37.6254438], [138.7573239, 37.6253742], [138.7572871, 37.625307], [138.7572521, 37.625207], [138.7572288, 37.625094], [138.7572151, 37.6249939], [138.7571975, 37.6248607], [138.7571804, 37.6246846], [138.7571516, 37.6244708], [138.7571341, 37.6242726], [138.7570747, 37.6239449], [138.7570274, 37.6236696], [138.75694, 37.6232678], [138.7569024, 37.6230427], [138.7568647, 37.6228813], [138.7568172, 37.6227129], [138.7567696, 37.6225908], [138.7566962, 37.6224241], [138.7566762, 37.6223786], [138.7565828, 37.6222085], [138.7564523, 37.6220003], [138.7563647, 37.6218586], [138.7562399, 37.6216603], [138.7561332, 37.6214923], [138.7560093, 37.6212904], [138.7558967, 37.6211167], [138.7557974, 37.620962], [138.7556832, 37.6207717], [138.7555711, 37.6205299], [138.7554872, 37.6203485], [138.7554125, 37.6202196], [138.7552962, 37.6199756], [138.7551462, 37.619682], [138.7550343, 37.6194236], [138.7549655, 37.6192759], [138.7548538, 37.6190487], [138.7547911, 37.6189139], [138.7547086, 37.618735], [138.7545873, 37.6184816], [138.7543625, 37.6179762], [138.7541912, 37.6176231], [138.7540285, 37.6173077], [138.7536913, 37.6166725], [138.7534219, 37.6161685], [138.753345, 37.6160222], [138.7532657, 37.6158707], [138.753187, 37.6157067], [138.7531368, 37.6155736], [138.7530787, 37.6153219], [138.753052, 37.6151802], [138.7530139, 37.6148965], [138.7529815, 37.6145296], [138.75295, 37.6142397], [138.7528933, 37.6140294], [138.7528471, 37.613886], [138.7527624, 37.6136878], [138.7526344, 37.6134748], [138.7525082, 37.613301], [138.7523839, 37.6131668], [138.7522477, 37.6130375], [138.7520898, 37.612903], [138.7518767, 37.6127474], [138.7516938, 37.6126183], [138.7512383, 37.6123005], [138.7511267, 37.6122214], [138.751021, 37.6121433], [138.7509488, 37.6120817], [138.7508832, 37.6120102], [138.75083, 37.6119323], [138.7507717, 37.6118278], [138.7507357, 37.6117507], [138.7507082, 37.6116551], [138.7506823, 37.611532], [138.75063, 37.6111981], [138.7505488, 37.6105565], [138.75046, 37.6098991], [138.7503965, 37.6093233], [138.7503728, 37.609147], [138.7503445, 37.6090065], [138.7502749, 37.6088], [138.750179, 37.6085885], [138.7500487, 37.6083769], [138.7496852, 37.6078848], [138.7495363, 37.6076761], [138.7494262, 37.6074485], [138.7493538, 37.6072338], [138.7492137, 37.6068734], [138.7491531, 37.6066328], [138.7490713, 37.6062626], [138.7489883, 37.6057518], [138.7489428, 37.6056281], [138.74884, 37.6054688], [138.7487874, 37.6054171], [138.7485364, 37.6052071], [138.7484517, 37.6051295], [138.7480077, 37.6047475], [138.7478322, 37.6045876], [138.7476733, 37.6044531], [138.7473832, 37.6041948], [138.747126, 37.6039216], [138.7469903, 37.6037461], [138.7467244, 37.6034264], [138.7464939, 37.6031465], [138.7463033, 37.6029182], [138.7461692, 37.6027525], [138.7459388, 37.6024785], [138.7456967, 37.6021913], [138.7454744, 37.6019169], [138.7453181, 37.601704], [138.7451541, 37.601456], [138.7449972, 37.6011905], [138.7448219, 37.6009025], [138.7446562, 37.6006326], [138.7445995, 37.6005549], [138.7444755, 37.600454], [138.744329, 37.6003673], [138.744085, 37.6002497], [138.7438314, 37.6001242], [138.7436769, 37.6000406], [138.7433753, 37.5998837], [138.7431345, 37.5997623], [138.7426914, 37.5995634], [138.7423847, 37.5994274], [138.7421801, 37.599339], [138.7418194, 37.5991804], [138.7414739, 37.5990229], [138.7412235, 37.5989037], [138.7410898, 37.5988373], [138.7409124, 37.5987375], [138.7407639, 37.5986215], [138.7406458, 37.5984856], [138.7405475, 37.5983754], [138.7403737, 37.5981673], [138.7402144, 37.5979666], [138.739988, 37.5977199], [138.7398256, 37.5975641], [138.7396997, 37.5974382], [138.7393719, 37.5970746], [138.7391723, 37.5968536], [138.7389893, 37.5966451], [138.7388047, 37.596456], [138.7386535, 37.5963238], [138.7383918, 37.5961013], [138.7382808, 37.5960015], [138.738138, 37.5958424], [138.7378939, 37.595556], [138.7376449, 37.5952679], [138.7374365, 37.5950218], [138.7372362, 37.5948091], [138.7370507, 37.5946573], [138.7368287, 37.5945004], [138.7366292, 37.5943671], [138.7364237, 37.5942271], [138.7362489, 37.5941013], [138.7360786, 37.5939643], [138.7356702, 37.5935715], [138.7350713, 37.5929827], [138.7347257, 37.5926742], [138.7343319, 37.5923621], [138.7339528, 37.5920599], [138.73387, 37.5919867], [138.7337873, 37.5919024], [138.7335614, 37.5916445], [138.7334202, 37.5914288], [138.7333346, 37.5912348], [138.7331933, 37.5907281], [138.7331252, 37.5904824], [138.7330835, 37.5902855], [138.7330694, 37.5901266], [138.7330603, 37.5899187], [138.733067, 37.5894427], [138.7330709, 37.5892411], [138.7330462, 37.5888421], [138.7330417, 37.5887374], [138.7330053, 37.5886011], [138.7329506, 37.5885009], [138.73283, 37.5883239], [138.7326021, 37.5879416], [138.7323684, 37.5875456], [138.7321732, 37.5872373], [138.7320073, 37.5869715], [138.7316073, 37.5864597], [138.7313384, 37.5860902], [138.7311152, 37.5857662], [138.7307781, 37.5853042], [138.7306653, 37.5851313], [138.7305461, 37.5849087], [138.7303453, 37.5844577], [138.7301213, 37.5839255], [138.7299848, 37.5835824], [138.7297755, 37.5827901], [138.7297179, 37.5825709], [138.7296282, 37.5823216], [138.7294576, 37.5819396], [138.7292682, 37.5815944], [138.7288679, 37.5809883], [138.7285858, 37.5805818], [138.7283124, 37.5801846], [138.7280451, 37.5797973], [138.7279535, 37.5796318], [138.7278718, 37.5794368], [138.7278188, 37.5792847], [138.7277679, 37.5791356], [138.7277025, 37.5789949], [138.7276236, 37.5788473], [138.7273539, 37.578484], [138.7271113, 37.5780724], [138.7269482, 37.5777988], [138.7268145, 37.577589], [138.7266771, 37.5773748], [138.7265563, 37.5772169], [138.7264119, 37.5770509], [138.7262882, 37.5769227], [138.7261666, 37.5767403], [138.7261004, 37.5766441], [138.7259933, 37.5764449], [138.7257425, 37.575928], [138.7256238, 37.5756538], [138.7254985, 37.5753695], [138.7254039, 37.5751554], [138.7253235, 37.5749192], [138.725262, 37.5747155], [138.7252034, 37.5745639], [138.725104, 37.5743874], [138.7249751, 37.5741798], [138.7248249, 37.5739965], [138.7246647, 37.5738233], [138.7245293, 37.57367], [138.7244295, 37.5735338], [138.7243555, 37.5734257], [138.7241666, 37.5731239], [138.723968, 37.5728183], [138.723782, 37.5725204], [138.72361, 37.5722354], [138.7234119, 37.5719392], [138.7232543, 37.571684], [138.7231771, 37.5715492], [138.7230479, 37.5713043], [138.722873, 37.5710628], [138.722704, 37.570812], [138.7224882, 37.5705119], [138.7223034, 37.5702638], [138.7221216, 37.5700202], [138.7220071, 37.5698704], [138.72183, 37.5696485], [138.7216901, 37.569467], [138.7215823, 37.5693317], [138.7214536, 37.569158], [138.7213271, 37.5689884], [138.7212138, 37.5688396], [138.7210806, 37.5686632], [138.7209633, 37.5685117], [138.7208202, 37.5683279], [138.720681, 37.568156], [138.7205197, 37.5679427], [138.720369, 37.5677261], [138.7202038, 37.5674632], [138.7200529, 37.5672086], [138.7199436, 37.5670107], [138.7198389, 37.5668211], [138.7197423, 37.5666648], [138.7196179, 37.5664513], [138.7195095, 37.5663062], [138.7194169, 37.5661701], [138.7192963, 37.5660097], [138.7191584, 37.5658204], [138.7190074, 37.5656269], [138.7188469, 37.5654132], [138.7187237, 37.5652595], [138.7186153, 37.5651092], [138.7185332, 37.5649994], [138.7184315, 37.5648766], [138.7183713, 37.5647923], [138.7182896, 37.5646704], [138.7182077, 37.564519], [138.7181363, 37.5643672], [138.7180808, 37.5642175], [138.7179931, 37.5639277], [138.7179269, 37.5637607], [138.7178646, 37.56362], [138.7177718, 37.5634621], [138.7176394, 37.5632684], [138.7175252, 37.5631203], [138.7173741, 37.5629616], [138.7169085, 37.5625492], [138.7167686, 37.562416], [138.7166093, 37.5622513], [138.7163496, 37.5619191], [138.7158585, 37.5612424], [138.7156114, 37.5609054], [138.7154524, 37.560685], [138.7152035, 37.5604393], [138.714996, 37.5602417], [138.7146516, 37.5599357], [138.7144806, 37.5597745], [138.71431, 37.5596045], [138.7141723, 37.5594518], [138.7140338, 37.5592802], [138.7139428, 37.5591693], [138.7136637, 37.5588415], [138.7135019, 37.5586472], [138.7133236, 37.5583302], [138.7130027, 37.5580697], [138.7127902, 37.5579013], [138.7125544, 37.5577082], [138.7122259, 37.5574691], [138.711994, 37.5572927], [138.7118324, 37.5571673], [138.7115276, 37.5569259], [138.7111278, 37.5566009], [138.71084, 37.5563815], [138.7104956, 37.5561098], [138.7101548, 37.5558067], [138.7098703, 37.5555553], [138.7095803, 37.5553343], [138.7094501, 37.5552378], [138.7092743, 37.5551404], [138.7089674, 37.5549662], [138.7086831, 37.5548124], [138.7081154, 37.5545446], [138.7078805, 37.5544373], [138.7076519, 37.5543131], [138.7073134, 37.5541007], [138.707167, 37.5539962], [138.707009, 37.5539217], [138.7069187, 37.5538659], [138.7067289, 37.5537984], [138.7064564, 37.5537533], [138.7062968, 37.5537341], [138.7061255, 37.5536745], [138.7044266, 37.5531365], [138.7038687, 37.5529051], [138.7021448, 37.5521232], [138.7017439, 37.5519351], [138.7008903, 37.5515918], [138.6995085, 37.5509386], [138.6988122, 37.5503661], [138.6983219, 37.549957], [138.6977532, 37.5494985], [138.6970816, 37.5489303], [138.6962984, 37.5481468], [138.6956906, 37.5475336], [138.6950538, 37.5468718], [138.6945936, 37.5465477], [138.6941419, 37.5463384], [138.693155, 37.5458533], [138.6920476, 37.5453499], [138.6909514, 37.5448504], [138.6906797, 37.5447409], [138.6904029, 37.5446469], [138.6901751, 37.5445727], [138.6895628, 37.5444827], [138.6889835, 37.5443964], [138.6877325, 37.5441378], [138.6872344, 37.5439534], [138.6869212, 37.5437238], [138.6867589, 37.5436404], [138.6866814, 37.5435493], [138.6865322, 37.5433226], [138.6863283, 37.5429969], [138.6861199, 37.5426814], [138.6858966, 37.5424262], [138.6855048, 37.5420139], [138.6852394, 37.5417656], [138.6848483, 37.5414555], [138.6844376, 37.5411768], [138.6841722, 37.5410127], [138.6837052, 37.5407587], [138.6834432, 37.5406027], [138.6831437, 37.5403908], [138.6829227, 37.5402246], [138.6826402, 37.540015], [138.6824489, 37.5398703], [138.6822689, 37.5397519], [138.6821412, 37.5396978], [138.6820494, 37.5396655], [138.6818817, 37.5396209], [138.6814591, 37.5395503], [138.6812197, 37.5394886], [138.6811237, 37.5394618], [138.6808588, 37.5393657], [138.6806224, 37.5392607], [138.6802699, 37.5390892], [138.6801092, 37.5390111], [138.679975, 37.5389443], [138.6797848, 37.5388657], [138.6794442, 37.5387427], [138.6791344, 37.5386539], [138.6785558, 37.5384921], [138.678025, 37.538327], [138.6774635, 37.5381231], [138.6772163, 37.5380286], [138.6769578, 37.5378942], [138.6766423, 37.5376812], [138.6762844, 37.5374216], [138.6757822, 37.5370603], [138.6753806, 37.5367796], [138.6744455, 37.5361144], [138.6735237, 37.5354726], [138.6735033, 37.5354581], [138.67326, 37.5352853], [138.6730367, 37.5351412], [138.6728499, 37.535029], [138.6725493, 37.5348986], [138.6720333, 37.5346941], [138.6717628, 37.5345837], [138.6711602, 37.5343496], [138.6709416, 37.5342476], [138.6707832, 37.5341628], [138.6706135, 37.5340586], [138.670511, 37.5339828], [138.6704239, 37.5339037], [138.6703362, 37.5338165], [138.6702416, 37.5337015], [138.670167, 37.5335944], [138.6700104, 37.5333473], [138.6697342, 37.5328974], [138.6696254, 37.5327385], [138.6695457, 37.5326337], [138.6694529, 37.5325289], [138.669343, 37.532427], [138.6692234, 37.5323364], [138.6691146, 37.5322686], [138.6689933, 37.5322003], [138.6684984, 37.5319452], [138.6683481, 37.5318495], [138.668245, 37.531772], [138.6681652, 37.5317031], [138.6680792, 37.5316177], [138.6680308, 37.5315647], [138.667822, 37.531286], [138.6677364, 37.5311621], [138.6676447, 37.5310465], [138.6675804, 37.5309764], [138.6675052, 37.5309047], [138.6669368, 37.5304869], [138.6668486, 37.5304132], [138.6665057, 37.5301615], [138.6662717, 37.5299838], [138.6661606, 37.5298921], [138.6660404, 37.5297885], [138.6659368, 37.5296854], [138.6658069, 37.5295328], [138.6657022, 37.529387], [138.6656144, 37.529248], [138.6655142, 37.529051], [138.6650734, 37.5281232], [138.6649572, 37.5279074], [138.664857, 37.5277343], [138.664771, 37.527605], [138.6646736, 37.5274746], [138.6645108, 37.527273], [138.6640745, 37.5268345], [138.662571, 37.5253652], [138.6617732, 37.5245861], [138.6614429, 37.5242808], [138.6611057, 37.5240228], [138.6609235, 37.5238993], [138.6606268, 37.523721], [138.6602327, 37.5235154], [138.6595371, 37.5231653], [138.6589137, 37.5228354], [138.6586933, 37.5226925], [138.6584763, 37.5225251], [138.6582078, 37.522294], [138.6579962, 37.5220814], [138.6576033, 37.5216708], [138.6573806, 37.5214715], [138.6571175, 37.5212704], [138.6565696, 37.5208912], [138.6563153, 37.5206741], [138.6561791, 37.5205162], [138.6560834, 37.5203764], [138.6559933, 37.5202112], [138.6559557, 37.5201189], [138.6559318, 37.5200517], [138.6558931, 37.5199105], [138.6558712, 37.5197909], [138.6558145, 37.5191771], [138.6558239, 37.5190538], [138.6558361, 37.5189697], [138.655864, 37.5188864], [138.6558954, 37.5188], [138.6561466, 37.5182423], [138.6561771, 37.5181738], [138.6562325, 37.5180209], [138.6562873, 37.5178349], [138.6564102, 37.5171256], [138.6564625, 37.516804], [138.6564901, 37.5166347], [138.6565047, 37.5165026], [138.6565024, 37.5164303], [138.6564928, 37.5163727], [138.6564694, 37.5163112], [138.6564358, 37.5162435], [138.6564048, 37.5162048], [138.656095, 37.515909], [138.6558634, 37.5156904], [138.6558441, 37.5156723], [138.6557649, 37.5155971], [138.6556778, 37.5155139], [138.6551846, 37.5151067], [138.654958, 37.5149137], [138.6548577, 37.5148134], [138.6547854, 37.5147257], [138.6545661, 37.5143983], [138.6544807, 37.5142929], [138.6543919, 37.5142223], [138.6542985, 37.5141506], [138.6541857, 37.5140845], [138.6534135, 37.5137439], [138.6532996, 37.513679], [138.6532062, 37.5136112], [138.6531321, 37.5135457], [138.652934, 37.5133384], [138.6528554, 37.513261], [138.6527677, 37.5131482], [138.6525229, 37.5127281], [138.6523063, 37.5123438], [138.6522346, 37.5122165], [138.6521116, 37.5120445], [138.6520125, 37.5119261], [138.6519009, 37.5118247], [138.6517688, 37.5117245], [138.6513633, 37.5114944], [138.6511833, 37.5113771], [138.6510535, 37.5112746], [138.6509248, 37.5111311], [138.6505853, 37.5106789], [138.6505307, 37.5106071], [138.6504777, 37.5105325], [138.6502092, 37.5101586], [138.6501297, 37.5100285], [138.6500614, 37.5098975], [138.6499731, 37.509669], [138.6495601, 37.5084445], [138.6493894, 37.5078166], [138.6492584, 37.50732], [138.6491866, 37.5070637], [138.6490238, 37.5064145], [138.6489873, 37.5062749], [138.6489401, 37.5061479], [138.6488803, 37.5060363], [138.6488051, 37.5059224], [138.6487459, 37.5058461], [138.6486866, 37.5057812], [138.6485909, 37.5056946], [138.6484749, 37.5055986], [138.6483973, 37.5055506], [138.64831, 37.5054965], [138.6480293, 37.5053438], [138.6472204, 37.5049038], [138.6465338, 37.5044816], [138.6451605, 37.5035692], [138.6448086, 37.5032628], [138.6443537, 37.5028951], [138.6437872, 37.5023095], [138.6433572, 37.5018619], [138.6432627, 37.5017571], [138.6431534, 37.5016215], [138.643044, 37.5014439], [138.6429031, 37.501152], [138.6426628, 37.5006208], [138.6424859, 37.5002342], [138.6423128, 37.4998367], [138.6421899, 37.4995077], [138.6421255, 37.4993237], [138.6420793, 37.499208], [138.6420212, 37.4990747], [138.6418948, 37.4988572], [138.6416829, 37.4986829], [138.6415736, 37.4986066], [138.6414095, 37.4985121], [138.6410485, 37.4983389], [138.6406328, 37.4981214], [138.6404437, 37.4980177], [138.640108, 37.4978092], [138.6397557, 37.4975804], [138.6391361, 37.4971908], [138.6387796, 37.496963], [138.6385387, 37.496848], [138.638193, 37.4967062], [138.6379908, 37.4966162], [138.6378376, 37.4965393], [138.6376651, 37.4964397], [138.6372795, 37.4961726], [138.6371662, 37.4961008], [138.6369834, 37.4960177], [138.6368063, 37.4959311], [138.6365352, 37.4957859], [138.6362989, 37.4956737], [138.6358908, 37.4955068], [138.635595, 37.4953924], [138.6353939, 37.4952961], [138.6352299, 37.4952044], [138.6349178, 37.4950079], [138.6348068, 37.4949265], [138.6347128, 37.4948365], [138.6346314, 37.4947317], [138.6345727, 37.4946355], [138.6345243, 37.4945284], [138.6344793, 37.4943633], [138.6344571, 37.4942351], [138.6344145, 37.4939882], [138.6343466, 37.4934777], [138.634317, 37.493308], [138.6342612, 37.4930995], [138.6341746, 37.4928934], [138.6340025, 37.4925105], [138.6338284, 37.4920323], [138.633776, 37.4918979], [138.63376, 37.491825], [138.6337364, 37.4917205], [138.6336837, 37.4911427], [138.6336381, 37.4907099], [138.6336268, 37.4906131], [138.6335994, 37.4904707], [138.6335618, 37.4903591], [138.6335186, 37.490235], [138.6334081, 37.4899593], [138.6333124, 37.4897349], [138.6332691, 37.4896153], [138.6332349, 37.4894798], [138.6332179, 37.4892758], [138.6332053, 37.4891256], [138.6331894, 37.4889775], [138.6331552, 37.488818], [138.6331028, 37.4886643], [138.6329969, 37.4884672], [138.6327214, 37.488021], [138.6326558, 37.4879285], [138.6326279, 37.4879011], [138.6325436, 37.4878396], [138.6324376, 37.487777], [138.6322873, 37.4876916], [138.6320823, 37.4876141], [138.6317531, 37.4875048], [138.6310993, 37.4872849], [138.6307827, 37.4871859], [138.630557, 37.4870912], [138.6303612, 37.4869831], [138.6301505, 37.4868476], [138.6299011, 37.4866881], [138.6295696, 37.4865184], [138.6289295, 37.4862075], [138.6287666, 37.4861163], [138.6286265, 37.4860264], [138.6284808, 37.4859204], [138.6282826, 37.4857872], [138.6280662, 37.4856391], [138.6279124, 37.4855503], [138.6277529, 37.4854648], [138.6275137, 37.4853646], [138.627303, 37.4852849], [138.6271755, 37.4852359], [138.6269636, 37.4851562], [138.6266686, 37.4850514], [138.626344, 37.4849352], [138.6260796, 37.4848524], [138.6258005, 37.4847701], [138.6255822, 37.4847097], [138.6251713, 37.4846171], [138.6247376, 37.4845045], [138.6244456, 37.4844298], [138.6225021, 37.4839044], [138.621878, 37.4837335], [138.621477, 37.4836014], [138.621108, 37.4834488], [138.6207526, 37.4832597], [138.6204087, 37.4830615], [138.6200875, 37.4828315], [138.6197913, 37.4825695], [138.6195453, 37.4823144], [138.6193015, 37.4820501], [138.6191034, 37.481754], [138.618928, 37.4814373], [138.6187412, 37.4810022], [138.6186865, 37.4807813], [138.618609, 37.4804487], [138.618568, 37.4801297], [138.6185566, 37.4799156], [138.6185635, 37.4796924], [138.6186307, 37.4792524], [138.618674, 37.4790395], [138.6186997, 37.4789091], [138.618735, 37.4786978], [138.6187509, 37.4785491], [138.6187571, 37.478411], [138.6187596, 37.4782835], [138.6187623, 37.4781396], [138.6187631, 37.4779951], [138.6187651, 37.4779489], [138.6187631, 37.4775971], [138.6187081, 37.4769793], [138.618674, 37.4766011], [138.6186029, 37.4760737], [138.6185393, 37.4755373], [138.6185114, 37.4753628], [138.6184762, 37.4751491], [138.618452, 37.4750406], [138.6182966, 37.4744983], [138.6182458, 37.4742599], [138.6181907, 37.4739656], [138.6180335, 37.4731992], [138.6180008, 37.4730566], [138.6179704, 37.4729609], [138.6179148, 37.4728299], [138.6177932, 37.4725546], [138.6176705, 37.472298], [138.6175782, 37.4721021], [138.6175246, 37.4720077], [138.6174575, 37.4719244], [138.6173801, 37.4718526], [138.6172447, 37.471743], [138.6171215, 37.4716442], [138.6170201, 37.4715519], [138.616957, 37.4714802], [138.6168994, 37.4713834], [138.6167372, 37.4710911], [138.6165401, 37.4706968], [138.6162371, 37.4701026], [138.6160239, 37.4696332], [138.6159734, 37.4694949], [138.615884, 37.4692425], [138.6157148, 37.4688669], [138.6153715, 37.4681442], [138.6148158, 37.4670001], [138.6146453, 37.4666702], [138.6144562, 37.4663342], [138.6139414, 37.4654401], [138.6136373, 37.4649343], [138.6133605, 37.4644879], [138.6132125, 37.4642407], [138.6130667, 37.4639764], [138.61293, 37.4637042], [138.6128263, 37.4634798], [138.6126555, 37.4630607], [138.6125496, 37.4628226], [138.6124271, 37.4625561], [138.6122352, 37.4621586], [138.6121099, 37.4619262], [138.6120336, 37.4617901], [138.6119419, 37.4616318], [138.6116919, 37.4612292], [138.6115533, 37.4609754], [138.6114586, 37.4607636], [138.6113776, 37.4605398], [138.6112354, 37.4601019], [138.6109353, 37.4592517], [138.6108502, 37.4589637], [138.610652, 37.4580867], [138.6105871, 37.4577996], [138.6105631, 37.4577005], [138.6104859, 37.4574456], [138.6103816, 37.457144], [138.610243, 37.4567331], [138.6101125, 37.4564252], [138.6098202, 37.4557098], [138.6097926, 37.4556435], [138.6097197, 37.455504], [138.6096218, 37.4553434], [138.6094663, 37.4551236], [138.6093171, 37.4549111], [138.609263, 37.4548308], [138.6091747, 37.4546839], [138.6091081, 37.4545643], [138.6087499, 37.4538012], [138.6086815, 37.4536759], [138.6086098, 37.453554], [138.608354, 37.4531799], [138.607399, 37.4517725], [138.6067384, 37.450788], [138.6062976, 37.4501478], [138.6059862, 37.4497204], [138.6056928, 37.4492742], [138.6054866, 37.4489154], [138.6053921, 37.4486922], [138.6053237, 37.44851], [138.6052827, 37.4483448], [138.6052668, 37.4482548], [138.6052531, 37.4481261], [138.605244, 37.448027], [138.6052406, 37.4478539], [138.6053019, 37.4464169], [138.6053283, 37.4457114], [138.6053454, 37.4454757], [138.6053773, 37.4452843], [138.6054023, 37.4451545], [138.6054433, 37.4450109], [138.6055083, 37.444839], [138.6055789, 37.4446932], [138.6056734, 37.4445257], [138.6057884, 37.4443355], [138.6058773, 37.4442262], [138.6060128, 37.4440724], [138.6061677, 37.4439232], [138.6063648, 37.4437603], [138.6065698, 37.443602], [138.6068067, 37.4434676], [138.6071325, 37.4433036], [138.6075288, 37.4431715], [138.6081629, 37.4429473], [138.6095446, 37.4424873], [138.6101281, 37.4422859], [138.6104322, 37.4421839], [138.6105901, 37.4421087], [138.6111007, 37.4418502], [138.6113878, 37.4416361], [138.6116702, 37.4413798], [138.6118946, 37.4411076], [138.6120176, 37.4409185], [138.6120917, 37.4407351], [138.6121431, 37.4405444], [138.612217, 37.4400757], [138.6121896, 37.4393513], [138.612135, 37.4384492], [138.6120754, 37.4376426], [138.6120245, 37.43726], [138.6119356, 37.436629], [138.6118217, 37.4356825], [138.6117887, 37.4354251], [138.6117431, 37.4350663], [138.6116671, 37.434595], [138.6115757, 37.4339228], [138.6115176, 37.4335002], [138.6114368, 37.4328965], [138.6113923, 37.4326175], [138.6113434, 37.4323635], [138.6112796, 37.4321266], [138.6112067, 37.4318988], [138.6110859, 37.4316038], [138.6108445, 37.4311248], [138.6105438, 37.4305012], [138.6103763, 37.4301561], [138.6095597, 37.4284624], [138.6087658, 37.4268177], [138.6085848, 37.426442], [138.608399, 37.4260876], [138.6082581, 37.4258219], [138.6080467, 37.4254297], [138.6077379, 37.4249052], [138.6076119, 37.4246998], [138.6068215, 37.4233426], [138.6063044, 37.4224724], [138.6056837, 37.4214128], [138.6053282, 37.4208139], [138.6049677, 37.4202199], [138.6046932, 37.4198617], [138.6043619, 37.4195119], [138.6039968, 37.419208], [138.6037314, 37.4190155], [138.6034182, 37.4188151], [138.6030446, 37.4186101], [138.6026289, 37.4184267], [138.6022815, 37.4182968], [138.6017837, 37.4181419], [138.6014192, 37.4180633], [138.6011926, 37.4180201], [138.6006834, 37.4179483], [138.5993246, 37.4177558], [138.5975649, 37.4175121], [138.5966969, 37.4173913], [138.5956787, 37.4172489]], [[138.5805187, 37.4077551], [138.5801632, 37.407048], [138.5796701, 37.4060393], [138.5788796, 37.4044568], [138.5786119, 37.4039249], [138.5781124, 37.4029585], [138.5780265, 37.4027899], [138.5778609, 37.4024772], [138.5773623, 37.4014784], [138.576454, 37.3996971], [138.5762935, 37.3993823], [138.5760018, 37.3988009], [138.5754504, 37.3977003], [138.5752868, 37.397372], [138.5749597, 37.3967348], [138.5747141, 37.3962344], [138.5746029, 37.3960152], [138.5744673, 37.3957455], [138.5743516, 37.3955154], [138.574227, 37.3952572], [138.5740639, 37.3949223], [138.5738956, 37.3945712], [138.5736413, 37.3940897], [138.5732221, 37.3932639], [138.5730251, 37.3928385], [138.5728952, 37.392561], [138.5727504, 37.3923068], [138.5725459, 37.3919096], [138.5722598, 37.3913167], [138.5721019, 37.3909808], [138.5715938, 37.3899428], [138.5712083, 37.3891498], [138.5711821, 37.389094], [138.5708086, 37.3882944], [138.5707376, 37.3881471], [138.5706844, 37.3880368], [138.5704576, 37.387604], [138.57012, 37.3869031], [138.569892, 37.3864143], [138.5693851, 37.3853575], [138.5692793, 37.3851073], [138.5692278, 37.3849667], [138.5691655, 37.3848086], [138.5690893, 37.3846009], [138.5689059, 37.3840553], [138.5671337, 37.3835576], [138.5669173, 37.3834993], [138.5662731, 37.3833147], [138.5646398, 37.3828637], [138.5637377, 37.3826062], [138.5623196, 37.3822087], [138.5621938, 37.3821768], [138.5615873, 37.3820197], [138.5607672, 37.3817862], [138.5604562, 37.3817007], [138.5602307, 37.3816278], [138.5600769, 37.3815561], [138.5599175, 37.3814752], [138.5597774, 37.3813978], [138.5596396, 37.3812975], [138.5594978, 37.381191], [138.5594699, 37.3811631], [138.5593081, 37.3810037], [138.5587648, 37.3804376], [138.5584094, 37.3800606], [138.5577955, 37.3794091], [138.5573376, 37.3789125], [138.5568957, 37.3784409], [138.5564344, 37.3779443], [138.5562772, 37.3777826], [138.5555924, 37.3770511], [138.5552373, 37.3767017], [138.5548318, 37.3763099], [138.5544255, 37.3759599], [138.5541291, 37.3756526], [138.553825, 37.3753565], [138.553424, 37.3749806], [138.5528864, 37.3744578], [138.5527201, 37.3742984], [138.5526131, 37.3741925], [138.5525339, 37.3741167], [138.5523382, 37.3739634], [138.552216, 37.3738794], [138.5520682, 37.3737889], [138.5517744, 37.3736392], [138.5515219, 37.373533], [138.5510407, 37.3733229], [138.5510962, 37.3732474], [138.5512672, 37.3729953], [138.5515219, 37.3726309], [138.5517155, 37.3723644], [138.5518089, 37.372247], [138.5519035, 37.3721588], [138.55199, 37.3720739], [138.552055, 37.3720346], [138.5521313, 37.3719873], [138.5522315, 37.3718871], [138.5523619, 37.3717818], [138.5526598, 37.3715369], [138.5527956, 37.371418], [138.5529263, 37.3713062], [138.5530311, 37.371198], [138.5531017, 37.3711149], [138.5531667, 37.3710166], [138.5532304, 37.3708814], [138.5532726, 37.3707458], [138.5533044, 37.3706023], [138.5533158, 37.3704281], [138.5533138, 37.3702668], [138.5533092, 37.3698975], [138.5533033, 37.3694292], [138.5530823, 37.3694098], [138.55276, 37.3693722], [138.5523898, 37.3693221], [138.5523152, 37.3693124], [138.5519886, 37.3692604], [138.5517155, 37.3692196], [138.5515094, 37.3691797], [138.5514046, 37.3691569], [138.5513043, 37.3691253], [138.551072, 37.3690476], [138.550186, 37.3686867], [138.5494471, 37.3684199], [138.5490314, 37.3682552], [138.549419, 37.3675281], [138.5495986, 37.3671068], [138.5496904, 37.3668778], [138.549791, 37.3666368], [138.5499518, 37.3662906], [138.5500013, 37.3661876], [138.5500822, 37.3660258], [138.5502001, 37.365843], [138.5502741, 37.3657297], [138.5503544, 37.3656192], [138.5504387, 37.3655201], [138.5505913, 37.3653641], [138.5506654, 37.3652969], [138.5507058, 37.3652524], [138.5507423, 37.3652126], [138.5507764, 37.3651613], [138.550806, 37.3651192], [138.5508379, 37.3650497], [138.5508556, 37.3649973], [138.550872, 37.3649297], [138.5508891, 37.3648099], [138.550901, 37.3647274], [138.5509661, 37.3643515], [138.5510186, 37.3640267], [138.5511275, 37.3632952], [138.5512743, 37.3623144], [138.5513786, 37.361655], [138.5514524, 37.3611816], [138.5515056, 37.360813], [138.5515859, 37.3603811]], [[138.5805187, 37.4077551], [138.580909, 37.4076238], [138.5812756, 37.40751], [138.5815767, 37.4074161], [138.5817025, 37.4073889], [138.5819154, 37.4073608], [138.5821405, 37.4073499], [138.5824686, 37.4073863], [138.5847101, 37.4078761], [138.5856231, 37.4080802], [138.586135, 37.408261], [138.5875417, 37.4089524], [138.5885534, 37.4094658], [138.5887539, 37.409612], [138.5888996, 37.4097723], [138.5890447, 37.4100281], [138.589202, 37.4106989], [138.5894781, 37.4114167], [138.5895778, 37.4115552], [138.5897059, 37.4116598], [138.593181, 37.4137208], [138.5933321, 37.4138707], [138.5935032, 37.4139948], [138.5936597, 37.4141183], [138.5938055, 37.4141991], [138.5944019, 37.4144971], [138.5948677, 37.4147329], [138.5951003, 37.4148677], [138.5952765, 37.4150153], [138.5954566, 37.4151931], [138.5956286, 37.4154209], [138.5957493, 37.4156555], [138.5958074, 37.4158206], [138.5958381, 37.4159448], [138.5958564, 37.416086], [138.5958643, 37.4162204], [138.5958621, 37.4163377], [138.5958404, 37.4164756], [138.5958028, 37.4166396], [138.5957424, 37.4169428], [138.5956787, 37.4172489]]]}, "id": "relation/8725735"}]}