{"type": "FeatureCollection", "generator": "kokudo-quiz tools/fetch_raw.py (Overpass API)", "copyright": "The data included in this document is from www.openstreetmap.org. The data is made available under ODbL.", "timestamp": "2026-09-30T23:40:19Z", "features": [{"type": "Feature", "properties": {"@id": "relation/12079774", "colour": "red", "from": "富山県砺波市", "name": "国道470号", "name:en": "National Highway Route 470", "name:ja": "国道470号", "network": "JP:national", "ref": "470", "route": "road", "to": "石川県輪島市", "type": "route", "wikidata": "Q6157635", "wikipedia": "ja:国道470号"}, "geometry": {"type": "MultiLineString", "coordinates": [[[136.9084589, 36.6302101], [136.9084527, 36.6305349], [136.908452, 36.6305691], [136.9084442, 36.6309579], [136.908434, 36.6313146], [136.9084028, 36.6317554], [136.9083734, 36.6322172], [136.9083495, 36.6325396], [136.9083014, 36.632894], [136.908264, 36.6332458], [136.9082124, 36.6336399], [136.9081329, 36.6341688], [136.9080415, 36.6347085], [136.9079417, 36.635244], [136.9079166, 36.6353404], [136.9078141, 36.6356466], [136.9077889, 36.6357583], [136.9077198, 36.636215], [136.9076524, 36.6366433], [136.9076337, 36.6368323], [136.9076272, 36.637004], [136.9076306, 36.6372161], [136.907632, 36.6373473], [136.9076171, 36.6374569], [136.9075245, 36.6381836], [136.9074925, 36.6384614], [136.907407, 36.6392237], [136.9073582, 36.6398229], [136.9073311, 36.6403844], [136.9073175, 36.6409256], [136.9073303, 36.6414895], [136.9073378, 36.6417935], [136.9073617, 36.6423088], [136.9073968, 36.6428016], [136.9074446, 36.643308], [136.9075073, 36.6438594], [136.9075775, 36.6444188], [136.9076837, 36.6450207], [136.9078022, 36.6456095], [136.907928, 36.646178], [136.9080618, 36.6467394], [136.9082243, 36.6473087], [136.9084224, 36.6479507], [136.9086376, 36.648573], [136.9088079, 36.6490507], [136.9089976, 36.6495137], [136.909182, 36.649961], [136.9093624, 36.6503592], [136.9095683, 36.650806], [136.9097717, 36.6512257], [136.9100073, 36.6517084], [136.9105176, 36.6528073], [136.9107597, 36.6533515], [136.9110257, 36.6540032], [136.9112539, 36.6545904], [136.9114634, 36.65517], [136.9117018, 36.6558772], [136.911774, 36.6561097], [136.9119129, 36.6565358], [136.9121205, 36.6572597], [136.9123325, 36.6580545], [136.9124872, 36.6587058], [136.9126287, 36.6593838], [136.9127142, 36.6598083], [136.9128163, 36.6604166], [136.9129225, 36.661092], [136.9130118, 36.6617546], [136.9130848, 36.6624142], [136.9131423, 36.6630583], [136.9131836, 36.6636005], [136.9132598, 36.6644428], [136.9134489, 36.667084]], [[136.9136394, 36.6698074], [136.9137097, 36.6706993], [136.9138056, 36.6719165], [136.9140067, 36.6745859], [136.9140627, 36.6754831], [136.9141717, 36.6771301], [136.9142822, 36.6782964], [136.9143951, 36.679288], [136.914476, 36.679798], [136.914578, 36.6803241], [136.914682, 36.6807856], [136.9148007, 36.6812393], [136.9148621, 36.6814509], [136.9150236, 36.6819385], [136.9152075, 36.6824436], [136.9154054, 36.6829561], [136.9156392, 36.6834967], [136.9158989, 36.6840495], [136.9161818, 36.6845917], [136.9164814, 36.6851182], [136.9168152, 36.6856595], [136.9171473, 36.6861625], [136.9174309, 36.6865591], [136.9177044, 36.6869157], [136.9179949, 36.6872857], [136.9184066, 36.687765], [136.9186974, 36.6880836], [136.9191072, 36.6885121], [136.919529, 36.6889327], [136.9199137, 36.6892941], [136.9203232, 36.6896516], [136.9207392, 36.6899925], [136.9211636, 36.6903231], [136.9215515, 36.6906147], [136.921762, 36.6907706], [136.9223273, 36.6911625], [136.9229313, 36.6915459], [136.9231643, 36.6916924], [136.9240394, 36.6922416], [136.9247452, 36.6926513], [136.9256526, 36.6931691], [136.9258586, 36.6932878], [136.9281906, 36.6946357], [136.9286893, 36.6949264], [136.9315338, 36.6965712], [136.9329831, 36.6974018], [136.9338613, 36.6979106], [136.9341911, 36.6980966], [136.9372268, 36.6998507], [136.9382299, 36.7004302], [136.9394897, 36.7011612], [136.9396927, 36.7012793], [136.9433661, 36.7033851], [136.9453919, 36.7045573], [136.9460333, 36.7049365], [136.946614, 36.7052976], [136.9470452, 36.7055807], [136.9475064, 36.7058967], [136.9478866, 36.7061863], [136.9483226, 36.7065487], [136.9486848, 36.7068823], [136.9490066, 36.7071971], [136.9493496, 36.7075569], [136.9496798, 36.7079329], [136.9499822, 36.7083143], [136.9502758, 36.7087201], [136.9505066, 36.7090759], [136.9506798, 36.7093639], [136.9508516, 36.7096824], [136.9509841, 36.7099438], [136.9511011, 36.7101928], [136.9511908, 36.7103853], [136.9513409, 36.7107564], [136.9514948, 36.7112088], [136.9516188, 36.7116411], [136.9517357, 36.7121098], [136.9518597, 36.7126827], [136.9519611, 36.7132302], [136.9520551, 36.7137537], [136.952082, 36.7139174], [136.952371, 36.7156782], [136.9527961, 36.7182416], [136.9528801, 36.7187538], [136.9529581, 36.7192788], [136.9530107, 36.7197231], [136.953086, 36.7203342], [136.9531421, 36.7209807], [136.9531882, 36.7216037], [136.9532187, 36.7222154], [136.9532337, 36.7228075], [136.9532315, 36.7235478], [136.9532311, 36.7242857], [136.9532375, 36.7246808], [136.9532574, 36.7250828], [136.953287, 36.7254506], [136.9533308, 36.7257979], [136.9533825, 36.7261408], [136.9534538, 36.7264797], [136.9535357, 36.7268155], [136.9536339, 36.7271548], [136.9537516, 36.7275126], [136.9538907, 36.7278845], [136.9540668, 36.7282923], [136.954237, 36.7286446], [136.9544209, 36.7289805], [136.9548045, 36.7296396], [136.9555896, 36.7309177], [136.9564066, 36.7322739], [136.9567238, 36.7327777], [136.9570765, 36.7332898], [136.9573909, 36.7337116], [136.9577473, 36.7341461], [136.9580976, 36.7345385], [136.9584332, 36.7348933], [136.9588395, 36.7352897], [136.9592029, 36.7356274], [136.9595478, 36.7359302], [136.9600153, 36.7363118], [136.9605411, 36.7367111], [136.9613506, 36.7373478], [136.9617732, 36.7376889], [136.9620954, 36.7379728], [136.9622784, 36.7381452], [136.9626377, 36.7384782], [136.9630214, 36.7388461], [136.9633498, 36.7392092], [136.9637025, 36.7396125], [136.9639324, 36.7399151], [136.9642697, 36.7403792], [136.9644976, 36.7407155], [136.964725, 36.7410626], [136.9648824, 36.741312], [136.9647782, 36.741094], [136.9646735, 36.7408941], [136.9643382, 36.7403466], [136.9640237, 36.7398679], [136.9637983, 36.739563], [136.9634646, 36.7391574], [136.9631648, 36.7388334], [136.9627806, 36.7384496], [136.9624315, 36.7381105], [136.9622335, 36.7379284], [136.9618675, 36.7376111], [136.9614566, 36.7372738], [136.9606321, 36.7366379], [136.960096, 36.7362098], [136.959633, 36.7358397], [136.9592856, 36.7355395], [136.9589207, 36.7352089], [136.9585507, 36.7348426], [136.9581854, 36.73446], [136.9578502, 36.7340802], [136.9575066, 36.7336549], [136.9571982, 36.7332437], [136.956861, 36.7327539], [136.9565435, 36.7322609], [136.9556896, 36.730851], [136.9549108, 36.7295842], [136.9545266, 36.7289205], [136.9543379, 36.7285586], [136.9541898, 36.7282373], [136.9540191, 36.7278489], [136.9538814, 36.7274763], [136.9537666, 36.7271345], [136.9536631, 36.7267728], [136.9535816, 36.7264291], [136.9535107, 36.7260858], [136.9534548, 36.7257366], [136.9534165, 36.7254254], [136.9533895, 36.7250958], [136.9533693, 36.7246774], [136.9533631, 36.724253], [136.9533671, 36.7234547], [136.9533647, 36.7227984], [136.9533488, 36.7222355], [136.9533165, 36.7216044], [136.9532782, 36.7210033], [136.953219, 36.7203337], [136.9531486, 36.7197176], [136.9530932, 36.7192742], [136.9530163, 36.7187725], [136.9529267, 36.7182195], [136.9524992, 36.7156608], [136.9522011, 36.7139072], [136.9521731, 36.7137418], [136.9520803, 36.7132021], [136.9519801, 36.7126636], [136.9518615, 36.7120992], [136.9517458, 36.7116311], [136.9516094, 36.7111578], [136.9514547, 36.7107208], [136.951311, 36.7103599], [136.9512269, 36.710171], [136.9510427, 36.7097978], [136.9508336, 36.7094086], [136.9506151, 36.7090196], [136.9503871, 36.7086691], [136.9500858, 36.7082505], [136.9497986, 36.7078767], [136.9494324, 36.707451], [136.9490249, 36.707027], [136.9486317, 36.7066679], [136.9482972, 36.7063726], [136.9479921, 36.7061208], [136.9475668, 36.7058062], [136.9470937, 36.7054775], [136.946688, 36.7052119], [136.9460805, 36.7048355], [136.9454441, 36.7044631], [136.9433733, 36.703261], [136.9397567, 36.7011732], [136.9395473, 36.7010535], [136.9382888, 36.7003379], [136.9372407, 36.699724], [136.9341919, 36.6979573], [136.9338536, 36.6977636], [136.9331723, 36.697381], [136.9314939, 36.6964056], [136.9286965, 36.694793], [136.928179, 36.6944935], [136.925905, 36.693176], [136.9256932, 36.6930524], [136.924812, 36.6925499], [136.9241039, 36.6921373], [136.9232062, 36.6916068], [136.9229734, 36.69146], [136.9224414, 36.6911075], [136.9218981, 36.6907221], [136.9216874, 36.6905654], [136.9212639, 36.6902545], [136.920828, 36.6899149], [136.9203978, 36.6895642], [136.9200207, 36.6892327], [136.9196775, 36.6889136], [136.9193305, 36.688574], [136.9189638, 36.6881985], [136.9185357, 36.6877083], [136.9181394, 36.6872539], [136.9178214, 36.6868683], [136.9175534, 36.6865182], [136.9172653, 36.6861102], [136.9169362, 36.6856175], [136.916615, 36.6850998], [136.9163104, 36.6845654], [136.916015, 36.6840104], [136.9157625, 36.6834675], [136.9155299, 36.6829273], [136.9153421, 36.6824491], [136.9151529, 36.6819231], [136.9149934, 36.6814494], [136.9149293, 36.6812335], [136.9148102, 36.6807647], [136.9147103, 36.6803067], [136.9146083, 36.6797732], [136.9145342, 36.6792834], [136.9144176, 36.6782811], [136.9143046, 36.677127], [136.9141956, 36.6756577], [136.9141349, 36.6747452], [136.9140203, 36.6730382], [136.9139301, 36.6719096], [136.9138352, 36.6706863], [136.9137665, 36.6698016], [136.9136439, 36.667923]], [[136.9133853, 36.664436], [136.9133209, 36.6635928], [136.9132833, 36.6630473], [136.9132303, 36.6624103], [136.9131594, 36.6617651], [136.9130576, 36.6610363], [136.9129516, 36.6603447], [136.9128365, 36.6596899], [136.912755, 36.6593044], [136.9126276, 36.6587079], [136.9124585, 36.6579977], [136.9122503, 36.6572274], [136.9120463, 36.6565078], [136.9119108, 36.6560979], [136.9118326, 36.6558659], [136.9115851, 36.655134], [136.9113771, 36.6545496], [136.9111529, 36.6539696], [136.9108758, 36.6533156], [136.910326, 36.6520783], [136.9101284, 36.6516673], [136.9098908, 36.6511788], [136.9096117, 36.6505877], [136.9094736, 36.6502934], [136.909303, 36.6498976], [136.9091155, 36.6494496], [136.9089232, 36.6489746], [136.9087357, 36.6484524], [136.9085562, 36.6479196], [136.9083555, 36.647283], [136.9082031, 36.6467312], [136.9080632, 36.6461423], [136.9079374, 36.6455811], [136.9078178, 36.6450054], [136.9077177, 36.6444223], [136.9076368, 36.6438524], [136.9075733, 36.6432915], [136.9075286, 36.6427882], [136.9074986, 36.6423098], [136.907478, 36.6418333], [136.9074732, 36.6415212], [136.9074678, 36.64096], [136.9074777, 36.6403808], [136.9075057, 36.6398278], [136.9075452, 36.6392029], [136.9076225, 36.6384685], [136.9076515, 36.6381939], [136.9077668, 36.6373623], [136.9077879, 36.6372838], [136.9078185, 36.637206], [136.9079187, 36.6370241], [136.9079547, 36.636941], [136.9079839, 36.6368466], [136.9080149, 36.6366778], [136.9080785, 36.6362436], [136.9081544, 36.6357887], [136.9081569, 36.6357084], [136.9081499, 36.6356196], [136.9081107, 36.6354037], [136.9081075, 36.6353363], [136.9081168, 36.6352451], [136.9082523, 36.6343283], [136.9083831, 36.6334243], [136.9084722, 36.6326255], [136.9085369, 36.6316442], [136.9085728, 36.6309618], [136.9085784, 36.6305125], [136.9085822, 36.6302101]], [[136.9608215, 36.7510067], [136.9609424, 36.7507021], [136.9610748, 36.7504163], [136.9612321, 36.7501219], [136.9614199, 36.749819], [136.9616165, 36.7495457], [136.9618538, 36.7492418], [136.9621172, 36.7489327], [136.9628198, 36.7481388], [136.9638787, 36.7469495], [136.9642322, 36.7465489], [136.9645406, 36.7461841]], [[136.9648824, 36.741312], [136.9650277, 36.7416031], [136.9651662, 36.7418923], [136.9652863, 36.7421959], [136.9653838, 36.7424784], [136.9654588, 36.742774], [136.9655193, 36.7430532], [136.9655519, 36.74333], [136.9655646, 36.7435833], [136.9655602, 36.7438589], [136.9655368, 36.7441244], [136.9654869, 36.744386], [136.965414, 36.7446423], [136.9653289, 36.7448839], [136.9652044, 36.7451694], [136.965048, 36.7454552], [136.9648895, 36.7457094], [136.9647242, 36.745946], [136.9645406, 36.7461841]], [[136.9611015, 36.7552586], [136.9608955, 36.7548259], [136.9607775, 36.7545159], [136.9606765, 36.7542005], [136.9606404, 36.7540506], [136.960603, 36.7538954], [136.9605923, 36.753837], [136.9605485, 36.753598], [136.9605121, 36.753263], [136.9604908, 36.7529281], [136.9604954, 36.7526171], [136.9605034, 36.752514], [136.96052, 36.7522993], [136.9605652, 36.7519567], [136.9606315, 36.7516205], [136.9607247, 36.7512847], [136.9608215, 36.7510067]], [[136.9611015, 36.7552586], [136.9612819, 36.7555788], [136.961504, 36.7559319], [136.9617348, 36.7562378], [136.9619925, 36.7565354], [136.9622788, 36.756835], [136.9625895, 36.7571377], [136.9629474, 36.7574402], [136.9633469, 36.7577655], [136.9658273, 36.7596601], [136.9674632, 36.7608969], [136.9676638, 36.7610485], [136.9695391, 36.7624265], [136.9707087, 36.7632704], [136.9734489, 36.7651765], [136.9736405, 36.7653121], [136.9747416, 36.7660986], [136.975509, 36.7666351], [136.9759565, 36.7669654], [136.9763389, 36.7672744], [136.9767572, 36.7676247], [136.9769023, 36.7677489], [136.9773231, 36.7681626], [136.977746, 36.7685884], [136.978108, 36.7689897], [136.9784159, 36.7693659], [136.9787455, 36.7697934], [136.9790505, 36.7702173], [136.9793021, 36.7706055], [136.9793772, 36.770727], [136.9794523, 36.7708485], [136.9797013, 36.7712991], [136.9799376, 36.7717535], [136.9801, 36.7720962], [136.9802986, 36.7725272], [136.9804685, 36.7729817], [136.9806203, 36.7734492], [136.9807849, 36.7740226], [136.9809572, 36.7746886], [136.9810563, 36.7751434], [136.9811222, 36.7754935], [136.9811901, 36.7758872], [136.9812498, 36.7763213], [136.9813023, 36.7767494], [136.9813484, 36.7771504], [136.9814247, 36.7780523], [136.9814704, 36.7787282], [136.9814668, 36.7793453], [136.9814173, 36.7799458], [136.9813678, 36.7804837], [136.9813164, 36.7808385], [136.9812624, 36.7811671], [136.9811913, 36.7815263], [136.9811347, 36.7818064], [136.9810388, 36.782157], [136.9809467, 36.7824672], [136.9808476, 36.7827703], [136.9806954, 36.7831054], [136.9805619, 36.7833865], [136.9804505, 36.7836308], [136.980127, 36.7842797], [136.980002, 36.7844957], [136.97984, 36.7847475], [136.9796834, 36.7849771], [136.9794919, 36.7852296], [136.9791298, 36.7856356], [136.9787355, 36.7860587], [136.9784661, 36.7863101], [136.9781403, 36.7865946], [136.9778311, 36.7868328], [136.9775643, 36.7870229], [136.9772911, 36.7872113], [136.9769916, 36.7874023], [136.9766057, 36.7876445], [136.9759181, 36.7880484], [136.9695886, 36.7916935], [136.96846, 36.7923503], [136.9670967, 36.7931236], [136.9650697, 36.7942963], [136.963632, 36.7951383], [136.9623216, 36.7959064], [136.9594026, 36.7976165], [136.9591756, 36.7977536], [136.9587327, 36.7980211], [136.958307, 36.7982783], [136.9578257, 36.7985969], [136.9571833, 36.7990364], [136.9567808, 36.7993457], [136.9563377, 36.7996875], [136.9558464, 36.8001024], [136.9555866, 36.800329], [136.9554252, 36.8004837], [136.9552204, 36.8006951], [136.9540959, 36.8019525], [136.9538996, 36.8021988], [136.9537082, 36.8024504], [136.9534141, 36.8028561], [136.9531118, 36.8033451], [136.9529208, 36.8036486], [136.9527082, 36.8040235], [136.9524987, 36.8044528], [136.9522029, 36.8050917], [136.9520797, 36.805373], [136.9519934, 36.8055654], [136.9518116, 36.8060218], [136.9515592, 36.8066606], [136.9512185, 36.8075669], [136.9508341, 36.8085137], [136.9505018, 36.8093224], [136.9502182, 36.8099716], [136.9499003, 36.8106476], [136.9497235, 36.8110133], [136.9494675, 36.811472], [136.9491518, 36.8120389], [136.9488618, 36.8125176], [136.9486251, 36.8128952], [136.9484597, 36.8131619], [136.9482522, 36.8134849], [136.9478284, 36.8141205], [136.9474643, 36.8146309], [136.9468923, 36.8154381], [136.9461394, 36.8164083], [136.9457363, 36.8169422], [136.9453403, 36.8174835], [136.9448235, 36.8182416], [136.9445523, 36.8186893], [136.9442802, 36.8192155], [136.9439773, 36.8198906], [136.9438667, 36.8201712], [136.9437134, 36.8205943], [136.9434924, 36.8214003], [136.9434299, 36.8217224], [136.9433214, 36.8221916], [136.9432245, 36.8228471], [136.9431973, 36.8232594], [136.9431847, 36.8235711], [136.9431961, 36.8240563], [136.9432774, 36.8248661], [136.9433486, 36.8253635], [136.9439098, 36.8280293], [136.9440352, 36.8287916], [136.9441275, 36.8293862], [136.9442168, 36.8300944], [136.9442466, 36.8307901], [136.9442727, 36.831669], [136.9442736, 36.8324874], [136.944246, 36.8332852], [136.9441679, 36.834157], [136.9440753, 36.8351617], [136.9440287, 36.8357531], [136.9439943, 36.8364903], [136.9439878, 36.837222], [136.9440075, 36.8378559], [136.9440441, 36.8383274], [136.9441041, 36.8389114], [136.9441145, 36.8389825], [136.9441614, 36.8393035], [136.9442475, 36.8397655], [136.9443772, 36.8403139], [136.9445225, 36.840893], [136.9447245, 36.8415639], [136.9449924, 36.8423944], [136.9452815, 36.8431682], [136.945553, 36.8438589], [136.9457349, 36.844273], [136.9461458, 36.8451531], [136.9463315, 36.8454848], [136.9466831, 36.8460458], [136.9471319, 36.8467464], [136.9475088, 36.8472791], [136.9478479, 36.8477105], [136.9481406, 36.8480696], [136.9484505, 36.848427], [136.9488557, 36.8489004], [136.9492594, 36.849337], [136.9512991, 36.8515887], [136.9520733, 36.8524917], [136.9523842, 36.8528567], [136.9528112, 36.8533907], [136.9529657, 36.8536004], [136.9532882, 36.8540069], [136.9535842, 36.854409], [136.9537396, 36.8546161], [136.954178, 36.8552321], [136.9543731, 36.8555187], [136.9547212, 36.8561025], [136.9549466, 36.8564558], [136.9550023, 36.8565584], [136.9555613, 36.8575881], [136.9557288, 36.8579265], [136.9559217, 36.8583479], [136.9560369, 36.858622], [136.9568351, 36.8607994], [136.9580031, 36.8639621], [136.9581558, 36.8643601], [136.9583772, 36.8648861], [136.958502, 36.865165], [136.9585742, 36.8652909], [136.95872, 36.8655583], [136.9589105, 36.8658725], [136.9591198, 36.8661885], [136.9593076, 36.8664465], [136.9595516, 36.8667583], [136.9599585, 36.8672324], [136.960265, 36.867553], [136.9625423, 36.8697567], [136.9635611, 36.8706854], [136.9645064, 36.87151], [136.9672025, 36.8738292], [136.9681685, 36.8746238], [136.9686694, 36.875021], [136.9692859, 36.875516], [136.9697942, 36.8759216], [136.9708603, 36.8768142], [136.9711813, 36.8770862], [136.9719499, 36.8777378], [136.9725734, 36.8782624], [136.97278, 36.8784423], [136.9730065, 36.8786387], [136.973305, 36.8788878], [136.9735853, 36.8791214], [136.9738098, 36.8793184], [136.9740584, 36.8795503], [136.9744675, 36.8799533], [136.9748279, 36.8803477], [136.975212, 36.8808316], [136.9755163, 36.8812609], [136.9757615, 36.8816359], [136.9759764, 36.881999], [136.976432, 36.8828383], [136.9781053, 36.885901], [136.9786242, 36.8868276], [136.9788618, 36.8872491], [136.9792705, 36.8879226], [136.979564, 36.8883733], [136.9798079, 36.8887318], [136.9800037, 36.8890094], [136.9804546, 36.8895981], [136.9810585, 36.8903611], [136.9814593, 36.8908393], [136.981785, 36.8912102], [136.9821106, 36.891581], [136.9824843, 36.8919836], [136.9837925, 36.8933465], [136.9844754, 36.8940727], [136.9852555, 36.8948882], [136.9870366, 36.8967589], [136.9878962, 36.8976855], [136.9881819, 36.8979986], [136.9893506, 36.8992815], [136.9908971, 36.901049], [136.9919668, 36.9023512], [136.9931885, 36.903904], [136.9934075, 36.9041906], [136.9936895, 36.9045556], [136.9978083, 36.9100246], [137.0009003, 36.914113], [137.0029497, 36.9168916], [137.0032689, 36.9173425], [137.0034376, 36.9175758], [137.0036777, 36.9179079], [137.0037674, 36.9180522], [137.0038571, 36.9181966], [137.0040764, 36.9185494], [137.0048974, 36.9198064], [137.0050104, 36.9199793], [137.0060282, 36.9214373], [137.0063757, 36.9219068], [137.0070865, 36.9228734], [137.0078467, 36.9238593], [137.0124326, 36.9298437], [137.0143012, 36.932261], [137.0179679, 36.9370417], [137.0183032, 36.9374789], [137.0198719, 36.9395042], [137.0206764, 36.9405752], [137.0212533, 36.9413228], [137.02176, 36.9419794], [137.0220973, 36.9424165], [137.0228088, 36.9433398], [137.0230821, 36.943677], [137.0234037, 36.9440315], [137.023481, 36.9441109], [137.023569, 36.9442014], [137.0236378, 36.9442721], [137.0238435, 36.9444835], [137.0241889, 36.9448138], [137.0245198, 36.9451026], [137.0249282, 36.945423], [137.0253265, 36.945711], [137.0256733, 36.9459424], [137.026187, 36.9462559], [137.0298531, 36.9483794], [137.0307683, 36.9489095], [137.0311886, 36.9491596], [137.0316836, 36.9494619], [137.0322347, 36.9498164], [137.0329165, 36.9502605], [137.0338832, 36.9509472], [137.0347798, 36.9516451], [137.0357325, 36.9524214], [137.0365591, 36.9530968], [137.0367575, 36.9532554], [137.0379647, 36.9541828], [137.0382263, 36.9543731], [137.0393774, 36.9553303], [137.0381672, 36.9544264], [137.0364736, 36.9531117], [137.0352761, 36.9521256], [137.0341984, 36.9512734], [137.0332208, 36.9505475], [137.0322012, 36.9498549], [137.0316477, 36.949505], [137.0307408, 36.9489568], [137.0298059, 36.9484311], [137.0281845, 36.9474554], [137.0265919, 36.9465626], [137.0258193, 36.9461073], [137.0252918, 36.9457519], [137.0248757, 36.9454626], [137.024469, 36.9451471], [137.0241267, 36.9448496], [137.0237809, 36.9445203], [137.0235137, 36.9442406], [137.0234053, 36.9441272], [137.0233523, 36.9440718], [137.0230318, 36.9437077], [137.0227532, 36.943366], [137.0220302, 36.9424312], [137.0217029, 36.942005], [137.0212059, 36.9413486], [137.0206235, 36.9406016], [137.0199911, 36.9397762], [137.0192258, 36.938776], [137.0182311, 36.9374934], [137.0179183, 36.9370778], [137.0142342, 36.9322795]], [[137.0393774, 36.9553303], [137.0402408, 36.9559592], [137.0410711, 36.9565613], [137.0428242, 36.9578387], [137.0441791, 36.9587932], [137.0448657, 36.959258], [137.0450962, 36.9594243], [137.0454164, 36.9596883], [137.045748, 36.9599855], [137.0461235, 36.9603419], [137.0464488, 36.9606824], [137.0467616, 36.9610415], [137.047023, 36.9613713], [137.0472934, 36.9617399], [137.0475432, 36.9621301], [137.0477405, 36.9624872], [137.0479036, 36.9628045], [137.048079, 36.963177], [137.048224, 36.9635731], [137.0483764, 36.9640331], [137.0484779, 36.9643957], [137.0485679, 36.9647694], [137.048645, 36.9651522], [137.0487202, 36.9656058], [137.0487826, 36.9660112], [137.0488219, 36.9663618], [137.0488576, 36.966767], [137.0488835, 36.9671861], [137.0488919, 36.9675867], [137.0488961, 36.9680935], [137.0488816, 36.9684534], [137.0488648, 36.9687377], [137.0488416, 36.9690324], [137.0487905, 36.9694453], [137.0487449, 36.9697296], [137.0486684, 36.9701381], [137.0485984, 36.970448], [137.0485102, 36.9707869], [137.048408, 36.971149], [137.0483152, 36.9714301], [137.0482015, 36.9717513], [137.0480817, 36.9720739], [137.0479351, 36.9724217], [137.0477447, 36.9728616], [137.0471517, 36.9741879], [137.0471081, 36.9742968], [137.0469949, 36.974569], [137.046894, 36.9748427], [137.0467638, 36.9752659], [137.0466307, 36.9757412], [137.0465187, 36.9762093], [137.0464245, 36.9766567], [137.0463993, 36.9768089], [137.0463392, 36.9772457], [137.0462881, 36.9776966], [137.0462621, 36.9781616], [137.0462586, 36.9783077], [137.0462657, 36.9788264], [137.0462871, 36.9793588], [137.0463408, 36.9799212], [137.0464006, 36.9803512], [137.0465075, 36.9809563], [137.0466059, 36.98144], [137.0466401, 36.9816219], [137.0467878, 36.9823712], [137.0469148, 36.9830563], [137.0470217, 36.9837512], [137.0470896, 36.984323], [137.0471408, 36.9848655], [137.0471731, 36.9853881], [137.0471964, 36.9858957], [137.0472097, 36.9863609], [137.0472125, 36.9868389], [137.0472014, 36.9872312], [137.0471922, 36.9875806], [137.0471633, 36.9881047], [137.047113, 36.9886954], [137.0470493, 36.9892672], [137.0469894, 36.9897013], [137.0469094, 36.990277], [137.0468332, 36.9907928], [137.0467527, 36.9912769], [137.0466575, 36.9917153], [137.0465375, 36.9921156], [137.0464047, 36.9924838], [137.0462526, 36.9928281], [137.046037, 36.9932472], [137.0458014, 36.99368], [137.0453308, 36.9945135], [137.0450688, 36.9949944], [137.044811, 36.9954802], [137.0445778, 36.9959448], [137.044364, 36.9963877], [137.0441497, 36.9968576], [137.043947, 36.9973399], [137.0437432, 36.9978444], [137.0433398, 36.9988808], [137.0431573, 36.9993471], [137.0429766, 36.9997889], [137.0427515, 37.000286], [137.0425302, 37.0007291], [137.0423191, 37.0011115], [137.0420704, 37.001523], [137.0418139, 37.0019141], [137.041526, 37.0023182], [137.0412102, 37.0027299], [137.0408669, 37.003139], [137.0405102, 37.0035377], [137.0401107, 37.0039387], [137.0397177, 37.0043084], [137.0392645, 37.0047076], [137.0388095, 37.0050767], [137.0383074, 37.0054499], [137.0377271, 37.0058603], [137.0369381, 37.0063945], [137.0362541, 37.0068449], [137.0358479, 37.0071151], [137.0354427, 37.0073939], [137.0350543, 37.0076846], [137.0346308, 37.0080328], [137.0342227, 37.0083975], [137.0338297, 37.0087643], [137.032923, 37.0096425], [137.0325321, 37.009986], [137.0321353, 37.0103001], [137.0317277, 37.0105875], [137.0313189, 37.0108536], [137.0308803, 37.0111212], [137.030446, 37.0113496], [137.0299938, 37.0115605], [137.0295334, 37.0117566], [137.0290667, 37.0119364], [137.0285988, 37.0121029], [137.0280671, 37.0122632], [137.0271429, 37.0125076], [137.0254931, 37.0129381], [137.0235544, 37.0134969], [137.0219269, 37.0139988], [137.0205102, 37.0144635], [137.0194573, 37.0148488], [137.0187955, 37.0151017], [137.0182754, 37.0153038], [137.0154787, 37.0164745], [137.0150718, 37.0166552], [137.0120376, 37.0180237], [137.0108601, 37.0185548], [137.0104424, 37.0187405], [137.0068849, 37.0202313], [137.0063561, 37.0204437], [137.005902, 37.0206238], [137.0027421, 37.0218208], [137.002403, 37.0219398], [137.0020541, 37.0220514], [137.0016978, 37.0221593], [137.0013593, 37.0222557], [137.0009882, 37.0223514], [137.0006486, 37.0224362], [137.0002718, 37.0225195], [136.9998883, 37.0225943], [136.999532, 37.022662], [136.9991974, 37.0227177], [136.9988529, 37.0227688], [136.9985023, 37.022812], [136.9981566, 37.0228463], [136.9978111, 37.0228717], [136.9974221, 37.0228912], [136.9970344, 37.022905], [136.9966981, 37.0229074], [136.9963547, 37.0229064], [136.9960181, 37.0228987], [136.9956749, 37.0228859], [136.9952906, 37.0228602], [136.9949204, 37.0228309], [136.9945638, 37.0227938], [136.9942258, 37.0227521], [136.9938489, 37.0226998], [136.9934778, 37.0226403], [136.9931108, 37.0225746], [136.9927398, 37.0225026], [136.9923602, 37.0224234], [136.9920085, 37.0223453], [136.9915, 37.0222406], [136.9914238, 37.0222256], [136.9906407, 37.0220678], [136.9902491, 37.0220019], [136.989861, 37.0219525], [136.989487, 37.0219229], [136.989136, 37.021906], [136.9887594, 37.0218946], [136.9883599, 37.0218996], [136.9879715, 37.0219148], [136.9875954, 37.0219502], [136.9872252, 37.0219913], [136.9868718, 37.0220412], [136.9864952, 37.0221064], [136.9818993, 37.0229216], [136.9814825, 37.022997], [136.9810956, 37.0230604], [136.9806899, 37.0231159], [136.980307, 37.0231532], [136.9799274, 37.0231763], [136.9795722, 37.0231871], [136.9791887, 37.0231819], [136.9788193, 37.0231699], [136.9784482, 37.0231452], [136.9780738, 37.0231062], [136.977647, 37.0230465], [136.9772045, 37.0229653], [136.9767764, 37.0228632], [136.9763347, 37.0227432], [136.9758957, 37.0226028], [136.9754915, 37.0224512], [136.975084, 37.0222817], [136.9746973, 37.0220964], [136.9742797, 37.0218744], [136.9738737, 37.0216376], [136.9734914, 37.0213791], [136.9731237, 37.0211103], [136.9727687, 37.0208137], [136.9724212, 37.0204946], [136.9717023, 37.0197977], [136.971099, 37.0192497], [136.9707328, 37.0189379], [136.9703278, 37.0186359], [136.9699402, 37.0183764], [136.9695237, 37.018131], [136.9691493, 37.0179312], [136.9687335, 37.0177393], [136.9682815, 37.0175544], [136.9677754, 37.0173703], [136.9672737, 37.0172127], [136.9666609, 37.0170499], [136.9660744, 37.0169283], [136.9654954, 37.0168326], [136.9651281, 37.0167842], [136.9647613, 37.016747], [136.9644071, 37.016721], [136.964049, 37.0167048], [136.9636784, 37.0166949], [136.9632817, 37.0166993], [136.9628352, 37.0167248], [136.9624033, 37.0167591], [136.9620179, 37.0168073], [136.9615757, 37.0168789], [136.9611819, 37.0169587], [136.9607719, 37.0170585], [136.9603512, 37.0171786], [136.9599244, 37.0173267], [136.959509, 37.0174864], [136.9590845, 37.017665], [136.9586504, 37.0178767], [136.9582174, 37.0180974], [136.9577837, 37.01832], [136.9572398, 37.0186016], [136.9566919, 37.0188709], [136.9561057, 37.0191509], [136.9557772, 37.0192995], [136.9553173, 37.0195039], [136.9548203, 37.0197173], [136.9543035, 37.0199367], [136.9539632, 37.0200995], [136.9536743, 37.0202559], [136.9534554, 37.0203957], [136.9532413, 37.0205264], [136.9531545, 37.0205758], [136.9530878, 37.0206087], [136.9528964, 37.0206841]], [[136.9804505, 36.7836308], [136.9800549, 36.7842525], [136.9799201, 36.7844462], [136.9797263, 36.784708], [136.9795196, 36.7849693], [136.9793076, 36.785237], [136.9790646, 36.785514], [136.978786, 36.7858137], [136.9785366, 36.786059], [136.9782687, 36.7863074], [136.9780196, 36.7865165], [136.9777394, 36.7867261], [136.9774706, 36.7869266], [136.9771956, 36.7871181], [136.9768906, 36.7873173], [136.9765332, 36.7875351], [136.9758353, 36.7879502], [136.9695165, 36.7916165], [136.9683915, 36.7922666], [136.9670381, 36.7930622], [136.9659256, 36.7937229], [136.9651846, 36.7941409], [136.9635993, 36.7950832], [136.9622838, 36.7958601], [136.9593553, 36.797571], [136.9591286, 36.7977074], [136.9586913, 36.7979711], [136.9580801, 36.7983447], [136.9576057, 36.7986603], [136.9571624, 36.7989717], [136.9568703, 36.7991784], [136.9564675, 36.7994935], [136.9561068, 36.7997918], [136.9557891, 36.8000785], [136.9555448, 36.8002982], [136.9553787, 36.8004554], [136.9551694, 36.8006661], [136.9540468, 36.8019285], [136.9538551, 36.8021712], [136.9536586, 36.802425], [136.9533669, 36.802832], [136.9530888, 36.8032617], [136.9529337, 36.803517], [136.9526617, 36.8039913], [136.952418, 36.8044473], [136.9520057, 36.8053639], [136.9519305, 36.8055437], [136.9516169, 36.8063524], [136.9515067, 36.8066387], [136.9511525, 36.8075536], [136.9507768, 36.8084868], [136.9506427, 36.8088006], [136.950512, 36.8091072], [136.950391, 36.8093672], [136.9498442, 36.8104831], [136.9496293, 36.8109243], [136.9493795, 36.8113879], [136.9490335, 36.8119981], [136.9487556, 36.8124738], [136.9485251, 36.812852], [136.9483528, 36.813124], [136.9475699, 36.814306], [136.9473552, 36.8146023], [136.9464747, 36.815781], [136.9456552, 36.8168315], [136.9452489, 36.8173699], [136.9449313, 36.8178297], [136.9446698, 36.8182484], [136.9443312, 36.8188241], [136.9441094, 36.8192672], [136.9438876, 36.81977], [136.9436984, 36.820241], [136.9434976, 36.8208691], [136.9433178, 36.8216336], [136.9432176, 36.8222018], [136.943152, 36.8227439], [136.9431264, 36.8232074], [136.9431118, 36.8237352], [136.9431359, 36.8242655], [136.9432056, 36.8248645], [136.9433049, 36.8254721], [136.9434873, 36.8263631], [136.9437099, 36.8273722], [136.9438574, 36.8281043], [136.9439754, 36.8287956], [136.9440318, 36.8292572], [136.9441176, 36.8300516], [136.9441793, 36.8308566], [136.9442061, 36.8318377], [136.94419, 36.8327931], [136.9441498, 36.8335616], [136.9440425, 36.8347445], [136.9439674, 36.8357127], [136.9439285, 36.8363181], [136.9439245, 36.8367259], [136.9439218, 36.8373292], [136.9439406, 36.8378594], [136.9439808, 36.8383252], [136.9440344, 36.8388855], [136.9440934, 36.8393084], [136.9441787, 36.8397748], [136.9442953, 36.8403268], [136.944437, 36.8409087], [136.9446327, 36.8415895], [136.9448956, 36.8424185], [136.9451836, 36.8431913], [136.9454762, 36.8439185], [136.9457039, 36.844414], [136.9460766, 36.8451752], [136.9462662, 36.8455105], [136.9467122, 36.8462327], [136.9471394, 36.8468715], [136.9474618, 36.847322], [136.9477824, 36.847744], [136.9480789, 36.8481015], [136.9483803, 36.8484683], [136.9487829, 36.8489391], [136.9491849, 36.8493867], [136.9512352, 36.8516058], [136.9521381, 36.8526485], [136.9525414, 36.8531516], [136.9530943, 36.853851], [136.9532389, 36.8540545], [136.9536513, 36.854635], [136.9541514, 36.8553507], [136.9544725, 36.8558288], [136.9546608, 36.8561653], [136.9548888, 36.8565663], [136.9554239, 36.8575074], [136.9554467, 36.8575514], [136.955652, 36.8579473], [136.9558508, 36.8583694], [136.9559645, 36.8586375], [136.9561254, 36.8590531], [136.9563467, 36.8596542], [136.9567817, 36.860822], [136.9579444, 36.8639739], [136.958103, 36.8644195], [136.9583063, 36.8649041], [136.9585014, 36.8653107], [136.9586544, 36.8655857], [136.9588421, 36.8658961], [136.9590503, 36.8662116], [136.9592468, 36.8664778], [136.9594891, 36.8667864], [136.9597414, 36.8670931], [136.9601073, 36.8674996], [136.9606155, 36.8679973], [136.962075, 36.8694023], [136.9636849, 36.8708854], [136.9644655, 36.8715651], [136.9671576, 36.8738608], [136.9686285, 36.875097], [136.9689185, 36.8753288], [136.9692348, 36.8755618], [136.9698197, 36.8760239], [136.9707995, 36.8768434], [136.9711369, 36.8771264], [136.97195, 36.8778223], [136.9729298, 36.8786743], [136.9732428, 36.8789377], [136.9737265, 36.8793583], [136.9740158, 36.8796121], [136.9741355, 36.879727], [136.9742754, 36.8798613], [136.9746657, 36.8802613], [136.9750438, 36.8807133], [136.9753894, 36.8811816], [136.9756943, 36.8816498], [136.9759951, 36.8821766], [136.9763691, 36.8828498], [136.9780388, 36.8859152], [136.9788156, 36.8872632], [136.9792251, 36.8879409], [136.9795158, 36.8883927], [136.9797631, 36.8887512], [136.9799653, 36.8890297], [136.9804111, 36.8896218], [136.9810121, 36.8903948], [136.9814064, 36.8908727], [136.981727, 36.891242], [136.9820579, 36.8916113], [136.9824362, 36.8920128], [136.9837401, 36.893386], [136.9844325, 36.8941042], [136.9852103, 36.8949323], [136.9869816, 36.8967831], [136.9878587, 36.8977141], [136.9881398, 36.8980362], [136.9893191, 36.899332], [136.9908212, 36.9010694], [136.9922266, 36.9027724], [136.9931415, 36.9039281], [136.9933615, 36.9042135], [136.9936416, 36.9045756], [136.9950269, 36.9064185], [136.996781, 36.9087563], [136.9978915, 36.9102447], [136.9997261, 36.9126509], [137.0016734, 36.9152544], [137.0028911, 36.9169228], [137.0031946, 36.9173682], [137.003354, 36.9176076], [137.0036745, 36.9180921], [137.0037703, 36.9182351], [137.0048433, 36.9198332], [137.0049532, 36.9200003], [137.0064423, 36.9221494], [137.0070458, 36.9229479], [137.0077809, 36.9238874], [137.0123799, 36.929874], [137.0142342, 36.9322795]], [[136.8781061, 37.0573237], [136.8745924, 37.059001]], [[136.847852, 37.0586694], [136.8473636, 37.0586703], [136.8464837, 37.0586643], [136.846049, 37.0586668], [136.8456223, 37.0586739], [136.8451735, 37.0586928], [136.8446474, 37.0587224], [136.8442013, 37.0587592], [136.8437494, 37.0588019], [136.8432909, 37.0588519], [136.842865, 37.0589038], [136.842433, 37.0589674], [136.8420754, 37.0590279], [136.8420136, 37.0590383], [136.8416492, 37.0591081], [136.8412364, 37.0591961], [136.84077, 37.0593022], [136.8402998, 37.0594214], [136.8398783, 37.0595392], [136.8394729, 37.0596613], [136.8390404, 37.0598046], [136.8385999, 37.0599629], [136.838147, 37.0601328], [136.8376298, 37.0603541], [136.837228, 37.0605325], [136.8368423, 37.0607195], [136.8359734, 37.0611815], [136.8350439, 37.0617395], [136.834875, 37.0618418], [136.8346046, 37.0620344], [136.8341875, 37.062333], [136.8337163, 37.0626994], [136.8331185, 37.0632061], [136.8328735, 37.0634288], [136.832524, 37.0637748], [136.8320222, 37.064305], [136.8315822, 37.0648163], [136.831228, 37.0652571], [136.8308992, 37.0657054], [136.8304907, 37.0663426], [136.830125, 37.0669713], [136.8293911, 37.0683848], [136.8290317, 37.0690248], [136.8291883, 37.0686915], [136.8294566, 37.0681146], [136.8297809, 37.0674313], [136.8300315, 37.0669334], [136.8303841, 37.0663114], [136.8307967, 37.0656713], [136.8311546, 37.0651793], [136.8314885, 37.0647516], [136.8319341, 37.0642426], [136.8324387, 37.0637037], [136.8327773, 37.0633788], [136.8330364, 37.0631342], [136.8336532, 37.0626151], [136.8341118, 37.0622683], [136.8345374, 37.0619608], [136.8349311, 37.0616945], [136.8354706, 37.0613611], [136.8359109, 37.0611017], [136.8367625, 37.06065], [136.8371545, 37.0604617], [136.8375547, 37.0602819], [136.8378233, 37.0601685], [136.8381835, 37.0600205], [136.838557, 37.0598799], [136.8389846, 37.0597277], [136.8394465, 37.0595749], [136.8398961, 37.0594409], [136.8402579, 37.0593381], [136.8407592, 37.0592128], [136.8411763, 37.0591172], [136.8416165, 37.0590256], [136.84199, 37.0589594], [136.8420531, 37.0589483], [136.8424028, 37.0588866], [136.8428534, 37.0588178], [136.8433148, 37.0587619], [136.843743, 37.0587171], [136.8441945, 37.0586823], [136.844716, 37.0586519], [136.8451818, 37.0586336], [136.8455786, 37.0586231], [136.8460756, 37.0586201], [136.8466692, 37.0586281], [136.847852, 37.0586694], [136.8485195, 37.0586918], [136.8491726, 37.0587153], [136.8498016, 37.0587516], [136.8504697, 37.0588], [136.8511536, 37.0588629], [136.8519417, 37.0589605], [136.8527266, 37.0590915], [136.8535392, 37.0592553], [136.8543126, 37.0594371], [136.8574008, 37.0602916], [136.8581283, 37.060474], [136.8589074, 37.0606432], [136.8597079, 37.0607739], [136.8607256, 37.0609277], [136.8643807, 37.0614509], [136.8650438, 37.0615428], [136.8655983, 37.0616138], [136.86612, 37.0616583], [136.8666271, 37.0616804], [136.8671399, 37.0616769], [136.8676628, 37.0616463], [136.8681506, 37.0615895], [136.8686446, 37.0615074], [136.8691314, 37.0613982], [136.8695718, 37.0612791], [136.8700184, 37.0611271], [136.870457, 37.0609635], [136.8710811, 37.0606917], [136.871955, 37.0602812], [136.8745924, 37.059001]], [[136.8290317, 37.0690248], [136.8289551, 37.0691547], [136.8288057, 37.0694078], [136.8285488, 37.0697688], [136.8282539, 37.0701388], [136.8279687, 37.0704715], [136.8276373, 37.0708172], [136.8264461, 37.0719369], [136.82611, 37.0722925], [136.8257732, 37.0726688], [136.82558, 37.0729097], [136.8253933, 37.0731815], [136.8252011, 37.0734961], [136.8249697, 37.0739496], [136.8247976, 37.0743602], [136.8247089, 37.0745984], [136.824623, 37.0748548], [136.8245198, 37.0752127], [136.8243003, 37.0760076], [136.8241563, 37.0764368], [136.8240131, 37.0767794], [136.8238649, 37.0770845], [136.823649, 37.0774551], [136.8235025, 37.0776713], [136.8233155, 37.0778893], [136.8231002, 37.0781285], [136.8228786, 37.0783576], [136.8227101, 37.0785114], [136.8225122, 37.0786706], [136.8222567, 37.0788637], [136.8219682, 37.0790485], [136.8216457, 37.0792348], [136.8213216, 37.0794007], [136.820987, 37.0795412], [136.8205611, 37.0796984], [136.8201824, 37.0798167], [136.8198076, 37.0799101], [136.8194093, 37.0799781], [136.8190252, 37.0800281], [136.8186552, 37.0800593], [136.818214, 37.0800781], [136.8177857, 37.0800851], [136.817326, 37.0800736], [136.8165428, 37.0800366], [136.8160089, 37.0800346], [136.8154274, 37.0800418], [136.8150851, 37.0800694], [136.8146556, 37.0801191], [136.8142544, 37.0801964], [136.8139005, 37.0802949], [136.8135338, 37.0804104], [136.8132304, 37.0805313], [136.8129031, 37.080684], [136.8126324, 37.0808347], [136.8123533, 37.0810074], [136.8121106, 37.081179], [136.8119154, 37.0813388], [136.8116747, 37.0815701], [136.8114758, 37.0817713], [136.8113198, 37.081958], [136.8111854, 37.0821574], [136.8110569, 37.0823615], [136.8109662, 37.0825134], [136.8105403, 37.0833746], [136.8103976, 37.0836193], [136.8102191, 37.0839054], [136.8100577, 37.0841083], [136.8098481, 37.0843427], [136.8095851, 37.0845826], [136.8094028, 37.084743], [136.8085695, 37.0853575], [136.8083573, 37.0855437], [136.8081824, 37.0857094], [136.8080265, 37.0858834], [136.8079009, 37.0860382], [136.8077914, 37.0862103], [136.8076993, 37.0863948], [136.807629, 37.086548], [136.8075918, 37.0866797], [136.8075296, 37.0869197], [136.8074843, 37.0871765], [136.8074743, 37.0873904], [136.807492, 37.0876077], [136.8075521, 37.0879209], [136.8076455, 37.0882463], [136.8077514, 37.0885621], [136.8079307, 37.0891251], [136.808107, 37.0896508], [136.8082633, 37.0901797], [136.8084472, 37.0908481], [136.8086166, 37.0915331], [136.8087683, 37.0922099], [136.8088823, 37.092896], [136.8091035, 37.0944839], [136.809196, 37.0949711], [136.8092871, 37.0953215], [136.8093871, 37.0955966], [136.8095004, 37.0958276], [136.809637, 37.0960428], [136.8097619, 37.0962127], [136.8099362, 37.0964303], [136.8100855, 37.096596], [136.8102587, 37.0967725], [136.8104308, 37.0969359], [136.8106364, 37.0971188], [136.8108314, 37.0972782], [136.8114715, 37.0977668], [136.8118291, 37.0980083], [136.8123003, 37.0982896], [136.8128693, 37.0986065], [136.8134441, 37.0988757], [136.8139715, 37.0990875], [136.8145682, 37.0992942], [136.8151932, 37.0994851], [136.8165604, 37.0998427], [136.8169931, 37.0999515], [136.817257, 37.1000242], [136.8176057, 37.1001324], [136.817925, 37.1002431], [136.8182355, 37.1003612], [136.8185115, 37.1004816], [136.8188048, 37.1006256], [136.8190799, 37.1007784], [136.8193304, 37.1009366], [136.8196183, 37.1011449], [136.8198726, 37.1013557], [136.8200278, 37.1015018], [136.8202793, 37.1017816], [136.8205047, 37.1020788], [136.8206643, 37.1023371], [136.8208114, 37.1026441], [136.8209071, 37.1029039], [136.8209621, 37.1031061], [136.8210101, 37.1033507], [136.8210312, 37.1036103], [136.8210345, 37.1038258], [136.8210215, 37.1040572], [136.8209953, 37.1042932], [136.8209504, 37.1045262], [136.8208662, 37.104848], [136.8207027, 37.1054852], [136.820652, 37.1057287], [136.8206236, 37.1059228], [136.8206111, 37.1061375], [136.8206131, 37.1063683], [136.8206436, 37.1066447], [136.8207073, 37.1069458], [136.8208086, 37.1073106], [136.8209229, 37.1076486], [136.8210934, 37.1081306], [136.8211702, 37.1084169], [136.821225, 37.1086728], [136.8212521, 37.1088929], [136.8212597, 37.1092891], [136.8212475, 37.1095673], [136.8212087, 37.1099065], [136.821173, 37.1100619], [136.8211291, 37.1102726], [136.8210567, 37.1104923], [136.8209149, 37.1108766], [136.8206612, 37.1114148], [136.8204364, 37.1118239], [136.8201891, 37.1122153], [136.8198771, 37.1126257], [136.8195447, 37.1130188], [136.8192006, 37.1133604], [136.8188319, 37.1137052], [136.8184237, 37.1140612], [136.8177347, 37.1146156], [136.8173542, 37.1149627], [136.8168711, 37.1154209], [136.8165927, 37.1157149], [136.8163887, 37.115946], [136.8159816, 37.116494], [136.8157934, 37.116786], [136.8156297, 37.1170565], [136.815463, 37.1173618], [136.81531, 37.1177003], [136.8151213, 37.1181634], [136.8150219, 37.1184767], [136.8149217, 37.1188522], [136.8148684, 37.119181], [136.8148354, 37.1195316], [136.814832, 37.1198784], [136.8148765, 37.1203024], [136.8149491, 37.1206465], [136.8149906, 37.1208112], [136.8151485, 37.121238], [136.8152327, 37.1213999], [136.8153957, 37.1216796], [136.8156282, 37.1220414], [136.8158905, 37.1223661], [136.8160823, 37.1225743], [136.816793, 37.1232775], [136.8171925, 37.1237044], [136.8174138, 37.1239455], [136.8176167, 37.1242073], [136.8178114, 37.1244875], [136.8179673, 37.1247577], [136.8180827, 37.1249988], [136.8181844, 37.1252523], [136.818268, 37.1254879], [136.8183517, 37.1257714], [136.8185164, 37.1263372], [136.818684, 37.1268806], [136.8188168, 37.1272676], [136.8189601, 37.1276504], [136.8191109, 37.1279941], [136.8192698, 37.1283126], [136.8194347, 37.1286181], [136.8195904, 37.1288791], [136.8197887, 37.1291722], [136.8201464, 37.1296309], [136.8204212, 37.1299626], [136.8208279, 37.1304193], [136.8212768, 37.1308841], [136.8209698, 37.1306342], [136.8207503, 37.1304451], [136.8203865, 37.130087], [136.8200566, 37.1297383], [136.819793, 37.1294081], [136.8196585, 37.1292162], [136.8194765, 37.1289202], [136.8193196, 37.1286572], [136.8191523, 37.1283467], [136.8190011, 37.1280309], [136.818852, 37.1276802], [136.8187027, 37.1272945], [136.8185709, 37.1269063], [136.8183963, 37.1263534], [136.8182293, 37.1257981], [136.818136, 37.1255136], [136.818045, 37.1252755], [136.8179427, 37.1250435], [136.8178134, 37.1248017], [136.8176527, 37.1245473], [136.8174626, 37.1242825], [136.8172535, 37.1240316], [136.8170197, 37.1237894], [136.816594, 37.1233854], [136.8161831, 37.1230073], [136.8158296, 37.1226679], [136.8154981, 37.1222863], [136.8152458, 37.1219357], [136.8150556, 37.1216195], [136.8149153, 37.1213446], [136.8147861, 37.1210412], [136.8146919, 37.1207355], [136.8146194, 37.120419], [136.814574, 37.1200906], [136.8145563, 37.1198406], [136.8145606, 37.1195739], [136.8145827, 37.1193162], [136.8146285, 37.1190708], [136.8147056, 37.1187515], [136.8148175, 37.1184108], [136.8149381, 37.1181142], [136.815112, 37.1177411], [136.8153181, 37.1173419], [136.8155161, 37.1169897], [136.8158594, 37.1164496], [136.8160715, 37.1161525], [136.8162423, 37.115936], [136.8164122, 37.1157429], [136.8166077, 37.115542], [136.8168332, 37.1153226], [136.8171002, 37.1150831], [136.817392, 37.1148537], [136.8177347, 37.1146156]], [[136.8212768, 37.1308841], [136.8215118, 37.1310851], [136.8219258, 37.1314221], [136.8223193, 37.131694], [136.8226369, 37.1318913], [136.82295, 37.1320601], [136.8232128, 37.1321854], [136.8234869, 37.132297], [136.8238127, 37.1324071], [136.82412, 37.1324918], [136.8244218, 37.1325592], [136.8247522, 37.1326183], [136.8252977, 37.1326994], [136.8262002, 37.1328526], [136.8266528, 37.1329409], [136.8270889, 37.1330484], [136.8274269, 37.1331518], [136.8277839, 37.1332919], [136.8280917, 37.1334334], [136.8283971, 37.1335925], [136.8287012, 37.1337686], [136.8290856, 37.1340017], [136.8302938, 37.1347452], [136.8311064, 37.1352494], [136.8319847, 37.1357992], [136.8331038, 37.1365045], [136.8353262, 37.1378898], [136.8356802, 37.1381039], [136.8362307, 37.1384205], [136.8365516, 37.1385933], [136.8368374, 37.1387395], [136.8371797, 37.1389002], [136.8374353, 37.1390049], [136.8377107, 37.1391058], [136.8380557, 37.1392104], [136.8384512, 37.139302], [136.8388522, 37.1393651], [136.8392336, 37.1394005], [136.8396018, 37.1394189], [136.8399936, 37.139419], [136.8404432, 37.1393952], [136.840911, 37.1393366], [136.8413411, 37.1392542], [136.8417378, 37.1391449], [136.8421424, 37.1390091], [136.8424926, 37.1388766], [136.8428562, 37.1386985], [136.8433772, 37.1383987], [136.8439256, 37.1380407], [136.8448599, 37.1373853], [136.8452421, 37.1371416], [136.8455833, 37.1369527], [136.8459362, 37.1367852], [136.8462382, 37.1366591], [136.8465336, 37.1365635], [136.8468544, 37.1364918], [136.8471906, 37.1364398], [136.8475481, 37.1364122], [136.8478848, 37.1364108], [136.8481864, 37.1364332], [136.8484739, 37.1364712], [136.8487769, 37.1365308], [136.8490748, 37.1366149], [136.8493575, 37.1367248], [136.8496042, 37.1368354], [136.8498085, 37.1369506], [136.8499927, 37.137078], [136.8501582, 37.1372185], [136.850329, 37.1373772], [136.8504672, 37.1375435], [136.8506112, 37.1377365], [136.8507548, 37.1379627], [136.8508745, 37.1382054], [136.8509529, 37.138428], [136.8510112, 37.1386713], [136.851039, 37.138908], [136.8510359, 37.1391424], [136.851024, 37.1393694], [136.8509829, 37.1396], [136.8509116, 37.1398488], [136.8507903, 37.1401401], [136.8506489, 37.1404081], [136.8504777, 37.1406681], [136.8494983, 37.1419699], [136.8493385, 37.1422046], [136.849201, 37.1424222], [136.8490815, 37.142645], [136.8489628, 37.1429056], [136.8488514, 37.1432261], [136.848778, 37.1435623], [136.8487491, 37.1438586], [136.8487485, 37.1441218], [136.8487691, 37.1443194], [136.8488021, 37.1445409], [136.8488622, 37.144794]], [[136.8493836, 37.1460019], [136.84951, 37.1462687], [136.84969, 37.1466903], [136.849834, 37.1470962], [136.8499193, 37.1474562], [136.8499682, 37.1478131], [136.849986, 37.1481659], [136.8499755, 37.1484747], [136.8499276, 37.1488094], [136.8498146, 37.1492478], [136.8496797, 37.1495985], [136.8495222, 37.1499375], [136.8493638, 37.150204], [136.8491897, 37.1504608], [136.8490011, 37.1506934], [136.8486478, 37.1510475], [136.8482786, 37.1513667], [136.8477709, 37.1517679], [136.8469613, 37.1523794], [136.846681, 37.1526038], [136.8464681, 37.1527906], [136.846305, 37.152963], [136.8461638, 37.1531384], [136.8460379, 37.1533163], [136.8459198, 37.1535278], [136.8457945, 37.1538009], [136.8457292, 37.1540036], [136.8456848, 37.1541798], [136.8456437, 37.1543887], [136.8456271, 37.1545721], [136.8456291, 37.1547516], [136.8456448, 37.1549037], [136.8456689, 37.1550583], [136.845719, 37.1552516], [136.8457875, 37.1554566], [136.8459007, 37.1557082], [136.8460162, 37.1559213], [136.8461516, 37.1561272], [136.8462866, 37.1563037], [136.8464473, 37.1564822], [136.8466182, 37.1566355], [136.8468181, 37.1567992], [136.8470374, 37.1569407], [136.8472921, 37.1570786], [136.847568, 37.1571962], [136.8478866, 37.1573158], [136.8482304, 37.1574142], [136.848588, 37.1574961], [136.8490037, 37.1575748], [136.8505119, 37.1577917], [136.8508649, 37.1578575], [136.8511603, 37.157928], [136.8514784, 37.1580174], [136.8517542, 37.1581116], [136.8520769, 37.1582493], [136.8523979, 37.1584103], [136.8526613, 37.1585763], [136.8528931, 37.1587478], [136.8531601, 37.1589806], [136.8533538, 37.1591726], [136.8535537, 37.1594032], [136.8537327, 37.1596415], [136.8539048, 37.1598893], [136.854038, 37.1601005], [136.8541672, 37.1603271], [136.8543607, 37.1607651], [136.8545477, 37.1611435], [136.8547097, 37.1614477], [136.8548744, 37.1617216], [136.8550415, 37.1619552], [136.8552071, 37.1621545], [136.8557078, 37.1626889], [136.8560888, 37.1631075], [136.8562648, 37.1632939], [136.856407, 37.1634628], [136.8565396, 37.1636324], [136.8566681, 37.1638152], [136.8567968, 37.1640176], [136.8569076, 37.164221], [136.8569978, 37.1644346], [136.8570729, 37.1646288], [136.8571337, 37.1648307], [136.8571812, 37.1650715], [136.8572127, 37.1653191], [136.8572369, 37.1656025], [136.8572408, 37.1659384], [136.8572221, 37.1662826], [136.8571968, 37.1665965], [136.8571678, 37.1671701], [136.8571774, 37.1675102], [136.8572189, 37.167856], [136.8573207, 37.1683278], [136.8575197, 37.1690134], [136.8577596, 37.1697946], [136.8578603, 37.1701954], [136.8579263, 37.1706095], [136.857947, 37.1709618], [136.8579438, 37.1714211], [136.8578967, 37.1718724], [136.8578233, 37.1722908], [136.8576958, 37.172749], [136.8575586, 37.1731528], [136.8573758, 37.1735466], [136.856987, 37.1742926], [136.8562765, 37.1754831], [136.855516, 37.1768407], [136.8548881, 37.1779465], [136.8543914, 37.1788201], [136.854118, 37.1792791], [136.8537486, 37.180034], [136.8535333, 37.1805827], [136.8534123, 37.1809889], [136.8533261, 37.1813223], [136.8532898, 37.1815142], [136.8532462, 37.1817975], [136.8532147, 37.1820584], [136.853199, 37.1823815], [136.8532044, 37.182898], [136.8532295, 37.1832044], [136.8532782, 37.18353], [136.8533452, 37.183888], [136.8534595, 37.1843266], [136.8535792, 37.1846878], [136.8537208, 37.1849958], [136.8538923, 37.185323], [136.8540573, 37.1855987], [136.8543204, 37.1859636], [136.854499, 37.1861918], [136.8548681, 37.1865847], [136.85455, 37.1861623], [136.854387, 37.1859384], [136.8541477, 37.1855651], [136.8539842, 37.1852896], [136.8538367, 37.1849724], [136.853714, 37.1846658], [136.8535925, 37.1843132], [136.8534597, 37.1838768], [136.8533891, 37.1835219], [136.8533505, 37.183195], [136.8533265, 37.1828907], [136.8533155, 37.1823789], [136.8533339, 37.1820645], [136.8533588, 37.1818063], [136.8534005, 37.1815156], [136.8534376, 37.1813325], [136.853523, 37.1810013], [136.8536506, 37.1806], [136.8537885, 37.1802516], [136.8539215, 37.1799356], [136.8540795, 37.1796205], [136.854233, 37.1793284], [136.8544267, 37.1789729], [136.854829, 37.1782703], [136.854994, 37.1779816], [136.8556343, 37.1768648], [136.8563888, 37.1755283], [136.8570692, 37.1743208], [136.8574818, 37.1735738], [136.8576627, 37.1731778], [136.857817, 37.1727713], [136.8579441, 37.1723081], [136.8580205, 37.1718816], [136.8580618, 37.1714308], [136.8580568, 37.1709617], [136.858036, 37.170601], [136.8579703, 37.1701807], [136.8578732, 37.1697857], [136.8576327, 37.1689825], [136.8574273, 37.1682674], [136.8573386, 37.1678472], [136.8573074, 37.1675169], [136.8572968, 37.1671645], [136.8573232, 37.166594], [136.8573472, 37.166285], [136.857361, 37.1659329], [136.85736, 37.1656041], [136.8573381, 37.1653025], [136.8573063, 37.1650636], [136.8572631, 37.1648234], [136.8571968, 37.1646048], [136.8571242, 37.1644112], [136.8570235, 37.164192], [136.85691, 37.1639838], [136.8567825, 37.1637868], [136.8566435, 37.1635888], [136.8565002, 37.163414], [136.856355, 37.1632517], [136.8561532, 37.163038], [136.8556459, 37.1624806], [136.8552976, 37.1620974], [136.8550852, 37.1618435], [136.8548206, 37.1614609], [136.8546121, 37.1610821], [136.8541672, 37.1603271]], [[136.8548681, 37.1865847], [136.8550917, 37.1868357], [136.8553345, 37.1870868], [136.8555968, 37.1873414], [136.8558884, 37.1875868], [136.8562009, 37.1878301], [136.8566882, 37.1881877], [136.8572248, 37.1885431], [136.857915, 37.1889602], [136.8588631, 37.189488], [136.8592813, 37.1897117], [136.8606763, 37.1904497], [136.8614023, 37.1908521], [136.8621031, 37.1912517], [136.862685, 37.191617], [136.863239, 37.1920093], [136.8637756, 37.1924412], [136.864142, 37.1927745], [136.86448, 37.1931196], [136.8648894, 37.193604], [136.865212, 37.1940489], [136.8654365, 37.1944043], [136.8655877, 37.1946749], [136.8657082, 37.1949213], [136.8658429, 37.1952305], [136.865947, 37.1955032], [136.8660315, 37.1957846], [136.8661452, 37.1961661], [136.8662537, 37.1965458], [136.8664737, 37.1974449], [136.866565, 37.1977934], [136.8666706, 37.1981148], [136.8668152, 37.19852], [136.8669489, 37.1988339], [136.8670911, 37.1991301], [136.8672606, 37.1994445], [136.8675151, 37.1998527], [136.8677409, 37.2001925], [136.8680762, 37.2006452], [136.8683107, 37.2009208], [136.8688856, 37.2014901], [136.8693009, 37.201893], [136.8696373, 37.2021707], [136.8700598, 37.2024991], [136.8704734, 37.2027884], [136.8711278, 37.2031781], [136.8717977, 37.2035226], [136.872914, 37.2040753], [136.8737238, 37.2045069], [136.8741912, 37.2047876], [136.8747469, 37.2051681], [136.8750371, 37.2054049], [136.8753308, 37.2056501], [136.8755768, 37.2058811], [136.8758796, 37.2061975], [136.8761873, 37.2065691], [136.8764457, 37.2068904], [136.8767394, 37.2073358], [136.8771217, 37.2079897], [136.8778215, 37.2091813], [136.8780402, 37.2095334], [136.8782625, 37.2098813], [136.8784244, 37.2101229], [136.8785692, 37.2103152], [136.8787226, 37.210511], [136.8789721, 37.2107932], [136.8792751, 37.2111113], [136.8796078, 37.2114313], [136.8799044, 37.2116895], [136.8801615, 37.2119073], [136.8804547, 37.2121521], [136.8808108, 37.2124172], [136.8812072, 37.2126968], [136.8816499, 37.2130092], [136.8824791, 37.2135549], [136.884789, 37.2149741], [136.8853102, 37.2153059], [136.8858854, 37.2156952], [136.8864553, 37.2161083], [136.8869574, 37.2164815], [136.8874242, 37.2168778], [136.8879064, 37.2173044], [136.888306, 37.2176949], [136.8887245, 37.2181308], [136.8890778, 37.2185474], [136.889405, 37.2189287], [136.8897043, 37.2193263], [136.8900075, 37.2197504], [136.8903302, 37.2202382], [136.890614, 37.2206996], [136.891017, 37.2214656], [136.891405, 37.2223115], [136.8916154, 37.2228793], [136.8917445, 37.2233464], [136.8918061, 37.2236766], [136.8918275, 37.2239755], [136.8918309, 37.2243262], [136.8917937, 37.2246765], [136.8917203, 37.2250466], [136.8915721, 37.2255034], [136.8913407, 37.2261375], [136.8911551, 37.2267331], [136.8910192, 37.2273089], [136.890954, 37.2277546], [136.890913, 37.2282023], [136.8909026, 37.228657], [136.8909141, 37.2290804], [136.8909669, 37.2295707], [136.8910473, 37.2300429], [136.8911486, 37.2305418], [136.8912891, 37.2310362], [136.8914537, 37.2314742], [136.8917074, 37.2320333], [136.8919838, 37.2325622], [136.8924096, 37.2332525], [136.8926716, 37.2336023], [136.8929117, 37.2338873], [136.8932013, 37.234195], [136.8935423, 37.2345156], [136.8938692, 37.2348143], [136.8941823, 37.2350848], [136.8946016, 37.2354074], [136.8951067, 37.2357423], [136.8956808, 37.2360761], [136.8962466, 37.2363738], [136.8968723, 37.2366631], [136.8974961, 37.2369204], [136.8988193, 37.2374602], [136.8991207, 37.2375998], [136.9001391, 37.2380757], [136.9016257, 37.2387839], [136.9024429, 37.2391854], [136.9039129, 37.2399376], [136.9054437, 37.240689], [136.9064277, 37.241192], [136.9071512, 37.241553], [136.9076659, 37.2418373], [136.908026, 37.2420706], [136.9084064, 37.2423357], [136.9088517, 37.2426883], [136.9092941, 37.2430871], [136.9095828, 37.2433802], [136.9099308, 37.2437982], [136.9102463, 37.2442257], [136.9104736, 37.2445794], [136.9108059, 37.245171], [136.9110453, 37.2456463], [136.9113159, 37.2462661], [136.9117095, 37.2472791], [136.9118896, 37.2478264], [136.9121817, 37.2489686], [136.9123143, 37.2496149], [136.9124629, 37.2503414], [136.9126104, 37.250948], [136.9127479, 37.2514147], [136.9129184, 37.2518998], [136.9130946, 37.2523436], [136.9132876, 37.2527735], [136.9135724, 37.2533331], [136.9141307, 37.2544243], [136.9143903, 37.2549711], [136.9145549, 37.2553899], [136.9147215, 37.2558628], [136.9148567, 37.2563226], [136.9150387, 37.2572141], [136.9152625, 37.2585993], [136.9153571, 37.2590627], [136.9154591, 37.2595101], [136.9156471, 37.2602155], [136.9159474, 37.2611727], [136.9163482, 37.2622434], [136.9166811, 37.2630053], [136.9171113, 37.2638841], [136.9175097, 37.264618], [136.9179604, 37.2653656], [136.9184901, 37.2661672], [136.9189954, 37.2668694], [136.9195344, 37.2675572], [136.9202045, 37.2683866], [136.9215101, 37.2700166], [136.9228175, 37.2716484], [136.9229593, 37.2718244], [136.9235673, 37.2725787], [136.924347, 37.2735614], [136.9249183, 37.2742708], [136.9252549, 37.2747038], [136.925581, 37.2751689], [136.9258957, 37.2756571], [136.9262253, 37.2762438], [136.9264888, 37.2767869], [136.9267206, 37.2773526], [136.9269151, 37.2779248], [136.9270591, 37.2784163], [136.9271568, 37.2788695], [136.9272753, 37.2795599], [136.9273436, 37.280173], [136.9273628, 37.2808474], [136.927358, 37.2815259], [136.9273118, 37.2822757], [136.927279, 37.2826296], [136.9272342, 37.2829635], [136.9271874, 37.2833068]], [[136.927358, 37.2815259], [136.9272903, 37.2821127], [136.9272475, 37.2824067], [136.9270709, 37.2832094], [136.926899, 37.2840057], [136.9267333, 37.2845093], [136.9265988, 37.2847632], [136.9264616, 37.2849983]], [[136.9270203, 37.2854847], [136.9272045, 37.2849627], [136.9273246, 37.2844606], [136.9273454, 37.284241], [136.9273726, 37.2840172], [136.9274334, 37.2835219], [136.9274688, 37.2831244], [136.927487, 37.2827295], [136.9274918, 37.2825265], [136.9274708, 37.2823004]], [[136.9273255, 37.2833192], [136.9273786, 37.2829859], [136.9274283, 37.2826571], [136.9274708, 37.2823004], [136.9274991, 37.2818978], [136.9275116, 37.2813895], [136.9275032, 37.2808554], [136.9274416, 37.2801704], [136.9273717, 37.2795509], [136.9272346, 37.2788587], [136.9271465, 37.2783966], [136.9269972, 37.2779106], [136.9268022, 37.2773351], [136.9265712, 37.276767], [136.9263034, 37.2762173], [136.9259713, 37.2756299], [136.9256688, 37.2751356], [136.9253358, 37.2746623], [136.9249986, 37.2742306], [136.9244312, 37.2735244], [136.9236422, 37.2725411], [136.9230668, 37.2718193], [136.9229005, 37.2716107], [136.9215889, 37.2699773], [136.9202829, 37.268344], [136.9196172, 37.2675188], [136.919073, 37.2668291], [136.918573, 37.2661338], [136.9180462, 37.2653322], [136.9175975, 37.2645881], [136.9171983, 37.2638539], [136.9167671, 37.2629787], [136.9164402, 37.262218], [136.9160404, 37.2611495], [136.9157391, 37.2601985], [136.9155566, 37.2594966], [136.9154519, 37.2590517], [136.9153578, 37.2585893], [136.9151345, 37.2572066], [136.9149467, 37.2563108], [136.9148054, 37.2558473], [136.9146461, 37.255368], [136.914478, 37.2549502], [136.914222, 37.2543972], [136.9136607, 37.2533089], [136.913375, 37.2527478], [136.9131773, 37.2523227], [136.9129852, 37.2518862], [136.9128182, 37.2514006], [136.9126755, 37.2509422], [136.9125234, 37.2503371], [136.9123758, 37.2496105], [136.9122445, 37.248963], [136.9119499, 37.2478175], [136.9117729, 37.2472628], [136.9113824, 37.2462513], [136.9111047, 37.2456267], [136.9108586, 37.2451523], [136.9105261, 37.2445554], [136.9103018, 37.2442059], [136.9099934, 37.2437693], [136.9096491, 37.2433544], [136.9093612, 37.2430499], [136.9089191, 37.242647], [136.90846, 37.2422916], [136.9080817, 37.2420234], [136.9077087, 37.2417889], [136.9071971, 37.2415052], [136.9064828, 37.2411381], [136.9054617, 37.2406359], [136.9039603, 37.2398958], [136.9024615, 37.2391329], [136.9016583, 37.2387421], [136.9001645, 37.2380296], [136.8991449, 37.2375528], [136.8988556, 37.237417], [136.8975332, 37.23687], [136.8966189, 37.2364625], [136.8963317, 37.2363241], [136.8957667, 37.236038], [136.8951564, 37.2356796], [136.8946631, 37.2353536], [136.8942428, 37.2350331], [136.8939242, 37.2347669], [136.8935965, 37.2344699], [136.8932543, 37.2341599], [136.892959, 37.23386], [136.892717, 37.2335713], [136.8924713, 37.233229], [136.8919838, 37.2325622]], [[136.8683107, 37.2009208], [136.8688233, 37.2015132], [136.8692331, 37.2019335], [136.8695593, 37.2022331], [136.8699784, 37.2025614], [136.8703981, 37.2028482], [136.8710621, 37.2032409], [136.8721207, 37.2037922], [136.8728895, 37.2041719], [136.8736776, 37.2046019], [136.8740845, 37.2048588], [136.8744864, 37.205134], [136.8748133, 37.2053827], [136.8751164, 37.2056218], [136.875472, 37.2059466], [136.8758419, 37.2063377], [136.8761689, 37.2067361], [136.8765076, 37.207206], [136.8770694, 37.2081273], [136.8777144, 37.2092132], [136.8779339, 37.2095704], [136.8781658, 37.2099256], [136.8783235, 37.2101589], [136.8784783, 37.2103621], [136.8788812, 37.2108378], [136.8792482, 37.2112389], [136.8795106, 37.2114962], [136.8797879, 37.2117548], [136.8800608, 37.2119939], [136.8803514, 37.2122401], [136.8807133, 37.2125137], [136.8811319, 37.2127808], [136.8816023, 37.2130498], [136.8824791, 37.2135549]], [[136.9273255, 37.2833192], [136.9272087, 37.2838613], [136.9271169, 37.2842113], [136.9269877, 37.284646], [136.9268155, 37.2851359], [136.9267606, 37.2852771], [136.9267178, 37.2854009], [136.9264743, 37.2859743], [136.9261861, 37.286527], [136.926034, 37.2867768], [136.9259187, 37.2869668], [136.9254012, 37.2877887], [136.9251664, 37.2881049], [136.9248013, 37.2885696], [136.9244479, 37.2890106], [136.9240705, 37.2894711], [136.9231608, 37.2905535], [136.9229581, 37.2908271], [136.9227178, 37.2911753], [136.9225071, 37.2915333], [136.9223335, 37.29187], [136.9221492, 37.292267], [136.9220554, 37.2925417], [136.9219827, 37.2927945], [136.9217301, 37.293852], [136.921582, 37.2943854], [136.9214118, 37.2948212], [136.9212179, 37.2952217], [136.9210348, 37.2955416], [136.9208046, 37.295891], [136.9205717, 37.2961794], [136.9203783, 37.2964048], [136.920149, 37.2966455], [136.919879, 37.2969117], [136.9195496, 37.2971993], [136.9192602, 37.2974181], [136.9189293, 37.2976335], [136.9183518, 37.2979756], [136.9130957, 37.3009223], [136.9120774, 37.3014824], [136.9108576, 37.3021257], [136.9101404, 37.3025134], [136.9095038, 37.3028977], [136.9090101, 37.3032398], [136.9086727, 37.3035176], [136.9083791, 37.3037731], [136.9080449, 37.3041048], [136.9077371, 37.3044609], [136.9074843, 37.3047864], [136.9071584, 37.3052788], [136.906934, 37.3056953], [136.9067369, 37.3061313], [136.9066028, 37.3064827], [136.9065095, 37.3067939], [136.9064393, 37.3071032], [136.9063862, 37.3074163], [136.9063508, 37.3077188], [136.9063307, 37.3080021], [136.9063299, 37.3084989], [136.906349, 37.3088092], [136.9063501, 37.3088273], [136.9063879, 37.3093164], [136.9064334, 37.3097325], [136.9065984, 37.3105819], [136.9067989, 37.3114414], [136.9069842, 37.3121095], [136.9071509, 37.3126416], [136.9073263, 37.3131388], [136.9074817, 37.313568], [136.9076985, 37.3141126], [136.9079549, 37.3146994], [136.9082484, 37.3152952], [136.9093536, 37.3174836], [136.9096348, 37.318028], [136.9097389, 37.3182195]], [[136.9098078, 37.3185396], [136.9099861, 37.3190849], [136.9101053, 37.3195479], [136.9102296, 37.3201163], [136.910295, 37.3206034], [136.9103052, 37.320853], [136.9102778, 37.3210078], [136.9102514, 37.3210739], [136.9102201, 37.3211419], [136.9101334, 37.3212567], [136.9100306, 37.3213487], [136.9098723, 37.3214609], [136.9097157, 37.3215649], [136.9095974, 37.3216521], [136.9095036, 37.3217567], [136.9094467, 37.3218255], [136.90941, 37.3219044], [136.9093754, 37.3220409], [136.9093794, 37.322176], [136.9094083, 37.3223121], [136.9095109, 37.3225375], [136.9096148, 37.32274], [136.9097314, 37.3229189], [136.9096517, 37.322742], [136.9095549, 37.3225239], [136.9094627, 37.3223047], [136.9094476, 37.3221769], [136.9094396, 37.322051], [136.9094664, 37.321929], [136.9095185, 37.3218645], [136.9095813, 37.3218085], [136.9096922, 37.3217196], [136.9098802, 37.3216477], [136.9101222, 37.3216168], [136.9108493, 37.3215993], [136.9109121, 37.3215716], [136.9109585, 37.3215366], [136.9109895, 37.3214882], [136.9110035, 37.3213719], [136.9109548, 37.3210355], [136.9108839, 37.3207885], [136.9105656, 37.3199701], [136.9103565, 37.3195008], [136.9097389, 37.3182195]], [[136.9098078, 37.3185396], [136.9096926, 37.3182834], [136.9092856, 37.3174772], [136.9088601, 37.3166474], [136.9084236, 37.3157941], [136.9079981, 37.3149437], [136.9077539, 37.314392], [136.907506, 37.3138168], [136.9073007, 37.3132871], [136.9071028, 37.3127192], [136.9069178, 37.3121307], [136.9067383, 37.3114804], [136.9064849, 37.3103343], [136.9063591, 37.3096265], [136.9062962, 37.309088], [136.9062807, 37.3088669], [136.9062611, 37.3085863], [136.9062703, 37.3080081], [136.9062845, 37.3077274], [136.9063222, 37.3074131], [136.9063754, 37.3070923], [136.9064462, 37.306789], [136.9065388, 37.3064698], [136.9066736, 37.3061041], [136.9068382, 37.3057495], [136.9070362, 37.3053787], [136.9072479, 37.305019], [136.9074237, 37.3047604], [136.9075555, 37.3045857], [136.9078455, 37.3042327], [136.9081442, 37.3039146], [136.9085572, 37.3035267], [136.9089615, 37.3031947], [136.9093173, 37.3029501], [136.9096732, 37.3027229], [136.9101046, 37.3024609], [136.910815, 37.3020782], [136.9120369, 37.3014304], [136.9130536, 37.3008752], [136.9183152, 37.2979274], [136.9188849, 37.2975922], [136.9192135, 37.2973739], [136.9194967, 37.2971609], [136.9198267, 37.296879], [136.9200995, 37.2966112], [136.9203172, 37.2963753], [136.9205123, 37.2961495], [136.9207287, 37.2958624], [136.9209693, 37.2955091], [136.9211934, 37.2951351], [136.9213516, 37.294803], [136.9215185, 37.2943661], [136.9216811, 37.2937964], [136.9218349, 37.2931462], [136.921915, 37.2927894], [136.9219898, 37.2925185], [136.9220809, 37.2922549], [136.9222444, 37.2918537], [136.9224221, 37.2915042], [136.9226353, 37.2911468], [136.9228747, 37.2907979], [136.9230866, 37.290515], [136.9239895, 37.2894105], [136.9243518, 37.2889674], [136.9247097, 37.2885145], [136.9250514, 37.2880396], [136.9252774, 37.2877262], [136.9254037, 37.2875327], [136.9258061, 37.2869308], [136.9259046, 37.2867665], [136.9260714, 37.2864853], [136.9263665, 37.2859253], [136.9266182, 37.285341], [136.9266636, 37.2852271], [136.9267237, 37.2850501], [136.9268645, 37.2846245], [136.9269967, 37.2841887], [136.9270867, 37.2838459], [136.9271874, 37.2833068]], [[137.0056336, 36.919562], [137.0067978, 36.9190121], [137.0074158, 36.9187186], [137.0088586, 36.9180578]], [[136.8987725, 37.0558713], [136.8985368, 37.0559134], [136.8978961, 37.056053], [136.8961647, 37.0564478], [136.8959326, 37.0565024], [136.8956798, 37.0565576], [136.8954304, 37.056602], [136.8952097, 37.0566312], [136.8949244, 37.056652], [136.8945914, 37.0566478], [136.894296, 37.0566266], [136.893982, 37.0565838], [136.8923178, 37.0563463], [136.8921453, 37.0563217], [136.8916131, 37.0562467], [136.8912404, 37.0561902], [136.8909084, 37.0561241], [136.8905866, 37.0560364], [136.8903016, 37.0559563], [136.8899315, 37.0558122], [136.889603, 37.0556699], [136.8892754, 37.0555151], [136.8888893, 37.0553118], [136.8883975, 37.0550525], [136.8878369, 37.0547299], [136.8875346, 37.0545332], [136.8873176, 37.0544135], [136.8870879, 37.0543131], [136.8868534, 37.0542349], [136.886607, 37.054176], [136.8863498, 37.0541368], [136.8861283, 37.0541204], [136.88591, 37.0541206], [136.8856909, 37.0541335], [136.8854765, 37.0541641], [136.8852307, 37.0542186], [136.8844673, 37.0544369], [136.8839135, 37.0546181], [136.8833347, 37.0548351], [136.8827135, 37.0551168], [136.882202, 37.055357], [136.8809514, 37.0559626], [136.8781061, 37.0573237]]]}, "id": "relation/12079774"}]}