{"type": "FeatureCollection", "generator": "kokudo-quiz tools/fetch_raw.py (Overpass API)", "copyright": "The data included in this document is from www.openstreetmap.org. The data is made available under ODbL.", "timestamp": "2026-09-30T23:41:17Z", "features": [{"type": "Feature", "properties": {"@id": "relation/10070984", "colour": "red", "from": "京都府宮津市", "name": "国道478号（一般道路）", "ref": "478", "route": "road", "to": "京都府久世郡久御山町", "type": "route", "wikipedia": "ja:国道478号"}, "geometry": {"type": "MultiLineString", "coordinates": [[[135.6978846, 34.9040531], [135.6978775, 34.9044975], [135.6978609, 34.9045948], [135.6978015, 34.9047253], [135.6977964, 34.9047365], [135.6977388, 34.9048339], [135.6977215, 34.9048653], [135.6976248, 34.9050443], [135.6975344, 34.9052117], [135.6976554, 34.9050603], [135.6977895, 34.9048926], [135.6978105, 34.9048693], [135.6978759, 34.9047697], [135.6979436, 34.9046414], [135.6979787, 34.9044874], [135.6979823, 34.9043495], [135.6979353, 34.9041559], [135.6979134, 34.9040961], [135.6978846, 34.9040531], [135.6978214, 34.9035893], [135.6978128, 34.9034817], [135.6977974, 34.9032904], [135.6977969, 34.903261], [135.6977875, 34.9026762], [135.6978068, 34.9021114], [135.6978858, 34.9017303], [135.6979313, 34.9015908], [135.6979875, 34.9014551], [135.6980779, 34.9012993], [135.6981975, 34.9011409], [135.6985046, 34.9008333], [135.698816, 34.9005292], [135.6991403, 34.9002171], [135.6994472, 34.89991], [135.6997749, 34.899566], [135.7000654, 34.8992201], [135.7003318, 34.8988809], [135.7005849, 34.8985206], [135.7008484, 34.8981057], [135.7019879, 34.8962701], [135.7023884, 34.8956008], [135.7032812, 34.8941462], [135.7034339, 34.8938904], [135.7034997, 34.89378], [135.7040718, 34.8928387], [135.7042499, 34.8925625], [135.7044279, 34.8923038], [135.7046276, 34.8920391], [135.7048439, 34.8917983], [135.7050977, 34.8915673], [135.7053881, 34.8913549], [135.7057192, 34.8911415], [135.7060569, 34.8909586], [135.7064137, 34.8907932], [135.7066827, 34.8906885], [135.7069733, 34.8905915], [135.7072062, 34.8905264], [135.7074957, 34.8904546], [135.7078152, 34.8903941], [135.7081244, 34.8903533], [135.7084496, 34.890328], [135.7087655, 34.8903134], [135.7119721, 34.8902144], [135.7122037, 34.8902125], [135.7124429, 34.8902192], [135.7126621, 34.8902397], [135.7129007, 34.8902772], [135.71314, 34.8903277], [135.7133564, 34.8903837], [135.7135332, 34.8904399], [135.713724, 34.8905077], [135.7139006, 34.8905732], [135.7141067, 34.8906551], [135.7143314, 34.8907507], [135.7146423, 34.8908959], [135.7150121, 34.891084], [135.7153329, 34.8912708], [135.7156992, 34.8914896], [135.7158294, 34.8915768], [135.7158691, 34.8916012], [135.7162263, 34.891824], [135.7167591, 34.8922257], [135.7169141, 34.8923634], [135.7169674, 34.8924109], [135.7172029, 34.8926407], [135.7174568, 34.8928998], [135.7177134, 34.8931722], [135.7178459, 34.8933145], [135.7180106, 34.8934712], [135.7182088, 34.89364], [135.7184582, 34.8938126], [135.7187606, 34.8940036], [135.7190717, 34.8941688], [135.7193683, 34.8943151], [135.7197814, 34.894499], [135.7201556, 34.8946477], [135.7205279, 34.8947717], [135.7208626, 34.8948738], [135.7213215, 34.8950034], [135.7219466, 34.8951734], [135.7221977, 34.8952472], [135.7228517, 34.8954746], [135.7236665, 34.8958205], [135.7240874, 34.8960131], [135.7244154, 34.8961728], [135.72473, 34.8963423], [135.7250964, 34.89656], [135.7254494, 34.8967842], [135.7258087, 34.8970347], [135.7259642, 34.8971431], [135.7264567, 34.8974859], [135.7273783, 34.8981527], [135.7279696, 34.8986087], [135.7283852, 34.8989244], [135.7286549, 34.8991117], [135.7289179, 34.899277], [135.7291664, 34.899408], [135.7293882, 34.8995115], [135.7296286, 34.8996022], [135.729873, 34.8996875], [135.7301131, 34.8997595], [135.7303426, 34.899814], [135.730614, 34.8998662], [135.7308999, 34.8999123], [135.7312033, 34.8999561], [135.731757, 34.9000287], [135.7320363, 34.9000652], [135.7324854, 34.900113], [135.7327527, 34.9001393], [135.7332901, 34.9001801], [135.733865, 34.900221], [135.7343171, 34.900244], [135.7351518, 34.9002703], [135.7354995, 34.9002659], [135.7358486, 34.9002461], [135.7361783, 34.9002138], [135.736478, 34.9001742], [135.7367978, 34.9001192], [135.737151, 34.9000506], [135.7373893, 34.9000048], [135.7380437, 34.8997936], [135.7388055, 34.8995032], [135.7393205, 34.8992392], [135.7396426, 34.8990752], [135.7400309, 34.8988563], [135.7409859, 34.8983301], [135.7412522, 34.8982], [135.7415508, 34.8980678], [135.7419194, 34.897923], [135.7422947, 34.8977969], [135.7427557, 34.8976795], [135.7430713, 34.8976101], [135.7434246, 34.8975396], [135.7437886, 34.8974745], [135.7439275, 34.8974503]], [[135.7133564, 34.8903837], [135.7135278, 34.8904438], [135.7136709, 34.8905051], [135.7137958, 34.8905702], [135.7139218, 34.8906428], [135.7140599, 34.890733], [135.7148644, 34.8913207]], [[135.7439309, 34.8977242], [135.7438084, 34.8977451], [135.7437042, 34.897764], [135.743461, 34.8978119], [135.7431978, 34.8978763], [135.7428959, 34.8979672], [135.7426363, 34.8980582], [135.7423904, 34.8981462], [135.7421522, 34.8982436], [135.7419194, 34.8983519], [135.7416506, 34.8984849], [135.7413779, 34.8986299], [135.7402817, 34.8992159], [135.7398639, 34.8994481], [135.7394815, 34.8996499], [135.7391795, 34.8997946], [135.7388793, 34.8999256], [135.7385642, 34.9000383], [135.7382613, 34.9001378], [135.7379315, 34.9002261], [135.7376014, 34.9003021], [135.7371935, 34.900366], [135.7365882, 34.9004276], [135.7361432, 34.9004653], [135.7356458, 34.9004964], [135.7352352, 34.9005077], [135.7344898, 34.9004931], [135.7339582, 34.9004625], [135.7317477, 34.9002657], [135.7314145, 34.9002352], [135.7310171, 34.9001907], [135.7307069, 34.9001528], [135.730458, 34.9001122], [135.7301984, 34.900064], [135.7299716, 34.9000114], [135.7297497, 34.89995], [135.7295479, 34.8998886], [135.7293567, 34.8998153], [135.7291815, 34.8997397], [135.7290306, 34.8996596], [135.728885, 34.8995739], [135.7287524, 34.8994889], [135.7286393, 34.8994008], [135.7285182, 34.8992765], [135.7280057, 34.8987252], [135.727846, 34.8985667], [135.7276729, 34.8984235], [135.7273481, 34.8981795], [135.7264289, 34.8975137], [135.7261732, 34.897337], [135.725999, 34.8972141], [135.7258249, 34.8971032], [135.7256124, 34.896986], [135.7254011, 34.8968975], [135.7251477, 34.8968161], [135.7244221, 34.8965906], [135.7242296, 34.8965311], [135.7239805, 34.8964386], [135.7237125, 34.8963273], [135.7230257, 34.8960352], [135.7219364, 34.895584], [135.7213607, 34.895353], [135.7204796, 34.8949978], [135.7199372, 34.894797], [135.7196222, 34.8946671], [135.7194346, 34.8945849], [135.7193169, 34.8945333], [135.7190848, 34.8944176], [135.7188421, 34.8942888], [135.7187814, 34.8942566], [135.7184863, 34.8940797], [135.7182156, 34.8939126], [135.7179223, 34.8937231], [135.7176329, 34.8935292], [135.7175018, 34.8934362], [135.7172932, 34.8932842], [135.7170215, 34.8930771], [135.7167058, 34.8928271], [135.7155803, 34.8918786], [135.7155294, 34.8918358], [135.7152903, 34.8916458], [135.7148644, 34.8913207]]]}, "id": "relation/10070984"}, {"type": "Feature", "properties": {"@id": "relation/18588803", "colour": "red", "from": "京都府宮津市", "name": "国道478号", "name:en": "National Highway Route 478", "name:ja": "国道478号", "network": "JP:national", "ref": "478", "route": "road", "to": "京都府久世郡久御山町", "type": "route", "wikidata": "Q11421470", "wikipedia": "ja:国道478号"}, "geometry": {"type": "MultiLineString", "coordinates": [[[135.2896646, 35.352193], [135.289467, 35.35274], [135.2893225, 35.353176], [135.2891177, 35.3538497], [135.289072, 35.3540673], [135.2890467, 35.3542899], [135.2890236, 35.3546256], [135.2890399, 35.3549677], [135.2890662, 35.3552529], [135.2891058, 35.3555446], [135.2891482, 35.3557851], [135.2892225, 35.3562066], [135.2894112, 35.3572018], [135.2894575, 35.3574877], [135.2894904, 35.3577518], [135.2895114, 35.3579611], [135.2895294, 35.3584396], [135.2895016, 35.3592194], [135.2894955, 35.3592989], [135.2894173, 35.3598196], [135.2892544, 35.3604422], [135.2890512, 35.3610256], [135.2887765, 35.3617964], [135.2884694, 35.3624146], [135.2880832, 35.3631776], [135.287654, 35.3638355], [135.287242, 35.3644795], [135.2868129, 35.3649974], [135.2861949, 35.3656904], [135.285637, 35.3662643], [135.2850533, 35.3667542], [135.284793, 35.3669465], [135.2812934, 35.3693899], [135.280653, 35.3698336], [135.2788857, 35.371038], [135.2787127, 35.371153], [135.2749524, 35.3736494], [135.2747401, 35.3737896], [135.2745316, 35.3739177], [135.2743003, 35.3740462], [135.2740414, 35.3741712], [135.2737318, 35.3743053], [135.273332, 35.3744561], [135.2729486, 35.3745817], [135.2726393, 35.3746708], [135.2722543, 35.3747645], [135.2716434, 35.3748839], [135.27087, 35.3749839], [135.2695437, 35.3751038], [135.2686389, 35.3752002], [135.2677504, 35.3753497], [135.2669993, 35.375502], [135.2665165, 35.3756154], [135.2659908, 35.3757708], [135.2653853, 35.3759684], [135.2637491, 35.3765522], [135.2632425, 35.3767553], [135.2628239, 35.376935], [135.2621601, 35.3772549], [135.2582909, 35.3791657], [135.2557081, 35.3804], [135.2542377, 35.3810408], [135.253132, 35.3814766], [135.2520903, 35.3818685], [135.2509594, 35.3822491], [135.2498564, 35.3825879], [135.2485542, 35.3829404], [135.2471696, 35.3832848], [135.2464049, 35.3835046], [135.245537, 35.383803], [135.2449055, 35.384071], [135.2443443, 35.3843756], [135.2438314, 35.3847025], [135.2435165, 35.3849474], [135.2431652, 35.38523], [135.2427755, 35.3856115], [135.2424695, 35.3859539], [135.2421618, 35.386363], [135.2419695, 35.3866425], [135.2417985, 35.386966], [135.2415622, 35.387439], [135.2413645, 35.387945], [135.2411107, 35.3887721], [135.2408488, 35.3895268], [135.2405714, 35.3901779], [135.2402309, 35.3908065], [135.2399349, 35.3912725], [135.2396235, 35.3917065], [135.2392677, 35.3921377], [135.2389165, 35.3925165], [135.2385423, 35.3928652], [135.2380381, 35.3932864], [135.2372435, 35.3939277], [135.236559, 35.3945082], [135.2360244, 35.3949874], [135.2356063, 35.3953926], [135.2353292, 35.3957091], [135.2350666, 35.3960484], [135.2348098, 35.396422], [135.2282726, 35.4062596], [135.227655, 35.4072239], [135.2267748, 35.4086138], [135.2265426, 35.4089832], [135.2258667, 35.4099959], [135.2255384, 35.4104637], [135.2251641, 35.4109287], [135.224748, 35.411402], [135.2244482, 35.4117057], [135.2241367, 35.4119941], [135.2238388, 35.4122442], [135.2234638, 35.412529], [135.2191809, 35.4156203], [135.2180025, 35.416414], [135.2165147, 35.4173227], [135.2159494, 35.4176732], [135.2153633, 35.4180662], [135.2148594, 35.4184353], [135.2144701, 35.4187587], [135.2140889, 35.4191237], [135.2135922, 35.4196631], [135.2131988, 35.4201574], [135.2128759, 35.4206164], [135.2126254, 35.421047], [135.2124025, 35.4214874], [135.2122011, 35.4219715], [135.2120325, 35.422498], [135.2118927, 35.4230818], [135.2117808, 35.4237125], [135.2117111, 35.4242977], [135.2116361, 35.4249839], [135.2115769, 35.4254662], [135.2115423, 35.4257185], [135.2114941, 35.4259794], [135.2114338, 35.4262349], [135.2113669, 35.4264873], [135.2112825, 35.4267584], [135.2111929, 35.4270167], [135.2110764, 35.4273046], [135.2109557, 35.4275767], [135.210824, 35.42784], [135.2106723, 35.4281159], [135.21053, 35.4283546], [135.2103911, 35.4285712], [135.2102347, 35.4287999], [135.21004, 35.4290583], [135.2098461, 35.429293], [135.2096321, 35.4295408], [135.2093181, 35.429867], [135.2085131, 35.4306463], [135.2076185, 35.4315137], [135.2067469, 35.432351], [135.206202, 35.4328689], [135.2055453, 35.433499], [135.2051427, 35.4338525], [135.2047671, 35.4341573], [135.2043776, 35.4344445], [135.2040337, 35.4346759], [135.2037281, 35.4348621], [135.2034064, 35.4350439], [135.2030573, 35.4352324], [135.202742, 35.4353894], [135.2020602, 35.4356916], [135.2013817, 35.4359765], [135.2009349, 35.4361601], [135.200474, 35.4363398], [135.2009499, 35.4362183], [135.2014258, 35.4360549], [135.2021139, 35.4357778], [135.2027926, 35.4354779], [135.203379, 35.4351646], [135.2041199, 35.4347291], [135.2048698, 35.4341958], [135.2052517, 35.4338894], [135.2056282, 35.4335567], [135.206736, 35.4324989], [135.2078062, 35.4314684], [135.2086003, 35.4307041], [135.2089577, 35.4303701], [135.2094857, 35.4298469], [135.2097288, 35.4295855], [135.209957, 35.4293268], [135.2101397, 35.4291041], [135.2103371, 35.4288384], [135.210505, 35.4285924], [135.2106409, 35.4283788], [135.2107751, 35.4281564], [135.210931, 35.4278713], [135.2110641, 35.4276048], [135.211186, 35.4273313], [135.2112999, 35.4270448], [135.2113935, 35.4267819], [135.2114747, 35.4265131], [135.2115449, 35.4262518], [135.2116052, 35.425992], [135.2116549, 35.4257388], [135.2116962, 35.4254725], [135.2117509, 35.4249921], [135.2118241, 35.4243084], [135.2118963, 35.42373], [135.2120034, 35.4231348], [135.2121517, 35.4225266], [135.2123214, 35.4219937], [135.2125137, 35.4215215], [135.2127381, 35.4210842], [135.212993, 35.4206415], [135.2133069, 35.4201944], [135.2136791, 35.419736], [135.2141836, 35.4191814], [135.2145482, 35.4188264], [135.2149369, 35.4184868], [135.2154201, 35.4181121], [135.2159931, 35.4177193], [135.2180025, 35.416414]], [[135.200474, 35.4363398], [135.2001582, 35.436429], [135.1998098, 35.4365082], [135.1987502, 35.4367747], [135.1976021, 35.4371124], [135.1964754, 35.4375288], [135.1959923, 35.4377458], [135.1955392, 35.4379898], [135.1946605, 35.4385019], [135.1941686, 35.4388442], [135.1932145, 35.4396178], [135.1922053, 35.4405334], [135.1914206, 35.4411842], [135.190215, 35.4421639], [135.189395, 35.4427575], [135.1882449, 35.4435477], [135.1878166, 35.4439088], [135.1874223, 35.4442742], [135.1870118, 35.4447382], [135.186701, 35.4451395], [135.1864158, 35.4456126], [135.1858644, 35.44667], [135.1853854, 35.4474986], [135.1850696, 35.4479074], [135.184757, 35.4482906], [135.1843543, 35.4487165], [135.1839773, 35.4490783], [135.1832809, 35.4496408], [135.1827223, 35.4500301], [135.1814717, 35.4508256], [135.181063, 35.4511111], [135.1807648, 35.4513641], [135.1804548, 35.4516403], [135.1801977, 35.4518992], [135.179925, 35.4522076], [135.179748, 35.4524435], [135.1795612, 35.452711], [135.1793931, 35.4529871], [135.1792783, 35.4531936], [135.1790995, 35.4535427], [135.178763, 35.4542274], [135.1784674, 35.4548065], [135.1780795, 35.4555193], [135.1776592, 35.4562402], [135.1769496, 35.4574249], [135.1761031, 35.4587943], [135.1746313, 35.461245], [135.1741894, 35.4619742], [135.1737793, 35.4627292], [135.1735127, 35.4633249], [135.1733713, 35.4637733], [135.1732753, 35.4641652], [135.1732238, 35.464445], [135.1731907, 35.464737], [135.1731759, 35.4650787], [135.1731757, 35.4653176], [135.1731862, 35.4655089], [135.1732029, 35.4657137], [135.173254, 35.466065], [135.1733176, 35.4663511], [135.1733902, 35.466634], [135.1735604, 35.4670578], [135.1738018, 35.4675209], [135.1747794, 35.4691996], [135.1752309, 35.4699712], [135.1753891, 35.4702637], [135.1755694, 35.470708], [135.1757124, 35.4711404], [135.1757973, 35.4714726], [135.1758677, 35.4717972], [135.1759084, 35.4720261], [135.1759167, 35.472212], [135.1759211, 35.4724228], [135.1759213, 35.4726835], [135.1758832, 35.4730759], [135.1758034, 35.473552], [135.1757055, 35.4740298], [135.1753918, 35.4753748], [135.1750227, 35.4768846], [135.1746257, 35.4786844], [135.1742481, 35.4801714], [135.1739284, 35.4816794], [135.173548, 35.4832752], [135.1724299, 35.4879118], [135.1722644, 35.4887246], [135.1721462, 35.4894986], [135.1720888, 35.4902732], [135.1720794, 35.4908864], [135.172104, 35.4914602], [135.172182, 35.4920341], [135.1722849, 35.4925091], [135.1724309, 35.4929843], [135.1728479, 35.4941602], [135.1733538, 35.4954868], [135.1736194, 35.4960892], [135.1738868, 35.4966496], [135.1741746, 35.497157], [135.1744469, 35.4975861], [135.1747566, 35.4979737], [135.1750084, 35.4982848], [135.1754867, 35.4987638], [135.176053, 35.4992191], [135.1766585, 35.4996348], [135.1772756, 35.4999973], [135.1780628, 35.5004116], [135.1783919, 35.5005979], [135.1786941, 35.5007819], [135.1790641, 35.5010296], [135.1793665, 35.5012535], [135.1796766, 35.5014899], [135.1799791, 35.5017566], [135.1804836, 35.5022854], [135.1808484, 35.5027086], [135.1813726, 35.5033129], [135.1818456, 35.5037895], [135.1823456, 35.5041924], [135.1828554, 35.5045622], [135.1834592, 35.5049373], [135.1840369, 35.505233], [135.1846281, 35.5054903], [135.1852109, 35.5057029], [135.1858233, 35.5058934], [135.1869272, 35.5061556], [135.1874999, 35.5063075], [135.1882959, 35.5065318], [135.1890061, 35.5067793], [135.1897041, 35.5070793], [135.1902893, 35.507406], [135.1907671, 35.5077275], [135.1910837, 35.5079562], [135.1914872, 35.508316], [135.1918036, 35.5086457], [135.1920899, 35.5089683], [135.1924334, 35.5094811], [135.1928283, 35.5101728], [135.192934, 35.5103717], [135.1930195, 35.5105871], [135.1931056, 35.5108739], [135.1932157, 35.5112844], [135.1932859, 35.5115933], [135.1933331, 35.5119579], [135.1933658, 35.5123171], [135.1933759, 35.512679], [135.1933705, 35.5129515], [135.1932988, 35.5133912], [135.1932181, 35.5137648], [135.1931432, 35.5140746], [135.1930587, 35.5143059], [135.1929474, 35.5145833], [135.1929354, 35.5146068], [135.1927972, 35.514878], [135.1926523, 35.5151504], [135.192515, 35.5153605], [135.1919605, 35.5161118], [135.191877, 35.5162022]], [[135.3371263, 35.2842989], [135.3370732, 35.2847101], [135.3369764, 35.2855019], [135.3365821, 35.2878442], [135.3362221, 35.2894832], [135.3360592, 35.2900564], [135.3356552, 35.2914084], [135.3354342, 35.2921009], [135.3351953, 35.2928322], [135.3349923, 35.293365], [135.3347223, 35.2940263], [135.3344024, 35.2947655], [135.3337304, 35.2960814], [135.3324534, 35.2983253], [135.3311341, 35.3006928], [135.330607, 35.3015805], [135.3291058, 35.3042437], [135.3281214, 35.3059303], [135.3272454, 35.3072912], [135.3264854, 35.3084173], [135.3257372, 35.309388], [135.3249304, 35.3103885], [135.3245988, 35.3107727], [135.3243276, 35.3110857], [135.3239204, 35.3115207], [135.3236196, 35.3118335], [135.3233094, 35.3121438], [135.3229096, 35.3125366], [135.3224193, 35.313007], [135.3217967, 35.3136283], [135.3211834, 35.3142602], [135.3206555, 35.3148437], [135.3201382, 35.3154768], [135.319769, 35.3159368], [135.3191876, 35.316784], [135.3187499, 35.3175356], [135.3184706, 35.3180564], [135.3183107, 35.3183797], [135.3179303, 35.3191369], [135.3165183, 35.3220106], [135.3148463, 35.3252734], [135.3128581, 35.3293183], [135.3116189, 35.3316688], [135.3112956, 35.332244], [135.3111319, 35.3325281], [135.3109524, 35.3328443], [135.3102403, 35.3339503], [135.3099436, 35.3344008], [135.3096952, 35.3348405], [135.3094455, 35.3352434], [135.3091838, 35.335632], [135.3089221, 35.3360065], [135.3086577, 35.3363678], [135.3084163, 35.3366955], [135.3081643, 35.3370145], [135.3078059, 35.337447], [135.3074239, 35.337879], [135.3066666, 35.3386795], [135.3057176, 35.3396085], [135.3052509, 35.3400587], [135.3042922, 35.3409206], [135.3037291, 35.3413801], [135.3031713, 35.3418155], [135.3025376, 35.3422727], [135.301931, 35.3426829], [135.3012843, 35.3430799], [135.3003298, 35.3436476], [135.2996382, 35.3440949], [135.2986295, 35.3447685], [135.2972941, 35.3456882], [135.2959483, 35.3466471], [135.294403, 35.3477246], [135.2926624, 35.3489479], [135.2923663, 35.3491765], [135.2916505, 35.3498027], [135.2912346, 35.3502066], [135.2909033, 35.3505559], [135.2905696, 35.350928], [135.2903226, 35.3512444], [135.290024, 35.3516437], [135.2896922, 35.3521514]], [[135.7440889, 34.8976163], [135.743604, 34.8977049], [135.7432535, 34.8977799], [135.7428983, 34.8978679], [135.7425846, 34.897957], [135.7422753, 34.8980594], [135.7419771, 34.8981702], [135.7416882, 34.8982931], [135.7413988, 34.8984247], [135.7409496, 34.898651], [135.7399217, 34.8992298], [135.739618, 34.8993927], [135.7393276, 34.8995402], [135.7390579, 34.8996683], [135.7387885, 34.899783], [135.738497, 34.899894], [135.7382015, 34.8999952], [135.7378927, 34.9000872], [135.7375484, 34.9001784], [135.7372039, 34.9002542], [135.7368005, 34.9003275], [135.7364337, 34.9003779], [135.7360643, 34.9004118], [135.7356554, 34.9004332], [135.735256, 34.9004347], [135.7346485, 34.9004189], [135.734037, 34.90039], [135.7333973, 34.9003503], [135.7327242, 34.9002975], [135.7322313, 34.9002534], [135.7318387, 34.9002148], [135.7314234, 34.9001676], [135.7310392, 34.900117], [135.7307121, 34.9000686], [135.730389, 34.9000136], [135.7300789, 34.8999454], [135.7297725, 34.8998587], [135.7294741, 34.8997549], [135.7291618, 34.8996209], [135.7289604, 34.8995227], [135.7287536, 34.8994072], [135.7285704, 34.8992935], [135.7282668, 34.8990911], [135.727961, 34.898865], [135.7262966, 34.8976374], [135.7259701, 34.8974102], [135.7256464, 34.8971985], [135.7253042, 34.896979], [135.7249513, 34.8967661], [135.7245691, 34.8965547], [135.7241387, 34.8963328], [135.7237253, 34.8961336], [135.7232236, 34.895908], [135.7227205, 34.8957014], [135.7222148, 34.8955146], [135.7216816, 34.895326], [135.7209527, 34.8950836], [135.7206011, 34.8949659], [135.7202494, 34.8948461], [135.7199013, 34.8947175], [135.719584, 34.8945846], [135.7192448, 34.8944294], [135.7189392, 34.8942721], [135.7186833, 34.8941277], [135.7184233, 34.8939702], [135.7181615, 34.8937948], [135.7179157, 34.893615], [135.7176891, 34.8934362], [135.7174382, 34.8932229], [135.7171954, 34.8930063], [135.7166887, 34.8925413], [135.7164048, 34.8922861], [135.7161846, 34.8920993], [135.7159563, 34.8919257], [135.7156829, 34.891733], [135.715426, 34.8915738], [135.7151409, 34.8914037], [135.7148766, 34.8912535], [135.7146204, 34.891122], [135.7143695, 34.8910042], [135.7138525, 34.8908057], [135.7135163, 34.8906904], [135.7132148, 34.8906037], [135.712934, 34.8905294], [135.7126147, 34.8904628], [135.7123054, 34.8904117], [135.7119868, 34.8903673], [135.7117253, 34.8903415], [135.7114271, 34.8903199], [135.7111242, 34.8903069], [135.7108039, 34.8903018], [135.7104447, 34.8903079], [135.7081296, 34.8903821], [135.7077792, 34.890407], [135.7074166, 34.8904452], [135.7070677, 34.8905059], [135.7067974, 34.8905671], [135.7065858, 34.8906285], [135.7064382, 34.8906805], [135.7062673, 34.8907466], [135.7060644, 34.8908308], [135.7058446, 34.8909357], [135.7055331, 34.8911111], [135.7052854, 34.8912759], [135.7050448, 34.8914657], [135.7048223, 34.8916552], [135.7046254, 34.8918525], [135.7044525, 34.8920535], [135.7043033, 34.8922602], [135.7041306, 34.8925202], [135.7039436, 34.8928105], [135.7033825, 34.8937377], [135.700737, 34.8980565], [135.7004691, 34.8984561], [135.7002257, 34.8988081], [135.6999447, 34.8991601], [135.6996837, 34.8994532], [135.6994105, 34.8997293], [135.6991183, 34.9000167], [135.6988689, 34.9002465], [135.6986021, 34.9004758], [135.6983404, 34.900686], [135.6980276, 34.9009199], [135.6976921, 34.9011567], [135.6973721, 34.9013663], [135.6971129, 34.9015251], [135.6967625, 34.9017217], [135.6966378, 34.9017921], [135.6965894, 34.9018194], [135.6963928, 34.9019303], [135.6959128, 34.9021808], [135.6955372, 34.9023753], [135.6952207, 34.9025483], [135.6948647, 34.9027533], [135.6945916, 34.9029245], [135.6943348, 34.9030945], [135.6941158, 34.9032573], [135.693866, 34.903456], [135.693634, 34.9036601], [135.6934392, 34.9038483], [135.6932497, 34.9040465], [135.6930588, 34.9042597], [135.6928685, 34.904492], [135.6926764, 34.9047563], [135.6924709, 34.9050572], [135.6923419, 34.9052905], [135.6922287, 34.9055163], [135.6920511, 34.9059052], [135.6919318, 34.9062245], [135.6917095, 34.9069685], [135.6915545, 34.9075377], [135.6913519, 34.9083062], [135.6912055, 34.9089421], [135.6910992, 34.9094192], [135.6909769, 34.90991], [135.6908878, 34.9101789], [135.6907746, 34.9104907], [135.6906177, 34.9108427], [135.690523, 34.9110293], [135.6904311, 34.9111958], [135.6902593, 34.9114691], [135.690145, 34.9116513], [135.6899463, 34.9119096], [135.6897726, 34.9121331], [135.6895504, 34.9123886], [135.6892656, 34.9127135], [135.6890649, 34.9129387], [135.6885439, 34.9134854], [135.6879751, 34.9140402], [135.6875507, 34.9144479], [135.6871813, 34.9147656], [135.6867393, 34.915125], [135.6862532, 34.9154892], [135.6855913, 34.9159298], [135.6852527, 34.9161333], [135.6848158, 34.9163722], [135.6835496, 34.9170336], [135.6823452, 34.917615], [135.6810789, 34.9182552], [135.6784492, 34.9195826], [135.6771025, 34.9202549], [135.6766635, 34.9204486], [135.6762798, 34.9206056], [135.6758371, 34.9207559], [135.6754257, 34.9208757], [135.6749815, 34.9209765], [135.6744935, 34.9210688], [135.6730514, 34.9213038], [135.6724213, 34.921426], [135.6719509, 34.9215486], [135.6714754, 34.9217072], [135.6710152, 34.9218918], [135.6705931, 34.9220904], [135.6701758, 34.922325], [135.6699487, 34.9224754], [135.6697986, 34.9225766], [135.6694885, 34.9228091], [135.6694711, 34.9228222], [135.6691301, 34.9231084], [135.668891, 34.9233316], [135.6686897, 34.9235388], [135.6682708, 34.9240607], [135.6680965, 34.9243176], [135.6679312, 34.9245736], [135.6677729, 34.9248638], [135.6676243, 34.9252042], [135.6674889, 34.9255699], [135.6673928, 34.9259299], [135.6672862, 34.9264947], [135.6672064, 34.9270169], [135.6650759, 34.9432473], [135.6650198, 34.9435785], [135.6649489, 34.9439419], [135.6648678, 34.9443311], [135.6647545, 34.9447466], [135.664548, 34.945427], [135.6644456, 34.945707], [135.6643268, 34.9460278], [135.6642281, 34.9462876], [135.6641268, 34.9465321], [135.6639988, 34.9468414], [135.6638627, 34.9471453], [135.6636929, 34.9475087], [135.6635106, 34.9478784], [135.6633416, 34.9482162], [135.6631488, 34.9485697], [135.662988, 34.9488432], [135.6627801, 34.9491835], [135.6625802, 34.9495073], [135.6623903, 34.9498058], [135.6622098, 34.9500845], [135.6620163, 34.9503696], [135.6618169, 34.9506488], [135.6615785, 34.9509785], [135.6612533, 34.9514241], [135.6610521, 34.9516814], [135.6608254, 34.9519618], [135.6605828, 34.9522458], [135.6603308, 34.9525331], [135.6601035, 34.9527786], [135.6598572, 34.9530184], [135.6595962, 34.9532494], [135.6593438, 34.9534568], [135.6590896, 34.9536435], [135.6588422, 34.9538123], [135.6585795, 34.953973], [135.6583105, 34.9541253], [135.6580194, 34.9542805], [135.6577177, 34.9544323], [135.6573862, 34.9545854], [135.6569674, 34.9547714], [135.6565352, 34.9549816], [135.6561714, 34.9551778], [135.6557996, 34.9554013], [135.6554948, 34.9556206], [135.655192, 34.9558698], [135.6549242, 34.9561435], [135.6546714, 34.9564378], [135.6544494, 34.9567432], [135.6542677, 34.9570459], [135.654118, 34.9573517], [135.6540006, 34.9576498], [135.65393, 34.9578822], [135.6538727, 34.9581212], [135.6538065, 34.9585215], [135.6537747, 34.9589264], [135.6537703, 34.9592329], [135.6537852, 34.9600142], [135.6538375, 34.9606372], [135.653946, 34.9612858], [135.6541046, 34.9619099], [135.6543173, 34.9625818], [135.6544752, 34.9630287], [135.6545996, 34.9633228], [135.654669, 34.963476], [135.6547151, 34.9635779], [135.6548661, 34.9639065], [135.6550564, 34.9642718], [135.6552431, 34.9645993], [135.6554809, 34.9649675], [135.655747, 34.9653427], [135.6560385, 34.9657167], [135.656339, 34.9660777], [135.6566046, 34.9663631], [135.6568969, 34.9666606], [135.6573286, 34.9671211], [135.6577004, 34.9675285], [135.6579114, 34.9677741], [135.6581549, 34.9680648], [135.6583536, 34.9683445], [135.6586029, 34.9687176], [135.6588366, 34.9690923], [135.6590252, 34.9694209], [135.659152, 34.9696589], [135.6592689, 34.9698963], [135.6593867, 34.9701681], [135.6594975, 34.970442], [135.65962, 34.9707735], [135.6597346, 34.9711434], [135.659837, 34.9715202], [135.6599588, 34.9720206], [135.6600698, 34.9725078], [135.6601493, 34.9728865], [135.6602025, 34.9731802], [135.6602349, 34.9734502], [135.6602576, 34.9736953], [135.6602599, 34.9739602], [135.6602509, 34.9741939], [135.6602154, 34.9744806], [135.6601679, 34.9747415], [135.6600922, 34.9750202], [135.6600128, 34.9752512], [135.6599117, 34.9754911], [135.6597968, 34.9757524], [135.6596625, 34.9760136], [135.6595192, 34.9762559], [135.6594136, 34.9764299], [135.6592755, 34.976634], [135.6591125, 34.9768376], [135.6589413, 34.9770457], [135.6587737, 34.9772378], [135.658538, 34.9774912], [135.6577951, 34.978217], [135.6572961, 34.9786946], [135.6570779, 34.9789152], [135.6568952, 34.9791283], [135.656729, 34.9793406], [135.6565667, 34.9795742], [135.6563404, 34.9799403], [135.656216, 34.9801638], [135.655999, 34.9805581], [135.655812, 34.9808906], [135.6555893, 34.9812421], [135.6553437, 34.9815712], [135.6551293, 34.9818202], [135.6548994, 34.9820579], [135.6546257, 34.9823133], [135.6543786, 34.9825201], [135.6540949, 34.9827205], [135.653826, 34.9828973], [135.6535149, 34.9830843], [135.6531784, 34.9832586], [135.6529018, 34.9833858], [135.6526149, 34.9834998], [135.6523001, 34.9836105], [135.6519293, 34.9837263], [135.6514339, 34.9838453], [135.6501616, 34.9840873], [135.6486808, 34.9843804], [135.6480849, 34.9845203], [135.6473375, 34.984741], [135.6466751, 34.984977], [135.6461457, 34.9851929], [135.6456542, 34.9854309], [135.6451684, 34.9856798], [135.6444001, 34.9860742], [135.6438251, 34.9863309], [135.6428459, 34.9867226], [135.6413114, 34.9872952], [135.6400928, 34.9876981], [135.6390001, 34.9880117], [135.6378773, 34.9882921], [135.6356486, 34.9887776], [135.6334341, 34.9892245], [135.6326474, 34.9893572], [135.6309512, 34.9896237], [135.6299993, 34.9897422], [135.6289122, 34.9898562], [135.6278385, 34.9899418], [135.6269549, 34.990001], [135.6262384, 34.9900278], [135.6256993, 34.9900435], [135.6247741, 34.9900613], [135.6227646, 34.990057], [135.6208312, 34.9900834], [135.6202259, 34.9900949], [135.6195797, 34.9901195], [135.6187249, 34.9901576], [135.6175058, 34.9902279], [135.6164565, 34.990294], [135.6152603, 34.9903895], [135.6138272, 34.9905298], [135.6132397, 34.9905959], [135.6125077, 34.9906665], [135.6118416, 34.990705], [135.6107864, 34.9907196], [135.6099945, 34.9906877], [135.6091809, 34.9906038], [135.6086457, 34.9905282], [135.6083221, 34.9904769], [135.6077031, 34.990361], [135.6066845, 34.9901451], [135.6058426, 34.9899683], [135.6040179, 34.9895585], [135.6036905, 34.9894917], [135.6033171, 34.9894209], [135.6029411, 34.9893554], [135.6024864, 34.9892833], [135.6019504, 34.989217], [135.6013529, 34.9891616], [135.6008041, 34.9891323], [135.6002781, 34.9891179], [135.5996234, 34.9891285], [135.5989814, 34.9891665], [135.5982952, 34.9892386], [135.5976502, 34.989325], [135.5970024, 34.9894285], [135.5963346, 34.9895429], [135.5942975, 34.9899287], [135.5883149, 34.9910661], [135.5858305, 34.9915358], [135.5831944, 34.9920341], [135.5820405, 34.9922568], [135.5807249, 34.9925049], [135.5802613, 34.9926008], [135.5798493, 34.9926888], [135.5794315, 34.9927954], [135.5790709, 34.9928991], [135.5786242, 34.9930481], [135.5781552, 34.9932347], [135.5777754, 34.9934042], [135.5775187, 34.9935319], [135.5770795, 34.9937635], [135.5768542, 34.9939034], [135.576647, 34.9940669], [135.5764309, 34.9942527], [135.5762084, 34.9944655], [135.5760133, 34.994687], [135.5742994, 34.996877], [135.5739968, 34.9973118], [135.5737451, 34.9977183], [135.5735055, 34.9981632], [135.5731688, 34.998945], [135.5729418, 34.9993963], [135.5727147, 34.9997727], [135.572492, 35.0000872], [135.5722781, 35.0003569], [135.5721073, 35.000549], [135.5719047, 35.0007688], [135.5717388, 35.0009257], [135.5716141, 35.0010375], [135.5714315, 35.0011947], [135.5712452, 35.001347], [135.5710793, 35.001478], [135.5708864, 35.0016148], [135.5706447, 35.001777], [135.5703806, 35.0019347], [135.5697588, 35.0022861], [135.5686125, 35.0029337], [135.5680333, 35.0032749], [135.5672288, 35.0037818], [135.5663129, 35.0044023], [135.5656348, 35.0048879], [135.5653369, 35.0051119], [135.5648125, 35.0055189], [135.5643788, 35.0058656], [135.5638958, 35.0062661], [135.5634811, 35.0066217], [135.5630682, 35.0069865], [135.562489, 35.0075173], [135.5619973, 35.007996], [135.5611823, 35.0088297], [135.5606818, 35.0093543], [135.5605742, 35.0094758], [135.5602266, 35.0098683], [135.5595952, 35.0106152], [135.5588573, 35.0115592], [135.5576951, 35.0130659], [135.5575747, 35.0132221], [135.555271, 35.0161636], [135.554415, 35.0172505], [135.5533403, 35.0186291], [135.5521409, 35.0201629], [135.5512213, 35.0213472], [135.5506409, 35.0220924], [135.549714, 35.0233271], [135.5494583, 35.023693], [135.5491679, 35.0241249], [135.5488439, 35.0246646], [135.5475404, 35.0269257], [135.5466805, 35.0284367], [135.5458553, 35.02986], [135.5452671, 35.030898], [135.5451489, 35.0311091], [135.5428733, 35.0350484], [135.5410049, 35.0382919], [135.5407168, 35.0387887], [135.5405534, 35.0390644], [135.5404345, 35.0392536], [135.5403206, 35.0394242], [135.5402031, 35.0395866], [135.5400858, 35.0397401], [135.5399141, 35.0399369], [135.5396855, 35.0401716], [135.5394569, 35.0403727], [135.5391834, 35.0405893], [135.5389293, 35.0407661], [135.5386523, 35.0409554], [135.5383732, 35.0411332], [135.5380245, 35.041341], [135.5377396, 35.0415201], [135.5373805, 35.0417577], [135.5369526, 35.0420531], [135.5367053, 35.0422455], [135.536553, 35.0423667], [135.5363913, 35.0425067], [135.536222, 35.0426557], [135.5358998, 35.0429919], [135.5356702, 35.0432832], [135.5354454, 35.0436277], [135.5352454, 35.0440064], [135.5350947, 35.0443894], [135.5349716, 35.0447976], [135.534892, 35.0452056], [135.5348318, 35.0456351], [135.5347906, 35.0465787], [135.5347621, 35.0479045], [135.534733, 35.0488185], [135.5346754, 35.0506314], [135.5346634, 35.0510156], [135.5345725, 35.0542647], [135.5345655, 35.0549387], [135.5345481, 35.0554519], [135.5345142, 35.055869], [135.5344521, 35.0563398], [135.5343402, 35.056785], [135.5342396, 35.0571043], [135.5341586, 35.0573211], [135.5340656, 35.0575129], [135.5339228, 35.0577241], [135.5337892, 35.0578841], [135.5315134, 35.060597], [135.5312811, 35.0608633], [135.5310673, 35.0610842], [135.5300589, 35.0620812], [135.5286811, 35.0634449], [135.5280873, 35.0640225], [135.5274216, 35.0645948], [135.5268979, 35.0649969], [135.5262018, 35.0654758], [135.52475, 35.0664599], [135.5242797, 35.0667886], [135.5236886, 35.0672401], [135.5233986, 35.0674661], [135.5230929, 35.0677212], [135.5228202, 35.0679634], [135.5202168, 35.0703752], [135.519961, 35.0706138], [135.5196219, 35.0709789], [135.519256, 35.0713977], [135.5188673, 35.0718773], [135.518479, 35.0723541], [135.5180963, 35.0728557], [135.5175801, 35.0735655], [135.5173417, 35.0739154], [135.5170211, 35.0743886], [135.5162334, 35.0755411], [135.5161124, 35.0757166], [135.5152214, 35.0770096], [135.5143189, 35.0782821], [135.5136507, 35.0791449], [135.5130478, 35.0798337], [135.5127517, 35.0801294], [135.5124803, 35.0803842], [135.5123032, 35.0805416], [135.5122203, 35.0806133], [135.5119302, 35.0808446], [135.5111636, 35.0814229], [135.5107235, 35.0817677], [135.5102851, 35.0820978], [135.5096107, 35.0826087], [135.5084256, 35.0835046], [135.5075614, 35.0841666], [135.5071156, 35.0845024], [135.5067028, 35.0848446], [135.5064578, 35.0850371], [135.5059541, 35.0854687], [135.5056004, 35.0857864], [135.5052484, 35.0861177], [135.5046656, 35.0866955], [135.5040226, 35.087393], [135.5036783, 35.0877782], [135.5034004, 35.0881514], [135.5029056, 35.0888023], [135.502683, 35.0891105], [135.5024445, 35.089452], [135.5018852, 35.0903178], [135.5015652, 35.0908556], [135.5006162, 35.0925473], [135.5002747, 35.0931528], [135.5000099, 35.0935673], [135.4997321, 35.0939561], [135.4994394, 35.094318], [135.498637, 35.0952094], [135.4979975, 35.0959611], [135.4973072, 35.0967693], [135.4951952, 35.0994028], [135.4947109, 35.0999526], [135.4943875, 35.100291], [135.494093, 35.1005723], [135.4936475, 35.1009257], [135.4934121, 35.1010935], [135.4932076, 35.1012278], [135.4927945, 35.1014692], [135.4924857, 35.1016351], [135.4921018, 35.1018205], [135.4916915, 35.1019931], [135.4911607, 35.102207], [135.4900426, 35.1026422], [135.4896129, 35.1028274], [135.4892074, 35.1030279], [135.4887265, 35.1032842], [135.4883501, 35.1035184], [135.4879993, 35.1037422], [135.4876088, 35.1040189], [135.4872739, 35.1042812], [135.4870277, 35.1044875], [135.4866108, 35.1048454], [135.484686, 35.1065603], [135.4839907, 35.1072021], [135.483415, 35.1077549], [135.4830933, 35.1080759], [135.482889, 35.108315], [135.4827024, 35.1085504], [135.4825349, 35.1087801], [135.4824045, 35.108976], [135.4822573, 35.1092026], [135.482157, 35.1093786], [135.482028, 35.1096219], [135.481891, 35.1099036], [135.4817213, 35.1102852], [135.481556, 35.1106991], [135.4810658, 35.1119997], [135.4808854, 35.1124784], [135.4802421, 35.1142992], [135.4801148, 35.1147327], [135.480029, 35.115163], [135.4799888, 35.1156099], [135.4799819, 35.1159218], [135.479979, 35.1160523], [135.4799972, 35.1166303], [135.4800545, 35.1172103], [135.4802189, 35.1184053], [135.480339, 35.1191187], [135.4803737, 35.1193978], [135.4803864, 35.1199207], [135.4803829, 35.1203087], [135.4803535, 35.120611], [135.4803109, 35.1209015], [135.4802401, 35.1212609], [135.4801877, 35.1214862], [135.4801259, 35.121723], [135.4800316, 35.1220262], [135.4798457, 35.1224648], [135.4797355, 35.1226936], [135.4796269, 35.1228986], [135.479518, 35.1230901], [135.4793766, 35.1233098], [135.4791546, 35.1236008]], [[135.4100445, 35.1568105], [135.4110767, 35.1564408], [135.4168811, 35.1542355], [135.4175971, 35.153922], [135.4171611, 35.1540717], [135.4141139, 35.1551709], [135.4128906, 35.1556213], [135.4111579, 35.1563427], [135.4100445, 35.1568105]], [[135.4175971, 35.153922], [135.4183191, 35.1536349], [135.4200226, 35.1529532], [135.4220482, 35.1520741], [135.4237619, 35.1512636], [135.426622, 35.1497835], [135.4267535, 35.1497093], [135.4288926, 35.1485028], [135.4298572, 35.1479481], [135.430651, 35.1475035], [135.4318566, 35.1468508], [135.4328281, 35.146299], [135.4332171, 35.146078], [135.4342787, 35.1454677], [135.4350589, 35.1450515], [135.4353352, 35.1449416], [135.4357588, 35.1447705], [135.4362066, 35.1446104], [135.4365635, 35.1445161], [135.4368962, 35.144446], [135.4372598, 35.1443852], [135.437623, 35.14434], [135.4379916, 35.1442993], [135.438761, 35.1442619], [135.4402914, 35.1442126], [135.4405283, 35.1441959], [135.4408664, 35.1441499], [135.4412046, 35.1440774], [135.4414741, 35.1440052], [135.4417569, 35.1439139], [135.4420213, 35.1438088], [135.4422642, 35.1436927], [135.4427283, 35.1434394], [135.443152, 35.1431575], [135.4438829, 35.14255], [135.4452097, 35.141328], [135.4453859, 35.1411785], [135.4455782, 35.1410233], [135.4457819, 35.1408776], [135.4460156, 35.1407303], [135.4462738, 35.1405794], [135.454479, 35.1359453], [135.4547721, 35.1357692], [135.4550178, 35.1356021], [135.4552234, 35.135436], [135.4553937, 35.1352866], [135.4555997, 35.1350811], [135.4557921, 35.1348638], [135.4559335, 35.1346763], [135.4560675, 35.1344838], [135.4562152, 35.1342299], [135.4563657, 35.1339238], [135.4564824, 35.1336571], [135.4568407, 35.1327397], [135.4570902, 35.1321477], [135.4573721, 35.1315701], [135.4576286, 35.1311399], [135.4579192, 35.1307154], [135.4582367, 35.1303259], [135.4585699, 35.1299649], [135.4588643, 35.1296863], [135.4594126, 35.1292384], [135.4599556, 35.1288528], [135.4604027, 35.1286071], [135.4609359, 35.1283459], [135.46149, 35.1281223], [135.4616818, 35.1280367], [135.4624511, 35.1278246], [135.4631168, 35.1277017], [135.463597, 35.1276313], [135.4640852, 35.12758], [135.4645083, 35.1275532], [135.4649108, 35.1275448], [135.4654629, 35.1275471], [135.4659888, 35.1275625], [135.4681002, 35.1276482], [135.4685447, 35.1276552], [135.46897, 35.1276538], [135.4693817, 35.1276418], [135.4697963, 35.1276198], [135.4706484, 35.1275416], [135.4708475, 35.1275267], [135.4713805, 35.1274791], [135.471959, 35.1273912], [135.4725366, 35.1272785], [135.4731165, 35.1271526], [135.4739219, 35.1269509], [135.4747386, 35.1267009], [135.4753012, 35.1264938], [135.4756865, 35.1263352], [135.4759853, 35.1261993], [135.4763015, 35.126035], [135.4768563, 35.12572], [135.4773425, 35.1254094], [135.4776338, 35.1251945], [135.4780186, 35.1248545], [135.4782805, 35.1246159], [135.4784828, 35.12442], [135.4786202, 35.1242682], [135.4788221, 35.1240353], [135.4790152, 35.1237943], [135.4791546, 35.1236008], [135.4792284, 35.1234689], [135.4793374, 35.1232904], [135.4794574, 35.1230726], [135.4795734, 35.1228365], [135.4796423, 35.1226708], [135.4797147, 35.122467], [135.4799095, 35.1219166], [135.479995, 35.1216479], [135.4800495, 35.1214505], [135.4801182, 35.1211702], [135.4801672, 35.1209094], [135.4802164, 35.1205555], [135.4802494, 35.1201949], [135.4802628, 35.1197208], [135.4802606, 35.1194117], [135.4802342, 35.1191264], [135.4801255, 35.1184067], [135.4799544, 35.1172207], [135.4798922, 35.116634], [135.4798707, 35.1160472], [135.4798747, 35.1159077], [135.4798834, 35.1156088], [135.4799293, 35.1151562], [135.4800222, 35.1147144], [135.4801546, 35.114281], [135.4807689, 35.1125725], [135.4809411, 35.1119753], [135.481111, 35.1115183], [135.481299, 35.1109999], [135.4814252, 35.1106606], [135.4816354, 35.1101371], [135.4818224, 35.1097269], [135.4819519, 35.1094731], [135.4820829, 35.1092426], [135.4822409, 35.1089901], [135.4823431, 35.1088356], [135.4825016, 35.1086136], [135.4826865, 35.1083732], [135.4828584, 35.1081666], [135.4830755, 35.1079305], [135.4831103, 35.1078948], [135.4833497, 35.1076493], [135.4835514, 35.107453], [135.483693, 35.1073185], [135.4839294, 35.1071012], [135.4842872, 35.1067852], [135.48458, 35.1065212], [135.4852656, 35.1059137], [135.4865404, 35.1047844], [135.4869373, 35.1044293], [135.4871934, 35.1042198], [135.4875366, 35.1039515], [135.4879276, 35.1036722], [135.4882819, 35.1034435], [135.4886624, 35.1032141], [135.4891506, 35.1029489], [135.4895611, 35.1027499], [135.4899984, 35.1025627], [135.4911174, 35.1021219], [135.4916464, 35.1019142], [135.4920572, 35.1017403], [135.492431, 35.1015607], [135.4927357, 35.1013996], [135.4931375, 35.1011547], [135.4933419, 35.1010167], [135.4935815, 35.1008533], [135.494011, 35.1005197], [135.4943158, 35.1002453], [135.4946409, 35.0999118], [135.4951182, 35.0993658], [135.4972299, 35.0967108], [135.4978924, 35.0959277], [135.4985756, 35.0951313], [135.4993275, 35.0942651], [135.4996196, 35.0939047], [135.4999132, 35.0935101], [135.5001711, 35.093117], [135.5005228, 35.092509], [135.5014788, 35.090816], [135.5018056, 35.0902824], [135.5023566, 35.0894229], [135.5025943, 35.0890728], [135.5028182, 35.0887649], [135.5032043, 35.0882609], [135.5033188, 35.0881114], [135.5036072, 35.0877361], [135.5038024, 35.0875147], [135.5039475, 35.0873502], [135.5045847, 35.0866468], [135.5051665, 35.0860554], [135.505519, 35.085724], [135.5058782, 35.0854029], [135.5063756, 35.0849695], [135.5070471, 35.0844339], [135.5074902, 35.0841023], [135.5081384, 35.0836083], [135.5083381, 35.0834512], [135.5094939, 35.0825716], [135.5098152, 35.0823271], [135.5105244, 35.0817887], [135.511287, 35.0812013], [135.5118206, 35.0807482], [135.51208, 35.0805284], [135.5123068, 35.0803177], [135.5128899, 35.0797326], [135.5135383, 35.0790549], [135.5140924, 35.0783998], [135.5143758, 35.0780316], [135.5148348, 35.0774174], [135.5151558, 35.07696], [135.5160079, 35.0756979], [135.5161164, 35.0755372], [135.5169273, 35.0743504], [135.5172455, 35.0738708], [135.5174907, 35.0735157], [135.5179806, 35.0728046], [135.5183312, 35.0722938], [135.518684, 35.0717915], [135.5190288, 35.0713081], [135.519392, 35.0708345], [135.5196437, 35.0705196], [135.5199669, 35.0701849], [135.5203712, 35.0697917], [135.5225448, 35.0677417], [135.5228375, 35.0674828], [135.5231547, 35.0672286], [135.5234763, 35.0669924], [135.5240589, 35.0665881], [135.5245492, 35.0662777], [135.5260734, 35.0653743], [135.5266877, 35.0649783], [135.5270381, 35.0647181], [135.5273868, 35.064456], [135.52798, 35.0639312], [135.5285621, 35.0633406], [135.5308649, 35.0608573], [135.531192, 35.0604917], [135.5333714, 35.0578909], [135.5335294, 35.0576918], [135.5336582, 35.0575078], [135.533774, 35.0573217], [135.533865, 35.0571302], [135.5339758, 35.0568852], [135.5340764, 35.0566332], [135.5341845, 35.0563023], [135.534293, 35.0558267], [135.5343651, 35.0554234], [135.5344212, 35.05493], [135.5344568, 35.054264], [135.5344908, 35.0535564], [135.5345279, 35.0521282], [135.5345626, 35.0510345], [135.5345701, 35.0506485], [135.5346223, 35.0488185], [135.5346489, 35.0478829], [135.5346806, 35.046616], [135.5347307, 35.0455913], [135.5347832, 35.0451979], [135.5348651, 35.0447726], [135.5349887, 35.0443645], [135.5351381, 35.0439821], [135.5353453, 35.043592], [135.5355785, 35.0432406], [135.5358079, 35.0429432], [135.5361378, 35.0426026], [135.536283, 35.0424728], [135.5364423, 35.0423359], [135.5366236, 35.0421875], [135.536884, 35.0419928], [135.53732, 35.041688], [135.5376761, 35.0414542], [135.5379741, 35.0412658], [135.538306, 35.0410633], [135.5385778, 35.0408895], [135.5388617, 35.0407022], [135.5391151, 35.0405256], [135.5393824, 35.0403057], [135.5395996, 35.0401184], [135.5398239, 35.03988], [135.5399908, 35.0396932], [135.5401112, 35.0395423], [135.5402276, 35.0393795], [135.5403369, 35.0392124], [135.5404561, 35.0390226], [135.5406186, 35.0387504], [135.5409024, 35.0382506], [135.5433425, 35.0340018], [135.54473, 35.0316768], [135.5450469, 35.0311057], [135.5451627, 35.0308971], [135.5457244, 35.029885], [135.5466122, 35.0283275], [135.5469158, 35.0278128], [135.5476257, 35.0265808], [135.5485507, 35.024966], [135.5490806, 35.0240753], [135.5493718, 35.0236337], [135.5496185, 35.0232783], [135.5505552, 35.0220425], [135.5511336, 35.0212972], [135.5520631, 35.0201069], [135.5532365, 35.018596], [135.5543198, 35.0172067], [135.5552824, 35.0159375], [135.5574341, 35.0132254], [135.5575544, 35.0130658], [135.558779, 35.0114989], [135.5595377, 35.0105243], [135.5601395, 35.0098159], [135.5604897, 35.0094258], [135.5607966, 35.0090839], [135.5620501, 35.0078067], [135.5624217, 35.0074513], [135.5629851, 35.00693], [135.5634032, 35.0065622], [135.5638153, 35.0062024], [135.5642932, 35.0058083], [135.5645847, 35.0055727], [135.564731, 35.0054538], [135.5655707, 35.0048209], [135.5662429, 35.0043343], [135.5670582, 35.0037783], [135.5679653, 35.0032085], [135.568543, 35.002861], [135.5696865, 35.0022149], [135.5702881, 35.0018545], [135.5705462, 35.0016834], [135.5707802, 35.0015136], [135.5709706, 35.0013641], [135.5711605, 35.0012043], [135.5713324, 35.0010519], [135.5714995, 35.0008911], [135.5716278, 35.0007637], [135.5717569, 35.0006232], [135.5719273, 35.0004278], [135.5720817, 35.0002311], [135.5722701, 34.999971], [135.5724659, 34.9996735], [135.5726734, 34.9992957], [135.5728769, 34.9988556], [135.5732015, 34.9980608], [135.573434, 34.9976099], [135.5736993, 34.9971812], [135.5740192, 34.9967305], [135.5757585, 34.9945282], [135.5759787, 34.9942766], [135.5761949, 34.9940661], [135.5764222, 34.99386], [135.5766592, 34.9936806], [135.5768844, 34.9935377], [135.5770855, 34.9934173], [135.5773304, 34.993291], [135.57752, 34.9931967], [135.5780098, 34.9929864], [135.5784058, 34.9928376], [135.5788005, 34.9927088], [135.5792385, 34.992581], [135.5796623, 34.9924853], [135.5801542, 34.9923939], [135.5806765, 34.9923077], [135.5820808, 34.9920931], [135.5831646, 34.9919221], [135.5857989, 34.9914545], [135.5883348, 34.9909676], [135.590464, 34.9905563], [135.594271, 34.9898434], [135.596311, 34.989454], [135.596984, 34.9893404], [135.597631, 34.9892351], [135.5982799, 34.9891476], [135.5989736, 34.9890772], [135.599618, 34.989043], [135.6002834, 34.989032], [135.6008083, 34.989042], [135.6013608, 34.9890737], [135.6019739, 34.9891278], [135.6025025, 34.9891958], [135.6029621, 34.9892667], [135.603338, 34.989332], [135.6037137, 34.9894065], [135.6040284, 34.9894674], [135.6056359, 34.98983], [135.6059101, 34.9899051], [135.6066983, 34.990044], [135.6078704, 34.9903076], [135.6083619, 34.9903953], [135.6086803, 34.9904463], [135.6090985, 34.9905048], [135.6097339, 34.9905775], [135.6101909, 34.9906051], [135.6106764, 34.9906259], [135.6112384, 34.9906335], [135.6119128, 34.9906087], [135.6125805, 34.9905672], [135.6129531, 34.9905332], [135.6134723, 34.9904739], [135.6143811, 34.9903844], [135.6152634, 34.990295], [135.6164568, 34.9901925], [135.6174943, 34.9901222], [135.6187211, 34.9900608], [135.6195769, 34.9900257], [135.620215, 34.990003], [135.6208259, 34.9899922], [135.6227697, 34.9899739], [135.6247656, 34.9899718], [135.6256857, 34.989949], [135.6262313, 34.9899326], [135.6269507, 34.9899015], [135.628078, 34.9898204], [135.6289857, 34.9897173], [135.6298693, 34.9895878], [135.6323059, 34.9891414], [135.6334104, 34.9889319], [135.6355895, 34.9884877], [135.6377901, 34.9880048], [135.6388936, 34.9877294], [135.6399787, 34.9874158], [135.6411889, 34.9870266], [135.6426972, 34.9864915], [135.6436873, 34.9860949], [135.6443184, 34.9858235]], [[135.4100445, 35.1568105], [135.4095296, 35.1570091], [135.4074942, 35.1578259], [135.4053083, 35.1586366], [135.4036601, 35.1591841], [135.4028394, 35.1594839], [135.4019431, 35.1597282], [135.4005706, 35.1600553], [135.4001776, 35.1601349], [135.3997863, 35.1602054], [135.399384, 35.1602705], [135.3990126, 35.1603173], [135.3985323, 35.160365], [135.3981076, 35.1603974], [135.3969112, 35.1604518], [135.3954685, 35.1604931], [135.3946385, 35.1605426], [135.3938013, 35.1606415], [135.3932179, 35.16075], [135.3926843, 35.1608811], [135.39208, 35.1610569], [135.3915087, 35.1612559], [135.3910007, 35.1614549], [135.3908526, 35.1615119], [135.3903354, 35.1617467], [135.3898725, 35.1619649], [135.3894156, 35.1622068], [135.388931, 35.1624901], [135.3885475, 35.1627367], [135.3881607, 35.1629993], [135.3877828, 35.1632799], [135.3874116, 35.163567], [135.3865227, 35.1642982], [135.3860239, 35.1647024], [135.3856174, 35.1650202], [135.3850995, 35.1653999], [135.3845036, 35.1657936], [135.3841882, 35.1659837], [135.3838198, 35.1661842], [135.3835288, 35.1663368], [135.3832588, 35.1664655], [135.3829644, 35.1665914], [135.382479, 35.1667841], [135.3819065, 35.1670054], [135.3811197, 35.1672183], [135.3803219, 35.1673863], [135.3793728, 35.1675641], [135.3773237, 35.1678948], [135.3767634, 35.1679942], [135.3762353, 35.1681098], [135.375521, 35.1683075], [135.3748088, 35.1685375], [135.3740301, 35.1688541], [135.373312, 35.1692077], [135.372718, 35.1695461], [135.372151, 35.1699278], [135.3716774, 35.1702756], [135.3712366, 35.1706497], [135.3709587, 35.1709014], [135.3708061, 35.1710512], [135.3706358, 35.17123], [135.3703904, 35.1714959], [135.3701387, 35.1717972], [135.369924, 35.1720774], [135.3697486, 35.1723229], [135.3695709, 35.1725945], [135.3693852, 35.1728958], [135.3692189, 35.1731959], [135.3690441, 35.1735513], [135.3689159, 35.1738468], [135.3687978, 35.1741456], [135.3686363, 35.1745754], [135.3685176, 35.1749055], [135.3678845, 35.1770517], [135.3677849, 35.1774235], [135.3677015, 35.1777285], [135.3675121, 35.1783328], [135.3673518, 35.1788135], [135.3671555, 35.1792956], [135.3669215, 35.1798216], [135.3666602, 35.180298], [135.3664969, 35.1805719], [135.3662546, 35.1809371], [135.3659148, 35.1813968], [135.3657086, 35.1816536], [135.3655641, 35.1818208], [135.3654013, 35.1820039], [135.3652179, 35.1822035], [135.3649238, 35.1824912], [135.364585, 35.1828038], [135.3642738, 35.1830745], [135.3639885, 35.1833116], [135.3633988, 35.1837915], [135.3626488, 35.1844078], [135.3623596, 35.1846823], [135.3619616, 35.1850722], [135.36151, 35.185569], [135.3612659, 35.1858762], [135.3610691, 35.1861425], [135.3608833, 35.1864183], [135.3604345, 35.1871389], [135.36025, 35.187483], [135.3599967, 35.1880066], [135.3598313, 35.1884088], [135.3596762, 35.1888792], [135.3596412, 35.1890548], [135.3595139, 35.1895292], [135.3593751, 35.1900747], [135.3592475, 35.1907137], [135.3591097, 35.1914028], [135.3589947, 35.191994], [135.3588762, 35.1925487], [135.3587794, 35.1929598], [135.3586439, 35.1934519], [135.3585061, 35.1938893], [135.35828, 35.1945438], [135.3580708, 35.195062], [135.3578574, 35.1955496], [135.3575765, 35.1961108], [135.3572235, 35.1967618], [135.3567974, 35.1974233], [135.3559036, 35.1986446], [135.3553617, 35.1992722], [135.3547929, 35.1998809], [135.3542085, 35.2004514], [135.3528639, 35.2016766], [135.3520369, 35.2023953], [135.35133, 35.2030676], [135.3499932, 35.2044255], [135.3493458, 35.2051543], [135.3487812, 35.2058392], [135.3463681, 35.2089847], [135.3459381, 35.2096136], [135.3455357, 35.2102417], [135.3452254, 35.2107665], [135.3450186, 35.2111244], [135.3444766, 35.2121007], [135.3442058, 35.2126081], [135.3440176, 35.2129813], [135.3438106, 35.2134154], [135.3434058, 35.2142633], [135.3431644, 35.2147877], [135.3429676, 35.2152675], [135.3427993, 35.2157256], [135.342653, 35.2161911], [135.3425469, 35.2165525], [135.3424558, 35.21695], [135.342392, 35.2173413], [135.342355, 35.2176448], [135.3423254, 35.2180065], [135.342318, 35.2183664], [135.3423186, 35.2186078], [135.342334, 35.2188841], [135.3423636, 35.2192166], [135.3424103, 35.2195424], [135.3425368, 35.2201628], [135.3427298, 35.2208518], [135.3431085, 35.2219198], [135.3438021, 35.2237066], [135.3441743, 35.2247805], [135.3444823, 35.2257664], [135.3449144, 35.2274717], [135.3450888, 35.2283477], [135.345445, 35.2306326], [135.3455753, 35.2317556], [135.3456419, 35.2331735], [135.3456336, 35.2347478], [135.3455299, 35.2365813], [135.3453745, 35.2380383], [135.3451804, 35.2392859], [135.3448506, 35.2409033], [135.344352, 35.2428087], [135.3437475, 35.2451038], [135.343118, 35.247409], [135.3423573, 35.2502382], [135.3420937, 35.2514142], [135.3418885, 35.2525868], [135.3418067, 35.2534026], [135.3417855, 35.254223], [135.3417872, 35.2543708], [135.3417969, 35.2545285], [135.3418117, 35.2547221], [135.3418393, 35.2550042], [135.3418745, 35.2552787], [135.341912, 35.2555468], [135.3419345, 35.255646], [135.3420571, 35.2561715], [135.3423011, 35.2569992], [135.3426151, 35.2578], [135.3428197, 35.2582519], [135.3428432, 35.2582943], [135.3430077, 35.2586074], [135.3435589, 35.2596155], [135.3442653, 35.2608738], [135.3445821, 35.2614695], [135.3449548, 35.262332], [135.3450784, 35.2626803], [135.3451832, 35.2629765], [135.3452595, 35.2632476], [135.3453244, 35.2635232], [135.3453984, 35.2638922], [135.3454349, 35.2641155], [135.3454736, 35.2644264], [135.3454987, 35.2647339], [135.3455066, 35.2649629], [135.3454987, 35.2653832], [135.3454861, 35.265734], [135.3454497, 35.2660746], [135.3454087, 35.2663661], [135.345354, 35.2666509], [135.3452978, 35.2668948], [135.3452743, 35.2669858], [135.34519, 35.2672865], [135.3451148, 35.2675461], [135.3449941, 35.2678765], [135.3448092, 35.2683078], [135.3445305, 35.2688688], [135.3441968, 35.2694255], [135.3438437, 35.2699199], [135.3437264, 35.2700751], [135.3432192, 35.2706651], [135.3422511, 35.2715093], [135.3417002, 35.2720688], [135.3409721, 35.2728789], [135.3404561, 35.2734853], [135.3399096, 35.2741717], [135.3396725, 35.2744853], [135.3394722, 35.2747742], [135.3392866, 35.2750738], [135.3390306, 35.2754814], [135.3388242, 35.2758456], [135.3385435, 35.2763614], [135.3383743, 35.2767185], [135.3382197, 35.277104], [135.3380824, 35.2775064], [135.3379969, 35.2777813], [135.3377647, 35.2785394], [135.3376532, 35.2789397], [135.3375792, 35.279245], [135.3375184, 35.2795787], [135.3374783, 35.2798856], [135.33745, 35.2801968], [135.337417, 35.2806029], [135.3373876, 35.2809647], [135.3373338, 35.2815334], [135.3372958, 35.2819956], [135.3372128, 35.2831908], [135.3371263, 35.2842989], [135.3372959, 35.2831921], [135.3374048, 35.2820083], [135.3374475, 35.2815351], [135.3375136, 35.280971], [135.337543, 35.2806069], [135.3375807, 35.2802102], [135.3376043, 35.2798858], [135.3376404, 35.2795864], [135.3376941, 35.2792593], [135.3377642, 35.2789579], [135.3378675, 35.2785554], [135.337956, 35.278274], [135.3381222, 35.2777533], [135.3381915, 35.2775268], [135.3383286, 35.277123], [135.3384154, 35.2769097], [135.3384819, 35.2767452], [135.3386426, 35.2763963], [135.3389296, 35.275884], [135.3391427, 35.2755224], [135.3393731, 35.2751296], [135.3395588, 35.2748357], [135.3397659, 35.2745435], [135.3399996, 35.274223], [135.3405441, 35.2735397], [135.3410988, 35.2729179], [135.3418912, 35.2720772], [135.3423339, 35.2716057], [135.3432192, 35.2706651]], [[135.3596412, 35.1890548], [135.3597181, 35.1888857], [135.3600445, 35.1880222], [135.3602661, 35.18757], [135.3604908, 35.187157], [135.3609379, 35.186441], [135.361137, 35.1861698], [135.3613379, 35.1859094], [135.3615845, 35.1856157], [135.3620258, 35.1851165], [135.3624363, 35.1847311], [135.3627296, 35.1844675], [135.3634759, 35.1838532], [135.3640705, 35.1833739], [135.3643518, 35.1831427], [135.3646776, 35.1828591], [135.3650166, 35.1825419], [135.3653045, 35.1822569], [135.3654973, 35.1820519], [135.3656811, 35.1818461], [135.3658272, 35.1816707], [135.3660284, 35.1814148], [135.3663529, 35.180978], [135.3665965, 35.1806108], [135.3667575, 35.1803412], [135.3670249, 35.1798538], [135.3672756, 35.1793252], [135.3674713, 35.1788415], [135.3676169, 35.1783533], [135.3677913, 35.1777596], [135.3678726, 35.1774408], [135.3679634, 35.1770709], [135.3685176, 35.1749055]], [[135.744079, 34.8975235], [135.7435836, 34.8976099], [135.7432113, 34.8976889], [135.7428634, 34.8977779], [135.7425262, 34.8978735], [135.7422125, 34.89798], [135.7418867, 34.898101], [135.7415865, 34.8982287], [135.741321, 34.8983493], [135.7408874, 34.8985688], [135.7398575, 34.8991521], [135.739565, 34.8993086], [135.7392671, 34.8994562], [135.7389989, 34.8995787], [135.7387381, 34.8996893], [135.7384734, 34.8997933], [135.7381639, 34.899902], [135.7378668, 34.8999975], [135.7374096, 34.9001125], [135.7369394, 34.9002063], [135.7364263, 34.9002781], [135.7360602, 34.9003163], [135.7356615, 34.900337], [135.735259, 34.9003384], [135.7346613, 34.9003195], [135.7340568, 34.9002875], [135.7334118, 34.9002474], [135.73274, 34.9001974], [135.7322613, 34.9001538], [135.7318594, 34.9001142], [135.7314395, 34.9000702], [135.7310615, 34.9000217], [135.730734, 34.8999768], [135.7304156, 34.8999199], [135.7301187, 34.8998552], [135.7298152, 34.8997661], [135.7295207, 34.8996629], [135.7292329, 34.899541], [135.7290251, 34.8994382], [135.7288289, 34.8993286], [135.7286409, 34.8992138], [135.7283297, 34.8990019], [135.7280266, 34.8987792], [135.7263744, 34.8975578], [135.7260566, 34.8973399], [135.7257389, 34.8971307], [135.7254048, 34.8969177], [135.7250279, 34.8966975], [135.7246296, 34.8964751], [135.7241965, 34.8962483], [135.7237801, 34.8960474], [135.7232829, 34.8958243], [135.7227796, 34.895614], [135.7222575, 34.8954192], [135.7217301, 34.8952358], [135.7210127, 34.8949999], [135.7206555, 34.8948808], [135.7203038, 34.8947596], [135.7199678, 34.8946361], [135.7196345, 34.8944995], [135.7193228, 34.8943593], [135.7190138, 34.8942016], [135.7187557, 34.8940564], [135.7184949, 34.8938981], [135.7182456, 34.8937312], [135.7179991, 34.8935533], [135.7177734, 34.893376], [135.7175398, 34.8931745], [135.7172567, 34.8929223], [135.7167574, 34.8924613], [135.7164872, 34.8922192], [135.7162762, 34.8920411], [135.716037, 34.8918542], [135.7157612, 34.8916582], [135.7154698, 34.8914729], [135.7151945, 34.8913129], [135.7149283, 34.8911685], [135.7146727, 34.8910385], [135.7144138, 34.8909195], [135.7141308, 34.8907987], [135.7138425, 34.8906911], [135.713644, 34.8906246], [135.7132551, 34.8905136], [135.7129141, 34.8904349], [135.7126233, 34.8903712], [135.7123283, 34.8903144], [135.7120458, 34.8902741], [135.7117538, 34.8902414], [135.7114402, 34.8902211], [135.7111266, 34.8902085], [135.7107879, 34.8902021], [135.7104421, 34.8902056], [135.7081222, 34.8902843], [135.7077729, 34.8903087], [135.7073938, 34.8903492], [135.7070369, 34.8904067], [135.706745, 34.8904747], [135.7065412, 34.8905342], [135.7063864, 34.8905873], [135.7062308, 34.8906456], [135.7059887, 34.890749], [135.7057548, 34.8908658], [135.7054517, 34.8910408], [135.7051727, 34.8912275], [135.7049349, 34.8914112], [135.7047106, 34.8916092], [135.7045199, 34.8917973], [135.7043424, 34.8920036], [135.7041817, 34.8922264], [135.7040059, 34.8924956], [135.703834, 34.8927768], [135.7032726, 34.8936959], [135.7006301, 34.8980074], [135.7003661, 34.8984059], [135.7001224, 34.8987512], [135.6998316, 34.8991073], [135.6995806, 34.8993841], [135.6992274, 34.8997676], [135.6989554, 34.9000196], [135.698663, 34.9002688], [135.6983535, 34.9005241], [135.6979241, 34.9008442], [135.6974711, 34.9011581], [135.6970566, 34.9014228], [135.6967531, 34.9016021], [135.6965587, 34.9017223], [135.696013, 34.9020188], [135.6956507, 34.9022139], [135.6952925, 34.9023943], [135.6948689, 34.9026092], [135.6945074, 34.9028369], [135.6942229, 34.9030254], [135.6940662, 34.9031295], [135.693897, 34.9032628], [135.6937394, 34.9033991], [135.693542, 34.9035737], [135.6933765, 34.9037314], [135.6931684, 34.9039535], [135.6929542, 34.9042091], [135.6927517, 34.9044651], [135.6925655, 34.9047237], [135.6923787, 34.9050062], [135.692244, 34.9052468], [135.6921164, 34.9054955], [135.6919415, 34.9058822], [135.6918261, 34.9062015], [135.6916011, 34.9069473], [135.6914402, 34.9075194], [135.6912475, 34.9082921], [135.6911037, 34.9089331], [135.6909966, 34.9094093], [135.6908683, 34.9098901], [135.6907848, 34.9101609], [135.6906703, 34.9104681], [135.6905211, 34.9108219], [135.6904302, 34.9109965], [135.6903278, 34.9111721], [135.6901635, 34.9114328], [135.6900417, 34.9116091], [135.689854, 34.9118651], [135.6896814, 34.9120862], [135.6894604, 34.9123404], [135.6891949, 34.9126438], [135.6889586, 34.912898], [135.6887379, 34.9131409], [135.688438, 34.9134616], [135.6882473, 34.91365], [135.6877687, 34.9141131], [135.6872631, 34.9145697], [135.6869556, 34.9148152], [135.6866447, 34.9150899], [135.6863389, 34.9153159], [135.6860285, 34.9155374], [135.6857072, 34.9157511], [135.6851751, 34.9160708], [135.6844694, 34.9164603], [135.6828181, 34.917282], [135.6817578, 34.9178188], [135.680038, 34.9186883], [135.6784147, 34.9194906], [135.677051, 34.920173], [135.6766042, 34.9203659], [135.6762215, 34.9205154], [135.6757913, 34.9206625], [135.6753806, 34.9207779], [135.6749498, 34.9208804], [135.6744643, 34.9209765], [135.6730338, 34.9212063], [135.6722272, 34.9213458], [135.6717269, 34.921462], [135.6712768, 34.921601], [135.6708616, 34.9217578], [135.6704567, 34.9219325], [135.6698908, 34.9222343], [135.6696488, 34.9223835], [135.6695104, 34.9224773], [135.6690836, 34.9228039], [135.6688785, 34.9229802], [135.6686109, 34.9232135], [135.6684673, 34.9233501], [135.6683257, 34.923505], [135.6681831, 34.9236707], [135.6680216, 34.923869], [135.6678737, 34.9240707], [135.667751, 34.9242453], [135.6676778, 34.9243599], [135.6675146, 34.9246419], [135.6673323, 34.9250256], [135.6671832, 34.9254307], [135.6670567, 34.9258681], [135.6669293, 34.9264386], [135.6668321, 34.9269936], [135.6649477, 34.9415288], [135.6647377, 34.9431854], [135.6646875, 34.9435596], [135.6646337, 34.9439018], [135.6645818, 34.9442404], [135.6645144, 34.9445876], [135.6643172, 34.9454288], [135.6642493, 34.9456896], [135.6641707, 34.9459438], [135.6640785, 34.9462174], [135.6639756, 34.9464989], [135.6638528, 34.9468092], [135.6637273, 34.94712], [135.6635652, 34.9474821], [135.6633899, 34.9478484], [135.6632192, 34.9481829], [135.6630373, 34.9485295], [135.6628839, 34.9488063], [135.6626853, 34.9491477], [135.6624857, 34.9494742], [135.6622967, 34.9497757], [135.662122, 34.9500495], [135.6619255, 34.9503288], [135.6617273, 34.9506158], [135.6612973, 34.951188], [135.6611481, 34.9513813], [135.6609486, 34.951643], [135.660725, 34.9519112], [135.6604812, 34.9522037], [135.6602359, 34.9524871], [135.6600068, 34.952726], [135.6597697, 34.9529583], [135.6595146, 34.953187], [135.6592676, 34.9533871], [135.659029, 34.9535656], [135.6587863, 34.9537308], [135.6585165, 34.9538976], [135.6582614, 34.9540446], [135.6579721, 34.954204], [135.6576668, 34.9543589], [135.6573384, 34.9545099], [135.6569251, 34.9546935], [135.6564864, 34.9549013], [135.6560956, 34.9551015], [135.6557101, 34.9553281], [135.6554032, 34.9555515], [135.6551142, 34.9558023], [135.6548334, 34.9560822], [135.6545616, 34.9563984], [135.6543446, 34.9567058], [135.6541609, 34.9570128], [135.654015, 34.9573134], [135.6538872, 34.9576237], [135.6538059, 34.9578863], [135.6537353, 34.9581708], [135.6536846, 34.9585181], [135.653647, 34.9589042], [135.6536318, 34.9592345], [135.6536325, 34.9600108], [135.6536779, 34.960644], [135.6537882, 34.9613095], [135.6539533, 34.9619429], [135.6541713, 34.9625999], [135.654333, 34.9630679], [135.654469, 34.9633652], [135.6545334, 34.9635044], [135.6545755, 34.9635953], [135.6546047, 34.9636584], [135.6547498, 34.9639428], [135.6549499, 34.9643114], [135.6551367, 34.9646327], [135.6553828, 34.9650142], [135.6556491, 34.9653758], [135.6559355, 34.9657506], [135.6562402, 34.9661134], [135.6564983, 34.9663991], [135.6568042, 34.9667297], [135.6570883, 34.9670265], [135.6574974, 34.967467], [135.6578271, 34.9678471], [135.6580539, 34.9681315], [135.658249, 34.9683868], [135.6584958, 34.9687437], [135.6587484, 34.9691371], [135.6589344, 34.9694668], [135.6590577, 34.9696982], [135.6591651, 34.9699229], [135.6592865, 34.9701969], [135.659391, 34.9704706], [135.6595155, 34.9708118], [135.6596313, 34.9711728], [135.6597232, 34.9715516], [135.6598451, 34.9720363], [135.6599535, 34.9725079], [135.6600328, 34.9728864], [135.6600875, 34.9731889], [135.6601217, 34.9734617], [135.6601486, 34.973695], [135.6601514, 34.9739349], [135.660139, 34.9741896], [135.6601033, 34.9744639], [135.6600572, 34.9747202], [135.6599833, 34.9749895], [135.6599079, 34.9752165], [135.6598055, 34.975467], [135.6596971, 34.9757177], [135.6595651, 34.9759785], [135.659425, 34.9762229], [135.6593093, 34.9763982], [135.6591718, 34.9765996], [135.6590303, 34.9767818], [135.6588522, 34.9769973], [135.6586755, 34.9772029], [135.65845, 34.9774452], [135.658162, 34.9777307], [135.6577163, 34.9781599], [135.6572073, 34.9786437], [135.6569899, 34.9788643], [135.6567941, 34.9790809], [135.656627, 34.979296], [135.6564667, 34.9795298], [135.6562474, 34.9799034], [135.6561189, 34.980128], [135.6559025, 34.980524], [135.6557128, 34.9808558], [135.6554956, 34.9812042], [135.6552512, 34.9815254], [135.6550441, 34.9817656], [135.6548166, 34.9819994], [135.654548, 34.9822456], [135.6542894, 34.9824615], [135.6540311, 34.9826476], [135.6537635, 34.9828291], [135.6534607, 34.9830025], [135.6531208, 34.9831783], [135.6528511, 34.9832993], [135.652563, 34.983415], [135.652256, 34.9835236], [135.6518906, 34.98364], [135.6513958, 34.9837574], [135.6501434, 34.9839969], [135.6486621, 34.9842838], [135.6480381, 34.9844165], [135.6472762, 34.9846018], [135.6466001, 34.9848135], [135.6460287, 34.9850155]]]}, "id": "relation/18588803"}]}