{"type": "FeatureCollection", "generator": "kokudo-quiz tools/fetch_raw.py (Overpass API)", "copyright": "The data included in this document is from www.openstreetmap.org. The data is made available under ODbL.", "timestamp": "2026-09-30T23:41:17Z", "features": [{"type": "Feature", "properties": {"@id": "relation/9473486", "colour": "red", "from": "島根県隠岐郡隠岐の島町", "name": "国道485号", "name:en": "National Highway Route 485", "name:ja": "国道485号", "name:ja-Hira": "こくどうよんひゃくはちじゅうごごう", "name:ja-Latn": "kokudo 485 Gou", "network": "JP:national", "ref": "485", "route": "road", "to": "島根県松江市", "type": "route", "wikidata": "Q11421471", "wikipedia": "ja:国道485号"}, "geometry": {"type": "MultiLineString", "coordinates": [[[133.2289853, 35.5709465], [133.2289527, 35.5708617], [133.2289308, 35.5708176], [133.2288968, 35.5707713], [133.2288636, 35.5707402], [133.2288208, 35.5707085], [133.2287557, 35.5706748], [133.2286819, 35.5706478], [133.2286073, 35.5706298], [133.2285264, 35.5706185], [133.2283891, 35.5706185], [133.227743, 35.5707336], [133.227626, 35.570742], [133.2275363, 35.5707398], [133.2274327, 35.5707276], [133.2272849, 35.5706938], [133.227214, 35.5706827], [133.2271396, 35.570683], [133.2270655, 35.5706912], [133.2267431, 35.5707449], [133.2266203, 35.5707692], [133.226564, 35.5707658], [133.2265022, 35.5707503], [133.2263532, 35.5707128], [133.2262301, 35.570702], [133.2260928, 35.5706875], [133.2259403, 35.570686], [133.2258237, 35.5706781], [133.2256712, 35.5706387], [133.2255765, 35.5706133], [133.2254488, 35.570578], [133.2251913, 35.5705043], [133.2249574, 35.5704343], [133.2247491, 35.570368], [133.2245545, 35.5703097], [133.2244496, 35.5702777], [133.2243966, 35.5702537], [133.2243546, 35.5702205], [133.224329, 35.5701873], [133.224301, 35.5701323], [133.224285, 35.5700703], [133.2242668, 35.569987], [133.2242608, 35.5698308], [133.22428, 35.5697019], [133.224325, 35.5695471], [133.2243954, 35.5694084], [133.2245174, 35.5692296], [133.2251681, 35.5683997], [133.2259129, 35.5674418], [133.2260781, 35.5672379], [133.2262613, 35.5669866], [133.226327, 35.5668824], [133.22637, 35.5667854], [133.2264311, 35.5665389], [133.2265755, 35.5658336], [133.2265976, 35.5657252], [133.2266034, 35.5656272], [133.2265865, 35.5654997], [133.2265631, 35.5653913], [133.2265279, 35.5652977], [133.2264681, 35.5651939], [133.2264147, 35.565114], [133.2253182, 35.5640845], [133.224704, 35.563299], [133.224621, 35.563186], [133.224573, 35.563059], [133.224562, 35.562935], [133.224579, 35.562837], [133.224752, 35.562436], [133.22504, 35.561763], [133.225524, 35.560558], [133.225988, 35.559389], [133.226612, 35.557859], [133.2271097, 35.5566077], [133.227466, 35.555745], [133.227591, 35.55548], [133.2279148, 35.5547088], [133.2279855, 35.5543383], [133.2280042, 35.5537731], [133.2280291, 35.5527822], [133.2280647, 35.5518214], [133.2280866, 35.5512623], [133.2281083, 35.5511089], [133.2278392, 35.5510493], [133.2276999, 35.5510145], [133.2275902, 35.5509738], [133.2274465, 35.550874], [133.2274041, 35.5508234], [133.2272851, 35.5506486], [133.2271975, 35.550524], [133.2271691, 35.5504922], [133.2270556, 35.550393], [133.2267562, 35.5502003], [133.226677, 35.5501559], [133.2264538, 35.5500307], [133.2260417, 35.5498672], [133.2243207, 35.5493307], [133.2241621, 35.5493053], [133.2240179, 35.5493074], [133.2235196, 35.5493739], [133.2232829, 35.5493965], [133.2230669, 35.5494001], [133.2227376, 35.5493774], [133.2205241, 35.549231], [133.2201434, 35.5492358], [133.2197149, 35.5492431], [133.2195666, 35.5492423], [133.2194346, 35.5492338], [133.2192748, 35.5492134], [133.2191059, 35.549185], [133.2189808, 35.5491601], [133.2189352, 35.549149], [133.218475, 35.5490376], [133.2181603, 35.5489562], [133.2179228, 35.5488948], [133.2173277, 35.5487306], [133.217194, 35.5486842], [133.2170215, 35.5486188], [133.2168527, 35.5485325], [133.2166782, 35.5484325], [133.2163868, 35.5482485], [133.214752, 35.5472642], [133.2145786, 35.5471287], [133.2138995, 35.5465331], [133.2137207, 35.5464111], [133.2135372, 35.5463073], [133.2132961, 35.5462086], [133.2126453, 35.5459777], [133.2124408, 35.5458917], [133.2122218, 35.5457699], [133.2121373, 35.5457178], [133.2120049, 35.5456294], [133.2116657, 35.5453529], [133.2113119, 35.5449897], [133.210851, 35.5444155], [133.2106186, 35.5441211], [133.2104848, 35.5439517], [133.210426, 35.5438685], [133.210274, 35.543584], [133.2102037, 35.5434674], [133.2101851, 35.5434366], [133.2100995, 35.5433549], [133.2100031, 35.5432855], [133.2097586, 35.5431612], [133.2095901, 35.5430824], [133.2092437, 35.5429014], [133.2091005, 35.5428142], [133.2088991, 35.5426596], [133.20858, 35.5423697], [133.2082965, 35.5421121], [133.2081814, 35.5420382], [133.2080303, 35.5419807], [133.2076929, 35.5418714], [133.2070002, 35.5416471], [133.2069472, 35.54163], [133.2069291, 35.5416241], [133.206242, 35.5414163], [133.2054767, 35.5411762], [133.2053158, 35.5411167], [133.2051372, 35.5410338], [133.2049863, 35.5409579], [133.2048637, 35.5409006], [133.2048066, 35.5408766], [133.2047396, 35.5408588], [133.2046702, 35.540848], [133.2045818, 35.540844], [133.2043544, 35.5408554], [133.2038853, 35.5408789], [133.2037369, 35.5408663], [133.2036311, 35.540845], [133.2019955, 35.5401161], [133.2018199, 35.5400251], [133.2013346, 35.5397257], [133.2001302, 35.5389323], [133.1998861, 35.5387126], [133.1997774, 35.5385534], [133.1995862, 35.5382529], [133.1995036, 35.5381396], [133.1993865, 35.5380028], [133.1992315, 35.537897], [133.1990526, 35.5378034], [133.1988136, 35.5377006], [133.1986613, 35.5376426], [133.1985614, 35.5375707], [133.1985343, 35.5375488], [133.1984564, 35.5374435], [133.1984193, 35.5373793], [133.1983837, 35.5373152], [133.1983648, 35.5372692], [133.198351, 35.537189], [133.1983682, 35.5370874], [133.198426, 35.5369949], [133.1986801, 35.5366847], [133.1987168, 35.5366036], [133.1987319, 35.5365235], [133.1987248, 35.5363948], [133.1986913, 35.5362791], [133.1986165, 35.5361694], [133.1985532, 35.5361023], [133.1980794, 35.5357341], [133.1976867, 35.5354934], [133.1973375, 35.5352994], [133.196273, 35.5347166], [133.1960867, 35.5346611], [133.1958908, 35.5346303], [133.1956306, 35.5346461], [133.1953683, 35.5347084], [133.1940246, 35.5351747], [133.1938294, 35.5352271], [133.1936313, 35.5352557], [133.193372, 35.5352613], [133.1927051, 35.5352293], [133.1907715, 35.5351603], [133.1902018, 35.5350382], [133.1897407, 35.5347858], [133.1884159, 35.5337629], [133.1881544, 35.5336005], [133.187871, 35.5334565], [133.1877587, 35.5334111], [133.1876639, 35.533378], [133.1875422, 35.5333431], [133.1873974, 35.5333195], [133.1872395, 35.5332982], [133.187039, 35.5332791], [133.185872, 35.5331838], [133.1853765, 35.53315], [133.1852562, 35.5331515], [133.1851231, 35.5331611], [133.1849836, 35.533183], [133.1848442, 35.5332147], [133.1846445, 35.5332833], [133.1845231, 35.5333351], [133.1844072, 35.5334044], [133.1842824, 35.5334942], [133.1841597, 35.5335933], [133.1840564, 35.5337043], [133.1839748, 35.5338068], [133.1838696, 35.5339622], [133.1836848, 35.5343348], [133.1835545, 35.5345717], [133.1833644, 35.5348555], [133.183225, 35.535031], [133.1830001, 35.5352844], [133.1826314, 35.5356833], [133.1822049, 35.5361335], [133.1820772, 35.5362901], [133.1819782, 35.5364582], [133.181822, 35.5368122], [133.1815867, 35.5373456], [133.1815106, 35.5374965], [133.1814397, 35.5376129], [133.181386, 35.5376897], [133.1812311, 35.5378547], [133.181071, 35.5379557], [133.1808313, 35.538035], [133.1805915, 35.5380574], [133.1803548, 35.5380656], [133.1801083, 35.5380391], [133.179175, 35.5379688], [133.1787709, 35.537947], [133.1782552, 35.5379191], [133.177318, 35.5378293], [133.1751542, 35.5375464], [133.1744606, 35.5374999], [133.1736489, 35.5375073], [133.1722396, 35.5375187], [133.1719999, 35.5374932], [133.1717942, 35.5374372], [133.1714917, 35.5372946], [133.1699468, 35.5363628], [133.1688661, 35.5357109], [133.1686003, 35.5355871], [133.1684109, 35.5355257], [133.1682028, 35.5354681], [133.1679276, 35.5354304], [133.1670061, 35.5352845], [133.1668391, 35.5353936], [133.1665549, 35.5355006], [133.1662426, 35.5356557], [133.1661088, 35.5357277], [133.1658455, 35.5358935], [133.1658211, 35.5359132], [133.1647731, 35.5367597], [133.1645417, 35.5369529], [133.1643745, 35.5371245], [133.1637669, 35.5378049], [133.1633266, 35.5382808], [133.1632256, 35.5383561], [133.1631836, 35.538383], [133.1630449, 35.5384267], [133.1629058, 35.538434], [133.1627412, 35.5384238], [133.1616288, 35.5382762], [133.161431, 35.5382491], [133.1613561, 35.5382361], [133.1612352, 35.5382442], [133.1611433, 35.5382717], [133.1610414, 35.5383176], [133.1607106, 35.5385449], [133.1595955, 35.5393108], [133.1594756, 35.5393932], [133.1594076, 35.5394255], [133.1593146, 35.5394609], [133.1591826, 35.5395037], [133.159029, 35.5395111], [133.1588785, 35.5394864], [133.158732, 35.5394426], [133.1585906, 35.5393825], [133.1580054, 35.539086], [133.157679, 35.5389289], [133.1575846, 35.5388835], [133.1555929, 35.5379721], [133.155225, 35.5378025], [133.1551113, 35.5377406], [133.1548382, 35.537592], [133.1545259, 35.5374083], [133.153358, 35.5366688], [133.15318, 35.536536], [133.1530348, 35.5364187], [133.1528998, 35.5362988], [133.1522049, 35.5355935], [133.1521069, 35.5354892], [133.1519354, 35.5352664], [133.1518379, 35.5350802], [133.1517671, 35.5349078], [133.1517191, 35.5347063], [133.1514823, 35.5326524], [133.151436, 35.5324584], [133.151364, 35.5322426], [133.1512214, 35.5318044], [133.1509421, 35.5311675], [133.1508266, 35.5308363], [133.1507512, 35.5306234], [133.1507142, 35.5305191], [133.1505718, 35.5300813], [133.1500593, 35.5286712], [133.1494801, 35.5270073], [133.1493454, 35.5266574], [133.1491492, 35.5263095], [133.1487584, 35.5258734], [133.1486083, 35.5257015], [133.1484932, 35.5255036], [133.1484339, 35.5252201], [133.1484174, 35.5245736], [133.1483564, 35.5242956], [133.1481704, 35.5240417], [133.1478968, 35.5238647], [133.1475638, 35.5237636], [133.1470106, 35.5236765], [133.146658, 35.523601], [133.1462104, 35.5234277], [133.1459003, 35.5232423], [133.1456036, 35.5229818], [133.1448648, 35.5222666], [133.144728, 35.5221181], [133.1442853, 35.5216676], [133.1442072, 35.5215881], [133.1438061, 35.5212175], [133.1436656, 35.5211188], [133.1434886, 35.5210201], [133.1434545, 35.5210016], [133.1433681, 35.5209547], [133.143178, 35.5208797], [133.1429572, 35.5208179], [133.1426991, 35.5207673], [133.142465, 35.5207461], [133.1422495, 35.5207259], [133.1419664, 35.520721], [133.1416686, 35.5207158], [133.1412689, 35.5207057], [133.1407803, 35.5206886], [133.1406153, 35.5206801], [133.1404422, 35.5206625], [133.1402758, 35.5206324], [133.140065, 35.5205767], [133.1397551, 35.5204652], [133.1393765, 35.5202989], [133.1391425, 35.5201757], [133.1389333, 35.5200518], [133.1387445, 35.5199115], [133.1385468, 35.5197425], [133.1383357, 35.5194975], [133.1380822, 35.519167], [133.137744, 35.5187622], [133.1372651, 35.5182604], [133.1370558, 35.5180563], [133.136992, 35.5179941], [133.136894, 35.5179136], [133.1365838, 35.517659], [133.1362304, 35.5174355], [133.1357207, 35.5171498], [133.1352305, 35.5169292], [133.1343516, 35.5165979], [133.1338324, 35.5164456], [133.1335258, 35.5163499], [133.1326086, 35.5161591], [133.1323445, 35.5161124], [133.1318467, 35.5160367], [133.1313977, 35.5159724], [133.1308633, 35.5159559], [133.1303138, 35.5159028], [133.1280399, 35.5157454], [133.1253245, 35.5155286], [133.1236212, 35.515402], [133.1229867, 35.5153011], [133.1223866, 35.515164], [133.1217625, 35.5149435], [133.1213438, 35.5147667], [133.1209348, 35.5145312], [133.1191375, 35.5134637], [133.1189795, 35.5133665], [133.1183268, 35.5129785], [133.1167194, 35.5119837], [133.1162854, 35.5117594], [133.1138658, 35.5102934], [133.1132959, 35.5099236], [133.1126238, 35.5094695], [133.1111868, 35.5085366], [133.110796, 35.5082673], [133.1103824, 35.507977], [133.1099327, 35.5077313], [133.1096894, 35.5076351], [133.1094424, 35.5075479], [133.1092173, 35.5074828], [133.1089775, 35.5074325], [133.1086883, 35.5074], [133.1084008, 35.5073853], [133.1081412, 35.5073832], [133.1078706, 35.507399], [133.1075658, 35.5074499], [133.1074313, 35.5074755], [133.1046042, 35.5081675], [133.1030218, 35.5085596], [133.10287, 35.5085983], [133.102427, 35.5086966], [133.1021224, 35.5087425], [133.1018924, 35.5087583], [133.1016589, 35.5087648], [133.1014614, 35.5087602], [133.1011757, 35.5087336], [133.1008833, 35.5086691], [133.1005746, 35.5085847], [133.1002286, 35.508457], [133.0998379, 35.5082831], [133.0988116, 35.5077209], [133.0975209, 35.5070428], [133.0966312, 35.5066023], [133.0953543, 35.5059513], [133.0949086, 35.5057275], [133.0947741, 35.5056599], [133.093383, 35.5050181], [133.0930984, 35.5048822], [133.0929161, 35.5047888], [133.0927357, 35.5046914], [133.0926263, 35.5046246], [133.0924992, 35.5045396], [133.0923709, 35.5044487], [133.092249, 35.504344], [133.0921804, 35.5042717], [133.0921256, 35.5042013], [133.0920607, 35.5041163], [133.091992, 35.5040053], [133.0917804, 35.5036243], [133.0911804, 35.5024887], [133.091105, 35.5023599], [133.0910828, 35.5023142], [133.0905595, 35.501336], [133.0903617, 35.5009649], [133.0903404, 35.5009243], [133.0899501, 35.5001783], [133.0896783, 35.4996712], [133.0894723, 35.4992917], [133.0893291, 35.4989547], [133.0892121, 35.498613], [133.0891615, 35.4983841], [133.0891373, 35.49823], [133.0891278, 35.4980688], [133.0891307, 35.4979114], [133.0891334, 35.4977247], [133.0891868, 35.4972839], [133.0892621, 35.4968498], [133.0894609, 35.4954095], [133.0894847, 35.4951746], [133.0895059, 35.4949446], [133.0895109, 35.4947268], [133.0895019, 35.494527], [133.0894613, 35.4942807], [133.0894166, 35.4940671], [133.0893307, 35.4938068], [133.089261, 35.4936203], [133.0891755, 35.4934232], [133.0890927, 35.4932731], [133.0889924, 35.4931153], [133.0887991, 35.4928555], [133.0885595, 35.4925724], [133.0883581, 35.4923859], [133.0881012, 35.4921811], [133.0872038, 35.4915078], [133.0868123, 35.4912264], [133.0860331, 35.4906636], [133.0852537, 35.4901294], [133.0853417, 35.4900554], [133.0858828, 35.4896021], [133.0862389, 35.4893141], [133.0865995, 35.4890421], [133.0870009, 35.4887654], [133.0874645, 35.4884826], [133.0879976, 35.4881757], [133.0886811, 35.4878115], [133.0899033, 35.4872146], [133.0909689, 35.4866985], [133.0913507, 35.4864922], [133.0917294, 35.4862738], [133.0920246, 35.4860971], [133.0922985, 35.4859111], [133.0925983, 35.4856935], [133.0929561, 35.4854179], [133.0932927, 35.4851304], [133.0936283, 35.4848208], [133.0939092, 35.4845209], [133.0943012, 35.4840498], [133.0945924, 35.4836714], [133.0949167, 35.483201], [133.0951823, 35.4827588], [133.0953787, 35.4823687], [133.0955174, 35.4820564], [133.0956358, 35.4817369], [133.0957666, 35.4812363], [133.0958416, 35.4808087], [133.0959557, 35.4801328], [133.0960327, 35.4794385], [133.0961007, 35.478656], [133.0961263, 35.477996], [133.0961482, 35.4773081], [133.0961258, 35.4766249], [133.0960932, 35.475907], [133.0960479, 35.4753453], [133.0959923, 35.4748271], [133.0959292, 35.4743865], [133.0958718, 35.4739976], [133.0957168, 35.473184], [133.095405, 35.4718491], [133.0952655, 35.4714097], [133.0951221, 35.4709497], [133.0950216, 35.4706312], [133.0948269, 35.4699899], [133.0946702, 35.4693867], [133.0945384, 35.4688714], [133.0942556, 35.4676392], [133.0940083, 35.4664489], [133.0937377, 35.4652988], [133.0928191, 35.4609856], [133.0924864, 35.4594442], [133.0921076, 35.4577261], [133.0920125, 35.4572509], [133.0919362, 35.4567756], [133.0918991, 35.4564001], [133.0918879, 35.4559141], [133.0918875, 35.455535], [133.0919052, 35.4551961], [133.0919425, 35.4548651], [133.0920025, 35.4545023], [133.0920783, 35.4541386], [133.092181, 35.4537505], [133.0922864, 35.4534181], [133.092406, 35.4530812], [133.0925498, 35.4527344], [133.0927143, 35.4523855], [133.0929043, 35.4520389], [133.0931125, 35.4516906], [133.0933435, 35.4513337], [133.0936701, 35.4508804], [133.0938797, 35.4505751], [133.0940478, 35.4503204], [133.09417, 35.4500441], [133.0942742, 35.4497368], [133.0942919, 35.4495322], [133.0942972, 35.4493956], [133.0942756, 35.4491375], [133.0942261, 35.4489662], [133.0941708, 35.448825], [133.0941381, 35.4487618], [133.0940907, 35.4486702], [133.0939545, 35.4484779], [133.0938493, 35.4483468], [133.0936428, 35.4481637], [133.0932908, 35.4478684], [133.0931002, 35.4477113], [133.093018, 35.4476279], [133.0929625, 35.4475585], [133.0929289, 35.4475064], [133.0929013, 35.4474498], [133.0928847, 35.4473936], [133.0928774, 35.4473381], [133.0928772, 35.4472758], [133.0928812, 35.4472264], [133.0928967, 35.4471648], [133.0929145, 35.4471168], [133.0929358, 35.4470771], [133.092964, 35.4470367], [133.0929957, 35.4469994], [133.0930322, 35.4469635], [133.0930725, 35.4469306], [133.0931166, 35.4469003], [133.0931567, 35.4468785], [133.0932056, 35.4468578], [133.0932558, 35.4468378], [133.0933116, 35.4468213], [133.0933746, 35.4468078], [133.0934566, 35.4468011], [133.0935423, 35.4467995], [133.0936313, 35.4468059], [133.0937037, 35.446816], [133.0938158, 35.4468352], [133.094088, 35.4468899], [133.0943106, 35.4469112], [133.0945144, 35.4468964], [133.0946861, 35.4468467], [133.0948592, 35.4467696], [133.0951517, 35.4465554], [133.095495, 35.4462736], [133.0960981, 35.4458436], [133.0964135, 35.4456106], [133.0967411, 35.4453893], [133.0970681, 35.4451953], [133.097415, 35.445005], [133.097734, 35.4448228], [133.0979879, 35.4447037], [133.09825, 35.4445963], [133.0985386, 35.444494], [133.0988667, 35.4443819], [133.0991887, 35.4442748], [133.0995974, 35.4441513], [133.1000103, 35.4440411], [133.1007091, 35.4438706], [133.1011308, 35.4437669]], [[133.1167194, 35.5119837], [133.1163187, 35.5116946], [133.1139495, 35.5102367], [133.1126846, 35.509413], [133.1112623, 35.5084574], [133.1108531, 35.5081796], [133.1104292, 35.5079168], [133.1099543, 35.507659], [133.1097194, 35.5075615], [133.1094845, 35.5074759], [133.1092499, 35.5074147], [133.109008, 35.5073624], [133.1087043, 35.5073243], [133.1084042, 35.5073041], [133.1081349, 35.5073101], [133.107862, 35.5073251], [133.1074097, 35.5074047], [133.1057071, 35.5078153], [133.1045755, 35.5080929], [133.1029511, 35.5084961], [133.1027897, 35.5085342], [133.1024061, 35.5086125], [133.1021094, 35.5086486], [133.10188, 35.5086639], [133.1016657, 35.5086698], [133.1014735, 35.5086627], [133.1012296, 35.5086443], [133.1009141, 35.5085837], [133.1005986, 35.5085065], [133.1003153, 35.5084133], [133.100032, 35.5082935], [133.0996238, 35.5080681], [133.098868, 35.5076532], [133.0975936, 35.5069773], [133.0966972, 35.5065336], [133.0955343, 35.5059452], [133.0929496, 35.5046977], [133.0927006, 35.5045539], [133.0923488, 35.504285], [133.0921691, 35.5040907], [133.0918704, 35.5035915], [133.0916374, 35.5031388], [133.0912512, 35.5024168], [133.091177, 35.5022809], [133.0907063, 35.5014166], [133.0905079, 35.501043], [133.0900786, 35.500204], [133.0899714, 35.5], [133.0897759, 35.4996281], [133.0895903, 35.4992515], [133.0894371, 35.498921], [133.0893275, 35.498587], [133.0892796, 35.4984327], [133.0892547, 35.498223], [133.0892442, 35.4980665], [133.0892402, 35.4979034], [133.0892537, 35.4976718], [133.0892898, 35.4973256], [133.0895616, 35.4954184], [133.0895833, 35.4951862], [133.0896054, 35.4949462], [133.0896073, 35.494731], [133.0895945, 35.4945298], [133.0895635, 35.4942729], [133.089519, 35.4940404], [133.0894275, 35.4937838], [133.08925, 35.4933596], [133.0891913, 35.4932433], [133.089068, 35.4930425], [133.0888924, 35.4928157], [133.0886251, 35.4925286], [133.0884248, 35.4923313], [133.0881681, 35.4921223], [133.0872595, 35.491442], [133.0853417, 35.4900554]], [[133.0097078, 36.0911342], [133.0093907, 36.0911684], [133.0091466, 36.0912217], [133.0088634, 36.0912846], [133.0085867, 36.0913652], [133.0082949, 36.0914687], [133.0078489, 36.0917117], [133.0069, 36.0922864], [133.0068509, 36.0923167], [133.005766, 36.0930491], [133.0050037, 36.0935569], [133.0045358, 36.0938536], [133.0043135, 36.0939556], [133.0040826, 36.0940335], [133.0037995, 36.0940865], [133.0035399, 36.0941034], [133.0032254, 36.0940894], [133.0023657, 36.0939902], [133.0018828, 36.0939112], [133.0015891, 36.0938412], [133.0007601, 36.0935938], [133.0004471, 36.0940252], [133.0003574, 36.094128], [133.0002852, 36.0941704], [133.0002358, 36.0941907], [133.0001724, 36.0942139], [133.0000737, 36.094225], [132.9999967, 36.0942231], [132.9998173, 36.0942158], [132.9992994, 36.094165], [132.9992267, 36.0941444], [132.9991162, 36.0940913], [132.9990408, 36.0940392], [132.9984803, 36.0934631], [132.9984402, 36.0933786], [132.9984189, 36.0932365], [132.9984313, 36.0931409], [132.9985078, 36.0930215], [132.9986211, 36.0928778], [132.9986624, 36.0928295], [132.9988267, 36.0925934], [132.9990473, 36.0922974], [132.9992879, 36.0919306], [132.9994203, 36.0917347], [132.9994589, 36.0916168], [132.9994775, 36.0915433], [132.9994706, 36.0914952], [132.9993609, 36.0911752], [132.9993165, 36.0910816], [132.9992528, 36.0910137], [132.9991785, 36.0909769], [132.9990899, 36.0909606], [132.9990184, 36.090974], [132.9989409, 36.0909935], [132.9987232, 36.0910985], [132.9984456, 36.0911963], [132.9983613, 36.0912249], [132.9982988, 36.0912309], [132.9982124, 36.0912149], [132.9981507, 36.0911954], [132.9980739, 36.0911453], [132.9977898, 36.0908397], [132.9977168, 36.0908048], [132.9976401, 36.0907896], [132.9975781, 36.0907923], [132.9974794, 36.0907993], [132.9973495, 36.0908304], [132.9972096, 36.0910105], [132.9971509, 36.0911195], [132.997136, 36.0912246], [132.9971211, 36.091372], [132.9970621, 36.0914925], [132.996807, 36.0919577], [132.9967265, 36.0920949], [132.9966548, 36.092262], [132.9966233, 36.0923354], [132.9966153, 36.0924004], [132.9965909, 36.0925991], [132.9965616, 36.0926908], [132.9965156, 36.0927722], [132.9962718, 36.0930341], [132.9961141, 36.0931994], [132.9960279, 36.0932553], [132.9959191, 36.0932696], [132.9956728, 36.0933124], [132.9953558, 36.0933776], [132.9953122, 36.0933855], [132.9948819, 36.0934636], [132.9947896, 36.0934781], [132.9947099, 36.0934724], [132.994555, 36.0934454], [132.9942047, 36.0933875]], [[133.0390662, 36.1060789], [133.0389703, 36.1061126], [133.0386917, 36.1062105], [133.0380518, 36.1065266], [133.0379481, 36.1065652], [133.0378762, 36.106592], [133.0376666, 36.1066334], [133.0374953, 36.1066471], [133.0373517, 36.1066585], [133.0370104, 36.1066947], [133.0367884, 36.1067344], [133.0365953, 36.1067864], [133.0361566, 36.1069044], [133.0360557, 36.1069264], [133.035946, 36.1069503], [133.0357656, 36.1069668], [133.035612, 36.1069605], [133.0353543, 36.1069235], [133.0344788, 36.1066548], [133.034045, 36.1065388], [133.0338321, 36.106512], [133.0335836, 36.106525], [133.0333367, 36.1065788], [133.0328717, 36.106743], [133.0326632, 36.1068022], [133.0324613, 36.1068378], [133.0322702, 36.1068475], [133.0320252, 36.106812], [133.03174, 36.106744], [133.031323, 36.106643], [133.0309353, 36.1065827], [133.0302017, 36.1065067], [133.0297827, 36.1064369], [133.0291581, 36.10628], [133.0284129, 36.106055], [133.0281846, 36.1059797], [133.0280259, 36.1059218], [133.0278324, 36.1058503], [133.0276369, 36.105735], [133.0274517, 36.1055962], [133.0272051, 36.1053815], [133.0269511, 36.1051765], [133.026846, 36.1050903], [133.0267362, 36.1049882], [133.0266112, 36.1049115], [133.026431, 36.1048102], [133.0262303, 36.1047372], [133.026021, 36.1046796], [133.0258995, 36.1046232], [133.0258154, 36.1045764], [133.0257326, 36.1045004], [133.0256337, 36.1043932], [133.0254905, 36.1042434], [133.0253926, 36.1041253], [133.0253269, 36.1039914], [133.0252612, 36.1038393], [133.0252211, 36.1036388], [133.0251596, 36.1034935], [133.0249603, 36.1031944], [133.0245848, 36.1026922], [133.0243256, 36.1023152], [133.0241183, 36.1021024], [133.0239723, 36.1019915], [133.023848, 36.10192], [133.023669, 36.1018395], [133.0234953, 36.1017913], [133.0233153, 36.101758], [133.0231956, 36.1017407], [133.022876, 36.1016822], [133.0223409, 36.1016084], [133.0216962, 36.1015231], [133.0210022, 36.1014093], [133.0208424, 36.1013691], [133.0207152, 36.1013364], [133.0205852, 36.1012934], [133.0204871, 36.1012525], [133.0203127, 36.1011734], [133.0201617, 36.1010905], [133.0197185, 36.1007585], [133.0194077, 36.1005024], [133.0190913, 36.1002541], [133.0189094, 36.1001157], [133.0187986, 36.1000292], [133.0186827, 36.0999498], [133.0185366, 36.0998648], [133.0183531, 36.0997819], [133.0182087, 36.0997159], [133.0179212, 36.0996033], [133.0177844, 36.0995498], [133.0169799, 36.0992298], [133.0168334, 36.0991615], [133.0167331, 36.0990977], [133.016675, 36.0990591], [133.0166098, 36.0990001], [133.0165485, 36.0989157], [133.0164768, 36.0987975], [133.0159353, 36.0976765], [133.0158453, 36.0974872], [133.0157625, 36.097306], [133.015701, 36.0971475], [133.0156624, 36.0970072], [133.015655, 36.096865], [133.0156547, 36.0967428], [133.0156627, 36.09659], [133.0156928, 36.0964063], [133.0159547, 36.0953299], [133.0160439, 36.0950392], [133.0162442, 36.0945571], [133.0164823, 36.0940014], [133.0165357, 36.0938327], [133.0165571, 36.0936591], [133.0165427, 36.0934903], [133.0164917, 36.0933454], [133.016433, 36.0932293], [133.0163305, 36.0931006], [133.0161997, 36.0929831], [133.0160765, 36.0929033], [133.0159027, 36.092825], [133.0157089, 36.0927754], [133.0148773, 36.092623], [133.0147244, 36.0925945], [133.0145927, 36.0925716], [133.0141114, 36.092447], [133.0136854, 36.09229], [133.0127491, 36.0919107], [133.0121494, 36.0916743], [133.0119384, 36.0915877], [133.0116611, 36.0914843], [133.011331, 36.0913674], [133.0109814, 36.0912678], [133.0106444, 36.0911888], [133.0104029, 36.0911563], [133.0101547, 36.0911347], [133.0097078, 36.0911342]], [[133.0968098, 35.4454624], [133.0974404, 35.4451598], [133.0978482, 35.4449838], [133.0981773, 35.4448506], [133.0985037, 35.4447417], [133.0988801, 35.4446217], [133.0993071, 35.4445103], [133.0995786, 35.4444455], [133.0996713, 35.4444234], [133.0999249, 35.4443774], [133.100156, 35.4443431], [133.1005729, 35.4443088], [133.1012297, 35.4442242], [133.101478, 35.4441854], [133.102753, 35.4438947]], [[133.0961914, 35.4458969], [133.0964756, 35.4456824], [133.0968098, 35.4454624], [133.0971416, 35.4452655], [133.0974772, 35.4450836], [133.0978666, 35.4449018], [133.0982737, 35.4447357], [133.0986911, 35.4445936], [133.0990931, 35.4444738], [133.0995054, 35.4443707], [133.0999204, 35.4442833], [133.1010923, 35.4440585]], [[133.0951082, 35.4468341], [133.0949742, 35.4470433], [133.0945828, 35.4473933], [133.094418, 35.4475548], [133.0943202, 35.4476566], [133.0942466, 35.4477513], [133.094193, 35.4478386], [133.0941555, 35.4479179], [133.0941309, 35.4479887], [133.094119, 35.448057], [133.0941141, 35.44813], [133.0941176, 35.4482076], [133.0941317, 35.4482925], [133.0941545, 35.4483877], [133.0941891, 35.4485051], [133.0942667, 35.44872], [133.0943334, 35.4489553], [133.0943952, 35.449238], [133.0944074, 35.4494307], [133.0943776, 35.4496424]], [[133.356349, 36.2937607], [133.3561701, 36.2938059], [133.3561317, 36.2938144], [133.3557064, 36.2939094], [133.3555925, 36.2939366], [133.3554226, 36.2939623], [133.3552918, 36.2939764], [133.3551602, 36.2939757], [133.3549925, 36.29396], [133.3547562, 36.2938992], [133.3546704, 36.2938798], [133.3546519, 36.2938508], [133.3546477, 36.2938184], [133.3546734, 36.2937416], [133.3546689, 36.293702], [133.3546498, 36.293661], [133.354607, 36.2936408], [133.3544472, 36.2935853], [133.3543751, 36.2935602], [133.3542827, 36.2935281], [133.3541018, 36.2934652], [133.353978, 36.293418], [133.3533455, 36.2931782], [133.3533056, 36.2931616], [133.3527954, 36.2929597], [133.3526448, 36.2929001], [133.351659, 36.2925338], [133.351549, 36.2924929], [133.3514888, 36.2924706], [133.3514323, 36.2924496], [133.3508954, 36.2922574], [133.3495708, 36.2917703], [133.3491697, 36.2916092], [133.3489025, 36.2915343], [133.3487437, 36.2915052], [133.3485952, 36.2915015], [133.3485073, 36.2915116], [133.3484182, 36.2915218], [133.348272, 36.2915874], [133.3481318, 36.2916583], [133.3477463, 36.2918944], [133.3476349, 36.2919389], [133.3475362, 36.2919637], [133.3474283, 36.2919875], [133.3473173, 36.2919947], [133.3471867, 36.2919778], [133.3470054, 36.2919263], [133.346501, 36.2917081], [133.3460397, 36.2914875], [133.3456749, 36.2913329], [133.3453231, 36.2912399], [133.3449988, 36.2912101], [133.344752, 36.291205], [133.344548, 36.291191], [133.3438217, 36.2911661], [133.3430493, 36.2911184], [133.3429013, 36.291102], [133.3427626, 36.291065], [133.3426239, 36.2910055], [133.3425546, 36.290949], [133.3424765, 36.290877], [133.342379, 36.290761], [133.34215, 36.290384], [133.3419246, 36.2900396], [133.3415777, 36.2894815], [133.3413335, 36.2891114], [133.3412234, 36.2889676], [133.3411271, 36.2888698], [133.3410649, 36.2888232], [133.3409655, 36.2887795], [133.3408618, 36.288758], [133.3407311, 36.2887522], [133.3406185, 36.2887679], [133.3404751, 36.2888229], [133.3402023, 36.2889819], [133.339932, 36.2891514], [133.3396991, 36.2892992], [133.3394545, 36.2894704], [133.3392757, 36.2896409], [133.338902, 36.29016], [133.338495, 36.290726], [133.338311, 36.290989], [133.3381761, 36.2911476], [133.3380178, 36.2913163], [133.3378013, 36.2914821], [133.3375768, 36.2916121], [133.3373879, 36.2917109], [133.3372182, 36.2918666], [133.3370803, 36.2920413], [133.3366019, 36.2929461], [133.3363716, 36.2933598], [133.3362166, 36.2936673], [133.3359343, 36.294084], [133.3355824, 36.2944932], [133.3350993, 36.2949182], [133.3348657, 36.2950348], [133.334146, 36.2953752], [133.3335345, 36.2956529], [133.3331414, 36.2958378], [133.3329461, 36.2959563], [133.332802, 36.2960512], [133.3326561, 36.2962031], [133.3325752, 36.296327], [133.3325248, 36.2964386], [133.3324813, 36.296579], [133.332465, 36.2966949], [133.3324727, 36.2968323], [133.3325331, 36.2970177], [133.3326208, 36.2972433], [133.3326727, 36.2973938], [133.3326968, 36.2975421], [133.3326925, 36.2976613], [133.3326628, 36.297773], [133.3326206, 36.2978905], [133.3323934, 36.298211], [133.3322351, 36.2984543], [133.3321092, 36.2986473], [133.3320263, 36.2987919], [133.3319932, 36.2988825], [133.3319042, 36.2991156], [133.3318436, 36.2993901], [133.3317958, 36.2997366], [133.331756, 36.300019], [133.33174, 36.3001567], [133.331738, 36.300279], [133.3317114, 36.3004475], [133.331665, 36.301097], [133.331638, 36.30138], [133.331603, 36.301559], [133.33156, 36.301699], [133.3314549, 36.3018862], [133.3313578, 36.302011], [133.3312466, 36.302151], [133.3310577, 36.3023156], [133.3301999, 36.3028651], [133.3294716, 36.3033377], [133.3291035, 36.3036397], [133.328646, 36.304029], [133.328004, 36.304577], [133.327829, 36.304739], [133.327416, 36.305192], [133.327101, 36.305575], [133.326649, 36.306125], [133.326256, 36.30664], [133.326082, 36.306905], [133.32601, 36.307019], [133.32579, 36.307268], [133.32562, 36.30742], [133.325471, 36.307536], [133.325273, 36.307634], [133.325066, 36.307727], [133.32476, 36.307824], [133.324579, 36.307873], [133.324274, 36.307948], [133.323947, 36.308015], [133.323471, 36.308115], [133.322444, 36.308383], [133.321749, 36.308546], [133.3213164, 36.3085931], [133.3208588, 36.3086049], [133.3206952, 36.3086101], [133.3204624, 36.308595], [133.3201185, 36.308567], [133.3197462, 36.3085308], [133.3194377, 36.308493], [133.319202, 36.3084623], [133.3189951, 36.3084198], [133.318773, 36.3083516], [133.3185833, 36.308248], [133.3182987, 36.3080913], [133.3180119, 36.3079275], [133.3177099, 36.3077866], [133.3174797, 36.3077031], [133.3172493, 36.3076575], [133.3170936, 36.3076291], [133.3169411, 36.3076167], [133.3167854, 36.3075989], [133.316674, 36.3076009], [133.3164884, 36.3076107], [133.3163595, 36.3076251], [133.3161766, 36.3076462], [133.3159812, 36.3076869], [133.3157869, 36.307733], [133.3156176, 36.3077892], [133.3154688, 36.307857], [133.3153377, 36.307925], [133.3151659, 36.308034], [133.3150424, 36.3081268], [133.31488, 36.3082721], [133.3147709, 36.3084098], [133.3146958, 36.3085255], [133.314592, 36.3087494], [133.3145531, 36.3088881], [133.314534, 36.309043], [133.3145234, 36.3093121], [133.3145174, 36.3094343], [133.3145058, 36.3096677], [133.31448, 36.310118], [133.314465, 36.31041], [133.3144482, 36.3108336], [133.3144581, 36.3109598], [133.314479, 36.3110986], [133.3145084, 36.3112093], [133.314615, 36.311423], [133.3146964, 36.3115425], [133.3149825, 36.3118471], [133.3151532, 36.3120562], [133.3152483, 36.3122332], [133.3152961, 36.3123614], [133.3153133, 36.3124542], [133.3153222, 36.3125442], [133.3153159, 36.3126406], [133.315294, 36.312804], [133.3152601, 36.3129395], [133.3151756, 36.3132498], [133.3151061, 36.3135256], [133.3150446, 36.3137496], [133.3149414, 36.314053], [133.3148196, 36.3142742], [133.3147111, 36.3144482], [133.3146233, 36.3145677], [133.3145206, 36.3146701], [133.3144403, 36.3147288], [133.3143418, 36.3147826], [133.3141813, 36.3148349], [133.3138201, 36.3149261], [133.3136142, 36.3149931], [133.3134304, 36.3150618], [133.3132783, 36.3151333], [133.3131611, 36.3152045], [133.3130473, 36.315285], [133.3129286, 36.3153806], [133.3128228, 36.3154865], [133.3125597, 36.3158358], [133.3121858, 36.3163283], [133.3116214, 36.3170639], [133.3112083, 36.3176234], [133.3109843, 36.3179536], [133.310961, 36.3179862], [133.3109167, 36.3180201], [133.3108835, 36.3180382], [133.3108141, 36.3180713], [133.3107291, 36.3180993], [133.3106644, 36.3181095], [133.3106315, 36.3181099], [133.310459, 36.318095], [133.3102601, 36.3180522], [133.30989, 36.3179725], [133.3089574, 36.3177695], [133.308902, 36.3177588], [133.3087431, 36.3177281], [133.3082823, 36.3176259], [133.3077091, 36.317499], [133.3071492, 36.3173696], [133.306951, 36.3173289], [133.3062413, 36.3171644], [133.3060862, 36.3171239], [133.3059643, 36.3171064], [133.3059174, 36.3170995], [133.3058874, 36.3170951], [133.3054984, 36.3170191], [133.3054608, 36.3170314], [133.3054156, 36.3170658], [133.3053594, 36.3171256], [133.3053173, 36.3171722], [133.3049687, 36.3175584], [133.3047739, 36.3178078], [133.3046681, 36.3179989], [133.3045697, 36.318226], [133.3044859, 36.3184155], [133.3044195, 36.3185373], [133.304336, 36.3186459], [133.304234, 36.3187398], [133.3038415, 36.3190328], [133.303793, 36.319069], [133.3033248, 36.3193737], [133.3031983, 36.3194642], [133.3030881, 36.3195399], [133.3029896, 36.3196401], [133.3029347, 36.3197075], [133.3027879, 36.3198881], [133.3021963, 36.3206506], [133.3021017, 36.3207627], [133.3018225, 36.3211909], [133.3016946, 36.3214235], [133.3016218, 36.321654], [133.3016169, 36.3217785], [133.3016383, 36.3219375], [133.3016725, 36.3221796], [133.301689, 36.3224123], [133.3016573, 36.3225721], [133.3016, 36.3226927], [133.3015388, 36.3227957], [133.3014896, 36.3229052], [133.3012822, 36.3232425], [133.3011855, 36.3233833], [133.3008858, 36.3237872], [133.3007744, 36.3239268], [133.3006451, 36.3240542], [133.3005199, 36.3241416], [133.300376, 36.324207], [133.3002567, 36.3242635], [133.3001533, 36.3243071], [133.300018, 36.3243545], [133.2995073, 36.3245308], [133.2992175, 36.3246486], [133.2989218, 36.3248278], [133.2981347, 36.325289], [133.2977892, 36.3254753], [133.2974628, 36.3256484], [133.2967837, 36.3260185], [133.2967036, 36.3260642], [133.2966025, 36.326122], [133.2964331, 36.3262467], [133.2963281, 36.3263384], [133.2962355, 36.3264276], [133.2958589, 36.3268523], [133.2956877, 36.3270116], [133.2955979, 36.3270667], [133.2955103, 36.3271031], [133.2954215, 36.3271186], [133.2952888, 36.3271289], [133.295148, 36.327114], [133.2946754, 36.3270254], [133.2945414, 36.3270098], [133.294389, 36.3269921], [133.2942367, 36.3269904], [133.2941136, 36.3270034], [133.2939603, 36.3270229], [133.2938349, 36.3270687], [133.2934339, 36.3272292], [133.292919, 36.3274223], [133.2927852, 36.3274613], [133.29269, 36.3274787], [133.2925951, 36.3274822], [133.2925143, 36.3274641], [133.2924312, 36.3274316], [133.2923223, 36.3273829], [133.2917708, 36.3270968], [133.2912516, 36.326831], [133.2911283, 36.3267711], [133.2910494, 36.3267483], [133.2909615, 36.3267377], [133.2908029, 36.3267451], [133.2903953, 36.3267839], [133.2900383, 36.3268229], [133.2895267, 36.3268742], [133.2893829, 36.3268754], [133.2891812, 36.3268415], [133.2890027, 36.3268037], [133.2887839, 36.3267574], [133.2884906, 36.326727], [133.2882767, 36.3267167], [133.2881041, 36.3267363], [133.2878685, 36.3267864], [133.2876449, 36.3268414], [133.2873613, 36.3269137], [133.2871204, 36.326986], [133.2869806, 36.3270522], [133.2868705, 36.3271493], [133.2868077, 36.3272393], [133.2867521, 36.3274133], [133.2867011, 36.3277914], [133.2866309, 36.3283432], [133.2865716, 36.3286084], [133.286504, 36.3288023], [133.2864291, 36.3289399], [133.2859532, 36.3297646], [133.2857357, 36.3301749], [133.2856273, 36.3303338], [133.2855339, 36.3304088], [133.2854367, 36.3304554], [133.2853377, 36.3304902], [133.2852192, 36.3305025], [133.2851187, 36.3304975], [133.2849528, 36.3304743], [133.2842445, 36.3303469], [133.2840451, 36.3303279], [133.2838436, 36.3303161], [133.2836341, 36.3303352], [133.2829901, 36.330366], [133.282834, 36.3303691], [133.2826994, 36.3303725], [133.2826009, 36.3303633], [133.2824953, 36.3303487], [133.2823588, 36.3303049], [133.2822188, 36.3302275], [133.2821358, 36.3301683], [133.2818766, 36.3299028], [133.2816817, 36.3296752], [133.2814869, 36.3294385], [133.2810339, 36.3289536], [133.280543, 36.328279], [133.280184, 36.327878], [133.280081, 36.327783], [133.279964, 36.327734], [133.279752, 36.327686], [133.279338, 36.327615], [133.279062, 36.32756], [133.27868, 36.327465], [133.278362, 36.327386], [133.278084, 36.327321], [133.277959, 36.327273], [133.277591, 36.3271093], [133.277422, 36.327037], [133.2769891, 36.3268304], [133.2766213, 36.3266674], [133.2763735, 36.3265662], [133.2759573, 36.3263791], [133.2758516, 36.3263373], [133.2757196, 36.3263155], [133.2755932, 36.3263098], [133.2754868, 36.3263292], [133.2752471, 36.3264097], [133.2747609, 36.3266322], [133.2746916, 36.3266634], [133.2746431, 36.3266853], [133.2745235, 36.3267296], [133.2744017, 36.3267679], [133.2743181, 36.3267829], [133.2742208, 36.3267843], [133.2741725, 36.3267787], [133.2741211, 36.3267679], [133.2740122, 36.3267261], [133.2739192, 36.3266613], [133.273539, 36.3262921], [133.2733051, 36.3260651], [133.2730005, 36.3257619], [133.2729906, 36.3257513], [133.2727691, 36.3255472], [133.2726931, 36.3254799], [133.2725881, 36.3254124], [133.2725104, 36.3253724], [133.2723926, 36.3253351], [133.2722267, 36.3253316], [133.2718541, 36.3253259], [133.2714339, 36.3253527], [133.2713114, 36.3253445], [133.2712259, 36.3253378], [133.2711277, 36.3253065], [133.2710629, 36.325262], [133.2710234, 36.3252226], [133.2709896, 36.3251661], [133.2709438, 36.3250496], [133.2707286, 36.324552], [133.2706567, 36.3244256], [133.2702957, 36.3236779], [133.2699398, 36.3229592], [133.269768, 36.3226118], [133.2697185, 36.3225465], [133.2696406, 36.3224758], [133.2695562, 36.3224407], [133.2689997, 36.3222123], [133.2689357, 36.3221603], [133.2688747, 36.3220813], [133.2687802, 36.3217151], [133.2687356, 36.32155], [133.2686873, 36.321467], [133.2686009, 36.3213701], [133.268283, 36.321172], [133.2680252, 36.3210258], [133.267929, 36.3209485], [133.267889, 36.3208895], [133.2678782, 36.3207967], [133.2678932, 36.3207055], [133.2679338, 36.3204245], [133.2679509, 36.3202801], [133.2679421, 36.320204], [133.2678992, 36.3201269], [133.2678412, 36.3200641], [133.2677105, 36.3199216], [133.2674268, 36.3196191], [133.2673498, 36.3195182], [133.2673135, 36.3194024], [133.2673158, 36.3192782], [133.267352, 36.3191687], [133.2673932, 36.3190576], [133.2674948, 36.3188451], [133.2676162, 36.3185885], [133.2676613, 36.3183818], [133.2676856, 36.3181863], [133.2677155, 36.3180323], [133.2677535, 36.3177744], [133.2677955, 36.317605], [133.2678455, 36.317505], [133.2679135, 36.317403], [133.26815, 36.317227], [133.2682203, 36.3171483], [133.2682756, 36.3170719], [133.2682916, 36.3169901], [133.2682898, 36.3169326], [133.2682554, 36.3168451], [133.2681924, 36.3167257], [133.268012, 36.3164475], [133.2677901, 36.3161439], [133.2677553, 36.3160699], [133.2677366, 36.3159884], [133.2677271, 36.3158987], [133.2677366, 36.3157961], [133.2677678, 36.3157019], [133.2678198, 36.3156092], [133.267962, 36.315362], [133.2680572, 36.3152119], [133.2681518, 36.3150429], [133.2681809, 36.3149615], [133.2681895, 36.3148688], [133.2681803, 36.3147995], [133.2681617, 36.3147108], [133.2681474, 36.3146414], [133.2680913, 36.3145676], [133.2680216, 36.3144911], [133.26791, 36.314415], [133.267823, 36.314371], [133.267628, 36.314309], [133.267413, 36.314264], [133.267198, 36.314232], [133.26703, 36.314196], [133.266933, 36.3141798], [133.2668262, 36.3141545], [133.2666995, 36.3141021], [133.2666011, 36.3140264], [133.2665147, 36.313928], [133.2664444, 36.3137954], [133.2662791, 36.3133705], [133.266042, 36.3126689], [133.2659447, 36.31244], [133.2658381, 36.3122795], [133.2657447, 36.3121791], [133.2656384, 36.3120975], [133.265528, 36.3120231], [133.2653956, 36.3119655], [133.265246, 36.3119163], [133.2648953, 36.3118476], [133.261995, 36.3114451], [133.2618115, 36.3114171], [133.2615915, 36.3113838], [133.2614744, 36.3113525], [133.261352, 36.3113039], [133.2612174, 36.3112321], [133.2610866, 36.3111492], [133.2600732, 36.3104112], [133.2598753, 36.3102383], [133.2597734, 36.3101199], [133.259728, 36.3100224], [133.2596847, 36.3099184], [133.2596608, 36.3097971], [133.2596502, 36.309586], [133.2596572, 36.3092124], [133.2596341, 36.3089361], [133.2595893, 36.3087993], [133.2595282, 36.3086876], [133.2594792, 36.3086108], [133.2594302, 36.3085488], [133.2593572, 36.3084737], [133.2592781, 36.3084082], [133.259106, 36.3083036], [133.2590161, 36.3082687], [133.2589159, 36.3082299], [133.2587096, 36.3081872], [133.2585662, 36.3081773], [133.2584288, 36.3081823], [133.2582688, 36.3082064], [133.2581128, 36.3082504], [133.2578531, 36.3083405], [133.2573908, 36.3085135], [133.2570419, 36.3086362], [133.2568403, 36.3086821], [133.2566715, 36.3087066], [133.256521, 36.3087168], [133.2563376, 36.3087163], [133.2561849, 36.3086967], [133.2560475, 36.3086784], [133.2558607, 36.3086335], [133.2555342, 36.3085328], [133.2549846, 36.3083417], [133.2544193, 36.3081437], [133.2541308, 36.3080203], [133.2540423, 36.3079626], [133.2539385, 36.3078763], [133.2538483, 36.3077792], [133.2537754, 36.3076639], [133.2537211, 36.3075627], [133.253529, 36.3069667], [133.2533705, 36.3066033], [133.2532262, 36.3063439], [133.2529905, 36.3059388], [133.2529465, 36.3058409], [133.2529159, 36.3057307], [133.252901, 36.3056468], [133.2528891, 36.3055479], [133.2529046, 36.305412], [133.2529432, 36.3052717], [133.2530394, 36.3050217], [133.2535933, 36.3037483], [133.2537036, 36.3034331], [133.2537527, 36.3031893], [133.2537668, 36.3030229], [133.2537649, 36.3028959], [133.2537516, 36.3025422], [133.2537394, 36.3022702], [133.2537268, 36.3018709], [133.2533906, 36.2936636], [133.253413, 36.2934775], [133.2534419, 36.2933359], [133.2534784, 36.293183], [133.253524, 36.2930248], [133.2535726, 36.2928906], [133.2536453, 36.2927122], [133.2537092, 36.2925783], [133.2538353, 36.2923566], [133.2539669, 36.2921669], [133.2541062, 36.291974], [133.2543113, 36.2917035], [133.2543869, 36.2915788], [133.2544389, 36.2914704], [133.2544826, 36.2913464], [133.2545121, 36.2912551], [133.2547393, 36.2905511], [133.2549965, 36.2897273], [133.2551584, 36.2892622], [133.2552847, 36.2888574], [133.2553767, 36.2886255], [133.2554849, 36.2884476], [133.255667, 36.2881462], [133.2557265, 36.2880554], [133.2558028, 36.2879376], [133.2558244, 36.2878963], [133.2558831, 36.2877844], [133.2559745, 36.2875362], [133.2560079, 36.2873227], [133.2559874, 36.2870725], [133.2559497, 36.2869088], [133.2558849, 36.2867488], [133.2558031, 36.2866032], [133.2557034, 36.2864687], [133.2556038, 36.28636], [133.2555028, 36.2862629], [133.255375, 36.2861682], [133.2552568, 36.2861], [133.2551113, 36.2860094], [133.2548993, 36.2859282], [133.2546469, 36.2858597], [133.2543755, 36.2858261], [133.2541998, 36.2858088], [133.2540677, 36.2858015], [133.2539225, 36.2857914], [133.2533559, 36.2857514], [133.2532061, 36.2857368], [133.2530786, 36.2857245], [133.2528887, 36.2856933], [133.2526276, 36.2856406], [133.2519736, 36.2854719], [133.2515935, 36.2853382], [133.251297, 36.2852], [133.2509738, 36.285029], [133.2501832, 36.2845681], [133.2499053, 36.2844061], [133.2496069, 36.2842284], [133.2493181, 36.2839837], [133.2492218, 36.2838813], [133.2491665, 36.2838047], [133.2491364, 36.2837631], [133.2491036, 36.2837177], [133.2489888, 36.283484], [133.2488826, 36.2831735], [133.2488293, 36.2830193], [133.2487912, 36.2829092], [133.2487433, 36.2827719], [133.2485622, 36.2823098], [133.2485466, 36.2822775], [133.2484447, 36.282041], [133.2484276, 36.282003], [133.2483818, 36.281904], [133.2483392, 36.2817962], [133.2482405, 36.2815462], [133.2480336, 36.2809982], [133.2480082, 36.2809171], [133.247862, 36.280451], [133.2477315, 36.280006], [133.247701, 36.2797802], [133.2477052, 36.2795363], [133.247746, 36.279354], [133.2477935, 36.2792083], [133.2478448, 36.2790869], [133.2479604, 36.278888], [133.2481589, 36.2786053], [133.2483342, 36.2783952], [133.2484133, 36.2782886], [133.248431, 36.2782647], [133.2488258, 36.2777325], [133.2489424, 36.2775754], [133.2491921, 36.2771638], [133.2495131, 36.2766772], [133.2496887, 36.2764202], [133.2498456, 36.276135], [133.2499309, 36.2759409], [133.2502127, 36.2753572], [133.2503171, 36.2751427], [133.2504695, 36.2748774], [133.2505769, 36.2747099], [133.2506961, 36.2745344], [133.250791, 36.2743857], [133.2508878, 36.2742628], [133.2509977, 36.2741497], [133.2512072, 36.2739646], [133.2512953, 36.2738941], [133.2513743, 36.2738308], [133.2515885, 36.2736771], [133.2518184, 36.2735041], [133.2519321, 36.2733945], [133.2520122, 36.2733034], [133.2520754, 36.2732007], [133.2521396, 36.2730583], [133.2521751, 36.2729268], [133.2521783, 36.2729022], [133.2521903, 36.2728106], [133.2521854, 36.2727196], [133.252178, 36.2726496], [133.2521351, 36.2725214], [133.2520732, 36.2723768], [133.2520444, 36.2722972], [133.2520049, 36.2721829], [133.2518189, 36.2717416], [133.2517243, 36.2715103], [133.2516321, 36.2712732], [133.2515333, 36.2710236], [133.2514529, 36.2707981], [133.251406, 36.2705288], [133.2514021, 36.2697376], [133.2513586, 36.269472], [133.2512979, 36.2692803], [133.2512227, 36.2690923], [133.2510879, 36.2688648], [133.2509807, 36.268667], [133.2508656, 36.2684154], [133.2508244, 36.268286], [133.2508014, 36.2681806], [133.2507805, 36.2680424], [133.2507156, 36.2671696], [133.2506954, 36.2668482], [133.2507, 36.266567], [133.250714, 36.266392], [133.2507296, 36.2661784], [133.2507558, 36.2659581], [133.2507472, 36.2657225], [133.2507123, 36.265491], [133.2506598, 36.2652735], [133.2506306, 36.2650834], [133.2506277, 36.2649593], [133.2506497, 36.2648338], [133.2506885, 36.2647068], [133.2507537, 36.264595], [133.2508841, 36.2643937], [133.2510268, 36.2641651], [133.2510709, 36.2640655], [133.2510909, 36.2639521], [133.2510998, 36.2638595], [133.2510932, 36.2635516], [133.2510776, 36.2632657], [133.2510565, 36.2630084], [133.251053, 36.2628363], [133.2510565, 36.2627146], [133.2510661, 36.2625906], [133.2511732, 36.2621848], [133.2512285, 36.2619878], [133.2513374, 36.2616464], [133.2513862, 36.2614483], [133.2514911, 36.2612053], [133.2516123, 36.2609959], [133.2517894, 36.2607723], [133.252761, 36.259764], [133.254162, 36.258469], [133.254258, 36.25838], [133.255715, 36.257023], [133.2568937, 36.2559718], [133.2572068, 36.2556831], [133.257632, 36.255285], [133.257793, 36.255157], [133.257965, 36.255037], [133.258278, 36.254852], [133.2586934, 36.2546523], [133.2594671, 36.2542308], [133.2600038, 36.2539652], [133.2605592, 36.2537198], [133.2611628, 36.253534], [133.2624555, 36.2531339], [133.263552, 36.252829], [133.263982, 36.252707], [133.264355, 36.252654], [133.2648234, 36.252563], [133.2653507, 36.2525032], [133.2665511, 36.2523654], [133.2671112, 36.2522798], [133.267874, 36.2521719], [133.2683042, 36.252097], [133.2686956, 36.2520358], [133.268909, 36.2520024], [133.2690788, 36.2519765], [133.2693351, 36.2519291], [133.2695525, 36.2518666], [133.2697879, 36.2517738], [133.2700421, 36.2516508], [133.2700989, 36.2516233], [133.2703006, 36.2515168], [133.2706563, 36.2512999], [133.2709187, 36.2510561], [133.2713091, 36.2506533], [133.2715689, 36.2503867], [133.2717791, 36.2501223], [133.2718975, 36.2498624], [133.2720185, 36.2495757], [133.2722151, 36.2492441], [133.2723624, 36.2490756], [133.2726056, 36.2488308], [133.272762, 36.248652], [133.2731925, 36.2482191], [133.2734535, 36.2479521], [133.2736761, 36.2477264], [133.2740666, 36.2473204], [133.2745136, 36.2468638], [133.274704, 36.246669], [133.2748853, 36.2464807], [133.2751438, 36.2462134], [133.2753494, 36.2460049], [133.2755212, 36.2458778], [133.2756174, 36.2457928], [133.2758614, 36.245647], [133.2761279, 36.2455227], [133.2764326, 36.2454141], [133.2766819, 36.2453538], [133.2768748, 36.2453107], [133.2770869, 36.2452607], [133.2772776, 36.2452256], [133.2775296, 36.2452028], [133.2777266, 36.245207], [133.2779447, 36.2452355], [133.2780633, 36.2452585], [133.2781911, 36.2452908], [133.2783584, 36.245344], [133.2785257, 36.2454162], [133.2788634, 36.2455659], [133.2794087, 36.2457955], [133.2797953, 36.2459629], [133.2799884, 36.2460236], [133.2801268, 36.2460462], [133.2802904, 36.2460626], [133.2803543, 36.2460646], [133.2804028, 36.246066], [133.280473, 36.246061], [133.2806014, 36.2460348], [133.2809846, 36.2459193], [133.2812531, 36.245824], [133.2817381, 36.2456417], [133.2822288, 36.2454855], [133.2826052, 36.2453458], [133.2829231, 36.2452493], [133.2831993, 36.2451752], [133.2835445, 36.2450954], [133.2840921, 36.2449841], [133.2844793, 36.2449342], [133.2851402, 36.2448884], [133.2854211, 36.2448689], [133.2856042, 36.2448562], [133.2856802, 36.2448509], [133.2859615, 36.2448297], [133.2861182, 36.2447996], [133.2862589, 36.244757], [133.2863892, 36.2446973], [133.2865128, 36.2446309], [133.2866274, 36.2445469], [133.286732, 36.244421], [133.2868415, 36.2441845], [133.2873685, 36.242802], [133.287394, 36.2427379], [133.2874682, 36.2425506], [133.2876936, 36.2421517], [133.2878805, 36.2418799], [133.2880486, 36.2416563], [133.2880805, 36.2416192], [133.2882245, 36.2414017], [133.2882439, 36.2413742], [133.2884945, 36.2410115], [133.2887627, 36.240692], [133.2891222, 36.2403576], [133.2895668, 36.239911], [133.2898228, 36.239612], [133.2899295, 36.2394924], [133.2900078, 36.2394046], [133.2902113, 36.2391437], [133.2903229, 36.2389641], [133.2903978, 36.238798], [133.2904372, 36.2386314], [133.2904512, 36.2385135], [133.2904556, 36.238332], [133.2904395, 36.2381723], [133.2904038, 36.2380455], [133.2903592, 36.2379267], [133.290198, 36.2375723], [133.2901164, 36.23739], [133.2900447, 36.2372296], [133.2899863, 36.2370493], [133.2899804, 36.2369301], [133.2899784, 36.2368422], [133.2899893, 36.2367092], [133.2900457, 36.2365416], [133.2901423, 36.2362488], [133.2902213, 36.2360311], [133.2902691, 36.2358961], [133.2903845, 36.235672], [133.2904954, 36.2355203], [133.2906575, 36.2353394], [133.2909212, 36.2351441], [133.2912243, 36.2349604], [133.291481, 36.2348248], [133.291842, 36.234644], [133.2921953, 36.2344394], [133.2926163, 36.234168], [133.2929645, 36.2339499], [133.2934097, 36.233622], [133.2937708, 36.2333009], [133.2942097, 36.2328828], [133.2943303, 36.2327684], [133.2943899, 36.2327119], [133.2945089, 36.2325896], [133.2946516, 36.2324327], [133.2947412, 36.2323173], [133.2948844, 36.2320648], [133.2949799, 36.2319312], [133.2951964, 36.2317245], [133.295459, 36.2314959], [133.2955137, 36.231458], [133.2956979, 36.2312793], [133.2957889, 36.2311635], [133.2959238, 36.2309849], [133.2960501, 36.2307765], [133.2961346, 36.230599], [133.29617, 36.2304046], [133.2961722, 36.2303614], [133.2961769, 36.2302685], [133.2962027, 36.2299972], [133.2962566, 36.2297296], [133.2964028, 36.2291791], [133.296419, 36.2291182], [133.296578, 36.2286048], [133.296694, 36.2283102], [133.2967986, 36.228082], [133.2968978, 36.2278923], [133.2970499, 36.2276487], [133.2972296, 36.2274361], [133.2975654, 36.2270717], [133.2976755, 36.2269542], [133.2979462, 36.2266655], [133.2982944, 36.2262853], [133.2983998, 36.2261703], [133.2985162, 36.2260461], [133.2985906, 36.2259667], [133.2989012, 36.2256922], [133.2993803, 36.2252712], [133.2996919, 36.2250115], [133.3002693, 36.2245555], [133.3008879, 36.2241137], [133.3012381, 36.2238711], [133.3020864, 36.2232403], [133.3033044, 36.2223671], [133.3036225, 36.2221364], [133.3038665, 36.2219543], [133.304097, 36.2217717], [133.3041367, 36.2217336], [133.3042404, 36.2216343], [133.3043013, 36.2215713], [133.3043673, 36.2215032], [133.3044439, 36.2214028], [133.3044822, 36.2213525], [133.3045035, 36.2213246], [133.3047478, 36.2210516], [133.3049356, 36.2208427], [133.3052177, 36.2205596], [133.3053395, 36.2204259], [133.3054251, 36.2203029], [133.3055189, 36.2201615], [133.3055826, 36.2200556], [133.3056972, 36.2197828], [133.3057217, 36.2195117], [133.3057221, 36.2193131], [133.3057221, 36.2192825], [133.3054457, 36.2180591], [133.3053907, 36.2177573], [133.3053894, 36.2176177], [133.3053981, 36.2175166], [133.3054149, 36.2174521], [133.3054752, 36.217279], [133.3055235, 36.2171849], [133.3057971, 36.2168798], [133.3061055, 36.2166288], [133.3068781, 36.2160509], [133.3069779, 36.2159762], [133.3077762, 36.2152937], [133.3083176, 36.214919], [133.3092568, 36.2141973], [133.3093667, 36.2141304], [133.3097691, 36.2138855], [133.3102529, 36.2136304], [133.3104916, 36.2135084], [133.3105999, 36.2134531], [133.3107266, 36.2133884], [133.3114173, 36.2130356], [133.3118544, 36.2127945], [133.3120965, 36.2126516], [133.3122105, 36.2125705], [133.3123819, 36.2124377], [133.3124982, 36.2123441], [133.3128267, 36.2120481], [133.3130475, 36.211848], [133.3131998, 36.2117176], [133.3133093, 36.211606], [133.3134053, 36.2114795], [133.3135142, 36.2112959], [133.3136115, 36.211106], [133.3136691, 36.2109614], [133.3137012, 36.2108541], [133.3137237, 36.210779], [133.3139037, 36.2100567], [133.3139845, 36.2097247], [133.3140243, 36.2095027], [133.3140325, 36.2093097], [133.3139977, 36.2090025], [133.3139088, 36.2084805], [133.3138914, 36.2083972], [133.3138778, 36.2083323], [133.3138693, 36.208292], [133.3138521, 36.2082099], [133.3137469, 36.2078688], [133.3136319, 36.2075334], [133.3136065, 36.2074259], [133.3135953, 36.2073458], [133.3135884, 36.2072654], [133.3135899, 36.207197], [133.3136001, 36.2071277], [133.3136161, 36.2070656], [133.3136435, 36.2070056], [133.3136732, 36.2069596], [133.3137052, 36.2069212], [133.31376, 36.2068601], [133.3138281, 36.2067973], [133.3139234, 36.2067277], [133.313989, 36.2066798], [133.3140267, 36.2066523], [133.3142591, 36.2064968], [133.3143296, 36.2064375], [133.3144155, 36.2063708], [133.3149666, 36.2058301], [133.315182, 36.2056016], [133.31522, 36.2055612], [133.3152965, 36.2055675], [133.3157804, 36.2055483], [133.3160298, 36.2055096], [133.3164064, 36.2054464], [133.3171976, 36.2053203], [133.3173941, 36.2052621], [133.3175388, 36.2051916], [133.3176208, 36.2051348], [133.3181362, 36.2047774], [133.3185169, 36.2045093], [133.318763, 36.2043363], [133.3189634, 36.2042379], [133.3191142, 36.2041871], [133.3193842, 36.2041101], [133.3197033, 36.2040325], [133.3200721, 36.2039436], [133.3211722, 36.2036746], [133.3218226, 36.2035318], [133.3219806, 36.2035043], [133.3221453, 36.2034832], [133.322304, 36.2034725], [133.3224131, 36.2034826], [133.3224776, 36.2034885], [133.3225668, 36.2035168], [133.3226694, 36.2035637], [133.3228781, 36.2036633], [133.3231405, 36.2037877], [133.3233482, 36.2038861], [133.323653, 36.2040323], [133.3239786, 36.2041864], [133.324121, 36.2042451], [133.3242556, 36.2042896], [133.3244034, 36.2043287], [133.3245277, 36.2043475], [133.3246551, 36.2043618], [133.3248335, 36.2043721], [133.3249904, 36.204365], [133.3255236, 36.2043055], [133.3261012, 36.204277], [133.3261474, 36.2042747], [133.3263266, 36.20429], [133.3267187, 36.2043397], [133.3268475, 36.2043469], [133.3269461, 36.2043498], [133.3269777, 36.2043169], [133.3270416, 36.2042344], [133.3270547, 36.2042175], [133.32713, 36.2041077], [133.3272321, 36.2039561], [133.3272827, 36.2038706], [133.3273081, 36.2038073], [133.3274235, 36.2034468], [133.3274738, 36.2033101], [133.3275135, 36.2032339], [133.32753, 36.203209], [133.327612, 36.203107], [133.3276859, 36.2030255], [133.3278457, 36.2028725], [133.3280576, 36.2026733], [133.3283131, 36.202439], [133.3284781, 36.2023125], [133.3285739, 36.2022601], [133.3287441, 36.2021665], [133.3288901, 36.2020926], [133.3290265, 36.2020392], [133.3292288, 36.2019799], [133.3293463, 36.2019501], [133.3295219, 36.2019187], [133.3297496, 36.2018821], [133.3297976, 36.2019961], [133.3299136, 36.2022717], [133.3299884, 36.2024144], [133.3300541, 36.2025122], [133.3301413, 36.2026027], [133.3302044, 36.2026633], [133.3303465, 36.202782], [133.3304787, 36.2028897], [133.3305497, 36.2029363], [133.3307713, 36.2030564], [133.3309608, 36.2031607], [133.3312902, 36.2032788], [133.3314064, 36.2033151], [133.331461, 36.2033272], [133.33208, 36.2034609], [133.3323189, 36.2035177], [133.3324161, 36.2035399], [133.3324933, 36.2035542], [133.3325474, 36.2035642], [133.3326895, 36.2035918], [133.3330144, 36.2036378], [133.3331353, 36.2036438], [133.3333137, 36.2036639], [133.3337379, 36.2037181], [133.3341182, 36.2037677], [133.3341957, 36.2037708], [133.3343008, 36.2037488], [133.3346239, 36.2036502], [133.3346695, 36.2036339], [133.3349502, 36.2035486]], [[133.1505718, 35.5300813], [133.1507755, 35.5300302], [133.151297, 35.5299149], [133.1515472, 35.5298938], [133.1517718, 35.5299158], [133.1519821, 35.5299767], [133.1521484, 35.5300578], [133.1526423, 35.5303437], [133.152735, 35.530414], [133.152968, 35.5306108], [133.1530806, 35.5306817], [133.1534142, 35.5308751], [133.1535659, 35.5309823], [133.1537117, 35.5311099], [133.153875, 35.5312842], [133.1539571, 35.5313967], [133.1540457, 35.5315212], [133.1541075, 35.531642], [133.1541592, 35.5317717], [133.1542082, 35.531904], [133.1542447, 35.5320343], [133.1542617, 35.5321741], [133.1542713, 35.5323028], [133.1542695, 35.532441], [133.1542604, 35.5325465], [133.1542341, 35.5326829], [133.153754, 35.5344511], [133.1537342, 35.53459], [133.1537278, 35.5347234], [133.1537361, 35.5348407], [133.1537536, 35.5349698], [133.1537772, 35.5350985], [133.1538234, 35.535227], [133.1538707, 35.5353371], [133.1539328, 35.5354537], [133.1539985, 35.5355657], [133.1540745, 35.5356675], [133.1541649, 35.5357768], [133.1542513, 35.5358706], [133.1543518, 35.535957], [133.1544515, 35.5360399], [133.1545635, 35.5361195], [133.1548131, 35.5362826], [133.1562029, 35.5370976], [133.156332, 35.5371612], [133.1564645, 35.5372224], [133.1565902, 35.5372729], [133.1567461, 35.5373237], [133.1569361, 35.5373676], [133.1571558, 35.5374037], [133.1573917, 35.5374181], [133.1575581, 35.5374202], [133.157724, 35.5374134], [133.1579074, 35.5373906], [133.1580505, 35.5373663], [133.1582827, 35.5373047], [133.1598211, 35.53673], [133.1599988, 35.5366475], [133.1601542, 35.5365591], [133.1602901, 35.5364733], [133.160408, 35.5363782], [133.160523, 35.5362762], [133.1606265, 35.5361706], [133.1607171, 35.5360629], [133.1607968, 35.5359437], [133.1608787, 35.5357851], [133.1609395, 35.5356396], [133.1609711, 35.5355403], [133.161005, 35.5354272], [133.1610149, 35.5352889], [133.1610184, 35.5351629], [133.1610184, 35.5342565], [133.1610046, 35.5335911], [133.1610093, 35.5334204], [133.1610251, 35.533302], [133.1610706, 35.5331313], [133.1611163, 35.5330053], [133.1611772, 35.5328629], [133.1612512, 35.5327426], [133.1613566, 35.5325873], [133.161475, 35.5324489], [133.1623598, 35.5316227], [133.1627779, 35.5312908], [133.1629584, 35.5314247], [133.1631751, 35.5315893], [133.1633135, 35.5316943], [133.1634031, 35.5317838], [133.1634544, 35.5318791], [133.1634575, 35.5319846], [133.1634624, 35.532109], [133.1634336, 35.5322773], [133.1633901, 35.5324988], [133.1633168, 35.5327028], [133.1632622, 35.5330575], [133.1632273, 35.5332493], [133.1632087, 35.5333513], [133.1631904, 35.533494], [133.1632007, 35.5335967], [133.1632418, 35.5336984], [133.1632997, 35.533788], [133.1633647, 35.5338591], [133.1634695, 35.5339276], [133.1635735, 35.533982], [133.1659319, 35.5349753], [133.1661087, 35.5350552], [133.1665032, 35.5351913], [133.1670061, 35.5352845]]]}, "id": "relation/9473486"}]}