{"type": "FeatureCollection", "generator": "kokudo-quiz tools/fetch_raw.py (Overpass API)", "copyright": "The data included in this document is from www.openstreetmap.org. The data is made available under ODbL.", "timestamp": "2026-09-30T23:41:17Z", "features": [{"type": "Feature", "properties": {"@id": "relation/5525014", "colour": "red", "from": "広島県呉市", "name": "国道487号", "name:en": "National Highway Route 487", "name:ja": "国道487号", "name:ja-Hira": "こくどうよんひゃくはちじゅうななごう", "name:ja-Latn": "Kokudo 487 Gou", "network": "JP:national", "ref": "487", "route": "road", "to": "広島県広島市南区", "type": "route", "wikidata": "Q10981322", "wikipedia": "ja:国道487号"}, "geometry": {"type": "MultiLineString", "coordinates": [[[132.4673498, 34.3808813], [132.4672844, 34.3807197], [132.4672304, 34.3805794], [132.4668582, 34.3797599], [132.4668094, 34.379641], [132.4667804, 34.3795729], [132.466758, 34.3795202], [132.4666879, 34.3793092], [132.4665061, 34.3787475], [132.4664849, 34.378679], [132.4664655, 34.3786226], [132.4663453, 34.3782476], [132.466165, 34.3777176], [132.4661418, 34.3776622], [132.4661287, 34.3776293], [132.4660766, 34.3774988], [132.4660052, 34.3773312], [132.4659522, 34.3772382], [132.4659106, 34.3771452], [132.46576, 34.376792], [132.4657431, 34.3767525], [132.4657031, 34.3766587], [132.4656872, 34.3766215], [132.4655029, 34.3761902], [132.4653623, 34.3758574], [132.465335, 34.3757951], [132.4650354, 34.3750914], [132.4648116, 34.3745344], [132.4647126, 34.3742816], [132.4646907, 34.3742216], [132.4646474, 34.3741125], [132.4646195, 34.3739928], [132.4646079, 34.3737734], [132.4645933, 34.3734969], [132.4645769, 34.3731865], [132.4645741, 34.3731328], [132.4645731, 34.3729955], [132.4645727, 34.3729395], [132.4645689, 34.3724348], [132.4645754, 34.3722711], [132.4646255, 34.3717352], [132.4646314, 34.3716676], [132.4646374, 34.3715664], [132.4647139, 34.3707228], [132.4647442, 34.3703885], [132.4647896, 34.3700086], [132.4648578, 34.3693939], [132.4648516, 34.3690795], [132.4648365, 34.368928], [132.4648247, 34.3688588], [132.4648067, 34.3687124], [132.4647606, 34.3682719], [132.4647509, 34.368185], [132.4647431, 34.3681013], [132.4646623, 34.3671578], [132.4645841, 34.3662452], [132.4645782, 34.3661761], [132.4645725, 34.3661095], [132.4644845, 34.3651933], [132.464448, 34.3646573], [132.4644095, 34.3642229], [132.4644054, 34.3641757], [132.4644008, 34.3641291], [132.4643347, 34.363453], [132.4642914, 34.3630183], [132.4642306, 34.3624085], [132.4642145, 34.362247], [132.4642059, 34.3621608], [132.4641999, 34.3620844], [132.4641297, 34.3611883], [132.464093, 34.3607205], [132.4640821, 34.3605775], [132.4640473, 34.3602147], [132.4640427, 34.3601667], [132.4640365, 34.3601029], [132.4639529, 34.3592309], [132.4639478, 34.3591777], [132.4639431, 34.3591287], [132.4638547, 34.358207], [132.4638499, 34.3581571], [132.4638419, 34.3580876], [132.4638169, 34.35788], [132.4637851, 34.3575215], [132.463773, 34.3574543], [132.463741, 34.3573433], [132.4636805, 34.3571821], [132.4634828, 34.3566804], [132.4633394, 34.3563112], [132.4631422, 34.3557979], [132.4630906, 34.3556238], [132.4630711, 34.3555063], [132.4630609, 34.355081], [132.4630583, 34.3550101], [132.4630456, 34.354696], [132.4630357, 34.3544521], [132.4630341, 34.3544121], [132.4630372, 34.354233], [132.4630412, 34.3540783]], [[132.4629167, 34.354072], [132.4629177, 34.3542275], [132.4629147, 34.3544115], [132.4629163, 34.3544613], [132.4629232, 34.354684], [132.4629334, 34.3550125], [132.4629384, 34.3550834], [132.462964, 34.3555098], [132.4629784, 34.3556186], [132.4630438, 34.3558254], [132.463204, 34.356237], [132.4633845, 34.3567057], [132.4634106, 34.3567741], [132.463583, 34.3572084], [132.4636422, 34.3573575], [132.4636768, 34.3574656], [132.4636899, 34.3575322], [132.4637357, 34.3580946], [132.4637442, 34.3581667], [132.4637485, 34.3582152], [132.4638336, 34.3591342], [132.4638389, 34.3591826], [132.4638431, 34.3592379], [132.4639111, 34.3601127], [132.4639194, 34.3601757], [132.4639288, 34.3602245], [132.4639653, 34.3605836], [132.4639771, 34.3607253], [132.4640195, 34.361159], [132.4640816, 34.3618488], [132.4641106, 34.3620893], [132.4641153, 34.3621704], [132.4641227, 34.362254], [132.4641962, 34.3631576], [132.4642761, 34.3641361], [132.4642802, 34.3641859], [132.4642847, 34.3642295], [132.4643816, 34.365167], [132.4644569, 34.3661164], [132.4644667, 34.3661838], [132.4644729, 34.3662518], [132.4645599, 34.3671667], [132.4646481, 34.3681074], [132.4646582, 34.3682005], [132.4646637, 34.368278], [132.4647052, 34.3688798], [132.4647084, 34.3689296], [132.4647364, 34.369196], [132.4647456, 34.3693921], [132.4646492, 34.3703757], [132.4646188, 34.3706754], [132.4645289, 34.3715612], [132.4645235, 34.371633], [132.4645168, 34.3717317], [132.4644768, 34.3720997], [132.4644628, 34.3724142], [132.4644592, 34.3724963], [132.4644706, 34.3728323], [132.4644735, 34.3729959], [132.4644764, 34.3731622], [132.4644807, 34.3737733], [132.4644821, 34.3739769], [132.4644953, 34.3741403], [132.4645481, 34.3742941], [132.4645639, 34.3743296], [132.4647374, 34.3747133], [132.4648222, 34.3749007], [132.4650301, 34.3753844], [132.4652208, 34.3758292], [132.4652467, 34.3758909], [132.4653161, 34.3760496], [132.4655719, 34.376657], [132.4655899, 34.3766988], [132.4656191, 34.3767662], [132.4656451, 34.3768264], [132.4659458, 34.3775351], [132.4659824, 34.3776423], [132.4660016, 34.3776984], [132.4660241, 34.377756], [132.4660964, 34.3779408], [132.4661332, 34.3780069], [132.4661721, 34.3781088], [132.4663458, 34.3786499], [132.466364, 34.3787063], [132.4663861, 34.3787743], [132.4665746, 34.3793466], [132.4666398, 34.3795501], [132.4666557, 34.3796034], [132.466687, 34.3796777], [132.4667456, 34.3798132], [132.4670883, 34.3806161], [132.4671348, 34.3807636], [132.4672066, 34.3809326]], [[132.4845277, 34.2799478], [132.4870612, 34.2787324], [132.4873588, 34.2785938], [132.4877277, 34.2783988], [132.4887675, 34.2777916], [132.4893893, 34.2774005], [132.4894886, 34.2773205], [132.489553, 34.2772341], [132.4896737, 34.2768983], [132.489726, 34.2767997], [132.4897877, 34.2767354], [132.4898641, 34.27669], [132.4899835, 34.2766556], [132.4902463, 34.2766257], [132.4903576, 34.276598], [132.4904381, 34.2765603], [132.4905038, 34.2765071], [132.4905574, 34.2764384], [132.4906004, 34.2763431], [132.4906446, 34.2760694], [132.4906835, 34.2759043], [132.490819, 34.2753191], [132.490827, 34.2752283], [132.4908243, 34.2751684], [132.4908015, 34.2750897], [132.4907452, 34.2749789], [132.4907234, 34.2749303], [132.4906996, 34.274877], [132.4906647, 34.2747772], [132.4906486, 34.2746453], [132.4906621, 34.2745356], [132.4907023, 34.2744159], [132.4907546, 34.2743229], [132.4908632, 34.2742231], [132.490941, 34.2741788], [132.4910537, 34.2741599], [132.4911596, 34.2741666], [132.4912629, 34.2741998], [132.4913728, 34.2742652], [132.4915485, 34.2743905], [132.4916639, 34.2744547], [132.4917443, 34.2744858], [132.4918221, 34.2744979], [132.4918945, 34.2744913], [132.491983, 34.2744625], [132.4923492, 34.2742564], [132.4931069, 34.2738286], [132.493182, 34.2737565], [132.4932276, 34.2736601], [132.493245, 34.2735881], [132.4932598, 34.2731936], [132.4932879, 34.2730672], [132.4933416, 34.2729664], [132.4940103, 34.2721553], [132.4942073, 34.2719496], [132.4942421, 34.2719108], [132.4943186, 34.2718421], [132.4944366, 34.271749], [132.4945774, 34.2716603], [132.4946632, 34.2716171], [132.4958483, 34.2708863], [132.4959619, 34.2707979], [132.4960487, 34.2706875], [132.496348, 34.2701651], [132.4964278, 34.2700215], [132.4965043, 34.2699035], [132.4966622, 34.2696915], [132.4967104, 34.2696106], [132.4967359, 34.2695496], [132.4967681, 34.2693878], [132.4967869, 34.2692847], [132.4968204, 34.2692271], [132.4968914, 34.2691696], [132.4969894, 34.2691406], [132.4971275, 34.2691096], [132.4972147, 34.2690542], [132.497271, 34.2689855], [132.4972938, 34.2689068], [132.4972924, 34.2687595], [132.4973059, 34.2686763], [132.4973434, 34.2686064], [132.4976049, 34.2683572], [132.4976719, 34.2682741], [132.4977028, 34.2681987], [132.4977068, 34.2681112], [132.4976786, 34.2677133], [132.4976988, 34.2676213], [132.4977296, 34.2675448], [132.4980854, 34.2669776], [132.4981109, 34.2669144], [132.4981176, 34.266844], [132.4981116, 34.2667753], [132.498074, 34.2666191], [132.4980727, 34.2665437], [132.4980861, 34.2664683], [132.498121, 34.2663869], [132.4983087, 34.2660128], [132.4983221, 34.2659613], [132.4983235, 34.2659009], [132.4983147, 34.2658521], [132.4982779, 34.2657967], [132.4980479, 34.2655817], [132.4980003, 34.2655201], [132.497956, 34.265432], [132.4979312, 34.26535], [132.4978541, 34.2649155], [132.4978319, 34.2648385], [132.4977803, 34.2647354], [132.4977186, 34.2646351], [132.4976576, 34.2645609], [132.4974216, 34.2643497], [132.4973686, 34.2642871], [132.4970112, 34.2636021], [132.4969817, 34.2635334], [132.4969502, 34.2634303], [132.4969388, 34.2633439], [132.4969374, 34.2632452], [132.4969428, 34.2631837], [132.4969984, 34.2629914], [132.4970005, 34.2629288], [132.4969837, 34.2628678], [132.4968489, 34.2626617], [132.4967872, 34.2625957], [132.4967041, 34.2625315], [132.4960315, 34.2620759], [132.495935, 34.2619872], [132.4958572, 34.2618963], [132.4957968, 34.261801], [132.4957392, 34.2616713], [132.4957029, 34.2615461], [132.4955302, 34.2602829], [132.4955275, 34.2601643], [132.4955369, 34.2600446], [132.4955744, 34.2599437], [132.4956335, 34.2598439], [132.495842, 34.2595801], [132.4960103, 34.2593673], [132.496076, 34.2592687], [132.4961914, 34.2590437], [132.4962368, 34.2588901], [132.4962631, 34.2586945], [132.4962786, 34.2578112], [132.4962724, 34.2576893], [132.4962408, 34.2575907], [132.4959579, 34.2572475], [132.4958816, 34.2571021], [132.4958458, 34.2569929], [132.4955983, 34.2558768], [132.4955983, 34.2557507], [132.4956292, 34.2556387], [132.4957137, 34.2554711], [132.4957727, 34.2553358], [132.4957968, 34.2551629], [132.4957941, 34.2549013], [132.4957619, 34.2546552], [132.4957056, 34.2543781], [132.4956332, 34.2541719], [132.4954591, 34.253836], [132.4952547, 34.2535545], [132.4950724, 34.2533279], [132.4948178, 34.2530701], [132.4943571, 34.2526614], [132.4942918, 34.2526035], [132.4940046, 34.2523488], [132.4936187, 34.2519811], [132.4931992, 34.2515532], [132.4928892, 34.2512008], [132.4925754, 34.2507708], [132.4922408, 34.2502376], [132.491877, 34.2496268], [132.4916482, 34.2492702], [132.4915302, 34.2491017], [132.4914189, 34.2489727], [132.4913409, 34.2488934], [132.4911467, 34.2487392], [132.4909794, 34.2486515], [132.4908753, 34.2485956], [132.4908469, 34.2485828], [132.4907663, 34.2485465], [132.4906531, 34.2485046], [132.4905363, 34.24847], [132.4904166, 34.2484429], [132.4902948, 34.2484235], [132.4902294, 34.2484174], [132.4901715, 34.248412], [132.4901028, 34.2484065], [132.4900474, 34.2484084], [132.4899235, 34.2484127], [132.4898003, 34.2484249], [132.489679, 34.2484464], [132.4893491, 34.2485085], [132.4883808, 34.2486859], [132.4875895, 34.2488278], [132.4866695, 34.2489963], [132.4863611, 34.2490472], [132.4859936, 34.2490872], [132.4856396, 34.2491027], [132.485248, 34.2490872], [132.4845479, 34.2490162], [132.4843682, 34.2489541], [132.4842873, 34.2488736], [132.4842203, 34.2487782], [132.4840191, 34.2483016], [132.4839521, 34.2481907], [132.4838582, 34.2480688], [132.4837187, 34.2479468], [132.4835524, 34.2478493], [132.4833888, 34.2478005], [132.4832386, 34.2477805], [132.4831662, 34.2477827], [132.4830321, 34.2478049], [132.4829087, 34.2478448], [132.4826995, 34.2479291], [132.4825063, 34.2480178], [132.4820638, 34.2482373], [132.4819458, 34.2482905], [132.4818224, 34.2483237], [132.4817051, 34.2483345], [132.4815998, 34.2483348], [132.4814925, 34.2483259], [132.4813959, 34.248306], [132.4812725, 34.248255], [132.4808966, 34.2480345], [132.4807806, 34.2479841], [132.4806391, 34.2479403], [132.4805345, 34.2479198], [132.4803716, 34.2478943], [132.4802807, 34.2478778], [132.4802317, 34.2478689], [132.4801952, 34.2479608], [132.4801362, 34.2480827], [132.4800859, 34.2481742], [132.4800243, 34.2482562], [132.4799726, 34.2483083], [132.4799183, 34.2483504], [132.4798546, 34.2483804], [132.4797882, 34.2483931], [132.4797218, 34.2483909], [132.4796554, 34.2483709], [132.4793945, 34.2482382], [132.4788776, 34.2479752], [132.4787965, 34.2479513], [132.4787167, 34.2479408], [132.4786389, 34.247943], [132.4785611, 34.2479608], [132.4784498, 34.2480107], [132.4783204, 34.2480982], [132.4782547, 34.2481731], [132.4782077, 34.2482534], [132.4781541, 34.2484718], [132.478134, 34.2485239], [132.4780984, 34.2485755], [132.4780354, 34.2486298], [132.4779636, 34.2486664], [132.4778926, 34.2486919], [132.4777437, 34.248739], [132.4770544, 34.2489596], [132.4765787, 34.2491257], [132.4762863, 34.2492177], [132.476175, 34.2492488], [132.4755393, 34.2494007], [132.4754401, 34.2494428], [132.4753248, 34.2495215], [132.4752684, 34.2495902], [132.4750297, 34.2499926], [132.4749586, 34.2500813], [132.4748983, 34.2501345], [132.4748379, 34.2501711], [132.4747669, 34.250191], [132.4746783, 34.2501944], [132.4745898, 34.2501822], [132.4745322, 34.2501667], [132.4744691, 34.2501434], [132.4741365, 34.2499727], [132.4740023, 34.2499303], [132.4738655, 34.2499092], [132.4737287, 34.249917], [132.4734806, 34.249968], [132.4732875, 34.249999], [132.4727497, 34.2500312], [132.4692937, 34.2502163], [132.4685145, 34.250428], [132.4684072, 34.2504336], [132.467219, 34.2502152], [132.4670929, 34.2501675], [132.4669937, 34.2500977], [132.4669239, 34.2500123], [132.4668448, 34.2498837], [132.4667563, 34.2497673], [132.4664667, 34.2495018], [132.4662783, 34.2493292], [132.466155, 34.2492649], [132.4660074, 34.2492194], [132.4658751, 34.2491924], [132.465534, 34.249123], [132.4654442, 34.2491119], [132.465365, 34.2491163], [132.4652814, 34.249126], [132.4651701, 34.2491493], [132.4650521, 34.2491981], [132.4645304, 34.2494708], [132.4641526, 34.2496657], [132.4635007, 34.2500019], [132.4631813, 34.2501991], [132.462903, 34.2503867], [132.4626305, 34.2506035], [132.4622193, 34.2509307], [132.4621188, 34.2510205], [132.4620879, 34.2510494], [132.4617446, 34.2514019], [132.4611002, 34.2521069], [132.4593732, 34.2539121], [132.4593122, 34.2539719], [132.4589304, 34.2543763], [132.4587187, 34.2546548], [132.4585868, 34.2548322], [132.4581877, 34.2553686], [132.4580804, 34.2555615], [132.4579885, 34.2558054], [132.4578731, 34.2562811], [132.4576085, 34.2573568], [132.4573858, 34.2577451], [132.457231, 34.2579528], [132.4566063, 34.2587957], [132.4564329, 34.2591018], [132.4562304, 34.2594698], [132.4561285, 34.2596471], [132.4556493, 34.2603923], [132.4553189, 34.2606838], [132.4552578, 34.2607377], [132.4552184, 34.2607145], [132.4551568, 34.2606838], [132.4550706, 34.2606788], [132.455039, 34.2606817], [132.4549888, 34.2606863], [132.454861, 34.2607186], [132.4534286, 34.260956], [132.4530162, 34.2610083], [132.4529045, 34.26101], [132.4526387, 34.2609933], [132.4520932, 34.2609195], [132.4518699, 34.2608624], [132.4517529, 34.2608228], [132.4515711, 34.2607332], [132.4514627, 34.2606611], [132.4513223, 34.260539], [132.4512085, 34.260394], [132.4511043, 34.260198], [132.4510022, 34.2599203], [132.4506811, 34.2589448], [132.4503881, 34.2580924], [132.4503573, 34.2579738], [132.450232, 34.2573367], [132.4502079, 34.2571826], [132.4502004, 34.2570521], [132.45022, 34.2569465], [132.4503002, 34.2566702], [132.4504914, 34.2560112], [132.4505222, 34.255675], [132.4505621, 34.2552536], [132.4504587, 34.2544585], [132.4503783, 34.2538565], [132.4503316, 34.2531636], [132.4502795, 34.2529843], [132.450207, 34.2527968], [132.4498882, 34.2513288], [132.4497713, 34.2507336], [132.4496833, 34.250285], [132.4496309, 34.2500145], [132.449571, 34.2497215], [132.4495485, 34.2495213], [132.4495907, 34.2493627], [132.4496424, 34.2492224], [132.4498122, 34.2488935], [132.4499049, 34.2487588], [132.4500214, 34.248614], [132.4506988, 34.2479191], [132.4507349, 34.2478246], [132.4507665, 34.2474977], [132.4507582, 34.2474144], [132.4507349, 34.2473535], [132.4505725, 34.2471702], [132.4504808, 34.2471087], [132.4499658, 34.2469471], [132.449877, 34.2469334], [132.449656, 34.2469725], [132.4495183, 34.246997], [132.4494606, 34.2470269], [132.4487887, 34.2475845], [132.448715, 34.24763], [132.4486315, 34.2476585], [132.4485383, 34.2476672], [132.4483992, 34.2476572], [132.4482751, 34.2476293], [132.448033, 34.2475613], [132.4473007, 34.2473558], [132.4467796, 34.247152], [132.4463074, 34.2469524], [132.4462007, 34.2468735], [132.4458916, 34.2465659], [132.445624, 34.2463751], [132.4453563, 34.2461668], [132.4449127, 34.2457896], [132.444751, 34.2457138], [132.4446353, 34.2456908], [132.4443962, 34.2456988], [132.443821, 34.2457343], [132.4434774, 34.2457486], [132.4429616, 34.2457144], [132.4422322, 34.2456317], [132.4419834, 34.2455727], [132.4418285, 34.2454751]], [[132.4289353, 34.2451451], [132.4290018, 34.2450107], [132.4290533, 34.2449168], [132.4292014, 34.2447372], [132.4294479, 34.2444669], [132.4295776, 34.2443031], [132.4297021, 34.2440992], [132.43, 34.2435071], [132.4301397, 34.2432279], [132.4302188, 34.2430489], [132.430379, 34.2425421], [132.4304491, 34.2423958], [132.4305495, 34.2422644], [132.4307085, 34.2421136], [132.4309981, 34.2418881], [132.4311485, 34.2417567], [132.4318856, 34.2410457], [132.4321972, 34.2407484], [132.4323231, 34.2406066], [132.4325386, 34.2402615], [132.4329892, 34.2394316], [132.4333293, 34.2388016], [132.4335008, 34.2385075], [132.4338534, 34.238085], [132.4341883, 34.237678], [132.4343044, 34.2374401], [132.4343761, 34.237196], [132.4344358, 34.2368657], [132.4345013, 34.2364375], [132.4345433, 34.2360597], [132.4345907, 34.2358826], [132.4346276, 34.2356967], [132.4347073, 34.2355145], [132.4347878, 34.235387], [132.4349005, 34.2352664], [132.4350118, 34.2351735], [132.4351866, 34.2350689], [132.4356797, 34.2348493], [132.4358161, 34.2347747], [132.4358643, 34.2347469], [132.435966, 34.2346673], [132.435985, 34.2346524], [132.4361006, 34.2345619], [132.4362619, 34.2343958], [132.4363724, 34.2342137], [132.4364281, 34.2341084], [132.4364842, 34.2339346], [132.4365051, 34.2338058], [132.4365051, 34.2335542], [132.436297, 34.2319008], [132.4362877, 34.2317792], [132.4362783, 34.2316307], [132.4362049, 34.2311141], [132.4362042, 34.2309221], [132.4362183, 34.2307045], [132.4362805, 34.2304305], [132.4363703, 34.2301749], [132.436916, 34.2290491], [132.4372873, 34.2282775], [132.4375239, 34.2277698], [132.4376552, 34.2274897], [132.4376873, 34.2274054], [132.4379499, 34.2267164], [132.4381274, 34.2261859], [132.4381998, 34.2260425], [132.4382916, 34.225873], [132.4387197, 34.2253015], [132.4388842, 34.2250773], [132.4389837, 34.22497], [132.4391265, 34.2248543], [132.4393227, 34.2247398], [132.4395535, 34.2246456], [132.4399487, 34.2245287], [132.4403853, 34.2244078], [132.4405236, 34.2243695], [132.4408835, 34.2242609], [132.4411498, 34.2241517], [132.4419971, 34.2236367], [132.4428661, 34.2231327], [132.4432013, 34.2229353], [132.4435499, 34.2227356], [132.4436896, 34.2226808], [132.4438549, 34.2226471], [132.444071, 34.22264], [132.444207, 34.2226356], [132.4441573, 34.2224922], [132.4440231, 34.2222519], [132.4435976, 34.22164], [132.4425862, 34.2195719], [132.4425174, 34.2194342], [132.4421046, 34.2185961], [132.4420465, 34.2183886], [132.4420298, 34.2182118], [132.4420441, 34.2179993], [132.4421054, 34.217624], [132.4421104, 34.2175936], [132.4422521, 34.2168624], [132.442245, 34.2165716], [132.4422164, 34.2163218], [132.4421756, 34.2159237], [132.4421756, 34.2158182], [132.4422032, 34.2157002], [132.4424235, 34.214979], [132.4424143, 34.2148668], [132.4423868, 34.2147639], [132.4421443, 34.2137515], [132.44194, 34.2128482], [132.4419358, 34.212653], [132.4419358, 34.211957], [132.4419063, 34.2117407], [132.441892, 34.211669], [132.441735, 34.2112001], [132.441459, 34.2104718], [132.4413269, 34.2101317], [132.4412332, 34.2097888], [132.4412014, 34.2095496], [132.4412, 34.2093808], [132.4413035, 34.2083311], [132.4413229, 34.2080603], [132.4413065, 34.2078512], [132.4412576, 34.2076917], [132.4409751, 34.2070726], [132.44092, 34.2069013], [132.4408751, 34.2067377], [132.440843, 34.2064385], [132.4407855, 34.2057328], [132.4407467, 34.2055059], [132.4406957, 34.2053414], [132.4406243, 34.2051845], [132.4405529, 34.2050487], [132.4403693, 34.2047872], [132.4397931, 34.2040784], [132.4395446, 34.2037829], [132.4394319, 34.2036214], [132.4392595, 34.2033405], [132.4391911, 34.203203], [132.4391361, 34.2030022], [132.4391192, 34.2028086], [132.4391343, 34.2026693], [132.4392993, 34.2016315], [132.4393126, 34.201548], [132.4393341, 34.2013989], [132.4393944, 34.2009812], [132.4394525, 34.2007693], [132.4395196, 34.2005951], [132.4396191, 34.2004138], [132.4397569, 34.2002193], [132.4399574, 34.2000177], [132.44045, 34.1995512], [132.4412232, 34.198833], [132.4415325, 34.1985456], [132.4416381, 34.19843], [132.4417052, 34.1983202], [132.4417588, 34.1981826], [132.4418178, 34.1979608], [132.4418393, 34.1978721], [132.4420217, 34.1970202], [132.4421182, 34.1967584], [132.4422577, 34.1964977], [132.4426178, 34.1961022], [132.4427337, 34.195975], [132.4427604, 34.1959446], [132.4428938, 34.1957924], [132.4429135, 34.19577], [132.443179, 34.1953519], [132.4432474, 34.1952088], [132.4433212, 34.1950246], [132.4433505, 34.1949358], [132.4433923, 34.1948094], [132.4434406, 34.1946075], [132.4434471, 34.1945712], [132.4435452, 34.1940285], [132.4435818, 34.1935245], [132.4435939, 34.1933886], [132.4436582, 34.1931558], [132.443725, 34.1929687], [132.443754, 34.1928875], [132.4439488, 34.1923407], [132.4440651, 34.191929], [132.4442527, 34.1912811], [132.4443272, 34.1909647], [132.4443476, 34.1907605], [132.4443996, 34.1900949], [132.4444272, 34.1899565], [132.4444692, 34.1898497], [132.4445577, 34.1897277], [132.4446462, 34.1896623], [132.4455139, 34.1891986], [132.445766, 34.1890432], [132.4463345, 34.1885964], [132.4464151, 34.1884876], [132.44646, 34.18841], [132.4464865, 34.1883492], [132.4465018, 34.188059], [132.4465201, 34.1879586], [132.4465895, 34.1877966], [132.4467853, 34.1875477], [132.4468404, 34.1873899], [132.4469485, 34.1871081], [132.4470526, 34.1867909], [132.4470951, 34.1864479], [132.4471441, 34.1860132], [132.4473083, 34.1853914], [132.4474154, 34.1850218], [132.4474858, 34.1847282], [132.4476031, 34.1845552], [132.4477999, 34.1844109], [132.4481217, 34.1842522], [132.4484426, 34.1841143], [132.4486619, 34.1840475], [132.4488292, 34.1840308], [132.4489302, 34.184041], [132.4490752, 34.1840714], [132.4497293, 34.1842534], [132.4510564, 34.1846506], [132.4512408, 34.1847155], [132.4521003, 34.1851094], [132.4522817, 34.1851466], [132.4523349, 34.1851575], [132.452445, 34.1851558], [132.4525859, 34.1851304], [132.4526878, 34.1850958], [132.4528284, 34.1850129], [132.4529907, 34.1848757], [132.4533355, 34.1845302], [132.4535489, 34.1842832], [132.45366, 34.1841389], [132.4538086, 34.1838686], [132.4542996, 34.1826641], [132.4543486, 34.1825526], [132.4544395, 34.1824279], [132.4547438, 34.1820866], [132.4548801, 34.1818915], [132.454914, 34.1817847], [132.4549249, 34.1817006], [132.454909, 34.1814834], [132.4548412, 34.1811326], [132.4548361, 34.1810323], [132.4548751, 34.1808861], [132.4549826, 34.1807328], [132.4550922, 34.1806439], [132.4552703, 34.1805502], [132.4555653, 34.1804381], [132.4558069, 34.1803301], [132.4560608, 34.1801129], [132.4561376, 34.1800106], [132.4562114, 34.1798786], [132.4565037, 34.1793261], [132.4570054, 34.1783879], [132.4572522, 34.1779289], [132.4573308, 34.177712], [132.4573471, 34.1775483], [132.4573451, 34.1773644], [132.4572122, 34.1765583], [132.4572102, 34.1764106], [132.4572336, 34.1762427], [132.4572612, 34.1761322], [132.4573691, 34.1759747], [132.4574213, 34.1759145], [132.4576299, 34.1757382], [132.4578078, 34.1756106], [132.459548, 34.1744453], [132.4597476, 34.1743427], [132.4598121, 34.1743095], [132.4599534, 34.1742884], [132.4601941, 34.1742465], [132.4602395, 34.1742386], [132.4606262, 34.1740944], [132.4610469, 34.1739364], [132.4612837, 34.1738594], [132.4617893, 34.1736952], [132.4620101, 34.1736234], [132.4630197, 34.1732789], [132.4643191, 34.1728388], [132.465206, 34.1725396], [132.4655844, 34.1723751], [132.46582, 34.1722443], [132.4662637, 34.1719886], [132.4668787, 34.1716392], [132.4670347, 34.1715178], [132.4671607, 34.1713829], [132.4672521, 34.1712077], [132.4672928, 34.1710464], [132.4673573, 34.1706487], [132.4674078, 34.1702502], [132.4674537, 34.1701163], [132.4675615, 34.1700138], [132.467754, 34.1699123], [132.4681751, 34.1697425], [132.468467, 34.1696821], [132.4691193, 34.1695907], [132.4693344, 34.1695507], [132.4694302, 34.1695345], [132.4698256, 34.1694603], [132.4699795, 34.1694527], [132.4700961, 34.169465], [132.4701946, 34.1694964], [132.4703577, 34.1695694], [132.4708977, 34.1698337], [132.4710591, 34.16996], [132.4712272, 34.1701098], [132.4717813, 34.1706711], [132.4719358, 34.1707691], [132.4720951, 34.1708077], [132.4722435, 34.17083], [132.472388, 34.1708339], [132.4724968, 34.17083], [132.4729651, 34.1708513], [132.4733238, 34.1709177], [132.4743554, 34.171118], [132.4745769, 34.1711348], [132.4747412, 34.1711246], [132.47493, 34.1710536], [132.4755717, 34.1707313], [132.4758913, 34.1705707], [132.4760514, 34.1705031], [132.4765866, 34.1702441], [132.4772283, 34.1700469], [132.4773419, 34.1699316], [132.4773501, 34.1698181], [132.4773074, 34.1696901], [132.4772134, 34.1696152], [132.4770327, 34.1694908], [132.4768871, 34.1693494], [132.4768485, 34.1692177], [132.4768526, 34.1691078], [132.4769213, 34.1690226], [132.4770572, 34.168888], [132.4771662, 34.1688589], [132.4777541, 34.1688253], [132.4781724, 34.1687565], [132.4783746, 34.1687205], [132.4784759, 34.1687152], [132.4786769, 34.1687536], [132.479238, 34.1689283], [132.4802017, 34.16929], [132.480303, 34.169328], [132.4804124, 34.1691489], [132.4804899, 34.1690219], [132.4805778, 34.1689263], [132.4806578, 34.168864], [132.4807621, 34.1688132], [132.4808481, 34.1687787], [132.4811643, 34.1687221], [132.4815973, 34.1686354], [132.4824882, 34.168322], [132.4830495, 34.1681], [132.4831633, 34.1680601], [132.4832754, 34.1680126], [132.4833162, 34.1679953], [132.4837439, 34.1678053], [132.4838525, 34.1677403], [132.4839108, 34.1676569], [132.4839714, 34.1675476], [132.4839891, 34.167421], [132.4838705, 34.1666573], [132.4838583, 34.1665912], [132.483809, 34.1663241], [132.4837496, 34.1660311], [132.4837273, 34.1658123], [132.4837605, 34.1656137], [132.4837887, 34.1654579], [132.4838805, 34.1649505], [132.4839762, 34.1642768], [132.4840209, 34.1641211], [132.4841071, 34.1639599], [132.4842237, 34.163847], [132.4845701, 34.1634983], [132.4847274, 34.163281], [132.4849164, 34.1629831], [132.4850433, 34.1627425], [132.4852074, 34.1624419], [132.4853868, 34.1621603], [132.4857611, 34.1616212], [132.4859752, 34.1613414], [132.4861021, 34.1611528], [132.486246, 34.1609668], [132.4864017, 34.1608282], [132.4866388, 34.1607422], [132.4869747, 34.160668], [132.4873526, 34.1605865], [132.4876839, 34.1605198], [132.4877756, 34.1604903], [132.4878397, 34.1604697], [132.4879321, 34.1604076], [132.488004, 34.1603362], [132.4880759, 34.1602202], [132.4881137, 34.1598826], [132.4881254, 34.1597053], [132.4881483, 34.1593545], [132.4881746, 34.159173], [132.4882004, 34.1590465], [132.4883258, 34.1586798], [132.4884735, 34.158289], [132.4885618, 34.1579458], [132.4886679, 34.1574318], [132.4887287, 34.1571645], [132.4888046, 34.1567508], [132.4888315, 34.156536], [132.4888432, 34.1562887], [132.4887745, 34.1555358], [132.4888174, 34.1550599], [132.4890899, 34.1541696], [132.4890957, 34.154012], [132.4890495, 34.1537827], [132.4889167, 34.153625], [132.4886974, 34.1534865], [132.4884953, 34.1534435], [132.4882702, 34.1534722], [132.488097, 34.1535534], [132.4879612, 34.1536797], [132.4878917, 34.1538352], [132.4878715, 34.153974], [132.4879323, 34.1541818], [132.4880913, 34.1543273], [132.4882673, 34.1544231], [132.4884248, 34.154471], [132.4948523, 34.1556571], [132.4954593, 34.1557685], [132.4955743, 34.155797], [132.4956667, 34.1558311], [132.4957864, 34.1558849], [132.4958926, 34.1559545], [132.4959831, 34.1560417], [132.4960452, 34.1561293], [132.4960882, 34.1562065], [132.4961135, 34.1562917], [132.4961241, 34.156376], [132.4961238, 34.1564964], [132.4961009, 34.1566029], [132.496038, 34.1566999], [132.4959752, 34.1567763], [132.4958931, 34.1568416], [132.4958166, 34.1568892], [132.4957142, 34.1569291], [132.4956085, 34.1569522], [132.4954996, 34.1569536], [132.4953964, 34.1569418], [132.4952689, 34.1569113], [132.495147, 34.1568547], [132.4950319, 34.1567776], [132.4949665, 34.1567221], [132.4945496, 34.156339], [132.4939293, 34.1557186], [132.4938346, 34.1556386], [132.4937241, 34.1555846], [132.4935751, 34.1555661], [132.4933961, 34.1555836], [132.4933788, 34.1555215], [132.4932745, 34.1550536], [132.4931361, 34.1540737], [132.4931415, 34.1539355], [132.4932121, 34.1537914], [132.49357, 34.1534061], [132.493687, 34.1532792], [132.4941364, 34.1529395], [132.4944466, 34.1526804], [132.4947667, 34.1523771], [132.494906, 34.1522451], [132.495112, 34.1520186], [132.4951883, 34.1518683], [132.495247, 34.1516739], [132.4952985, 34.1514277], [132.4956672, 34.1499898], [132.4956846, 34.1498772], [132.4956534, 34.1496859], [132.4956183, 34.1495261], [132.495594, 34.1494074], [132.4955924, 34.1492886], [132.4956039, 34.1491671], [132.4956614, 34.1488817], [132.4956848, 34.1487657], [132.4957245, 34.1485685], [132.4958052, 34.148159], [132.4958356, 34.1480465], [132.4959088, 34.1479183], [132.4960745, 34.1477649], [132.4963883, 34.1475243], [132.4966055, 34.147382], [132.4967349, 34.1473035], [132.4968943, 34.1472444], [132.4970523, 34.1472187], [132.497225, 34.1472154], [132.4974612, 34.147253], [132.4975825, 34.1472802], [132.4977011, 34.1473073], [132.4983466, 34.147444], [132.4986731, 34.1475266], [132.4989061, 34.1476089], [132.4991056, 34.147696], [132.4992275, 34.1477461], [132.499826, 34.1480652], [132.5003981, 34.1483629], [132.5009, 34.1485671], [132.501322, 34.148705], [132.5017656, 34.1487989], [132.5021506, 34.1488544], [132.5025318, 34.1488936], [132.5035644, 34.1489477], [132.5044364, 34.1489838], [132.5047404, 34.1489982], [132.5052062, 34.1490202], [132.5058024, 34.1490512], [132.5063711, 34.1490789], [132.5074973, 34.1491118], [132.5077837, 34.1490806], [132.5082433, 34.1489054], [132.508487, 34.1487492], [132.5087246, 34.1485272], [132.5091486, 34.1479816], [132.509242, 34.1478651], [132.5095409, 34.1474888], [132.5097853, 34.1471848]], [[132.4989061, 34.1476089], [132.4989667, 34.1475415], [132.4990167, 34.147485], [132.499082, 34.1474722], [132.4995109, 34.1475654], [132.4996834, 34.1475627], [132.4998374, 34.1475793], [132.5001945, 34.1476591], [132.5003002, 34.1476725], [132.5004073, 34.1476628], [132.5005242, 34.1476142], [132.5007185, 34.14749], [132.5008378, 34.1474172], [132.500964, 34.1473358], [132.5010525, 34.1472773], [132.5011534, 34.1472446], [132.5015366, 34.1471839], [132.5017523, 34.1471509], [132.501984, 34.147123], [132.5020954, 34.147134], [132.502208, 34.147165], [132.5023681, 34.1472409], [132.5025853, 34.1473417], [132.5026862, 34.1473808], [132.5028279, 34.1473939], [132.5029976, 34.1473734], [132.5035809, 34.1472761], [132.5037969, 34.1472497], [132.5039019, 34.147258], [132.5040233, 34.1472773], [132.5040778, 34.1472962], [132.5040981, 34.1473121], [132.5043096, 34.1475546], [132.504387, 34.1475996], [132.5044977, 34.1476142], [132.5047989, 34.1475535], [132.5053532, 34.1474451], [132.5056354, 34.1473528], [132.5058312, 34.147242], [132.506364, 34.146746], [132.506506, 34.1465674], [132.5067096, 34.1466747], [132.5068952, 34.146793], [132.5070818, 34.1469102], [132.5071837, 34.14696], [132.5073244, 34.147018], [132.5074214, 34.1470351], [132.507501, 34.147039], [132.5076284, 34.1470378], [132.5078777, 34.1469854], [132.5083624, 34.1468795], [132.508625, 34.146819], [132.5088441, 34.1467736], [132.5089345, 34.1467572], [132.5093239, 34.1469701], [132.5094513, 34.1470318], [132.5096275, 34.1471148], [132.5097853, 34.1471848], [132.5099368, 34.1472603], [132.5101761, 34.1473968], [132.5102469, 34.1474343], [132.5104261, 34.1475321], [132.5107851, 34.1477391], [132.5110066, 34.1478852], [132.5111345, 34.1479656], [132.5113201, 34.1480979], [132.5117124, 34.148446], [132.5119793, 34.1486911], [132.5124352, 34.1490274], [132.5125853, 34.1491724], [132.5127765, 34.1494099], [132.512958, 34.14968], [132.5130621, 34.1498055], [132.5131908, 34.1499132], [132.5132884, 34.1499791], [132.5134786, 34.1500744], [132.513808, 34.1502201], [132.5139324, 34.1502916], [132.514068, 34.1504129], [132.5142403, 34.1506267], [132.5144958, 34.1509249], [132.5145687, 34.15101], [132.5147439, 34.1511668], [132.5150435, 34.1513616], [132.5159512, 34.151892], [132.5162971, 34.1521036], [132.5164083, 34.1522017], [132.5165083, 34.152314], [132.5166096, 34.1524647], [132.5167244, 34.1526798], [132.5167749, 34.1527594], [132.5168364, 34.1528172], [132.517066, 34.1529593], [132.5179159, 34.1534622], [132.5186789, 34.1539344], [132.518906, 34.1540938], [132.5190985, 34.1542483], [132.5191937, 34.1543396], [132.5192911, 34.1544665], [132.5194697, 34.1546414], [132.5197119, 34.154873], [132.51989, 34.155015], [132.5200786, 34.1551426], [132.5204569, 34.1553516], [132.5205722, 34.1554244], [132.5206809, 34.1555101], [132.5207763, 34.1556049], [132.5208572, 34.1556829], [132.5208848, 34.1557164], [132.5209904, 34.1558445], [132.5210699, 34.1559486], [132.5211963, 34.1561649], [132.5212687, 34.1563605], [132.5213461, 34.1565456], [132.5214185, 34.1567579], [132.5214519, 34.1568728], [132.5214362, 34.1571797], [132.5214202, 34.1574939], [132.5214181, 34.1576198], [132.5214291, 34.1576961], [132.5214731, 34.1578093], [132.5218352, 34.1582897], [132.5218738, 34.1583381], [132.5218856, 34.1583529], [132.5221674, 34.1587779], [132.522328, 34.15902], [132.522465, 34.1592235], [132.5226871, 34.1595733], [132.5227761, 34.1596893], [132.5229074, 34.1597946], [132.5231303, 34.159941], [132.5236941, 34.1602895], [132.524054, 34.1605066], [132.5245568, 34.1608084], [132.5250327, 34.1610912], [132.5251508, 34.1611669], [132.5257026, 34.1616853], [132.5258647, 34.1618446], [132.52604, 34.1620166], [132.5260794, 34.1620654], [132.5260945, 34.162084], [132.526187, 34.1621924], [132.5263332, 34.1624064], [132.5264993, 34.1626381], [132.5265067, 34.1626481], [132.5267166, 34.162931], [132.5269339, 34.1632237], [132.5273567, 34.163973], [132.5273672, 34.1639906], [132.5274642, 34.1641521], [132.5276761, 34.1644006], [132.5277535, 34.1644628], [132.5278882, 34.1645287], [132.5280693, 34.1645865], [132.5308869, 34.1653935], [132.5309948, 34.1654148], [132.5310241, 34.1654206], [132.5311867, 34.1654528], [132.5312807, 34.1654613], [132.53161, 34.1654663], [132.5321667, 34.1654572], [132.5323149, 34.1654265], [132.5324454, 34.1653595], [132.5325297, 34.1652798], [132.5333017, 34.164377], [132.5334948, 34.1641609], [132.5336274, 34.1639206], [132.5338266, 34.1635524], [132.5339974, 34.1630455], [132.5341323, 34.1625955], [132.5341664, 34.1624775], [132.5341914, 34.1623907], [132.5342367, 34.16234], [132.5342953, 34.1623075], [132.5343925, 34.1623075], [132.5345289, 34.1623326], [132.5347245, 34.1623831], [132.534989, 34.1624546], [132.535191, 34.162575], [132.536003, 34.163116], [132.536237, 34.1633197], [132.5363259, 34.1633782], [132.536423, 34.1634137], [132.5365769, 34.1634437], [132.5374483, 34.163549], [132.5376651, 34.1635884], [132.5377791, 34.1635891], [132.5381402, 34.1635551], [132.5382379, 34.1635515], [132.5384868, 34.1635981], [132.5385456, 34.163634], [132.5386764, 34.1637935], [132.538787, 34.163922], [132.5388831, 34.1640121], [132.5389874, 34.1640756], [132.5391154, 34.1641022], [132.539633, 34.1641673], [132.5397726, 34.1642089], [132.5398789, 34.1642745], [132.5399158, 34.1643269], [132.5399411, 34.1643629], [132.5399562, 34.1644342], [132.5399631, 34.1645669], [132.5399768, 34.1652222], [132.5400548, 34.1663275], [132.5400837, 34.1664185], [132.5401334, 34.1665174], [132.5402981, 34.1668374], [132.5403233, 34.1668978], [132.540339, 34.1669764], [132.5404109, 34.1675682], [132.5404052, 34.1675887], [132.5404732, 34.1680757], [132.540579, 34.1684262], [132.540619, 34.168519], [132.5406759, 34.168597], [132.5411758, 34.1690782], [132.5412665, 34.1691194], [132.5414186, 34.169132], [132.5415395, 34.1691437], [132.5416365, 34.1691739], [132.5417139, 34.1692504], [132.5417708, 34.1693696], [132.5419326, 34.169796], [132.5420589, 34.1700636], [132.5420972, 34.1701783], [132.5420803, 34.1702961], [132.5420145, 34.1704315], [132.5418472, 34.1705209], [132.5415884, 34.1706129], [132.5414319, 34.1706828], [132.5411126, 34.1708844], [132.540828, 34.1710677], [132.5406332, 34.1712332], [132.5404882, 34.1714334], [132.5403984, 34.1716232], [132.5403761, 34.1717326], [132.540387, 34.1718669], [132.5405034, 34.1722987], [132.5408236, 34.1729114], [132.5409943, 34.1731844], [132.5411046, 34.1733337], [132.5412665, 34.1734831], [132.5416623, 34.1737995], [132.542128, 34.174157], [132.542636, 34.17454], [132.5430259, 34.1748227], [132.5433791, 34.1750143], [132.5443383, 34.1755288], [132.544759, 34.1757542], [132.545336, 34.1760415], [132.54611, 34.1764216], [132.5463704, 34.1765683], [132.5466521, 34.1766994], [132.5468395, 34.1767566], [132.5473194, 34.1768462], [132.547428, 34.176866], [132.5478962, 34.1769543], [132.5480176, 34.1769809], [132.5481113, 34.1770324], [132.5481647, 34.1770943], [132.548247, 34.177233], [132.54827, 34.177293], [132.5484584, 34.1777026], [132.5485477, 34.1778659], [132.5490324, 34.1785952], [132.5493262, 34.1790044], [132.5494605, 34.1791817], [132.5495092, 34.1792499], [132.5496382, 34.1793662], [132.5498743, 34.1795401], [132.5500681, 34.1796432], [132.5503024, 34.1797641], [132.5508481, 34.1800427], [132.5503992, 34.1808566], [132.5502548, 34.1811714], [132.5501265, 34.1815179], [132.5500166, 34.1818532], [132.54986, 34.182331], [132.5498311, 34.1824452], [132.5497039, 34.1831883], [132.5496241, 34.1836871], [132.5496194, 34.1837387], [132.549599, 34.1839633], [132.5496327, 34.1841303], [132.549687, 34.1842524], [132.5497573, 34.1843745], [132.5498607, 34.1845566], [132.5499499, 34.1847136], [132.5501369, 34.1850428], [132.5502966, 34.185324], [132.5503349, 34.1854145], [132.550411, 34.1857964], [132.5504312, 34.1859431], [132.5504261, 34.1860242], [132.5503708, 34.1861137], [132.5500689, 34.186251], [132.5498765, 34.1863041], [132.5494187, 34.1863051], [132.5492715, 34.1862791], [132.5490451, 34.1862125], [132.548903, 34.1861855], [132.5487987, 34.1862003], [132.5485797, 34.1862313], [132.5479634, 34.1864123], [132.5478551, 34.1864798], [132.5477653, 34.1865858], [132.5476728, 34.1867278], [132.5476096, 34.1868469], [132.5475759, 34.1869477], [132.5474585, 34.1873752], [132.5473749, 34.1883169], [132.5473602, 34.1889171], [132.5473546, 34.1890232], [132.5473263, 34.1891169], [132.5472722, 34.189209], [132.5472055, 34.1892776], [132.5470822, 34.189346], [132.546895, 34.1893894], [132.5467818, 34.1893889], [132.5463982, 34.1892843], [132.5463378, 34.1892365], [132.5461768, 34.1889915], [132.5461101, 34.1888895], [132.546029, 34.1888068], [132.5455522, 34.1884447], [132.545439, 34.1883688], [132.5453258, 34.18831], [132.5451542, 34.1882476], [132.5450465, 34.1882106], [132.5448792, 34.1881805], [132.5447704, 34.1881867], [132.5444755, 34.1882465], [132.5443384, 34.1882566], [132.5441961, 34.1882293], [132.5441187, 34.1881558], [132.5438296, 34.1877813], [132.5437603, 34.1877026], [132.5436882, 34.1876474], [132.5435779, 34.187579], [132.5430259, 34.1873604], [132.5423811, 34.187139], [132.5422708, 34.1871074], [132.5421739, 34.1870985], [132.5420191, 34.1870985], [132.5418315, 34.1871096], [132.541642, 34.1871294], [132.5414731, 34.1871699], [132.5404423, 34.187437], [132.5402377, 34.1874929], [132.5400411, 34.1875775], [132.5397477, 34.1877232], [132.5395538, 34.1878173], [132.5394364, 34.1878651], [132.5393643, 34.1878828], [132.5392576, 34.1878887], [132.5391319, 34.1878738], [132.5390201, 34.1878405], [132.5388581, 34.1877426], [132.5386829, 34.1876383], [132.5386623, 34.1876261], [132.5383517, 34.1874916], [132.5383175, 34.1874768], [132.5379748, 34.187389], [132.5372908, 34.1872913], [132.5369492, 34.1872425], [132.5367025, 34.1872162], [132.536391, 34.1872115], [132.5361672, 34.1872325], [132.5360021, 34.1872713], [132.5358032, 34.1873403], [132.5355578, 34.187461], [132.5347661, 34.188028], [132.5339015, 34.1887184], [132.5337699, 34.1888584], [132.5337075, 34.1889248], [132.5334983, 34.1892689], [132.5333902, 34.1895381], [132.533204, 34.1900018], [132.5331743, 34.1900764], [132.5331152, 34.1903528], [132.5331071, 34.190681], [132.5331073, 34.1908091], [132.533127, 34.1912114], [132.533162, 34.1916289], [132.5332201, 34.1919031], [132.5332905, 34.1920432], [132.5335557, 34.1924177], [132.5338015, 34.1927105], [132.5347534, 34.1933935], [132.5351993, 34.193646], [132.5363378, 34.1941333], [132.5364489, 34.1942031], [132.5365009, 34.1942621], [132.5365438, 34.1943426], [132.5366826, 34.1946557], [132.5367379, 34.1947165], [132.5367969, 34.1947646], [132.5368747, 34.1948112], [132.5369022, 34.1948559], [132.5369103, 34.1948933], [132.5368814, 34.1949918], [132.5368645, 34.1950917], [132.5368601, 34.195124], [132.5368272, 34.1953636], [132.5368818, 34.1960182], [132.5369755, 34.1967901], [132.5369943, 34.1969321], [132.5370924, 34.1971958], [132.5374515, 34.197982], [132.5375871, 34.1981717], [132.5378006, 34.1984628], [132.5380415, 34.1988791], [132.5380545, 34.1989555], [132.5380487, 34.1990999], [132.5380246, 34.1991673], [132.5378267, 34.1995038], [132.5376265, 34.1997123], [132.5374703, 34.1998026], [132.5372842, 34.1998383], [132.5370491, 34.199836], [132.5368459, 34.1998056], [132.5357725, 34.1995699], [132.5353586, 34.1994065], [132.535198, 34.1993367], [132.5337011, 34.198686], [132.5331822, 34.1984823], [132.5329648, 34.198397], [132.5327666, 34.1983125], [132.5322154, 34.1981265], [132.5321678, 34.1981169], [132.52982, 34.1979505], [132.5295964, 34.1979422], [132.5294565, 34.1979625], [132.5293339, 34.1980018], [132.5287511, 34.1983314], [132.5278999, 34.1990235], [132.5277241, 34.1991665], [132.5276404, 34.1992178], [132.5274659, 34.1992739], [132.5273578, 34.1992763], [132.5270319, 34.1992827], [132.5269015, 34.1992611], [132.5268037, 34.1992261], [132.5266214, 34.1991341], [132.5262613, 34.1988735], [132.5260757, 34.1987182], [132.5259951, 34.1986086], [132.5257371, 34.1980653], [132.5256686, 34.1979153], [132.5255218, 34.1977742], [132.5249159, 34.1972868], [132.5247082, 34.1971238], [132.5246012, 34.1970136], [132.5243723, 34.196606], [132.5242591, 34.1964643], [132.5240877, 34.1963318], [132.5237766, 34.1961555], [132.5236501, 34.1960442], [132.5232071, 34.1955058], [132.5230096, 34.1953127], [132.5224558, 34.1948943], [132.5223044, 34.1948149], [132.5220401, 34.1947314], [132.5211678, 34.1945619], [132.5209885, 34.1945106], [132.5208702, 34.194453], [132.5207447, 34.1943197], [132.5206805, 34.1941383], [132.5206315, 34.1939932], [132.5205142, 34.1937856], [132.5203854, 34.1936371], [132.5202127, 34.1935211], [132.5199649, 34.1933385], [132.5196972, 34.1931376], [132.5196056, 34.1930171], [132.5195684, 34.1929121], [132.5195562, 34.1928058], [132.5195664, 34.1926968], [132.5195833, 34.1926066], [132.5197967, 34.19205], [132.5198298, 34.1919212], [132.5198122, 34.1917859], [132.5197832, 34.1916626], [132.5196695, 34.1914958], [132.5195708, 34.1912615], [132.5195736, 34.1910427], [132.5199026, 34.191055], [132.5202351, 34.1910843], [132.5206083, 34.1911456], [132.5209062, 34.1912205], [132.5212475, 34.1913439], [132.5215111, 34.1914684], [132.5217392, 34.1915968], [132.5219468, 34.1917506], [132.5221242, 34.1919006], [132.5228162, 34.1925734], [132.5230517, 34.1927869], [132.5232791, 34.1929802], [132.5235241, 34.1931502], [132.5237395, 34.1932736], [132.5240582, 34.1934262], [132.5243422, 34.1935321], [132.5246397, 34.1936094], [132.5249529, 34.1936737], [132.5252534, 34.193712], [132.5254763, 34.1937247], [132.525667, 34.193724], [132.5260162, 34.193705], [132.5263546, 34.193666], [132.5276644, 34.1935077], [132.5282557, 34.1934442], [132.5283523, 34.1934383], [132.528413, 34.1934389], [132.5285689, 34.1934438], [132.5286359, 34.1934557], [132.5287013, 34.1934716], [132.5288199, 34.1935147], [132.5289194, 34.1935647], [132.5290223, 34.1936347], [132.5291288, 34.1937311], [132.5292113, 34.1938215], [132.5298776, 34.1946082], [132.530303, 34.1950488], [132.5306286, 34.1953744], [132.5308851, 34.1956192], [132.5310766, 34.1957885], [132.5312431, 34.1959256], [132.531458, 34.1960868], [132.5316756, 34.1962303], [132.5318719, 34.1963553], [132.5335476, 34.1974509], [132.5339132, 34.1976886], [132.5340962, 34.1978075], [132.5343358, 34.1979633], [132.5348557, 34.1982663], [132.5349654, 34.1983227], [132.5350059, 34.1983408], [132.5351044, 34.1983848], [132.5352547, 34.1984476], [132.535287, 34.1984594], [132.5353989, 34.1985001], [132.5354768, 34.1985245], [132.5355544, 34.1985485], [132.5356148, 34.1985655], [132.5356695, 34.1985789], [132.5357565, 34.1985981], [132.5358776, 34.1986224], [132.5359987, 34.1986418], [132.5361217, 34.1986529], [132.5362084, 34.1986593], [132.5362811, 34.198664], [132.536349, 34.1986663], [132.5364076, 34.198667], [132.5365466, 34.1986632], [132.5365845, 34.1986618], [132.5367264, 34.1986524], [132.536914, 34.1986358], [132.5371242, 34.1986114], [132.537335, 34.1985735], [132.5375132, 34.1985313], [132.5376934, 34.1984841], [132.5403759, 34.1978519], [132.540618, 34.197806], [132.5408654, 34.1977689], [132.541121, 34.1977477], [132.541384, 34.1977494], [132.5415547, 34.1977556], [132.5417588, 34.1977742], [132.5420766, 34.1978292], [132.5423612, 34.197899], [132.5426084, 34.1979761], [132.5427951, 34.1980563], [132.5429788, 34.1981481], [132.5430847, 34.1982094], [132.5432728, 34.1983361], [132.5433989, 34.1984303], [132.5434935, 34.19851], [132.5435902, 34.1986021], [132.5436833, 34.1986943], [132.5438106, 34.1988428], [132.5439123, 34.1989728], [132.5440037, 34.1991012], [132.5440704, 34.1992381], [132.54413, 34.1993721], [132.5441961, 34.1995528], [132.5442436, 34.1997264], [132.5442929, 34.1999429], [132.5443155, 34.2000619], [132.5444571, 34.2008231], [132.5446516, 34.2018685], [132.5446766, 34.2020083], [132.5448707, 34.203075], [132.5449054, 34.2033525], [132.5449287, 34.2036403], [132.544935, 34.2038205], [132.5449303, 34.2040441], [132.544911, 34.2042605], [132.5448559, 34.204537], [132.5448042, 34.2047117], [132.5447473, 34.2048682], [132.5446585, 34.2050705], [132.5445767, 34.2052434], [132.5444743, 34.2054172], [132.5443576, 34.2055879], [132.5442495, 34.2057284], [132.544118, 34.2058872], [132.5439778, 34.2060491], [132.5438494, 34.2061851], [132.5436677, 34.2063829], [132.5435814, 34.2064971], [132.5434972, 34.2066272], [132.5434595, 34.2067041], [132.5434293, 34.2067708], [132.5433853, 34.2068908], [132.5433544, 34.2070232], [132.5433386, 34.2071921], [132.5433399, 34.2073395], [132.5433555, 34.20746], [132.543381, 34.2075817], [132.5434155, 34.2077087], [132.543469, 34.2078749], [132.5435667, 34.2081575], [132.5436947, 34.2085243], [132.543836, 34.208917], [132.5440912, 34.2096529], [132.5442343, 34.2100493], [132.5444031, 34.2105035]], [[132.5368272, 34.1953636], [132.5366526, 34.1953683], [132.5365763, 34.1953822], [132.536477, 34.1953869], [132.5363818, 34.1953759], [132.5363161, 34.1953441], [132.5362625, 34.1953031], [132.5362389, 34.1952646], [132.536225, 34.1951972], [132.5362394, 34.1951396], [132.5362635, 34.1950868], [132.536303, 34.1950424], [132.5363539, 34.1950098], [132.53641, 34.1949943], [132.5364731, 34.1949929], [132.5365535, 34.1950064], [132.5366356, 34.1950439], [132.5366665, 34.1950885], [132.5366884, 34.1951435], [132.5366923, 34.1951921], [132.5366858, 34.1952488], [132.536663, 34.1953027], [132.5366106, 34.1953542], [132.5365425, 34.1953859], [132.5364692, 34.1953998], [132.5363764, 34.1953888], [132.5363091, 34.1953609], [132.536252, 34.195316], [132.5362234, 34.1952637], [132.5362111, 34.1952043], [132.53622, 34.195137], [132.5362453, 34.1950814], [132.5362903, 34.1950337], [132.5363441, 34.1949982], [132.5364134, 34.1949769], [132.5365309, 34.1949611], [132.5383035, 34.1948627], [132.5385009, 34.1948518], [132.5387943, 34.1948384], [132.5389186, 34.1948566], [132.5389914, 34.1948894], [132.5390676, 34.1949442], [132.539113, 34.194996], [132.5391334, 34.1950436], [132.5391481, 34.1951112], [132.5391432, 34.1951732], [132.5391248, 34.1952322], [132.5390739, 34.1953173], [132.5390033, 34.1953803], [132.5389138, 34.1954203], [132.5388047, 34.1954366], [132.5386759, 34.1954248], [132.5385461, 34.1954129], [132.5384892, 34.1954012], [132.5384441, 34.1953872], [132.5383989, 34.1953683], [132.5383636, 34.1953486], [132.5383352, 34.19532], [132.5383147, 34.195289], [132.5383015, 34.1952658], [132.5382874, 34.1952335], [132.5382845, 34.1951866], [132.5382874, 34.1951561], [132.5382959, 34.1951306], [132.5383182, 34.195098], [132.5383511, 34.1950708], [132.5383874, 34.1950513], [132.5384526, 34.1950302], [132.538728, 34.1949877], [132.5387961, 34.1949895], [132.5388429, 34.1950023], [132.5388896, 34.1950222], [132.5389221, 34.1950454], [132.5389422, 34.1950777], [132.5389563, 34.1951089], [132.5389587, 34.1951522], [132.5389501, 34.195189], [132.5389299, 34.1952203], [132.5389015, 34.1952466], [132.5388588, 34.1952698], [132.538813, 34.1952804], [132.5387682, 34.1952826], [132.5387219, 34.1952755], [132.5385607, 34.1952458], [132.5384979, 34.1952417], [132.5384289, 34.1952507], [132.5383759, 34.1952704], [132.5383394, 34.1952935], [132.5383126, 34.1953248], [132.5383023, 34.1953571], [132.5383063, 34.1953973], [132.5383212, 34.1954405], [132.5383485, 34.1954792], [132.5384011, 34.195524], [132.5389268, 34.1958585], [132.5390841, 34.1959677], [132.5391657, 34.1960537], [132.5392073, 34.1961396], [132.5392311, 34.1962189], [132.5392413, 34.1962963], [132.5392418, 34.1963755]], [[132.5442671, 34.2060188], [132.5442034, 34.2056676], [132.5441946, 34.2054236], [132.5441627, 34.2053025], [132.5440406, 34.2050959], [132.5439036, 34.2049082], [132.5437462, 34.2047257], [132.5435626, 34.2045499], [132.5433475, 34.2043637], [132.543183, 34.2041947], [132.5430093, 34.204007], [132.5421403, 34.2032266], [132.5419691, 34.2030746], [132.5414969, 34.2026553], [132.5414321, 34.2025873], [132.5413946, 34.2025478], [132.5413073, 34.2024354], [132.5412399, 34.2023138], [132.5411836, 34.2021725], [132.5411534, 34.2020276], [132.5411352, 34.2019402], [132.5411303, 34.2018725], [132.5410752, 34.2011611], [132.5410168, 34.2003307], [132.5409662, 34.1999572], [132.5409138, 34.1997498], [132.5408492, 34.1995413]], [[132.546, 34.2114405], [132.5460256, 34.2115666], [132.5460723, 34.211691], [132.54613, 34.2117762], [132.5462372, 34.2118535], [132.5463842, 34.211933], [132.5470244, 34.212267], [132.5471384, 34.2123534], [132.5472003, 34.2124283], [132.5472178, 34.2124606], [132.5472281, 34.2124796], [132.5472484, 34.212517], [132.5472882, 34.2126408], [132.5472978, 34.212776], [132.5472994, 34.2128631], [132.5473102, 34.2134361], [132.5473104, 34.2134537], [132.5473157, 34.2139656], [132.5473267, 34.2140667], [132.5473684, 34.2141914], [132.5474709, 34.2144166], [132.5475149, 34.214545], [132.547644, 34.2151517], [132.5476413, 34.2152187], [132.5476097, 34.215305], [132.5474847, 34.2154925], [132.5474861, 34.2154954], [132.5473089, 34.2157703], [132.5472437, 34.2158733], [132.5472236, 34.2159458], [132.547229, 34.2160379], [132.5472621, 34.2161287], [132.5475123, 34.2166094], [132.5475424, 34.2166672], [132.5476413, 34.2168524], [132.5477168, 34.2169456], [132.5478858, 34.2171239], [132.5480768, 34.2173318], [132.5481922, 34.2174932], [132.5482856, 34.2176704], [132.5485818, 34.2183757], [132.5487198, 34.2187474], [132.5487885, 34.2188656], [132.5488447, 34.2189382], [132.5489259, 34.2190212], [132.5493999, 34.2194356], [132.5495097, 34.2195176], [132.5496175, 34.219585], [132.5502379, 34.2198469], [132.550873, 34.2201024], [132.5511053, 34.2202246], [132.5513369, 34.220395], [132.5514675, 34.2204808], [132.5515663, 34.2205264], [132.5517601, 34.2205865], [132.5519078, 34.2206373], [132.5521262, 34.2207787], [132.5524877, 34.2210744], [132.5525803, 34.2211736], [132.5526837, 34.2212845], [132.5527557, 34.221369], [132.5531541, 34.2218367], [132.5538481, 34.2226818], [132.5539875, 34.2228967], [132.5540964, 34.2230492], [132.5546089, 34.2236122], [132.5548223, 34.2238643], [132.5548673, 34.2239663], [132.5548746, 34.224072], [132.5548499, 34.2241896], [132.5545014, 34.225078], [132.5544724, 34.2252064], [132.5544826, 34.2253277], [132.5545281, 34.2254385], [132.5545688, 34.2255021], [132.5546277, 34.2255786], [132.5547366, 34.225653], [132.5548571, 34.2256938], [132.5551359, 34.225761], [132.555284, 34.2258306], [132.5554364, 34.2259603], [132.5556136, 34.2261824], [132.5557921, 34.2264261], [132.5562422, 34.226905], [132.5565645, 34.2272604], [132.5567475, 34.2274668], [132.5570248, 34.2277453], [132.5571278, 34.227827], [132.5572672, 34.2279048], [132.5573427, 34.227947], [132.557481, 34.2280391], [132.5577884, 34.2283851], [132.5584505, 34.229199], [132.5589977, 34.2298358], [132.55958, 34.2305122], [132.5597048, 34.2306576], [132.5600628, 34.231185], [132.5601331, 34.2313394], [132.5601117, 34.2317225], [132.5601562, 34.2318784], [132.5601652, 34.2318893], [132.5603385, 34.2320982], [132.560455, 34.2322504], [132.5606107, 34.2325181], [132.560745, 34.2328115], [132.5609047, 34.2332444], [132.5610281, 34.2335681], [132.5610978, 34.2337766], [132.5611112, 34.2339296], [132.561122, 34.2340804], [132.5611247, 34.23424], [132.5611086, 34.2343842], [132.5610281, 34.2350117], [132.5610308, 34.235147], [132.5610174, 34.2353355], [132.5610093, 34.2354552], [132.5610281, 34.2356104], [132.5610871, 34.2357657], [132.5611729, 34.2359564], [132.5614304, 34.2363533], [132.5615028, 34.2365262], [132.5615377, 34.2366103], [132.5615511, 34.2367413], [132.5615243, 34.23687], [132.5614733, 34.2369786], [132.5614277, 34.2370806], [132.5613366, 34.2371649], [132.5612171, 34.2372257], [132.5600776, 34.2380548], [132.559985, 34.2381247], [132.5599475, 34.2381901], [132.5599421, 34.2382411], [132.5599582, 34.2382876], [132.5600454, 34.2383808], [132.5604182, 34.2387688], [132.5610982, 34.2394285], [132.5622891, 34.2405912], [132.5623265, 34.2406277], [132.5624483, 34.2407487], [132.5630186, 34.2413154], [132.5631058, 34.2414429], [132.5631326, 34.2415139], [132.563323, 34.2416369], [132.5637111, 34.2420255], [132.5638363, 34.2421614]], [[132.5631326, 34.2415139], [132.5632174, 34.2417162], [132.5636066, 34.2420967], [132.5636959, 34.2421939], [132.5637875, 34.2422775], [132.5639118, 34.2424011], [132.5640515, 34.2425391], [132.5642349, 34.2427191], [132.5643197, 34.2428061], [132.5644391, 34.242925], [132.5645951, 34.24307], [132.5649707, 34.2434481], [132.5649993, 34.2434769], [132.5650745, 34.2435527]], [[132.5651709, 34.2434745], [132.565099, 34.2434034], [132.5646906, 34.2430055], [132.5645513, 34.2428473], [132.5644249, 34.2427332], [132.564339, 34.2426526], [132.5641556, 34.2424726], [132.5640122, 34.2423344], [132.5638363, 34.2421614]], [[132.5447285, 34.2116281], [132.5452641, 34.2115491], [132.5454074, 34.2115279], [132.5455042, 34.2115136], [132.5455836, 34.2115019], [132.546, 34.2114405]], [[132.5444031, 34.2105035], [132.5444801, 34.2107149], [132.5445508, 34.2109128], [132.5446585, 34.2112371], [132.5447107, 34.2114806], [132.5447285, 34.2116281], [132.544746, 34.2117729], [132.5447056, 34.212381], [132.5446618, 34.2127429], [132.5446632, 34.2129434], [132.5446837, 34.2131047], [132.5447477, 34.2133455], [132.5448537, 34.2136572], [132.5449983, 34.2140542], [132.5451061, 34.2143502]], [[132.5433172, 34.2075461], [132.5433438, 34.2076506], [132.5434078, 34.20791], [132.5434697, 34.208125], [132.5436599, 34.2086698], [132.5438997, 34.2093688], [132.5440126, 34.2096834], [132.5440765, 34.2098333], [132.5441332, 34.2099549], [132.5442586, 34.2102034], [132.5444031, 34.2105035], [132.5444199, 34.2103015], [132.544425, 34.2102051], [132.54442, 34.2101339], [132.5444009, 34.2100307], [132.5443451, 34.2098365], [132.5442866, 34.2096727], [132.544189, 34.2093957], [132.5440106, 34.2088947], [132.5439115, 34.2086014], [132.5437912, 34.2082704], [132.5437185, 34.2080695], [132.5436759, 34.2079382], [132.5436382, 34.2078112], [132.5435998, 34.2076783], [132.5435614, 34.207569], [132.5434883, 34.2073559], [132.5434762, 34.2073102], [132.5434701, 34.2072606], [132.5434692, 34.2071969], [132.5434714, 34.2071255], [132.5434799, 34.2070617], [132.5434986, 34.2069451], [132.5435442, 34.2067987], [132.5436089, 34.2066677], [132.5436709, 34.2065558], [132.54375, 34.2064329], [132.5438512, 34.206295], [132.5439587, 34.2061716], [132.5440312, 34.2061133], [132.5440841, 34.2060797], [132.5441465, 34.206055], [132.5442671, 34.2060188], [132.5441819, 34.2060285], [132.5441022, 34.206046], [132.5439964, 34.2060766], [132.5438726, 34.2061368], [132.5437869, 34.2061852], [132.5437333, 34.2062174], [132.543666, 34.2062713], [132.5436336, 34.206298], [132.5435947, 34.2063412], [132.5435547, 34.2064004], [132.5434813, 34.2065272], [132.5434149, 34.2066681], [132.543374, 34.2067676], [132.5433428, 34.2068645], [132.5433153, 34.2069678], [132.5433028, 34.2070744], [132.5432973, 34.207202], [132.543296, 34.2073063], [132.543298, 34.2073854], [132.5433047, 34.2074727], [132.5433172, 34.2075461]], [[132.4773083, 34.2843799], [132.4773559, 34.2843639], [132.4774015, 34.2843251], [132.4774431, 34.2842614], [132.4775014, 34.2841428], [132.4775524, 34.2839882], [132.4775855, 34.2838354], [132.4776218, 34.2834575], [132.4776472, 34.2834066], [132.4776821, 34.2833722], [132.4778618, 34.283319], [132.4779248, 34.2833091], [132.4780147, 34.2833067], [132.4780726, 34.2833232], [132.4790265, 34.2839122], [132.4790934, 34.2839504], [132.4791464, 34.2839586], [132.4792699, 34.2839382], [132.4793745, 34.2838837], [132.4797678, 34.2836323], [132.4803543, 34.2832574], [132.4803989, 34.2832286], [132.4804406, 34.2831885], [132.4804945, 34.2831169], [132.4805086, 34.2830628], [132.4805015, 34.2829799], [132.4801759, 34.282191], [132.4801732, 34.2821323], [132.4801786, 34.282099], [132.4802161, 34.282068], [132.481073, 34.2819026], [132.4811602, 34.2818726], [132.4812943, 34.2817984], [132.4815424, 34.2816433], [132.4816926, 34.2815535], [132.4820413, 34.2813762], [132.4821647, 34.2813042], [132.4825711, 34.2810087], [132.4826408, 34.2809455], [132.4826756, 34.2808919], [132.4828366, 34.2805761], [132.4828875, 34.2805141], [132.4829519, 34.2804476], [132.4830417, 34.2803877], [132.4835768, 34.2801916], [132.4836908, 34.2801628], [132.4837874, 34.2801572], [132.4839805, 34.2801949], [132.4840744, 34.2802093], [132.484179, 34.2802027], [132.4842635, 34.2801794], [132.4843346, 34.2801428], [132.4843909, 34.2800941], [132.4844754, 34.2799955], [132.4845277, 34.2799478]]]}, "id": "relation/5525014"}]}