{"type": "FeatureCollection", "generator": "kokudo-quiz tools/fetch_raw.py (Overpass API)", "copyright": "The data included in this document is from www.openstreetmap.org. The data is made available under ODbL.", "timestamp": "2026-09-30T23:41:30Z", "features": [{"type": "Feature", "properties": {"@id": "relation/10548190", "colour": "red", "from": "沖縄県国頭郡本部町", "name": "国道505号", "name:en": "National Highway Route 505", "name:ja": "国道505号", "name:ja-Hira": "こくどうごひゃくごごう", "name:ja-Latn": "Kokudou 505 Gou", "network": "JP:national", "ref": "505", "route": "road", "to": "沖縄県名護市", "type": "route", "wikidata": "Q6157724", "wikipedia": "ja:国道505号"}, "geometry": {"type": "MultiLineString", "coordinates": [[[127.8915688, 26.6777813], [127.891592, 26.6779146], [127.891598, 26.6779487], [127.8916348, 26.6781743], [127.8916619, 26.6783138], [127.8916847, 26.6783923], [127.8917129, 26.6784725], [127.8917661, 26.6785867], [127.8918443, 26.6787275], [127.8919342, 26.6788422], [127.8927462, 26.679825], [127.8928662, 26.6799174], [127.8929977, 26.6800004], [127.8931668, 26.6800676], [127.8933887, 26.6801022], [127.8937772, 26.6801483], [127.8939434, 26.6801845], [127.8940934, 26.6802423], [127.8942646, 26.6803301], [127.8946781, 26.6805969], [127.8948315, 26.6807331], [127.8949529, 26.6808827], [127.8952137, 26.681294], [127.8960418, 26.6825439], [127.8961021, 26.6826295], [127.896276, 26.68285], [127.8964504, 26.6830461], [127.8966275, 26.6832231], [127.8976576, 26.6842069], [127.8977917, 26.6843355], [127.8981177, 26.6846481], [127.8982646, 26.6847392], [127.8984061, 26.6848088], [127.899595, 26.6852725], [127.8999685, 26.6854629], [127.9004003, 26.6857217], [127.9007113, 26.6859429], [127.9009343, 26.6861247], [127.9011175, 26.6862839], [127.901246, 26.6864244], [127.9016963, 26.6870529], [127.9020375, 26.687501], [127.902331, 26.6879293], [127.9024218, 26.6881074], [127.9024788, 26.6882583], [127.9025137, 26.688397], [127.9025204, 26.6884515], [127.9025282, 26.6885145], [127.9025308, 26.6886305], [127.9025119, 26.6887454], [127.9024791, 26.6888835], [127.9022544, 26.6894243], [127.9022278, 26.6895367], [127.9022278, 26.6896606], [127.9022485, 26.6897748], [127.9023087, 26.6899955], [127.9023581, 26.690209], [127.9024119, 26.690437], [127.9024484, 26.6906655], [127.9024666, 26.6908343], [127.9024686, 26.6910663], [127.9024624, 26.6912336], [127.9024427, 26.6914378], [127.9024014, 26.6916586], [127.902348, 26.6918855], [127.9022708, 26.6920882], [127.9019795, 26.6927023], [127.9017974, 26.693101], [127.9017383, 26.69328], [127.9017006, 26.693434], [127.9016882, 26.6935943], [127.9016903, 26.693742], [127.9017115, 26.6938996], [127.9017614, 26.6940487], [127.9017814, 26.6941087], [127.9019124, 26.6943477], [127.9024866, 26.695216], [127.9026331, 26.6953783], [127.9029027, 26.6956278], [127.9031254, 26.6958379], [127.9032313, 26.695964], [127.9033165, 26.6960893], [127.9034396, 26.6962958], [127.9035019, 26.6963723], [127.9035781, 26.6964491], [127.9036625, 26.6965099], [127.9037604, 26.6965489], [127.9043268, 26.6967278], [127.9043786, 26.6967473], [127.9044833, 26.6967889], [127.9046047, 26.6968404], [127.9047613, 26.6969038], [127.9048591, 26.6969427], [127.9052162, 26.6970814], [127.9054294, 26.6971621], [127.9056933, 26.6972468], [127.9059644, 26.6973044], [127.9062577, 26.6973466], [127.9072911, 26.6974883], [127.9086613, 26.6976894], [127.9090592, 26.6977631], [127.9100816, 26.6979634], [127.9102728, 26.6980074], [127.9103743, 26.6980372], [127.9105504, 26.698089], [127.9107057, 26.6981388], [127.9112205, 26.6983176], [127.9115907, 26.698455], [127.9117725, 26.6985116], [127.9121133, 26.6985939], [127.9131483, 26.698809], [127.9133464, 26.6988484], [127.9134445, 26.6988758], [127.9135832, 26.6989127], [127.9137133, 26.6989604], [127.9138442, 26.6990147], [127.9139436, 26.6990604], [127.914089, 26.6991433], [127.9145763, 26.6994401], [127.9146705, 26.6994956], [127.9148544, 26.6996105], [127.915243, 26.6998844], [127.9154737, 26.700053], [127.9155772, 26.700124], [127.9156992, 26.7001944], [127.9158087, 26.7002403], [127.9159184, 26.7002775], [127.9160211, 26.7003021], [127.9161152, 26.7003157], [127.9162159, 26.7003137], [127.9163221, 26.7003086], [127.9164587, 26.7002936], [127.9169681, 26.7002148], [127.9170759, 26.7002031], [127.9171731, 26.7001992], [127.9172901, 26.7002083], [127.9174519, 26.7002368], [127.9175568, 26.700266], [127.9176459, 26.7002978], [127.9177294, 26.7003405], [127.9178437, 26.7004027], [127.9180435, 26.7005083], [127.9181769, 26.7005674], [127.9183078, 26.7006233], [127.9184408, 26.7006659], [127.9185923, 26.7007051], [127.9187752, 26.7007315], [127.9189755, 26.7007466], [127.9193172, 26.7007607], [127.9194822, 26.7007654], [127.9196578, 26.7007864], [127.9198153, 26.7008077], [127.9201055, 26.70085], [127.9203979, 26.700883], [127.9205628, 26.7008895], [127.9210451, 26.70089], [127.9217244, 26.7008927], [127.9221883, 26.700924], [127.9226399, 26.7009634], [127.922951, 26.701006], [127.9232824, 26.7010564], [127.9238008, 26.7011595], [127.9244101, 26.7012772], [127.9247234, 26.7013202], [127.9250629, 26.7013482], [127.9253593, 26.7013599], [127.9255261, 26.7013648], [127.9256847, 26.7013559], [127.925722, 26.7013513], [127.9258654, 26.7013231], [127.9259483, 26.7013041], [127.9260362, 26.701281], [127.9261167, 26.701255], [127.9262248, 26.701215], [127.9267686, 26.7009972], [127.9268508, 26.7009651], [127.9269076, 26.7009423], [127.9273195, 26.7007811], [127.9278132, 26.7005905], [127.9289096, 26.7001862], [127.929013, 26.7001493], [127.9293181, 26.7000413], [127.9295329, 26.6999572], [127.9297639, 26.6998644], [127.9298324, 26.6998338], [127.9300399, 26.6997443], [127.9303092, 26.699628], [127.9304961, 26.6995488], [127.9306799, 26.6994854], [127.9308684, 26.6994314], [127.9310533, 26.699387], [127.9313074, 26.6993329], [127.9322595, 26.6991282], [127.9323333, 26.6991126], [127.9323748, 26.699104], [127.9325341, 26.6990672], [127.9326109, 26.6990442], [127.9327473, 26.6989951], [127.9328565, 26.6989462], [127.9329767, 26.6988809], [127.9330917, 26.6988007], [127.9331402, 26.6987629], [127.9332243, 26.6986902], [127.9333142, 26.6986075], [127.93423, 26.6977097], [127.934304, 26.697643], [127.9344362, 26.6975422], [127.9345426, 26.697475], [127.9346786, 26.6973949], [127.9350581, 26.697206], [127.9354597, 26.6970053], [127.9356107, 26.6969416], [127.9357509, 26.6968916], [127.9358924, 26.6968487], [127.9361094, 26.6967912], [127.9362238, 26.6967637], [127.9364179, 26.6967169], [127.9369769, 26.6965925], [127.9370579, 26.6965766], [127.9372652, 26.6965399], [127.937524, 26.6965136], [127.9383232, 26.6964861], [127.938526, 26.6964851], [127.9388701, 26.6964714], [127.9390513, 26.6964854], [127.9392291, 26.6965129], [127.9393667, 26.6965509], [127.9403049, 26.6969174], [127.9404315, 26.6969695], [127.9407745, 26.6970986], [127.9409553, 26.6971517], [127.9411156, 26.6971727], [127.9412754, 26.6971745], [127.9414173, 26.6971565], [127.9415439, 26.6971285], [127.941677, 26.6970812], [127.9426237, 26.6966707], [127.9430939, 26.6964563], [127.9431382, 26.6964375], [127.9435376, 26.6962645], [127.9437121, 26.6962097], [127.9438593, 26.6961709], [127.9440508, 26.6961401], [127.9441617, 26.6961306], [127.9444114, 26.6961134], [127.9456361, 26.6960337], [127.9458476, 26.6960141], [127.9461466, 26.6959714], [127.9471813, 26.6957531], [127.9474099, 26.6957039], [127.9475579, 26.6956799], [127.9477319, 26.6956687], [127.9479324, 26.6956763], [127.9483431, 26.6957175], [127.9485481, 26.6957459], [127.9488243, 26.6957657], [127.9492009, 26.6957878], [127.9496878, 26.6957791], [127.9500023, 26.6957734], [127.9500931, 26.6957723], [127.9501401, 26.6957718], [127.9509835, 26.69576], [127.9517117, 26.6957418], [127.951885, 26.695728], [127.9520646, 26.6957004], [127.9522384, 26.69566], [127.9523696, 26.6956206], [127.9525858, 26.6955424], [127.952802, 26.6954378], [127.9529398, 26.6953505], [127.953078, 26.6952547], [127.9532009, 26.6951534], [127.953296, 26.6950646], [127.9534182, 26.6949282], [127.9535725, 26.6947523], [127.953794, 26.6944678], [127.9539593, 26.6942725], [127.9540534, 26.6941681], [127.9541733, 26.6940649], [127.9543504, 26.6939221], [127.9545405, 26.6937897], [127.954843, 26.6935913], [127.9552261, 26.693366], [127.9556027, 26.6931675], [127.9556297, 26.6931519], [127.9557355, 26.693097], [127.9563152, 26.6928404], [127.956708, 26.6926904], [127.9579552, 26.6922123], [127.9584678, 26.6919671], [127.9586654, 26.6918688], [127.9593876, 26.691524], [127.9594425, 26.6914954], [127.9597973, 26.6913313], [127.9598285, 26.6913187], [127.9598766, 26.691298], [127.9600136, 26.6912435], [127.9601308, 26.6912059], [127.9602835, 26.6911627], [127.9603912, 26.6911376], [127.960516, 26.6911181], [127.9607104, 26.6910921], [127.961051, 26.6910573], [127.9615575, 26.6910042], [127.9617455, 26.6909753], [127.9619041, 26.6909413], [127.9620581, 26.6908975], [127.9622348, 26.6908438], [127.9623915, 26.6907899], [127.9626098, 26.6907024], [127.9628597, 26.6905943], [127.9629776, 26.690534], [127.9630965, 26.6904609], [127.9632034, 26.6903828], [127.9633067, 26.6902968], [127.9633995, 26.6902024], [127.9634836, 26.6901052], [127.9636033, 26.6899542], [127.9639672, 26.6894518], [127.9640789, 26.6893104], [127.96422, 26.6891435], [127.9648737, 26.6884052], [127.9649208, 26.6883517], [127.9650036, 26.6882458], [127.9650543, 26.6881605], [127.9651506, 26.6879734], [127.9655983, 26.6872267], [127.9657022, 26.6870748], [127.9658297, 26.6869174], [127.9662272, 26.6864715], [127.9662568, 26.6864382], [127.9664427, 26.6862379], [127.9667623, 26.6859195], [127.9668799, 26.6858141], [127.9669913, 26.6857252], [127.9670822, 26.6856612], [127.9672201, 26.6855718], [127.9674481, 26.6854458], [127.9675159, 26.6854061], [127.9676258, 26.6853454], [127.9680445, 26.6851029], [127.9681525, 26.6850347], [127.9684161, 26.6848674], [127.9684942, 26.684817], [127.9687622, 26.6846417], [127.9696785, 26.6840442], [127.969838, 26.6839235], [127.9699872, 26.6837921], [127.9700128, 26.6837659], [127.9704699, 26.6832968], [127.9706573, 26.6831497], [127.9707636, 26.683088], [127.9708974, 26.6830164], [127.9715885, 26.6827129], [127.9719432, 26.6825567], [127.9719765, 26.6825423], [127.9721168, 26.6824855], [127.9722441, 26.6824366], [127.9722855, 26.6824212], [127.9726073, 26.6823039], [127.9727225, 26.6822679], [127.9728345, 26.6822373], [127.9729372, 26.6822219], [127.9731489, 26.6822183], [127.9733549, 26.682261], [127.9739539, 26.6824984], [127.9741508, 26.6825549], [127.9744314, 26.6825989], [127.974983, 26.6826525], [127.9749946, 26.6826529], [127.9753601, 26.6826663], [127.9755199, 26.6826511], [127.9757374, 26.6826012], [127.9758737, 26.6825363], [127.9759716, 26.6824752], [127.976055, 26.6823903], [127.9762639, 26.6821147], [127.9763059, 26.6820523], [127.9763999, 26.681891], [127.9765014, 26.6817095], [127.9766267, 26.6814699], [127.9767203, 26.6812941], [127.976736, 26.6812624], [127.9767699, 26.6811994], [127.9768498, 26.6810503], [127.9768697, 26.6810168], [127.9771398, 26.6806015], [127.9773187, 26.6803447], [127.9775375, 26.6800391], [127.9776139, 26.6799368], [127.9776679, 26.6798607], [127.9777307, 26.6797669], [127.9779208, 26.679468], [127.9780636, 26.6792241], [127.9781931, 26.6789774], [127.9783287, 26.6787396], [127.9783892, 26.6786527], [127.9784648, 26.6785564], [127.9785338, 26.6784901], [127.9785934, 26.67844], [127.9789981, 26.6782219], [127.9791032, 26.6781605], [127.9791706, 26.678108], [127.9792266, 26.678052], [127.9792722, 26.6779953], [127.9793167, 26.6779262], [127.9793574, 26.6778533], [127.9795653, 26.6773315], [127.9796159, 26.6771914], [127.9796318, 26.6771113], [127.9796372, 26.6770296], [127.9796355, 26.6769392], [127.9796155, 26.6768465], [127.9795831, 26.6767554], [127.9795322, 26.6766546], [127.9794192, 26.676473], [127.9792631, 26.676211], [127.9792066, 26.6760986], [127.9791575, 26.6759808], [127.979107, 26.6758539], [127.9788739, 26.6750984], [127.9788513, 26.6750187], [127.9788315, 26.6749421], [127.9788187, 26.6748432], [127.9788168, 26.6747361], [127.9788236, 26.6746334], [127.9788387, 26.6745276], [127.9789331, 26.6740072], [127.9790059, 26.6736547], [127.9790848, 26.67329], [127.9791033, 26.6731513], [127.979112, 26.6730436], [127.9791164, 26.6729493], [127.9791081, 26.6728262], [127.9790777, 26.6727036], [127.9790019, 26.6725122], [127.9788441, 26.6721559], [127.9784637, 26.6712802], [127.9784028, 26.6711317], [127.9783746, 26.6710335], [127.9783649, 26.6709369], [127.9783575, 26.6708172], [127.9783664, 26.6706907], [127.9783861, 26.6705774], [127.9784873, 26.6702408], [127.9785067, 26.6701404], [127.9785185, 26.6700389], [127.9785203, 26.6699497], [127.9785135, 26.6698461], [127.9784947, 26.6697409], [127.978358, 26.669038], [127.9783379, 26.6689168], [127.9783291, 26.6688211], [127.9783268, 26.6687284], [127.9783332, 26.6686036], [127.9783486, 26.6684763], [127.9783805, 26.6683477], [127.9784246, 26.6682272], [127.9784715, 26.6681256], [127.9785249, 26.6680338], [127.9785858, 26.6679368], [127.9786864, 26.667789], [127.9787574, 26.667688], [127.978981, 26.6673612], [127.9792001, 26.6670444], [127.9792542, 26.6669597], [127.9792995, 26.6668697], [127.9793327, 26.6667812], [127.979354, 26.666702], [127.9793688, 26.6666121], [127.9793807, 26.6664854], [127.9793851, 26.6663086], [127.9793877, 26.6653576], [127.9794146, 26.663916], [127.9794221, 26.6637774], [127.979439, 26.6636747], [127.9794589, 26.6635605], [127.9794922, 26.6634459], [127.9795308, 26.6633426], [127.9795908, 26.6631975], [127.9797505, 26.6628239], [127.9799896, 26.6622851], [127.9800437, 26.6621751], [127.9801019, 26.6620737], [127.980415, 26.6615565], [127.9808762, 26.6607929], [127.9809532, 26.6606792], [127.9810242, 26.660586], [127.9811015, 26.660501], [127.981195, 26.660413], [127.9812868, 26.6603291], [127.9818539, 26.6598384], [127.9820265, 26.6596905], [127.9822433, 26.659512], [127.9826017, 26.6592329], [127.9833316, 26.6586783], [127.9834171, 26.6586132], [127.9839267, 26.65822], [127.9840378, 26.6581343], [127.9841193, 26.658061], [127.9841893, 26.6579859], [127.9842472, 26.6579167], [127.9842958, 26.657839], [127.9843268, 26.6577775], [127.9843522, 26.6577128], [127.9843784, 26.6576366], [127.9843945, 26.6575669], [127.9844017, 26.6574914], [127.9844032, 26.6574215], [127.9843957, 26.6573532], [127.9843835, 26.6572736], [127.9843645, 26.6571974], [127.9843315, 26.6571119], [127.9842656, 26.6569871], [127.9842285, 26.6569253], [127.9840401, 26.6566222], [127.9838373, 26.6563117], [127.9837367, 26.6561593], [127.9836452, 26.6560272], [127.9835507, 26.6558971], [127.9833876, 26.6556972], [127.9833274, 26.6556238], [127.9832533, 26.6555374], [127.9829903, 26.6552459], [127.9829263, 26.6551664], [127.9828749, 26.655083], [127.982832, 26.655003], [127.9827313, 26.6547888], [127.9826886, 26.6547063], [127.9826439, 26.6546369], [127.9825984, 26.6545802], [127.9825384, 26.654525], [127.9824247, 26.6544469], [127.9822929, 26.6543673], [127.9821384, 26.6542833], [127.981685, 26.6540229], [127.9815914, 26.6539611], [127.9815251, 26.6539154], [127.9814695, 26.6538668], [127.9814282, 26.6538195], [127.9813877, 26.6537654], [127.9810764, 26.6533228], [127.9810504, 26.6532815], [127.9809885, 26.6531823], [127.9809453, 26.6530902], [127.9809185, 26.6530085], [127.9809012, 26.6529308], [127.9808944, 26.652861], [127.9808988, 26.6527728], [127.9809097, 26.6527016], [127.9809344, 26.6526213], [127.9809973, 26.6524437], [127.9810659, 26.652283], [127.9811725, 26.6520563], [127.9814211, 26.6515555], [127.9814555, 26.6514859], [127.9815015, 26.6513939], [127.9816165, 26.6511512], [127.9816595, 26.6510667], [127.9818843, 26.6506092], [127.981904, 26.6505676], [127.9819184, 26.6505384], [127.9822461, 26.649833], [127.9823793, 26.6495375], [127.9824036, 26.6494832], [127.9824206, 26.6494429], [127.9824538, 26.6493644], [127.9825209, 26.6492283], [127.9825912, 26.6491184], [127.982658, 26.6490398], [127.9828784, 26.6487987], [127.9834938, 26.6481785], [127.9835907, 26.6480851], [127.9836823, 26.6480092], [127.9838227, 26.6479166], [127.9847014, 26.6474089], [127.9848144, 26.6473539], [127.9849298, 26.6473088], [127.9850681, 26.6472652], [127.9851028, 26.6472564], [127.985268, 26.647212], [127.9864479, 26.6468988], [127.9866155, 26.6468621], [127.9867872, 26.6468337], [127.9869421, 26.646813], [127.9870732, 26.646798], [127.9873533, 26.6467762], [127.9874867, 26.6467555], [127.9875938, 26.6467395], [127.9877512, 26.6467021], [127.9879292, 26.646654], [127.9883821, 26.6465408], [127.9884984, 26.6465151], [127.9886294, 26.6464955], [127.9887715, 26.6464767], [127.9889658, 26.6464536], [127.9893824, 26.6464205], [127.989571, 26.6464154], [127.9897032, 26.6464208], [127.9898098, 26.646436], [127.9899204, 26.6464559], [127.9900299, 26.646486], [127.9901164, 26.6465181], [127.9901999, 26.6465569], [127.9902825, 26.6465883], [127.9903617, 26.6466112], [127.9904408, 26.6466259], [127.9905286, 26.6466317], [127.9906242, 26.6466311], [127.9906994, 26.6466223], [127.9907979, 26.6465987], [127.9908752, 26.6465702], [127.9909577, 26.6465269], [127.9911146, 26.6464285], [127.9917593, 26.6460241], [127.9920446, 26.6458505], [127.9921719, 26.645779], [127.992277, 26.6457327], [127.9923905, 26.6456898], [127.992528, 26.6456478], [127.9930894, 26.6455329], [127.9937804, 26.6453591], [127.9940573, 26.6452754], [127.9942859, 26.6451997], [127.9945642, 26.6450806], [127.9949581, 26.6448764], [127.9963253, 26.6440864], [127.996604, 26.6439651], [127.9970749, 26.6438319], [127.9972739, 26.6437613], [127.9975379, 26.6436117], [127.9978526, 26.6434164], [127.998698, 26.6428972], [127.99897, 26.6427073], [127.9994272, 26.6423673], [127.999871, 26.6420215], [128.0003485, 26.6416774], [128.0007782, 26.641346], [128.0009565, 26.6411962], [128.0011075, 26.6410278], [128.0014302, 26.640651], [128.0017497, 26.640271], [128.0018676, 26.6401145], [128.0019414, 26.6399822], [128.002289, 26.6393058], [128.0024205, 26.6390786], [128.0025564, 26.6388857], [128.0027104, 26.6387065], [128.0028638, 26.6385404], [128.0035291, 26.6378592], [128.0036487, 26.6376976], [128.0037142, 26.6375725], [128.003749, 26.6374545], [128.0037609, 26.6373415], [128.0037592, 26.6372211], [128.0037229, 26.6370153], [128.0036614, 26.6367775], [128.003637, 26.636683], [128.003546, 26.636383], [128.00349, 26.636269], [128.0034295, 26.6361707], [128.0033497, 26.6360589], [128.0031675, 26.6358383], [128.0027657, 26.6353673], [128.0025655, 26.6351317], [128.0024856, 26.635019], [128.00241, 26.6349045], [128.0023525, 26.634792], [128.0023303, 26.6347392], [128.0023091, 26.6346805], [128.002295, 26.6346235], [128.0022799, 26.6345652], [128.0022652, 26.634495], [128.0022588, 26.6344081], [128.0022555, 26.6343067], [128.0022673, 26.6341858], [128.002294, 26.63407], [128.0023445, 26.6338898], [128.0024498, 26.6336177], [128.002595, 26.6333504], [128.0027126, 26.6331836], [128.0029032, 26.6329999], [128.003997, 26.6322512], [128.0041119, 26.6321732], [128.0042313, 26.632094], [128.0064585, 26.6305977], [128.0068, 26.6303833], [128.0070581, 26.6302561], [128.0073366, 26.6301598], [128.0076313, 26.6300871], [128.0079302, 26.6300544], [128.0080293, 26.6300544], [128.0082107, 26.6300544], [128.0085156, 26.6300798], [128.0087717, 26.6301307], [128.0090299, 26.6302034], [128.0092799, 26.6303106], [128.0101602, 26.6307055], [128.012294, 26.6316932], [128.0124907, 26.6317659], [128.0126211, 26.6317979], [128.0127224, 26.6318151], [128.0128584, 26.6318187], [128.0129871, 26.6318108], [128.0131408, 26.6317772], [128.0132435, 26.6317406], [128.0133392, 26.6316971], [128.0134749, 26.6316346], [128.0135902, 26.6315694], [128.0137138, 26.6315126], [128.0142164, 26.6313076], [128.0151065, 26.6310654], [128.0153497, 26.6309781], [128.0158926, 26.6307155], [128.0162142, 26.6305704], [128.0164949, 26.6304778], [128.0168839, 26.6303495], [128.0177085, 26.6301003], [128.0199912, 26.6293255], [128.0214837, 26.6287784], [128.02286, 26.6282712], [128.0231639, 26.6281324], [128.0233729, 26.6280113], [128.0235191, 26.6279178], [128.0236397, 26.6278364], [128.0237579, 26.6277416], [128.0238732, 26.6276301], [128.024061, 26.6274142], [128.0241764, 26.6272482], [128.0242462, 26.6271339], [128.0242918, 26.6270341], [128.0243284, 26.626895], [128.0243387, 26.6267681], [128.0243252, 26.6266342], [128.024293, 26.6265257], [128.024229, 26.6263489], [128.0242121, 26.6262456], [128.0242206, 26.6261567], [128.0242538, 26.6260538], [128.0243284, 26.6259589], [128.0244036, 26.6258754], [128.0244407, 26.6258444], [128.0245266, 26.6257827]]]}, "id": "relation/10548190"}]}